<?xml version="1.0" encoding="UTF-8"?>
<gpx version="1.1" creator="Eric Sichak trip reports" xmlns="http://www.topografix.com/GPX/1/1">
<metadata><name>LTCC Multiday Backcountry Ski Class – Day 2</name><time>2026-04-09T16:59:07Z</time></metadata>
<trk><name>LTCC Multiday Backcountry Ski Class – Day 2</name><type>ski</type><trkseg>
<trkpt lat="38.730341" lon="-120.022043"><ele>2556.6</ele><time>2026-04-09T16:59:07Z</time></trkpt>
<trkpt lat="38.730323" lon="-120.022053"><ele>2556.6</ele><time>2026-04-09T16:59:13Z</time></trkpt>
<trkpt lat="38.730346" lon="-120.022038"><ele>2555.8</ele><time>2026-04-09T16:59:30Z</time></trkpt>
<trkpt lat="38.730384" lon="-120.022136"><ele>2557.0</ele><time>2026-04-09T17:00:02Z</time></trkpt>
<trkpt lat="38.730318" lon="-120.022054"><ele>2556.6</ele><time>2026-04-09T17:00:21Z</time></trkpt>
<trkpt lat="38.730498" lon="-120.021940"><ele>2556.4</ele><time>2026-04-09T17:01:19Z</time></trkpt>
<trkpt lat="38.730586" lon="-120.021832"><ele>2557.0</ele><time>2026-04-09T17:02:07Z</time></trkpt>
<trkpt lat="38.730590" lon="-120.021858"><ele>2557.0</ele><time>2026-04-09T17:02:26Z</time></trkpt>
<trkpt lat="38.730566" lon="-120.021870"><ele>2556.2</ele><time>2026-04-09T17:03:03Z</time></trkpt>
<trkpt lat="38.730595" lon="-120.021715"><ele>2557.2</ele><time>2026-04-09T17:03:33Z</time></trkpt>
<trkpt lat="38.730582" lon="-120.021605"><ele>2556.6</ele><time>2026-04-09T17:03:45Z</time></trkpt>
<trkpt lat="38.730638" lon="-120.021578"><ele>2556.4</ele><time>2026-04-09T17:04:00Z</time></trkpt>
<trkpt lat="38.730853" lon="-120.021611"><ele>2557.0</ele><time>2026-04-09T17:04:25Z</time></trkpt>
<trkpt lat="38.730867" lon="-120.021855"><ele>2556.4</ele><time>2026-04-09T17:04:46Z</time></trkpt>
<trkpt lat="38.730902" lon="-120.021937"><ele>2556.0</ele><time>2026-04-09T17:04:52Z</time></trkpt>
<trkpt lat="38.731192" lon="-120.022104"><ele>2555.8</ele><time>2026-04-09T17:05:17Z</time></trkpt>
<trkpt lat="38.731298" lon="-120.022105"><ele>2555.2</ele><time>2026-04-09T17:05:28Z</time></trkpt>
<trkpt lat="38.731423" lon="-120.022004"><ele>2554.6</ele><time>2026-04-09T17:05:41Z</time></trkpt>
<trkpt lat="38.731564" lon="-120.022031"><ele>2554.8</ele><time>2026-04-09T17:05:59Z</time></trkpt>
<trkpt lat="38.731797" lon="-120.021982"><ele>2554.2</ele><time>2026-04-09T17:06:17Z</time></trkpt>
<trkpt lat="38.731899" lon="-120.021846"><ele>2553.8</ele><time>2026-04-09T17:06:30Z</time></trkpt>
<trkpt lat="38.732018" lon="-120.021754"><ele>2553.2</ele><time>2026-04-09T17:06:46Z</time></trkpt>
<trkpt lat="38.732247" lon="-120.021748"><ele>2554.0</ele><time>2026-04-09T17:07:20Z</time></trkpt>
<trkpt lat="38.732471" lon="-120.021797"><ele>2553.2</ele><time>2026-04-09T17:07:46Z</time></trkpt>
<trkpt lat="38.732625" lon="-120.021978"><ele>2554.4</ele><time>2026-04-09T17:08:05Z</time></trkpt>
<trkpt lat="38.732950" lon="-120.021981"><ele>2552.4</ele><time>2026-04-09T17:08:38Z</time></trkpt>
<trkpt lat="38.733063" lon="-120.022096"><ele>2550.6</ele><time>2026-04-09T17:08:55Z</time></trkpt>
<trkpt lat="38.733238" lon="-120.022135"><ele>2548.8</ele><time>2026-04-09T17:09:21Z</time></trkpt>
<trkpt lat="38.733256" lon="-120.022083"><ele>2549.0</ele><time>2026-04-09T17:09:35Z</time></trkpt>
<trkpt lat="38.733311" lon="-120.022237"><ele>2548.8</ele><time>2026-04-09T17:09:58Z</time></trkpt>
<trkpt lat="38.733481" lon="-120.022310"><ele>2548.2</ele><time>2026-04-09T17:10:20Z</time></trkpt>
<trkpt lat="38.733770" lon="-120.022596"><ele>2548.0</ele><time>2026-04-09T17:10:59Z</time></trkpt>
<trkpt lat="38.733842" lon="-120.022638"><ele>2547.2</ele><time>2026-04-09T17:11:07Z</time></trkpt>
<trkpt lat="38.734003" lon="-120.022652"><ele>2547.2</ele><time>2026-04-09T17:11:22Z</time></trkpt>
<trkpt lat="38.734212" lon="-120.022841"><ele>2547.2</ele><time>2026-04-09T17:11:48Z</time></trkpt>
<trkpt lat="38.734347" lon="-120.022918"><ele>2546.8</ele><time>2026-04-09T17:12:04Z</time></trkpt>
<trkpt lat="38.734519" lon="-120.023217"><ele>2545.4</ele><time>2026-04-09T17:12:36Z</time></trkpt>
<trkpt lat="38.734619" lon="-120.023315"><ele>2545.6</ele><time>2026-04-09T17:12:51Z</time></trkpt>
<trkpt lat="38.734799" lon="-120.023399"><ele>2545.0</ele><time>2026-04-09T17:13:09Z</time></trkpt>
<trkpt lat="38.734992" lon="-120.023586"><ele>2544.0</ele><time>2026-04-09T17:13:36Z</time></trkpt>
<trkpt lat="38.735215" lon="-120.023914"><ele>2543.8</ele><time>2026-04-09T17:14:13Z</time></trkpt>
<trkpt lat="38.735277" lon="-120.024122"><ele>2542.6</ele><time>2026-04-09T17:14:36Z</time></trkpt>
<trkpt lat="38.735311" lon="-120.024158"><ele>2542.8</ele><time>2026-04-09T17:14:41Z</time></trkpt>
<trkpt lat="38.735554" lon="-120.024249"><ele>2542.2</ele><time>2026-04-09T17:15:10Z</time></trkpt>
<trkpt lat="38.735748" lon="-120.024473"><ele>2541.0</ele><time>2026-04-09T17:15:37Z</time></trkpt>
<trkpt lat="38.735769" lon="-120.024540"><ele>2541.0</ele><time>2026-04-09T17:15:45Z</time></trkpt>
<trkpt lat="38.736059" lon="-120.024666"><ele>2539.0</ele><time>2026-04-09T17:16:14Z</time></trkpt>
<trkpt lat="38.736222" lon="-120.024835"><ele>2539.4</ele><time>2026-04-09T17:16:40Z</time></trkpt>
<trkpt lat="38.736218" lon="-120.024862"><ele>2538.4</ele><time>2026-04-09T17:17:06Z</time></trkpt>
<trkpt lat="38.736233" lon="-120.024844"><ele>2538.2</ele><time>2026-04-09T17:18:06Z</time></trkpt>
<trkpt lat="38.736228" lon="-120.024860"><ele>2541.0</ele><time>2026-04-09T17:18:45Z</time></trkpt>
<trkpt lat="38.736234" lon="-120.024838"><ele>2539.6</ele><time>2026-04-09T17:19:35Z</time></trkpt>
<trkpt lat="38.736193" lon="-120.024883"><ele>2539.2</ele><time>2026-04-09T17:20:06Z</time></trkpt>
<trkpt lat="38.736241" lon="-120.024851"><ele>2538.8</ele><time>2026-04-09T17:21:29Z</time></trkpt>
<trkpt lat="38.736354" lon="-120.025005"><ele>2539.0</ele><time>2026-04-09T17:21:51Z</time></trkpt>
<trkpt lat="38.736712" lon="-120.025197"><ele>2539.4</ele><time>2026-04-09T17:22:27Z</time></trkpt>
<trkpt lat="38.736882" lon="-120.025350"><ele>2540.0</ele><time>2026-04-09T17:22:49Z</time></trkpt>
<trkpt lat="38.736984" lon="-120.025522"><ele>2539.8</ele><time>2026-04-09T17:23:08Z</time></trkpt>
<trkpt lat="38.737011" lon="-120.025696"><ele>2541.0</ele><time>2026-04-09T17:23:25Z</time></trkpt>
<trkpt lat="38.737005" lon="-120.026074"><ele>2543.6</ele><time>2026-04-09T17:24:02Z</time></trkpt>
<trkpt lat="38.737097" lon="-120.026671"><ele>2548.4</ele><time>2026-04-09T17:24:54Z</time></trkpt>
<trkpt lat="38.737247" lon="-120.027304"><ele>2553.2</ele><time>2026-04-09T17:25:51Z</time></trkpt>
<trkpt lat="38.737304" lon="-120.027402"><ele>2554.8</ele><time>2026-04-09T17:26:04Z</time></trkpt>
<trkpt lat="38.737542" lon="-120.028056"><ele>2556.8</ele><time>2026-04-09T17:27:23Z</time></trkpt>
<trkpt lat="38.737434" lon="-120.028250"><ele>2557.8</ele><time>2026-04-09T17:27:52Z</time></trkpt>
<trkpt lat="38.737424" lon="-120.028549"><ele>2561.0</ele><time>2026-04-09T17:28:27Z</time></trkpt>
<trkpt lat="38.737310" lon="-120.028682"><ele>2563.4</ele><time>2026-04-09T17:28:49Z</time></trkpt>
<trkpt lat="38.737313" lon="-120.028852"><ele>2566.6</ele><time>2026-04-09T17:29:14Z</time></trkpt>
<trkpt lat="38.737260" lon="-120.028898"><ele>2567.6</ele><time>2026-04-09T17:29:32Z</time></trkpt>
<trkpt lat="38.737304" lon="-120.028997"><ele>2569.4</ele><time>2026-04-09T17:29:45Z</time></trkpt>
<trkpt lat="38.737426" lon="-120.029105"><ele>2573.0</ele><time>2026-04-09T17:30:06Z</time></trkpt>
<trkpt lat="38.737335" lon="-120.029420"><ele>2578.6</ele><time>2026-04-09T17:31:00Z</time></trkpt>
<trkpt lat="38.737357" lon="-120.029620"><ele>2581.0</ele><time>2026-04-09T17:31:24Z</time></trkpt>
<trkpt lat="38.737541" lon="-120.029982"><ele>2585.0</ele><time>2026-04-09T17:32:15Z</time></trkpt>
<trkpt lat="38.737625" lon="-120.030065"><ele>2584.8</ele><time>2026-04-09T17:32:27Z</time></trkpt>
<trkpt lat="38.737681" lon="-120.030239"><ele>2587.6</ele><time>2026-04-09T17:33:05Z</time></trkpt>
<trkpt lat="38.737746" lon="-120.030326"><ele>2589.4</ele><time>2026-04-09T17:33:21Z</time></trkpt>
<trkpt lat="38.737724" lon="-120.030346"><ele>2590.0</ele><time>2026-04-09T17:33:35Z</time></trkpt>
<trkpt lat="38.737813" lon="-120.030250"><ele>2587.8</ele><time>2026-04-09T17:33:45Z</time></trkpt>
<trkpt lat="38.737953" lon="-120.030209"><ele>2584.6</ele><time>2026-04-09T17:33:49Z</time></trkpt>
<trkpt lat="38.738028" lon="-120.030223"><ele>2583.6</ele><time>2026-04-09T17:33:53Z</time></trkpt>
<trkpt lat="38.738122" lon="-120.030320"><ele>2585.2</ele><time>2026-04-09T17:34:30Z</time></trkpt>
<trkpt lat="38.738133" lon="-120.030385"><ele>2586.4</ele><time>2026-04-09T17:34:40Z</time></trkpt>
<trkpt lat="38.738060" lon="-120.030424"><ele>2590.0</ele><time>2026-04-09T17:35:04Z</time></trkpt>
<trkpt lat="38.738107" lon="-120.030553"><ele>2593.4</ele><time>2026-04-09T17:35:33Z</time></trkpt>
<trkpt lat="38.738059" lon="-120.030566"><ele>2596.2</ele><time>2026-04-09T17:35:47Z</time></trkpt>
<trkpt lat="38.738067" lon="-120.030645"><ele>2598.0</ele><time>2026-04-09T17:35:57Z</time></trkpt>
<trkpt lat="38.738137" lon="-120.030726"><ele>2598.6</ele><time>2026-04-09T17:36:13Z</time></trkpt>
<trkpt lat="38.738171" lon="-120.030863"><ele>2601.2</ele><time>2026-04-09T17:36:30Z</time></trkpt>
<trkpt lat="38.738116" lon="-120.030970"><ele>2603.6</ele><time>2026-04-09T17:36:48Z</time></trkpt>
<trkpt lat="38.738123" lon="-120.031097"><ele>2605.4</ele><time>2026-04-09T17:37:04Z</time></trkpt>
<trkpt lat="38.738258" lon="-120.031272"><ele>2609.2</ele><time>2026-04-09T17:37:38Z</time></trkpt>
<trkpt lat="38.738449" lon="-120.031654"><ele>2615.2</ele><time>2026-04-09T17:38:36Z</time></trkpt>
<trkpt lat="38.738947" lon="-120.032365"><ele>2630.4</ele><time>2026-04-09T17:40:41Z</time></trkpt>
<trkpt lat="38.739072" lon="-120.032655"><ele>2637.2</ele><time>2026-04-09T17:41:27Z</time></trkpt>
<trkpt lat="38.739268" lon="-120.032976"><ele>2645.2</ele><time>2026-04-09T17:42:26Z</time></trkpt>
<trkpt lat="38.739305" lon="-120.033091"><ele>2648.6</ele><time>2026-04-09T17:43:28Z</time></trkpt>
<trkpt lat="38.739184" lon="-120.033085"><ele>2652.2</ele><time>2026-04-09T17:43:51Z</time></trkpt>
<trkpt lat="38.739148" lon="-120.033121"><ele>2653.8</ele><time>2026-04-09T17:44:23Z</time></trkpt>
<trkpt lat="38.739168" lon="-120.033113"><ele>2652.8</ele><time>2026-04-09T17:45:02Z</time></trkpt>
<trkpt lat="38.739157" lon="-120.033481"><ele>2657.4</ele><time>2026-04-09T17:46:36Z</time></trkpt>
<trkpt lat="38.739168" lon="-120.033570"><ele>2657.6</ele><time>2026-04-09T17:46:44Z</time></trkpt>
<trkpt lat="38.739241" lon="-120.033706"><ele>2659.8</ele><time>2026-04-09T17:47:02Z</time></trkpt>
<trkpt lat="38.739284" lon="-120.034335"><ele>2665.4</ele><time>2026-04-09T17:48:11Z</time></trkpt>
<trkpt lat="38.739259" lon="-120.034458"><ele>2667.6</ele><time>2026-04-09T17:48:26Z</time></trkpt>
<trkpt lat="38.739400" lon="-120.034768"><ele>2669.4</ele><time>2026-04-09T17:49:07Z</time></trkpt>
<trkpt lat="38.739361" lon="-120.034761"><ele>2670.0</ele><time>2026-04-09T17:49:49Z</time></trkpt>
<trkpt lat="38.739372" lon="-120.034736"><ele>2671.2</ele><time>2026-04-09T17:50:34Z</time></trkpt>
<trkpt lat="38.739393" lon="-120.034758"><ele>2671.4</ele><time>2026-04-09T17:50:49Z</time></trkpt>
<trkpt lat="38.739374" lon="-120.034727"><ele>2671.6</ele><time>2026-04-09T17:52:00Z</time></trkpt>
<trkpt lat="38.739399" lon="-120.034746"><ele>2671.4</ele><time>2026-04-09T17:52:16Z</time></trkpt>
<trkpt lat="38.739360" lon="-120.034744"><ele>2671.4</ele><time>2026-04-09T17:52:31Z</time></trkpt>
<trkpt lat="38.739367" lon="-120.034760"><ele>2673.6</ele><time>2026-04-09T17:53:00Z</time></trkpt>
<trkpt lat="38.739357" lon="-120.034720"><ele>2673.2</ele><time>2026-04-09T17:53:25Z</time></trkpt>
<trkpt lat="38.739376" lon="-120.034740"><ele>2673.4</ele><time>2026-04-09T17:53:40Z</time></trkpt>
<trkpt lat="38.739346" lon="-120.034776"><ele>2673.8</ele><time>2026-04-09T17:54:04Z</time></trkpt>
<trkpt lat="38.739397" lon="-120.034739"><ele>2674.0</ele><time>2026-04-09T17:54:43Z</time></trkpt>
<trkpt lat="38.739395" lon="-120.034788"><ele>2675.2</ele><time>2026-04-09T17:54:57Z</time></trkpt>
<trkpt lat="38.739407" lon="-120.034742"><ele>2674.8</ele><time>2026-04-09T17:55:06Z</time></trkpt>
<trkpt lat="38.739373" lon="-120.034737"><ele>2677.2</ele><time>2026-04-09T17:55:49Z</time></trkpt>
<trkpt lat="38.739404" lon="-120.034774"><ele>2677.6</ele><time>2026-04-09T17:56:12Z</time></trkpt>
<trkpt lat="38.739384" lon="-120.034737"><ele>2676.8</ele><time>2026-04-09T17:56:28Z</time></trkpt>
<trkpt lat="38.739377" lon="-120.034774"><ele>2677.8</ele><time>2026-04-09T17:56:42Z</time></trkpt>
<trkpt lat="38.739314" lon="-120.034749"><ele>2677.6</ele><time>2026-04-09T17:56:53Z</time></trkpt>
<trkpt lat="38.739414" lon="-120.034773"><ele>2676.8</ele><time>2026-04-09T17:57:41Z</time></trkpt>
<trkpt lat="38.739369" lon="-120.034777"><ele>2676.4</ele><time>2026-04-09T17:58:08Z</time></trkpt>
<trkpt lat="38.739397" lon="-120.034750"><ele>2676.6</ele><time>2026-04-09T17:58:51Z</time></trkpt>
<trkpt lat="38.739396" lon="-120.034818"><ele>2676.2</ele><time>2026-04-09T17:59:02Z</time></trkpt>
<trkpt lat="38.739353" lon="-120.034784"><ele>2675.8</ele><time>2026-04-09T17:59:38Z</time></trkpt>
<trkpt lat="38.739406" lon="-120.034768"><ele>2676.0</ele><time>2026-04-09T18:00:05Z</time></trkpt>
<trkpt lat="38.739394" lon="-120.034831"><ele>2675.8</ele><time>2026-04-09T18:00:47Z</time></trkpt>
<trkpt lat="38.739378" lon="-120.034769"><ele>2675.6</ele><time>2026-04-09T18:01:30Z</time></trkpt>
<trkpt lat="38.739407" lon="-120.034736"><ele>2676.0</ele><time>2026-04-09T18:01:49Z</time></trkpt>
<trkpt lat="38.739373" lon="-120.034766"><ele>2676.6</ele><time>2026-04-09T18:02:07Z</time></trkpt>
<trkpt lat="38.739368" lon="-120.034837"><ele>2676.6</ele><time>2026-04-09T18:02:34Z</time></trkpt>
<trkpt lat="38.739391" lon="-120.034778"><ele>2676.8</ele><time>2026-04-09T18:02:52Z</time></trkpt>
<trkpt lat="38.739386" lon="-120.034743"><ele>2677.4</ele><time>2026-04-09T18:03:22Z</time></trkpt>
<trkpt lat="38.739369" lon="-120.034784"><ele>2677.8</ele><time>2026-04-09T18:03:59Z</time></trkpt>
<trkpt lat="38.739371" lon="-120.034721"><ele>2677.2</ele><time>2026-04-09T18:04:17Z</time></trkpt>
<trkpt lat="38.739402" lon="-120.034754"><ele>2676.6</ele><time>2026-04-09T18:04:37Z</time></trkpt>
<trkpt lat="38.739250" lon="-120.034925"><ele>2679.6</ele><time>2026-04-09T18:05:33Z</time></trkpt>
<trkpt lat="38.739158" lon="-120.034894"><ele>2680.2</ele><time>2026-04-09T18:05:43Z</time></trkpt>
<trkpt lat="38.738887" lon="-120.034934"><ele>2683.8</ele><time>2026-04-09T18:06:46Z</time></trkpt>
<trkpt lat="38.738893" lon="-120.034964"><ele>2683.8</ele><time>2026-04-09T18:07:05Z</time></trkpt>
<trkpt lat="38.738926" lon="-120.034956"><ele>2682.8</ele><time>2026-04-09T18:07:48Z</time></trkpt>
<trkpt lat="38.738896" lon="-120.034947"><ele>2683.2</ele><time>2026-04-09T18:08:10Z</time></trkpt>
<trkpt lat="38.738909" lon="-120.035000"><ele>2683.4</ele><time>2026-04-09T18:09:14Z</time></trkpt>
<trkpt lat="38.738898" lon="-120.034965"><ele>2684.6</ele><time>2026-04-09T18:09:36Z</time></trkpt>
<trkpt lat="38.738905" lon="-120.035003"><ele>2685.0</ele><time>2026-04-09T18:09:46Z</time></trkpt>
<trkpt lat="38.738802" lon="-120.035018"><ele>2684.8</ele><time>2026-04-09T18:10:02Z</time></trkpt>
<trkpt lat="38.738581" lon="-120.034852"><ele>2687.8</ele><time>2026-04-09T18:10:36Z</time></trkpt>
<trkpt lat="38.738479" lon="-120.034703"><ele>2690.6</ele><time>2026-04-09T18:10:58Z</time></trkpt>
<trkpt lat="38.738375" lon="-120.034613"><ele>2692.6</ele><time>2026-04-09T18:11:22Z</time></trkpt>
<trkpt lat="38.737920" lon="-120.034533"><ele>2703.2</ele><time>2026-04-09T18:12:49Z</time></trkpt>
<trkpt lat="38.737684" lon="-120.034394"><ele>2711.4</ele><time>2026-04-09T18:13:44Z</time></trkpt>
<trkpt lat="38.737466" lon="-120.034737"><ele>2720.8</ele><time>2026-04-09T18:14:48Z</time></trkpt>
<trkpt lat="38.737334" lon="-120.034427"><ele>2727.8</ele><time>2026-04-09T18:15:38Z</time></trkpt>
<trkpt lat="38.737285" lon="-120.034418"><ele>2729.2</ele><time>2026-04-09T18:15:45Z</time></trkpt>
<trkpt lat="38.737208" lon="-120.034481"><ele>2730.8</ele><time>2026-04-09T18:16:04Z</time></trkpt>
<trkpt lat="38.737152" lon="-120.034648"><ele>2733.2</ele><time>2026-04-09T18:16:26Z</time></trkpt>
<trkpt lat="38.736949" lon="-120.034380"><ele>2737.0</ele><time>2026-04-09T18:17:22Z</time></trkpt>
<trkpt lat="38.736745" lon="-120.034306"><ele>2742.8</ele><time>2026-04-09T18:18:04Z</time></trkpt>
<trkpt lat="38.736701" lon="-120.034350"><ele>2744.6</ele><time>2026-04-09T18:18:22Z</time></trkpt>
<trkpt lat="38.736669" lon="-120.034480"><ele>2745.2</ele><time>2026-04-09T18:18:46Z</time></trkpt>
<trkpt lat="38.736593" lon="-120.034616"><ele>2748.6</ele><time>2026-04-09T18:19:13Z</time></trkpt>
<trkpt lat="38.736526" lon="-120.034935"><ele>2754.2</ele><time>2026-04-09T18:20:12Z</time></trkpt>
<trkpt lat="38.736358" lon="-120.034812"><ele>2759.6</ele><time>2026-04-09T18:20:53Z</time></trkpt>
<trkpt lat="38.736315" lon="-120.034820"><ele>2760.4</ele><time>2026-04-09T18:21:01Z</time></trkpt>
<trkpt lat="38.736274" lon="-120.034840"><ele>2762.6</ele><time>2026-04-09T18:21:31Z</time></trkpt>
<trkpt lat="38.736281" lon="-120.034865"><ele>2761.6</ele><time>2026-04-09T18:21:50Z</time></trkpt>
<trkpt lat="38.736255" lon="-120.034901"><ele>2764.2</ele><time>2026-04-09T18:23:07Z</time></trkpt>
<trkpt lat="38.736251" lon="-120.034855"><ele>2764.4</ele><time>2026-04-09T18:25:17Z</time></trkpt>
<trkpt lat="38.736245" lon="-120.034903"><ele>2764.0</ele><time>2026-04-09T18:26:25Z</time></trkpt>
<trkpt lat="38.736262" lon="-120.034887"><ele>2765.8</ele><time>2026-04-09T18:26:55Z</time></trkpt>
<trkpt lat="38.736248" lon="-120.034894"><ele>2770.2</ele><time>2026-04-09T18:29:29Z</time></trkpt>
<trkpt lat="38.736266" lon="-120.034873"><ele>2768.8</ele><time>2026-04-09T18:29:58Z</time></trkpt>
<trkpt lat="38.736226" lon="-120.034958"><ele>2768.8</ele><time>2026-04-09T18:30:28Z</time></trkpt>
<trkpt lat="38.736187" lon="-120.034949"><ele>2768.4</ele><time>2026-04-09T18:31:11Z</time></trkpt>
<trkpt lat="38.736193" lon="-120.034956"><ele>2771.2</ele><time>2026-04-09T18:31:43Z</time></trkpt>
<trkpt lat="38.736015" lon="-120.035056"><ele>2776.0</ele><time>2026-04-09T18:32:20Z</time></trkpt>
<trkpt lat="38.735827" lon="-120.035191"><ele>2783.0</ele><time>2026-04-09T18:33:05Z</time></trkpt>
<trkpt lat="38.735741" lon="-120.035297"><ele>2788.4</ele><time>2026-04-09T18:33:34Z</time></trkpt>
<trkpt lat="38.735717" lon="-120.035423"><ele>2790.6</ele><time>2026-04-09T18:33:56Z</time></trkpt>
<trkpt lat="38.735723" lon="-120.035685"><ele>2797.6</ele><time>2026-04-09T18:34:44Z</time></trkpt>
<trkpt lat="38.735616" lon="-120.035669"><ele>2800.6</ele><time>2026-04-09T18:35:09Z</time></trkpt>
<trkpt lat="38.735654" lon="-120.035991"><ele>2806.4</ele><time>2026-04-09T18:35:53Z</time></trkpt>
<trkpt lat="38.735562" lon="-120.035921"><ele>2809.2</ele><time>2026-04-09T18:36:27Z</time></trkpt>
<trkpt lat="38.735622" lon="-120.036265"><ele>2813.4</ele><time>2026-04-09T18:37:28Z</time></trkpt>
<trkpt lat="38.735651" lon="-120.036637"><ele>2820.8</ele><time>2026-04-09T18:38:26Z</time></trkpt>
<trkpt lat="38.735535" lon="-120.036589"><ele>2825.0</ele><time>2026-04-09T18:38:50Z</time></trkpt>
<trkpt lat="38.735556" lon="-120.036721"><ele>2827.8</ele><time>2026-04-09T18:39:07Z</time></trkpt>
<trkpt lat="38.735311" lon="-120.036531"><ele>2835.2</ele><time>2026-04-09T18:40:04Z</time></trkpt>
<trkpt lat="38.735268" lon="-120.036557"><ele>2836.8</ele><time>2026-04-09T18:40:28Z</time></trkpt>
<trkpt lat="38.735142" lon="-120.036518"><ele>2840.4</ele><time>2026-04-09T18:40:50Z</time></trkpt>
<trkpt lat="38.735151" lon="-120.036652"><ele>2843.4</ele><time>2026-04-09T18:41:20Z</time></trkpt>
<trkpt lat="38.735184" lon="-120.036783"><ele>2846.0</ele><time>2026-04-09T18:41:36Z</time></trkpt>
<trkpt lat="38.735277" lon="-120.037024"><ele>2846.0</ele><time>2026-04-09T18:41:56Z</time></trkpt>
<trkpt lat="38.735263" lon="-120.037028"><ele>2850.6</ele><time>2026-04-09T18:45:07Z</time></trkpt>
<trkpt lat="38.735442" lon="-120.037188"><ele>2848.6</ele><time>2026-04-09T18:47:35Z</time></trkpt>
<trkpt lat="38.735679" lon="-120.037542"><ele>2847.0</ele><time>2026-04-09T18:48:01Z</time></trkpt>
<trkpt lat="38.735903" lon="-120.038009"><ele>2849.8</ele><time>2026-04-09T18:48:54Z</time></trkpt>
<trkpt lat="38.736164" lon="-120.038418"><ele>2853.6</ele><time>2026-04-09T18:50:00Z</time></trkpt>
<trkpt lat="38.736228" lon="-120.038623"><ele>2855.6</ele><time>2026-04-09T18:50:31Z</time></trkpt>
<trkpt lat="38.736448" lon="-120.038849"><ele>2856.4</ele><time>2026-04-09T18:51:20Z</time></trkpt>
<trkpt lat="38.736539" lon="-120.039030"><ele>2857.6</ele><time>2026-04-09T18:51:58Z</time></trkpt>
<trkpt lat="38.736483" lon="-120.039117"><ele>2858.2</ele><time>2026-04-09T18:52:18Z</time></trkpt>
<trkpt lat="38.736565" lon="-120.039250"><ele>2860.4</ele><time>2026-04-09T18:52:38Z</time></trkpt>
<trkpt lat="38.736544" lon="-120.039386"><ele>2863.0</ele><time>2026-04-09T18:52:56Z</time></trkpt>
<trkpt lat="38.736593" lon="-120.039412"><ele>2863.6</ele><time>2026-04-09T18:53:08Z</time></trkpt>
<trkpt lat="38.736618" lon="-120.039390"><ele>2863.0</ele><time>2026-04-09T18:53:29Z</time></trkpt>
<trkpt lat="38.736620" lon="-120.039295"><ele>2860.4</ele><time>2026-04-09T18:54:06Z</time></trkpt>
<trkpt lat="38.736616" lon="-120.039311"><ele>2861.8</ele><time>2026-04-09T18:54:39Z</time></trkpt>
<trkpt lat="38.736658" lon="-120.039311"><ele>2861.8</ele><time>2026-04-09T18:56:10Z</time></trkpt>
<trkpt lat="38.736625" lon="-120.039319"><ele>2865.8</ele><time>2026-04-09T18:58:49Z</time></trkpt>
<trkpt lat="38.736625" lon="-120.039319"><ele>2862.2</ele><time>2026-04-09T19:02:32Z</time></trkpt>
<trkpt lat="38.736646" lon="-120.039314"><ele>2863.2</ele><time>2026-04-09T19:02:48Z</time></trkpt>
<trkpt lat="38.736633" lon="-120.039324"><ele>2861.2</ele><time>2026-04-09T19:03:20Z</time></trkpt>
<trkpt lat="38.736606" lon="-120.039352"><ele>2863.4</ele><time>2026-04-09T19:04:05Z</time></trkpt>
<trkpt lat="38.736610" lon="-120.039374"><ele>2860.0</ele><time>2026-04-09T19:05:24Z</time></trkpt>
<trkpt lat="38.736595" lon="-120.039359"><ele>2862.2</ele><time>2026-04-09T19:08:42Z</time></trkpt>
<trkpt lat="38.736607" lon="-120.039337"><ele>2861.2</ele><time>2026-04-09T19:09:25Z</time></trkpt>
<trkpt lat="38.736609" lon="-120.039365"><ele>2865.2</ele><time>2026-04-09T19:15:17Z</time></trkpt>
<trkpt lat="38.736557" lon="-120.039357"><ele>2863.4</ele><time>2026-04-09T19:15:41Z</time></trkpt>
<trkpt lat="38.736565" lon="-120.039264"><ele>2862.8</ele><time>2026-04-09T19:15:47Z</time></trkpt>
<trkpt lat="38.736493" lon="-120.039099"><ele>2860.2</ele><time>2026-04-09T19:15:51Z</time></trkpt>
<trkpt lat="38.736522" lon="-120.039017"><ele>2859.6</ele><time>2026-04-09T19:15:55Z</time></trkpt>
<trkpt lat="38.736504" lon="-120.038964"><ele>2859.4</ele><time>2026-04-09T19:16:02Z</time></trkpt>
<trkpt lat="38.736547" lon="-120.039009"><ele>2858.6</ele><time>2026-04-09T19:17:01Z</time></trkpt>
<trkpt lat="38.736511" lon="-120.038893"><ele>2858.2</ele><time>2026-04-09T19:17:20Z</time></trkpt>
<trkpt lat="38.736537" lon="-120.038793"><ele>2855.6</ele><time>2026-04-09T19:17:26Z</time></trkpt>
<trkpt lat="38.736566" lon="-120.038799"><ele>2853.6</ele><time>2026-04-09T19:17:27Z</time></trkpt>
<trkpt lat="38.736676" lon="-120.038625"><ele>2842.0</ele><time>2026-04-09T19:17:31Z</time></trkpt>
<trkpt lat="38.736705" lon="-120.038492"><ele>2836.2</ele><time>2026-04-09T19:17:33Z</time></trkpt>
<trkpt lat="38.736835" lon="-120.038495"><ele>2829.6</ele><time>2026-04-09T19:17:36Z</time></trkpt>
<trkpt lat="38.736817" lon="-120.038198"><ele>2819.6</ele><time>2026-04-09T19:17:40Z</time></trkpt>
<trkpt lat="38.736863" lon="-120.037881"><ele>2815.2</ele><time>2026-04-09T19:17:44Z</time></trkpt>
<trkpt lat="38.737014" lon="-120.037823"><ele>2806.6</ele><time>2026-04-09T19:17:48Z</time></trkpt>
<trkpt lat="38.737120" lon="-120.037868"><ele>2802.2</ele><time>2026-04-09T19:17:50Z</time></trkpt>
<trkpt lat="38.737340" lon="-120.037704"><ele>2790.0</ele><time>2026-04-09T19:17:55Z</time></trkpt>
<trkpt lat="38.737448" lon="-120.037696"><ele>2784.0</ele><time>2026-04-09T19:17:57Z</time></trkpt>
<trkpt lat="38.737462" lon="-120.037647"><ele>2782.0</ele><time>2026-04-09T19:17:58Z</time></trkpt>
<trkpt lat="38.737520" lon="-120.037624"><ele>2780.0</ele><time>2026-04-09T19:17:59Z</time></trkpt>
<trkpt lat="38.737749" lon="-120.037699"><ele>2772.8</ele><time>2026-04-09T19:18:03Z</time></trkpt>
<trkpt lat="38.737790" lon="-120.037685"><ele>2771.6</ele><time>2026-04-09T19:18:04Z</time></trkpt>
<trkpt lat="38.737805" lon="-120.037628"><ele>2770.0</ele><time>2026-04-09T19:18:05Z</time></trkpt>
<trkpt lat="38.737767" lon="-120.037522"><ele>2766.8</ele><time>2026-04-09T19:18:07Z</time></trkpt>
<trkpt lat="38.737765" lon="-120.037522"><ele>2762.2</ele><time>2026-04-09T19:20:57Z</time></trkpt>
<trkpt lat="38.737787" lon="-120.037199"><ele>2756.6</ele><time>2026-04-09T19:21:03Z</time></trkpt>
<trkpt lat="38.737843" lon="-120.037176"><ele>2752.6</ele><time>2026-04-09T19:21:06Z</time></trkpt>
<trkpt lat="38.737837" lon="-120.037182"><ele>2749.8</ele><time>2026-04-09T19:21:08Z</time></trkpt>
<trkpt lat="38.737936" lon="-120.037184"><ele>2745.8</ele><time>2026-04-09T19:21:13Z</time></trkpt>
<trkpt lat="38.737983" lon="-120.037109"><ele>2737.2</ele><time>2026-04-09T19:21:15Z</time></trkpt>
<trkpt lat="38.737994" lon="-120.036934"><ele>2732.8</ele><time>2026-04-09T19:21:18Z</time></trkpt>
<trkpt lat="38.738216" lon="-120.037005"><ele>2720.6</ele><time>2026-04-09T19:21:23Z</time></trkpt>
<trkpt lat="38.738265" lon="-120.036838"><ele>2713.2</ele><time>2026-04-09T19:21:26Z</time></trkpt>
<trkpt lat="38.738340" lon="-120.036811"><ele>2708.2</ele><time>2026-04-09T19:21:28Z</time></trkpt>
<trkpt lat="38.738418" lon="-120.036671"><ele>2700.4</ele><time>2026-04-09T19:21:31Z</time></trkpt>
<trkpt lat="38.738476" lon="-120.036622"><ele>2698.2</ele><time>2026-04-09T19:21:32Z</time></trkpt>
<trkpt lat="38.738643" lon="-120.036610"><ele>2691.8</ele><time>2026-04-09T19:21:35Z</time></trkpt>
<trkpt lat="38.738694" lon="-120.036642"><ele>2687.0</ele><time>2026-04-09T19:21:43Z</time></trkpt>
<trkpt lat="38.738682" lon="-120.036596"><ele>2685.6</ele><time>2026-04-09T19:22:25Z</time></trkpt>
<trkpt lat="38.738704" lon="-120.036557"><ele>2686.6</ele><time>2026-04-09T19:25:11Z</time></trkpt>
<trkpt lat="38.738687" lon="-120.036518"><ele>2684.6</ele><time>2026-04-09T19:26:51Z</time></trkpt>
<trkpt lat="38.738777" lon="-120.036228"><ele>2680.0</ele><time>2026-04-09T19:26:56Z</time></trkpt>
<trkpt lat="38.738973" lon="-120.036023"><ele>2673.8</ele><time>2026-04-09T19:27:00Z</time></trkpt>
<trkpt lat="38.739048" lon="-120.035843"><ele>2669.8</ele><time>2026-04-09T19:27:03Z</time></trkpt>
<trkpt lat="38.739281" lon="-120.035586"><ele>2664.0</ele><time>2026-04-09T19:27:08Z</time></trkpt>
<trkpt lat="38.739623" lon="-120.035428"><ele>2657.4</ele><time>2026-04-09T19:27:15Z</time></trkpt>
<trkpt lat="38.739721" lon="-120.035460"><ele>2655.6</ele><time>2026-04-09T19:27:17Z</time></trkpt>
<trkpt lat="38.739785" lon="-120.035571"><ele>2654.6</ele><time>2026-04-09T19:28:58Z</time></trkpt>
<trkpt lat="38.739792" lon="-120.035533"><ele>2654.0</ele><time>2026-04-09T19:29:52Z</time></trkpt>
<trkpt lat="38.739783" lon="-120.035542"><ele>2657.4</ele><time>2026-04-09T19:31:17Z</time></trkpt>
<trkpt lat="38.739800" lon="-120.035512"><ele>2658.2</ele><time>2026-04-09T19:31:26Z</time></trkpt>
<trkpt lat="38.739788" lon="-120.035570"><ele>2658.2</ele><time>2026-04-09T19:32:31Z</time></trkpt>
<trkpt lat="38.739765" lon="-120.035513"><ele>2657.2</ele><time>2026-04-09T19:33:04Z</time></trkpt>
<trkpt lat="38.739799" lon="-120.035545"><ele>2658.8</ele><time>2026-04-09T19:34:21Z</time></trkpt>
<trkpt lat="38.739788" lon="-120.035548"><ele>2656.2</ele><time>2026-04-09T19:39:32Z</time></trkpt>
<trkpt lat="38.739814" lon="-120.035541"><ele>2654.6</ele><time>2026-04-09T19:48:27Z</time></trkpt>
<trkpt lat="38.739802" lon="-120.035520"><ele>2654.6</ele><time>2026-04-09T19:49:12Z</time></trkpt>
<trkpt lat="38.739789" lon="-120.035549"><ele>2653.8</ele><time>2026-04-09T19:50:05Z</time></trkpt>
<trkpt lat="38.739793" lon="-120.035513"><ele>2654.6</ele><time>2026-04-09T19:53:01Z</time></trkpt>
<trkpt lat="38.739790" lon="-120.035545"><ele>2654.6</ele><time>2026-04-09T19:53:48Z</time></trkpt>
<trkpt lat="38.739781" lon="-120.035530"><ele>2657.6</ele><time>2026-04-09T19:58:39Z</time></trkpt>
<trkpt lat="38.740014" lon="-120.035790"><ele>2656.6</ele><time>2026-04-09T19:59:22Z</time></trkpt>
<trkpt lat="38.740088" lon="-120.035965"><ele>2656.4</ele><time>2026-04-09T19:59:36Z</time></trkpt>
<trkpt lat="38.740231" lon="-120.036147"><ele>2655.0</ele><time>2026-04-09T19:59:53Z</time></trkpt>
<trkpt lat="38.740460" lon="-120.036581"><ele>2654.6</ele><time>2026-04-09T20:00:30Z</time></trkpt>
<trkpt lat="38.740778" lon="-120.036956"><ele>2655.0</ele><time>2026-04-09T20:01:10Z</time></trkpt>
<trkpt lat="38.741007" lon="-120.037380"><ele>2659.0</ele><time>2026-04-09T20:01:56Z</time></trkpt>
<trkpt lat="38.741045" lon="-120.037545"><ele>2658.8</ele><time>2026-04-09T20:02:10Z</time></trkpt>
<trkpt lat="38.741341" lon="-120.038143"><ele>2662.6</ele><time>2026-04-09T20:03:13Z</time></trkpt>
<trkpt lat="38.741529" lon="-120.038700"><ele>2663.8</ele><time>2026-04-09T20:04:06Z</time></trkpt>
<trkpt lat="38.741680" lon="-120.039321"><ele>2672.0</ele><time>2026-04-09T20:05:09Z</time></trkpt>
<trkpt lat="38.741766" lon="-120.039670"><ele>2671.0</ele><time>2026-04-09T20:05:37Z</time></trkpt>
<trkpt lat="38.741776" lon="-120.039844"><ele>2670.6</ele><time>2026-04-09T20:05:51Z</time></trkpt>
<trkpt lat="38.741735" lon="-120.040149"><ele>2670.0</ele><time>2026-04-09T20:06:20Z</time></trkpt>
<trkpt lat="38.741757" lon="-120.040314"><ele>2669.2</ele><time>2026-04-09T20:06:32Z</time></trkpt>
<trkpt lat="38.742080" lon="-120.040868"><ele>2662.4</ele><time>2026-04-09T20:07:19Z</time></trkpt>
<trkpt lat="38.742038" lon="-120.040828"><ele>2661.8</ele><time>2026-04-09T20:07:36Z</time></trkpt>
<trkpt lat="38.742029" lon="-120.040853"><ele>2660.6</ele><time>2026-04-09T20:07:49Z</time></trkpt>
<trkpt lat="38.742095" lon="-120.040867"><ele>2659.0</ele><time>2026-04-09T20:08:05Z</time></trkpt>
<trkpt lat="38.742061" lon="-120.040826"><ele>2661.0</ele><time>2026-04-09T20:08:48Z</time></trkpt>
<trkpt lat="38.742063" lon="-120.040870"><ele>2660.8</ele><time>2026-04-09T20:08:55Z</time></trkpt>
<trkpt lat="38.742032" lon="-120.040891"><ele>2660.8</ele><time>2026-04-09T20:10:00Z</time></trkpt>
<trkpt lat="38.742067" lon="-120.040874"><ele>2660.4</ele><time>2026-04-09T20:10:33Z</time></trkpt>
<trkpt lat="38.742041" lon="-120.040839"><ele>2660.2</ele><time>2026-04-09T20:10:48Z</time></trkpt>
<trkpt lat="38.742048" lon="-120.040879"><ele>2660.6</ele><time>2026-04-09T20:11:21Z</time></trkpt>
<trkpt lat="38.742081" lon="-120.040853"><ele>2659.8</ele><time>2026-04-09T20:11:38Z</time></trkpt>
<trkpt lat="38.742056" lon="-120.040895"><ele>2659.6</ele><time>2026-04-09T20:12:05Z</time></trkpt>
<trkpt lat="38.742063" lon="-120.040845"><ele>2659.2</ele><time>2026-04-09T20:12:17Z</time></trkpt>
<trkpt lat="38.742051" lon="-120.040917"><ele>2659.6</ele><time>2026-04-09T20:12:25Z</time></trkpt>
<trkpt lat="38.742066" lon="-120.040841"><ele>2663.8</ele><time>2026-04-09T20:13:08Z</time></trkpt>
<trkpt lat="38.742040" lon="-120.040823"><ele>2661.4</ele><time>2026-04-09T20:13:26Z</time></trkpt>
<trkpt lat="38.742072" lon="-120.040841"><ele>2662.0</ele><time>2026-04-09T20:13:36Z</time></trkpt>
<trkpt lat="38.742063" lon="-120.040868"><ele>2663.0</ele><time>2026-04-09T20:13:50Z</time></trkpt>
<trkpt lat="38.742062" lon="-120.040845"><ele>2661.8</ele><time>2026-04-09T20:14:22Z</time></trkpt>
<trkpt lat="38.742082" lon="-120.040862"><ele>2661.6</ele><time>2026-04-09T20:14:36Z</time></trkpt>
<trkpt lat="38.742071" lon="-120.040888"><ele>2663.4</ele><time>2026-04-09T20:15:12Z</time></trkpt>
<trkpt lat="38.742073" lon="-120.040835"><ele>2662.6</ele><time>2026-04-09T20:15:31Z</time></trkpt>
<trkpt lat="38.741779" lon="-120.040547"><ele>2666.2</ele><time>2026-04-09T20:16:22Z</time></trkpt>
<trkpt lat="38.741487" lon="-120.040102"><ele>2677.8</ele><time>2026-04-09T20:17:55Z</time></trkpt>
<trkpt lat="38.741440" lon="-120.039963"><ele>2681.2</ele><time>2026-04-09T20:18:31Z</time></trkpt>
<trkpt lat="38.741324" lon="-120.039800"><ele>2686.8</ele><time>2026-04-09T20:19:23Z</time></trkpt>
<trkpt lat="38.741154" lon="-120.039733"><ele>2693.6</ele><time>2026-04-09T20:21:07Z</time></trkpt>
<trkpt lat="38.741154" lon="-120.039746"><ele>2689.8</ele><time>2026-04-09T20:24:32Z</time></trkpt>
<trkpt lat="38.741148" lon="-120.039723"><ele>2691.4</ele><time>2026-04-09T20:24:51Z</time></trkpt>
<trkpt lat="38.741081" lon="-120.039745"><ele>2691.6</ele><time>2026-04-09T20:25:20Z</time></trkpt>
<trkpt lat="38.740860" lon="-120.039682"><ele>2698.6</ele><time>2026-04-09T20:26:32Z</time></trkpt>
<trkpt lat="38.740684" lon="-120.039710"><ele>2702.4</ele><time>2026-04-09T20:27:53Z</time></trkpt>
<trkpt lat="38.740484" lon="-120.039739"><ele>2713.2</ele><time>2026-04-09T20:28:54Z</time></trkpt>
<trkpt lat="38.740362" lon="-120.039785"><ele>2719.0</ele><time>2026-04-09T20:29:40Z</time></trkpt>
<trkpt lat="38.740395" lon="-120.039950"><ele>2723.0</ele><time>2026-04-09T20:30:21Z</time></trkpt>
<trkpt lat="38.740464" lon="-120.040105"><ele>2724.4</ele><time>2026-04-09T20:31:03Z</time></trkpt>
<trkpt lat="38.740512" lon="-120.040214"><ele>2729.8</ele><time>2026-04-09T20:31:42Z</time></trkpt>
<trkpt lat="38.740345" lon="-120.040245"><ele>2734.8</ele><time>2026-04-09T20:32:27Z</time></trkpt>
<trkpt lat="38.740311" lon="-120.040237"><ele>2738.4</ele><time>2026-04-09T20:32:50Z</time></trkpt>
<trkpt lat="38.740366" lon="-120.040407"><ele>2743.6</ele><time>2026-04-09T20:33:29Z</time></trkpt>
<trkpt lat="38.740130" lon="-120.040445"><ele>2753.4</ele><time>2026-04-09T20:34:35Z</time></trkpt>
<trkpt lat="38.740113" lon="-120.040502"><ele>2754.6</ele><time>2026-04-09T20:34:55Z</time></trkpt>
<trkpt lat="38.740096" lon="-120.040497"><ele>2752.8</ele><time>2026-04-09T20:35:32Z</time></trkpt>
<trkpt lat="38.740106" lon="-120.040549"><ele>2754.6</ele><time>2026-04-09T20:35:58Z</time></trkpt>
<trkpt lat="38.740059" lon="-120.040598"><ele>2754.2</ele><time>2026-04-09T20:36:17Z</time></trkpt>
<trkpt lat="38.739896" lon="-120.040620"><ele>2751.4</ele><time>2026-04-09T20:38:06Z</time></trkpt>
<trkpt lat="38.739814" lon="-120.040583"><ele>2753.2</ele><time>2026-04-09T20:39:18Z</time></trkpt>
<trkpt lat="38.739820" lon="-120.040551"><ele>2753.6</ele><time>2026-04-09T20:39:31Z</time></trkpt>
<trkpt lat="38.739544" lon="-120.040463"><ele>2759.8</ele><time>2026-04-09T20:40:30Z</time></trkpt>
<trkpt lat="38.739432" lon="-120.040384"><ele>2764.2</ele><time>2026-04-09T20:40:57Z</time></trkpt>
<trkpt lat="38.739116" lon="-120.040296"><ele>2774.4</ele><time>2026-04-09T20:42:24Z</time></trkpt>
<trkpt lat="38.738983" lon="-120.040421"><ele>2780.0</ele><time>2026-04-09T20:43:10Z</time></trkpt>
<trkpt lat="38.738960" lon="-120.040601"><ele>2784.2</ele><time>2026-04-09T20:43:40Z</time></trkpt>
<trkpt lat="38.738996" lon="-120.040731"><ele>2787.6</ele><time>2026-04-09T20:44:01Z</time></trkpt>
<trkpt lat="38.738969" lon="-120.040830"><ele>2789.4</ele><time>2026-04-09T20:44:20Z</time></trkpt>
<trkpt lat="38.738649" lon="-120.040930"><ele>2798.8</ele><time>2026-04-09T20:45:41Z</time></trkpt>
<trkpt lat="38.738661" lon="-120.041059"><ele>2801.6</ele><time>2026-04-09T20:46:01Z</time></trkpt>
<trkpt lat="38.738535" lon="-120.041197"><ele>2808.2</ele><time>2026-04-09T20:46:43Z</time></trkpt>
<trkpt lat="38.738484" lon="-120.041199"><ele>2809.8</ele><time>2026-04-09T20:46:52Z</time></trkpt>
<trkpt lat="38.738262" lon="-120.041355"><ele>2818.2</ele><time>2026-04-09T20:47:35Z</time></trkpt>
<trkpt lat="38.738204" lon="-120.041344"><ele>2820.6</ele><time>2026-04-09T20:47:50Z</time></trkpt>
<trkpt lat="38.738067" lon="-120.041472"><ele>2826.8</ele><time>2026-04-09T20:48:22Z</time></trkpt>
<trkpt lat="38.737999" lon="-120.041494"><ele>2829.0</ele><time>2026-04-09T20:48:38Z</time></trkpt>
<trkpt lat="38.737897" lon="-120.041617"><ele>2834.4</ele><time>2026-04-09T20:49:19Z</time></trkpt>
<trkpt lat="38.737781" lon="-120.041569"><ele>2838.8</ele><time>2026-04-09T20:49:53Z</time></trkpt>
<trkpt lat="38.737711" lon="-120.041703"><ele>2844.6</ele><time>2026-04-09T20:50:30Z</time></trkpt>
<trkpt lat="38.737658" lon="-120.041653"><ele>2847.8</ele><time>2026-04-09T20:51:17Z</time></trkpt>
<trkpt lat="38.737564" lon="-120.041635"><ele>2850.6</ele><time>2026-04-09T20:54:17Z</time></trkpt>
<trkpt lat="38.737537" lon="-120.041858"><ele>2857.0</ele><time>2026-04-09T20:54:54Z</time></trkpt>
<trkpt lat="38.737555" lon="-120.041896"><ele>2857.8</ele><time>2026-04-09T20:55:37Z</time></trkpt>
<trkpt lat="38.737527" lon="-120.041930"><ele>2861.2</ele><time>2026-04-09T20:56:27Z</time></trkpt>
<trkpt lat="38.737531" lon="-120.041941"><ele>2866.8</ele><time>2026-04-09T21:00:18Z</time></trkpt>
<trkpt lat="38.737505" lon="-120.041933"><ele>2865.6</ele><time>2026-04-09T21:00:42Z</time></trkpt>
<trkpt lat="38.737528" lon="-120.041942"><ele>2864.6</ele><time>2026-04-09T21:01:32Z</time></trkpt>
<trkpt lat="38.737515" lon="-120.041927"><ele>2863.4</ele><time>2026-04-09T21:01:53Z</time></trkpt>
<trkpt lat="38.737517" lon="-120.041954"><ele>2863.4</ele><time>2026-04-09T21:02:00Z</time></trkpt>
<trkpt lat="38.737514" lon="-120.041943"><ele>2867.4</ele><time>2026-04-09T21:03:00Z</time></trkpt>
<trkpt lat="38.737543" lon="-120.042263"><ele>2865.0</ele><time>2026-04-09T21:03:53Z</time></trkpt>
<trkpt lat="38.737520" lon="-120.042439"><ele>2862.4</ele><time>2026-04-09T21:04:05Z</time></trkpt>
<trkpt lat="38.737540" lon="-120.042746"><ele>2861.8</ele><time>2026-04-09T21:04:35Z</time></trkpt>
<trkpt lat="38.737384" lon="-120.043299"><ele>2866.0</ele><time>2026-04-09T21:05:16Z</time></trkpt>
<trkpt lat="38.737540" lon="-120.043551"><ele>2867.8</ele><time>2026-04-09T21:05:40Z</time></trkpt>
<trkpt lat="38.737542" lon="-120.043664"><ele>2869.2</ele><time>2026-04-09T21:05:49Z</time></trkpt>
<trkpt lat="38.737736" lon="-120.043932"><ele>2870.0</ele><time>2026-04-09T21:06:17Z</time></trkpt>
<trkpt lat="38.737776" lon="-120.044264"><ele>2872.6</ele><time>2026-04-09T21:06:42Z</time></trkpt>
<trkpt lat="38.737954" lon="-120.044982"><ele>2875.8</ele><time>2026-04-09T21:07:39Z</time></trkpt>
<trkpt lat="38.738080" lon="-120.045296"><ele>2877.6</ele><time>2026-04-09T21:08:10Z</time></trkpt>
<trkpt lat="38.738145" lon="-120.045526"><ele>2876.2</ele><time>2026-04-09T21:08:26Z</time></trkpt>
<trkpt lat="38.738275" lon="-120.045644"><ele>2875.0</ele><time>2026-04-09T21:08:44Z</time></trkpt>
<trkpt lat="38.738328" lon="-120.045790"><ele>2872.2</ele><time>2026-04-09T21:10:07Z</time></trkpt>
<trkpt lat="38.738349" lon="-120.045925"><ele>2871.0</ele><time>2026-04-09T21:10:15Z</time></trkpt>
<trkpt lat="38.738368" lon="-120.046258"><ele>2877.6</ele><time>2026-04-09T21:10:55Z</time></trkpt>
<trkpt lat="38.738394" lon="-120.046336"><ele>2876.0</ele><time>2026-04-09T21:11:09Z</time></trkpt>
<trkpt lat="38.738416" lon="-120.046300"><ele>2873.6</ele><time>2026-04-09T21:12:13Z</time></trkpt>
<trkpt lat="38.738416" lon="-120.046300"><ele>2876.6</ele><time>2026-04-09T21:13:05Z</time></trkpt>
<trkpt lat="38.738391" lon="-120.046276"><ele>2876.6</ele><time>2026-04-09T21:14:07Z</time></trkpt>
<trkpt lat="38.738418" lon="-120.046279"><ele>2877.4</ele><time>2026-04-09T21:14:21Z</time></trkpt>
<trkpt lat="38.738414" lon="-120.046302"><ele>2874.4</ele><time>2026-04-09T21:14:44Z</time></trkpt>
<trkpt lat="38.738394" lon="-120.046292"><ele>2876.2</ele><time>2026-04-09T21:14:54Z</time></trkpt>
<trkpt lat="38.738409" lon="-120.046308"><ele>2872.0</ele><time>2026-04-09T21:19:59Z</time></trkpt>
<trkpt lat="38.738381" lon="-120.046286"><ele>2871.2</ele><time>2026-04-09T21:20:06Z</time></trkpt>
<trkpt lat="38.738419" lon="-120.046322"><ele>2870.6</ele><time>2026-04-09T21:21:27Z</time></trkpt>
<trkpt lat="38.738472" lon="-120.046215"><ele>2869.0</ele><time>2026-04-09T21:22:34Z</time></trkpt>
<trkpt lat="38.738578" lon="-120.046427"><ele>2863.2</ele><time>2026-04-09T21:22:51Z</time></trkpt>
<trkpt lat="38.738615" lon="-120.046450"><ele>2861.2</ele><time>2026-04-09T21:22:52Z</time></trkpt>
<trkpt lat="38.738660" lon="-120.046401"><ele>2857.2</ele><time>2026-04-09T21:22:54Z</time></trkpt>
<trkpt lat="38.738707" lon="-120.046429"><ele>2854.8</ele><time>2026-04-09T21:22:55Z</time></trkpt>
<trkpt lat="38.738771" lon="-120.046398"><ele>2849.8</ele><time>2026-04-09T21:22:57Z</time></trkpt>
<trkpt lat="38.738801" lon="-120.046417"><ele>2847.4</ele><time>2026-04-09T21:22:58Z</time></trkpt>
<trkpt lat="38.739007" lon="-120.046216"><ele>2832.6</ele><time>2026-04-09T21:23:04Z</time></trkpt>
<trkpt lat="38.739039" lon="-120.046222"><ele>2830.4</ele><time>2026-04-09T21:23:05Z</time></trkpt>
<trkpt lat="38.739160" lon="-120.046124"><ele>2822.2</ele><time>2026-04-09T21:23:08Z</time></trkpt>
<trkpt lat="38.739219" lon="-120.046018"><ele>2815.4</ele><time>2026-04-09T21:23:10Z</time></trkpt>
<trkpt lat="38.739371" lon="-120.045887"><ele>2803.4</ele><time>2026-04-09T21:23:14Z</time></trkpt>
<trkpt lat="38.739510" lon="-120.045891"><ele>2797.4</ele><time>2026-04-09T21:23:16Z</time></trkpt>
<trkpt lat="38.739706" lon="-120.045960"><ele>2789.4</ele><time>2026-04-09T21:23:19Z</time></trkpt>
<trkpt lat="38.739788" lon="-120.045823"><ele>2783.2</ele><time>2026-04-09T21:23:22Z</time></trkpt>
<trkpt lat="38.739852" lon="-120.045795"><ele>2780.4</ele><time>2026-04-09T21:23:23Z</time></trkpt>
<trkpt lat="38.740049" lon="-120.045819"><ele>2773.6</ele><time>2026-04-09T21:23:28Z</time></trkpt>
<trkpt lat="38.740058" lon="-120.045753"><ele>2770.8</ele><time>2026-04-09T21:23:30Z</time></trkpt>
<trkpt lat="38.740076" lon="-120.045761"><ele>2765.8</ele><time>2026-04-09T21:23:36Z</time></trkpt>
<trkpt lat="38.740044" lon="-120.045549"><ele>2762.6</ele><time>2026-04-09T21:23:42Z</time></trkpt>
<trkpt lat="38.740084" lon="-120.045409"><ele>2758.2</ele><time>2026-04-09T21:23:44Z</time></trkpt>
<trkpt lat="38.740141" lon="-120.045379"><ele>2756.8</ele><time>2026-04-09T21:23:45Z</time></trkpt>
<trkpt lat="38.740302" lon="-120.045479"><ele>2750.8</ele><time>2026-04-09T21:23:48Z</time></trkpt>
<trkpt lat="38.740488" lon="-120.045524"><ele>2746.4</ele><time>2026-04-09T21:23:52Z</time></trkpt>
<trkpt lat="38.740532" lon="-120.045502"><ele>2745.8</ele><time>2026-04-09T21:23:53Z</time></trkpt>
<trkpt lat="38.740501" lon="-120.045474"><ele>2742.2</ele><time>2026-04-09T21:23:55Z</time></trkpt>
<trkpt lat="38.740498" lon="-120.045407"><ele>2739.2</ele><time>2026-04-09T21:23:57Z</time></trkpt>
<trkpt lat="38.740597" lon="-120.045121"><ele>2733.6</ele><time>2026-04-09T21:24:01Z</time></trkpt>
<trkpt lat="38.740584" lon="-120.045081"><ele>2728.6</ele><time>2026-04-09T21:25:03Z</time></trkpt>
<trkpt lat="38.740584" lon="-120.045081"><ele>2731.0</ele><time>2026-04-09T21:25:52Z</time></trkpt>
<trkpt lat="38.740598" lon="-120.045105"><ele>2727.4</ele><time>2026-04-09T21:28:49Z</time></trkpt>
<trkpt lat="38.740630" lon="-120.044862"><ele>2724.6</ele><time>2026-04-09T21:28:55Z</time></trkpt>
<trkpt lat="38.740614" lon="-120.044433"><ele>2716.8</ele><time>2026-04-09T21:29:04Z</time></trkpt>
<trkpt lat="38.740547" lon="-120.044099"><ele>2713.4</ele><time>2026-04-09T21:29:13Z</time></trkpt>
<trkpt lat="38.740449" lon="-120.043796"><ele>2709.8</ele><time>2026-04-09T21:29:20Z</time></trkpt>
<trkpt lat="38.740633" lon="-120.043803"><ele>2707.2</ele><time>2026-04-09T21:29:36Z</time></trkpt>
<trkpt lat="38.740686" lon="-120.043775"><ele>2705.8</ele><time>2026-04-09T21:29:37Z</time></trkpt>
<trkpt lat="38.740726" lon="-120.043599"><ele>2700.0</ele><time>2026-04-09T21:29:40Z</time></trkpt>
<trkpt lat="38.740886" lon="-120.043503"><ele>2694.6</ele><time>2026-04-09T21:29:44Z</time></trkpt>
<trkpt lat="38.740954" lon="-120.042907"><ele>2679.8</ele><time>2026-04-09T21:29:54Z</time></trkpt>
<trkpt lat="38.741404" lon="-120.042353"><ele>2665.2</ele><time>2026-04-09T21:30:05Z</time></trkpt>
<trkpt lat="38.741623" lon="-120.042149"><ele>2660.4</ele><time>2026-04-09T21:30:11Z</time></trkpt>
<trkpt lat="38.741644" lon="-120.042105"><ele>2657.6</ele><time>2026-04-09T21:32:26Z</time></trkpt>
<trkpt lat="38.741660" lon="-120.042118"><ele>2658.4</ele><time>2026-04-09T21:33:52Z</time></trkpt>
<trkpt lat="38.741651" lon="-120.042085"><ele>2658.4</ele><time>2026-04-09T21:34:56Z</time></trkpt>
<trkpt lat="38.741665" lon="-120.042125"><ele>2658.2</ele><time>2026-04-09T21:38:03Z</time></trkpt>
<trkpt lat="38.741651" lon="-120.042111"><ele>2659.6</ele><time>2026-04-09T21:39:28Z</time></trkpt>
<trkpt lat="38.741659" lon="-120.042118"><ele>2657.8</ele><time>2026-04-09T21:40:13Z</time></trkpt>
<trkpt lat="38.741686" lon="-120.041971"><ele>2659.6</ele><time>2026-04-09T21:41:22Z</time></trkpt>
<trkpt lat="38.741858" lon="-120.041503"><ele>2659.2</ele><time>2026-04-09T21:42:05Z</time></trkpt>
<trkpt lat="38.741913" lon="-120.041145"><ele>2659.0</ele><time>2026-04-09T21:42:36Z</time></trkpt>
<trkpt lat="38.741876" lon="-120.040661"><ele>2660.0</ele><time>2026-04-09T21:43:22Z</time></trkpt>
<trkpt lat="38.741740" lon="-120.040190"><ele>2664.2</ele><time>2026-04-09T21:44:18Z</time></trkpt>
<trkpt lat="38.741767" lon="-120.039797"><ele>2663.6</ele><time>2026-04-09T21:44:56Z</time></trkpt>
<trkpt lat="38.741737" lon="-120.039539"><ele>2662.4</ele><time>2026-04-09T21:45:21Z</time></trkpt>
<trkpt lat="38.741604" lon="-120.039028"><ele>2658.4</ele><time>2026-04-09T21:46:08Z</time></trkpt>
<trkpt lat="38.741578" lon="-120.038825"><ele>2655.2</ele><time>2026-04-09T21:46:18Z</time></trkpt>
<trkpt lat="38.741413" lon="-120.038329"><ele>2652.4</ele><time>2026-04-09T21:46:58Z</time></trkpt>
<trkpt lat="38.741132" lon="-120.038011"><ele>2652.8</ele><time>2026-04-09T21:47:41Z</time></trkpt>
<trkpt lat="38.740767" lon="-120.037688"><ele>2652.0</ele><time>2026-04-09T21:48:27Z</time></trkpt>
<trkpt lat="38.740290" lon="-120.037136"><ele>2653.6</ele><time>2026-04-09T21:49:41Z</time></trkpt>
<trkpt lat="38.740101" lon="-120.036990"><ele>2654.0</ele><time>2026-04-09T21:50:07Z</time></trkpt>
<trkpt lat="38.739939" lon="-120.036923"><ele>2654.0</ele><time>2026-04-09T21:50:27Z</time></trkpt>
<trkpt lat="38.739887" lon="-120.036836"><ele>2654.2</ele><time>2026-04-09T21:50:37Z</time></trkpt>
<trkpt lat="38.739865" lon="-120.036651"><ele>2654.4</ele><time>2026-04-09T21:50:53Z</time></trkpt>
<trkpt lat="38.739665" lon="-120.036232"><ele>2653.6</ele><time>2026-04-09T21:51:34Z</time></trkpt>
<trkpt lat="38.739364" lon="-120.036026"><ele>2657.4</ele><time>2026-04-09T21:52:20Z</time></trkpt>
<trkpt lat="38.739189" lon="-120.035969"><ele>2660.8</ele><time>2026-04-09T21:52:48Z</time></trkpt>
<trkpt lat="38.739034" lon="-120.035691"><ele>2665.6</ele><time>2026-04-09T21:53:30Z</time></trkpt>
<trkpt lat="38.738948" lon="-120.035308"><ele>2674.2</ele><time>2026-04-09T21:54:17Z</time></trkpt>
<trkpt lat="38.738936" lon="-120.035229"><ele>2675.2</ele><time>2026-04-09T21:54:29Z</time></trkpt>
<trkpt lat="38.738940" lon="-120.035233"><ele>2672.2</ele><time>2026-04-09T21:55:19Z</time></trkpt>
<trkpt lat="38.738933" lon="-120.035241"><ele>2676.2</ele><time>2026-04-09T21:56:57Z</time></trkpt>
<trkpt lat="38.738961" lon="-120.035230"><ele>2677.6</ele><time>2026-04-09T21:57:18Z</time></trkpt>
<trkpt lat="38.738945" lon="-120.035224"><ele>2679.8</ele><time>2026-04-09T21:58:17Z</time></trkpt>
<trkpt lat="38.738944" lon="-120.035249"><ele>2678.2</ele><time>2026-04-09T21:59:09Z</time></trkpt>
<trkpt lat="38.738941" lon="-120.035231"><ele>2681.2</ele><time>2026-04-09T22:00:32Z</time></trkpt>
<trkpt lat="38.738967" lon="-120.035211"><ele>2678.8</ele><time>2026-04-09T22:05:44Z</time></trkpt>
<trkpt lat="38.738934" lon="-120.035245"><ele>2678.2</ele><time>2026-04-09T22:05:56Z</time></trkpt>
<trkpt lat="38.738959" lon="-120.035227"><ele>2678.0</ele><time>2026-04-09T22:06:06Z</time></trkpt>
<trkpt lat="38.738943" lon="-120.035232"><ele>2679.8</ele><time>2026-04-09T22:06:30Z</time></trkpt>
<trkpt lat="38.739086" lon="-120.034938"><ele>2680.4</ele><time>2026-04-09T22:07:05Z</time></trkpt>
<trkpt lat="38.739293" lon="-120.034617"><ele>2679.8</ele><time>2026-04-09T22:07:29Z</time></trkpt>
<trkpt lat="38.739418" lon="-120.034429"><ele>2676.0</ele><time>2026-04-09T22:07:38Z</time></trkpt>
<trkpt lat="38.739634" lon="-120.034336"><ele>2669.6</ele><time>2026-04-09T22:08:00Z</time></trkpt>
<trkpt lat="38.739708" lon="-120.034384"><ele>2670.4</ele><time>2026-04-09T22:08:22Z</time></trkpt>
<trkpt lat="38.739699" lon="-120.034349"><ele>2670.2</ele><time>2026-04-09T22:08:40Z</time></trkpt>
<trkpt lat="38.739657" lon="-120.034347"><ele>2669.6</ele><time>2026-04-09T22:09:22Z</time></trkpt>
<trkpt lat="38.739690" lon="-120.034390"><ele>2670.6</ele><time>2026-04-09T22:09:49Z</time></trkpt>
<trkpt lat="38.739715" lon="-120.034319"><ele>2669.4</ele><time>2026-04-09T22:11:06Z</time></trkpt>
<trkpt lat="38.739694" lon="-120.034357"><ele>2669.8</ele><time>2026-04-09T22:11:30Z</time></trkpt>
<trkpt lat="38.739715" lon="-120.034365"><ele>2669.2</ele><time>2026-04-09T22:11:36Z</time></trkpt>
<trkpt lat="38.739718" lon="-120.034329"><ele>2669.2</ele><time>2026-04-09T22:12:17Z</time></trkpt>
<trkpt lat="38.739723" lon="-120.034376"><ele>2670.0</ele><time>2026-04-09T22:12:54Z</time></trkpt>
<trkpt lat="38.739689" lon="-120.034375"><ele>2669.6</ele><time>2026-04-09T22:13:04Z</time></trkpt>
<trkpt lat="38.739711" lon="-120.034402"><ele>2669.4</ele><time>2026-04-09T22:13:38Z</time></trkpt>
<trkpt lat="38.739662" lon="-120.034404"><ele>2668.8</ele><time>2026-04-09T22:14:32Z</time></trkpt>
<trkpt lat="38.739696" lon="-120.034348"><ele>2668.0</ele><time>2026-04-09T22:14:54Z</time></trkpt>
<trkpt lat="38.739672" lon="-120.034353"><ele>2667.0</ele><time>2026-04-09T22:15:06Z</time></trkpt>
<trkpt lat="38.739689" lon="-120.034389"><ele>2666.8</ele><time>2026-04-09T22:15:48Z</time></trkpt>
<trkpt lat="38.739628" lon="-120.034313"><ele>2666.6</ele><time>2026-04-09T22:16:12Z</time></trkpt>
<trkpt lat="38.739385" lon="-120.034402"><ele>2670.2</ele><time>2026-04-09T22:16:43Z</time></trkpt>
<trkpt lat="38.739214" lon="-120.034614"><ele>2675.0</ele><time>2026-04-09T22:17:14Z</time></trkpt>
<trkpt lat="38.738950" lon="-120.035165"><ele>2676.8</ele><time>2026-04-09T22:18:48Z</time></trkpt>
<trkpt lat="38.738927" lon="-120.035165"><ele>2676.4</ele><time>2026-04-09T22:18:56Z</time></trkpt>
<trkpt lat="38.738856" lon="-120.035142"><ele>2677.6</ele><time>2026-04-09T22:19:06Z</time></trkpt>
<trkpt lat="38.738641" lon="-120.034954"><ele>2680.6</ele><time>2026-04-09T22:19:49Z</time></trkpt>
<trkpt lat="38.738328" lon="-120.034863"><ele>2683.0</ele><time>2026-04-09T22:20:48Z</time></trkpt>
<trkpt lat="38.738158" lon="-120.034675"><ele>2686.0</ele><time>2026-04-09T22:21:27Z</time></trkpt>
<trkpt lat="38.738000" lon="-120.034631"><ele>2690.0</ele><time>2026-04-09T22:22:03Z</time></trkpt>
<trkpt lat="38.737996" lon="-120.034599"><ele>2690.4</ele><time>2026-04-09T22:22:19Z</time></trkpt>
<trkpt lat="38.737994" lon="-120.034622"><ele>2691.4</ele><time>2026-04-09T22:22:56Z</time></trkpt>
<trkpt lat="38.737724" lon="-120.034450"><ele>2699.0</ele><time>2026-04-09T22:24:09Z</time></trkpt>
<trkpt lat="38.737661" lon="-120.034467"><ele>2701.0</ele><time>2026-04-09T22:24:28Z</time></trkpt>
<trkpt lat="38.737477" lon="-120.034741"><ele>2709.8</ele><time>2026-04-09T22:25:32Z</time></trkpt>
<trkpt lat="38.737398" lon="-120.034649"><ele>2712.6</ele><time>2026-04-09T22:25:57Z</time></trkpt>
<trkpt lat="38.737307" lon="-120.034434"><ele>2719.8</ele><time>2026-04-09T22:26:40Z</time></trkpt>
<trkpt lat="38.737165" lon="-120.034653"><ele>2726.4</ele><time>2026-04-09T22:27:34Z</time></trkpt>
<trkpt lat="38.736998" lon="-120.034424"><ele>2733.8</ele><time>2026-04-09T22:28:25Z</time></trkpt>
<trkpt lat="38.736792" lon="-120.034323"><ele>2744.2</ele><time>2026-04-09T22:29:16Z</time></trkpt>
<trkpt lat="38.736747" lon="-120.034341"><ele>2745.6</ele><time>2026-04-09T22:29:27Z</time></trkpt>
<trkpt lat="38.736687" lon="-120.034509"><ele>2747.4</ele><time>2026-04-09T22:29:58Z</time></trkpt>
<trkpt lat="38.736582" lon="-120.034655"><ele>2753.0</ele><time>2026-04-09T22:30:31Z</time></trkpt>
<trkpt lat="38.736553" lon="-120.034886"><ele>2758.0</ele><time>2026-04-09T22:31:05Z</time></trkpt>
<trkpt lat="38.736516" lon="-120.034942"><ele>2759.6</ele><time>2026-04-09T22:31:17Z</time></trkpt>
<trkpt lat="38.736350" lon="-120.034818"><ele>2762.4</ele><time>2026-04-09T22:31:57Z</time></trkpt>
<trkpt lat="38.736185" lon="-120.034800"><ele>2764.8</ele><time>2026-04-09T22:33:13Z</time></trkpt>
<trkpt lat="38.736198" lon="-120.034802"><ele>2763.0</ele><time>2026-04-09T22:34:02Z</time></trkpt>
<trkpt lat="38.736147" lon="-120.034814"><ele>2767.8</ele><time>2026-04-09T22:34:28Z</time></trkpt>
<trkpt lat="38.736014" lon="-120.034861"><ele>2768.8</ele><time>2026-04-09T22:36:07Z</time></trkpt>
<trkpt lat="38.735819" lon="-120.034881"><ele>2773.6</ele><time>2026-04-09T22:36:53Z</time></trkpt>
<trkpt lat="38.735604" lon="-120.034860"><ele>2775.8</ele><time>2026-04-09T22:37:22Z</time></trkpt>
<trkpt lat="38.735424" lon="-120.034778"><ele>2777.2</ele><time>2026-04-09T22:37:44Z</time></trkpt>
<trkpt lat="38.735420" lon="-120.034751"><ele>2774.6</ele><time>2026-04-09T22:38:27Z</time></trkpt>
<trkpt lat="38.735286" lon="-120.034733"><ele>2779.2</ele><time>2026-04-09T22:39:16Z</time></trkpt>
<trkpt lat="38.735063" lon="-120.034633"><ele>2781.4</ele><time>2026-04-09T22:39:55Z</time></trkpt>
<trkpt lat="38.734914" lon="-120.034525"><ele>2781.6</ele><time>2026-04-09T22:40:18Z</time></trkpt>
<trkpt lat="38.734699" lon="-120.034397"><ele>2786.2</ele><time>2026-04-09T22:40:55Z</time></trkpt>
<trkpt lat="38.734446" lon="-120.034366"><ele>2790.8</ele><time>2026-04-09T22:42:29Z</time></trkpt>
<trkpt lat="38.734415" lon="-120.034455"><ele>2793.4</ele><time>2026-04-09T22:43:05Z</time></trkpt>
<trkpt lat="38.734183" lon="-120.034338"><ele>2796.8</ele><time>2026-04-09T22:44:00Z</time></trkpt>
<trkpt lat="38.733811" lon="-120.034190"><ele>2808.4</ele><time>2026-04-09T22:46:19Z</time></trkpt>
<trkpt lat="38.733813" lon="-120.034296"><ele>2808.6</ele><time>2026-04-09T22:46:53Z</time></trkpt>
<trkpt lat="38.733440" lon="-120.034246"><ele>2820.6</ele><time>2026-04-09T22:48:01Z</time></trkpt>
<trkpt lat="38.733394" lon="-120.034270"><ele>2822.8</ele><time>2026-04-09T22:48:26Z</time></trkpt>
<trkpt lat="38.733533" lon="-120.034443"><ele>2826.0</ele><time>2026-04-09T22:49:30Z</time></trkpt>
<trkpt lat="38.733457" lon="-120.034440"><ele>2828.0</ele><time>2026-04-09T22:50:05Z</time></trkpt>
<trkpt lat="38.733485" lon="-120.034529"><ele>2832.8</ele><time>2026-04-09T22:50:43Z</time></trkpt>
<trkpt lat="38.733489" lon="-120.034559"><ele>2831.4</ele><time>2026-04-09T22:50:55Z</time></trkpt>
<trkpt lat="38.733390" lon="-120.034520"><ele>2833.2</ele><time>2026-04-09T22:51:18Z</time></trkpt>
<trkpt lat="38.733412" lon="-120.034547"><ele>2834.2</ele><time>2026-04-09T22:51:40Z</time></trkpt>
<trkpt lat="38.733415" lon="-120.034545"><ele>2838.2</ele><time>2026-04-09T22:52:19Z</time></trkpt>
<trkpt lat="38.733440" lon="-120.034605"><ele>2839.2</ele><time>2026-04-09T22:52:37Z</time></trkpt>
<trkpt lat="38.733344" lon="-120.034566"><ele>2837.4</ele><time>2026-04-09T22:53:04Z</time></trkpt>
<trkpt lat="38.733156" lon="-120.034619"><ele>2841.6</ele><time>2026-04-09T22:53:38Z</time></trkpt>
<trkpt lat="38.733031" lon="-120.034588"><ele>2851.4</ele><time>2026-04-09T22:54:00Z</time></trkpt>
<trkpt lat="38.732959" lon="-120.034570"><ele>2852.0</ele><time>2026-04-09T22:54:11Z</time></trkpt>
<trkpt lat="38.732965" lon="-120.034572"><ele>2848.8</ele><time>2026-04-09T22:54:19Z</time></trkpt>
<trkpt lat="38.732961" lon="-120.034587"><ele>2856.6</ele><time>2026-04-09T22:57:16Z</time></trkpt>
<trkpt lat="38.732961" lon="-120.034587"><ele>2848.6</ele><time>2026-04-09T22:58:03Z</time></trkpt>
<trkpt lat="38.732999" lon="-120.034607"><ele>2852.4</ele><time>2026-04-09T22:58:15Z</time></trkpt>
<trkpt lat="38.733019" lon="-120.034622"><ele>2850.4</ele><time>2026-04-09T22:58:49Z</time></trkpt>
<trkpt lat="38.732961" lon="-120.034586"><ele>2851.8</ele><time>2026-04-09T22:58:58Z</time></trkpt>
<trkpt lat="38.732961" lon="-120.034574"><ele>2855.2</ele><time>2026-04-09T22:59:08Z</time></trkpt>
<trkpt lat="38.732946" lon="-120.034585"><ele>2849.2</ele><time>2026-04-09T23:00:20Z</time></trkpt>
<trkpt lat="38.732968" lon="-120.034587"><ele>2848.8</ele><time>2026-04-09T23:00:27Z</time></trkpt>
<trkpt lat="38.732961" lon="-120.034574"><ele>2852.8</ele><time>2026-04-09T23:00:36Z</time></trkpt>
<trkpt lat="38.732967" lon="-120.034591"><ele>2845.6</ele><time>2026-04-09T23:02:09Z</time></trkpt>
<trkpt lat="38.732886" lon="-120.034544"><ele>2849.0</ele><time>2026-04-09T23:03:18Z</time></trkpt>
<trkpt lat="38.732879" lon="-120.034525"><ele>2842.0</ele><time>2026-04-09T23:05:17Z</time></trkpt>
<trkpt lat="38.732875" lon="-120.034502"><ele>2846.6</ele><time>2026-04-09T23:06:01Z</time></trkpt>
<trkpt lat="38.732875" lon="-120.034502"><ele>2843.4</ele><time>2026-04-09T23:06:31Z</time></trkpt>
<trkpt lat="38.732832" lon="-120.034388"><ele>2842.4</ele><time>2026-04-09T23:07:14Z</time></trkpt>
<trkpt lat="38.732780" lon="-120.034336"><ele>2839.0</ele><time>2026-04-09T23:07:15Z</time></trkpt>
<trkpt lat="38.732587" lon="-120.034234"><ele>2833.6</ele><time>2026-04-09T23:07:19Z</time></trkpt>
<trkpt lat="38.732183" lon="-120.033802"><ele>2820.0</ele><time>2026-04-09T23:07:29Z</time></trkpt>
<trkpt lat="38.731795" lon="-120.033589"><ele>2813.4</ele><time>2026-04-09T23:07:41Z</time></trkpt>
<trkpt lat="38.731233" lon="-120.033433"><ele>2804.2</ele><time>2026-04-09T23:07:54Z</time></trkpt>
<trkpt lat="38.731153" lon="-120.033467"><ele>2803.6</ele><time>2026-04-09T23:09:29Z</time></trkpt>
<trkpt lat="38.731154" lon="-120.033463"><ele>2800.8</ele><time>2026-04-09T23:09:34Z</time></trkpt>
<trkpt lat="38.731153" lon="-120.033465"><ele>2802.8</ele><time>2026-04-09T23:10:07Z</time></trkpt>
<trkpt lat="38.731144" lon="-120.033404"><ele>2801.6</ele><time>2026-04-09T23:10:38Z</time></trkpt>
<trkpt lat="38.731037" lon="-120.033444"><ele>2799.0</ele><time>2026-04-09T23:10:53Z</time></trkpt>
<trkpt lat="38.730916" lon="-120.033550"><ele>2799.2</ele><time>2026-04-09T23:11:32Z</time></trkpt>
<trkpt lat="38.730659" lon="-120.033690"><ele>2797.0</ele><time>2026-04-09T23:12:07Z</time></trkpt>
<trkpt lat="38.730348" lon="-120.033811"><ele>2793.4</ele><time>2026-04-09T23:12:38Z</time></trkpt>
<trkpt lat="38.730291" lon="-120.033878"><ele>2795.8</ele><time>2026-04-09T23:12:49Z</time></trkpt>
<trkpt lat="38.729934" lon="-120.033824"><ele>2789.2</ele><time>2026-04-09T23:13:12Z</time></trkpt>
<trkpt lat="38.729779" lon="-120.033835"><ele>2786.6</ele><time>2026-04-09T23:13:22Z</time></trkpt>
<trkpt lat="38.729780" lon="-120.033868"><ele>2787.2</ele><time>2026-04-09T23:13:35Z</time></trkpt>
<trkpt lat="38.729745" lon="-120.033878"><ele>2787.2</ele><time>2026-04-09T23:13:38Z</time></trkpt>
<trkpt lat="38.729470" lon="-120.033786"><ele>2786.2</ele><time>2026-04-09T23:14:03Z</time></trkpt>
<trkpt lat="38.729160" lon="-120.033724"><ele>2788.0</ele><time>2026-04-09T23:14:51Z</time></trkpt>
<trkpt lat="38.728939" lon="-120.033559"><ele>2789.2</ele><time>2026-04-09T23:15:26Z</time></trkpt>
<trkpt lat="38.728828" lon="-120.033550"><ele>2790.2</ele><time>2026-04-09T23:16:21Z</time></trkpt>
<trkpt lat="38.728798" lon="-120.033532"><ele>2786.6</ele><time>2026-04-09T23:18:46Z</time></trkpt>
<trkpt lat="38.728624" lon="-120.033454"><ele>2785.6</ele><time>2026-04-09T23:19:15Z</time></trkpt>
<trkpt lat="38.728084" lon="-120.033147"><ele>2781.2</ele><time>2026-04-09T23:19:51Z</time></trkpt>
<trkpt lat="38.728104" lon="-120.033018"><ele>2776.6</ele><time>2026-04-09T23:19:55Z</time></trkpt>
<trkpt lat="38.728076" lon="-120.032962"><ele>2773.8</ele><time>2026-04-09T23:19:56Z</time></trkpt>
<trkpt lat="38.727759" lon="-120.032629"><ele>2765.2</ele><time>2026-04-09T23:20:43Z</time></trkpt>
<trkpt lat="38.727644" lon="-120.032460"><ele>2762.6</ele><time>2026-04-09T23:20:47Z</time></trkpt>
<trkpt lat="38.727471" lon="-120.031923"><ele>2756.4</ele><time>2026-04-09T23:21:01Z</time></trkpt>
<trkpt lat="38.727269" lon="-120.031613"><ele>2750.6</ele><time>2026-04-09T23:21:10Z</time></trkpt>
<trkpt lat="38.727347" lon="-120.031401"><ele>2743.6</ele><time>2026-04-09T23:21:14Z</time></trkpt>
<trkpt lat="38.727395" lon="-120.031248"><ele>2734.6</ele><time>2026-04-09T23:21:17Z</time></trkpt>
<trkpt lat="38.727331" lon="-120.031111"><ele>2730.2</ele><time>2026-04-09T23:21:20Z</time></trkpt>
<trkpt lat="38.727311" lon="-120.030961"><ele>2727.6</ele><time>2026-04-09T23:21:25Z</time></trkpt>
<trkpt lat="38.727317" lon="-120.030978"><ele>2725.4</ele><time>2026-04-09T23:23:22Z</time></trkpt>
<trkpt lat="38.727395" lon="-120.030913"><ele>2725.4</ele><time>2026-04-09T23:24:17Z</time></trkpt>
<trkpt lat="38.727527" lon="-120.030877"><ele>2719.6</ele><time>2026-04-09T23:24:19Z</time></trkpt>
<trkpt lat="38.727594" lon="-120.030760"><ele>2715.2</ele><time>2026-04-09T23:24:21Z</time></trkpt>
<trkpt lat="38.727625" lon="-120.030608"><ele>2711.0</ele><time>2026-04-09T23:24:23Z</time></trkpt>
<trkpt lat="38.727649" lon="-120.030541"><ele>2705.8</ele><time>2026-04-09T23:24:24Z</time></trkpt>
<trkpt lat="38.727660" lon="-120.030314"><ele>2700.6</ele><time>2026-04-09T23:24:27Z</time></trkpt>
<trkpt lat="38.727561" lon="-120.029981"><ele>2694.6</ele><time>2026-04-09T23:24:33Z</time></trkpt>
<trkpt lat="38.727611" lon="-120.029600"><ele>2687.4</ele><time>2026-04-09T23:24:39Z</time></trkpt>
<trkpt lat="38.727861" lon="-120.029370"><ele>2679.4</ele><time>2026-04-09T23:24:44Z</time></trkpt>
<trkpt lat="38.727967" lon="-120.029149"><ele>2670.6</ele><time>2026-04-09T23:24:47Z</time></trkpt>
<trkpt lat="38.728232" lon="-120.028614"><ele>2660.2</ele><time>2026-04-09T23:24:55Z</time></trkpt>
<trkpt lat="38.728391" lon="-120.028437"><ele>2658.4</ele><time>2026-04-09T23:25:01Z</time></trkpt>
<trkpt lat="38.728667" lon="-120.027866"><ele>2649.0</ele><time>2026-04-09T23:25:14Z</time></trkpt>
<trkpt lat="38.728785" lon="-120.027509"><ele>2644.0</ele><time>2026-04-09T23:26:06Z</time></trkpt>
<trkpt lat="38.728804" lon="-120.027343"><ele>2642.6</ele><time>2026-04-09T23:26:16Z</time></trkpt>
<trkpt lat="38.728709" lon="-120.027090"><ele>2635.8</ele><time>2026-04-09T23:26:21Z</time></trkpt>
<trkpt lat="38.728693" lon="-120.026865"><ele>2631.6</ele><time>2026-04-09T23:26:24Z</time></trkpt>
<trkpt lat="38.728541" lon="-120.026501"><ele>2624.6</ele><time>2026-04-09T23:26:31Z</time></trkpt>
<trkpt lat="38.728497" lon="-120.026446"><ele>2623.8</ele><time>2026-04-09T23:26:34Z</time></trkpt>
<trkpt lat="38.728496" lon="-120.026477"><ele>2623.6</ele><time>2026-04-09T23:26:53Z</time></trkpt>
<trkpt lat="38.728573" lon="-120.025801"><ele>2611.4</ele><time>2026-04-09T23:27:04Z</time></trkpt>
<trkpt lat="38.728548" lon="-120.025373"><ele>2607.0</ele><time>2026-04-09T23:27:09Z</time></trkpt>
<trkpt lat="38.728567" lon="-120.025089"><ele>2603.4</ele><time>2026-04-09T23:27:13Z</time></trkpt>
<trkpt lat="38.728469" lon="-120.024665"><ele>2600.8</ele><time>2026-04-09T23:28:30Z</time></trkpt>
<trkpt lat="38.728339" lon="-120.024383"><ele>2596.8</ele><time>2026-04-09T23:28:38Z</time></trkpt>
<trkpt lat="38.728270" lon="-120.024326"><ele>2595.0</ele><time>2026-04-09T23:28:52Z</time></trkpt>
<trkpt lat="38.728257" lon="-120.024249"><ele>2594.0</ele><time>2026-04-09T23:29:13Z</time></trkpt>
<trkpt lat="38.728267" lon="-120.023902"><ele>2589.2</ele><time>2026-04-09T23:29:18Z</time></trkpt>
<trkpt lat="38.728330" lon="-120.023546"><ele>2576.6</ele><time>2026-04-09T23:29:22Z</time></trkpt>
<trkpt lat="38.728494" lon="-120.023243"><ele>2571.6</ele><time>2026-04-09T23:29:26Z</time></trkpt>
<trkpt lat="38.728510" lon="-120.022982"><ele>2566.0</ele><time>2026-04-09T23:29:29Z</time></trkpt>
<trkpt lat="38.728619" lon="-120.022718"><ele>2561.0</ele><time>2026-04-09T23:29:32Z</time></trkpt>
<trkpt lat="38.728669" lon="-120.022649"><ele>2556.8</ele><time>2026-04-09T23:29:33Z</time></trkpt>
<trkpt lat="38.728802" lon="-120.022607"><ele>2552.8</ele><time>2026-04-09T23:29:36Z</time></trkpt>
<trkpt lat="38.728887" lon="-120.022605"><ele>2555.6</ele><time>2026-04-09T23:29:45Z</time></trkpt>
<trkpt lat="38.729141" lon="-120.022504"><ele>2554.2</ele><time>2026-04-09T23:30:03Z</time></trkpt>
<trkpt lat="38.729353" lon="-120.022316"><ele>2552.6</ele><time>2026-04-09T23:30:14Z</time></trkpt>
<trkpt lat="38.729482" lon="-120.022154"><ele>2550.4</ele><time>2026-04-09T23:30:22Z</time></trkpt>
<trkpt lat="38.729750" lon="-120.021976"><ele>2548.2</ele><time>2026-04-09T23:30:42Z</time></trkpt>
<trkpt lat="38.729730" lon="-120.021980"><ele>2549.0</ele><time>2026-04-09T23:31:04Z</time></trkpt>
<trkpt lat="38.729851" lon="-120.021973"><ele>2549.8</ele><time>2026-04-09T23:31:28Z</time></trkpt>
<trkpt lat="38.730053" lon="-120.022126"><ele>2551.6</ele><time>2026-04-09T23:32:22Z</time></trkpt>
<trkpt lat="38.730060" lon="-120.022107"><ele>2553.4</ele><time>2026-04-09T23:32:37Z</time></trkpt>
</trkseg></trk>
</gpx>
