<?xml version="1.0" encoding="UTF-8"?>
<gpx version="1.1" creator="Eric Sichak trip reports" xmlns="http://www.topografix.com/GPX/1/1">
<metadata><name>LTCC Multiday Backcountry Ski Class – Day 3</name><time>2026-04-10T16:38:17Z</time></metadata>
<trk><name>LTCC Multiday Backcountry Ski Class – Day 3</name><type>ski</type><trkseg>
<trkpt lat="38.730128" lon="-120.022025"><ele>2552.4</ele><time>2026-04-10T16:38:17Z</time></trkpt>
<trkpt lat="38.730118" lon="-120.022039"><ele>2551.2</ele><time>2026-04-10T16:38:30Z</time></trkpt>
<trkpt lat="38.730077" lon="-120.021968"><ele>2551.2</ele><time>2026-04-10T16:38:46Z</time></trkpt>
<trkpt lat="38.729994" lon="-120.021913"><ele>2551.2</ele><time>2026-04-10T16:39:36Z</time></trkpt>
<trkpt lat="38.729714" lon="-120.021955"><ele>2549.6</ele><time>2026-04-10T16:40:26Z</time></trkpt>
<trkpt lat="38.729739" lon="-120.021929"><ele>2549.2</ele><time>2026-04-10T16:40:56Z</time></trkpt>
<trkpt lat="38.729444" lon="-120.022166"><ele>2550.8</ele><time>2026-04-10T16:42:19Z</time></trkpt>
<trkpt lat="38.728875" lon="-120.022993"><ele>2558.8</ele><time>2026-04-10T16:44:32Z</time></trkpt>
<trkpt lat="38.728855" lon="-120.023064"><ele>2560.2</ele><time>2026-04-10T16:44:44Z</time></trkpt>
<trkpt lat="38.728877" lon="-120.023185"><ele>2562.2</ele><time>2026-04-10T16:45:00Z</time></trkpt>
<trkpt lat="38.728810" lon="-120.023305"><ele>2566.0</ele><time>2026-04-10T16:45:27Z</time></trkpt>
<trkpt lat="38.728887" lon="-120.023583"><ele>2572.6</ele><time>2026-04-10T16:46:12Z</time></trkpt>
<trkpt lat="38.728727" lon="-120.024007"><ele>2579.8</ele><time>2026-04-10T16:47:24Z</time></trkpt>
<trkpt lat="38.728580" lon="-120.024153"><ele>2584.4</ele><time>2026-04-10T16:48:00Z</time></trkpt>
<trkpt lat="38.728409" lon="-120.024246"><ele>2587.8</ele><time>2026-04-10T16:48:38Z</time></trkpt>
<trkpt lat="38.728312" lon="-120.024305"><ele>2592.4</ele><time>2026-04-10T16:49:03Z</time></trkpt>
<trkpt lat="38.728307" lon="-120.024298"><ele>2598.2</ele><time>2026-04-10T16:50:00Z</time></trkpt>
<trkpt lat="38.728322" lon="-120.024324"><ele>2597.6</ele><time>2026-04-10T16:50:18Z</time></trkpt>
<trkpt lat="38.728300" lon="-120.024313"><ele>2599.0</ele><time>2026-04-10T16:50:30Z</time></trkpt>
<trkpt lat="38.728305" lon="-120.024303"><ele>2596.4</ele><time>2026-04-10T16:50:45Z</time></trkpt>
<trkpt lat="38.728261" lon="-120.024322"><ele>2597.6</ele><time>2026-04-10T16:51:11Z</time></trkpt>
<trkpt lat="38.728155" lon="-120.024424"><ele>2600.8</ele><time>2026-04-10T16:51:47Z</time></trkpt>
<trkpt lat="38.728094" lon="-120.024551"><ele>2603.4</ele><time>2026-04-10T16:52:04Z</time></trkpt>
<trkpt lat="38.727968" lon="-120.024567"><ele>2607.6</ele><time>2026-04-10T16:52:27Z</time></trkpt>
<trkpt lat="38.727978" lon="-120.024743"><ele>2610.0</ele><time>2026-04-10T16:52:50Z</time></trkpt>
<trkpt lat="38.727947" lon="-120.024879"><ele>2611.8</ele><time>2026-04-10T16:53:06Z</time></trkpt>
<trkpt lat="38.727865" lon="-120.025037"><ele>2614.6</ele><time>2026-04-10T16:53:44Z</time></trkpt>
<trkpt lat="38.727878" lon="-120.025051"><ele>2616.0</ele><time>2026-04-10T16:54:30Z</time></trkpt>
<trkpt lat="38.727846" lon="-120.025030"><ele>2615.4</ele><time>2026-04-10T16:55:03Z</time></trkpt>
<trkpt lat="38.727871" lon="-120.025053"><ele>2615.0</ele><time>2026-04-10T16:55:26Z</time></trkpt>
<trkpt lat="38.727871" lon="-120.025023"><ele>2615.2</ele><time>2026-04-10T16:55:33Z</time></trkpt>
<trkpt lat="38.727854" lon="-120.025285"><ele>2616.4</ele><time>2026-04-10T16:56:51Z</time></trkpt>
<trkpt lat="38.727894" lon="-120.025703"><ele>2623.8</ele><time>2026-04-10T16:57:39Z</time></trkpt>
<trkpt lat="38.727959" lon="-120.025897"><ele>2622.6</ele><time>2026-04-10T16:58:05Z</time></trkpt>
<trkpt lat="38.728055" lon="-120.026240"><ele>2629.2</ele><time>2026-04-10T16:58:56Z</time></trkpt>
<trkpt lat="38.728093" lon="-120.026514"><ele>2632.4</ele><time>2026-04-10T16:59:38Z</time></trkpt>
<trkpt lat="38.728127" lon="-120.026657"><ele>2637.0</ele><time>2026-04-10T17:00:01Z</time></trkpt>
<trkpt lat="38.728340" lon="-120.027186"><ele>2645.4</ele><time>2026-04-10T17:01:37Z</time></trkpt>
<trkpt lat="38.728461" lon="-120.027358"><ele>2649.8</ele><time>2026-04-10T17:02:16Z</time></trkpt>
<trkpt lat="38.728462" lon="-120.027500"><ele>2651.6</ele><time>2026-04-10T17:02:50Z</time></trkpt>
<trkpt lat="38.728391" lon="-120.027434"><ele>2653.8</ele><time>2026-04-10T17:03:07Z</time></trkpt>
<trkpt lat="38.728334" lon="-120.027430"><ele>2655.8</ele><time>2026-04-10T17:03:18Z</time></trkpt>
<trkpt lat="38.728299" lon="-120.027450"><ele>2657.0</ele><time>2026-04-10T17:03:49Z</time></trkpt>
<trkpt lat="38.728280" lon="-120.027567"><ele>2659.8</ele><time>2026-04-10T17:04:11Z</time></trkpt>
<trkpt lat="38.728155" lon="-120.027471"><ele>2663.6</ele><time>2026-04-10T17:04:41Z</time></trkpt>
<trkpt lat="38.728010" lon="-120.027418"><ele>2666.2</ele><time>2026-04-10T17:05:16Z</time></trkpt>
<trkpt lat="38.727972" lon="-120.027417"><ele>2670.0</ele><time>2026-04-10T17:05:52Z</time></trkpt>
<trkpt lat="38.727961" lon="-120.027576"><ele>2673.4</ele><time>2026-04-10T17:06:18Z</time></trkpt>
<trkpt lat="38.727833" lon="-120.027566"><ele>2676.2</ele><time>2026-04-10T17:06:53Z</time></trkpt>
<trkpt lat="38.727833" lon="-120.027676"><ele>2678.6</ele><time>2026-04-10T17:07:09Z</time></trkpt>
<trkpt lat="38.727803" lon="-120.027785"><ele>2683.8</ele><time>2026-04-10T17:07:28Z</time></trkpt>
<trkpt lat="38.727668" lon="-120.028009"><ele>2687.6</ele><time>2026-04-10T17:08:18Z</time></trkpt>
<trkpt lat="38.727615" lon="-120.028071"><ele>2691.2</ele><time>2026-04-10T17:08:38Z</time></trkpt>
<trkpt lat="38.727604" lon="-120.027931"><ele>2694.2</ele><time>2026-04-10T17:09:18Z</time></trkpt>
<trkpt lat="38.727482" lon="-120.027794"><ele>2700.8</ele><time>2026-04-10T17:09:57Z</time></trkpt>
<trkpt lat="38.727293" lon="-120.027796"><ele>2706.6</ele><time>2026-04-10T17:10:40Z</time></trkpt>
<trkpt lat="38.727215" lon="-120.027806"><ele>2713.6</ele><time>2026-04-10T17:11:00Z</time></trkpt>
<trkpt lat="38.727159" lon="-120.027797"><ele>2712.6</ele><time>2026-04-10T17:11:11Z</time></trkpt>
<trkpt lat="38.727051" lon="-120.027834"><ele>2716.0</ele><time>2026-04-10T17:11:38Z</time></trkpt>
<trkpt lat="38.726782" lon="-120.027823"><ele>2721.6</ele><time>2026-04-10T17:12:41Z</time></trkpt>
<trkpt lat="38.726647" lon="-120.027863"><ele>2725.6</ele><time>2026-04-10T17:13:04Z</time></trkpt>
<trkpt lat="38.726543" lon="-120.027847"><ele>2729.8</ele><time>2026-04-10T17:13:24Z</time></trkpt>
<trkpt lat="38.726558" lon="-120.027837"><ele>2730.8</ele><time>2026-04-10T17:13:40Z</time></trkpt>
<trkpt lat="38.726395" lon="-120.027851"><ele>2733.0</ele><time>2026-04-10T17:14:17Z</time></trkpt>
<trkpt lat="38.726473" lon="-120.027981"><ele>2737.4</ele><time>2026-04-10T17:15:00Z</time></trkpt>
<trkpt lat="38.726527" lon="-120.028130"><ele>2738.0</ele><time>2026-04-10T17:15:46Z</time></trkpt>
<trkpt lat="38.726536" lon="-120.028099"><ele>2737.8</ele><time>2026-04-10T17:16:00Z</time></trkpt>
<trkpt lat="38.726517" lon="-120.028155"><ele>2738.6</ele><time>2026-04-10T17:17:22Z</time></trkpt>
<trkpt lat="38.726532" lon="-120.028108"><ele>2738.6</ele><time>2026-04-10T17:17:42Z</time></trkpt>
<trkpt lat="38.726532" lon="-120.028137"><ele>2737.6</ele><time>2026-04-10T17:18:09Z</time></trkpt>
<trkpt lat="38.726509" lon="-120.028145"><ele>2739.6</ele><time>2026-04-10T17:19:05Z</time></trkpt>
<trkpt lat="38.726527" lon="-120.028130"><ele>2741.6</ele><time>2026-04-10T17:19:48Z</time></trkpt>
<trkpt lat="38.726560" lon="-120.028161"><ele>2741.2</ele><time>2026-04-10T17:20:28Z</time></trkpt>
<trkpt lat="38.726545" lon="-120.028263"><ele>2741.4</ele><time>2026-04-10T17:20:38Z</time></trkpt>
<trkpt lat="38.726549" lon="-120.028241"><ele>2744.4</ele><time>2026-04-10T17:21:58Z</time></trkpt>
<trkpt lat="38.726579" lon="-120.028261"><ele>2744.6</ele><time>2026-04-10T17:22:24Z</time></trkpt>
<trkpt lat="38.726551" lon="-120.028248"><ele>2745.6</ele><time>2026-04-10T17:23:02Z</time></trkpt>
<trkpt lat="38.726585" lon="-120.028265"><ele>2745.4</ele><time>2026-04-10T17:23:28Z</time></trkpt>
<trkpt lat="38.726537" lon="-120.028285"><ele>2745.0</ele><time>2026-04-10T17:23:37Z</time></trkpt>
<trkpt lat="38.726399" lon="-120.028479"><ele>2748.0</ele><time>2026-04-10T17:24:10Z</time></trkpt>
<trkpt lat="38.726186" lon="-120.028569"><ele>2753.0</ele><time>2026-04-10T17:24:56Z</time></trkpt>
<trkpt lat="38.726082" lon="-120.028905"><ele>2759.8</ele><time>2026-04-10T17:26:00Z</time></trkpt>
<trkpt lat="38.726036" lon="-120.028921"><ele>2761.4</ele><time>2026-04-10T17:26:11Z</time></trkpt>
<trkpt lat="38.725982" lon="-120.029010"><ele>2762.6</ele><time>2026-04-10T17:26:23Z</time></trkpt>
<trkpt lat="38.725913" lon="-120.028908"><ele>2765.8</ele><time>2026-04-10T17:26:48Z</time></trkpt>
<trkpt lat="38.725829" lon="-120.029012"><ele>2770.4</ele><time>2026-04-10T17:27:09Z</time></trkpt>
<trkpt lat="38.725769" lon="-120.029036"><ele>2772.4</ele><time>2026-04-10T17:27:27Z</time></trkpt>
<trkpt lat="38.725598" lon="-120.028765"><ele>2778.8</ele><time>2026-04-10T17:28:21Z</time></trkpt>
<trkpt lat="38.725500" lon="-120.028668"><ele>2782.2</ele><time>2026-04-10T17:28:44Z</time></trkpt>
<trkpt lat="38.725467" lon="-120.028571"><ele>2784.0</ele><time>2026-04-10T17:28:57Z</time></trkpt>
<trkpt lat="38.725305" lon="-120.028427"><ele>2787.4</ele><time>2026-04-10T17:29:34Z</time></trkpt>
<trkpt lat="38.725183" lon="-120.028685"><ele>2792.8</ele><time>2026-04-10T17:30:23Z</time></trkpt>
<trkpt lat="38.725193" lon="-120.028904"><ele>2796.4</ele><time>2026-04-10T17:31:31Z</time></trkpt>
<trkpt lat="38.725222" lon="-120.028916"><ele>2796.6</ele><time>2026-04-10T17:31:44Z</time></trkpt>
<trkpt lat="38.725199" lon="-120.028921"><ele>2797.0</ele><time>2026-04-10T17:31:52Z</time></trkpt>
<trkpt lat="38.725023" lon="-120.028790"><ele>2800.2</ele><time>2026-04-10T17:32:29Z</time></trkpt>
<trkpt lat="38.724961" lon="-120.028664"><ele>2803.0</ele><time>2026-04-10T17:32:54Z</time></trkpt>
<trkpt lat="38.724751" lon="-120.028394"><ele>2811.2</ele><time>2026-04-10T17:34:02Z</time></trkpt>
<trkpt lat="38.724671" lon="-120.028382"><ele>2812.8</ele><time>2026-04-10T17:34:21Z</time></trkpt>
<trkpt lat="38.724589" lon="-120.028316"><ele>2816.0</ele><time>2026-04-10T17:34:46Z</time></trkpt>
<trkpt lat="38.724418" lon="-120.028329"><ele>2820.0</ele><time>2026-04-10T17:35:37Z</time></trkpt>
<trkpt lat="38.724420" lon="-120.028340"><ele>2822.6</ele><time>2026-04-10T17:36:00Z</time></trkpt>
<trkpt lat="38.724426" lon="-120.028322"><ele>2819.6</ele><time>2026-04-10T17:36:55Z</time></trkpt>
<trkpt lat="38.724425" lon="-120.028334"><ele>2823.2</ele><time>2026-04-10T17:37:07Z</time></trkpt>
<trkpt lat="38.724411" lon="-120.028311"><ele>2823.6</ele><time>2026-04-10T17:37:19Z</time></trkpt>
<trkpt lat="38.724434" lon="-120.028334"><ele>2820.8</ele><time>2026-04-10T17:37:35Z</time></trkpt>
<trkpt lat="38.724443" lon="-120.028355"><ele>2824.6</ele><time>2026-04-10T17:37:42Z</time></trkpt>
<trkpt lat="38.724432" lon="-120.028340"><ele>2822.0</ele><time>2026-04-10T17:37:48Z</time></trkpt>
<trkpt lat="38.724407" lon="-120.028342"><ele>2824.2</ele><time>2026-04-10T17:38:26Z</time></trkpt>
<trkpt lat="38.724410" lon="-120.028323"><ele>2821.8</ele><time>2026-04-10T17:38:35Z</time></trkpt>
<trkpt lat="38.724370" lon="-120.028305"><ele>2824.2</ele><time>2026-04-10T17:38:44Z</time></trkpt>
<trkpt lat="38.724148" lon="-120.028332"><ele>2831.4</ele><time>2026-04-10T17:39:26Z</time></trkpt>
<trkpt lat="38.724082" lon="-120.028334"><ele>2830.8</ele><time>2026-04-10T17:39:43Z</time></trkpt>
<trkpt lat="38.723907" lon="-120.028388"><ele>2839.2</ele><time>2026-04-10T17:40:22Z</time></trkpt>
<trkpt lat="38.723830" lon="-120.028399"><ele>2837.6</ele><time>2026-04-10T17:40:38Z</time></trkpt>
<trkpt lat="38.723789" lon="-120.028426"><ele>2841.4</ele><time>2026-04-10T17:40:47Z</time></trkpt>
<trkpt lat="38.723754" lon="-120.028467"><ele>2840.0</ele><time>2026-04-10T17:40:54Z</time></trkpt>
<trkpt lat="38.723630" lon="-120.028670"><ele>2849.8</ele><time>2026-04-10T17:41:36Z</time></trkpt>
<trkpt lat="38.723771" lon="-120.028865"><ele>2856.2</ele><time>2026-04-10T17:42:16Z</time></trkpt>
<trkpt lat="38.723795" lon="-120.028911"><ele>2854.4</ele><time>2026-04-10T17:42:26Z</time></trkpt>
<trkpt lat="38.723856" lon="-120.029038"><ele>2859.6</ele><time>2026-04-10T17:42:49Z</time></trkpt>
<trkpt lat="38.723964" lon="-120.029142"><ele>2862.2</ele><time>2026-04-10T17:43:16Z</time></trkpt>
<trkpt lat="38.724006" lon="-120.029216"><ele>2861.4</ele><time>2026-04-10T17:43:31Z</time></trkpt>
<trkpt lat="38.723948" lon="-120.029431"><ele>2864.4</ele><time>2026-04-10T17:44:11Z</time></trkpt>
<trkpt lat="38.723995" lon="-120.029568"><ele>2869.4</ele><time>2026-04-10T17:44:40Z</time></trkpt>
<trkpt lat="38.723995" lon="-120.029661"><ele>2870.0</ele><time>2026-04-10T17:44:54Z</time></trkpt>
<trkpt lat="38.723925" lon="-120.029807"><ele>2874.0</ele><time>2026-04-10T17:46:00Z</time></trkpt>
<trkpt lat="38.723850" lon="-120.029879"><ele>2876.2</ele><time>2026-04-10T17:46:28Z</time></trkpt>
<trkpt lat="38.723860" lon="-120.029856"><ele>2878.0</ele><time>2026-04-10T17:46:34Z</time></trkpt>
<trkpt lat="38.723872" lon="-120.029892"><ele>2880.4</ele><time>2026-04-10T17:46:44Z</time></trkpt>
<trkpt lat="38.723885" lon="-120.029872"><ele>2878.2</ele><time>2026-04-10T17:47:16Z</time></trkpt>
<trkpt lat="38.723864" lon="-120.029894"><ele>2881.6</ele><time>2026-04-10T17:47:30Z</time></trkpt>
<trkpt lat="38.723861" lon="-120.029893"><ele>2875.2</ele><time>2026-04-10T17:47:47Z</time></trkpt>
<trkpt lat="38.723865" lon="-120.029870"><ele>2878.0</ele><time>2026-04-10T17:48:18Z</time></trkpt>
<trkpt lat="38.723869" lon="-120.029905"><ele>2880.8</ele><time>2026-04-10T17:48:29Z</time></trkpt>
<trkpt lat="38.723861" lon="-120.029887"><ele>2878.2</ele><time>2026-04-10T17:48:38Z</time></trkpt>
<trkpt lat="38.723865" lon="-120.029864"><ele>2879.6</ele><time>2026-04-10T17:48:44Z</time></trkpt>
<trkpt lat="38.723857" lon="-120.029885"><ele>2878.0</ele><time>2026-04-10T17:48:55Z</time></trkpt>
<trkpt lat="38.723866" lon="-120.029898"><ele>2882.4</ele><time>2026-04-10T17:49:48Z</time></trkpt>
<trkpt lat="38.723858" lon="-120.029890"><ele>2870.2</ele><time>2026-04-10T17:56:29Z</time></trkpt>
<trkpt lat="38.723877" lon="-120.029892"><ele>2882.6</ele><time>2026-04-10T17:59:20Z</time></trkpt>
<trkpt lat="38.723955" lon="-120.029919"><ele>2876.4</ele><time>2026-04-10T17:59:28Z</time></trkpt>
<trkpt lat="38.723952" lon="-120.029925"><ele>2871.2</ele><time>2026-04-10T17:59:29Z</time></trkpt>
<trkpt lat="38.723966" lon="-120.029799"><ele>2872.4</ele><time>2026-04-10T17:59:44Z</time></trkpt>
<trkpt lat="38.723961" lon="-120.029776"><ele>2870.0</ele><time>2026-04-10T17:59:50Z</time></trkpt>
<trkpt lat="38.723977" lon="-120.029741"><ele>2870.0</ele><time>2026-04-10T18:00:17Z</time></trkpt>
<trkpt lat="38.723977" lon="-120.029741"><ele>2872.6</ele><time>2026-04-10T18:00:30Z</time></trkpt>
<trkpt lat="38.723977" lon="-120.029741"><ele>2869.0</ele><time>2026-04-10T18:05:06Z</time></trkpt>
<trkpt lat="38.723977" lon="-120.029741"><ele>2871.2</ele><time>2026-04-10T18:05:21Z</time></trkpt>
<trkpt lat="38.724020" lon="-120.029614"><ele>2869.4</ele><time>2026-04-10T18:05:43Z</time></trkpt>
<trkpt lat="38.724035" lon="-120.029393"><ele>2866.4</ele><time>2026-04-10T18:05:46Z</time></trkpt>
<trkpt lat="38.724045" lon="-120.029231"><ele>2859.8</ele><time>2026-04-10T18:05:48Z</time></trkpt>
<trkpt lat="38.723991" lon="-120.029032"><ele>2856.8</ele><time>2026-04-10T18:05:52Z</time></trkpt>
<trkpt lat="38.724000" lon="-120.028943"><ele>2854.2</ele><time>2026-04-10T18:05:55Z</time></trkpt>
<trkpt lat="38.724002" lon="-120.028945"><ele>2851.6</ele><time>2026-04-10T18:06:00Z</time></trkpt>
<trkpt lat="38.724026" lon="-120.028916"><ele>2855.6</ele><time>2026-04-10T18:06:09Z</time></trkpt>
<trkpt lat="38.724026" lon="-120.028916"><ele>2852.8</ele><time>2026-04-10T18:06:15Z</time></trkpt>
<trkpt lat="38.724114" lon="-120.028914"><ele>2851.2</ele><time>2026-04-10T18:06:18Z</time></trkpt>
<trkpt lat="38.724112" lon="-120.028835"><ele>2847.6</ele><time>2026-04-10T18:06:19Z</time></trkpt>
<trkpt lat="38.724043" lon="-120.028695"><ele>2842.2</ele><time>2026-04-10T18:06:21Z</time></trkpt>
<trkpt lat="38.724028" lon="-120.028496"><ele>2840.4</ele><time>2026-04-10T18:06:24Z</time></trkpt>
<trkpt lat="38.724049" lon="-120.028363"><ele>2837.6</ele><time>2026-04-10T18:06:26Z</time></trkpt>
<trkpt lat="38.724104" lon="-120.028250"><ele>2834.2</ele><time>2026-04-10T18:06:28Z</time></trkpt>
<trkpt lat="38.724254" lon="-120.028253"><ele>2831.4</ele><time>2026-04-10T18:06:31Z</time></trkpt>
<trkpt lat="38.724307" lon="-120.028181"><ele>2827.6</ele><time>2026-04-10T18:06:33Z</time></trkpt>
<trkpt lat="38.724316" lon="-120.028186"><ele>2822.2</ele><time>2026-04-10T18:06:41Z</time></trkpt>
<trkpt lat="38.724317" lon="-120.028174"><ele>2827.0</ele><time>2026-04-10T18:08:16Z</time></trkpt>
<trkpt lat="38.724333" lon="-120.028185"><ele>2826.2</ele><time>2026-04-10T18:08:26Z</time></trkpt>
<trkpt lat="38.724347" lon="-120.028015"><ele>2822.8</ele><time>2026-04-10T18:08:30Z</time></trkpt>
<trkpt lat="38.724381" lon="-120.027980"><ele>2821.0</ele><time>2026-04-10T18:08:31Z</time></trkpt>
<trkpt lat="38.724498" lon="-120.027975"><ele>2816.0</ele><time>2026-04-10T18:08:34Z</time></trkpt>
<trkpt lat="38.724710" lon="-120.028019"><ele>2812.6</ele><time>2026-04-10T18:08:41Z</time></trkpt>
<trkpt lat="38.724741" lon="-120.028068"><ele>2809.4</ele><time>2026-04-10T18:09:04Z</time></trkpt>
<trkpt lat="38.724728" lon="-120.028095"><ele>2811.4</ele><time>2026-04-10T18:10:19Z</time></trkpt>
<trkpt lat="38.724779" lon="-120.028096"><ele>2809.8</ele><time>2026-04-10T18:11:17Z</time></trkpt>
<trkpt lat="38.724787" lon="-120.028115"><ele>2811.4</ele><time>2026-04-10T18:11:34Z</time></trkpt>
<trkpt lat="38.724802" lon="-120.028095"><ele>2808.6</ele><time>2026-04-10T18:11:42Z</time></trkpt>
<trkpt lat="38.724786" lon="-120.028109"><ele>2808.0</ele><time>2026-04-10T18:11:59Z</time></trkpt>
<trkpt lat="38.724816" lon="-120.028093"><ele>2807.8</ele><time>2026-04-10T18:12:08Z</time></trkpt>
<trkpt lat="38.724775" lon="-120.028103"><ele>2807.6</ele><time>2026-04-10T18:12:19Z</time></trkpt>
<trkpt lat="38.724797" lon="-120.028002"><ele>2806.2</ele><time>2026-04-10T18:12:24Z</time></trkpt>
<trkpt lat="38.724921" lon="-120.028050"><ele>2804.2</ele><time>2026-04-10T18:12:30Z</time></trkpt>
<trkpt lat="38.724966" lon="-120.027985"><ele>2800.8</ele><time>2026-04-10T18:12:36Z</time></trkpt>
<trkpt lat="38.725011" lon="-120.027966"><ele>2800.8</ele><time>2026-04-10T18:12:37Z</time></trkpt>
<trkpt lat="38.725193" lon="-120.027970"><ele>2796.8</ele><time>2026-04-10T18:12:40Z</time></trkpt>
<trkpt lat="38.725312" lon="-120.027928"><ele>2785.4</ele><time>2026-04-10T18:12:42Z</time></trkpt>
<trkpt lat="38.725445" lon="-120.027874"><ele>2780.6</ele><time>2026-04-10T18:12:44Z</time></trkpt>
<trkpt lat="38.725475" lon="-120.027884"><ele>2778.6</ele><time>2026-04-10T18:12:45Z</time></trkpt>
<trkpt lat="38.725487" lon="-120.027943"><ele>2773.8</ele><time>2026-04-10T18:13:07Z</time></trkpt>
<trkpt lat="38.725482" lon="-120.027897"><ele>2772.8</ele><time>2026-04-10T18:13:18Z</time></trkpt>
<trkpt lat="38.725486" lon="-120.027944"><ele>2772.6</ele><time>2026-04-10T18:14:09Z</time></trkpt>
<trkpt lat="38.725566" lon="-120.028017"><ele>2772.0</ele><time>2026-04-10T18:14:12Z</time></trkpt>
<trkpt lat="38.725653" lon="-120.028019"><ele>2769.6</ele><time>2026-04-10T18:14:14Z</time></trkpt>
<trkpt lat="38.725988" lon="-120.027803"><ele>2754.0</ele><time>2026-04-10T18:14:46Z</time></trkpt>
<trkpt lat="38.725962" lon="-120.027818"><ele>2753.0</ele><time>2026-04-10T18:14:59Z</time></trkpt>
<trkpt lat="38.725980" lon="-120.027807"><ele>2752.6</ele><time>2026-04-10T18:15:04Z</time></trkpt>
<trkpt lat="38.725961" lon="-120.027860"><ele>2754.0</ele><time>2026-04-10T18:15:22Z</time></trkpt>
<trkpt lat="38.725992" lon="-120.027804"><ele>2752.2</ele><time>2026-04-10T18:16:07Z</time></trkpt>
<trkpt lat="38.725978" lon="-120.027772"><ele>2753.6</ele><time>2026-04-10T18:16:37Z</time></trkpt>
<trkpt lat="38.725993" lon="-120.027812"><ele>2753.6</ele><time>2026-04-10T18:17:14Z</time></trkpt>
<trkpt lat="38.725956" lon="-120.027821"><ele>2752.2</ele><time>2026-04-10T18:17:31Z</time></trkpt>
<trkpt lat="38.726006" lon="-120.027796"><ele>2754.4</ele><time>2026-04-10T18:18:18Z</time></trkpt>
<trkpt lat="38.725977" lon="-120.027828"><ele>2755.0</ele><time>2026-04-10T18:19:03Z</time></trkpt>
<trkpt lat="38.725991" lon="-120.027800"><ele>2751.8</ele><time>2026-04-10T18:19:27Z</time></trkpt>
<trkpt lat="38.726126" lon="-120.027963"><ele>2751.6</ele><time>2026-04-10T18:20:12Z</time></trkpt>
<trkpt lat="38.726207" lon="-120.028016"><ele>2749.6</ele><time>2026-04-10T18:20:13Z</time></trkpt>
<trkpt lat="38.726253" lon="-120.028007"><ele>2746.2</ele><time>2026-04-10T18:20:14Z</time></trkpt>
<trkpt lat="38.726322" lon="-120.027972"><ele>2743.0</ele><time>2026-04-10T18:20:15Z</time></trkpt>
<trkpt lat="38.726473" lon="-120.027688"><ele>2736.0</ele><time>2026-04-10T18:20:18Z</time></trkpt>
<trkpt lat="38.726609" lon="-120.027568"><ele>2728.2</ele><time>2026-04-10T18:20:20Z</time></trkpt>
<trkpt lat="38.726682" lon="-120.027531"><ele>2722.0</ele><time>2026-04-10T18:20:21Z</time></trkpt>
<trkpt lat="38.727123" lon="-120.027477"><ele>2701.8</ele><time>2026-04-10T18:20:27Z</time></trkpt>
<trkpt lat="38.727169" lon="-120.027438"><ele>2699.0</ele><time>2026-04-10T18:20:28Z</time></trkpt>
<trkpt lat="38.727311" lon="-120.027415"><ele>2690.6</ele><time>2026-04-10T18:20:31Z</time></trkpt>
<trkpt lat="38.727371" lon="-120.027362"><ele>2688.0</ele><time>2026-04-10T18:20:32Z</time></trkpt>
<trkpt lat="38.727470" lon="-120.027056"><ele>2673.4</ele><time>2026-04-10T18:20:36Z</time></trkpt>
<trkpt lat="38.727503" lon="-120.026868"><ele>2667.8</ele><time>2026-04-10T18:20:38Z</time></trkpt>
<trkpt lat="38.727486" lon="-120.026769"><ele>2664.4</ele><time>2026-04-10T18:20:40Z</time></trkpt>
<trkpt lat="38.727538" lon="-120.026639"><ele>2663.0</ele><time>2026-04-10T18:20:43Z</time></trkpt>
<trkpt lat="38.727742" lon="-120.026537"><ele>2650.6</ele><time>2026-04-10T18:20:47Z</time></trkpt>
<trkpt lat="38.727913" lon="-120.026516"><ele>2642.6</ele><time>2026-04-10T18:20:49Z</time></trkpt>
<trkpt lat="38.728006" lon="-120.026368"><ele>2636.4</ele><time>2026-04-10T18:20:51Z</time></trkpt>
<trkpt lat="38.728039" lon="-120.026333"><ele>2631.6</ele><time>2026-04-10T18:20:52Z</time></trkpt>
<trkpt lat="38.728060" lon="-120.026342"><ele>2625.2</ele><time>2026-04-10T18:20:54Z</time></trkpt>
<trkpt lat="38.728035" lon="-120.026372"><ele>2625.2</ele><time>2026-04-10T18:21:03Z</time></trkpt>
<trkpt lat="38.728059" lon="-120.026369"><ele>2625.4</ele><time>2026-04-10T18:21:08Z</time></trkpt>
<trkpt lat="38.728056" lon="-120.026407"><ele>2626.0</ele><time>2026-04-10T18:22:50Z</time></trkpt>
<trkpt lat="38.728035" lon="-120.026366"><ele>2625.4</ele><time>2026-04-10T18:23:47Z</time></trkpt>
<trkpt lat="38.728063" lon="-120.026342"><ele>2624.2</ele><time>2026-04-10T18:24:09Z</time></trkpt>
<trkpt lat="38.728034" lon="-120.026357"><ele>2623.4</ele><time>2026-04-10T18:24:30Z</time></trkpt>
<trkpt lat="38.728050" lon="-120.026395"><ele>2623.8</ele><time>2026-04-10T18:24:44Z</time></trkpt>
<trkpt lat="38.728068" lon="-120.026324"><ele>2623.4</ele><time>2026-04-10T18:24:52Z</time></trkpt>
<trkpt lat="38.728034" lon="-120.026158"><ele>2620.2</ele><time>2026-04-10T18:24:56Z</time></trkpt>
<trkpt lat="38.727901" lon="-120.025769"><ele>2614.2</ele><time>2026-04-10T18:25:02Z</time></trkpt>
<trkpt lat="38.727834" lon="-120.025164"><ele>2610.2</ele><time>2026-04-10T18:25:15Z</time></trkpt>
<trkpt lat="38.727814" lon="-120.025135"><ele>2611.0</ele><time>2026-04-10T18:25:24Z</time></trkpt>
<trkpt lat="38.727885" lon="-120.024957"><ele>2608.6</ele><time>2026-04-10T18:25:38Z</time></trkpt>
<trkpt lat="38.727871" lon="-120.024797"><ele>2606.4</ele><time>2026-04-10T18:25:41Z</time></trkpt>
<trkpt lat="38.727905" lon="-120.024660"><ele>2605.0</ele><time>2026-04-10T18:25:44Z</time></trkpt>
<trkpt lat="38.727986" lon="-120.024565"><ele>2602.6</ele><time>2026-04-10T18:25:46Z</time></trkpt>
<trkpt lat="38.728069" lon="-120.024518"><ele>2599.0</ele><time>2026-04-10T18:25:48Z</time></trkpt>
<trkpt lat="38.728243" lon="-120.024264"><ele>2591.6</ele><time>2026-04-10T18:25:52Z</time></trkpt>
<trkpt lat="38.728329" lon="-120.024247"><ele>2588.0</ele><time>2026-04-10T18:25:54Z</time></trkpt>
<trkpt lat="38.728591" lon="-120.024068"><ele>2582.2</ele><time>2026-04-10T18:25:58Z</time></trkpt>
<trkpt lat="38.728701" lon="-120.023991"><ele>2576.0</ele><time>2026-04-10T18:26:00Z</time></trkpt>
<trkpt lat="38.728896" lon="-120.023563"><ele>2566.2</ele><time>2026-04-10T18:26:08Z</time></trkpt>
<trkpt lat="38.728852" lon="-120.023419"><ele>2562.2</ele><time>2026-04-10T18:26:11Z</time></trkpt>
<trkpt lat="38.728875" lon="-120.023180"><ele>2559.2</ele><time>2026-04-10T18:26:16Z</time></trkpt>
<trkpt lat="38.728861" lon="-120.023048"><ele>2554.2</ele><time>2026-04-10T18:26:18Z</time></trkpt>
<trkpt lat="38.728883" lon="-120.022986"><ele>2552.8</ele><time>2026-04-10T18:26:19Z</time></trkpt>
<trkpt lat="38.729376" lon="-120.022309"><ele>2544.6</ele><time>2026-04-10T18:26:40Z</time></trkpt>
<trkpt lat="38.729476" lon="-120.022116"><ele>2543.2</ele><time>2026-04-10T18:26:57Z</time></trkpt>
<trkpt lat="38.729739" lon="-120.021943"><ele>2542.8</ele><time>2026-04-10T18:27:35Z</time></trkpt>
<trkpt lat="38.729806" lon="-120.021933"><ele>2543.4</ele><time>2026-04-10T18:28:05Z</time></trkpt>
<trkpt lat="38.729985" lon="-120.021964"><ele>2544.6</ele><time>2026-04-10T18:28:25Z</time></trkpt>
<trkpt lat="38.730075" lon="-120.022129"><ele>2546.8</ele><time>2026-04-10T18:30:37Z</time></trkpt>
<trkpt lat="38.730099" lon="-120.022072"><ele>2547.0</ele><time>2026-04-10T18:32:04Z</time></trkpt>
<trkpt lat="38.730089" lon="-120.022101"><ele>2547.6</ele><time>2026-04-10T18:32:37Z</time></trkpt>
<trkpt lat="38.730112" lon="-120.022095"><ele>2547.4</ele><time>2026-04-10T18:33:15Z</time></trkpt>
<trkpt lat="38.730071" lon="-120.022096"><ele>2546.2</ele><time>2026-04-10T18:33:29Z</time></trkpt>
<trkpt lat="38.730057" lon="-120.022136"><ele>2546.6</ele><time>2026-04-10T18:34:27Z</time></trkpt>
<trkpt lat="38.730065" lon="-120.022059"><ele>2546.0</ele><time>2026-04-10T20:17:54Z</time></trkpt>
<trkpt lat="38.730077" lon="-120.022113"><ele>2545.6</ele><time>2026-04-10T20:17:55Z</time></trkpt>
<trkpt lat="38.730100" lon="-120.022102"><ele>2544.8</ele><time>2026-04-10T20:18:06Z</time></trkpt>
<trkpt lat="38.730042" lon="-120.022075"><ele>2545.8</ele><time>2026-04-10T20:18:38Z</time></trkpt>
<trkpt lat="38.729968" lon="-120.021927"><ele>2544.6</ele><time>2026-04-10T20:19:10Z</time></trkpt>
<trkpt lat="38.729748" lon="-120.021861"><ele>2542.4</ele><time>2026-04-10T20:19:36Z</time></trkpt>
<trkpt lat="38.729713" lon="-120.021896"><ele>2542.0</ele><time>2026-04-10T20:19:40Z</time></trkpt>
<trkpt lat="38.729716" lon="-120.021926"><ele>2545.6</ele><time>2026-04-10T20:20:03Z</time></trkpt>
<trkpt lat="38.729723" lon="-120.021941"><ele>2544.0</ele><time>2026-04-10T20:20:16Z</time></trkpt>
<trkpt lat="38.729611" lon="-120.021961"><ele>2541.2</ele><time>2026-04-10T20:20:32Z</time></trkpt>
<trkpt lat="38.729589" lon="-120.021985"><ele>2542.0</ele><time>2026-04-10T20:20:36Z</time></trkpt>
<trkpt lat="38.729610" lon="-120.022034"><ele>2546.2</ele><time>2026-04-10T20:21:08Z</time></trkpt>
<trkpt lat="38.729619" lon="-120.022047"><ele>2540.4</ele><time>2026-04-10T20:23:02Z</time></trkpt>
<trkpt lat="38.729513" lon="-120.022060"><ele>2540.8</ele><time>2026-04-10T20:23:27Z</time></trkpt>
<trkpt lat="38.729266" lon="-120.021925"><ele>2540.4</ele><time>2026-04-10T20:23:57Z</time></trkpt>
<trkpt lat="38.728974" lon="-120.021865"><ele>2540.0</ele><time>2026-04-10T20:24:24Z</time></trkpt>
<trkpt lat="38.728862" lon="-120.021743"><ele>2538.8</ele><time>2026-04-10T20:24:37Z</time></trkpt>
<trkpt lat="38.728435" lon="-120.021564"><ele>2536.0</ele><time>2026-04-10T20:25:20Z</time></trkpt>
<trkpt lat="38.727329" lon="-120.021075"><ele>2543.4</ele><time>2026-04-10T20:27:35Z</time></trkpt>
<trkpt lat="38.727254" lon="-120.021109"><ele>2542.6</ele><time>2026-04-10T20:27:45Z</time></trkpt>
<trkpt lat="38.727030" lon="-120.021250"><ele>2548.0</ele><time>2026-04-10T20:28:25Z</time></trkpt>
<trkpt lat="38.726775" lon="-120.021203"><ele>2548.2</ele><time>2026-04-10T20:28:56Z</time></trkpt>
<trkpt lat="38.726623" lon="-120.021025"><ele>2547.6</ele><time>2026-04-10T20:29:20Z</time></trkpt>
<trkpt lat="38.726561" lon="-120.020947"><ele>2551.2</ele><time>2026-04-10T20:29:28Z</time></trkpt>
<trkpt lat="38.726444" lon="-120.020810"><ele>2552.0</ele><time>2026-04-10T20:29:44Z</time></trkpt>
<trkpt lat="38.726268" lon="-120.020600"><ele>2549.4</ele><time>2026-04-10T20:30:08Z</time></trkpt>
<trkpt lat="38.726111" lon="-120.020552"><ele>2547.6</ele><time>2026-04-10T20:30:28Z</time></trkpt>
<trkpt lat="38.725954" lon="-120.020473"><ele>2549.0</ele><time>2026-04-10T20:30:48Z</time></trkpt>
<trkpt lat="38.725893" lon="-120.020335"><ele>2549.8</ele><time>2026-04-10T20:31:02Z</time></trkpt>
<trkpt lat="38.725752" lon="-120.020170"><ele>2549.6</ele><time>2026-04-10T20:31:22Z</time></trkpt>
<trkpt lat="38.725607" lon="-120.020075"><ele>2549.0</ele><time>2026-04-10T20:31:40Z</time></trkpt>
<trkpt lat="38.725367" lon="-120.019836"><ele>2548.0</ele><time>2026-04-10T20:32:10Z</time></trkpt>
<trkpt lat="38.725245" lon="-120.019780"><ele>2549.8</ele><time>2026-04-10T20:32:25Z</time></trkpt>
<trkpt lat="38.725121" lon="-120.019685"><ele>2547.4</ele><time>2026-04-10T20:32:39Z</time></trkpt>
<trkpt lat="38.724873" lon="-120.019489"><ele>2550.8</ele><time>2026-04-10T20:33:13Z</time></trkpt>
<trkpt lat="38.724300" lon="-120.018962"><ele>2549.4</ele><time>2026-04-10T20:34:27Z</time></trkpt>
<trkpt lat="38.724247" lon="-120.018928"><ele>2547.0</ele><time>2026-04-10T20:34:34Z</time></trkpt>
<trkpt lat="38.724177" lon="-120.018864"><ele>2549.4</ele><time>2026-04-10T20:34:43Z</time></trkpt>
<trkpt lat="38.723923" lon="-120.018626"><ele>2548.6</ele><time>2026-04-10T20:35:14Z</time></trkpt>
<trkpt lat="38.723470" lon="-120.018377"><ele>2549.0</ele><time>2026-04-10T20:36:02Z</time></trkpt>
<trkpt lat="38.723288" lon="-120.018371"><ele>2549.6</ele><time>2026-04-10T20:36:27Z</time></trkpt>
<trkpt lat="38.723022" lon="-120.018296"><ele>2550.4</ele><time>2026-04-10T20:36:56Z</time></trkpt>
<trkpt lat="38.722846" lon="-120.018202"><ele>2549.0</ele><time>2026-04-10T20:37:45Z</time></trkpt>
<trkpt lat="38.722885" lon="-120.018199"><ele>2548.8</ele><time>2026-04-10T20:38:14Z</time></trkpt>
<trkpt lat="38.722891" lon="-120.018255"><ele>2549.6</ele><time>2026-04-10T20:38:24Z</time></trkpt>
<trkpt lat="38.722873" lon="-120.018238"><ele>2548.8</ele><time>2026-04-10T20:38:55Z</time></trkpt>
<trkpt lat="38.722907" lon="-120.018229"><ele>2548.0</ele><time>2026-04-10T20:39:54Z</time></trkpt>
<trkpt lat="38.722875" lon="-120.018178"><ele>2549.2</ele><time>2026-04-10T20:40:14Z</time></trkpt>
<trkpt lat="38.722883" lon="-120.018134"><ele>2549.6</ele><time>2026-04-10T20:40:37Z</time></trkpt>
<trkpt lat="38.722877" lon="-120.018185"><ele>2549.0</ele><time>2026-04-10T20:41:15Z</time></trkpt>
<trkpt lat="38.722842" lon="-120.018197"><ele>2549.0</ele><time>2026-04-10T20:41:22Z</time></trkpt>
<trkpt lat="38.722809" lon="-120.018045"><ele>2548.2</ele><time>2026-04-10T20:41:38Z</time></trkpt>
<trkpt lat="38.722729" lon="-120.017978"><ele>2548.2</ele><time>2026-04-10T20:41:49Z</time></trkpt>
<trkpt lat="38.722606" lon="-120.017688"><ele>2548.4</ele><time>2026-04-10T20:42:14Z</time></trkpt>
<trkpt lat="38.722489" lon="-120.017116"><ele>2544.6</ele><time>2026-04-10T20:42:59Z</time></trkpt>
<trkpt lat="38.722258" lon="-120.016775"><ele>2545.2</ele><time>2026-04-10T20:43:36Z</time></trkpt>
<trkpt lat="38.722032" lon="-120.016597"><ele>2546.8</ele><time>2026-04-10T20:44:07Z</time></trkpt>
<trkpt lat="38.721846" lon="-120.016259"><ele>2548.2</ele><time>2026-04-10T20:44:45Z</time></trkpt>
<trkpt lat="38.721856" lon="-120.015933"><ele>2546.0</ele><time>2026-04-10T20:45:11Z</time></trkpt>
<trkpt lat="38.721750" lon="-120.015384"><ele>2547.0</ele><time>2026-04-10T20:45:59Z</time></trkpt>
<trkpt lat="38.721505" lon="-120.015122"><ele>2545.8</ele><time>2026-04-10T20:46:38Z</time></trkpt>
<trkpt lat="38.721379" lon="-120.014692"><ele>2544.6</ele><time>2026-04-10T20:47:21Z</time></trkpt>
<trkpt lat="38.721255" lon="-120.014532"><ele>2545.4</ele><time>2026-04-10T20:47:42Z</time></trkpt>
<trkpt lat="38.721151" lon="-120.014241"><ele>2546.2</ele><time>2026-04-10T20:48:09Z</time></trkpt>
<trkpt lat="38.721069" lon="-120.014121"><ele>2546.2</ele><time>2026-04-10T20:48:24Z</time></trkpt>
<trkpt lat="38.720984" lon="-120.013905"><ele>2545.2</ele><time>2026-04-10T20:48:47Z</time></trkpt>
<trkpt lat="38.720895" lon="-120.013760"><ele>2546.4</ele><time>2026-04-10T20:49:04Z</time></trkpt>
<trkpt lat="38.720711" lon="-120.013615"><ele>2546.2</ele><time>2026-04-10T20:49:32Z</time></trkpt>
<trkpt lat="38.720223" lon="-120.013081"><ele>2550.4</ele><time>2026-04-10T20:51:01Z</time></trkpt>
<trkpt lat="38.720210" lon="-120.012907"><ele>2549.2</ele><time>2026-04-10T20:51:28Z</time></trkpt>
<trkpt lat="38.719833" lon="-120.012706"><ele>2550.2</ele><time>2026-04-10T20:52:14Z</time></trkpt>
<trkpt lat="38.719706" lon="-120.012595"><ele>2549.2</ele><time>2026-04-10T20:52:29Z</time></trkpt>
<trkpt lat="38.719637" lon="-120.012507"><ele>2551.4</ele><time>2026-04-10T20:52:45Z</time></trkpt>
<trkpt lat="38.719313" lon="-120.012328"><ele>2553.0</ele><time>2026-04-10T20:53:26Z</time></trkpt>
<trkpt lat="38.719023" lon="-120.012015"><ele>2552.0</ele><time>2026-04-10T20:54:03Z</time></trkpt>
<trkpt lat="38.718826" lon="-120.011648"><ele>2551.6</ele><time>2026-04-10T20:54:40Z</time></trkpt>
<trkpt lat="38.718569" lon="-120.011310"><ele>2554.8</ele><time>2026-04-10T20:55:23Z</time></trkpt>
<trkpt lat="38.718440" lon="-120.011087"><ele>2554.4</ele><time>2026-04-10T20:55:49Z</time></trkpt>
<trkpt lat="38.718386" lon="-120.010904"><ele>2555.6</ele><time>2026-04-10T20:56:10Z</time></trkpt>
<trkpt lat="38.718343" lon="-120.010448"><ele>2555.4</ele><time>2026-04-10T20:56:52Z</time></trkpt>
<trkpt lat="38.718215" lon="-120.010147"><ele>2559.6</ele><time>2026-04-10T20:57:22Z</time></trkpt>
<trkpt lat="38.718011" lon="-120.009762"><ele>2559.0</ele><time>2026-04-10T20:58:06Z</time></trkpt>
<trkpt lat="38.717845" lon="-120.009353"><ele>2559.2</ele><time>2026-04-10T20:58:48Z</time></trkpt>
<trkpt lat="38.717834" lon="-120.009223"><ele>2558.4</ele><time>2026-04-10T20:59:00Z</time></trkpt>
<trkpt lat="38.717863" lon="-120.009127"><ele>2558.8</ele><time>2026-04-10T20:59:09Z</time></trkpt>
<trkpt lat="38.717836" lon="-120.009011"><ele>2557.6</ele><time>2026-04-10T20:59:21Z</time></trkpt>
<trkpt lat="38.717425" lon="-120.008524"><ele>2561.0</ele><time>2026-04-10T21:00:21Z</time></trkpt>
<trkpt lat="38.717242" lon="-120.008199"><ele>2563.6</ele><time>2026-04-10T21:01:01Z</time></trkpt>
<trkpt lat="38.717032" lon="-120.007968"><ele>2562.8</ele><time>2026-04-10T21:01:35Z</time></trkpt>
<trkpt lat="38.716892" lon="-120.007807"><ele>2565.6</ele><time>2026-04-10T21:02:00Z</time></trkpt>
<trkpt lat="38.716793" lon="-120.007685"><ele>2563.2</ele><time>2026-04-10T21:02:21Z</time></trkpt>
<trkpt lat="38.716741" lon="-120.007657"><ele>2567.0</ele><time>2026-04-10T21:02:27Z</time></trkpt>
<trkpt lat="38.716647" lon="-120.007641"><ele>2563.8</ele><time>2026-04-10T21:02:38Z</time></trkpt>
<trkpt lat="38.716402" lon="-120.007505"><ele>2566.6</ele><time>2026-04-10T21:03:17Z</time></trkpt>
<trkpt lat="38.716247" lon="-120.007452"><ele>2563.6</ele><time>2026-04-10T21:03:34Z</time></trkpt>
<trkpt lat="38.716182" lon="-120.007397"><ele>2569.6</ele><time>2026-04-10T21:03:45Z</time></trkpt>
<trkpt lat="38.715954" lon="-120.007301"><ele>2568.4</ele><time>2026-04-10T21:04:14Z</time></trkpt>
<trkpt lat="38.715912" lon="-120.007270"><ele>2571.0</ele><time>2026-04-10T21:04:22Z</time></trkpt>
<trkpt lat="38.715752" lon="-120.007157"><ele>2571.0</ele><time>2026-04-10T21:04:46Z</time></trkpt>
<trkpt lat="38.715515" lon="-120.007109"><ele>2572.6</ele><time>2026-04-10T21:05:22Z</time></trkpt>
<trkpt lat="38.715383" lon="-120.007056"><ele>2576.0</ele><time>2026-04-10T21:05:42Z</time></trkpt>
<trkpt lat="38.715244" lon="-120.007048"><ele>2575.6</ele><time>2026-04-10T21:06:31Z</time></trkpt>
<trkpt lat="38.715283" lon="-120.007075"><ele>2574.4</ele><time>2026-04-10T21:07:31Z</time></trkpt>
<trkpt lat="38.715267" lon="-120.007091"><ele>2575.0</ele><time>2026-04-10T21:07:42Z</time></trkpt>
<trkpt lat="38.715260" lon="-120.007009"><ele>2575.4</ele><time>2026-04-10T21:08:21Z</time></trkpt>
<trkpt lat="38.715250" lon="-120.007065"><ele>2575.0</ele><time>2026-04-10T21:08:45Z</time></trkpt>
<trkpt lat="38.715279" lon="-120.007080"><ele>2574.8</ele><time>2026-04-10T21:09:20Z</time></trkpt>
<trkpt lat="38.715249" lon="-120.007093"><ele>2573.0</ele><time>2026-04-10T21:09:28Z</time></trkpt>
<trkpt lat="38.715254" lon="-120.007105"><ele>2575.4</ele><time>2026-04-10T21:09:30Z</time></trkpt>
<trkpt lat="38.715338" lon="-120.007131"><ele>2575.4</ele><time>2026-04-10T21:09:38Z</time></trkpt>
<trkpt lat="38.715381" lon="-120.007011"><ele>2575.0</ele><time>2026-04-10T21:09:53Z</time></trkpt>
<trkpt lat="38.715366" lon="-120.006982"><ele>2573.8</ele><time>2026-04-10T21:10:07Z</time></trkpt>
<trkpt lat="38.715401" lon="-120.006983"><ele>2574.0</ele><time>2026-04-10T21:10:23Z</time></trkpt>
<trkpt lat="38.715317" lon="-120.007098"><ele>2573.2</ele><time>2026-04-10T21:10:41Z</time></trkpt>
<trkpt lat="38.715252" lon="-120.007087"><ele>2574.0</ele><time>2026-04-10T21:11:21Z</time></trkpt>
<trkpt lat="38.715278" lon="-120.007097"><ele>2574.4</ele><time>2026-04-10T21:11:30Z</time></trkpt>
<trkpt lat="38.715282" lon="-120.007079"><ele>2571.0</ele><time>2026-04-10T21:11:48Z</time></trkpt>
<trkpt lat="38.715281" lon="-120.007100"><ele>2575.0</ele><time>2026-04-10T21:12:22Z</time></trkpt>
<trkpt lat="38.715270" lon="-120.007125"><ele>2573.0</ele><time>2026-04-10T21:12:41Z</time></trkpt>
<trkpt lat="38.715254" lon="-120.007081"><ele>2574.0</ele><time>2026-04-10T21:12:55Z</time></trkpt>
<trkpt lat="38.715273" lon="-120.007114"><ele>2574.2</ele><time>2026-04-10T21:13:04Z</time></trkpt>
<trkpt lat="38.715297" lon="-120.007096"><ele>2573.8</ele><time>2026-04-10T21:13:17Z</time></trkpt>
<trkpt lat="38.715277" lon="-120.007065"><ele>2572.6</ele><time>2026-04-10T21:13:36Z</time></trkpt>
<trkpt lat="38.715308" lon="-120.007083"><ele>2573.0</ele><time>2026-04-10T21:13:53Z</time></trkpt>
<trkpt lat="38.715271" lon="-120.007034"><ele>2571.0</ele><time>2026-04-10T21:14:27Z</time></trkpt>
<trkpt lat="38.715276" lon="-120.007063"><ele>2572.2</ele><time>2026-04-10T21:14:40Z</time></trkpt>
<trkpt lat="38.715236" lon="-120.007033"><ele>2571.0</ele><time>2026-04-10T21:15:18Z</time></trkpt>
<trkpt lat="38.715272" lon="-120.007064"><ele>2571.2</ele><time>2026-04-10T21:15:35Z</time></trkpt>
<trkpt lat="38.715206" lon="-120.007049"><ele>2572.4</ele><time>2026-04-10T21:15:50Z</time></trkpt>
<trkpt lat="38.715085" lon="-120.006920"><ele>2574.0</ele><time>2026-04-10T21:16:12Z</time></trkpt>
<trkpt lat="38.714951" lon="-120.006849"><ele>2576.0</ele><time>2026-04-10T21:16:36Z</time></trkpt>
<trkpt lat="38.714705" lon="-120.006892"><ele>2578.8</ele><time>2026-04-10T21:17:13Z</time></trkpt>
<trkpt lat="38.714630" lon="-120.006856"><ele>2577.8</ele><time>2026-04-10T21:17:22Z</time></trkpt>
<trkpt lat="38.714506" lon="-120.006721"><ele>2575.6</ele><time>2026-04-10T21:17:39Z</time></trkpt>
<trkpt lat="38.714239" lon="-120.006622"><ele>2576.8</ele><time>2026-04-10T21:18:14Z</time></trkpt>
<trkpt lat="38.713939" lon="-120.006587"><ele>2579.8</ele><time>2026-04-10T21:18:53Z</time></trkpt>
<trkpt lat="38.713595" lon="-120.006411"><ele>2582.0</ele><time>2026-04-10T21:19:41Z</time></trkpt>
<trkpt lat="38.713509" lon="-120.006432"><ele>2583.0</ele><time>2026-04-10T21:19:51Z</time></trkpt>
<trkpt lat="38.713362" lon="-120.006559"><ele>2583.6</ele><time>2026-04-10T21:20:14Z</time></trkpt>
<trkpt lat="38.713092" lon="-120.006641"><ele>2586.6</ele><time>2026-04-10T21:20:53Z</time></trkpt>
<trkpt lat="38.712927" lon="-120.006805"><ele>2590.4</ele><time>2026-04-10T21:21:24Z</time></trkpt>
<trkpt lat="38.712801" lon="-120.006889"><ele>2590.4</ele><time>2026-04-10T21:21:41Z</time></trkpt>
<trkpt lat="38.712704" lon="-120.006910"><ele>2592.0</ele><time>2026-04-10T21:21:56Z</time></trkpt>
<trkpt lat="38.712566" lon="-120.006903"><ele>2592.8</ele><time>2026-04-10T21:22:12Z</time></trkpt>
<trkpt lat="38.712335" lon="-120.006793"><ele>2593.4</ele><time>2026-04-10T21:22:44Z</time></trkpt>
<trkpt lat="38.712015" lon="-120.006805"><ele>2598.4</ele><time>2026-04-10T21:23:31Z</time></trkpt>
<trkpt lat="38.711080" lon="-120.006720"><ele>2610.2</ele><time>2026-04-10T21:25:57Z</time></trkpt>
<trkpt lat="38.710782" lon="-120.006628"><ele>2610.6</ele><time>2026-04-10T21:28:00Z</time></trkpt>
<trkpt lat="38.710188" lon="-120.006398"><ele>2621.8</ele><time>2026-04-10T21:30:33Z</time></trkpt>
<trkpt lat="38.709621" lon="-120.006042"><ele>2633.2</ele><time>2026-04-10T21:32:03Z</time></trkpt>
<trkpt lat="38.709076" lon="-120.005789"><ele>2637.0</ele><time>2026-04-10T21:33:13Z</time></trkpt>
<trkpt lat="38.708772" lon="-120.005770"><ele>2643.2</ele><time>2026-04-10T21:34:00Z</time></trkpt>
<trkpt lat="38.708466" lon="-120.005776"><ele>2644.2</ele><time>2026-04-10T21:34:44Z</time></trkpt>
<trkpt lat="38.708013" lon="-120.005733"><ele>2648.8</ele><time>2026-04-10T21:35:49Z</time></trkpt>
<trkpt lat="38.707759" lon="-120.005644"><ele>2654.4</ele><time>2026-04-10T21:36:32Z</time></trkpt>
<trkpt lat="38.707546" lon="-120.005544"><ele>2655.4</ele><time>2026-04-10T21:37:05Z</time></trkpt>
<trkpt lat="38.707235" lon="-120.005456"><ele>2662.8</ele><time>2026-04-10T21:37:59Z</time></trkpt>
<trkpt lat="38.707020" lon="-120.005427"><ele>2665.6</ele><time>2026-04-10T21:38:36Z</time></trkpt>
<trkpt lat="38.706399" lon="-120.005438"><ele>2672.6</ele><time>2026-04-10T21:40:32Z</time></trkpt>
<trkpt lat="38.705894" lon="-120.005176"><ele>2672.4</ele><time>2026-04-10T21:41:52Z</time></trkpt>
<trkpt lat="38.705651" lon="-120.005073"><ele>2674.8</ele><time>2026-04-10T21:42:24Z</time></trkpt>
<trkpt lat="38.705241" lon="-120.004963"><ele>2676.0</ele><time>2026-04-10T21:43:14Z</time></trkpt>
<trkpt lat="38.704875" lon="-120.004806"><ele>2681.2</ele><time>2026-04-10T21:44:06Z</time></trkpt>
<trkpt lat="38.704663" lon="-120.004651"><ele>2680.4</ele><time>2026-04-10T21:44:38Z</time></trkpt>
<trkpt lat="38.704461" lon="-120.004383"><ele>2679.8</ele><time>2026-04-10T21:45:13Z</time></trkpt>
<trkpt lat="38.704376" lon="-120.004150"><ele>2683.2</ele><time>2026-04-10T21:45:47Z</time></trkpt>
<trkpt lat="38.704366" lon="-120.004040"><ele>2682.0</ele><time>2026-04-10T21:45:58Z</time></trkpt>
<trkpt lat="38.704349" lon="-120.004050"><ele>2678.2</ele><time>2026-04-10T21:50:48Z</time></trkpt>
<trkpt lat="38.704391" lon="-120.004010"><ele>2679.0</ele><time>2026-04-10T21:51:04Z</time></trkpt>
<trkpt lat="38.704404" lon="-120.003877"><ele>2678.2</ele><time>2026-04-10T21:51:12Z</time></trkpt>
<trkpt lat="38.704346" lon="-120.003698"><ele>2676.8</ele><time>2026-04-10T21:51:26Z</time></trkpt>
<trkpt lat="38.704356" lon="-120.003623"><ele>2678.4</ele><time>2026-04-10T21:51:49Z</time></trkpt>
<trkpt lat="38.704309" lon="-120.003580"><ele>2678.4</ele><time>2026-04-10T21:51:54Z</time></trkpt>
<trkpt lat="38.704075" lon="-120.003569"><ele>2675.6</ele><time>2026-04-10T21:52:15Z</time></trkpt>
<trkpt lat="38.703673" lon="-120.003346"><ele>2666.6</ele><time>2026-04-10T21:52:55Z</time></trkpt>
<trkpt lat="38.703294" lon="-120.003238"><ele>2660.6</ele><time>2026-04-10T21:53:45Z</time></trkpt>
<trkpt lat="38.703283" lon="-120.003223"><ele>2657.4</ele><time>2026-04-10T21:54:48Z</time></trkpt>
<trkpt lat="38.703280" lon="-120.003249"><ele>2660.8</ele><time>2026-04-10T21:57:07Z</time></trkpt>
<trkpt lat="38.703233" lon="-120.003215"><ele>2661.6</ele><time>2026-04-10T21:57:42Z</time></trkpt>
<trkpt lat="38.703233" lon="-120.003215"><ele>2658.4</ele><time>2026-04-10T21:58:44Z</time></trkpt>
<trkpt lat="38.703233" lon="-120.003215"><ele>2661.6</ele><time>2026-04-10T21:58:56Z</time></trkpt>
<trkpt lat="38.703188" lon="-120.003170"><ele>2663.4</ele><time>2026-04-10T21:59:03Z</time></trkpt>
<trkpt lat="38.703171" lon="-120.003152"><ele>2659.2</ele><time>2026-04-10T21:59:20Z</time></trkpt>
<trkpt lat="38.703122" lon="-120.003119"><ele>2660.8</ele><time>2026-04-10T21:59:27Z</time></trkpt>
<trkpt lat="38.703002" lon="-120.002981"><ele>2657.8</ele><time>2026-04-10T21:59:44Z</time></trkpt>
<trkpt lat="38.702796" lon="-120.003026"><ele>2654.6</ele><time>2026-04-10T22:00:05Z</time></trkpt>
<trkpt lat="38.702689" lon="-120.002980"><ele>2654.4</ele><time>2026-04-10T22:00:18Z</time></trkpt>
<trkpt lat="38.702617" lon="-120.002830"><ele>2650.4</ele><time>2026-04-10T22:00:30Z</time></trkpt>
<trkpt lat="38.702596" lon="-120.002534"><ele>2645.0</ele><time>2026-04-10T22:00:53Z</time></trkpt>
<trkpt lat="38.702681" lon="-120.002029"><ele>2642.4</ele><time>2026-04-10T22:01:29Z</time></trkpt>
<trkpt lat="38.702654" lon="-120.001702"><ele>2634.2</ele><time>2026-04-10T22:02:05Z</time></trkpt>
<trkpt lat="38.702635" lon="-120.001461"><ele>2633.6</ele><time>2026-04-10T22:02:24Z</time></trkpt>
<trkpt lat="38.702520" lon="-120.001292"><ele>2632.0</ele><time>2026-04-10T22:02:42Z</time></trkpt>
<trkpt lat="38.702390" lon="-120.001259"><ele>2629.2</ele><time>2026-04-10T22:02:55Z</time></trkpt>
<trkpt lat="38.702349" lon="-120.001303"><ele>2628.4</ele><time>2026-04-10T22:02:59Z</time></trkpt>
<trkpt lat="38.702342" lon="-120.001478"><ele>2623.6</ele><time>2026-04-10T22:03:13Z</time></trkpt>
<trkpt lat="38.702315" lon="-120.001479"><ele>2621.4</ele><time>2026-04-10T22:03:17Z</time></trkpt>
<trkpt lat="38.702183" lon="-120.001164"><ele>2625.8</ele><time>2026-04-10T22:03:40Z</time></trkpt>
<trkpt lat="38.702135" lon="-120.001225"><ele>2623.6</ele><time>2026-04-10T22:03:46Z</time></trkpt>
<trkpt lat="38.702133" lon="-120.001486"><ele>2617.0</ele><time>2026-04-10T22:04:04Z</time></trkpt>
<trkpt lat="38.702096" lon="-120.001484"><ele>2616.6</ele><time>2026-04-10T22:04:08Z</time></trkpt>
<trkpt lat="38.702009" lon="-120.001310"><ele>2615.4</ele><time>2026-04-10T22:04:21Z</time></trkpt>
<trkpt lat="38.701988" lon="-120.001193"><ele>2614.8</ele><time>2026-04-10T22:04:29Z</time></trkpt>
<trkpt lat="38.702006" lon="-120.001108"><ele>2615.2</ele><time>2026-04-10T22:04:35Z</time></trkpt>
<trkpt lat="38.702040" lon="-120.001033"><ele>2615.0</ele><time>2026-04-10T22:04:41Z</time></trkpt>
<trkpt lat="38.702115" lon="-120.000963"><ele>2610.8</ele><time>2026-04-10T22:04:52Z</time></trkpt>
<trkpt lat="38.702187" lon="-120.000905"><ele>2612.6</ele><time>2026-04-10T22:05:02Z</time></trkpt>
<trkpt lat="38.702192" lon="-120.000909"><ele>2616.0</ele><time>2026-04-10T22:05:18Z</time></trkpt>
<trkpt lat="38.702209" lon="-120.000825"><ele>2614.4</ele><time>2026-04-10T22:05:30Z</time></trkpt>
<trkpt lat="38.702185" lon="-120.000745"><ele>2613.8</ele><time>2026-04-10T22:05:43Z</time></trkpt>
<trkpt lat="38.701905" lon="-120.000708"><ele>2610.6</ele><time>2026-04-10T22:06:14Z</time></trkpt>
<trkpt lat="38.701837" lon="-120.000713"><ele>2614.4</ele><time>2026-04-10T22:06:23Z</time></trkpt>
<trkpt lat="38.701860" lon="-120.000703"><ele>2613.2</ele><time>2026-04-10T22:06:41Z</time></trkpt>
<trkpt lat="38.701860" lon="-120.000703"><ele>2606.2</ele><time>2026-04-10T22:07:00Z</time></trkpt>
<trkpt lat="38.701860" lon="-120.000703"><ele>2609.2</ele><time>2026-04-10T22:07:04Z</time></trkpt>
<trkpt lat="38.701809" lon="-120.000722"><ele>2612.4</ele><time>2026-04-10T22:07:08Z</time></trkpt>
<trkpt lat="38.701660" lon="-120.000811"><ele>2609.0</ele><time>2026-04-10T22:07:21Z</time></trkpt>
<trkpt lat="38.701615" lon="-120.000722"><ele>2607.0</ele><time>2026-04-10T22:07:28Z</time></trkpt>
<trkpt lat="38.701547" lon="-120.000685"><ele>2607.8</ele><time>2026-04-10T22:07:35Z</time></trkpt>
<trkpt lat="38.701506" lon="-120.000735"><ele>2607.0</ele><time>2026-04-10T22:07:41Z</time></trkpt>
<trkpt lat="38.701395" lon="-120.000760"><ele>2604.4</ele><time>2026-04-10T22:07:55Z</time></trkpt>
<trkpt lat="38.701310" lon="-120.000826"><ele>2610.4</ele><time>2026-04-10T22:08:08Z</time></trkpt>
<trkpt lat="38.701196" lon="-120.000769"><ele>2612.0</ele><time>2026-04-10T22:08:22Z</time></trkpt>
<trkpt lat="38.701103" lon="-120.000685"><ele>2607.4</ele><time>2026-04-10T22:08:33Z</time></trkpt>
<trkpt lat="38.701012" lon="-120.000708"><ele>2606.2</ele><time>2026-04-10T22:08:47Z</time></trkpt>
<trkpt lat="38.700906" lon="-120.000796"><ele>2606.8</ele><time>2026-04-10T22:09:00Z</time></trkpt>
<trkpt lat="38.700787" lon="-120.001040"><ele>2608.4</ele><time>2026-04-10T22:09:26Z</time></trkpt>
<trkpt lat="38.700668" lon="-120.001025"><ele>2608.0</ele><time>2026-04-10T22:09:40Z</time></trkpt>
<trkpt lat="38.700486" lon="-120.001090"><ele>2604.8</ele><time>2026-04-10T22:10:11Z</time></trkpt>
<trkpt lat="38.700469" lon="-120.001078"><ele>2606.8</ele><time>2026-04-10T22:10:21Z</time></trkpt>
<trkpt lat="38.700206" lon="-120.001057"><ele>2605.4</ele><time>2026-04-10T22:10:46Z</time></trkpt>
<trkpt lat="38.699964" lon="-120.001137"><ele>2607.0</ele><time>2026-04-10T22:11:15Z</time></trkpt>
<trkpt lat="38.699833" lon="-120.001196"><ele>2605.0</ele><time>2026-04-10T22:11:36Z</time></trkpt>
<trkpt lat="38.699732" lon="-120.001174"><ele>2603.6</ele><time>2026-04-10T22:11:55Z</time></trkpt>
<trkpt lat="38.699710" lon="-120.001091"><ele>2603.6</ele><time>2026-04-10T22:12:06Z</time></trkpt>
<trkpt lat="38.699576" lon="-120.001030"><ele>2602.6</ele><time>2026-04-10T22:12:22Z</time></trkpt>
<trkpt lat="38.699432" lon="-120.001027"><ele>2601.0</ele><time>2026-04-10T22:12:46Z</time></trkpt>
<trkpt lat="38.699209" lon="-120.001084"><ele>2599.8</ele><time>2026-04-10T22:13:05Z</time></trkpt>
<trkpt lat="38.698982" lon="-120.001103"><ele>2602.4</ele><time>2026-04-10T22:13:42Z</time></trkpt>
<trkpt lat="38.698857" lon="-120.001056"><ele>2603.0</ele><time>2026-04-10T22:13:59Z</time></trkpt>
<trkpt lat="38.698708" lon="-120.000925"><ele>2604.0</ele><time>2026-04-10T22:14:24Z</time></trkpt>
<trkpt lat="38.698528" lon="-120.000569"><ele>2604.0</ele><time>2026-04-10T22:15:04Z</time></trkpt>
<trkpt lat="38.698362" lon="-120.000628"><ele>2601.8</ele><time>2026-04-10T22:15:27Z</time></trkpt>
<trkpt lat="38.698295" lon="-120.000531"><ele>2601.0</ele><time>2026-04-10T22:15:40Z</time></trkpt>
<trkpt lat="38.698249" lon="-120.000518"><ele>2599.0</ele><time>2026-04-10T22:15:48Z</time></trkpt>
<trkpt lat="38.698145" lon="-120.000492"><ele>2602.4</ele><time>2026-04-10T22:16:01Z</time></trkpt>
<trkpt lat="38.698087" lon="-120.000472"><ele>2599.8</ele><time>2026-04-10T22:16:07Z</time></trkpt>
<trkpt lat="38.697947" lon="-120.000413"><ele>2602.4</ele><time>2026-04-10T22:16:20Z</time></trkpt>
<trkpt lat="38.697827" lon="-120.000368"><ele>2596.2</ele><time>2026-04-10T22:16:34Z</time></trkpt>
<trkpt lat="38.697753" lon="-120.000328"><ele>2598.6</ele><time>2026-04-10T22:16:43Z</time></trkpt>
<trkpt lat="38.697584" lon="-120.000161"><ele>2595.8</ele><time>2026-04-10T22:17:08Z</time></trkpt>
<trkpt lat="38.697264" lon="-119.999989"><ele>2595.8</ele><time>2026-04-10T22:17:55Z</time></trkpt>
<trkpt lat="38.697169" lon="-119.999895"><ele>2596.2</ele><time>2026-04-10T22:18:09Z</time></trkpt>
<trkpt lat="38.696969" lon="-119.999811"><ele>2594.0</ele><time>2026-04-10T22:18:28Z</time></trkpt>
<trkpt lat="38.696346" lon="-119.999116"><ele>2602.0</ele><time>2026-04-10T22:20:54Z</time></trkpt>
<trkpt lat="38.696179" lon="-119.998906"><ele>2600.4</ele><time>2026-04-10T22:21:26Z</time></trkpt>
<trkpt lat="38.696133" lon="-119.998728"><ele>2602.0</ele><time>2026-04-10T22:21:49Z</time></trkpt>
<trkpt lat="38.696022" lon="-119.998529"><ele>2602.6</ele><time>2026-04-10T22:22:17Z</time></trkpt>
<trkpt lat="38.696003" lon="-119.998377"><ele>2605.2</ele><time>2026-04-10T22:22:35Z</time></trkpt>
<trkpt lat="38.695954" lon="-119.998317"><ele>2605.8</ele><time>2026-04-10T22:22:43Z</time></trkpt>
<trkpt lat="38.695938" lon="-119.998227"><ele>2605.6</ele><time>2026-04-10T22:22:57Z</time></trkpt>
<trkpt lat="38.695684" lon="-119.997865"><ele>2609.6</ele><time>2026-04-10T22:23:50Z</time></trkpt>
<trkpt lat="38.695686" lon="-119.997794"><ele>2609.6</ele><time>2026-04-10T22:24:00Z</time></trkpt>
<trkpt lat="38.695649" lon="-119.997752"><ele>2608.6</ele><time>2026-04-10T22:24:09Z</time></trkpt>
<trkpt lat="38.695650" lon="-119.997540"><ele>2608.4</ele><time>2026-04-10T22:24:30Z</time></trkpt>
<trkpt lat="38.695599" lon="-119.997421"><ele>2607.8</ele><time>2026-04-10T22:24:45Z</time></trkpt>
<trkpt lat="38.695624" lon="-119.997355"><ele>2608.2</ele><time>2026-04-10T22:25:02Z</time></trkpt>
<trkpt lat="38.695720" lon="-119.997378"><ele>2609.0</ele><time>2026-04-10T22:25:17Z</time></trkpt>
<trkpt lat="38.695757" lon="-119.997225"><ele>2613.8</ele><time>2026-04-10T22:25:40Z</time></trkpt>
<trkpt lat="38.695825" lon="-119.997123"><ele>2614.2</ele><time>2026-04-10T22:25:52Z</time></trkpt>
<trkpt lat="38.695841" lon="-119.997007"><ele>2614.8</ele><time>2026-04-10T22:26:04Z</time></trkpt>
<trkpt lat="38.695814" lon="-119.996875"><ele>2620.6</ele><time>2026-04-10T22:26:20Z</time></trkpt>
<trkpt lat="38.695822" lon="-119.996716"><ele>2617.8</ele><time>2026-04-10T22:26:50Z</time></trkpt>
<trkpt lat="38.695858" lon="-119.996550"><ele>2618.6</ele><time>2026-04-10T22:27:06Z</time></trkpt>
<trkpt lat="38.695917" lon="-119.996485"><ele>2619.6</ele><time>2026-04-10T22:27:17Z</time></trkpt>
<trkpt lat="38.695974" lon="-119.996327"><ele>2621.2</ele><time>2026-04-10T22:27:31Z</time></trkpt>
<trkpt lat="38.695982" lon="-119.996265"><ele>2621.0</ele><time>2026-04-10T22:27:36Z</time></trkpt>
<trkpt lat="38.695906" lon="-119.996177"><ele>2620.8</ele><time>2026-04-10T22:27:46Z</time></trkpt>
<trkpt lat="38.695783" lon="-119.996133"><ele>2617.6</ele><time>2026-04-10T22:27:58Z</time></trkpt>
<trkpt lat="38.695755" lon="-119.995807"><ele>2614.0</ele><time>2026-04-10T22:28:41Z</time></trkpt>
<trkpt lat="38.695860" lon="-119.995390"><ele>2614.0</ele><time>2026-04-10T22:29:19Z</time></trkpt>
<trkpt lat="38.695926" lon="-119.995238"><ele>2614.0</ele><time>2026-04-10T22:29:33Z</time></trkpt>
<trkpt lat="38.695948" lon="-119.995058"><ele>2617.2</ele><time>2026-04-10T22:29:56Z</time></trkpt>
<trkpt lat="38.695936" lon="-119.994894"><ele>2617.2</ele><time>2026-04-10T22:30:08Z</time></trkpt>
<trkpt lat="38.695969" lon="-119.994795"><ele>2618.2</ele><time>2026-04-10T22:30:17Z</time></trkpt>
<trkpt lat="38.695942" lon="-119.994669"><ele>2618.0</ele><time>2026-04-10T22:30:29Z</time></trkpt>
<trkpt lat="38.695980" lon="-119.994575"><ele>2616.4</ele><time>2026-04-10T22:30:39Z</time></trkpt>
<trkpt lat="38.695922" lon="-119.994366"><ele>2615.8</ele><time>2026-04-10T22:30:59Z</time></trkpt>
<trkpt lat="38.696052" lon="-119.994195"><ele>2613.8</ele><time>2026-04-10T22:31:20Z</time></trkpt>
<trkpt lat="38.696076" lon="-119.994090"><ele>2612.6</ele><time>2026-04-10T22:31:29Z</time></trkpt>
<trkpt lat="38.696053" lon="-119.993961"><ele>2610.6</ele><time>2026-04-10T22:31:41Z</time></trkpt>
<trkpt lat="38.696122" lon="-119.993813"><ele>2611.8</ele><time>2026-04-10T22:31:58Z</time></trkpt>
<trkpt lat="38.696122" lon="-119.993731"><ele>2610.8</ele><time>2026-04-10T22:32:04Z</time></trkpt>
<trkpt lat="38.696068" lon="-119.993493"><ele>2608.2</ele><time>2026-04-10T22:32:26Z</time></trkpt>
<trkpt lat="38.696120" lon="-119.993237"><ele>2607.2</ele><time>2026-04-10T22:32:46Z</time></trkpt>
<trkpt lat="38.696209" lon="-119.993183"><ele>2605.0</ele><time>2026-04-10T22:32:57Z</time></trkpt>
<trkpt lat="38.696229" lon="-119.993035"><ele>2604.8</ele><time>2026-04-10T22:33:09Z</time></trkpt>
<trkpt lat="38.696381" lon="-119.992795"><ele>2602.6</ele><time>2026-04-10T22:33:30Z</time></trkpt>
<trkpt lat="38.696677" lon="-119.992620"><ele>2607.4</ele><time>2026-04-10T22:34:05Z</time></trkpt>
<trkpt lat="38.696718" lon="-119.992562"><ele>2606.0</ele><time>2026-04-10T22:34:12Z</time></trkpt>
<trkpt lat="38.696782" lon="-119.992345"><ele>2602.6</ele><time>2026-04-10T22:34:31Z</time></trkpt>
<trkpt lat="38.696758" lon="-119.992215"><ele>2600.8</ele><time>2026-04-10T22:34:39Z</time></trkpt>
<trkpt lat="38.696797" lon="-119.991982"><ele>2598.4</ele><time>2026-04-10T22:35:07Z</time></trkpt>
<trkpt lat="38.696760" lon="-119.991868"><ele>2597.2</ele><time>2026-04-10T22:35:15Z</time></trkpt>
<trkpt lat="38.696814" lon="-119.991677"><ele>2597.6</ele><time>2026-04-10T22:35:50Z</time></trkpt>
</trkseg></trk>
</gpx>
