<?xml version="1.0" encoding="UTF-8"?>
<gpx version="1.1" creator="Eric Sichak trip reports" xmlns="http://www.topografix.com/GPX/1/1">
<metadata><name>Talking Mountain</name><time>2025-03-08T16:46:52Z</time></metadata>
<trk><name>Talking Mountain</name><type>ski</type><trkseg>
<trkpt lat="38.824436" lon="-120.033773"><ele>2256.4</ele><time>2025-03-08T16:46:52Z</time></trkpt>
<trkpt lat="38.824704" lon="-120.033968"><ele>2257.8</ele><time>2025-03-08T16:47:23Z</time></trkpt>
<trkpt lat="38.825336" lon="-120.034302"><ele>2260.8</ele><time>2025-03-08T16:48:17Z</time></trkpt>
<trkpt lat="38.825549" lon="-120.034595"><ele>2261.4</ele><time>2025-03-08T16:48:46Z</time></trkpt>
<trkpt lat="38.825914" lon="-120.034905"><ele>2263.8</ele><time>2025-03-08T16:49:19Z</time></trkpt>
<trkpt lat="38.826264" lon="-120.035142"><ele>2265.6</ele><time>2025-03-08T16:49:52Z</time></trkpt>
<trkpt lat="38.826433" lon="-120.035325"><ele>2266.8</ele><time>2025-03-08T16:50:10Z</time></trkpt>
<trkpt lat="38.826594" lon="-120.035538"><ele>2266.8</ele><time>2025-03-08T16:50:25Z</time></trkpt>
<trkpt lat="38.826773" lon="-120.035870"><ele>2267.2</ele><time>2025-03-08T16:50:48Z</time></trkpt>
<trkpt lat="38.826912" lon="-120.036419"><ele>2269.6</ele><time>2025-03-08T16:51:24Z</time></trkpt>
<trkpt lat="38.827251" lon="-120.037042"><ele>2271.8</ele><time>2025-03-08T16:52:11Z</time></trkpt>
<trkpt lat="38.827581" lon="-120.037966"><ele>2273.6</ele><time>2025-03-08T16:53:14Z</time></trkpt>
<trkpt lat="38.827708" lon="-120.038108"><ele>2274.2</ele><time>2025-03-08T16:53:30Z</time></trkpt>
<trkpt lat="38.828078" lon="-120.038400"><ele>2276.2</ele><time>2025-03-08T16:54:22Z</time></trkpt>
<trkpt lat="38.828311" lon="-120.038658"><ele>2278.2</ele><time>2025-03-08T16:54:50Z</time></trkpt>
<trkpt lat="38.828509" lon="-120.038817"><ele>2281.2</ele><time>2025-03-08T16:55:13Z</time></trkpt>
<trkpt lat="38.828639" lon="-120.039011"><ele>2283.4</ele><time>2025-03-08T16:55:33Z</time></trkpt>
<trkpt lat="38.828967" lon="-120.039231"><ele>2284.2</ele><time>2025-03-08T16:56:10Z</time></trkpt>
<trkpt lat="38.829005" lon="-120.039288"><ele>2284.0</ele><time>2025-03-08T16:56:17Z</time></trkpt>
<trkpt lat="38.829034" lon="-120.039451"><ele>2285.8</ele><time>2025-03-08T16:56:32Z</time></trkpt>
<trkpt lat="38.829138" lon="-120.039734"><ele>2286.4</ele><time>2025-03-08T16:57:00Z</time></trkpt>
<trkpt lat="38.829232" lon="-120.039851"><ele>2287.6</ele><time>2025-03-08T16:57:16Z</time></trkpt>
<trkpt lat="38.829349" lon="-120.039907"><ele>2289.2</ele><time>2025-03-08T16:57:45Z</time></trkpt>
<trkpt lat="38.829313" lon="-120.039936"><ele>2289.0</ele><time>2025-03-08T16:58:21Z</time></trkpt>
<trkpt lat="38.829361" lon="-120.039951"><ele>2289.0</ele><time>2025-03-08T16:58:29Z</time></trkpt>
<trkpt lat="38.829402" lon="-120.040007"><ele>2291.6</ele><time>2025-03-08T16:58:36Z</time></trkpt>
<trkpt lat="38.829247" lon="-120.040495"><ele>2297.8</ele><time>2025-03-08T16:59:26Z</time></trkpt>
<trkpt lat="38.829217" lon="-120.040701"><ele>2299.8</ele><time>2025-03-08T16:59:41Z</time></trkpt>
<trkpt lat="38.829349" lon="-120.041153"><ele>2307.6</ele><time>2025-03-08T17:00:29Z</time></trkpt>
<trkpt lat="38.829377" lon="-120.041558"><ele>2312.8</ele><time>2025-03-08T17:01:12Z</time></trkpt>
<trkpt lat="38.829551" lon="-120.041825"><ele>2318.8</ele><time>2025-03-08T17:01:52Z</time></trkpt>
<trkpt lat="38.829779" lon="-120.042377"><ele>2326.4</ele><time>2025-03-08T17:02:56Z</time></trkpt>
<trkpt lat="38.829973" lon="-120.042672"><ele>2333.0</ele><time>2025-03-08T17:03:37Z</time></trkpt>
<trkpt lat="38.830065" lon="-120.043091"><ele>2336.6</ele><time>2025-03-08T17:04:13Z</time></trkpt>
<trkpt lat="38.830140" lon="-120.043252"><ele>2337.6</ele><time>2025-03-08T17:04:26Z</time></trkpt>
<trkpt lat="38.830396" lon="-120.043585"><ele>2341.8</ele><time>2025-03-08T17:05:08Z</time></trkpt>
<trkpt lat="38.830490" lon="-120.043848"><ele>2344.0</ele><time>2025-03-08T17:05:33Z</time></trkpt>
<trkpt lat="38.830623" lon="-120.044084"><ele>2347.6</ele><time>2025-03-08T17:06:07Z</time></trkpt>
<trkpt lat="38.830850" lon="-120.044428"><ele>2354.6</ele><time>2025-03-08T17:06:56Z</time></trkpt>
<trkpt lat="38.831171" lon="-120.044835"><ele>2365.8</ele><time>2025-03-08T17:08:07Z</time></trkpt>
<trkpt lat="38.831255" lon="-120.045206"><ele>2373.2</ele><time>2025-03-08T17:08:50Z</time></trkpt>
<trkpt lat="38.831396" lon="-120.045484"><ele>2378.8</ele><time>2025-03-08T17:09:24Z</time></trkpt>
<trkpt lat="38.831441" lon="-120.045697"><ele>2382.4</ele><time>2025-03-08T17:09:47Z</time></trkpt>
<trkpt lat="38.831439" lon="-120.045862"><ele>2383.4</ele><time>2025-03-08T17:10:00Z</time></trkpt>
<trkpt lat="38.831350" lon="-120.046111"><ele>2383.6</ele><time>2025-03-08T17:10:20Z</time></trkpt>
<trkpt lat="38.831293" lon="-120.046395"><ele>2385.2</ele><time>2025-03-08T17:10:45Z</time></trkpt>
<trkpt lat="38.831271" lon="-120.046757"><ele>2388.2</ele><time>2025-03-08T17:11:19Z</time></trkpt>
<trkpt lat="38.831300" lon="-120.047146"><ele>2391.6</ele><time>2025-03-08T17:12:01Z</time></trkpt>
<trkpt lat="38.831262" lon="-120.047670"><ele>2396.6</ele><time>2025-03-08T17:12:53Z</time></trkpt>
<trkpt lat="38.831307" lon="-120.047933"><ele>2399.4</ele><time>2025-03-08T17:13:20Z</time></trkpt>
<trkpt lat="38.831406" lon="-120.048250"><ele>2402.2</ele><time>2025-03-08T17:13:53Z</time></trkpt>
<trkpt lat="38.831446" lon="-120.048441"><ele>2404.0</ele><time>2025-03-08T17:14:13Z</time></trkpt>
<trkpt lat="38.831442" lon="-120.048567"><ele>2405.6</ele><time>2025-03-08T17:14:27Z</time></trkpt>
<trkpt lat="38.831492" lon="-120.048744"><ele>2407.0</ele><time>2025-03-08T17:14:42Z</time></trkpt>
<trkpt lat="38.831479" lon="-120.048858"><ele>2407.6</ele><time>2025-03-08T17:14:54Z</time></trkpt>
<trkpt lat="38.831506" lon="-120.049013"><ele>2409.0</ele><time>2025-03-08T17:15:30Z</time></trkpt>
<trkpt lat="38.831495" lon="-120.048994"><ele>2408.6</ele><time>2025-03-08T17:16:11Z</time></trkpt>
<trkpt lat="38.831460" lon="-120.049441"><ele>2412.2</ele><time>2025-03-08T17:16:54Z</time></trkpt>
<trkpt lat="38.831484" lon="-120.050125"><ele>2413.8</ele><time>2025-03-08T17:17:40Z</time></trkpt>
<trkpt lat="38.831387" lon="-120.050554"><ele>2414.0</ele><time>2025-03-08T17:18:10Z</time></trkpt>
<trkpt lat="38.831413" lon="-120.050746"><ele>2414.2</ele><time>2025-03-08T17:18:24Z</time></trkpt>
<trkpt lat="38.831548" lon="-120.051048"><ele>2415.0</ele><time>2025-03-08T17:18:52Z</time></trkpt>
<trkpt lat="38.831594" lon="-120.051294"><ele>2415.8</ele><time>2025-03-08T17:19:14Z</time></trkpt>
<trkpt lat="38.831481" lon="-120.051644"><ele>2419.2</ele><time>2025-03-08T17:19:47Z</time></trkpt>
<trkpt lat="38.831487" lon="-120.051831"><ele>2418.8</ele><time>2025-03-08T17:20:14Z</time></trkpt>
<trkpt lat="38.831545" lon="-120.052016"><ele>2419.8</ele><time>2025-03-08T17:20:28Z</time></trkpt>
<trkpt lat="38.831521" lon="-120.052186"><ele>2420.2</ele><time>2025-03-08T17:20:40Z</time></trkpt>
<trkpt lat="38.831555" lon="-120.052306"><ele>2420.4</ele><time>2025-03-08T17:20:49Z</time></trkpt>
<trkpt lat="38.831560" lon="-120.052537"><ele>2421.0</ele><time>2025-03-08T17:21:08Z</time></trkpt>
<trkpt lat="38.831528" lon="-120.052623"><ele>2420.8</ele><time>2025-03-08T17:21:14Z</time></trkpt>
<trkpt lat="38.831536" lon="-120.052704"><ele>2421.0</ele><time>2025-03-08T17:21:20Z</time></trkpt>
<trkpt lat="38.831606" lon="-120.052894"><ele>2422.0</ele><time>2025-03-08T17:21:38Z</time></trkpt>
<trkpt lat="38.831607" lon="-120.053018"><ele>2423.0</ele><time>2025-03-08T17:21:52Z</time></trkpt>
<trkpt lat="38.831539" lon="-120.053120"><ele>2423.0</ele><time>2025-03-08T17:22:11Z</time></trkpt>
<trkpt lat="38.831521" lon="-120.053221"><ele>2424.4</ele><time>2025-03-08T17:22:22Z</time></trkpt>
<trkpt lat="38.831562" lon="-120.053437"><ele>2427.4</ele><time>2025-03-08T17:22:43Z</time></trkpt>
<trkpt lat="38.831613" lon="-120.053538"><ele>2428.4</ele><time>2025-03-08T17:22:53Z</time></trkpt>
<trkpt lat="38.831663" lon="-120.053940"><ele>2434.0</ele><time>2025-03-08T17:23:46Z</time></trkpt>
<trkpt lat="38.831577" lon="-120.054052"><ele>2435.2</ele><time>2025-03-08T17:24:04Z</time></trkpt>
<trkpt lat="38.831561" lon="-120.054261"><ele>2436.8</ele><time>2025-03-08T17:24:27Z</time></trkpt>
<trkpt lat="38.831514" lon="-120.054421"><ele>2438.4</ele><time>2025-03-08T17:24:47Z</time></trkpt>
<trkpt lat="38.831510" lon="-120.054661"><ele>2439.2</ele><time>2025-03-08T17:25:08Z</time></trkpt>
<trkpt lat="38.831452" lon="-120.054836"><ele>2439.8</ele><time>2025-03-08T17:25:38Z</time></trkpt>
<trkpt lat="38.831450" lon="-120.054968"><ele>2439.2</ele><time>2025-03-08T17:25:44Z</time></trkpt>
<trkpt lat="38.831395" lon="-120.055182"><ele>2439.4</ele><time>2025-03-08T17:25:58Z</time></trkpt>
<trkpt lat="38.831467" lon="-120.055463"><ele>2437.6</ele><time>2025-03-08T17:26:22Z</time></trkpt>
<trkpt lat="38.831424" lon="-120.055992"><ele>2435.4</ele><time>2025-03-08T17:27:06Z</time></trkpt>
<trkpt lat="38.831528" lon="-120.056283"><ele>2435.2</ele><time>2025-03-08T17:27:31Z</time></trkpt>
<trkpt lat="38.831532" lon="-120.056524"><ele>2436.2</ele><time>2025-03-08T17:27:59Z</time></trkpt>
<trkpt lat="38.831500" lon="-120.056635"><ele>2436.4</ele><time>2025-03-08T17:28:10Z</time></trkpt>
<trkpt lat="38.831499" lon="-120.056839"><ele>2433.8</ele><time>2025-03-08T17:28:20Z</time></trkpt>
<trkpt lat="38.831557" lon="-120.056994"><ele>2435.2</ele><time>2025-03-08T17:29:16Z</time></trkpt>
<trkpt lat="38.831583" lon="-120.056998"><ele>2435.2</ele><time>2025-03-08T17:29:24Z</time></trkpt>
<trkpt lat="38.831649" lon="-120.057287"><ele>2440.8</ele><time>2025-03-08T17:30:34Z</time></trkpt>
<trkpt lat="38.831773" lon="-120.057475"><ele>2445.4</ele><time>2025-03-08T17:31:10Z</time></trkpt>
<trkpt lat="38.831902" lon="-120.057756"><ele>2449.4</ele><time>2025-03-08T17:31:50Z</time></trkpt>
<trkpt lat="38.831930" lon="-120.057926"><ele>2453.0</ele><time>2025-03-08T17:32:13Z</time></trkpt>
<trkpt lat="38.831917" lon="-120.058054"><ele>2457.4</ele><time>2025-03-08T17:32:42Z</time></trkpt>
<trkpt lat="38.831813" lon="-120.058248"><ele>2464.2</ele><time>2025-03-08T17:33:22Z</time></trkpt>
<trkpt lat="38.831827" lon="-120.058371"><ele>2467.4</ele><time>2025-03-08T17:33:57Z</time></trkpt>
<trkpt lat="38.831841" lon="-120.058347"><ele>2467.0</ele><time>2025-03-08T17:34:05Z</time></trkpt>
<trkpt lat="38.831886" lon="-120.058459"><ele>2467.8</ele><time>2025-03-08T17:34:18Z</time></trkpt>
<trkpt lat="38.831775" lon="-120.058782"><ele>2478.0</ele><time>2025-03-08T17:35:04Z</time></trkpt>
<trkpt lat="38.831932" lon="-120.058891"><ele>2484.4</ele><time>2025-03-08T17:35:42Z</time></trkpt>
<trkpt lat="38.831769" lon="-120.059552"><ele>2495.6</ele><time>2025-03-08T17:37:05Z</time></trkpt>
<trkpt lat="38.831869" lon="-120.059698"><ele>2500.4</ele><time>2025-03-08T17:37:42Z</time></trkpt>
<trkpt lat="38.831916" lon="-120.059915"><ele>2506.2</ele><time>2025-03-08T17:38:14Z</time></trkpt>
<trkpt lat="38.831984" lon="-120.059975"><ele>2509.6</ele><time>2025-03-08T17:38:30Z</time></trkpt>
<trkpt lat="38.831993" lon="-120.060029"><ele>2510.8</ele><time>2025-03-08T17:38:37Z</time></trkpt>
<trkpt lat="38.831899" lon="-120.060316"><ele>2517.6</ele><time>2025-03-08T17:39:20Z</time></trkpt>
<trkpt lat="38.831878" lon="-120.060504"><ele>2522.8</ele><time>2025-03-08T17:40:03Z</time></trkpt>
<trkpt lat="38.831824" lon="-120.060529"><ele>2523.8</ele><time>2025-03-08T17:40:31Z</time></trkpt>
<trkpt lat="38.831790" lon="-120.060637"><ele>2523.6</ele><time>2025-03-08T17:40:44Z</time></trkpt>
<trkpt lat="38.831549" lon="-120.060845"><ele>2521.2</ele><time>2025-03-08T17:41:25Z</time></trkpt>
<trkpt lat="38.831495" lon="-120.060939"><ele>2519.8</ele><time>2025-03-08T17:41:28Z</time></trkpt>
<trkpt lat="38.831301" lon="-120.061549"><ele>2518.2</ele><time>2025-03-08T17:42:19Z</time></trkpt>
<trkpt lat="38.831114" lon="-120.061942"><ele>2519.6</ele><time>2025-03-08T17:43:29Z</time></trkpt>
<trkpt lat="38.831029" lon="-120.062195"><ele>2524.0</ele><time>2025-03-08T17:44:15Z</time></trkpt>
<trkpt lat="38.830977" lon="-120.062502"><ele>2526.4</ele><time>2025-03-08T17:45:07Z</time></trkpt>
<trkpt lat="38.830931" lon="-120.062628"><ele>2525.6</ele><time>2025-03-08T17:45:19Z</time></trkpt>
<trkpt lat="38.830799" lon="-120.062822"><ele>2524.2</ele><time>2025-03-08T17:45:43Z</time></trkpt>
<trkpt lat="38.830740" lon="-120.063088"><ele>2521.8</ele><time>2025-03-08T17:46:05Z</time></trkpt>
<trkpt lat="38.830714" lon="-120.063691"><ele>2523.6</ele><time>2025-03-08T17:48:56Z</time></trkpt>
<trkpt lat="38.830676" lon="-120.063709"><ele>2523.6</ele><time>2025-03-08T17:50:08Z</time></trkpt>
<trkpt lat="38.830683" lon="-120.063783"><ele>2521.2</ele><time>2025-03-08T17:51:10Z</time></trkpt>
<trkpt lat="38.830644" lon="-120.063778"><ele>2519.6</ele><time>2025-03-08T17:52:03Z</time></trkpt>
<trkpt lat="38.830668" lon="-120.063770"><ele>2519.4</ele><time>2025-03-08T17:52:10Z</time></trkpt>
<trkpt lat="38.830662" lon="-120.063787"><ele>2522.2</ele><time>2025-03-08T17:54:02Z</time></trkpt>
<trkpt lat="38.830626" lon="-120.063889"><ele>2521.2</ele><time>2025-03-08T17:54:57Z</time></trkpt>
<trkpt lat="38.830621" lon="-120.064075"><ele>2521.4</ele><time>2025-03-08T17:55:51Z</time></trkpt>
<trkpt lat="38.830671" lon="-120.064117"><ele>2525.8</ele><time>2025-03-08T17:56:58Z</time></trkpt>
<trkpt lat="38.830728" lon="-120.064060"><ele>2529.6</ele><time>2025-03-08T17:57:30Z</time></trkpt>
<trkpt lat="38.830854" lon="-120.064038"><ele>2537.6</ele><time>2025-03-08T17:58:28Z</time></trkpt>
<trkpt lat="38.830864" lon="-120.064100"><ele>2538.2</ele><time>2025-03-08T17:59:21Z</time></trkpt>
<trkpt lat="38.830869" lon="-120.064079"><ele>2540.4</ele><time>2025-03-08T18:00:25Z</time></trkpt>
<trkpt lat="38.830852" lon="-120.064090"><ele>2540.2</ele><time>2025-03-08T18:00:52Z</time></trkpt>
<trkpt lat="38.830881" lon="-120.064084"><ele>2540.4</ele><time>2025-03-08T18:01:06Z</time></trkpt>
<trkpt lat="38.830857" lon="-120.064084"><ele>2540.2</ele><time>2025-03-08T18:01:26Z</time></trkpt>
<trkpt lat="38.830871" lon="-120.064247"><ele>2541.4</ele><time>2025-03-08T18:03:34Z</time></trkpt>
<trkpt lat="38.830908" lon="-120.064248"><ele>2543.6</ele><time>2025-03-08T18:03:43Z</time></trkpt>
<trkpt lat="38.830942" lon="-120.064157"><ele>2545.4</ele><time>2025-03-08T18:03:54Z</time></trkpt>
<trkpt lat="38.830967" lon="-120.064151"><ele>2548.4</ele><time>2025-03-08T18:04:33Z</time></trkpt>
<trkpt lat="38.831020" lon="-120.064511"><ele>2556.0</ele><time>2025-03-08T18:05:21Z</time></trkpt>
<trkpt lat="38.831094" lon="-120.064419"><ele>2560.6</ele><time>2025-03-08T18:05:43Z</time></trkpt>
<trkpt lat="38.831141" lon="-120.064728"><ele>2567.0</ele><time>2025-03-08T18:06:48Z</time></trkpt>
<trkpt lat="38.831078" lon="-120.065145"><ele>2575.2</ele><time>2025-03-08T18:07:51Z</time></trkpt>
<trkpt lat="38.831085" lon="-120.065241"><ele>2577.6</ele><time>2025-03-08T18:08:25Z</time></trkpt>
<trkpt lat="38.831178" lon="-120.065164"><ele>2581.6</ele><time>2025-03-08T18:08:48Z</time></trkpt>
<trkpt lat="38.831225" lon="-120.065612"><ele>2590.8</ele><time>2025-03-08T18:10:00Z</time></trkpt>
<trkpt lat="38.831286" lon="-120.065614"><ele>2592.6</ele><time>2025-03-08T18:10:21Z</time></trkpt>
<trkpt lat="38.831401" lon="-120.065549"><ele>2598.0</ele><time>2025-03-08T18:10:50Z</time></trkpt>
<trkpt lat="38.831455" lon="-120.065574"><ele>2601.8</ele><time>2025-03-08T18:11:18Z</time></trkpt>
<trkpt lat="38.831456" lon="-120.065635"><ele>2603.4</ele><time>2025-03-08T18:11:31Z</time></trkpt>
<trkpt lat="38.831484" lon="-120.065659"><ele>2604.4</ele><time>2025-03-08T18:11:51Z</time></trkpt>
<trkpt lat="38.831491" lon="-120.065837"><ele>2608.0</ele><time>2025-03-08T18:12:53Z</time></trkpt>
<trkpt lat="38.831535" lon="-120.065924"><ele>2608.8</ele><time>2025-03-08T18:13:07Z</time></trkpt>
<trkpt lat="38.831566" lon="-120.066101"><ele>2611.8</ele><time>2025-03-08T18:13:35Z</time></trkpt>
<trkpt lat="38.831569" lon="-120.066240"><ele>2615.4</ele><time>2025-03-08T18:14:10Z</time></trkpt>
<trkpt lat="38.831543" lon="-120.066346"><ele>2616.2</ele><time>2025-03-08T18:15:09Z</time></trkpt>
<trkpt lat="38.831565" lon="-120.066338"><ele>2616.4</ele><time>2025-03-08T18:15:21Z</time></trkpt>
<trkpt lat="38.831540" lon="-120.066401"><ele>2616.2</ele><time>2025-03-08T18:16:29Z</time></trkpt>
<trkpt lat="38.831566" lon="-120.066445"><ele>2615.4</ele><time>2025-03-08T18:17:38Z</time></trkpt>
<trkpt lat="38.831560" lon="-120.066422"><ele>2614.8</ele><time>2025-03-08T18:17:58Z</time></trkpt>
<trkpt lat="38.831588" lon="-120.066586"><ele>2616.6</ele><time>2025-03-08T18:18:13Z</time></trkpt>
<trkpt lat="38.831701" lon="-120.066806"><ele>2617.6</ele><time>2025-03-08T18:18:39Z</time></trkpt>
<trkpt lat="38.831705" lon="-120.066918"><ele>2620.2</ele><time>2025-03-08T18:18:55Z</time></trkpt>
<trkpt lat="38.831787" lon="-120.066907"><ele>2623.6</ele><time>2025-03-08T18:19:14Z</time></trkpt>
<trkpt lat="38.831887" lon="-120.066962"><ele>2627.2</ele><time>2025-03-08T18:19:39Z</time></trkpt>
<trkpt lat="38.831916" lon="-120.067078"><ele>2630.6</ele><time>2025-03-08T18:19:56Z</time></trkpt>
<trkpt lat="38.832185" lon="-120.067262"><ele>2637.2</ele><time>2025-03-08T18:20:45Z</time></trkpt>
<trkpt lat="38.832329" lon="-120.067483"><ele>2643.8</ele><time>2025-03-08T18:21:46Z</time></trkpt>
<trkpt lat="38.832330" lon="-120.067681"><ele>2648.8</ele><time>2025-03-08T18:22:19Z</time></trkpt>
<trkpt lat="38.832392" lon="-120.067683"><ele>2651.6</ele><time>2025-03-08T18:22:34Z</time></trkpt>
<trkpt lat="38.832522" lon="-120.067756"><ele>2655.0</ele><time>2025-03-08T18:22:56Z</time></trkpt>
<trkpt lat="38.832603" lon="-120.067868"><ele>2658.2</ele><time>2025-03-08T18:23:12Z</time></trkpt>
<trkpt lat="38.832593" lon="-120.067855"><ele>2662.8</ele><time>2025-03-08T18:25:33Z</time></trkpt>
<trkpt lat="38.832623" lon="-120.067893"><ele>2665.0</ele><time>2025-03-08T18:26:24Z</time></trkpt>
<trkpt lat="38.832583" lon="-120.068038"><ele>2668.0</ele><time>2025-03-08T18:26:54Z</time></trkpt>
<trkpt lat="38.832652" lon="-120.068109"><ele>2672.8</ele><time>2025-03-08T18:27:15Z</time></trkpt>
<trkpt lat="38.832666" lon="-120.068457"><ele>2680.4</ele><time>2025-03-08T18:28:12Z</time></trkpt>
<trkpt lat="38.832746" lon="-120.068692"><ele>2686.4</ele><time>2025-03-08T18:28:53Z</time></trkpt>
<trkpt lat="38.832819" lon="-120.068926"><ele>2687.4</ele><time>2025-03-08T18:29:24Z</time></trkpt>
<trkpt lat="38.832831" lon="-120.069174"><ele>2691.6</ele><time>2025-03-08T18:30:11Z</time></trkpt>
<trkpt lat="38.832731" lon="-120.069446"><ele>2690.8</ele><time>2025-03-08T18:31:29Z</time></trkpt>
<trkpt lat="38.832751" lon="-120.069554"><ele>2691.2</ele><time>2025-03-08T18:32:45Z</time></trkpt>
<trkpt lat="38.832726" lon="-120.069570"><ele>2692.6</ele><time>2025-03-08T18:34:34Z</time></trkpt>
<trkpt lat="38.832733" lon="-120.069551"><ele>2695.2</ele><time>2025-03-08T18:34:54Z</time></trkpt>
<trkpt lat="38.832766" lon="-120.069388"><ele>2694.6</ele><time>2025-03-08T18:35:02Z</time></trkpt>
<trkpt lat="38.832862" lon="-120.069145"><ele>2696.8</ele><time>2025-03-08T18:35:28Z</time></trkpt>
<trkpt lat="38.832775" lon="-120.068802"><ele>2696.6</ele><time>2025-03-08T18:35:51Z</time></trkpt>
<trkpt lat="38.832763" lon="-120.068626"><ele>2694.8</ele><time>2025-03-08T18:36:13Z</time></trkpt>
<trkpt lat="38.832780" lon="-120.068627"><ele>2702.6</ele><time>2025-03-08T18:38:31Z</time></trkpt>
<trkpt lat="38.832765" lon="-120.068627"><ele>2694.0</ele><time>2025-03-08T18:39:35Z</time></trkpt>
<trkpt lat="38.832753" lon="-120.068614"><ele>2696.4</ele><time>2025-03-08T18:41:39Z</time></trkpt>
<trkpt lat="38.832766" lon="-120.068629"><ele>2693.0</ele><time>2025-03-08T18:42:30Z</time></trkpt>
<trkpt lat="38.832753" lon="-120.068612"><ele>2697.4</ele><time>2025-03-08T18:45:18Z</time></trkpt>
<trkpt lat="38.832762" lon="-120.068618"><ele>2699.8</ele><time>2025-03-08T18:47:27Z</time></trkpt>
<trkpt lat="38.832771" lon="-120.068623"><ele>2689.6</ele><time>2025-03-08T18:52:04Z</time></trkpt>
<trkpt lat="38.832746" lon="-120.068599"><ele>2691.4</ele><time>2025-03-08T18:52:26Z</time></trkpt>
<trkpt lat="38.832676" lon="-120.068336"><ele>2686.6</ele><time>2025-03-08T18:52:42Z</time></trkpt>
<trkpt lat="38.832757" lon="-120.068281"><ele>2682.6</ele><time>2025-03-08T18:52:49Z</time></trkpt>
<trkpt lat="38.832757" lon="-120.068264"><ele>2679.6</ele><time>2025-03-08T18:53:05Z</time></trkpt>
<trkpt lat="38.832715" lon="-120.068112"><ele>2677.4</ele><time>2025-03-08T18:53:30Z</time></trkpt>
<trkpt lat="38.832719" lon="-120.068039"><ele>2674.8</ele><time>2025-03-08T18:53:38Z</time></trkpt>
<trkpt lat="38.832819" lon="-120.068001"><ele>2670.4</ele><time>2025-03-08T18:55:09Z</time></trkpt>
<trkpt lat="38.832786" lon="-120.068010"><ele>2669.8</ele><time>2025-03-08T18:55:52Z</time></trkpt>
<trkpt lat="38.832739" lon="-120.067847"><ele>2664.4</ele><time>2025-03-08T18:57:04Z</time></trkpt>
<trkpt lat="38.832885" lon="-120.067815"><ele>2659.8</ele><time>2025-03-08T18:57:11Z</time></trkpt>
<trkpt lat="38.832864" lon="-120.067671"><ele>2655.0</ele><time>2025-03-08T18:57:17Z</time></trkpt>
<trkpt lat="38.832998" lon="-120.067538"><ele>2651.6</ele><time>2025-03-08T18:57:20Z</time></trkpt>
<trkpt lat="38.833056" lon="-120.067442"><ele>2644.2</ele><time>2025-03-08T18:57:24Z</time></trkpt>
<trkpt lat="38.833038" lon="-120.067474"><ele>2642.6</ele><time>2025-03-08T18:57:30Z</time></trkpt>
<trkpt lat="38.833080" lon="-120.067381"><ele>2640.8</ele><time>2025-03-08T18:58:05Z</time></trkpt>
<trkpt lat="38.833072" lon="-120.067397"><ele>2639.6</ele><time>2025-03-08T18:58:15Z</time></trkpt>
<trkpt lat="38.833054" lon="-120.067329"><ele>2639.4</ele><time>2025-03-08T18:58:26Z</time></trkpt>
<trkpt lat="38.832884" lon="-120.067219"><ele>2637.2</ele><time>2025-03-08T18:58:29Z</time></trkpt>
<trkpt lat="38.832790" lon="-120.067172"><ele>2630.2</ele><time>2025-03-08T18:58:33Z</time></trkpt>
<trkpt lat="38.832808" lon="-120.067132"><ele>2628.2</ele><time>2025-03-08T18:58:54Z</time></trkpt>
<trkpt lat="38.832750" lon="-120.067000"><ele>2627.2</ele><time>2025-03-08T18:58:57Z</time></trkpt>
<trkpt lat="38.832584" lon="-120.066799"><ele>2617.4</ele><time>2025-03-08T18:59:03Z</time></trkpt>
<trkpt lat="38.832578" lon="-120.066820"><ele>2613.6</ele><time>2025-03-08T18:59:14Z</time></trkpt>
<trkpt lat="38.832508" lon="-120.066585"><ele>2612.2</ele><time>2025-03-08T18:59:23Z</time></trkpt>
<trkpt lat="38.832533" lon="-120.066478"><ele>2609.0</ele><time>2025-03-08T18:59:25Z</time></trkpt>
<trkpt lat="38.832623" lon="-120.066376"><ele>2602.0</ele><time>2025-03-08T18:59:28Z</time></trkpt>
<trkpt lat="38.832638" lon="-120.066355"><ele>2593.8</ele><time>2025-03-08T18:59:57Z</time></trkpt>
<trkpt lat="38.832711" lon="-120.066319"><ele>2593.4</ele><time>2025-03-08T19:00:05Z</time></trkpt>
<trkpt lat="38.832734" lon="-120.066105"><ele>2586.8</ele><time>2025-03-08T19:00:10Z</time></trkpt>
<trkpt lat="38.832688" lon="-120.066026"><ele>2582.2</ele><time>2025-03-08T19:00:12Z</time></trkpt>
<trkpt lat="38.832668" lon="-120.066021"><ele>2577.6</ele><time>2025-03-08T19:00:30Z</time></trkpt>
<trkpt lat="38.832741" lon="-120.065854"><ele>2577.0</ele><time>2025-03-08T19:00:35Z</time></trkpt>
<trkpt lat="38.832706" lon="-120.065707"><ele>2571.0</ele><time>2025-03-08T19:00:37Z</time></trkpt>
<trkpt lat="38.832708" lon="-120.065562"><ele>2564.0</ele><time>2025-03-08T19:00:39Z</time></trkpt>
<trkpt lat="38.832646" lon="-120.065385"><ele>2559.2</ele><time>2025-03-08T19:00:42Z</time></trkpt>
<trkpt lat="38.832665" lon="-120.065157"><ele>2551.8</ele><time>2025-03-08T19:00:53Z</time></trkpt>
<trkpt lat="38.832570" lon="-120.065162"><ele>2550.4</ele><time>2025-03-08T19:00:59Z</time></trkpt>
<trkpt lat="38.832533" lon="-120.065094"><ele>2548.2</ele><time>2025-03-08T19:01:01Z</time></trkpt>
<trkpt lat="38.832574" lon="-120.064959"><ele>2543.4</ele><time>2025-03-08T19:01:06Z</time></trkpt>
<trkpt lat="38.832567" lon="-120.064602"><ele>2537.6</ele><time>2025-03-08T19:01:12Z</time></trkpt>
<trkpt lat="38.832509" lon="-120.064311"><ele>2534.2</ele><time>2025-03-08T19:01:16Z</time></trkpt>
<trkpt lat="38.832489" lon="-120.064325"><ele>2529.6</ele><time>2025-03-08T19:01:30Z</time></trkpt>
<trkpt lat="38.832473" lon="-120.064299"><ele>2529.0</ele><time>2025-03-08T19:02:01Z</time></trkpt>
<trkpt lat="38.832498" lon="-120.064323"><ele>2527.6</ele><time>2025-03-08T19:02:43Z</time></trkpt>
<trkpt lat="38.832482" lon="-120.064296"><ele>2525.2</ele><time>2025-03-08T19:03:10Z</time></trkpt>
<trkpt lat="38.832565" lon="-120.064304"><ele>2525.2</ele><time>2025-03-08T19:03:31Z</time></trkpt>
<trkpt lat="38.832453" lon="-120.064121"><ele>2523.4</ele><time>2025-03-08T19:03:39Z</time></trkpt>
<trkpt lat="38.832431" lon="-120.064097"><ele>2520.0</ele><time>2025-03-08T19:04:01Z</time></trkpt>
<trkpt lat="38.832537" lon="-120.064054"><ele>2519.8</ele><time>2025-03-08T19:04:33Z</time></trkpt>
<trkpt lat="38.832634" lon="-120.064091"><ele>2516.6</ele><time>2025-03-08T19:04:37Z</time></trkpt>
<trkpt lat="38.832721" lon="-120.064013"><ele>2515.2</ele><time>2025-03-08T19:04:42Z</time></trkpt>
<trkpt lat="38.832826" lon="-120.064006"><ele>2511.8</ele><time>2025-03-08T19:04:48Z</time></trkpt>
<trkpt lat="38.832808" lon="-120.063973"><ele>2508.8</ele><time>2025-03-08T19:04:54Z</time></trkpt>
<trkpt lat="38.832829" lon="-120.063913"><ele>2508.4</ele><time>2025-03-08T19:04:58Z</time></trkpt>
<trkpt lat="38.833073" lon="-120.063784"><ele>2501.4</ele><time>2025-03-08T19:05:13Z</time></trkpt>
<trkpt lat="38.833318" lon="-120.063495"><ele>2490.4</ele><time>2025-03-08T19:05:23Z</time></trkpt>
<trkpt lat="38.833456" lon="-120.063369"><ele>2487.6</ele><time>2025-03-08T19:05:26Z</time></trkpt>
<trkpt lat="38.833498" lon="-120.063324"><ele>2481.4</ele><time>2025-03-08T19:05:28Z</time></trkpt>
<trkpt lat="38.833478" lon="-120.063334"><ele>2480.0</ele><time>2025-03-08T19:05:32Z</time></trkpt>
<trkpt lat="38.833532" lon="-120.063158"><ele>2477.4</ele><time>2025-03-08T19:05:37Z</time></trkpt>
<trkpt lat="38.833542" lon="-120.063156"><ele>2472.2</ele><time>2025-03-08T19:05:53Z</time></trkpt>
<trkpt lat="38.833551" lon="-120.063203"><ele>2469.8</ele><time>2025-03-08T19:07:15Z</time></trkpt>
<trkpt lat="38.833528" lon="-120.063172"><ele>2469.8</ele><time>2025-03-08T19:07:29Z</time></trkpt>
<trkpt lat="38.833534" lon="-120.062959"><ele>2467.6</ele><time>2025-03-08T19:07:37Z</time></trkpt>
<trkpt lat="38.833511" lon="-120.062879"><ele>2462.0</ele><time>2025-03-08T19:07:39Z</time></trkpt>
<trkpt lat="38.833413" lon="-120.062603"><ele>2455.4</ele><time>2025-03-08T19:07:45Z</time></trkpt>
<trkpt lat="38.833416" lon="-120.062530"><ele>2454.6</ele><time>2025-03-08T19:07:47Z</time></trkpt>
<trkpt lat="38.833395" lon="-120.062545"><ele>2452.6</ele><time>2025-03-08T19:07:51Z</time></trkpt>
<trkpt lat="38.833281" lon="-120.062137"><ele>2448.4</ele><time>2025-03-08T19:08:07Z</time></trkpt>
<trkpt lat="38.833279" lon="-120.062130"><ele>2445.8</ele><time>2025-03-08T19:08:18Z</time></trkpt>
<trkpt lat="38.833405" lon="-120.061810"><ele>2443.2</ele><time>2025-03-08T19:08:46Z</time></trkpt>
<trkpt lat="38.833443" lon="-120.061760"><ele>2441.8</ele><time>2025-03-08T19:08:48Z</time></trkpt>
<trkpt lat="38.833514" lon="-120.061766"><ele>2440.0</ele><time>2025-03-08T19:09:10Z</time></trkpt>
<trkpt lat="38.833616" lon="-120.061443"><ele>2436.2</ele><time>2025-03-08T19:10:08Z</time></trkpt>
<trkpt lat="38.833701" lon="-120.061242"><ele>2429.0</ele><time>2025-03-08T19:10:12Z</time></trkpt>
<trkpt lat="38.833780" lon="-120.061146"><ele>2427.4</ele><time>2025-03-08T19:10:14Z</time></trkpt>
<trkpt lat="38.833900" lon="-120.061020"><ele>2421.0</ele><time>2025-03-08T19:10:17Z</time></trkpt>
<trkpt lat="38.834151" lon="-120.060876"><ele>2415.2</ele><time>2025-03-08T19:10:23Z</time></trkpt>
<trkpt lat="38.834204" lon="-120.060934"><ele>2414.4</ele><time>2025-03-08T19:10:49Z</time></trkpt>
<trkpt lat="38.834301" lon="-120.060917"><ele>2412.8</ele><time>2025-03-08T19:10:54Z</time></trkpt>
<trkpt lat="38.834551" lon="-120.060835"><ele>2409.8</ele><time>2025-03-08T19:11:03Z</time></trkpt>
<trkpt lat="38.834806" lon="-120.060685"><ele>2402.8</ele><time>2025-03-08T19:11:12Z</time></trkpt>
<trkpt lat="38.834852" lon="-120.060694"><ele>2401.2</ele><time>2025-03-08T19:11:27Z</time></trkpt>
<trkpt lat="38.834924" lon="-120.060463"><ele>2398.4</ele><time>2025-03-08T19:11:52Z</time></trkpt>
<trkpt lat="38.835001" lon="-120.060339"><ele>2392.6</ele><time>2025-03-08T19:11:55Z</time></trkpt>
<trkpt lat="38.835177" lon="-120.060290"><ele>2382.0</ele><time>2025-03-08T19:11:59Z</time></trkpt>
<trkpt lat="38.835281" lon="-120.060140"><ele>2373.2</ele><time>2025-03-08T19:12:02Z</time></trkpt>
<trkpt lat="38.835373" lon="-120.059938"><ele>2365.8</ele><time>2025-03-08T19:12:05Z</time></trkpt>
<trkpt lat="38.835474" lon="-120.059881"><ele>2361.6</ele><time>2025-03-08T19:12:07Z</time></trkpt>
<trkpt lat="38.835504" lon="-120.059829"><ele>2358.8</ele><time>2025-03-08T19:12:08Z</time></trkpt>
<trkpt lat="38.835501" lon="-120.059804"><ele>2355.2</ele><time>2025-03-08T19:12:09Z</time></trkpt>
<trkpt lat="38.835463" lon="-120.059841"><ele>2350.2</ele><time>2025-03-08T19:12:25Z</time></trkpt>
<trkpt lat="38.835532" lon="-120.059590"><ele>2349.6</ele><time>2025-03-08T19:12:55Z</time></trkpt>
<trkpt lat="38.835686" lon="-120.059517"><ele>2343.8</ele><time>2025-03-08T19:12:58Z</time></trkpt>
<trkpt lat="38.835838" lon="-120.059530"><ele>2336.4</ele><time>2025-03-08T19:13:01Z</time></trkpt>
<trkpt lat="38.835943" lon="-120.059265"><ele>2326.8</ele><time>2025-03-08T19:13:06Z</time></trkpt>
<trkpt lat="38.836350" lon="-120.059225"><ele>2312.2</ele><time>2025-03-08T19:13:13Z</time></trkpt>
<trkpt lat="38.836486" lon="-120.059275"><ele>2305.8</ele><time>2025-03-08T19:13:15Z</time></trkpt>
<trkpt lat="38.836610" lon="-120.059207"><ele>2302.0</ele><time>2025-03-08T19:13:17Z</time></trkpt>
<trkpt lat="38.836729" lon="-120.059045"><ele>2297.6</ele><time>2025-03-08T19:13:20Z</time></trkpt>
<trkpt lat="38.836801" lon="-120.059007"><ele>2294.6</ele><time>2025-03-08T19:13:22Z</time></trkpt>
<trkpt lat="38.836815" lon="-120.059013"><ele>2290.8</ele><time>2025-03-08T19:14:04Z</time></trkpt>
<trkpt lat="38.836809" lon="-120.058980"><ele>2290.2</ele><time>2025-03-08T19:16:22Z</time></trkpt>
<trkpt lat="38.836836" lon="-120.059032"><ele>2291.0</ele><time>2025-03-08T19:17:54Z</time></trkpt>
<trkpt lat="38.836811" lon="-120.059004"><ele>2292.2</ele><time>2025-03-08T19:18:53Z</time></trkpt>
<trkpt lat="38.836822" lon="-120.059022"><ele>2292.6</ele><time>2025-03-08T19:19:23Z</time></trkpt>
<trkpt lat="38.836781" lon="-120.059008"><ele>2291.4</ele><time>2025-03-08T19:20:32Z</time></trkpt>
<trkpt lat="38.836819" lon="-120.059047"><ele>2292.6</ele><time>2025-03-08T19:20:51Z</time></trkpt>
<trkpt lat="38.836772" lon="-120.059020"><ele>2292.8</ele><time>2025-03-08T19:21:44Z</time></trkpt>
<trkpt lat="38.836823" lon="-120.059017"><ele>2292.8</ele><time>2025-03-08T19:23:30Z</time></trkpt>
<trkpt lat="38.836790" lon="-120.059007"><ele>2292.6</ele><time>2025-03-08T19:23:48Z</time></trkpt>
<trkpt lat="38.836804" lon="-120.059043"><ele>2293.6</ele><time>2025-03-08T19:24:00Z</time></trkpt>
<trkpt lat="38.836795" lon="-120.059004"><ele>2294.0</ele><time>2025-03-08T19:24:17Z</time></trkpt>
<trkpt lat="38.836789" lon="-120.059028"><ele>2293.2</ele><time>2025-03-08T19:24:55Z</time></trkpt>
<trkpt lat="38.836829" lon="-120.059015"><ele>2294.4</ele><time>2025-03-08T19:27:10Z</time></trkpt>
<trkpt lat="38.836807" lon="-120.058980"><ele>2293.0</ele><time>2025-03-08T19:27:26Z</time></trkpt>
<trkpt lat="38.836803" lon="-120.059025"><ele>2295.0</ele><time>2025-03-08T19:28:18Z</time></trkpt>
<trkpt lat="38.836854" lon="-120.059010"><ele>2295.4</ele><time>2025-03-08T19:30:55Z</time></trkpt>
<trkpt lat="38.836808" lon="-120.059012"><ele>2297.6</ele><time>2025-03-08T19:31:07Z</time></trkpt>
<trkpt lat="38.836799" lon="-120.058994"><ele>2295.8</ele><time>2025-03-08T19:31:49Z</time></trkpt>
<trkpt lat="38.836823" lon="-120.059003"><ele>2294.8</ele><time>2025-03-08T19:32:38Z</time></trkpt>
<trkpt lat="38.836812" lon="-120.059027"><ele>2293.4</ele><time>2025-03-08T19:34:05Z</time></trkpt>
<trkpt lat="38.836726" lon="-120.058787"><ele>2292.4</ele><time>2025-03-08T19:34:29Z</time></trkpt>
<trkpt lat="38.836717" lon="-120.058487"><ele>2287.4</ele><time>2025-03-08T19:34:50Z</time></trkpt>
<trkpt lat="38.836563" lon="-120.058181"><ele>2286.0</ele><time>2025-03-08T19:35:25Z</time></trkpt>
<trkpt lat="38.836501" lon="-120.057997"><ele>2281.8</ele><time>2025-03-08T19:35:40Z</time></trkpt>
<trkpt lat="38.836484" lon="-120.057638"><ele>2275.2</ele><time>2025-03-08T19:36:04Z</time></trkpt>
<trkpt lat="38.836388" lon="-120.057341"><ele>2273.8</ele><time>2025-03-08T19:36:34Z</time></trkpt>
<trkpt lat="38.836344" lon="-120.056920"><ele>2273.2</ele><time>2025-03-08T19:37:35Z</time></trkpt>
<trkpt lat="38.836359" lon="-120.056815"><ele>2273.4</ele><time>2025-03-08T19:37:43Z</time></trkpt>
<trkpt lat="38.836230" lon="-120.056308"><ele>2274.8</ele><time>2025-03-08T19:38:27Z</time></trkpt>
<trkpt lat="38.836175" lon="-120.056178"><ele>2274.8</ele><time>2025-03-08T19:38:41Z</time></trkpt>
<trkpt lat="38.836159" lon="-120.056187"><ele>2270.8</ele><time>2025-03-08T19:40:58Z</time></trkpt>
<trkpt lat="38.835883" lon="-120.055547"><ele>2271.6</ele><time>2025-03-08T19:41:45Z</time></trkpt>
<trkpt lat="38.835593" lon="-120.055038"><ele>2271.8</ele><time>2025-03-08T19:42:31Z</time></trkpt>
<trkpt lat="38.835324" lon="-120.054467"><ele>2271.2</ele><time>2025-03-08T19:43:22Z</time></trkpt>
<trkpt lat="38.835261" lon="-120.054244"><ele>2271.2</ele><time>2025-03-08T19:43:42Z</time></trkpt>
<trkpt lat="38.835256" lon="-120.054099"><ele>2270.6</ele><time>2025-03-08T19:43:50Z</time></trkpt>
<trkpt lat="38.835093" lon="-120.053557"><ele>2269.8</ele><time>2025-03-08T19:44:28Z</time></trkpt>
<trkpt lat="38.834977" lon="-120.052894"><ele>2271.4</ele><time>2025-03-08T19:45:12Z</time></trkpt>
<trkpt lat="38.834892" lon="-120.051965"><ele>2271.6</ele><time>2025-03-08T19:46:13Z</time></trkpt>
<trkpt lat="38.834841" lon="-120.051597"><ele>2268.0</ele><time>2025-03-08T19:46:42Z</time></trkpt>
<trkpt lat="38.834836" lon="-120.051306"><ele>2266.6</ele><time>2025-03-08T19:47:01Z</time></trkpt>
<trkpt lat="38.834756" lon="-120.050854"><ele>2268.4</ele><time>2025-03-08T19:47:34Z</time></trkpt>
<trkpt lat="38.834594" lon="-120.049892"><ele>2263.4</ele><time>2025-03-08T19:48:49Z</time></trkpt>
<trkpt lat="38.834516" lon="-120.049743"><ele>2263.6</ele><time>2025-03-08T19:49:00Z</time></trkpt>
<trkpt lat="38.834465" lon="-120.049537"><ele>2264.2</ele><time>2025-03-08T19:49:16Z</time></trkpt>
<trkpt lat="38.834484" lon="-120.049346"><ele>2264.6</ele><time>2025-03-08T19:49:30Z</time></trkpt>
<trkpt lat="38.834359" lon="-120.048272"><ele>2262.8</ele><time>2025-03-08T19:51:03Z</time></trkpt>
<trkpt lat="38.834358" lon="-120.048182"><ele>2262.8</ele><time>2025-03-08T19:51:14Z</time></trkpt>
<trkpt lat="38.834407" lon="-120.048035"><ele>2263.0</ele><time>2025-03-08T19:51:28Z</time></trkpt>
<trkpt lat="38.834391" lon="-120.047425"><ele>2263.2</ele><time>2025-03-08T19:52:15Z</time></trkpt>
<trkpt lat="38.834359" lon="-120.047113"><ele>2263.0</ele><time>2025-03-08T19:52:39Z</time></trkpt>
<trkpt lat="38.834274" lon="-120.046827"><ele>2263.0</ele><time>2025-03-08T19:53:03Z</time></trkpt>
<trkpt lat="38.834277" lon="-120.046354"><ele>2263.0</ele><time>2025-03-08T19:53:39Z</time></trkpt>
<trkpt lat="38.834325" lon="-120.045610"><ele>2262.8</ele><time>2025-03-08T19:54:33Z</time></trkpt>
<trkpt lat="38.834294" lon="-120.045582"><ele>2262.8</ele><time>2025-03-08T19:54:56Z</time></trkpt>
<trkpt lat="38.834308" lon="-120.045630"><ele>2262.6</ele><time>2025-03-08T19:55:14Z</time></trkpt>
<trkpt lat="38.834368" lon="-120.045364"><ele>2263.2</ele><time>2025-03-08T19:56:10Z</time></trkpt>
<trkpt lat="38.834366" lon="-120.044880"><ele>2264.0</ele><time>2025-03-08T19:56:41Z</time></trkpt>
<trkpt lat="38.834417" lon="-120.044647"><ele>2264.6</ele><time>2025-03-08T19:56:58Z</time></trkpt>
<trkpt lat="38.834412" lon="-120.044342"><ele>2268.0</ele><time>2025-03-08T19:57:23Z</time></trkpt>
<trkpt lat="38.834352" lon="-120.043991"><ele>2270.2</ele><time>2025-03-08T19:57:53Z</time></trkpt>
<trkpt lat="38.834252" lon="-120.043899"><ele>2271.8</ele><time>2025-03-08T19:58:08Z</time></trkpt>
<trkpt lat="38.834151" lon="-120.043652"><ele>2272.6</ele><time>2025-03-08T19:58:45Z</time></trkpt>
<trkpt lat="38.834191" lon="-120.043226"><ele>2279.4</ele><time>2025-03-08T19:59:43Z</time></trkpt>
<trkpt lat="38.834209" lon="-120.043252"><ele>2279.6</ele><time>2025-03-08T20:00:05Z</time></trkpt>
<trkpt lat="38.834192" lon="-120.043081"><ele>2282.6</ele><time>2025-03-08T20:00:36Z</time></trkpt>
<trkpt lat="38.834152" lon="-120.043014"><ele>2284.6</ele><time>2025-03-08T20:00:47Z</time></trkpt>
<trkpt lat="38.833824" lon="-120.042894"><ele>2291.0</ele><time>2025-03-08T20:01:38Z</time></trkpt>
<trkpt lat="38.833749" lon="-120.042737"><ele>2291.0</ele><time>2025-03-08T20:02:31Z</time></trkpt>
<trkpt lat="38.833825" lon="-120.042486"><ele>2290.4</ele><time>2025-03-08T20:02:58Z</time></trkpt>
<trkpt lat="38.833944" lon="-120.042277"><ele>2290.4</ele><time>2025-03-08T20:03:13Z</time></trkpt>
<trkpt lat="38.834058" lon="-120.041924"><ele>2292.8</ele><time>2025-03-08T20:03:43Z</time></trkpt>
<trkpt lat="38.834069" lon="-120.041777"><ele>2293.8</ele><time>2025-03-08T20:03:55Z</time></trkpt>
<trkpt lat="38.833998" lon="-120.041184"><ele>2292.6</ele><time>2025-03-08T20:04:25Z</time></trkpt>
<trkpt lat="38.833804" lon="-120.040861"><ele>2292.2</ele><time>2025-03-08T20:04:48Z</time></trkpt>
<trkpt lat="38.833496" lon="-120.040747"><ele>2290.6</ele><time>2025-03-08T20:05:07Z</time></trkpt>
<trkpt lat="38.833270" lon="-120.040544"><ele>2289.2</ele><time>2025-03-08T20:05:22Z</time></trkpt>
<trkpt lat="38.833026" lon="-120.039998"><ele>2287.0</ele><time>2025-03-08T20:05:53Z</time></trkpt>
<trkpt lat="38.832889" lon="-120.039786"><ele>2286.2</ele><time>2025-03-08T20:06:05Z</time></trkpt>
<trkpt lat="38.832719" lon="-120.039588"><ele>2284.8</ele><time>2025-03-08T20:06:19Z</time></trkpt>
<trkpt lat="38.832461" lon="-120.039405"><ele>2283.8</ele><time>2025-03-08T20:06:40Z</time></trkpt>
<trkpt lat="38.831749" lon="-120.039163"><ele>2279.8</ele><time>2025-03-08T20:07:28Z</time></trkpt>
<trkpt lat="38.831335" lon="-120.039131"><ele>2278.0</ele><time>2025-03-08T20:07:56Z</time></trkpt>
<trkpt lat="38.831118" lon="-120.039077"><ele>2276.8</ele><time>2025-03-08T20:08:09Z</time></trkpt>
<trkpt lat="38.829732" lon="-120.038480"><ele>2270.8</ele><time>2025-03-08T20:09:35Z</time></trkpt>
<trkpt lat="38.829439" lon="-120.038475"><ele>2270.8</ele><time>2025-03-08T20:09:57Z</time></trkpt>
<trkpt lat="38.829251" lon="-120.038433"><ele>2269.8</ele><time>2025-03-08T20:10:10Z</time></trkpt>
<trkpt lat="38.828481" lon="-120.038194"><ele>2265.6</ele><time>2025-03-08T20:10:59Z</time></trkpt>
<trkpt lat="38.828060" lon="-120.038206"><ele>2264.6</ele><time>2025-03-08T20:11:28Z</time></trkpt>
<trkpt lat="38.827739" lon="-120.038122"><ele>2263.0</ele><time>2025-03-08T20:11:53Z</time></trkpt>
<trkpt lat="38.827543" lon="-120.037922"><ele>2261.4</ele><time>2025-03-08T20:12:09Z</time></trkpt>
<trkpt lat="38.827498" lon="-120.037835"><ele>2260.8</ele><time>2025-03-08T20:12:16Z</time></trkpt>
<trkpt lat="38.827409" lon="-120.037459"><ele>2259.4</ele><time>2025-03-08T20:12:35Z</time></trkpt>
<trkpt lat="38.827243" lon="-120.036987"><ele>2258.2</ele><time>2025-03-08T20:13:03Z</time></trkpt>
<trkpt lat="38.826921" lon="-120.036393"><ele>2256.0</ele><time>2025-03-08T20:13:36Z</time></trkpt>
<trkpt lat="38.826805" lon="-120.035927"><ele>2254.8</ele><time>2025-03-08T20:14:01Z</time></trkpt>
<trkpt lat="38.826577" lon="-120.035441"><ele>2254.2</ele><time>2025-03-08T20:14:29Z</time></trkpt>
<trkpt lat="38.826224" lon="-120.035055"><ele>2254.0</ele><time>2025-03-08T20:15:25Z</time></trkpt>
<trkpt lat="38.825666" lon="-120.034666"><ele>2251.0</ele><time>2025-03-08T20:16:03Z</time></trkpt>
<trkpt lat="38.825501" lon="-120.034516"><ele>2250.0</ele><time>2025-03-08T20:16:15Z</time></trkpt>
<trkpt lat="38.825394" lon="-120.034363"><ele>2249.4</ele><time>2025-03-08T20:16:24Z</time></trkpt>
<trkpt lat="38.825214" lon="-120.034216"><ele>2248.8</ele><time>2025-03-08T20:16:37Z</time></trkpt>
<trkpt lat="38.824574" lon="-120.033882"><ele>2247.0</ele><time>2025-03-08T20:17:22Z</time></trkpt>
<trkpt lat="38.824444" lon="-120.033778"><ele>2246.8</ele><time>2025-03-08T20:17:36Z</time></trkpt>
</trkseg></trk>
</gpx>
