<?xml version="1.0" encoding="UTF-8"?>
<gpx version="1.1" creator="Eric Sichak trip reports" xmlns="http://www.topografix.com/GPX/1/1">
<metadata><name>Needed an excuse to go back to the Santa Cruz factory</name><time>2021-10-10T15:21:10Z</time></metadata>
<trk><name>Needed an excuse to go back to the Santa Cruz factory</name><type>mtb</type><trkseg>
<trkpt lat="36.961900" lon="-122.085875"><ele>19.5</ele><time>2021-10-10T15:21:10Z</time></trkpt>
<trkpt lat="36.962109" lon="-122.085740"><ele>19.6</ele><time>2021-10-10T15:21:46Z</time></trkpt>
<trkpt lat="36.962134" lon="-122.085664"><ele>19.7</ele><time>2021-10-10T15:21:48Z</time></trkpt>
<trkpt lat="36.962171" lon="-122.084924"><ele>20.1</ele><time>2021-10-10T15:22:09Z</time></trkpt>
<trkpt lat="36.962211" lon="-122.084858"><ele>20.4</ele><time>2021-10-10T15:22:15Z</time></trkpt>
<trkpt lat="36.962219" lon="-122.084740"><ele>21.2</ele><time>2021-10-10T15:22:23Z</time></trkpt>
<trkpt lat="36.962252" lon="-122.084763"><ele>21.5</ele><time>2021-10-10T15:22:27Z</time></trkpt>
<trkpt lat="36.962263" lon="-122.084856"><ele>22.1</ele><time>2021-10-10T15:22:37Z</time></trkpt>
<trkpt lat="36.962373" lon="-122.085103"><ele>23.0</ele><time>2021-10-10T15:22:59Z</time></trkpt>
<trkpt lat="36.962409" lon="-122.085140"><ele>23.2</ele><time>2021-10-10T15:23:01Z</time></trkpt>
<trkpt lat="36.962529" lon="-122.085122"><ele>23.5</ele><time>2021-10-10T15:23:04Z</time></trkpt>
<trkpt lat="36.962563" lon="-122.085259"><ele>24.0</ele><time>2021-10-10T15:23:07Z</time></trkpt>
<trkpt lat="36.962593" lon="-122.085281"><ele>24.2</ele><time>2021-10-10T15:23:08Z</time></trkpt>
<trkpt lat="36.963150" lon="-122.085531"><ele>28.6</ele><time>2021-10-10T15:23:33Z</time></trkpt>
<trkpt lat="36.963368" lon="-122.085672"><ele>31.1</ele><time>2021-10-10T15:23:45Z</time></trkpt>
<trkpt lat="36.963568" lon="-122.085723"><ele>32.7</ele><time>2021-10-10T15:23:57Z</time></trkpt>
<trkpt lat="36.963798" lon="-122.085299"><ele>29.6</ele><time>2021-10-10T15:24:10Z</time></trkpt>
<trkpt lat="36.963930" lon="-122.085121"><ele>28.1</ele><time>2021-10-10T15:24:13Z</time></trkpt>
<trkpt lat="36.964725" lon="-122.084481"><ele>22.0</ele><time>2021-10-10T15:24:23Z</time></trkpt>
<trkpt lat="36.965183" lon="-122.084314"><ele>19.1</ele><time>2021-10-10T15:24:29Z</time></trkpt>
<trkpt lat="36.965493" lon="-122.084127"><ele>17.4</ele><time>2021-10-10T15:24:33Z</time></trkpt>
<trkpt lat="36.965639" lon="-122.084005"><ele>16.8</ele><time>2021-10-10T15:24:35Z</time></trkpt>
<trkpt lat="36.966144" lon="-122.083381"><ele>16.6</ele><time>2021-10-10T15:24:48Z</time></trkpt>
<trkpt lat="36.966155" lon="-122.083438"><ele>16.6</ele><time>2021-10-10T15:24:52Z</time></trkpt>
<trkpt lat="36.966094" lon="-122.083489"><ele>16.6</ele><time>2021-10-10T15:24:57Z</time></trkpt>
<trkpt lat="36.966089" lon="-122.083457"><ele>16.6</ele><time>2021-10-10T15:25:28Z</time></trkpt>
<trkpt lat="36.966048" lon="-122.083483"><ele>16.6</ele><time>2021-10-10T15:25:35Z</time></trkpt>
<trkpt lat="36.966133" lon="-122.083441"><ele>16.8</ele><time>2021-10-10T15:25:41Z</time></trkpt>
<trkpt lat="36.966313" lon="-122.083474"><ele>17.6</ele><time>2021-10-10T15:25:47Z</time></trkpt>
<trkpt lat="36.966623" lon="-122.083432"><ele>19.1</ele><time>2021-10-10T15:25:57Z</time></trkpt>
<trkpt lat="36.966815" lon="-122.083502"><ele>19.6</ele><time>2021-10-10T15:26:02Z</time></trkpt>
<trkpt lat="36.967153" lon="-122.083480"><ele>21.4</ele><time>2021-10-10T15:26:13Z</time></trkpt>
<trkpt lat="36.967703" lon="-122.083357"><ele>28.1</ele><time>2021-10-10T15:26:40Z</time></trkpt>
<trkpt lat="36.967643" lon="-122.083338"><ele>29.0</ele><time>2021-10-10T15:26:45Z</time></trkpt>
<trkpt lat="36.967631" lon="-122.083302"><ele>29.4</ele><time>2021-10-10T15:26:47Z</time></trkpt>
<trkpt lat="36.967689" lon="-122.083221"><ele>30.5</ele><time>2021-10-10T15:26:50Z</time></trkpt>
<trkpt lat="36.967851" lon="-122.083253"><ele>31.7</ele><time>2021-10-10T15:26:56Z</time></trkpt>
<trkpt lat="36.968308" lon="-122.083119"><ele>34.3</ele><time>2021-10-10T15:27:18Z</time></trkpt>
<trkpt lat="36.968747" lon="-122.083197"><ele>38.3</ele><time>2021-10-10T15:27:39Z</time></trkpt>
<trkpt lat="36.969172" lon="-122.082998"><ele>41.5</ele><time>2021-10-10T15:28:02Z</time></trkpt>
<trkpt lat="36.969438" lon="-122.082991"><ele>43.2</ele><time>2021-10-10T15:28:12Z</time></trkpt>
<trkpt lat="36.970030" lon="-122.083130"><ele>48.2</ele><time>2021-10-10T15:28:36Z</time></trkpt>
<trkpt lat="36.970152" lon="-122.083209"><ele>49.2</ele><time>2021-10-10T15:28:42Z</time></trkpt>
<trkpt lat="36.970357" lon="-122.083273"><ele>50.8</ele><time>2021-10-10T15:28:52Z</time></trkpt>
<trkpt lat="36.970551" lon="-122.083400"><ele>52.5</ele><time>2021-10-10T15:29:01Z</time></trkpt>
<trkpt lat="36.970679" lon="-122.083407"><ele>53.5</ele><time>2021-10-10T15:29:07Z</time></trkpt>
<trkpt lat="36.970892" lon="-122.083500"><ele>55.2</ele><time>2021-10-10T15:29:19Z</time></trkpt>
<trkpt lat="36.971256" lon="-122.083508"><ele>57.7</ele><time>2021-10-10T15:29:37Z</time></trkpt>
<trkpt lat="36.971658" lon="-122.083788"><ele>61.5</ele><time>2021-10-10T15:30:01Z</time></trkpt>
<trkpt lat="36.971819" lon="-122.083783"><ele>62.5</ele><time>2021-10-10T15:30:10Z</time></trkpt>
<trkpt lat="36.971898" lon="-122.083654"><ele>63.2</ele><time>2021-10-10T15:30:15Z</time></trkpt>
<trkpt lat="36.972075" lon="-122.083591"><ele>64.3</ele><time>2021-10-10T15:30:21Z</time></trkpt>
<trkpt lat="36.972396" lon="-122.083583"><ele>66.4</ele><time>2021-10-10T15:30:34Z</time></trkpt>
<trkpt lat="36.972661" lon="-122.083509"><ele>68.5</ele><time>2021-10-10T15:30:48Z</time></trkpt>
<trkpt lat="36.972717" lon="-122.083443"><ele>69.1</ele><time>2021-10-10T15:30:52Z</time></trkpt>
<trkpt lat="36.972708" lon="-122.083135"><ele>69.9</ele><time>2021-10-10T15:31:07Z</time></trkpt>
<trkpt lat="36.972900" lon="-122.082942"><ele>70.2</ele><time>2021-10-10T15:31:16Z</time></trkpt>
<trkpt lat="36.973026" lon="-122.082914"><ele>70.5</ele><time>2021-10-10T15:31:20Z</time></trkpt>
<trkpt lat="36.973129" lon="-122.082846"><ele>71.1</ele><time>2021-10-10T15:31:24Z</time></trkpt>
<trkpt lat="36.973391" lon="-122.082429"><ele>73.3</ele><time>2021-10-10T15:31:43Z</time></trkpt>
<trkpt lat="36.973617" lon="-122.082322"><ele>74.5</ele><time>2021-10-10T15:31:53Z</time></trkpt>
<trkpt lat="36.973760" lon="-122.082106"><ele>75.1</ele><time>2021-10-10T15:32:01Z</time></trkpt>
<trkpt lat="36.973776" lon="-122.081981"><ele>75.3</ele><time>2021-10-10T15:32:05Z</time></trkpt>
<trkpt lat="36.973881" lon="-122.081721"><ele>75.9</ele><time>2021-10-10T15:32:12Z</time></trkpt>
<trkpt lat="36.974013" lon="-122.081520"><ele>76.9</ele><time>2021-10-10T15:32:20Z</time></trkpt>
<trkpt lat="36.974031" lon="-122.081379"><ele>77.4</ele><time>2021-10-10T15:32:24Z</time></trkpt>
<trkpt lat="36.973965" lon="-122.080929"><ele>78.9</ele><time>2021-10-10T15:32:36Z</time></trkpt>
<trkpt lat="36.973964" lon="-122.080580"><ele>81.2</ele><time>2021-10-10T15:32:50Z</time></trkpt>
<trkpt lat="36.974040" lon="-122.080426"><ele>82.2</ele><time>2021-10-10T15:32:57Z</time></trkpt>
<trkpt lat="36.974513" lon="-122.080213"><ele>85.5</ele><time>2021-10-10T15:33:26Z</time></trkpt>
<trkpt lat="36.974625" lon="-122.080322"><ele>86.6</ele><time>2021-10-10T15:34:14Z</time></trkpt>
<trkpt lat="36.974587" lon="-122.080239"><ele>87.2</ele><time>2021-10-10T15:34:18Z</time></trkpt>
<trkpt lat="36.974651" lon="-122.080163"><ele>88.0</ele><time>2021-10-10T15:34:25Z</time></trkpt>
<trkpt lat="36.974887" lon="-122.080135"><ele>89.9</ele><time>2021-10-10T15:34:39Z</time></trkpt>
<trkpt lat="36.975177" lon="-122.080020"><ele>92.8</ele><time>2021-10-10T15:34:56Z</time></trkpt>
<trkpt lat="36.975451" lon="-122.080021"><ele>95.1</ele><time>2021-10-10T15:35:15Z</time></trkpt>
<trkpt lat="36.975646" lon="-122.079980"><ele>96.1</ele><time>2021-10-10T15:35:25Z</time></trkpt>
<trkpt lat="36.975689" lon="-122.080021"><ele>96.3</ele><time>2021-10-10T15:35:26Z</time></trkpt>
<trkpt lat="36.975902" lon="-122.080032"><ele>97.4</ele><time>2021-10-10T15:35:37Z</time></trkpt>
<trkpt lat="36.976225" lon="-122.079968"><ele>99.4</ele><time>2021-10-10T15:35:51Z</time></trkpt>
<trkpt lat="36.976388" lon="-122.079915"><ele>100.4</ele><time>2021-10-10T15:35:59Z</time></trkpt>
<trkpt lat="36.976493" lon="-122.079789"><ele>101.5</ele><time>2021-10-10T15:36:04Z</time></trkpt>
<trkpt lat="36.976696" lon="-122.079690"><ele>103.6</ele><time>2021-10-10T15:36:10Z</time></trkpt>
<trkpt lat="36.976761" lon="-122.079742"><ele>104.2</ele><time>2021-10-10T15:36:12Z</time></trkpt>
<trkpt lat="36.976777" lon="-122.079978"><ele>105.3</ele><time>2021-10-10T15:36:22Z</time></trkpt>
<trkpt lat="36.976557" lon="-122.080455"><ele>106.7</ele><time>2021-10-10T15:36:46Z</time></trkpt>
<trkpt lat="36.976433" lon="-122.080648"><ele>106.6</ele><time>2021-10-10T15:36:53Z</time></trkpt>
<trkpt lat="36.976442" lon="-122.080725"><ele>106.5</ele><time>2021-10-10T15:36:55Z</time></trkpt>
<trkpt lat="36.976577" lon="-122.080853"><ele>106.3</ele><time>2021-10-10T15:37:00Z</time></trkpt>
<trkpt lat="36.976797" lon="-122.080861"><ele>106.2</ele><time>2021-10-10T15:37:05Z</time></trkpt>
<trkpt lat="36.977004" lon="-122.080814"><ele>106.5</ele><time>2021-10-10T15:37:09Z</time></trkpt>
<trkpt lat="36.977049" lon="-122.080845"><ele>106.4</ele><time>2021-10-10T15:37:10Z</time></trkpt>
<trkpt lat="36.977086" lon="-122.081042"><ele>106.2</ele><time>2021-10-10T15:37:13Z</time></trkpt>
<trkpt lat="36.977034" lon="-122.081205"><ele>106.2</ele><time>2021-10-10T15:37:16Z</time></trkpt>
<trkpt lat="36.977058" lon="-122.081296"><ele>106.3</ele><time>2021-10-10T15:37:17Z</time></trkpt>
<trkpt lat="36.976985" lon="-122.081442"><ele>106.4</ele><time>2021-10-10T15:37:19Z</time></trkpt>
<trkpt lat="36.976996" lon="-122.081621"><ele>106.6</ele><time>2021-10-10T15:37:22Z</time></trkpt>
<trkpt lat="36.977041" lon="-122.081713"><ele>106.7</ele><time>2021-10-10T15:37:24Z</time></trkpt>
<trkpt lat="36.977260" lon="-122.081832"><ele>106.7</ele><time>2021-10-10T15:37:29Z</time></trkpt>
<trkpt lat="36.977409" lon="-122.081810"><ele>106.6</ele><time>2021-10-10T15:37:32Z</time></trkpt>
<trkpt lat="36.977721" lon="-122.081843"><ele>106.9</ele><time>2021-10-10T15:37:38Z</time></trkpt>
<trkpt lat="36.977863" lon="-122.081811"><ele>106.8</ele><time>2021-10-10T15:37:41Z</time></trkpt>
<trkpt lat="36.977894" lon="-122.081869"><ele>106.6</ele><time>2021-10-10T15:37:42Z</time></trkpt>
<trkpt lat="36.977813" lon="-122.082055"><ele>105.8</ele><time>2021-10-10T15:37:45Z</time></trkpt>
<trkpt lat="36.977709" lon="-122.082087"><ele>105.3</ele><time>2021-10-10T15:37:47Z</time></trkpt>
<trkpt lat="36.977647" lon="-122.082151"><ele>105.1</ele><time>2021-10-10T15:37:48Z</time></trkpt>
<trkpt lat="36.977585" lon="-122.082301"><ele>105.0</ele><time>2021-10-10T15:37:50Z</time></trkpt>
<trkpt lat="36.977398" lon="-122.082486"><ele>105.1</ele><time>2021-10-10T15:37:53Z</time></trkpt>
<trkpt lat="36.977351" lon="-122.082600"><ele>105.4</ele><time>2021-10-10T15:37:55Z</time></trkpt>
<trkpt lat="36.977257" lon="-122.082699"><ele>105.9</ele><time>2021-10-10T15:37:57Z</time></trkpt>
<trkpt lat="36.977105" lon="-122.083016"><ele>107.4</ele><time>2021-10-10T15:38:03Z</time></trkpt>
<trkpt lat="36.977075" lon="-122.083097"><ele>107.7</ele><time>2021-10-10T15:38:05Z</time></trkpt>
<trkpt lat="36.977146" lon="-122.083368"><ele>108.6</ele><time>2021-10-10T15:38:14Z</time></trkpt>
<trkpt lat="36.977174" lon="-122.083429"><ele>108.7</ele><time>2021-10-10T15:38:16Z</time></trkpt>
<trkpt lat="36.977270" lon="-122.083489"><ele>109.1</ele><time>2021-10-10T15:38:20Z</time></trkpt>
<trkpt lat="36.977343" lon="-122.083464"><ele>109.3</ele><time>2021-10-10T15:38:22Z</time></trkpt>
<trkpt lat="36.977549" lon="-122.083547"><ele>110.2</ele><time>2021-10-10T15:38:30Z</time></trkpt>
<trkpt lat="36.977619" lon="-122.083539"><ele>110.5</ele><time>2021-10-10T15:38:32Z</time></trkpt>
<trkpt lat="36.977792" lon="-122.083438"><ele>111.3</ele><time>2021-10-10T15:38:40Z</time></trkpt>
<trkpt lat="36.977939" lon="-122.083267"><ele>112.1</ele><time>2021-10-10T15:38:48Z</time></trkpt>
<trkpt lat="36.978078" lon="-122.083262"><ele>112.8</ele><time>2021-10-10T15:38:54Z</time></trkpt>
<trkpt lat="36.978148" lon="-122.083224"><ele>113.2</ele><time>2021-10-10T15:38:57Z</time></trkpt>
<trkpt lat="36.978338" lon="-122.083243"><ele>114.2</ele><time>2021-10-10T15:39:05Z</time></trkpt>
<trkpt lat="36.978567" lon="-122.083351"><ele>115.6</ele><time>2021-10-10T15:39:16Z</time></trkpt>
<trkpt lat="36.978644" lon="-122.083250"><ele>116.2</ele><time>2021-10-10T15:39:22Z</time></trkpt>
<trkpt lat="36.978723" lon="-122.083222"><ele>116.5</ele><time>2021-10-10T15:39:25Z</time></trkpt>
<trkpt lat="36.978863" lon="-122.083243"><ele>116.9</ele><time>2021-10-10T15:39:29Z</time></trkpt>
<trkpt lat="36.978923" lon="-122.083179"><ele>117.1</ele><time>2021-10-10T15:39:31Z</time></trkpt>
<trkpt lat="36.979078" lon="-122.083126"><ele>117.9</ele><time>2021-10-10T15:39:36Z</time></trkpt>
<trkpt lat="36.979172" lon="-122.083159"><ele>118.7</ele><time>2021-10-10T15:39:40Z</time></trkpt>
<trkpt lat="36.979305" lon="-122.082998"><ele>120.1</ele><time>2021-10-10T15:39:49Z</time></trkpt>
<trkpt lat="36.979376" lon="-122.082690"><ele>121.7</ele><time>2021-10-10T15:40:02Z</time></trkpt>
<trkpt lat="36.979390" lon="-122.082405"><ele>123.0</ele><time>2021-10-10T15:40:15Z</time></trkpt>
<trkpt lat="36.979439" lon="-122.082336"><ele>123.5</ele><time>2021-10-10T15:40:20Z</time></trkpt>
<trkpt lat="36.979531" lon="-122.081975"><ele>126.2</ele><time>2021-10-10T15:40:56Z</time></trkpt>
<trkpt lat="36.979566" lon="-122.081964"><ele>126.5</ele><time>2021-10-10T15:40:58Z</time></trkpt>
<trkpt lat="36.979787" lon="-122.082880"><ele>130.7</ele><time>2021-10-10T15:41:41Z</time></trkpt>
<trkpt lat="36.979860" lon="-122.083026"><ele>131.7</ele><time>2021-10-10T15:41:47Z</time></trkpt>
<trkpt lat="36.979955" lon="-122.083108"><ele>132.6</ele><time>2021-10-10T15:41:53Z</time></trkpt>
<trkpt lat="36.980092" lon="-122.083137"><ele>133.7</ele><time>2021-10-10T15:42:02Z</time></trkpt>
<trkpt lat="36.980235" lon="-122.083310"><ele>135.1</ele><time>2021-10-10T15:42:12Z</time></trkpt>
<trkpt lat="36.980325" lon="-122.083311"><ele>135.6</ele><time>2021-10-10T15:42:17Z</time></trkpt>
<trkpt lat="36.980817" lon="-122.083549"><ele>139.4</ele><time>2021-10-10T15:42:41Z</time></trkpt>
<trkpt lat="36.980837" lon="-122.083464"><ele>140.1</ele><time>2021-10-10T15:42:46Z</time></trkpt>
<trkpt lat="36.980761" lon="-122.083440"><ele>140.5</ele><time>2021-10-10T15:42:50Z</time></trkpt>
<trkpt lat="36.980689" lon="-122.083348"><ele>140.7</ele><time>2021-10-10T15:42:56Z</time></trkpt>
<trkpt lat="36.980503" lon="-122.083299"><ele>140.9</ele><time>2021-10-10T15:43:02Z</time></trkpt>
<trkpt lat="36.980410" lon="-122.083238"><ele>141.1</ele><time>2021-10-10T15:43:05Z</time></trkpt>
<trkpt lat="36.980268" lon="-122.082953"><ele>141.7</ele><time>2021-10-10T15:43:13Z</time></trkpt>
<trkpt lat="36.980262" lon="-122.082519"><ele>142.6</ele><time>2021-10-10T15:43:24Z</time></trkpt>
<trkpt lat="36.980320" lon="-122.082300"><ele>143.4</ele><time>2021-10-10T15:43:32Z</time></trkpt>
<trkpt lat="36.980712" lon="-122.081498"><ele>148.9</ele><time>2021-10-10T15:44:06Z</time></trkpt>
<trkpt lat="36.980896" lon="-122.081317"><ele>150.4</ele><time>2021-10-10T15:44:17Z</time></trkpt>
<trkpt lat="36.981098" lon="-122.080951"><ele>151.4</ele><time>2021-10-10T15:44:31Z</time></trkpt>
<trkpt lat="36.981192" lon="-122.080900"><ele>151.5</ele><time>2021-10-10T15:44:33Z</time></trkpt>
<trkpt lat="36.981210" lon="-122.080799"><ele>151.6</ele><time>2021-10-10T15:44:34Z</time></trkpt>
<trkpt lat="36.981757" lon="-122.080807"><ele>155.1</ele><time>2021-10-10T15:44:54Z</time></trkpt>
<trkpt lat="36.981863" lon="-122.080767"><ele>156.0</ele><time>2021-10-10T15:45:00Z</time></trkpt>
<trkpt lat="36.981979" lon="-122.080591"><ele>157.5</ele><time>2021-10-10T15:45:11Z</time></trkpt>
<trkpt lat="36.981985" lon="-122.080739"><ele>158.3</ele><time>2021-10-10T15:50:12Z</time></trkpt>
<trkpt lat="36.982095" lon="-122.080777"><ele>158.7</ele><time>2021-10-10T15:50:16Z</time></trkpt>
<trkpt lat="36.982252" lon="-122.081017"><ele>158.4</ele><time>2021-10-10T15:50:28Z</time></trkpt>
<trkpt lat="36.982319" lon="-122.081179"><ele>157.4</ele><time>2021-10-10T15:50:33Z</time></trkpt>
<trkpt lat="36.982405" lon="-122.081257"><ele>156.4</ele><time>2021-10-10T15:50:36Z</time></trkpt>
<trkpt lat="36.982417" lon="-122.081335"><ele>155.7</ele><time>2021-10-10T15:50:38Z</time></trkpt>
<trkpt lat="36.982476" lon="-122.081342"><ele>155.2</ele><time>2021-10-10T15:50:39Z</time></trkpt>
<trkpt lat="36.982504" lon="-122.081442"><ele>154.5</ele><time>2021-10-10T15:50:41Z</time></trkpt>
<trkpt lat="36.982445" lon="-122.081694"><ele>153.2</ele><time>2021-10-10T15:50:43Z</time></trkpt>
<trkpt lat="36.981969" lon="-122.082517"><ele>149.2</ele><time>2021-10-10T15:50:53Z</time></trkpt>
<trkpt lat="36.981960" lon="-122.082749"><ele>148.7</ele><time>2021-10-10T15:50:56Z</time></trkpt>
<trkpt lat="36.981895" lon="-122.082972"><ele>148.3</ele><time>2021-10-10T15:50:59Z</time></trkpt>
<trkpt lat="36.981868" lon="-122.083241"><ele>148.0</ele><time>2021-10-10T15:51:02Z</time></trkpt>
<trkpt lat="36.981881" lon="-122.083491"><ele>147.9</ele><time>2021-10-10T15:51:05Z</time></trkpt>
<trkpt lat="36.981823" lon="-122.083649"><ele>148.0</ele><time>2021-10-10T15:51:07Z</time></trkpt>
<trkpt lat="36.981819" lon="-122.083811"><ele>148.5</ele><time>2021-10-10T15:51:09Z</time></trkpt>
<trkpt lat="36.981856" lon="-122.083917"><ele>149.1</ele><time>2021-10-10T15:51:11Z</time></trkpt>
<trkpt lat="36.981940" lon="-122.083932"><ele>149.7</ele><time>2021-10-10T15:51:13Z</time></trkpt>
<trkpt lat="36.981961" lon="-122.083845"><ele>150.4</ele><time>2021-10-10T15:51:16Z</time></trkpt>
<trkpt lat="36.982142" lon="-122.083787"><ele>152.2</ele><time>2021-10-10T15:51:29Z</time></trkpt>
<trkpt lat="36.982163" lon="-122.083753"><ele>152.4</ele><time>2021-10-10T15:51:31Z</time></trkpt>
<trkpt lat="36.982288" lon="-122.083776"><ele>153.0</ele><time>2021-10-10T15:51:37Z</time></trkpt>
<trkpt lat="36.982446" lon="-122.083711"><ele>153.3</ele><time>2021-10-10T15:51:44Z</time></trkpt>
<trkpt lat="36.982588" lon="-122.083778"><ele>153.5</ele><time>2021-10-10T15:51:49Z</time></trkpt>
<trkpt lat="36.982665" lon="-122.083738"><ele>153.8</ele><time>2021-10-10T15:51:52Z</time></trkpt>
<trkpt lat="36.982900" lon="-122.083918"><ele>155.1</ele><time>2021-10-10T15:51:59Z</time></trkpt>
<trkpt lat="36.983425" lon="-122.084075"><ele>156.4</ele><time>2021-10-10T15:52:16Z</time></trkpt>
<trkpt lat="36.983489" lon="-122.084052"><ele>156.7</ele><time>2021-10-10T15:52:18Z</time></trkpt>
<trkpt lat="36.983619" lon="-122.084163"><ele>158.0</ele><time>2021-10-10T15:52:23Z</time></trkpt>
<trkpt lat="36.983904" lon="-122.084228"><ele>161.1</ele><time>2021-10-10T15:52:33Z</time></trkpt>
<trkpt lat="36.984364" lon="-122.084142"><ele>163.7</ele><time>2021-10-10T15:52:48Z</time></trkpt>
<trkpt lat="36.984569" lon="-122.084045"><ele>164.8</ele><time>2021-10-10T15:52:57Z</time></trkpt>
<trkpt lat="36.984662" lon="-122.084066"><ele>165.4</ele><time>2021-10-10T15:53:00Z</time></trkpt>
<trkpt lat="36.984721" lon="-122.083962"><ele>166.0</ele><time>2021-10-10T15:53:03Z</time></trkpt>
<trkpt lat="36.984812" lon="-122.083966"><ele>166.6</ele><time>2021-10-10T15:53:07Z</time></trkpt>
<trkpt lat="36.985052" lon="-122.083817"><ele>169.1</ele><time>2021-10-10T15:53:20Z</time></trkpt>
<trkpt lat="36.985245" lon="-122.083785"><ele>171.0</ele><time>2021-10-10T15:53:32Z</time></trkpt>
<trkpt lat="36.985363" lon="-122.083970"><ele>170.5</ele><time>2021-10-10T15:54:25Z</time></trkpt>
<trkpt lat="36.985317" lon="-122.083953"><ele>170.4</ele><time>2021-10-10T15:54:27Z</time></trkpt>
<trkpt lat="36.985343" lon="-122.083962"><ele>170.3</ele><time>2021-10-10T15:54:28Z</time></trkpt>
<trkpt lat="36.985335" lon="-122.084012"><ele>170.1</ele><time>2021-10-10T15:54:29Z</time></trkpt>
<trkpt lat="36.985367" lon="-122.083986"><ele>169.9</ele><time>2021-10-10T15:54:30Z</time></trkpt>
<trkpt lat="36.985475" lon="-122.084069"><ele>169.3</ele><time>2021-10-10T15:54:33Z</time></trkpt>
<trkpt lat="36.985527" lon="-122.084072"><ele>168.9</ele><time>2021-10-10T15:54:34Z</time></trkpt>
<trkpt lat="36.985644" lon="-122.084025"><ele>168.1</ele><time>2021-10-10T15:54:36Z</time></trkpt>
<trkpt lat="36.985793" lon="-122.083900"><ele>166.5</ele><time>2021-10-10T15:54:38Z</time></trkpt>
<trkpt lat="36.985740" lon="-122.083881"><ele>166.0</ele><time>2021-10-10T15:54:39Z</time></trkpt>
<trkpt lat="36.985824" lon="-122.083838"><ele>165.1</ele><time>2021-10-10T15:54:41Z</time></trkpt>
<trkpt lat="36.985840" lon="-122.083806"><ele>164.8</ele><time>2021-10-10T15:54:42Z</time></trkpt>
<trkpt lat="36.985802" lon="-122.083762"><ele>164.2</ele><time>2021-10-10T15:54:43Z</time></trkpt>
<trkpt lat="36.985955" lon="-122.083730"><ele>162.5</ele><time>2021-10-10T15:54:46Z</time></trkpt>
<trkpt lat="36.986002" lon="-122.083552"><ele>161.0</ele><time>2021-10-10T15:54:49Z</time></trkpt>
<trkpt lat="36.986171" lon="-122.083459"><ele>159.0</ele><time>2021-10-10T15:54:54Z</time></trkpt>
<trkpt lat="36.986332" lon="-122.083245"><ele>156.2</ele><time>2021-10-10T15:54:57Z</time></trkpt>
<trkpt lat="36.986486" lon="-122.083145"><ele>154.4</ele><time>2021-10-10T15:55:01Z</time></trkpt>
<trkpt lat="36.986533" lon="-122.083217"><ele>153.8</ele><time>2021-10-10T15:55:03Z</time></trkpt>
<trkpt lat="36.986548" lon="-122.083322"><ele>153.2</ele><time>2021-10-10T15:55:06Z</time></trkpt>
<trkpt lat="36.986497" lon="-122.083377"><ele>152.6</ele><time>2021-10-10T15:55:08Z</time></trkpt>
<trkpt lat="36.986512" lon="-122.083464"><ele>152.0</ele><time>2021-10-10T15:55:10Z</time></trkpt>
<trkpt lat="36.986487" lon="-122.083625"><ele>150.4</ele><time>2021-10-10T15:55:14Z</time></trkpt>
<trkpt lat="36.986508" lon="-122.083695"><ele>149.6</ele><time>2021-10-10T15:55:15Z</time></trkpt>
<trkpt lat="36.986597" lon="-122.083738"><ele>148.4</ele><time>2021-10-10T15:55:18Z</time></trkpt>
<trkpt lat="36.986671" lon="-122.083840"><ele>147.0</ele><time>2021-10-10T15:55:20Z</time></trkpt>
<trkpt lat="36.986764" lon="-122.084145"><ele>143.1</ele><time>2021-10-10T15:55:23Z</time></trkpt>
<trkpt lat="36.986710" lon="-122.084715"><ele>136.7</ele><time>2021-10-10T15:55:29Z</time></trkpt>
<trkpt lat="36.986864" lon="-122.084880"><ele>133.7</ele><time>2021-10-10T15:55:31Z</time></trkpt>
<trkpt lat="36.986880" lon="-122.085044"><ele>132.0</ele><time>2021-10-10T15:55:33Z</time></trkpt>
<trkpt lat="36.986954" lon="-122.085118"><ele>131.0</ele><time>2021-10-10T15:55:34Z</time></trkpt>
<trkpt lat="36.987007" lon="-122.085265"><ele>130.0</ele><time>2021-10-10T15:55:36Z</time></trkpt>
<trkpt lat="36.987257" lon="-122.085312"><ele>128.9</ele><time>2021-10-10T15:55:39Z</time></trkpt>
<trkpt lat="36.987363" lon="-122.085214"><ele>128.5</ele><time>2021-10-10T15:55:40Z</time></trkpt>
<trkpt lat="36.987439" lon="-122.085218"><ele>128.3</ele><time>2021-10-10T15:55:41Z</time></trkpt>
<trkpt lat="36.987567" lon="-122.085103"><ele>128.2</ele><time>2021-10-10T15:55:44Z</time></trkpt>
<trkpt lat="36.987690" lon="-122.085098"><ele>128.0</ele><time>2021-10-10T15:55:46Z</time></trkpt>
<trkpt lat="36.987857" lon="-122.084994"><ele>127.6</ele><time>2021-10-10T15:55:49Z</time></trkpt>
<trkpt lat="36.988025" lon="-122.085076"><ele>126.4</ele><time>2021-10-10T15:55:51Z</time></trkpt>
<trkpt lat="36.988070" lon="-122.085058"><ele>126.0</ele><time>2021-10-10T15:55:52Z</time></trkpt>
<trkpt lat="36.988061" lon="-122.085163"><ele>124.8</ele><time>2021-10-10T15:55:55Z</time></trkpt>
<trkpt lat="36.988169" lon="-122.085247"><ele>123.2</ele><time>2021-10-10T15:55:58Z</time></trkpt>
<trkpt lat="36.988212" lon="-122.085200"><ele>122.5</ele><time>2021-10-10T15:55:59Z</time></trkpt>
<trkpt lat="36.988220" lon="-122.085113"><ele>121.7</ele><time>2021-10-10T15:56:03Z</time></trkpt>
<trkpt lat="36.988242" lon="-122.085196"><ele>120.8</ele><time>2021-10-10T15:56:07Z</time></trkpt>
<trkpt lat="36.988178" lon="-122.085178"><ele>120.4</ele><time>2021-10-10T15:56:09Z</time></trkpt>
<trkpt lat="36.988163" lon="-122.085253"><ele>120.2</ele><time>2021-10-10T15:56:14Z</time></trkpt>
<trkpt lat="36.988182" lon="-122.085259"><ele>120.1</ele><time>2021-10-10T15:56:15Z</time></trkpt>
<trkpt lat="36.988163" lon="-122.085208"><ele>120.1</ele><time>2021-10-10T15:56:16Z</time></trkpt>
<trkpt lat="36.988262" lon="-122.085240"><ele>120.4</ele><time>2021-10-10T15:56:30Z</time></trkpt>
<trkpt lat="36.988255" lon="-122.085289"><ele>120.6</ele><time>2021-10-10T15:56:31Z</time></trkpt>
<trkpt lat="36.988317" lon="-122.085300"><ele>121.1</ele><time>2021-10-10T15:56:33Z</time></trkpt>
<trkpt lat="36.988366" lon="-122.085285"><ele>121.6</ele><time>2021-10-10T15:56:35Z</time></trkpt>
<trkpt lat="36.988425" lon="-122.085175"><ele>122.6</ele><time>2021-10-10T15:56:37Z</time></trkpt>
<trkpt lat="36.988498" lon="-122.085201"><ele>123.4</ele><time>2021-10-10T15:56:40Z</time></trkpt>
<trkpt lat="36.988508" lon="-122.085298"><ele>124.2</ele><time>2021-10-10T15:56:41Z</time></trkpt>
<trkpt lat="36.988383" lon="-122.085438"><ele>125.9</ele><time>2021-10-10T15:56:53Z</time></trkpt>
<trkpt lat="36.988327" lon="-122.085429"><ele>126.3</ele><time>2021-10-10T15:56:54Z</time></trkpt>
<trkpt lat="36.988282" lon="-122.085491"><ele>126.9</ele><time>2021-10-10T15:56:59Z</time></trkpt>
<trkpt lat="36.988164" lon="-122.085536"><ele>127.9</ele><time>2021-10-10T15:57:02Z</time></trkpt>
<trkpt lat="36.988111" lon="-122.085501"><ele>128.4</ele><time>2021-10-10T15:57:03Z</time></trkpt>
<trkpt lat="36.988075" lon="-122.085536"><ele>128.8</ele><time>2021-10-10T15:57:05Z</time></trkpt>
<trkpt lat="36.988017" lon="-122.085509"><ele>129.2</ele><time>2021-10-10T15:57:08Z</time></trkpt>
<trkpt lat="36.987956" lon="-122.085547"><ele>129.8</ele><time>2021-10-10T15:57:13Z</time></trkpt>
<trkpt lat="36.987932" lon="-122.085522"><ele>130.1</ele><time>2021-10-10T15:57:14Z</time></trkpt>
<trkpt lat="36.987821" lon="-122.085545"><ele>131.0</ele><time>2021-10-10T15:57:19Z</time></trkpt>
<trkpt lat="36.987830" lon="-122.085578"><ele>131.2</ele><time>2021-10-10T15:57:20Z</time></trkpt>
<trkpt lat="36.987750" lon="-122.085622"><ele>132.0</ele><time>2021-10-10T15:57:24Z</time></trkpt>
<trkpt lat="36.987733" lon="-122.085707"><ele>132.6</ele><time>2021-10-10T15:57:27Z</time></trkpt>
<trkpt lat="36.987619" lon="-122.085894"><ele>134.1</ele><time>2021-10-10T15:57:37Z</time></trkpt>
<trkpt lat="36.987562" lon="-122.085883"><ele>134.5</ele><time>2021-10-10T15:57:39Z</time></trkpt>
<trkpt lat="36.987496" lon="-122.085955"><ele>135.2</ele><time>2021-10-10T15:57:43Z</time></trkpt>
<trkpt lat="36.987397" lon="-122.085925"><ele>136.0</ele><time>2021-10-10T15:57:46Z</time></trkpt>
<trkpt lat="36.987393" lon="-122.085985"><ele>136.3</ele><time>2021-10-10T15:57:48Z</time></trkpt>
<trkpt lat="36.987294" lon="-122.086072"><ele>137.1</ele><time>2021-10-10T15:57:55Z</time></trkpt>
<trkpt lat="36.987288" lon="-122.086158"><ele>137.6</ele><time>2021-10-10T15:58:00Z</time></trkpt>
<trkpt lat="36.987222" lon="-122.086136"><ele>137.9</ele><time>2021-10-10T15:58:02Z</time></trkpt>
<trkpt lat="36.986919" lon="-122.086210"><ele>139.9</ele><time>2021-10-10T15:58:13Z</time></trkpt>
<trkpt lat="36.986853" lon="-122.086177"><ele>140.3</ele><time>2021-10-10T15:58:14Z</time></trkpt>
<trkpt lat="36.986761" lon="-122.086220"><ele>141.1</ele><time>2021-10-10T15:58:17Z</time></trkpt>
<trkpt lat="36.986717" lon="-122.086318"><ele>141.9</ele><time>2021-10-10T15:58:22Z</time></trkpt>
<trkpt lat="36.986578" lon="-122.086298"><ele>143.5</ele><time>2021-10-10T15:58:30Z</time></trkpt>
<trkpt lat="36.986528" lon="-122.086340"><ele>144.3</ele><time>2021-10-10T15:58:34Z</time></trkpt>
<trkpt lat="36.986442" lon="-122.086342"><ele>145.8</ele><time>2021-10-10T15:58:37Z</time></trkpt>
<trkpt lat="36.986457" lon="-122.086355"><ele>146.4</ele><time>2021-10-10T15:58:39Z</time></trkpt>
<trkpt lat="36.986404" lon="-122.086472"><ele>148.4</ele><time>2021-10-10T15:58:46Z</time></trkpt>
<trkpt lat="36.986355" lon="-122.086475"><ele>149.2</ele><time>2021-10-10T15:58:48Z</time></trkpt>
<trkpt lat="36.986360" lon="-122.086527"><ele>149.9</ele><time>2021-10-10T15:58:51Z</time></trkpt>
<trkpt lat="36.986625" lon="-122.086762"><ele>154.7</ele><time>2021-10-10T15:59:17Z</time></trkpt>
<trkpt lat="36.986638" lon="-122.086832"><ele>155.3</ele><time>2021-10-10T15:59:21Z</time></trkpt>
<trkpt lat="36.986704" lon="-122.086891"><ele>156.4</ele><time>2021-10-10T15:59:26Z</time></trkpt>
<trkpt lat="36.986710" lon="-122.086970"><ele>157.1</ele><time>2021-10-10T15:59:30Z</time></trkpt>
<trkpt lat="36.986848" lon="-122.087014"><ele>158.8</ele><time>2021-10-10T15:59:38Z</time></trkpt>
<trkpt lat="36.986912" lon="-122.086961"><ele>159.7</ele><time>2021-10-10T15:59:44Z</time></trkpt>
<trkpt lat="36.986988" lon="-122.087026"><ele>160.7</ele><time>2021-10-10T15:59:49Z</time></trkpt>
<trkpt lat="36.987019" lon="-122.087004"><ele>161.1</ele><time>2021-10-10T15:59:51Z</time></trkpt>
<trkpt lat="36.987086" lon="-122.087048"><ele>161.9</ele><time>2021-10-10T15:59:56Z</time></trkpt>
<trkpt lat="36.987132" lon="-122.087025"><ele>162.3</ele><time>2021-10-10T15:59:59Z</time></trkpt>
<trkpt lat="36.987231" lon="-122.087074"><ele>163.1</ele><time>2021-10-10T16:00:07Z</time></trkpt>
<trkpt lat="36.987231" lon="-122.087045"><ele>163.2</ele><time>2021-10-10T16:00:08Z</time></trkpt>
<trkpt lat="36.987272" lon="-122.087063"><ele>163.3</ele><time>2021-10-10T16:00:10Z</time></trkpt>
<trkpt lat="36.987327" lon="-122.087019"><ele>163.5</ele><time>2021-10-10T16:00:13Z</time></trkpt>
<trkpt lat="36.987542" lon="-122.087026"><ele>163.3</ele><time>2021-10-10T16:00:23Z</time></trkpt>
<trkpt lat="36.987805" lon="-122.086773"><ele>163.2</ele><time>2021-10-10T16:00:33Z</time></trkpt>
<trkpt lat="36.987876" lon="-122.086742"><ele>163.5</ele><time>2021-10-10T16:00:34Z</time></trkpt>
<trkpt lat="36.987966" lon="-122.086754"><ele>164.2</ele><time>2021-10-10T16:00:37Z</time></trkpt>
<trkpt lat="36.988108" lon="-122.086644"><ele>166.5</ele><time>2021-10-10T16:00:44Z</time></trkpt>
<trkpt lat="36.988196" lon="-122.086651"><ele>168.0</ele><time>2021-10-10T16:00:48Z</time></trkpt>
<trkpt lat="36.988197" lon="-122.086616"><ele>168.8</ele><time>2021-10-10T16:00:51Z</time></trkpt>
<trkpt lat="36.988394" lon="-122.086494"><ele>171.8</ele><time>2021-10-10T16:01:05Z</time></trkpt>
<trkpt lat="36.988543" lon="-122.086495"><ele>172.2</ele><time>2021-10-10T16:01:16Z</time></trkpt>
<trkpt lat="36.988715" lon="-122.086609"><ele>172.2</ele><time>2021-10-10T16:01:20Z</time></trkpt>
<trkpt lat="36.988906" lon="-122.086552"><ele>173.3</ele><time>2021-10-10T16:01:26Z</time></trkpt>
<trkpt lat="36.989178" lon="-122.086740"><ele>176.3</ele><time>2021-10-10T16:01:41Z</time></trkpt>
<trkpt lat="36.989351" lon="-122.086726"><ele>177.5</ele><time>2021-10-10T16:01:53Z</time></trkpt>
<trkpt lat="36.989426" lon="-122.086753"><ele>177.8</ele><time>2021-10-10T16:01:57Z</time></trkpt>
<trkpt lat="36.989571" lon="-122.086723"><ele>178.3</ele><time>2021-10-10T16:02:03Z</time></trkpt>
<trkpt lat="36.989809" lon="-122.086826"><ele>179.4</ele><time>2021-10-10T16:02:11Z</time></trkpt>
<trkpt lat="36.989947" lon="-122.086802"><ele>180.4</ele><time>2021-10-10T16:02:16Z</time></trkpt>
<trkpt lat="36.990242" lon="-122.087060"><ele>184.1</ele><time>2021-10-10T16:02:38Z</time></trkpt>
<trkpt lat="36.990499" lon="-122.087041"><ele>185.4</ele><time>2021-10-10T16:02:51Z</time></trkpt>
<trkpt lat="36.990574" lon="-122.087066"><ele>185.5</ele><time>2021-10-10T16:02:53Z</time></trkpt>
<trkpt lat="36.990706" lon="-122.087191"><ele>185.9</ele><time>2021-10-10T16:02:58Z</time></trkpt>
<trkpt lat="36.990810" lon="-122.087156"><ele>186.4</ele><time>2021-10-10T16:03:02Z</time></trkpt>
<trkpt lat="36.990899" lon="-122.087201"><ele>187.1</ele><time>2021-10-10T16:03:09Z</time></trkpt>
<trkpt lat="36.991101" lon="-122.087160"><ele>189.1</ele><time>2021-10-10T16:03:26Z</time></trkpt>
<trkpt lat="36.991228" lon="-122.087192"><ele>190.1</ele><time>2021-10-10T16:03:33Z</time></trkpt>
<trkpt lat="36.991499" lon="-122.087185"><ele>191.4</ele><time>2021-10-10T16:03:43Z</time></trkpt>
<trkpt lat="36.991631" lon="-122.087306"><ele>192.1</ele><time>2021-10-10T16:03:49Z</time></trkpt>
<trkpt lat="36.991785" lon="-122.087532"><ele>193.0</ele><time>2021-10-10T16:03:57Z</time></trkpt>
<trkpt lat="36.991666" lon="-122.087924"><ele>193.1</ele><time>2021-10-10T16:04:10Z</time></trkpt>
<trkpt lat="36.991492" lon="-122.088161"><ele>193.6</ele><time>2021-10-10T16:04:26Z</time></trkpt>
<trkpt lat="36.991301" lon="-122.088241"><ele>195.1</ele><time>2021-10-10T16:06:07Z</time></trkpt>
<trkpt lat="36.991332" lon="-122.088239"><ele>195.3</ele><time>2021-10-10T16:06:08Z</time></trkpt>
<trkpt lat="36.991480" lon="-122.088160"><ele>196.6</ele><time>2021-10-10T16:06:09Z</time></trkpt>
<trkpt lat="36.991349" lon="-122.088162"><ele>196.6</ele><time>2021-10-10T16:08:50Z</time></trkpt>
<trkpt lat="36.991249" lon="-122.088097"><ele>195.8</ele><time>2021-10-10T16:08:52Z</time></trkpt>
<trkpt lat="36.991105" lon="-122.088078"><ele>194.9</ele><time>2021-10-10T16:08:54Z</time></trkpt>
<trkpt lat="36.990760" lon="-122.087952"><ele>192.9</ele><time>2021-10-10T16:08:59Z</time></trkpt>
<trkpt lat="36.990624" lon="-122.087976"><ele>192.1</ele><time>2021-10-10T16:09:01Z</time></trkpt>
<trkpt lat="36.990507" lon="-122.088085"><ele>191.1</ele><time>2021-10-10T16:09:03Z</time></trkpt>
<trkpt lat="36.990377" lon="-122.088282"><ele>189.6</ele><time>2021-10-10T16:09:06Z</time></trkpt>
<trkpt lat="36.990279" lon="-122.088298"><ele>188.9</ele><time>2021-10-10T16:09:08Z</time></trkpt>
<trkpt lat="36.989872" lon="-122.088070"><ele>186.9</ele><time>2021-10-10T16:09:17Z</time></trkpt>
<trkpt lat="36.989502" lon="-122.088052"><ele>185.5</ele><time>2021-10-10T16:09:24Z</time></trkpt>
<trkpt lat="36.988219" lon="-122.088791"><ele>177.3</ele><time>2021-10-10T16:09:42Z</time></trkpt>
<trkpt lat="36.988067" lon="-122.089023"><ele>176.5</ele><time>2021-10-10T16:09:45Z</time></trkpt>
<trkpt lat="36.987999" lon="-122.089231"><ele>176.4</ele><time>2021-10-10T16:09:48Z</time></trkpt>
<trkpt lat="36.988003" lon="-122.089360"><ele>176.5</ele><time>2021-10-10T16:09:50Z</time></trkpt>
<trkpt lat="36.988100" lon="-122.089426"><ele>176.8</ele><time>2021-10-10T16:09:52Z</time></trkpt>
<trkpt lat="36.988139" lon="-122.089503"><ele>177.0</ele><time>2021-10-10T16:09:55Z</time></trkpt>
<trkpt lat="36.988121" lon="-122.089720"><ele>177.6</ele><time>2021-10-10T16:10:01Z</time></trkpt>
<trkpt lat="36.988018" lon="-122.089927"><ele>178.1</ele><time>2021-10-10T16:10:07Z</time></trkpt>
<trkpt lat="36.987871" lon="-122.090015"><ele>178.1</ele><time>2021-10-10T16:10:11Z</time></trkpt>
<trkpt lat="36.987809" lon="-122.090124"><ele>177.9</ele><time>2021-10-10T16:10:13Z</time></trkpt>
<trkpt lat="36.987820" lon="-122.090190"><ele>177.6</ele><time>2021-10-10T16:10:14Z</time></trkpt>
<trkpt lat="36.987896" lon="-122.090269"><ele>177.0</ele><time>2021-10-10T16:10:16Z</time></trkpt>
<trkpt lat="36.988032" lon="-122.090569"><ele>174.5</ele><time>2021-10-10T16:10:21Z</time></trkpt>
<trkpt lat="36.988251" lon="-122.090655"><ele>171.9</ele><time>2021-10-10T16:10:25Z</time></trkpt>
<trkpt lat="36.988430" lon="-122.090671"><ele>169.8</ele><time>2021-10-10T16:10:28Z</time></trkpt>
<trkpt lat="36.988405" lon="-122.090539"><ele>167.8</ele><time>2021-10-10T16:10:37Z</time></trkpt>
<trkpt lat="36.988486" lon="-122.090539"><ele>166.5</ele><time>2021-10-10T16:10:42Z</time></trkpt>
<trkpt lat="36.988535" lon="-122.090465"><ele>165.6</ele><time>2021-10-10T16:10:44Z</time></trkpt>
<trkpt lat="36.988614" lon="-122.090449"><ele>164.7</ele><time>2021-10-10T16:10:45Z</time></trkpt>
<trkpt lat="36.988647" lon="-122.090361"><ele>163.8</ele><time>2021-10-10T16:10:46Z</time></trkpt>
<trkpt lat="36.988898" lon="-122.090292"><ele>161.0</ele><time>2021-10-10T16:10:51Z</time></trkpt>
<trkpt lat="36.989192" lon="-122.090483"><ele>157.6</ele><time>2021-10-10T16:10:57Z</time></trkpt>
<trkpt lat="36.989368" lon="-122.090498"><ele>156.1</ele><time>2021-10-10T16:11:03Z</time></trkpt>
<trkpt lat="36.989300" lon="-122.090527"><ele>155.7</ele><time>2021-10-10T16:11:06Z</time></trkpt>
<trkpt lat="36.989284" lon="-122.090386"><ele>155.4</ele><time>2021-10-10T16:11:08Z</time></trkpt>
<trkpt lat="36.989353" lon="-122.090304"><ele>155.6</ele><time>2021-10-10T16:11:14Z</time></trkpt>
<trkpt lat="36.989460" lon="-122.090452"><ele>156.3</ele><time>2021-10-10T16:11:24Z</time></trkpt>
<trkpt lat="36.989419" lon="-122.090459"><ele>156.4</ele><time>2021-10-10T16:11:25Z</time></trkpt>
<trkpt lat="36.989429" lon="-122.090500"><ele>156.5</ele><time>2021-10-10T16:11:26Z</time></trkpt>
<trkpt lat="36.989369" lon="-122.090477"><ele>156.6</ele><time>2021-10-10T16:11:30Z</time></trkpt>
<trkpt lat="36.989313" lon="-122.090507"><ele>156.8</ele><time>2021-10-10T16:11:31Z</time></trkpt>
<trkpt lat="36.989344" lon="-122.090578"><ele>156.9</ele><time>2021-10-10T16:11:35Z</time></trkpt>
<trkpt lat="36.989317" lon="-122.090537"><ele>157.0</ele><time>2021-10-10T16:11:36Z</time></trkpt>
<trkpt lat="36.989262" lon="-122.090637"><ele>157.2</ele><time>2021-10-10T16:11:47Z</time></trkpt>
<trkpt lat="36.989291" lon="-122.090657"><ele>157.3</ele><time>2021-10-10T16:11:48Z</time></trkpt>
<trkpt lat="36.989263" lon="-122.090680"><ele>157.4</ele><time>2021-10-10T16:11:49Z</time></trkpt>
<trkpt lat="36.989286" lon="-122.090710"><ele>157.4</ele><time>2021-10-10T16:11:50Z</time></trkpt>
<trkpt lat="36.989237" lon="-122.090791"><ele>157.7</ele><time>2021-10-10T16:11:52Z</time></trkpt>
<trkpt lat="36.989203" lon="-122.090817"><ele>157.9</ele><time>2021-10-10T16:11:54Z</time></trkpt>
<trkpt lat="36.989228" lon="-122.090794"><ele>158.0</ele><time>2021-10-10T16:11:55Z</time></trkpt>
<trkpt lat="36.989145" lon="-122.090773"><ele>158.4</ele><time>2021-10-10T16:11:56Z</time></trkpt>
<trkpt lat="36.989108" lon="-122.090821"><ele>158.7</ele><time>2021-10-10T16:11:59Z</time></trkpt>
<trkpt lat="36.989099" lon="-122.091029"><ele>159.6</ele><time>2021-10-10T16:12:05Z</time></trkpt>
<trkpt lat="36.988911" lon="-122.091189"><ele>160.9</ele><time>2021-10-10T16:12:11Z</time></trkpt>
<trkpt lat="36.988744" lon="-122.091253"><ele>161.6</ele><time>2021-10-10T16:12:18Z</time></trkpt>
<trkpt lat="36.988706" lon="-122.091347"><ele>161.9</ele><time>2021-10-10T16:12:21Z</time></trkpt>
<trkpt lat="36.988645" lon="-122.091331"><ele>162.1</ele><time>2021-10-10T16:12:23Z</time></trkpt>
<trkpt lat="36.988663" lon="-122.091401"><ele>162.3</ele><time>2021-10-10T16:12:24Z</time></trkpt>
<trkpt lat="36.988616" lon="-122.091375"><ele>162.4</ele><time>2021-10-10T16:12:26Z</time></trkpt>
<trkpt lat="36.988553" lon="-122.091425"><ele>162.7</ele><time>2021-10-10T16:12:29Z</time></trkpt>
<trkpt lat="36.988382" lon="-122.091385"><ele>163.3</ele><time>2021-10-10T16:12:37Z</time></trkpt>
<trkpt lat="36.988338" lon="-122.091464"><ele>163.5</ele><time>2021-10-10T16:12:40Z</time></trkpt>
<trkpt lat="36.988150" lon="-122.091516"><ele>164.2</ele><time>2021-10-10T16:12:47Z</time></trkpt>
<trkpt lat="36.988134" lon="-122.091547"><ele>164.3</ele><time>2021-10-10T16:12:48Z</time></trkpt>
<trkpt lat="36.987954" lon="-122.091532"><ele>165.2</ele><time>2021-10-10T16:12:56Z</time></trkpt>
<trkpt lat="36.987970" lon="-122.091604"><ele>165.5</ele><time>2021-10-10T16:12:58Z</time></trkpt>
<trkpt lat="36.987699" lon="-122.091788"><ele>166.8</ele><time>2021-10-10T16:13:05Z</time></trkpt>
<trkpt lat="36.987570" lon="-122.091804"><ele>167.1</ele><time>2021-10-10T16:13:11Z</time></trkpt>
<trkpt lat="36.987364" lon="-122.091674"><ele>167.1</ele><time>2021-10-10T16:13:19Z</time></trkpt>
<trkpt lat="36.987263" lon="-122.091745"><ele>167.1</ele><time>2021-10-10T16:13:22Z</time></trkpt>
<trkpt lat="36.987176" lon="-122.091747"><ele>167.0</ele><time>2021-10-10T16:13:24Z</time></trkpt>
<trkpt lat="36.987138" lon="-122.091711"><ele>167.0</ele><time>2021-10-10T16:13:26Z</time></trkpt>
<trkpt lat="36.987070" lon="-122.091820"><ele>166.9</ele><time>2021-10-10T16:13:29Z</time></trkpt>
<trkpt lat="36.987332" lon="-122.092117"><ele>166.5</ele><time>2021-10-10T16:13:45Z</time></trkpt>
<trkpt lat="36.987383" lon="-122.092337"><ele>166.1</ele><time>2021-10-10T16:13:51Z</time></trkpt>
<trkpt lat="36.987321" lon="-122.092282"><ele>165.9</ele><time>2021-10-10T16:13:52Z</time></trkpt>
<trkpt lat="36.987477" lon="-122.092468"><ele>165.3</ele><time>2021-10-10T16:13:56Z</time></trkpt>
<trkpt lat="36.987557" lon="-122.092636"><ele>164.9</ele><time>2021-10-10T16:13:58Z</time></trkpt>
<trkpt lat="36.987531" lon="-122.092618"><ele>164.8</ele><time>2021-10-10T16:13:59Z</time></trkpt>
<trkpt lat="36.987411" lon="-122.092782"><ele>164.5</ele><time>2021-10-10T16:14:03Z</time></trkpt>
<trkpt lat="36.987500" lon="-122.092905"><ele>164.2</ele><time>2021-10-10T16:14:06Z</time></trkpt>
<trkpt lat="36.987445" lon="-122.093007"><ele>163.9</ele><time>2021-10-10T16:14:08Z</time></trkpt>
<trkpt lat="36.987513" lon="-122.093151"><ele>163.6</ele><time>2021-10-10T16:14:11Z</time></trkpt>
<trkpt lat="36.987525" lon="-122.093284"><ele>163.2</ele><time>2021-10-10T16:14:13Z</time></trkpt>
<trkpt lat="36.987593" lon="-122.093342"><ele>162.8</ele><time>2021-10-10T16:14:14Z</time></trkpt>
<trkpt lat="36.987748" lon="-122.093800"><ele>160.7</ele><time>2021-10-10T16:14:19Z</time></trkpt>
<trkpt lat="36.987872" lon="-122.094009"><ele>159.5</ele><time>2021-10-10T16:14:21Z</time></trkpt>
<trkpt lat="36.988000" lon="-122.094394"><ele>157.7</ele><time>2021-10-10T16:14:24Z</time></trkpt>
<trkpt lat="36.988211" lon="-122.094857"><ele>156.1</ele><time>2021-10-10T16:14:28Z</time></trkpt>
<trkpt lat="36.988423" lon="-122.095153"><ele>153.7</ele><time>2021-10-10T16:14:33Z</time></trkpt>
<trkpt lat="36.988382" lon="-122.095328"><ele>152.0</ele><time>2021-10-10T16:14:38Z</time></trkpt>
<trkpt lat="36.988323" lon="-122.095407"><ele>151.4</ele><time>2021-10-10T16:14:41Z</time></trkpt>
<trkpt lat="36.988297" lon="-122.095402"><ele>151.3</ele><time>2021-10-10T16:14:43Z</time></trkpt>
<trkpt lat="36.988277" lon="-122.095510"><ele>151.5</ele><time>2021-10-10T16:14:49Z</time></trkpt>
<trkpt lat="36.988315" lon="-122.095612"><ele>152.3</ele><time>2021-10-10T16:14:55Z</time></trkpt>
<trkpt lat="36.988291" lon="-122.095654"><ele>152.8</ele><time>2021-10-10T16:14:57Z</time></trkpt>
<trkpt lat="36.988334" lon="-122.095814"><ele>154.2</ele><time>2021-10-10T16:15:01Z</time></trkpt>
<trkpt lat="36.988377" lon="-122.095825"><ele>154.7</ele><time>2021-10-10T16:15:05Z</time></trkpt>
<trkpt lat="36.988367" lon="-122.095876"><ele>155.0</ele><time>2021-10-10T16:15:07Z</time></trkpt>
<trkpt lat="36.988417" lon="-122.095972"><ele>155.7</ele><time>2021-10-10T16:15:14Z</time></trkpt>
<trkpt lat="36.988466" lon="-122.096324"><ele>157.5</ele><time>2021-10-10T16:16:38Z</time></trkpt>
<trkpt lat="36.988599" lon="-122.096485"><ele>158.7</ele><time>2021-10-10T16:16:49Z</time></trkpt>
<trkpt lat="36.988784" lon="-122.096875"><ele>160.7</ele><time>2021-10-10T16:17:08Z</time></trkpt>
<trkpt lat="36.988885" lon="-122.097020"><ele>161.3</ele><time>2021-10-10T16:17:15Z</time></trkpt>
<trkpt lat="36.989217" lon="-122.097925"><ele>164.3</ele><time>2021-10-10T16:17:43Z</time></trkpt>
<trkpt lat="36.989415" lon="-122.098749"><ele>166.4</ele><time>2021-10-10T16:18:05Z</time></trkpt>
<trkpt lat="36.989449" lon="-122.098998"><ele>166.8</ele><time>2021-10-10T16:18:13Z</time></trkpt>
<trkpt lat="36.989434" lon="-122.099073"><ele>166.8</ele><time>2021-10-10T16:18:15Z</time></trkpt>
<trkpt lat="36.989534" lon="-122.099435"><ele>167.5</ele><time>2021-10-10T16:18:25Z</time></trkpt>
<trkpt lat="36.989557" lon="-122.099804"><ele>168.5</ele><time>2021-10-10T16:18:35Z</time></trkpt>
<trkpt lat="36.989501" lon="-122.100248"><ele>168.8</ele><time>2021-10-10T16:18:48Z</time></trkpt>
<trkpt lat="36.989203" lon="-122.100685"><ele>168.6</ele><time>2021-10-10T16:19:08Z</time></trkpt>
<trkpt lat="36.989183" lon="-122.100768"><ele>168.6</ele><time>2021-10-10T16:19:10Z</time></trkpt>
<trkpt lat="36.989205" lon="-122.100931"><ele>168.8</ele><time>2021-10-10T16:19:14Z</time></trkpt>
<trkpt lat="36.989255" lon="-122.101021"><ele>169.1</ele><time>2021-10-10T16:19:16Z</time></trkpt>
<trkpt lat="36.989306" lon="-122.101421"><ele>170.7</ele><time>2021-10-10T16:19:29Z</time></trkpt>
<trkpt lat="36.989281" lon="-122.102174"><ele>172.8</ele><time>2021-10-10T16:19:48Z</time></trkpt>
<trkpt lat="36.989244" lon="-122.102457"><ele>174.1</ele><time>2021-10-10T16:19:56Z</time></trkpt>
<trkpt lat="36.989143" lon="-122.102572"><ele>174.6</ele><time>2021-10-10T16:20:01Z</time></trkpt>
<trkpt lat="36.989027" lon="-122.102623"><ele>174.7</ele><time>2021-10-10T16:20:05Z</time></trkpt>
<trkpt lat="36.988971" lon="-122.102750"><ele>174.9</ele><time>2021-10-10T16:20:09Z</time></trkpt>
<trkpt lat="36.988894" lon="-122.102812"><ele>175.0</ele><time>2021-10-10T16:20:12Z</time></trkpt>
<trkpt lat="36.988663" lon="-122.103207"><ele>176.5</ele><time>2021-10-10T16:20:26Z</time></trkpt>
<trkpt lat="36.988700" lon="-122.103369"><ele>177.7</ele><time>2021-10-10T16:20:31Z</time></trkpt>
<trkpt lat="36.988604" lon="-122.103712"><ele>179.4</ele><time>2021-10-10T16:20:42Z</time></trkpt>
<trkpt lat="36.988540" lon="-122.103788"><ele>179.9</ele><time>2021-10-10T16:20:45Z</time></trkpt>
<trkpt lat="36.988314" lon="-122.103885"><ele>181.4</ele><time>2021-10-10T16:20:54Z</time></trkpt>
<trkpt lat="36.988190" lon="-122.103990"><ele>182.3</ele><time>2021-10-10T16:21:00Z</time></trkpt>
<trkpt lat="36.987973" lon="-122.104243"><ele>184.0</ele><time>2021-10-10T16:21:15Z</time></trkpt>
<trkpt lat="36.987908" lon="-122.104434"><ele>185.2</ele><time>2021-10-10T16:21:24Z</time></trkpt>
<trkpt lat="36.987900" lon="-122.104600"><ele>186.0</ele><time>2021-10-10T16:21:31Z</time></trkpt>
<trkpt lat="36.987975" lon="-122.104782"><ele>186.5</ele><time>2021-10-10T16:21:39Z</time></trkpt>
<trkpt lat="36.988118" lon="-122.104915"><ele>186.1</ele><time>2021-10-10T16:22:12Z</time></trkpt>
<trkpt lat="36.988332" lon="-122.104997"><ele>185.1</ele><time>2021-10-10T16:22:17Z</time></trkpt>
<trkpt lat="36.988393" lon="-122.105098"><ele>184.6</ele><time>2021-10-10T16:22:19Z</time></trkpt>
<trkpt lat="36.988460" lon="-122.105754"><ele>182.3</ele><time>2021-10-10T16:22:29Z</time></trkpt>
<trkpt lat="36.988447" lon="-122.105981"><ele>181.6</ele><time>2021-10-10T16:22:32Z</time></trkpt>
<trkpt lat="36.988409" lon="-122.106108"><ele>181.5</ele><time>2021-10-10T16:22:34Z</time></trkpt>
<trkpt lat="36.988077" lon="-122.106553"><ele>182.6</ele><time>2021-10-10T16:22:49Z</time></trkpt>
<trkpt lat="36.987696" lon="-122.107498"><ele>183.4</ele><time>2021-10-10T16:23:16Z</time></trkpt>
<trkpt lat="36.987549" lon="-122.107739"><ele>183.4</ele><time>2021-10-10T16:23:23Z</time></trkpt>
<trkpt lat="36.987270" lon="-122.108132"><ele>183.3</ele><time>2021-10-10T16:23:34Z</time></trkpt>
<trkpt lat="36.987172" lon="-122.108205"><ele>183.4</ele><time>2021-10-10T16:23:38Z</time></trkpt>
<trkpt lat="36.987098" lon="-122.108339"><ele>183.7</ele><time>2021-10-10T16:23:42Z</time></trkpt>
<trkpt lat="36.987010" lon="-122.108412"><ele>184.1</ele><time>2021-10-10T16:23:46Z</time></trkpt>
<trkpt lat="36.986501" lon="-122.109367"><ele>185.9</ele><time>2021-10-10T16:24:21Z</time></trkpt>
<trkpt lat="36.986341" lon="-122.109381"><ele>185.5</ele><time>2021-10-10T16:24:51Z</time></trkpt>
<trkpt lat="36.986377" lon="-122.109407"><ele>185.4</ele><time>2021-10-10T16:24:53Z</time></trkpt>
<trkpt lat="36.986284" lon="-122.109800"><ele>184.4</ele><time>2021-10-10T16:25:04Z</time></trkpt>
<trkpt lat="36.986087" lon="-122.110319"><ele>182.9</ele><time>2021-10-10T16:25:12Z</time></trkpt>
<trkpt lat="36.986038" lon="-122.110635"><ele>182.5</ele><time>2021-10-10T16:25:17Z</time></trkpt>
<trkpt lat="36.986069" lon="-122.110751"><ele>182.7</ele><time>2021-10-10T16:25:19Z</time></trkpt>
<trkpt lat="36.986124" lon="-122.110812"><ele>182.9</ele><time>2021-10-10T16:25:21Z</time></trkpt>
<trkpt lat="36.986331" lon="-122.110849"><ele>183.3</ele><time>2021-10-10T16:25:28Z</time></trkpt>
<trkpt lat="36.986472" lon="-122.110820"><ele>183.1</ele><time>2021-10-10T16:25:32Z</time></trkpt>
<trkpt lat="36.986660" lon="-122.110720"><ele>182.7</ele><time>2021-10-10T16:25:36Z</time></trkpt>
<trkpt lat="36.986711" lon="-122.110717"><ele>182.6</ele><time>2021-10-10T16:25:37Z</time></trkpt>
<trkpt lat="36.986782" lon="-122.110772"><ele>182.3</ele><time>2021-10-10T16:25:39Z</time></trkpt>
<trkpt lat="36.987142" lon="-122.110478"><ele>178.7</ele><time>2021-10-10T16:25:51Z</time></trkpt>
<trkpt lat="36.987146" lon="-122.110346"><ele>176.7</ele><time>2021-10-10T16:25:53Z</time></trkpt>
<trkpt lat="36.987300" lon="-122.110116"><ele>172.0</ele><time>2021-10-10T16:25:57Z</time></trkpt>
<trkpt lat="36.987410" lon="-122.109833"><ele>167.6</ele><time>2021-10-10T16:26:00Z</time></trkpt>
<trkpt lat="36.987527" lon="-122.109717"><ele>165.2</ele><time>2021-10-10T16:26:03Z</time></trkpt>
<trkpt lat="36.987528" lon="-122.109572"><ele>163.7</ele><time>2021-10-10T16:26:05Z</time></trkpt>
<trkpt lat="36.987571" lon="-122.109464"><ele>162.5</ele><time>2021-10-10T16:26:07Z</time></trkpt>
<trkpt lat="36.987640" lon="-122.109405"><ele>161.4</ele><time>2021-10-10T16:26:09Z</time></trkpt>
<trkpt lat="36.987650" lon="-122.109299"><ele>160.1</ele><time>2021-10-10T16:26:11Z</time></trkpt>
<trkpt lat="36.987683" lon="-122.109304"><ele>159.6</ele><time>2021-10-10T16:26:12Z</time></trkpt>
<trkpt lat="36.987709" lon="-122.109260"><ele>159.0</ele><time>2021-10-10T16:26:13Z</time></trkpt>
<trkpt lat="36.987735" lon="-122.109150"><ele>157.5</ele><time>2021-10-10T16:26:15Z</time></trkpt>
<trkpt lat="36.987807" lon="-122.109092"><ele>156.1</ele><time>2021-10-10T16:26:17Z</time></trkpt>
<trkpt lat="36.987927" lon="-122.109068"><ele>154.0</ele><time>2021-10-10T16:26:21Z</time></trkpt>
<trkpt lat="36.988014" lon="-122.109091"><ele>152.5</ele><time>2021-10-10T16:26:22Z</time></trkpt>
<trkpt lat="36.988089" lon="-122.109306"><ele>149.3</ele><time>2021-10-10T16:26:25Z</time></trkpt>
<trkpt lat="36.988266" lon="-122.109539"><ele>144.3</ele><time>2021-10-10T16:26:30Z</time></trkpt>
<trkpt lat="36.988273" lon="-122.109514"><ele>143.9</ele><time>2021-10-10T16:26:31Z</time></trkpt>
<trkpt lat="36.988244" lon="-122.109569"><ele>142.8</ele><time>2021-10-10T16:26:33Z</time></trkpt>
<trkpt lat="36.988265" lon="-122.109539"><ele>142.3</ele><time>2021-10-10T16:26:35Z</time></trkpt>
<trkpt lat="36.988238" lon="-122.109491"><ele>141.5</ele><time>2021-10-10T16:26:37Z</time></trkpt>
<trkpt lat="36.988288" lon="-122.109495"><ele>140.4</ele><time>2021-10-10T16:26:41Z</time></trkpt>
<trkpt lat="36.988223" lon="-122.109630"><ele>139.0</ele><time>2021-10-10T16:26:44Z</time></trkpt>
<trkpt lat="36.988275" lon="-122.109787"><ele>137.8</ele><time>2021-10-10T16:26:47Z</time></trkpt>
<trkpt lat="36.988279" lon="-122.109910"><ele>137.1</ele><time>2021-10-10T16:26:50Z</time></trkpt>
<trkpt lat="36.988255" lon="-122.109947"><ele>136.9</ele><time>2021-10-10T16:26:51Z</time></trkpt>
<trkpt lat="36.988299" lon="-122.109978"><ele>136.7</ele><time>2021-10-10T16:26:52Z</time></trkpt>
<trkpt lat="36.988263" lon="-122.110003"><ele>136.5</ele><time>2021-10-10T16:26:53Z</time></trkpt>
<trkpt lat="36.988270" lon="-122.110094"><ele>136.3</ele><time>2021-10-10T16:26:55Z</time></trkpt>
<trkpt lat="36.988196" lon="-122.110393"><ele>136.1</ele><time>2021-10-10T16:27:01Z</time></trkpt>
<trkpt lat="36.988107" lon="-122.110628"><ele>135.4</ele><time>2021-10-10T16:27:09Z</time></trkpt>
<trkpt lat="36.987947" lon="-122.110670"><ele>135.8</ele><time>2021-10-10T16:27:12Z</time></trkpt>
<trkpt lat="36.987870" lon="-122.110736"><ele>133.4</ele><time>2021-10-10T16:27:15Z</time></trkpt>
<trkpt lat="36.987859" lon="-122.110837"><ele>131.8</ele><time>2021-10-10T16:27:17Z</time></trkpt>
<trkpt lat="36.987767" lon="-122.110923"><ele>127.2</ele><time>2021-10-10T16:27:19Z</time></trkpt>
<trkpt lat="36.987437" lon="-122.111288"><ele>127.7</ele><time>2021-10-10T16:27:30Z</time></trkpt>
<trkpt lat="36.987459" lon="-122.111335"><ele>126.5</ele><time>2021-10-10T16:27:32Z</time></trkpt>
<trkpt lat="36.987414" lon="-122.111375"><ele>125.6</ele><time>2021-10-10T16:27:33Z</time></trkpt>
<trkpt lat="36.987347" lon="-122.111368"><ele>125.7</ele><time>2021-10-10T16:27:38Z</time></trkpt>
<trkpt lat="36.987457" lon="-122.111331"><ele>124.5</ele><time>2021-10-10T16:27:42Z</time></trkpt>
<trkpt lat="36.987803" lon="-122.111026"><ele>117.8</ele><time>2021-10-10T16:27:46Z</time></trkpt>
<trkpt lat="36.987919" lon="-122.110821"><ele>125.4</ele><time>2021-10-10T16:27:50Z</time></trkpt>
<trkpt lat="36.988064" lon="-122.110554"><ele>126.5</ele><time>2021-10-10T16:27:55Z</time></trkpt>
<trkpt lat="36.988256" lon="-122.110344"><ele>123.5</ele><time>2021-10-10T16:27:58Z</time></trkpt>
<trkpt lat="36.988320" lon="-122.110315"><ele>122.4</ele><time>2021-10-10T16:27:59Z</time></trkpt>
<trkpt lat="36.988479" lon="-122.110068"><ele>118.8</ele><time>2021-10-10T16:28:03Z</time></trkpt>
<trkpt lat="36.988645" lon="-122.109908"><ele>116.0</ele><time>2021-10-10T16:28:07Z</time></trkpt>
<trkpt lat="36.988837" lon="-122.109874"><ele>113.9</ele><time>2021-10-10T16:28:09Z</time></trkpt>
<trkpt lat="36.988901" lon="-122.109775"><ele>112.8</ele><time>2021-10-10T16:28:10Z</time></trkpt>
<trkpt lat="36.988923" lon="-122.109645"><ele>111.8</ele><time>2021-10-10T16:28:11Z</time></trkpt>
<trkpt lat="36.989015" lon="-122.109520"><ele>110.0</ele><time>2021-10-10T16:28:14Z</time></trkpt>
<trkpt lat="36.989022" lon="-122.109402"><ele>108.6</ele><time>2021-10-10T16:28:16Z</time></trkpt>
<trkpt lat="36.989310" lon="-122.109316"><ele>104.0</ele><time>2021-10-10T16:28:20Z</time></trkpt>
<trkpt lat="36.989391" lon="-122.109147"><ele>102.2</ele><time>2021-10-10T16:28:22Z</time></trkpt>
<trkpt lat="36.989408" lon="-122.108963"><ele>100.9</ele><time>2021-10-10T16:28:23Z</time></trkpt>
<trkpt lat="36.989611" lon="-122.108684"><ele>99.8</ele><time>2021-10-10T16:28:28Z</time></trkpt>
<trkpt lat="36.989465" lon="-122.108719"><ele>99.5</ele><time>2021-10-10T16:28:29Z</time></trkpt>
<trkpt lat="36.989738" lon="-122.108333"><ele>99.3</ele><time>2021-10-10T16:28:34Z</time></trkpt>
<trkpt lat="36.989857" lon="-122.108111"><ele>100.1</ele><time>2021-10-10T16:28:38Z</time></trkpt>
<trkpt lat="36.989908" lon="-122.108103"><ele>100.4</ele><time>2021-10-10T16:28:39Z</time></trkpt>
<trkpt lat="36.989961" lon="-122.107966"><ele>101.7</ele><time>2021-10-10T16:28:42Z</time></trkpt>
<trkpt lat="36.990035" lon="-122.107990"><ele>102.3</ele><time>2021-10-10T16:28:44Z</time></trkpt>
<trkpt lat="36.990008" lon="-122.107959"><ele>102.6</ele><time>2021-10-10T16:28:45Z</time></trkpt>
<trkpt lat="36.990026" lon="-122.107932"><ele>102.8</ele><time>2021-10-10T16:28:47Z</time></trkpt>
<trkpt lat="36.990048" lon="-122.107952"><ele>102.9</ele><time>2021-10-10T16:28:49Z</time></trkpt>
<trkpt lat="36.990058" lon="-122.107861"><ele>103.5</ele><time>2021-10-10T16:28:52Z</time></trkpt>
<trkpt lat="36.990089" lon="-122.107871"><ele>103.7</ele><time>2021-10-10T16:28:53Z</time></trkpt>
<trkpt lat="36.990113" lon="-122.107824"><ele>104.0</ele><time>2021-10-10T16:28:54Z</time></trkpt>
<trkpt lat="36.990080" lon="-122.107733"><ele>104.5</ele><time>2021-10-10T16:28:56Z</time></trkpt>
<trkpt lat="36.990121" lon="-122.107659"><ele>104.9</ele><time>2021-10-10T16:28:58Z</time></trkpt>
<trkpt lat="36.990136" lon="-122.107465"><ele>105.8</ele><time>2021-10-10T16:29:03Z</time></trkpt>
<trkpt lat="36.990112" lon="-122.107448"><ele>106.0</ele><time>2021-10-10T16:29:04Z</time></trkpt>
<trkpt lat="36.990180" lon="-122.107310"><ele>106.7</ele><time>2021-10-10T16:29:08Z</time></trkpt>
<trkpt lat="36.990166" lon="-122.107246"><ele>107.0</ele><time>2021-10-10T16:29:09Z</time></trkpt>
<trkpt lat="36.990279" lon="-122.107124"><ele>108.0</ele><time>2021-10-10T16:29:15Z</time></trkpt>
<trkpt lat="36.990265" lon="-122.106909"><ele>108.9</ele><time>2021-10-10T16:29:21Z</time></trkpt>
<trkpt lat="36.990278" lon="-122.106863"><ele>107.3</ele><time>2021-10-10T16:29:22Z</time></trkpt>
<trkpt lat="36.990259" lon="-122.106819"><ele>106.5</ele><time>2021-10-10T16:29:23Z</time></trkpt>
<trkpt lat="36.990229" lon="-122.106819"><ele>107.6</ele><time>2021-10-10T16:29:24Z</time></trkpt>
<trkpt lat="36.990249" lon="-122.106783"><ele>106.8</ele><time>2021-10-10T16:29:25Z</time></trkpt>
<trkpt lat="36.990159" lon="-122.106693"><ele>109.1</ele><time>2021-10-10T16:29:30Z</time></trkpt>
<trkpt lat="36.990116" lon="-122.106509"><ele>109.1</ele><time>2021-10-10T16:29:32Z</time></trkpt>
<trkpt lat="36.990233" lon="-122.106547"><ele>109.2</ele><time>2021-10-10T16:29:39Z</time></trkpt>
<trkpt lat="36.990276" lon="-122.106505"><ele>109.3</ele><time>2021-10-10T16:29:40Z</time></trkpt>
<trkpt lat="36.990272" lon="-122.106466"><ele>109.4</ele><time>2021-10-10T16:29:41Z</time></trkpt>
<trkpt lat="36.990395" lon="-122.106553"><ele>109.8</ele><time>2021-10-10T16:29:44Z</time></trkpt>
<trkpt lat="36.990536" lon="-122.106484"><ele>110.1</ele><time>2021-10-10T16:29:47Z</time></trkpt>
<trkpt lat="36.990629" lon="-122.106377"><ele>110.2</ele><time>2021-10-10T16:29:50Z</time></trkpt>
<trkpt lat="36.990625" lon="-122.106264"><ele>110.3</ele><time>2021-10-10T16:29:51Z</time></trkpt>
<trkpt lat="36.990682" lon="-122.106222"><ele>110.5</ele><time>2021-10-10T16:29:52Z</time></trkpt>
<trkpt lat="36.990721" lon="-122.106135"><ele>110.7</ele><time>2021-10-10T16:29:54Z</time></trkpt>
<trkpt lat="36.990740" lon="-122.106046"><ele>111.1</ele><time>2021-10-10T16:29:56Z</time></trkpt>
<trkpt lat="36.990721" lon="-122.106007"><ele>111.3</ele><time>2021-10-10T16:29:57Z</time></trkpt>
<trkpt lat="36.990773" lon="-122.105874"><ele>112.4</ele><time>2021-10-10T16:30:02Z</time></trkpt>
<trkpt lat="36.990827" lon="-122.105883"><ele>113.0</ele><time>2021-10-10T16:30:05Z</time></trkpt>
<trkpt lat="36.990643" lon="-122.105940"><ele>115.1</ele><time>2021-10-10T16:30:11Z</time></trkpt>
<trkpt lat="36.990574" lon="-122.106089"><ele>116.5</ele><time>2021-10-10T16:30:14Z</time></trkpt>
<trkpt lat="36.990607" lon="-122.106229"><ele>117.4</ele><time>2021-10-10T16:30:17Z</time></trkpt>
<trkpt lat="36.990569" lon="-122.106262"><ele>117.8</ele><time>2021-10-10T16:30:18Z</time></trkpt>
<trkpt lat="36.990463" lon="-122.106306"><ele>118.5</ele><time>2021-10-10T16:30:22Z</time></trkpt>
<trkpt lat="36.990360" lon="-122.106240"><ele>119.2</ele><time>2021-10-10T16:30:26Z</time></trkpt>
<trkpt lat="36.990376" lon="-122.106200"><ele>119.4</ele><time>2021-10-10T16:30:28Z</time></trkpt>
<trkpt lat="36.990342" lon="-122.106078"><ele>119.9</ele><time>2021-10-10T16:30:31Z</time></trkpt>
<trkpt lat="36.990363" lon="-122.106031"><ele>120.1</ele><time>2021-10-10T16:30:33Z</time></trkpt>
<trkpt lat="36.990309" lon="-122.105987"><ele>120.4</ele><time>2021-10-10T16:30:36Z</time></trkpt>
<trkpt lat="36.990331" lon="-122.105838"><ele>120.9</ele><time>2021-10-10T16:30:41Z</time></trkpt>
<trkpt lat="36.990443" lon="-122.105837"><ele>121.3</ele><time>2021-10-10T16:30:47Z</time></trkpt>
<trkpt lat="36.990442" lon="-122.105701"><ele>121.7</ele><time>2021-10-10T16:30:49Z</time></trkpt>
<trkpt lat="36.990512" lon="-122.105633"><ele>122.1</ele><time>2021-10-10T16:30:51Z</time></trkpt>
<trkpt lat="36.990634" lon="-122.105418"><ele>123.1</ele><time>2021-10-10T16:30:54Z</time></trkpt>
<trkpt lat="36.990596" lon="-122.105264"><ele>123.9</ele><time>2021-10-10T16:30:59Z</time></trkpt>
<trkpt lat="36.990615" lon="-122.105213"><ele>124.2</ele><time>2021-10-10T16:31:00Z</time></trkpt>
<trkpt lat="36.990794" lon="-122.104997"><ele>126.3</ele><time>2021-10-10T16:31:07Z</time></trkpt>
<trkpt lat="36.990784" lon="-122.104916"><ele>126.8</ele><time>2021-10-10T16:31:09Z</time></trkpt>
<trkpt lat="36.990701" lon="-122.104812"><ele>127.8</ele><time>2021-10-10T16:31:15Z</time></trkpt>
<trkpt lat="36.990728" lon="-122.104590"><ele>128.9</ele><time>2021-10-10T16:31:23Z</time></trkpt>
<trkpt lat="36.990700" lon="-122.104326"><ele>129.6</ele><time>2021-10-10T16:31:33Z</time></trkpt>
<trkpt lat="36.990730" lon="-122.104379"><ele>129.8</ele><time>2021-10-10T16:31:37Z</time></trkpt>
<trkpt lat="36.990702" lon="-122.104426"><ele>129.9</ele><time>2021-10-10T16:31:40Z</time></trkpt>
<trkpt lat="36.990932" lon="-122.104374"><ele>130.5</ele><time>2021-10-10T16:31:50Z</time></trkpt>
<trkpt lat="36.990976" lon="-122.104404"><ele>130.7</ele><time>2021-10-10T16:31:51Z</time></trkpt>
<trkpt lat="36.991055" lon="-122.104505"><ele>131.0</ele><time>2021-10-10T16:31:54Z</time></trkpt>
<trkpt lat="36.991059" lon="-122.104633"><ele>131.2</ele><time>2021-10-10T16:31:56Z</time></trkpt>
<trkpt lat="36.991124" lon="-122.104658"><ele>131.4</ele><time>2021-10-10T16:32:00Z</time></trkpt>
<trkpt lat="36.991331" lon="-122.104588"><ele>132.3</ele><time>2021-10-10T16:32:08Z</time></trkpt>
<trkpt lat="36.991463" lon="-122.104404"><ele>133.4</ele><time>2021-10-10T16:32:15Z</time></trkpt>
<trkpt lat="36.991625" lon="-122.104402"><ele>134.4</ele><time>2021-10-10T16:32:20Z</time></trkpt>
<trkpt lat="36.991761" lon="-122.104340"><ele>135.2</ele><time>2021-10-10T16:32:23Z</time></trkpt>
<trkpt lat="36.991880" lon="-122.104347"><ele>135.9</ele><time>2021-10-10T16:32:28Z</time></trkpt>
<trkpt lat="36.992083" lon="-122.104520"><ele>137.5</ele><time>2021-10-10T16:32:39Z</time></trkpt>
<trkpt lat="36.992101" lon="-122.104575"><ele>137.8</ele><time>2021-10-10T16:32:41Z</time></trkpt>
<trkpt lat="36.992180" lon="-122.104571"><ele>138.5</ele><time>2021-10-10T16:32:45Z</time></trkpt>
<trkpt lat="36.992188" lon="-122.104611"><ele>138.8</ele><time>2021-10-10T16:32:46Z</time></trkpt>
<trkpt lat="36.992312" lon="-122.104564"><ele>140.0</ele><time>2021-10-10T16:32:52Z</time></trkpt>
<trkpt lat="36.992382" lon="-122.104442"><ele>141.1</ele><time>2021-10-10T16:32:57Z</time></trkpt>
<trkpt lat="36.992309" lon="-122.104149"><ele>142.6</ele><time>2021-10-10T16:33:12Z</time></trkpt>
<trkpt lat="36.992211" lon="-122.104161"><ele>143.5</ele><time>2021-10-10T16:33:20Z</time></trkpt>
<trkpt lat="36.992104" lon="-122.104005"><ele>144.6</ele><time>2021-10-10T16:33:26Z</time></trkpt>
<trkpt lat="36.991994" lon="-122.103926"><ele>145.6</ele><time>2021-10-10T16:33:32Z</time></trkpt>
<trkpt lat="36.991851" lon="-122.103934"><ele>146.6</ele><time>2021-10-10T16:33:41Z</time></trkpt>
<trkpt lat="36.991511" lon="-122.103767"><ele>148.6</ele><time>2021-10-10T16:34:01Z</time></trkpt>
<trkpt lat="36.991364" lon="-122.103575"><ele>149.4</ele><time>2021-10-10T16:34:11Z</time></trkpt>
<trkpt lat="36.991317" lon="-122.103398"><ele>149.8</ele><time>2021-10-10T16:34:17Z</time></trkpt>
<trkpt lat="36.991204" lon="-122.103433"><ele>150.3</ele><time>2021-10-10T16:34:23Z</time></trkpt>
<trkpt lat="36.991021" lon="-122.103369"><ele>151.6</ele><time>2021-10-10T16:34:32Z</time></trkpt>
<trkpt lat="36.990943" lon="-122.103296"><ele>152.3</ele><time>2021-10-10T16:34:37Z</time></trkpt>
<trkpt lat="36.990837" lon="-122.102928"><ele>154.3</ele><time>2021-10-10T16:34:55Z</time></trkpt>
<trkpt lat="36.990841" lon="-122.102449"><ele>156.5</ele><time>2021-10-10T16:35:13Z</time></trkpt>
<trkpt lat="36.990760" lon="-122.102096"><ele>158.4</ele><time>2021-10-10T16:35:28Z</time></trkpt>
<trkpt lat="36.990618" lon="-122.101664"><ele>160.9</ele><time>2021-10-10T16:35:46Z</time></trkpt>
<trkpt lat="36.990324" lon="-122.101405"><ele>162.0</ele><time>2021-10-10T16:35:58Z</time></trkpt>
<trkpt lat="36.990222" lon="-122.101187"><ele>163.2</ele><time>2021-10-10T16:36:06Z</time></trkpt>
<trkpt lat="36.990057" lon="-122.100969"><ele>165.0</ele><time>2021-10-10T16:36:18Z</time></trkpt>
<trkpt lat="36.989934" lon="-122.100689"><ele>166.6</ele><time>2021-10-10T16:36:27Z</time></trkpt>
<trkpt lat="36.989719" lon="-122.100530"><ele>167.3</ele><time>2021-10-10T16:36:37Z</time></trkpt>
<trkpt lat="36.989661" lon="-122.100430"><ele>167.5</ele><time>2021-10-10T16:36:40Z</time></trkpt>
<trkpt lat="36.989489" lon="-122.100359"><ele>168.2</ele><time>2021-10-10T16:36:49Z</time></trkpt>
<trkpt lat="36.989447" lon="-122.100372"><ele>169.1</ele><time>2021-10-10T16:36:52Z</time></trkpt>
<trkpt lat="36.989461" lon="-122.100327"><ele>169.3</ele><time>2021-10-10T16:36:56Z</time></trkpt>
<trkpt lat="36.989399" lon="-122.100371"><ele>169.6</ele><time>2021-10-10T16:37:32Z</time></trkpt>
<trkpt lat="36.989199" lon="-122.100304"><ele>170.9</ele><time>2021-10-10T16:37:43Z</time></trkpt>
<trkpt lat="36.989136" lon="-122.100318"><ele>171.3</ele><time>2021-10-10T16:37:45Z</time></trkpt>
<trkpt lat="36.989149" lon="-122.100302"><ele>171.4</ele><time>2021-10-10T16:37:46Z</time></trkpt>
<trkpt lat="36.989099" lon="-122.100284"><ele>171.8</ele><time>2021-10-10T16:37:49Z</time></trkpt>
<trkpt lat="36.988959" lon="-122.100284"><ele>172.9</ele><time>2021-10-10T16:37:58Z</time></trkpt>
<trkpt lat="36.988825" lon="-122.100347"><ele>175.1</ele><time>2021-10-10T16:38:08Z</time></trkpt>
<trkpt lat="36.988722" lon="-122.100555"><ele>177.8</ele><time>2021-10-10T16:38:20Z</time></trkpt>
<trkpt lat="36.988600" lon="-122.100663"><ele>179.4</ele><time>2021-10-10T16:38:26Z</time></trkpt>
<trkpt lat="36.988464" lon="-122.100707"><ele>180.6</ele><time>2021-10-10T16:38:34Z</time></trkpt>
<trkpt lat="36.988315" lon="-122.100675"><ele>181.6</ele><time>2021-10-10T16:38:41Z</time></trkpt>
<trkpt lat="36.988237" lon="-122.100736"><ele>182.2</ele><time>2021-10-10T16:38:45Z</time></trkpt>
<trkpt lat="36.988066" lon="-122.100769"><ele>183.4</ele><time>2021-10-10T16:38:54Z</time></trkpt>
<trkpt lat="36.987983" lon="-122.100818"><ele>183.7</ele><time>2021-10-10T16:39:01Z</time></trkpt>
<trkpt lat="36.987922" lon="-122.100922"><ele>183.7</ele><time>2021-10-10T16:39:10Z</time></trkpt>
<trkpt lat="36.988010" lon="-122.100702"><ele>183.4</ele><time>2021-10-10T16:39:17Z</time></trkpt>
<trkpt lat="36.988020" lon="-122.100476"><ele>184.3</ele><time>2021-10-10T16:39:20Z</time></trkpt>
<trkpt lat="36.988150" lon="-122.100268"><ele>185.8</ele><time>2021-10-10T16:39:28Z</time></trkpt>
<trkpt lat="36.988194" lon="-122.100107"><ele>186.9</ele><time>2021-10-10T16:39:36Z</time></trkpt>
<trkpt lat="36.988080" lon="-122.099539"><ele>188.3</ele><time>2021-10-10T16:39:56Z</time></trkpt>
<trkpt lat="36.988061" lon="-122.099008"><ele>188.6</ele><time>2021-10-10T16:40:35Z</time></trkpt>
<trkpt lat="36.988029" lon="-122.098881"><ele>188.4</ele><time>2021-10-10T16:40:38Z</time></trkpt>
<trkpt lat="36.987929" lon="-122.098768"><ele>188.3</ele><time>2021-10-10T16:40:41Z</time></trkpt>
<trkpt lat="36.987830" lon="-122.098727"><ele>188.2</ele><time>2021-10-10T16:40:43Z</time></trkpt>
<trkpt lat="36.987545" lon="-122.098390"><ele>188.2</ele><time>2021-10-10T16:40:52Z</time></trkpt>
<trkpt lat="36.987424" lon="-122.098186"><ele>187.8</ele><time>2021-10-10T16:40:56Z</time></trkpt>
<trkpt lat="36.987142" lon="-122.098107"><ele>186.9</ele><time>2021-10-10T16:41:01Z</time></trkpt>
<trkpt lat="36.986989" lon="-122.097999"><ele>186.5</ele><time>2021-10-10T16:41:04Z</time></trkpt>
<trkpt lat="36.986988" lon="-122.097941"><ele>186.4</ele><time>2021-10-10T16:41:05Z</time></trkpt>
<trkpt lat="36.987050" lon="-122.097878"><ele>186.0</ele><time>2021-10-10T16:41:07Z</time></trkpt>
<trkpt lat="36.987213" lon="-122.097866"><ele>185.0</ele><time>2021-10-10T16:41:10Z</time></trkpt>
<trkpt lat="36.987488" lon="-122.097684"><ele>183.7</ele><time>2021-10-10T16:41:15Z</time></trkpt>
<trkpt lat="36.987611" lon="-122.097690"><ele>183.5</ele><time>2021-10-10T16:41:17Z</time></trkpt>
<trkpt lat="36.987661" lon="-122.097659"><ele>183.4</ele><time>2021-10-10T16:41:18Z</time></trkpt>
<trkpt lat="36.987691" lon="-122.097592"><ele>183.3</ele><time>2021-10-10T16:41:19Z</time></trkpt>
<trkpt lat="36.987672" lon="-122.097438"><ele>183.0</ele><time>2021-10-10T16:41:21Z</time></trkpt>
<trkpt lat="36.987714" lon="-122.097299"><ele>182.7</ele><time>2021-10-10T16:41:23Z</time></trkpt>
<trkpt lat="36.987818" lon="-122.097231"><ele>182.4</ele><time>2021-10-10T16:41:25Z</time></trkpt>
<trkpt lat="36.987878" lon="-122.097245"><ele>182.2</ele><time>2021-10-10T16:41:26Z</time></trkpt>
<trkpt lat="36.987926" lon="-122.097166"><ele>181.9</ele><time>2021-10-10T16:41:28Z</time></trkpt>
<trkpt lat="36.987905" lon="-122.097103"><ele>181.7</ele><time>2021-10-10T16:41:29Z</time></trkpt>
<trkpt lat="36.987818" lon="-122.097047"><ele>181.1</ele><time>2021-10-10T16:41:31Z</time></trkpt>
<trkpt lat="36.987783" lon="-122.096724"><ele>179.4</ele><time>2021-10-10T16:41:36Z</time></trkpt>
<trkpt lat="36.987689" lon="-122.096582"><ele>178.6</ele><time>2021-10-10T16:41:39Z</time></trkpt>
<trkpt lat="36.987689" lon="-122.096444"><ele>178.0</ele><time>2021-10-10T16:41:41Z</time></trkpt>
<trkpt lat="36.987562" lon="-122.096368"><ele>177.1</ele><time>2021-10-10T16:41:44Z</time></trkpt>
<trkpt lat="36.987296" lon="-122.096058"><ele>174.8</ele><time>2021-10-10T16:41:50Z</time></trkpt>
<trkpt lat="36.987273" lon="-122.095843"><ele>173.8</ele><time>2021-10-10T16:41:53Z</time></trkpt>
<trkpt lat="36.987241" lon="-122.095776"><ele>173.3</ele><time>2021-10-10T16:41:54Z</time></trkpt>
<trkpt lat="36.987250" lon="-122.095600"><ele>172.3</ele><time>2021-10-10T16:41:56Z</time></trkpt>
<trkpt lat="36.987053" lon="-122.095198"><ele>169.4</ele><time>2021-10-10T16:42:02Z</time></trkpt>
<trkpt lat="36.987002" lon="-122.094727"><ele>166.5</ele><time>2021-10-10T16:42:08Z</time></trkpt>
<trkpt lat="36.986814" lon="-122.094561"><ele>164.4</ele><time>2021-10-10T16:42:11Z</time></trkpt>
<trkpt lat="36.986591" lon="-122.094649"><ele>162.5</ele><time>2021-10-10T16:42:13Z</time></trkpt>
<trkpt lat="36.986344" lon="-122.094677"><ele>160.8</ele><time>2021-10-10T16:42:20Z</time></trkpt>
<trkpt lat="36.986333" lon="-122.094723"><ele>160.2</ele><time>2021-10-10T16:42:29Z</time></trkpt>
<trkpt lat="36.986209" lon="-122.094686"><ele>159.7</ele><time>2021-10-10T16:42:48Z</time></trkpt>
<trkpt lat="36.986158" lon="-122.094594"><ele>159.8</ele><time>2021-10-10T16:42:51Z</time></trkpt>
<trkpt lat="36.986069" lon="-122.094537"><ele>160.1</ele><time>2021-10-10T16:42:54Z</time></trkpt>
<trkpt lat="36.985775" lon="-122.094494"><ele>161.4</ele><time>2021-10-10T16:43:04Z</time></trkpt>
<trkpt lat="36.985365" lon="-122.094488"><ele>162.6</ele><time>2021-10-10T16:43:17Z</time></trkpt>
<trkpt lat="36.985318" lon="-122.094398"><ele>162.7</ele><time>2021-10-10T16:43:20Z</time></trkpt>
<trkpt lat="36.985325" lon="-122.094288"><ele>162.6</ele><time>2021-10-10T16:43:22Z</time></trkpt>
<trkpt lat="36.985235" lon="-122.094112"><ele>162.4</ele><time>2021-10-10T16:43:26Z</time></trkpt>
<trkpt lat="36.985013" lon="-122.093893"><ele>161.9</ele><time>2021-10-10T16:43:32Z</time></trkpt>
<trkpt lat="36.984903" lon="-122.093705"><ele>161.3</ele><time>2021-10-10T16:43:35Z</time></trkpt>
<trkpt lat="36.984652" lon="-122.093392"><ele>160.1</ele><time>2021-10-10T16:43:41Z</time></trkpt>
<trkpt lat="36.984474" lon="-122.093071"><ele>159.3</ele><time>2021-10-10T16:43:47Z</time></trkpt>
<trkpt lat="36.984205" lon="-122.092287"><ele>156.2</ele><time>2021-10-10T16:43:59Z</time></trkpt>
<trkpt lat="36.984111" lon="-122.091494"><ele>152.7</ele><time>2021-10-10T16:44:07Z</time></trkpt>
<trkpt lat="36.984082" lon="-122.091423"><ele>152.6</ele><time>2021-10-10T16:44:08Z</time></trkpt>
<trkpt lat="36.984010" lon="-122.091406"><ele>152.5</ele><time>2021-10-10T16:44:09Z</time></trkpt>
<trkpt lat="36.983886" lon="-122.091271"><ele>152.4</ele><time>2021-10-10T16:44:12Z</time></trkpt>
<trkpt lat="36.983612" lon="-122.091072"><ele>152.3</ele><time>2021-10-10T16:44:18Z</time></trkpt>
<trkpt lat="36.983386" lon="-122.091025"><ele>151.8</ele><time>2021-10-10T16:44:22Z</time></trkpt>
<trkpt lat="36.983209" lon="-122.090900"><ele>150.8</ele><time>2021-10-10T16:44:25Z</time></trkpt>
<trkpt lat="36.983095" lon="-122.090878"><ele>150.2</ele><time>2021-10-10T16:44:27Z</time></trkpt>
<trkpt lat="36.982962" lon="-122.090955"><ele>149.4</ele><time>2021-10-10T16:44:29Z</time></trkpt>
<trkpt lat="36.982825" lon="-122.090969"><ele>148.5</ele><time>2021-10-10T16:44:31Z</time></trkpt>
<trkpt lat="36.982673" lon="-122.090965"><ele>147.4</ele><time>2021-10-10T16:44:33Z</time></trkpt>
<trkpt lat="36.982547" lon="-122.090905"><ele>146.5</ele><time>2021-10-10T16:44:35Z</time></trkpt>
<trkpt lat="36.982388" lon="-122.091060"><ele>145.5</ele><time>2021-10-10T16:44:38Z</time></trkpt>
<trkpt lat="36.982180" lon="-122.091172"><ele>143.9</ele><time>2021-10-10T16:44:41Z</time></trkpt>
<trkpt lat="36.981965" lon="-122.091230"><ele>142.4</ele><time>2021-10-10T16:44:44Z</time></trkpt>
<trkpt lat="36.981061" lon="-122.091188"><ele>136.6</ele><time>2021-10-10T16:44:56Z</time></trkpt>
<trkpt lat="36.980411" lon="-122.090698"><ele>132.0</ele><time>2021-10-10T16:45:05Z</time></trkpt>
<trkpt lat="36.980193" lon="-122.090442"><ele>130.3</ele><time>2021-10-10T16:45:09Z</time></trkpt>
<trkpt lat="36.980061" lon="-122.090121"><ele>128.6</ele><time>2021-10-10T16:45:14Z</time></trkpt>
<trkpt lat="36.979909" lon="-122.089899"><ele>126.8</ele><time>2021-10-10T16:45:17Z</time></trkpt>
<trkpt lat="36.979827" lon="-122.089836"><ele>125.8</ele><time>2021-10-10T16:45:18Z</time></trkpt>
<trkpt lat="36.979676" lon="-122.089565"><ele>123.1</ele><time>2021-10-10T16:45:22Z</time></trkpt>
<trkpt lat="36.979577" lon="-122.089479"><ele>122.5</ele><time>2021-10-10T16:45:30Z</time></trkpt>
<trkpt lat="36.979554" lon="-122.089354"><ele>122.7</ele><time>2021-10-10T16:45:34Z</time></trkpt>
<trkpt lat="36.979595" lon="-122.089307"><ele>122.9</ele><time>2021-10-10T16:45:36Z</time></trkpt>
<trkpt lat="36.979619" lon="-122.089097"><ele>124.1</ele><time>2021-10-10T16:45:43Z</time></trkpt>
<trkpt lat="36.979516" lon="-122.088955"><ele>125.3</ele><time>2021-10-10T16:45:53Z</time></trkpt>
<trkpt lat="36.979531" lon="-122.088931"><ele>125.5</ele><time>2021-10-10T16:45:55Z</time></trkpt>
<trkpt lat="36.979400" lon="-122.088558"><ele>127.7</ele><time>2021-10-10T16:46:10Z</time></trkpt>
<trkpt lat="36.979358" lon="-122.088302"><ele>130.0</ele><time>2021-10-10T16:46:17Z</time></trkpt>
<trkpt lat="36.979463" lon="-122.088084"><ele>131.6</ele><time>2021-10-10T16:46:25Z</time></trkpt>
<trkpt lat="36.979453" lon="-122.087852"><ele>132.4</ele><time>2021-10-10T16:46:34Z</time></trkpt>
<trkpt lat="36.979478" lon="-122.087794"><ele>132.5</ele><time>2021-10-10T16:46:38Z</time></trkpt>
<trkpt lat="36.979476" lon="-122.087817"><ele>132.6</ele><time>2021-10-10T16:46:43Z</time></trkpt>
<trkpt lat="36.979449" lon="-122.087787"><ele>132.8</ele><time>2021-10-10T16:46:58Z</time></trkpt>
<trkpt lat="36.979464" lon="-122.087898"><ele>133.1</ele><time>2021-10-10T16:47:14Z</time></trkpt>
<trkpt lat="36.979309" lon="-122.088118"><ele>135.1</ele><time>2021-10-10T16:47:25Z</time></trkpt>
<trkpt lat="36.979072" lon="-122.088368"><ele>140.1</ele><time>2021-10-10T16:47:43Z</time></trkpt>
<trkpt lat="36.978878" lon="-122.088502"><ele>144.9</ele><time>2021-10-10T16:47:58Z</time></trkpt>
<trkpt lat="36.978821" lon="-122.088632"><ele>147.4</ele><time>2021-10-10T16:48:09Z</time></trkpt>
<trkpt lat="36.978855" lon="-122.088738"><ele>149.5</ele><time>2021-10-10T16:48:16Z</time></trkpt>
<trkpt lat="36.978802" lon="-122.088933"><ele>152.4</ele><time>2021-10-10T16:48:25Z</time></trkpt>
<trkpt lat="36.978650" lon="-122.089157"><ele>155.2</ele><time>2021-10-10T16:48:42Z</time></trkpt>
<trkpt lat="36.978616" lon="-122.089301"><ele>155.7</ele><time>2021-10-10T16:48:49Z</time></trkpt>
<trkpt lat="36.978517" lon="-122.089452"><ele>155.8</ele><time>2021-10-10T16:48:54Z</time></trkpt>
<trkpt lat="36.978369" lon="-122.089826"><ele>155.9</ele><time>2021-10-10T16:49:05Z</time></trkpt>
<trkpt lat="36.978239" lon="-122.090015"><ele>156.1</ele><time>2021-10-10T16:49:10Z</time></trkpt>
<trkpt lat="36.978069" lon="-122.090112"><ele>156.8</ele><time>2021-10-10T16:49:15Z</time></trkpt>
<trkpt lat="36.977965" lon="-122.090123"><ele>157.6</ele><time>2021-10-10T16:49:20Z</time></trkpt>
<trkpt lat="36.977679" lon="-122.090043"><ele>158.7</ele><time>2021-10-10T16:49:35Z</time></trkpt>
<trkpt lat="36.977532" lon="-122.090048"><ele>158.8</ele><time>2021-10-10T16:55:24Z</time></trkpt>
<trkpt lat="36.977730" lon="-122.090054"><ele>158.9</ele><time>2021-10-10T16:55:41Z</time></trkpt>
<trkpt lat="36.977850" lon="-122.090179"><ele>158.5</ele><time>2021-10-10T16:55:45Z</time></trkpt>
<trkpt lat="36.977936" lon="-122.090919"><ele>158.7</ele><time>2021-10-10T16:55:57Z</time></trkpt>
<trkpt lat="36.978250" lon="-122.091974"><ele>157.0</ele><time>2021-10-10T16:56:13Z</time></trkpt>
<trkpt lat="36.978396" lon="-122.092351"><ele>156.5</ele><time>2021-10-10T16:56:18Z</time></trkpt>
<trkpt lat="36.978575" lon="-122.092596"><ele>155.9</ele><time>2021-10-10T16:56:22Z</time></trkpt>
<trkpt lat="36.978765" lon="-122.093035"><ele>155.1</ele><time>2021-10-10T16:56:29Z</time></trkpt>
<trkpt lat="36.978934" lon="-122.093328"><ele>155.1</ele><time>2021-10-10T16:56:34Z</time></trkpt>
<trkpt lat="36.979035" lon="-122.093707"><ele>155.8</ele><time>2021-10-10T16:56:41Z</time></trkpt>
<trkpt lat="36.979537" lon="-122.094530"><ele>155.5</ele><time>2021-10-10T16:57:22Z</time></trkpt>
<trkpt lat="36.979784" lon="-122.094756"><ele>157.6</ele><time>2021-10-10T16:57:35Z</time></trkpt>
<trkpt lat="36.979961" lon="-122.095103"><ele>159.2</ele><time>2021-10-10T16:57:50Z</time></trkpt>
<trkpt lat="36.980028" lon="-122.095300"><ele>159.1</ele><time>2021-10-10T16:57:55Z</time></trkpt>
<trkpt lat="36.980294" lon="-122.095802"><ele>159.1</ele><time>2021-10-10T16:58:05Z</time></trkpt>
<trkpt lat="36.980947" lon="-122.096546"><ele>160.7</ele><time>2021-10-10T16:58:25Z</time></trkpt>
<trkpt lat="36.981019" lon="-122.096570"><ele>161.1</ele><time>2021-10-10T16:58:28Z</time></trkpt>
<trkpt lat="36.981381" lon="-122.096878"><ele>163.6</ele><time>2021-10-10T16:58:47Z</time></trkpt>
<trkpt lat="36.981230" lon="-122.097214"><ele>163.6</ele><time>2021-10-10T17:00:49Z</time></trkpt>
<trkpt lat="36.981031" lon="-122.097404"><ele>162.6</ele><time>2021-10-10T17:00:57Z</time></trkpt>
<trkpt lat="36.980527" lon="-122.097336"><ele>161.5</ele><time>2021-10-10T17:01:06Z</time></trkpt>
<trkpt lat="36.980523" lon="-122.097479"><ele>161.4</ele><time>2021-10-10T17:01:09Z</time></trkpt>
<trkpt lat="36.980376" lon="-122.097715"><ele>161.1</ele><time>2021-10-10T17:01:13Z</time></trkpt>
<trkpt lat="36.980189" lon="-122.098275"><ele>161.3</ele><time>2021-10-10T17:01:23Z</time></trkpt>
<trkpt lat="36.979889" lon="-122.098642"><ele>160.6</ele><time>2021-10-10T17:01:31Z</time></trkpt>
<trkpt lat="36.979544" lon="-122.098944"><ele>159.7</ele><time>2021-10-10T17:01:37Z</time></trkpt>
<trkpt lat="36.979461" lon="-122.098964"><ele>159.4</ele><time>2021-10-10T17:01:38Z</time></trkpt>
<trkpt lat="36.979148" lon="-122.098926"><ele>157.9</ele><time>2021-10-10T17:01:43Z</time></trkpt>
<trkpt lat="36.978888" lon="-122.098840"><ele>156.8</ele><time>2021-10-10T17:01:47Z</time></trkpt>
<trkpt lat="36.978712" lon="-122.098898"><ele>156.2</ele><time>2021-10-10T17:01:52Z</time></trkpt>
<trkpt lat="36.978633" lon="-122.099331"><ele>154.0</ele><time>2021-10-10T17:02:02Z</time></trkpt>
<trkpt lat="36.978718" lon="-122.099692"><ele>151.2</ele><time>2021-10-10T17:02:09Z</time></trkpt>
<trkpt lat="36.978693" lon="-122.099901"><ele>149.5</ele><time>2021-10-10T17:02:12Z</time></trkpt>
<trkpt lat="36.978579" lon="-122.100182"><ele>146.4</ele><time>2021-10-10T17:02:19Z</time></trkpt>
<trkpt lat="36.978460" lon="-122.100842"><ele>139.8</ele><time>2021-10-10T17:02:28Z</time></trkpt>
<trkpt lat="36.978383" lon="-122.100962"><ele>138.7</ele><time>2021-10-10T17:02:30Z</time></trkpt>
<trkpt lat="36.978257" lon="-122.101075"><ele>137.2</ele><time>2021-10-10T17:02:32Z</time></trkpt>
<trkpt lat="36.978201" lon="-122.101195"><ele>136.0</ele><time>2021-10-10T17:02:34Z</time></trkpt>
<trkpt lat="36.978132" lon="-122.101208"><ele>135.1</ele><time>2021-10-10T17:02:37Z</time></trkpt>
<trkpt lat="36.978029" lon="-122.101136"><ele>133.5</ele><time>2021-10-10T17:02:40Z</time></trkpt>
<trkpt lat="36.977864" lon="-122.101114"><ele>131.5</ele><time>2021-10-10T17:02:43Z</time></trkpt>
<trkpt lat="36.977371" lon="-122.101179"><ele>127.4</ele><time>2021-10-10T17:02:51Z</time></trkpt>
<trkpt lat="36.977035" lon="-122.101245"><ele>125.5</ele><time>2021-10-10T17:02:56Z</time></trkpt>
<trkpt lat="36.976541" lon="-122.101489"><ele>121.5</ele><time>2021-10-10T17:03:05Z</time></trkpt>
<trkpt lat="36.976300" lon="-122.101498"><ele>119.3</ele><time>2021-10-10T17:03:10Z</time></trkpt>
<trkpt lat="36.976242" lon="-122.101485"><ele>118.6</ele><time>2021-10-10T17:03:11Z</time></trkpt>
<trkpt lat="36.976144" lon="-122.101394"><ele>117.3</ele><time>2021-10-10T17:03:14Z</time></trkpt>
<trkpt lat="36.976120" lon="-122.101302"><ele>116.6</ele><time>2021-10-10T17:03:16Z</time></trkpt>
<trkpt lat="36.976283" lon="-122.100601"><ele>109.9</ele><time>2021-10-10T17:03:28Z</time></trkpt>
<trkpt lat="36.976294" lon="-122.100480"><ele>108.8</ele><time>2021-10-10T17:03:30Z</time></trkpt>
<trkpt lat="36.976234" lon="-122.100320"><ele>106.9</ele><time>2021-10-10T17:03:34Z</time></trkpt>
<trkpt lat="36.976038" lon="-122.100167"><ele>102.9</ele><time>2021-10-10T17:03:38Z</time></trkpt>
<trkpt lat="36.975979" lon="-122.100019"><ele>100.6</ele><time>2021-10-10T17:03:40Z</time></trkpt>
<trkpt lat="36.975737" lon="-122.099775"><ele>95.6</ele><time>2021-10-10T17:03:46Z</time></trkpt>
<trkpt lat="36.975452" lon="-122.099619"><ele>91.0</ele><time>2021-10-10T17:03:51Z</time></trkpt>
<trkpt lat="36.975203" lon="-122.099343"><ele>86.9</ele><time>2021-10-10T17:03:56Z</time></trkpt>
<trkpt lat="36.974966" lon="-122.099320"><ele>84.7</ele><time>2021-10-10T17:04:01Z</time></trkpt>
<trkpt lat="36.974758" lon="-122.099445"><ele>82.5</ele><time>2021-10-10T17:04:06Z</time></trkpt>
<trkpt lat="36.974751" lon="-122.099393"><ele>82.1</ele><time>2021-10-10T17:04:09Z</time></trkpt>
<trkpt lat="36.974852" lon="-122.099191"><ele>80.5</ele><time>2021-10-10T17:04:14Z</time></trkpt>
<trkpt lat="36.975083" lon="-122.098989"><ele>76.8</ele><time>2021-10-10T17:04:20Z</time></trkpt>
<trkpt lat="36.975058" lon="-122.098914"><ele>75.8</ele><time>2021-10-10T17:04:23Z</time></trkpt>
<trkpt lat="36.974915" lon="-122.098985"><ele>74.2</ele><time>2021-10-10T17:04:27Z</time></trkpt>
<trkpt lat="36.974662" lon="-122.098923"><ele>73.6</ele><time>2021-10-10T17:04:43Z</time></trkpt>
<trkpt lat="36.974489" lon="-122.098956"><ele>74.5</ele><time>2021-10-10T17:04:51Z</time></trkpt>
<trkpt lat="36.974294" lon="-122.098898"><ele>74.9</ele><time>2021-10-10T17:04:56Z</time></trkpt>
<trkpt lat="36.974236" lon="-122.098917"><ele>75.0</ele><time>2021-10-10T17:04:59Z</time></trkpt>
<trkpt lat="36.974256" lon="-122.098909"><ele>75.0</ele><time>2021-10-10T17:05:01Z</time></trkpt>
<trkpt lat="36.974254" lon="-122.098950"><ele>75.0</ele><time>2021-10-10T17:05:03Z</time></trkpt>
<trkpt lat="36.974113" lon="-122.098840"><ele>74.7</ele><time>2021-10-10T17:05:43Z</time></trkpt>
<trkpt lat="36.974046" lon="-122.098637"><ele>73.8</ele><time>2021-10-10T17:05:46Z</time></trkpt>
<trkpt lat="36.973999" lon="-122.098297"><ele>72.6</ele><time>2021-10-10T17:05:51Z</time></trkpt>
<trkpt lat="36.973791" lon="-122.098165"><ele>70.9</ele><time>2021-10-10T17:05:56Z</time></trkpt>
<trkpt lat="36.973684" lon="-122.097857"><ele>68.9</ele><time>2021-10-10T17:06:02Z</time></trkpt>
<trkpt lat="36.973640" lon="-122.097836"><ele>68.7</ele><time>2021-10-10T17:06:11Z</time></trkpt>
<trkpt lat="36.973463" lon="-122.097538"><ele>68.6</ele><time>2021-10-10T17:06:28Z</time></trkpt>
<trkpt lat="36.973381" lon="-122.097355"><ele>68.5</ele><time>2021-10-10T17:06:32Z</time></trkpt>
<trkpt lat="36.973324" lon="-122.097126"><ele>67.9</ele><time>2021-10-10T17:06:36Z</time></trkpt>
<trkpt lat="36.973205" lon="-122.097024"><ele>66.7</ele><time>2021-10-10T17:06:40Z</time></trkpt>
<trkpt lat="36.973168" lon="-122.096938"><ele>66.0</ele><time>2021-10-10T17:06:42Z</time></trkpt>
<trkpt lat="36.973020" lon="-122.096980"><ele>65.0</ele><time>2021-10-10T17:06:51Z</time></trkpt>
<trkpt lat="36.972966" lon="-122.096666"><ele>64.7</ele><time>2021-10-10T17:06:59Z</time></trkpt>
<trkpt lat="36.972987" lon="-122.096516"><ele>64.7</ele><time>2021-10-10T17:07:02Z</time></trkpt>
<trkpt lat="36.972906" lon="-122.096427"><ele>64.5</ele><time>2021-10-10T17:07:06Z</time></trkpt>
<trkpt lat="36.972811" lon="-122.096405"><ele>64.2</ele><time>2021-10-10T17:07:09Z</time></trkpt>
<trkpt lat="36.972757" lon="-122.096354"><ele>63.9</ele><time>2021-10-10T17:07:11Z</time></trkpt>
<trkpt lat="36.972589" lon="-122.096339"><ele>63.3</ele><time>2021-10-10T17:07:17Z</time></trkpt>
<trkpt lat="36.972282" lon="-122.096184"><ele>62.4</ele><time>2021-10-10T17:07:20Z</time></trkpt>
<trkpt lat="36.972128" lon="-122.096083"><ele>62.1</ele><time>2021-10-10T17:07:24Z</time></trkpt>
<trkpt lat="36.972072" lon="-122.096008"><ele>62.1</ele><time>2021-10-10T17:07:26Z</time></trkpt>
<trkpt lat="36.972093" lon="-122.095866"><ele>62.2</ele><time>2021-10-10T17:07:30Z</time></trkpt>
<trkpt lat="36.972152" lon="-122.095790"><ele>62.4</ele><time>2021-10-10T17:07:35Z</time></trkpt>
<trkpt lat="36.972161" lon="-122.095703"><ele>62.8</ele><time>2021-10-10T17:07:41Z</time></trkpt>
<trkpt lat="36.972202" lon="-122.095680"><ele>63.1</ele><time>2021-10-10T17:07:43Z</time></trkpt>
<trkpt lat="36.972221" lon="-122.095538"><ele>64.3</ele><time>2021-10-10T17:07:51Z</time></trkpt>
<trkpt lat="36.972247" lon="-122.095045"><ele>67.9</ele><time>2021-10-10T17:08:12Z</time></trkpt>
<trkpt lat="36.972185" lon="-122.094747"><ele>69.4</ele><time>2021-10-10T17:08:20Z</time></trkpt>
<trkpt lat="36.972237" lon="-122.094188"><ele>70.1</ele><time>2021-10-10T17:08:29Z</time></trkpt>
<trkpt lat="36.972277" lon="-122.094058"><ele>69.8</ele><time>2021-10-10T17:08:31Z</time></trkpt>
<trkpt lat="36.972263" lon="-122.094002"><ele>69.6</ele><time>2021-10-10T17:08:32Z</time></trkpt>
<trkpt lat="36.972210" lon="-122.093985"><ele>69.5</ele><time>2021-10-10T17:08:33Z</time></trkpt>
<trkpt lat="36.972196" lon="-122.093793"><ele>69.0</ele><time>2021-10-10T17:08:36Z</time></trkpt>
<trkpt lat="36.972308" lon="-122.093370"><ele>67.6</ele><time>2021-10-10T17:08:42Z</time></trkpt>
<trkpt lat="36.972252" lon="-122.093237"><ele>66.8</ele><time>2021-10-10T17:08:44Z</time></trkpt>
<trkpt lat="36.972283" lon="-122.093124"><ele>66.2</ele><time>2021-10-10T17:08:46Z</time></trkpt>
<trkpt lat="36.972233" lon="-122.092732"><ele>64.7</ele><time>2021-10-10T17:08:53Z</time></trkpt>
<trkpt lat="36.971941" lon="-122.092535"><ele>63.7</ele><time>2021-10-10T17:09:00Z</time></trkpt>
<trkpt lat="36.971916" lon="-122.092468"><ele>63.6</ele><time>2021-10-10T17:09:01Z</time></trkpt>
<trkpt lat="36.971950" lon="-122.092197"><ele>63.5</ele><time>2021-10-10T17:09:08Z</time></trkpt>
<trkpt lat="36.971978" lon="-122.092160"><ele>63.5</ele><time>2021-10-10T17:09:10Z</time></trkpt>
<trkpt lat="36.971971" lon="-122.092030"><ele>63.5</ele><time>2021-10-10T17:09:17Z</time></trkpt>
<trkpt lat="36.972005" lon="-122.091961"><ele>65.5</ele><time>2021-10-10T17:09:21Z</time></trkpt>
<trkpt lat="36.972401" lon="-122.092065"><ele>67.5</ele><time>2021-10-10T17:09:39Z</time></trkpt>
<trkpt lat="36.972541" lon="-122.092203"><ele>67.7</ele><time>2021-10-10T17:09:43Z</time></trkpt>
<trkpt lat="36.972823" lon="-122.092325"><ele>68.2</ele><time>2021-10-10T17:09:50Z</time></trkpt>
<trkpt lat="36.972985" lon="-122.092440"><ele>68.6</ele><time>2021-10-10T17:09:54Z</time></trkpt>
<trkpt lat="36.973167" lon="-122.092487"><ele>69.3</ele><time>2021-10-10T17:09:59Z</time></trkpt>
<trkpt lat="36.973345" lon="-122.092623"><ele>70.2</ele><time>2021-10-10T17:10:06Z</time></trkpt>
<trkpt lat="36.973402" lon="-122.092621"><ele>70.4</ele><time>2021-10-10T17:10:08Z</time></trkpt>
<trkpt lat="36.973434" lon="-122.092684"><ele>70.7</ele><time>2021-10-10T17:10:09Z</time></trkpt>
<trkpt lat="36.973536" lon="-122.092712"><ele>71.1</ele><time>2021-10-10T17:10:12Z</time></trkpt>
<trkpt lat="36.973784" lon="-122.092934"><ele>73.1</ele><time>2021-10-10T17:10:20Z</time></trkpt>
<trkpt lat="36.973896" lon="-122.093140"><ele>75.3</ele><time>2021-10-10T17:10:32Z</time></trkpt>
<trkpt lat="36.974106" lon="-122.093395"><ele>77.9</ele><time>2021-10-10T17:10:48Z</time></trkpt>
<trkpt lat="36.974595" lon="-122.093758"><ele>81.6</ele><time>2021-10-10T17:11:14Z</time></trkpt>
<trkpt lat="36.974669" lon="-122.093851"><ele>82.4</ele><time>2021-10-10T17:11:17Z</time></trkpt>
<trkpt lat="36.974775" lon="-122.093910"><ele>83.3</ele><time>2021-10-10T17:11:23Z</time></trkpt>
<trkpt lat="36.974844" lon="-122.093905"><ele>83.8</ele><time>2021-10-10T17:11:27Z</time></trkpt>
<trkpt lat="36.975019" lon="-122.094009"><ele>85.4</ele><time>2021-10-10T17:11:36Z</time></trkpt>
<trkpt lat="36.975207" lon="-122.094027"><ele>86.4</ele><time>2021-10-10T17:11:46Z</time></trkpt>
<trkpt lat="36.975306" lon="-122.093953"><ele>86.9</ele><time>2021-10-10T17:11:50Z</time></trkpt>
<trkpt lat="36.975343" lon="-122.093825"><ele>87.1</ele><time>2021-10-10T17:11:55Z</time></trkpt>
<trkpt lat="36.975282" lon="-122.093758"><ele>87.1</ele><time>2021-10-10T17:11:58Z</time></trkpt>
<trkpt lat="36.975090" lon="-122.093686"><ele>86.0</ele><time>2021-10-10T17:12:03Z</time></trkpt>
<trkpt lat="36.974973" lon="-122.093582"><ele>84.9</ele><time>2021-10-10T17:12:05Z</time></trkpt>
<trkpt lat="36.974859" lon="-122.093604"><ele>83.8</ele><time>2021-10-10T17:12:07Z</time></trkpt>
<trkpt lat="36.974711" lon="-122.093560"><ele>82.2</ele><time>2021-10-10T17:12:09Z</time></trkpt>
<trkpt lat="36.974291" lon="-122.092960"><ele>76.9</ele><time>2021-10-10T17:12:18Z</time></trkpt>
<trkpt lat="36.974123" lon="-122.092901"><ele>75.3</ele><time>2021-10-10T17:12:21Z</time></trkpt>
<trkpt lat="36.973998" lon="-122.092727"><ele>73.2</ele><time>2021-10-10T17:12:24Z</time></trkpt>
<trkpt lat="36.973935" lon="-122.092719"><ele>72.5</ele><time>2021-10-10T17:12:25Z</time></trkpt>
<trkpt lat="36.973754" lon="-122.092565"><ele>70.3</ele><time>2021-10-10T17:12:28Z</time></trkpt>
<trkpt lat="36.973551" lon="-122.092053"><ele>69.0</ele><time>2021-10-10T17:12:35Z</time></trkpt>
<trkpt lat="36.973490" lon="-122.091993"><ele>69.1</ele><time>2021-10-10T17:12:38Z</time></trkpt>
<trkpt lat="36.973280" lon="-122.091923"><ele>69.0</ele><time>2021-10-10T17:12:44Z</time></trkpt>
<trkpt lat="36.973079" lon="-122.091668"><ele>68.1</ele><time>2021-10-10T17:12:50Z</time></trkpt>
<trkpt lat="36.972803" lon="-122.091461"><ele>66.7</ele><time>2021-10-10T17:12:55Z</time></trkpt>
<trkpt lat="36.972647" lon="-122.091111"><ele>65.7</ele><time>2021-10-10T17:13:00Z</time></trkpt>
<trkpt lat="36.972456" lon="-122.090792"><ele>65.3</ele><time>2021-10-10T17:13:06Z</time></trkpt>
<trkpt lat="36.972257" lon="-122.090768"><ele>64.5</ele><time>2021-10-10T17:13:10Z</time></trkpt>
<trkpt lat="36.972107" lon="-122.090587"><ele>63.7</ele><time>2021-10-10T17:13:13Z</time></trkpt>
<trkpt lat="36.972132" lon="-122.090508"><ele>63.6</ele><time>2021-10-10T17:13:14Z</time></trkpt>
<trkpt lat="36.972289" lon="-122.090420"><ele>63.9</ele><time>2021-10-10T17:13:18Z</time></trkpt>
<trkpt lat="36.972373" lon="-122.090451"><ele>64.1</ele><time>2021-10-10T17:13:22Z</time></trkpt>
<trkpt lat="36.972437" lon="-122.090415"><ele>64.1</ele><time>2021-10-10T17:13:24Z</time></trkpt>
<trkpt lat="36.972653" lon="-122.090415"><ele>64.5</ele><time>2021-10-10T17:13:30Z</time></trkpt>
<trkpt lat="36.972797" lon="-122.090357"><ele>64.9</ele><time>2021-10-10T17:13:35Z</time></trkpt>
<trkpt lat="36.972839" lon="-122.090172"><ele>65.3</ele><time>2021-10-10T17:13:44Z</time></trkpt>
<trkpt lat="36.972688" lon="-122.089981"><ele>65.0</ele><time>2021-10-10T17:13:50Z</time></trkpt>
<trkpt lat="36.972683" lon="-122.089825"><ele>65.1</ele><time>2021-10-10T17:13:53Z</time></trkpt>
<trkpt lat="36.972703" lon="-122.089788"><ele>65.2</ele><time>2021-10-10T17:13:54Z</time></trkpt>
<trkpt lat="36.973017" lon="-122.089652"><ele>66.6</ele><time>2021-10-10T17:14:03Z</time></trkpt>
<trkpt lat="36.973218" lon="-122.089673"><ele>67.4</ele><time>2021-10-10T17:14:08Z</time></trkpt>
<trkpt lat="36.973266" lon="-122.089719"><ele>67.5</ele><time>2021-10-10T17:14:10Z</time></trkpt>
<trkpt lat="36.973459" lon="-122.089713"><ele>67.4</ele><time>2021-10-10T17:14:15Z</time></trkpt>
<trkpt lat="36.973644" lon="-122.089792"><ele>67.9</ele><time>2021-10-10T17:14:19Z</time></trkpt>
<trkpt lat="36.973816" lon="-122.090093"><ele>70.1</ele><time>2021-10-10T17:14:31Z</time></trkpt>
<trkpt lat="36.973967" lon="-122.090137"><ele>70.8</ele><time>2021-10-10T17:14:37Z</time></trkpt>
<trkpt lat="36.974047" lon="-122.090090"><ele>71.1</ele><time>2021-10-10T17:14:39Z</time></trkpt>
<trkpt lat="36.974114" lon="-122.090101"><ele>71.5</ele><time>2021-10-10T17:14:41Z</time></trkpt>
<trkpt lat="36.974225" lon="-122.090247"><ele>72.3</ele><time>2021-10-10T17:14:46Z</time></trkpt>
<trkpt lat="36.974293" lon="-122.090263"><ele>72.4</ele><time>2021-10-10T17:14:49Z</time></trkpt>
<trkpt lat="36.974319" lon="-122.090156"><ele>72.2</ele><time>2021-10-10T17:14:53Z</time></trkpt>
<trkpt lat="36.974295" lon="-122.090090"><ele>71.8</ele><time>2021-10-10T17:14:55Z</time></trkpt>
<trkpt lat="36.973959" lon="-122.089846"><ele>68.0</ele><time>2021-10-10T17:15:06Z</time></trkpt>
<trkpt lat="36.973890" lon="-122.089468"><ele>66.4</ele><time>2021-10-10T17:15:09Z</time></trkpt>
<trkpt lat="36.973562" lon="-122.089244"><ele>66.0</ele><time>2021-10-10T17:15:18Z</time></trkpt>
<trkpt lat="36.973542" lon="-122.089149"><ele>66.0</ele><time>2021-10-10T17:15:19Z</time></trkpt>
<trkpt lat="36.973682" lon="-122.088707"><ele>66.1</ele><time>2021-10-10T17:15:27Z</time></trkpt>
<trkpt lat="36.973759" lon="-122.088563"><ele>66.7</ele><time>2021-10-10T17:15:30Z</time></trkpt>
<trkpt lat="36.973960" lon="-122.088437"><ele>68.2</ele><time>2021-10-10T17:15:39Z</time></trkpt>
<trkpt lat="36.974023" lon="-122.088053"><ele>68.3</ele><time>2021-10-10T17:15:52Z</time></trkpt>
<trkpt lat="36.974078" lon="-122.087965"><ele>68.2</ele><time>2021-10-10T17:15:54Z</time></trkpt>
<trkpt lat="36.974041" lon="-122.087868"><ele>68.2</ele><time>2021-10-10T17:15:56Z</time></trkpt>
<trkpt lat="36.973981" lon="-122.087864"><ele>68.2</ele><time>2021-10-10T17:15:58Z</time></trkpt>
<trkpt lat="36.973854" lon="-122.088031"><ele>67.7</ele><time>2021-10-10T17:16:04Z</time></trkpt>
<trkpt lat="36.973794" lon="-122.088165"><ele>67.0</ele><time>2021-10-10T17:16:07Z</time></trkpt>
<trkpt lat="36.973680" lon="-122.088242"><ele>66.4</ele><time>2021-10-10T17:16:09Z</time></trkpt>
<trkpt lat="36.973494" lon="-122.088300"><ele>66.2</ele><time>2021-10-10T17:16:12Z</time></trkpt>
<trkpt lat="36.973178" lon="-122.088499"><ele>67.9</ele><time>2021-10-10T17:16:21Z</time></trkpt>
<trkpt lat="36.972710" lon="-122.088738"><ele>67.4</ele><time>2021-10-10T17:16:33Z</time></trkpt>
<trkpt lat="36.972422" lon="-122.088762"><ele>66.4</ele><time>2021-10-10T17:16:38Z</time></trkpt>
<trkpt lat="36.972377" lon="-122.088711"><ele>66.1</ele><time>2021-10-10T17:16:39Z</time></trkpt>
<trkpt lat="36.972265" lon="-122.088131"><ele>64.7</ele><time>2021-10-10T17:16:47Z</time></trkpt>
<trkpt lat="36.972203" lon="-122.088003"><ele>64.6</ele><time>2021-10-10T17:16:49Z</time></trkpt>
<trkpt lat="36.971981" lon="-122.087748"><ele>66.1</ele><time>2021-10-10T17:16:54Z</time></trkpt>
<trkpt lat="36.971993" lon="-122.087665"><ele>67.0</ele><time>2021-10-10T17:16:57Z</time></trkpt>
<trkpt lat="36.971825" lon="-122.087373"><ele>70.6</ele><time>2021-10-10T17:17:14Z</time></trkpt>
<trkpt lat="36.971750" lon="-122.087342"><ele>71.0</ele><time>2021-10-10T17:17:19Z</time></trkpt>
<trkpt lat="36.971582" lon="-122.087354"><ele>71.3</ele><time>2021-10-10T17:17:25Z</time></trkpt>
<trkpt lat="36.971381" lon="-122.087144"><ele>70.9</ele><time>2021-10-10T17:17:32Z</time></trkpt>
<trkpt lat="36.971252" lon="-122.087139"><ele>70.3</ele><time>2021-10-10T17:17:35Z</time></trkpt>
<trkpt lat="36.971129" lon="-122.087086"><ele>69.3</ele><time>2021-10-10T17:17:38Z</time></trkpt>
<trkpt lat="36.970919" lon="-122.086796"><ele>66.0</ele><time>2021-10-10T17:17:42Z</time></trkpt>
<trkpt lat="36.970630" lon="-122.086591"><ele>64.9</ele><time>2021-10-10T17:17:46Z</time></trkpt>
<trkpt lat="36.970462" lon="-122.086352"><ele>65.9</ele><time>2021-10-10T17:17:50Z</time></trkpt>
<trkpt lat="36.969916" lon="-122.086122"><ele>66.9</ele><time>2021-10-10T17:18:05Z</time></trkpt>
<trkpt lat="36.969808" lon="-122.086113"><ele>66.7</ele><time>2021-10-10T17:18:07Z</time></trkpt>
<trkpt lat="36.969650" lon="-122.086168"><ele>66.6</ele><time>2021-10-10T17:18:10Z</time></trkpt>
<trkpt lat="36.968957" lon="-122.086540"><ele>65.9</ele><time>2021-10-10T17:18:25Z</time></trkpt>
<trkpt lat="36.968674" lon="-122.086591"><ele>65.8</ele><time>2021-10-10T17:18:30Z</time></trkpt>
<trkpt lat="36.968365" lon="-122.086697"><ele>66.3</ele><time>2021-10-10T17:18:36Z</time></trkpt>
<trkpt lat="36.968176" lon="-122.086683"><ele>66.0</ele><time>2021-10-10T17:18:40Z</time></trkpt>
<trkpt lat="36.967955" lon="-122.086722"><ele>65.6</ele><time>2021-10-10T17:18:44Z</time></trkpt>
<trkpt lat="36.967367" lon="-122.086974"><ele>65.1</ele><time>2021-10-10T17:18:56Z</time></trkpt>
<trkpt lat="36.966800" lon="-122.087096"><ele>63.1</ele><time>2021-10-10T17:19:06Z</time></trkpt>
<trkpt lat="36.966622" lon="-122.087192"><ele>62.5</ele><time>2021-10-10T17:19:09Z</time></trkpt>
<trkpt lat="36.966219" lon="-122.087328"><ele>61.4</ele><time>2021-10-10T17:19:16Z</time></trkpt>
<trkpt lat="36.966134" lon="-122.087408"><ele>61.1</ele><time>2021-10-10T17:19:18Z</time></trkpt>
<trkpt lat="36.965902" lon="-122.087410"><ele>60.6</ele><time>2021-10-10T17:19:22Z</time></trkpt>
<trkpt lat="36.965344" lon="-122.087345"><ele>59.2</ele><time>2021-10-10T17:19:32Z</time></trkpt>
<trkpt lat="36.964677" lon="-122.087338"><ele>52.2</ele><time>2021-10-10T17:19:41Z</time></trkpt>
<trkpt lat="36.964387" lon="-122.087243"><ele>48.9</ele><time>2021-10-10T17:19:44Z</time></trkpt>
<trkpt lat="36.964203" lon="-122.087108"><ele>46.4</ele><time>2021-10-10T17:19:46Z</time></trkpt>
<trkpt lat="36.963766" lon="-122.086622"><ele>39.1</ele><time>2021-10-10T17:19:51Z</time></trkpt>
<trkpt lat="36.963612" lon="-122.086408"><ele>36.8</ele><time>2021-10-10T17:19:53Z</time></trkpt>
<trkpt lat="36.963531" lon="-122.086217"><ele>35.3</ele><time>2021-10-10T17:19:55Z</time></trkpt>
<trkpt lat="36.963507" lon="-122.086049"><ele>34.4</ele><time>2021-10-10T17:19:57Z</time></trkpt>
<trkpt lat="36.963390" lon="-122.085667"><ele>31.5</ele><time>2021-10-10T17:20:03Z</time></trkpt>
<trkpt lat="36.962559" lon="-122.085240"><ele>23.9</ele><time>2021-10-10T17:20:16Z</time></trkpt>
<trkpt lat="36.962507" lon="-122.085094"><ele>23.4</ele><time>2021-10-10T17:20:19Z</time></trkpt>
<trkpt lat="36.962420" lon="-122.085099"><ele>23.2</ele><time>2021-10-10T17:20:21Z</time></trkpt>
<trkpt lat="36.962355" lon="-122.085047"><ele>23.0</ele><time>2021-10-10T17:20:24Z</time></trkpt>
<trkpt lat="36.962240" lon="-122.084681"><ele>21.1</ele><time>2021-10-10T17:20:38Z</time></trkpt>
<trkpt lat="36.962219" lon="-122.084698"><ele>20.8</ele><time>2021-10-10T17:20:44Z</time></trkpt>
<trkpt lat="36.962219" lon="-122.084849"><ele>20.4</ele><time>2021-10-10T17:20:56Z</time></trkpt>
<trkpt lat="36.962078" lon="-122.084965"><ele>20.0</ele><time>2021-10-10T17:21:15Z</time></trkpt>
<trkpt lat="36.962061" lon="-122.085752"><ele>19.6</ele><time>2021-10-10T17:21:38Z</time></trkpt>
<trkpt lat="36.962051" lon="-122.085809"><ele>19.6</ele><time>2021-10-10T17:21:40Z</time></trkpt>
<trkpt lat="36.961994" lon="-122.085798"><ele>19.6</ele><time>2021-10-10T17:21:55Z</time></trkpt>
</trkseg></trk>
</gpx>
