<?xml version="1.0" encoding="UTF-8"?>
<gpx version="1.1" creator="Eric Sichak trip reports" xmlns="http://www.topografix.com/GPX/1/1">
<metadata><name>Crystal Range to Bayview (planned)</name></metadata>
<trk><name>Crystal Range to Bayview (planned)</name><type>hike</type><trkseg>
<trkpt lat="38.808092" lon="-120.136586"></trkpt>
<trkpt lat="38.808377" lon="-120.136620"></trkpt>
<trkpt lat="38.808524" lon="-120.136472"></trkpt>
<trkpt lat="38.809715" lon="-120.136654"></trkpt>
<trkpt lat="38.809848" lon="-120.136482"></trkpt>
<trkpt lat="38.809981" lon="-120.136482"></trkpt>
<trkpt lat="38.810114" lon="-120.136654"></trkpt>
<trkpt lat="38.810380" lon="-120.136654"></trkpt>
<trkpt lat="38.810469" lon="-120.136540"></trkpt>
<trkpt lat="38.811578" lon="-120.136654"></trkpt>
<trkpt lat="38.811711" lon="-120.136826"></trkpt>
<trkpt lat="38.812731" lon="-120.137285"></trkpt>
<trkpt lat="38.814549" lon="-120.137113"></trkpt>
<trkpt lat="38.814904" lon="-120.137343"></trkpt>
<trkpt lat="38.815170" lon="-120.137687"></trkpt>
<trkpt lat="38.815658" lon="-120.137687"></trkpt>
<trkpt lat="38.816279" lon="-120.137916"></trkpt>
<trkpt lat="38.816545" lon="-120.138260"></trkpt>
<trkpt lat="38.816767" lon="-120.138317"></trkpt>
<trkpt lat="38.817210" lon="-120.138891"></trkpt>
<trkpt lat="38.817343" lon="-120.138891"></trkpt>
<trkpt lat="38.817654" lon="-120.139177"></trkpt>
<trkpt lat="38.818097" lon="-120.139177"></trkpt>
<trkpt lat="38.818186" lon="-120.139063"></trkpt>
<trkpt lat="38.818452" lon="-120.139063"></trkpt>
<trkpt lat="38.818585" lon="-120.138948"></trkpt>
<trkpt lat="38.819029" lon="-120.138948"></trkpt>
<trkpt lat="38.819162" lon="-120.139063"></trkpt>
<trkpt lat="38.819827" lon="-120.139005"></trkpt>
<trkpt lat="38.819916" lon="-120.139120"></trkpt>
<trkpt lat="38.820625" lon="-120.139292"></trkpt>
<trkpt lat="38.821556" lon="-120.140611"></trkpt>
<trkpt lat="38.821911" lon="-120.140897"></trkpt>
<trkpt lat="38.821911" lon="-120.141299"></trkpt>
<trkpt lat="38.822177" lon="-120.141643"></trkpt>
<trkpt lat="38.822798" lon="-120.142044"></trkpt>
<trkpt lat="38.823463" lon="-120.142044"></trkpt>
<trkpt lat="38.823774" lon="-120.142388"></trkpt>
<trkpt lat="38.823995" lon="-120.142790"></trkpt>
<trkpt lat="38.824661" lon="-120.143535"></trkpt>
<trkpt lat="38.825060" lon="-120.144280"></trkpt>
<trkpt lat="38.825104" lon="-120.144567"></trkpt>
<trkpt lat="38.825459" lon="-120.145026"></trkpt>
<trkpt lat="38.825592" lon="-120.145427"></trkpt>
<trkpt lat="38.825858" lon="-120.145828"></trkpt>
<trkpt lat="38.826301" lon="-120.146402"></trkpt>
<trkpt lat="38.826434" lon="-120.146517"></trkpt>
<trkpt lat="38.826656" lon="-120.146517"></trkpt>
<trkpt lat="38.827188" lon="-120.147205"></trkpt>
<trkpt lat="38.827499" lon="-120.147893"></trkpt>
<trkpt lat="38.827499" lon="-120.148294"></trkpt>
<trkpt lat="38.827765" lon="-120.148695"></trkpt>
<trkpt lat="38.828075" lon="-120.149957"></trkpt>
<trkpt lat="38.828341" lon="-120.150415"></trkpt>
<trkpt lat="38.828430" lon="-120.151161"></trkpt>
<trkpt lat="38.829317" lon="-120.152250"></trkpt>
<trkpt lat="38.829317" lon="-120.153225"></trkpt>
<trkpt lat="38.830425" lon="-120.154658"></trkpt>
<trkpt lat="38.831401" lon="-120.155346"></trkpt>
<trkpt lat="38.831933" lon="-120.155346"></trkpt>
<trkpt lat="38.832332" lon="-120.155518"></trkpt>
<trkpt lat="38.832819" lon="-120.155518"></trkpt>
<trkpt lat="38.833263" lon="-120.155691"></trkpt>
<trkpt lat="38.833440" lon="-120.156092"></trkpt>
<trkpt lat="38.833751" lon="-120.156493"></trkpt>
<trkpt lat="38.833928" lon="-120.156952"></trkpt>
<trkpt lat="38.834238" lon="-120.157296"></trkpt>
<trkpt lat="38.834637" lon="-120.157411"></trkpt>
<trkpt lat="38.835036" lon="-120.157697"></trkpt>
<trkpt lat="38.836500" lon="-120.157640"></trkpt>
<trkpt lat="38.836588" lon="-120.157755"></trkpt>
<trkpt lat="38.837209" lon="-120.157755"></trkpt>
<trkpt lat="38.838362" lon="-120.157640"></trkpt>
<trkpt lat="38.838495" lon="-120.157755"></trkpt>
<trkpt lat="38.840224" lon="-120.157869"></trkpt>
<trkpt lat="38.840756" lon="-120.158500"></trkpt>
<trkpt lat="38.841376" lon="-120.158500"></trkpt>
<trkpt lat="38.841953" lon="-120.158271"></trkpt>
<trkpt lat="38.842972" lon="-120.158271"></trkpt>
<trkpt lat="38.843371" lon="-120.157984"></trkpt>
<trkpt lat="38.844604" lon="-120.158026"></trkpt>
<trkpt lat="38.845009" lon="-120.157844"></trkpt>
<trkpt lat="38.846386" lon="-120.157984"></trkpt>
<trkpt lat="38.846652" lon="-120.158213"></trkpt>
<trkpt lat="38.848070" lon="-120.158787"></trkpt>
<trkpt lat="38.848602" lon="-120.158729"></trkpt>
<trkpt lat="38.849711" lon="-120.158328"></trkpt>
<trkpt lat="38.851085" lon="-120.158213"></trkpt>
<trkpt lat="38.851439" lon="-120.157869"></trkpt>
<trkpt lat="38.851572" lon="-120.158041"></trkpt>
<trkpt lat="38.851661" lon="-120.158385"></trkpt>
<trkpt lat="38.851971" lon="-120.158787"></trkpt>
<trkpt lat="38.852193" lon="-120.158844"></trkpt>
<trkpt lat="38.852459" lon="-120.159074"></trkpt>
<trkpt lat="38.853390" lon="-120.160335"></trkpt>
<trkpt lat="38.853656" lon="-120.160507"></trkpt>
<trkpt lat="38.854498" lon="-120.160507"></trkpt>
<trkpt lat="38.854720" lon="-120.160622"></trkpt>
<trkpt lat="38.854986" lon="-120.160794"></trkpt>
<trkpt lat="38.855739" lon="-120.161711"></trkpt>
<trkpt lat="38.855872" lon="-120.162112"></trkpt>
<trkpt lat="38.855916" lon="-120.162800"></trkpt>
<trkpt lat="38.856360" lon="-120.163603"></trkpt>
<trkpt lat="38.856537" lon="-120.164520"></trkpt>
<trkpt lat="38.856980" lon="-120.165553"></trkpt>
<trkpt lat="38.856980" lon="-120.166298"></trkpt>
<trkpt lat="38.857157" lon="-120.166699"></trkpt>
<trkpt lat="38.857202" lon="-120.167502"></trkpt>
<trkpt lat="38.857645" lon="-120.168248"></trkpt>
<trkpt lat="38.857641" lon="-120.169229"></trkpt>
<trkpt lat="38.857390" lon="-120.169740"></trkpt>
<trkpt lat="38.857381" lon="-120.169929"></trkpt>
<trkpt lat="38.857575" lon="-120.170379"></trkpt>
<trkpt lat="38.857607" lon="-120.170896"></trkpt>
<trkpt lat="38.858177" lon="-120.171516"></trkpt>
<trkpt lat="38.858620" lon="-120.171688"></trkpt>
<trkpt lat="38.859108" lon="-120.172146"></trkpt>
<trkpt lat="38.859418" lon="-120.172204"></trkpt>
<trkpt lat="38.859728" lon="-120.172605"></trkpt>
<trkpt lat="38.860393" lon="-120.172720"></trkpt>
<trkpt lat="38.860748" lon="-120.173064"></trkpt>
<trkpt lat="38.861457" lon="-120.173064"></trkpt>
<trkpt lat="38.861856" lon="-120.173523"></trkpt>
<trkpt lat="38.862742" lon="-120.173752"></trkpt>
<trkpt lat="38.863179" lon="-120.174481"></trkpt>
<trkpt lat="38.863870" lon="-120.174717"></trkpt>
<trkpt lat="38.864099" lon="-120.174965"></trkpt>
<trkpt lat="38.865268" lon="-120.175071"></trkpt>
<trkpt lat="38.866332" lon="-120.173695"></trkpt>
<trkpt lat="38.866509" lon="-120.173580"></trkpt>
<trkpt lat="38.866864" lon="-120.173580"></trkpt>
<trkpt lat="38.867085" lon="-120.173293"></trkpt>
<trkpt lat="38.867440" lon="-120.173121"></trkpt>
<trkpt lat="38.869922" lon="-120.169968"></trkpt>
<trkpt lat="38.870055" lon="-120.169509"></trkpt>
<trkpt lat="38.870409" lon="-120.168993"></trkpt>
<trkpt lat="38.870453" lon="-120.168419"></trkpt>
<trkpt lat="38.870719" lon="-120.167961"></trkpt>
<trkpt lat="38.870719" lon="-120.167502"></trkpt>
<trkpt lat="38.871871" lon="-120.165839"></trkpt>
<trkpt lat="38.872270" lon="-120.165094"></trkpt>
<trkpt lat="38.873334" lon="-120.163775"></trkpt>
<trkpt lat="38.873556" lon="-120.163775"></trkpt>
<trkpt lat="38.874353" lon="-120.162858"></trkpt>
<trkpt lat="38.874486" lon="-120.162858"></trkpt>
<trkpt lat="38.874619" lon="-120.162686"></trkpt>
<trkpt lat="38.874840" lon="-120.162686"></trkpt>
<trkpt lat="38.875062" lon="-120.162456"></trkpt>
<trkpt lat="38.875328" lon="-120.162456"></trkpt>
<trkpt lat="38.875594" lon="-120.162170"></trkpt>
<trkpt lat="38.875818" lon="-120.162165"></trkpt>
<trkpt lat="38.876711" lon="-120.160884"></trkpt>
<trkpt lat="38.877088" lon="-120.160485"></trkpt>
<trkpt lat="38.876756" lon="-120.160249"></trkpt>
<trkpt lat="38.876055" lon="-120.160226"></trkpt>
<trkpt lat="38.876299" lon="-120.159980"></trkpt>
<trkpt lat="38.876299" lon="-120.159913"></trkpt>
<trkpt lat="38.876263" lon="-120.159906"></trkpt>
<trkpt lat="38.876081" lon="-120.159947"></trkpt>
<trkpt lat="38.875691" lon="-120.160247"></trkpt>
<trkpt lat="38.875624" lon="-120.160259"></trkpt>
<trkpt lat="38.875370" lon="-120.160184"></trkpt>
<trkpt lat="38.875388" lon="-120.160140"></trkpt>
<trkpt lat="38.875537" lon="-120.160103"></trkpt>
<trkpt lat="38.875702" lon="-120.159942"></trkpt>
<trkpt lat="38.875762" lon="-120.159665"></trkpt>
<trkpt lat="38.875870" lon="-120.159395"></trkpt>
<trkpt lat="38.875971" lon="-120.158940"></trkpt>
<trkpt lat="38.875925" lon="-120.158770"></trkpt>
<trkpt lat="38.875811" lon="-120.158725"></trkpt>
<trkpt lat="38.875754" lon="-120.158753"></trkpt>
<trkpt lat="38.875593" lon="-120.158963"></trkpt>
<trkpt lat="38.875491" lon="-120.159006"></trkpt>
<trkpt lat="38.875418" lon="-120.158955"></trkpt>
<trkpt lat="38.875497" lon="-120.158717"></trkpt>
<trkpt lat="38.875488" lon="-120.158417"></trkpt>
<trkpt lat="38.875723" lon="-120.157820"></trkpt>
<trkpt lat="38.875802" lon="-120.157514"></trkpt>
<trkpt lat="38.875883" lon="-120.156935"></trkpt>
<trkpt lat="38.875884" lon="-120.156744"></trkpt>
<trkpt lat="38.875713" lon="-120.156174"></trkpt>
<trkpt lat="38.875628" lon="-120.155613"></trkpt>
<trkpt lat="38.875631" lon="-120.153889"></trkpt>
<trkpt lat="38.875754" lon="-120.153618"></trkpt>
<trkpt lat="38.875816" lon="-120.153388"></trkpt>
<trkpt lat="38.875945" lon="-120.152659"></trkpt>
<trkpt lat="38.876080" lon="-120.152347"></trkpt>
<trkpt lat="38.876119" lon="-120.151994"></trkpt>
<trkpt lat="38.876069" lon="-120.151836"></trkpt>
<trkpt lat="38.875828" lon="-120.151652"></trkpt>
<trkpt lat="38.875715" lon="-120.151417"></trkpt>
<trkpt lat="38.875697" lon="-120.151095"></trkpt>
<trkpt lat="38.875804" lon="-120.150257"></trkpt>
<trkpt lat="38.875749" lon="-120.149930"></trkpt>
<trkpt lat="38.875625" lon="-120.149752"></trkpt>
<trkpt lat="38.875592" lon="-120.149581"></trkpt>
<trkpt lat="38.875595" lon="-120.149387"></trkpt>
<trkpt lat="38.875663" lon="-120.148809"></trkpt>
<trkpt lat="38.875777" lon="-120.148369"></trkpt>
<trkpt lat="38.875970" lon="-120.148164"></trkpt>
<trkpt lat="38.876024" lon="-120.148040"></trkpt>
<trkpt lat="38.876230" lon="-120.147283"></trkpt>
<trkpt lat="38.876390" lon="-120.146890"></trkpt>
<trkpt lat="38.876416" lon="-120.146657"></trkpt>
<trkpt lat="38.876302" lon="-120.146196"></trkpt>
<trkpt lat="38.876541" lon="-120.146293"></trkpt>
<trkpt lat="38.876650" lon="-120.146226"></trkpt>
<trkpt lat="38.877052" lon="-120.146271"></trkpt>
<trkpt lat="38.877299" lon="-120.146180"></trkpt>
<trkpt lat="38.877359" lon="-120.146103"></trkpt>
<trkpt lat="38.877394" lon="-120.146096"></trkpt>
<trkpt lat="38.877442" lon="-120.146160"></trkpt>
<trkpt lat="38.877422" lon="-120.146020"></trkpt>
<trkpt lat="38.877351" lon="-120.145931"></trkpt>
<trkpt lat="38.877372" lon="-120.145902"></trkpt>
<trkpt lat="38.877464" lon="-120.146026"></trkpt>
<trkpt lat="38.877581" lon="-120.146057"></trkpt>
<trkpt lat="38.877491" lon="-120.145735"></trkpt>
<trkpt lat="38.877592" lon="-120.145601"></trkpt>
<trkpt lat="38.877650" lon="-120.145255"></trkpt>
<trkpt lat="38.877687" lon="-120.145208"></trkpt>
<trkpt lat="38.877961" lon="-120.145201"></trkpt>
<trkpt lat="38.878013" lon="-120.145145"></trkpt>
<trkpt lat="38.878111" lon="-120.144862"></trkpt>
<trkpt lat="38.878438" lon="-120.144595"></trkpt>
<trkpt lat="38.878721" lon="-120.144981"></trkpt>
<trkpt lat="38.879262" lon="-120.145098"></trkpt>
<trkpt lat="38.879905" lon="-120.145506"></trkpt>
<trkpt lat="38.880191" lon="-120.145506"></trkpt>
<trkpt lat="38.880715" lon="-120.145991"></trkpt>
<trkpt lat="38.881382" lon="-120.146234"></trkpt>
<trkpt lat="38.882287" lon="-120.147024"></trkpt>
<trkpt lat="38.882668" lon="-120.147084"></trkpt>
<trkpt lat="38.883097" lon="-120.147448"></trkpt>
<trkpt lat="38.883525" lon="-120.147570"></trkpt>
<trkpt lat="38.884002" lon="-120.148177"></trkpt>
<trkpt lat="38.884240" lon="-120.148177"></trkpt>
<trkpt lat="38.884669" lon="-120.148602"></trkpt>
<trkpt lat="38.885574" lon="-120.148663"></trkpt>
<trkpt lat="38.886098" lon="-120.149148"></trkpt>
<trkpt lat="38.886479" lon="-120.149270"></trkpt>
<trkpt lat="38.886765" lon="-120.149513"></trkpt>
<trkpt lat="38.887956" lon="-120.149877"></trkpt>
<trkpt lat="38.888718" lon="-120.150788"></trkpt>
<trkpt lat="38.888813" lon="-120.151030"></trkpt>
<trkpt lat="38.888765" lon="-120.152305"></trkpt>
<trkpt lat="38.889004" lon="-120.152730"></trkpt>
<trkpt lat="38.889004" lon="-120.153094"></trkpt>
<trkpt lat="38.889958" lon="-120.153923"></trkpt>
<trkpt lat="38.890463" lon="-120.154076"></trkpt>
<trkpt lat="38.890802" lon="-120.153675"></trkpt>
<trkpt lat="38.891116" lon="-120.153648"></trkpt>
<trkpt lat="38.892767" lon="-120.153094"></trkpt>
<trkpt lat="38.893148" lon="-120.152791"></trkpt>
<trkpt lat="38.897339" lon="-120.152609"></trkpt>
<trkpt lat="38.898530" lon="-120.151759"></trkpt>
<trkpt lat="38.899387" lon="-120.151637"></trkpt>
<trkpt lat="38.900064" lon="-120.151092"></trkpt>
<trkpt lat="38.900502" lon="-120.150972"></trkpt>
<trkpt lat="38.900542" lon="-120.150239"></trkpt>
<trkpt lat="38.900709" lon="-120.149835"></trkpt>
<trkpt lat="38.901007" lon="-120.149452"></trkpt>
<trkpt lat="38.901912" lon="-120.147448"></trkpt>
<trkpt lat="38.902054" lon="-120.147266"></trkpt>
<trkpt lat="38.902293" lon="-120.147206"></trkpt>
<trkpt lat="38.902864" lon="-120.146416"></trkpt>
<trkpt lat="38.903007" lon="-120.145688"></trkpt>
<trkpt lat="38.903007" lon="-120.142895"></trkpt>
<trkpt lat="38.903340" lon="-120.142349"></trkpt>
<trkpt lat="38.903340" lon="-120.141742"></trkpt>
<trkpt lat="38.903769" lon="-120.140892"></trkpt>
<trkpt lat="38.903769" lon="-120.140528"></trkpt>
<trkpt lat="38.903959" lon="-120.140103"></trkpt>
<trkpt lat="38.904102" lon="-120.139313"></trkpt>
<trkpt lat="38.904483" lon="-120.138464"></trkpt>
<trkpt lat="38.904912" lon="-120.137917"></trkpt>
<trkpt lat="38.904864" lon="-120.135549"></trkpt>
<trkpt lat="38.904960" lon="-120.135246"></trkpt>
<trkpt lat="38.905262" lon="-120.134916"></trkpt>
<trkpt lat="38.906148" lon="-120.134955"></trkpt>
<trkpt lat="38.906040" lon="-120.134807"></trkpt>
<trkpt lat="38.906009" lon="-120.134317"></trkpt>
<trkpt lat="38.906198" lon="-120.133607"></trkpt>
<trkpt lat="38.906198" lon="-120.133060"></trkpt>
<trkpt lat="38.906388" lon="-120.132635"></trkpt>
<trkpt lat="38.906388" lon="-120.132271"></trkpt>
<trkpt lat="38.906674" lon="-120.131603"></trkpt>
<trkpt lat="38.906674" lon="-120.131057"></trkpt>
<trkpt lat="38.906960" lon="-120.130632"></trkpt>
<trkpt lat="38.906674" lon="-120.131057"></trkpt>
<trkpt lat="38.906674" lon="-120.131603"></trkpt>
<trkpt lat="38.906388" lon="-120.132271"></trkpt>
<trkpt lat="38.906388" lon="-120.132635"></trkpt>
<trkpt lat="38.906198" lon="-120.133060"></trkpt>
<trkpt lat="38.906198" lon="-120.133607"></trkpt>
<trkpt lat="38.906009" lon="-120.134317"></trkpt>
<trkpt lat="38.906040" lon="-120.134807"></trkpt>
<trkpt lat="38.906148" lon="-120.134955"></trkpt>
<trkpt lat="38.907167" lon="-120.134388"></trkpt>
<trkpt lat="38.908107" lon="-120.134233"></trkpt>
<trkpt lat="38.908540" lon="-120.133988"></trkpt>
<trkpt lat="38.908937" lon="-120.133868"></trkpt>
<trkpt lat="38.909043" lon="-120.133871"></trkpt>
<trkpt lat="38.909150" lon="-120.133953"></trkpt>
<trkpt lat="38.909455" lon="-120.133947"></trkpt>
<trkpt lat="38.909748" lon="-120.133790"></trkpt>
<trkpt lat="38.910048" lon="-120.133705"></trkpt>
<trkpt lat="38.911088" lon="-120.133128"></trkpt>
<trkpt lat="38.911337" lon="-120.133103"></trkpt>
<trkpt lat="38.911529" lon="-120.132990"></trkpt>
<trkpt lat="38.911556" lon="-120.133022"></trkpt>
<trkpt lat="38.911535" lon="-120.133140"></trkpt>
<trkpt lat="38.911395" lon="-120.133575"></trkpt>
<trkpt lat="38.911293" lon="-120.133653"></trkpt>
<trkpt lat="38.910932" lon="-120.134109"></trkpt>
<trkpt lat="38.910732" lon="-120.134185"></trkpt>
<trkpt lat="38.910581" lon="-120.134522"></trkpt>
<trkpt lat="38.910356" lon="-120.134755"></trkpt>
<trkpt lat="38.909993" lon="-120.135082"></trkpt>
<trkpt lat="38.909799" lon="-120.135117"></trkpt>
<trkpt lat="38.909625" lon="-120.135257"></trkpt>
<trkpt lat="38.909625" lon="-120.135332"></trkpt>
<trkpt lat="38.909934" lon="-120.135361"></trkpt>
<trkpt lat="38.910487" lon="-120.135552"></trkpt>
<trkpt lat="38.910775" lon="-120.135560"></trkpt>
<trkpt lat="38.910809" lon="-120.135611"></trkpt>
<trkpt lat="38.910782" lon="-120.135691"></trkpt>
<trkpt lat="38.910638" lon="-120.135855"></trkpt>
<trkpt lat="38.910542" lon="-120.135884"></trkpt>
<trkpt lat="38.910540" lon="-120.135938"></trkpt>
<trkpt lat="38.911322" lon="-120.136150"></trkpt>
<trkpt lat="38.911587" lon="-120.136343"></trkpt>
<trkpt lat="38.911838" lon="-120.136407"></trkpt>
<trkpt lat="38.911838" lon="-120.136456"></trkpt>
<trkpt lat="38.911643" lon="-120.136509"></trkpt>
<trkpt lat="38.911643" lon="-120.136568"></trkpt>
<trkpt lat="38.912282" lon="-120.136764"></trkpt>
<trkpt lat="38.912347" lon="-120.136807"></trkpt>
<trkpt lat="38.912320" lon="-120.136863"></trkpt>
<trkpt lat="38.912203" lon="-120.136855"></trkpt>
<trkpt lat="38.912212" lon="-120.136918"></trkpt>
<trkpt lat="38.912729" lon="-120.137054"></trkpt>
<trkpt lat="38.912825" lon="-120.137182"></trkpt>
<trkpt lat="38.912917" lon="-120.137118"></trkpt>
<trkpt lat="38.913000" lon="-120.137228"></trkpt>
<trkpt lat="38.913530" lon="-120.137400"></trkpt>
<trkpt lat="38.914313" lon="-120.137888"></trkpt>
<trkpt lat="38.914536" lon="-120.137960"></trkpt>
<trkpt lat="38.914517" lon="-120.138001"></trkpt>
<trkpt lat="38.914357" lon="-120.138035"></trkpt>
<trkpt lat="38.914132" lon="-120.138013"></trkpt>
<trkpt lat="38.914346" lon="-120.138145"></trkpt>
<trkpt lat="38.914534" lon="-120.138349"></trkpt>
<trkpt lat="38.914713" lon="-120.138428"></trkpt>
<trkpt lat="38.914915" lon="-120.138666"></trkpt>
<trkpt lat="38.914698" lon="-120.138573"></trkpt>
<trkpt lat="38.914696" lon="-120.138619"></trkpt>
<trkpt lat="38.914833" lon="-120.138795"></trkpt>
<trkpt lat="38.914966" lon="-120.138943"></trkpt>
<trkpt lat="38.915125" lon="-120.139016"></trkpt>
<trkpt lat="38.915486" lon="-120.139438"></trkpt>
<trkpt lat="38.915997" lon="-120.139935"></trkpt>
<trkpt lat="38.916375" lon="-120.140254"></trkpt>
<trkpt lat="38.916761" lon="-120.140468"></trkpt>
<trkpt lat="38.916863" lon="-120.140586"></trkpt>
<trkpt lat="38.916968" lon="-120.140800"></trkpt>
<trkpt lat="38.917091" lon="-120.141168"></trkpt>
<trkpt lat="38.917070" lon="-120.141388"></trkpt>
<trkpt lat="38.917093" lon="-120.141545"></trkpt>
<trkpt lat="38.917209" lon="-120.141879"></trkpt>
<trkpt lat="38.917274" lon="-120.142335"></trkpt>
<trkpt lat="38.917266" lon="-120.142375"></trkpt>
<trkpt lat="38.917228" lon="-120.142381"></trkpt>
<trkpt lat="38.917126" lon="-120.142343"></trkpt>
<trkpt lat="38.917145" lon="-120.142567"></trkpt>
<trkpt lat="38.917290" lon="-120.142817"></trkpt>
<trkpt lat="38.917314" lon="-120.142980"></trkpt>
<trkpt lat="38.917375" lon="-120.143128"></trkpt>
<trkpt lat="38.917967" lon="-120.143745"></trkpt>
<trkpt lat="38.918298" lon="-120.144231"></trkpt>
<trkpt lat="38.918453" lon="-120.144596"></trkpt>
<trkpt lat="38.918492" lon="-120.144776"></trkpt>
<trkpt lat="38.918601" lon="-120.144965"></trkpt>
<trkpt lat="38.918923" lon="-120.144933"></trkpt>
<trkpt lat="38.918974" lon="-120.144721"></trkpt>
<trkpt lat="38.919060" lon="-120.144652"></trkpt>
<trkpt lat="38.919452" lon="-120.145015"></trkpt>
<trkpt lat="38.919511" lon="-120.145012"></trkpt>
<trkpt lat="38.919465" lon="-120.144813"></trkpt>
<trkpt lat="38.919685" lon="-120.144957"></trkpt>
<trkpt lat="38.919813" lon="-120.144988"></trkpt>
<trkpt lat="38.919834" lon="-120.144878"></trkpt>
<trkpt lat="38.920048" lon="-120.144778"></trkpt>
<trkpt lat="38.920186" lon="-120.144895"></trkpt>
<trkpt lat="38.920266" lon="-120.144901"></trkpt>
<trkpt lat="38.920303" lon="-120.144837"></trkpt>
<trkpt lat="38.920308" lon="-120.144701"></trkpt>
<trkpt lat="38.920356" lon="-120.144575"></trkpt>
<trkpt lat="38.920387" lon="-120.144623"></trkpt>
<trkpt lat="38.920550" lon="-120.144697"></trkpt>
<trkpt lat="38.920961" lon="-120.144838"></trkpt>
<trkpt lat="38.921028" lon="-120.144808"></trkpt>
<trkpt lat="38.921060" lon="-120.144647"></trkpt>
<trkpt lat="38.921163" lon="-120.144667"></trkpt>
<trkpt lat="38.921191" lon="-120.144720"></trkpt>
<trkpt lat="38.921234" lon="-120.144730"></trkpt>
<trkpt lat="38.921392" lon="-120.144356"></trkpt>
<trkpt lat="38.921462" lon="-120.144052"></trkpt>
<trkpt lat="38.921577" lon="-120.144011"></trkpt>
<trkpt lat="38.921679" lon="-120.143853"></trkpt>
<trkpt lat="38.921791" lon="-120.143591"></trkpt>
<trkpt lat="38.921844" lon="-120.143544"></trkpt>
<trkpt lat="38.922296" lon="-120.143404"></trkpt>
<trkpt lat="38.922463" lon="-120.143030"></trkpt>
<trkpt lat="38.922683" lon="-120.142761"></trkpt>
<trkpt lat="38.922734" lon="-120.142641"></trkpt>
<trkpt lat="38.922740" lon="-120.142537"></trkpt>
<trkpt lat="38.922672" lon="-120.142089"></trkpt>
<trkpt lat="38.922682" lon="-120.141908"></trkpt>
<trkpt lat="38.922827" lon="-120.141476"></trkpt>
<trkpt lat="38.922975" lon="-120.141176"></trkpt>
<trkpt lat="38.923054" lon="-120.141109"></trkpt>
<trkpt lat="38.923251" lon="-120.141050"></trkpt>
<trkpt lat="38.923359" lon="-120.140912"></trkpt>
<trkpt lat="38.923423" lon="-120.140727"></trkpt>
<trkpt lat="38.923461" lon="-120.140497"></trkpt>
<trkpt lat="38.923586" lon="-120.140208"></trkpt>
<trkpt lat="38.923558" lon="-120.140073"></trkpt>
<trkpt lat="38.923663" lon="-120.139782"></trkpt>
<trkpt lat="38.923797" lon="-120.139639"></trkpt>
<trkpt lat="38.924128" lon="-120.139548"></trkpt>
<trkpt lat="38.924343" lon="-120.139428"></trkpt>
<trkpt lat="38.924574" lon="-120.139214"></trkpt>
<trkpt lat="38.924688" lon="-120.139229"></trkpt>
<trkpt lat="38.924880" lon="-120.139157"></trkpt>
<trkpt lat="38.925275" lon="-120.138472"></trkpt>
<trkpt lat="38.925303" lon="-120.138183"></trkpt>
<trkpt lat="38.925564" lon="-120.137868"></trkpt>
<trkpt lat="38.925954" lon="-120.137295"></trkpt>
<trkpt lat="38.926172" lon="-120.137133"></trkpt>
<trkpt lat="38.926320" lon="-120.137132"></trkpt>
<trkpt lat="38.926370" lon="-120.137164"></trkpt>
<trkpt lat="38.926458" lon="-120.137135"></trkpt>
<trkpt lat="38.926479" lon="-120.136930"></trkpt>
<trkpt lat="38.926461" lon="-120.136714"></trkpt>
<trkpt lat="38.926280" lon="-120.136112"></trkpt>
<trkpt lat="38.926422" lon="-120.135368"></trkpt>
<trkpt lat="38.926530" lon="-120.135065"></trkpt>
<trkpt lat="38.926650" lon="-120.134832"></trkpt>
<trkpt lat="38.926676" lon="-120.134828"></trkpt>
<trkpt lat="38.926704" lon="-120.134909"></trkpt>
<trkpt lat="38.926737" lon="-120.134907"></trkpt>
<trkpt lat="38.926853" lon="-120.134697"></trkpt>
<trkpt lat="38.927212" lon="-120.134392"></trkpt>
<trkpt lat="38.927267" lon="-120.134286"></trkpt>
<trkpt lat="38.927270" lon="-120.134193"></trkpt>
<trkpt lat="38.927182" lon="-120.134003"></trkpt>
<trkpt lat="38.927241" lon="-120.133781"></trkpt>
<trkpt lat="38.927241" lon="-120.133635"></trkpt>
<trkpt lat="38.927162" lon="-120.133330"></trkpt>
<trkpt lat="38.927073" lon="-120.133253"></trkpt>
<trkpt lat="38.927064" lon="-120.133205"></trkpt>
<trkpt lat="38.927187" lon="-120.132959"></trkpt>
<trkpt lat="38.927299" lon="-120.132949"></trkpt>
<trkpt lat="38.927403" lon="-120.132867"></trkpt>
<trkpt lat="38.927552" lon="-120.132869"></trkpt>
<trkpt lat="38.927655" lon="-120.132717"></trkpt>
<trkpt lat="38.927864" lon="-120.132581"></trkpt>
<trkpt lat="38.927821" lon="-120.132375"></trkpt>
<trkpt lat="38.927874" lon="-120.132238"></trkpt>
<trkpt lat="38.927806" lon="-120.132114"></trkpt>
<trkpt lat="38.927662" lon="-120.131326"></trkpt>
<trkpt lat="38.927758" lon="-120.130985"></trkpt>
<trkpt lat="38.927716" lon="-120.130881"></trkpt>
<trkpt lat="38.927537" lon="-120.130667"></trkpt>
<trkpt lat="38.927510" lon="-120.130362"></trkpt>
<trkpt lat="38.927435" lon="-120.130115"></trkpt>
<trkpt lat="38.927449" lon="-120.130060"></trkpt>
<trkpt lat="38.927603" lon="-120.129966"></trkpt>
<trkpt lat="38.927669" lon="-120.129591"></trkpt>
<trkpt lat="38.927745" lon="-120.129387"></trkpt>
<trkpt lat="38.927745" lon="-120.128606"></trkpt>
<trkpt lat="38.927878" lon="-120.127789"></trkpt>
<trkpt lat="38.927975" lon="-120.127602"></trkpt>
<trkpt lat="38.928174" lon="-120.127426"></trkpt>
<trkpt lat="38.928303" lon="-120.127103"></trkpt>
<trkpt lat="38.928314" lon="-120.126930"></trkpt>
<trkpt lat="38.928266" lon="-120.126767"></trkpt>
<trkpt lat="38.927976" lon="-120.126256"></trkpt>
<trkpt lat="38.927898" lon="-120.126195"></trkpt>
<trkpt lat="38.927689" lon="-120.126126"></trkpt>
<trkpt lat="38.927466" lon="-120.125912"></trkpt>
<trkpt lat="38.927427" lon="-120.125830"></trkpt>
<trkpt lat="38.927462" lon="-120.125669"></trkpt>
<trkpt lat="38.927237" lon="-120.125424"></trkpt>
<trkpt lat="38.927150" lon="-120.125074"></trkpt>
<trkpt lat="38.927159" lon="-120.125029"></trkpt>
<trkpt lat="38.927356" lon="-120.124838"></trkpt>
<trkpt lat="38.927370" lon="-120.124749"></trkpt>
<trkpt lat="38.927324" lon="-120.124632"></trkpt>
<trkpt lat="38.927320" lon="-120.124522"></trkpt>
<trkpt lat="38.928004" lon="-120.123833"></trkpt>
<trkpt lat="38.928256" lon="-120.123423"></trkpt>
<trkpt lat="38.928419" lon="-120.122897"></trkpt>
<trkpt lat="38.929032" lon="-120.122383"></trkpt>
<trkpt lat="38.929307" lon="-120.121964"></trkpt>
<trkpt lat="38.929498" lon="-120.121482"></trkpt>
<trkpt lat="38.929543" lon="-120.121259"></trkpt>
<trkpt lat="38.929684" lon="-120.120995"></trkpt>
<trkpt lat="38.930022" lon="-120.120962"></trkpt>
<trkpt lat="38.930367" lon="-120.121174"></trkpt>
<trkpt lat="38.930524" lon="-120.121210"></trkpt>
<trkpt lat="38.930654" lon="-120.121187"></trkpt>
<trkpt lat="38.930840" lon="-120.121029"></trkpt>
<trkpt lat="38.930855" lon="-120.120935"></trkpt>
<trkpt lat="38.930794" lon="-120.120621"></trkpt>
<trkpt lat="38.930712" lon="-120.120425"></trkpt>
<trkpt lat="38.930717" lon="-120.119984"></trkpt>
<trkpt lat="38.930805" lon="-120.119862"></trkpt>
<trkpt lat="38.931022" lon="-120.119680"></trkpt>
<trkpt lat="38.931369" lon="-120.118789"></trkpt>
<trkpt lat="38.931794" lon="-120.118215"></trkpt>
<trkpt lat="38.932026" lon="-120.117740"></trkpt>
<trkpt lat="38.932684" lon="-120.116698"></trkpt>
<trkpt lat="38.932889" lon="-120.116283"></trkpt>
<trkpt lat="38.933070" lon="-120.116092"></trkpt>
<trkpt lat="38.933283" lon="-120.115945"></trkpt>
<trkpt lat="38.933483" lon="-120.115867"></trkpt>
<trkpt lat="38.933655" lon="-120.115596"></trkpt>
<trkpt lat="38.933847" lon="-120.115416"></trkpt>
<trkpt lat="38.934166" lon="-120.115210"></trkpt>
<trkpt lat="38.934345" lon="-120.115137"></trkpt>
<trkpt lat="38.934443" lon="-120.115019"></trkpt>
<trkpt lat="38.934472" lon="-120.114799"></trkpt>
<trkpt lat="38.934358" lon="-120.114863"></trkpt>
<trkpt lat="38.934284" lon="-120.114702"></trkpt>
<trkpt lat="38.934029" lon="-120.114594"></trkpt>
<trkpt lat="38.933938" lon="-120.114447"></trkpt>
<trkpt lat="38.933686" lon="-120.114468"></trkpt>
<trkpt lat="38.933555" lon="-120.114167"></trkpt>
<trkpt lat="38.933400" lon="-120.114243"></trkpt>
<trkpt lat="38.933235" lon="-120.114153"></trkpt>
<trkpt lat="38.933162" lon="-120.114023"></trkpt>
<trkpt lat="38.932927" lon="-120.113869"></trkpt>
<trkpt lat="38.932881" lon="-120.113624"></trkpt>
<trkpt lat="38.932717" lon="-120.113597"></trkpt>
<trkpt lat="38.932508" lon="-120.113738"></trkpt>
<trkpt lat="38.932366" lon="-120.113762"></trkpt>
<trkpt lat="38.932224" lon="-120.113902"></trkpt>
<trkpt lat="38.932045" lon="-120.113950"></trkpt>
<trkpt lat="38.931661" lon="-120.113836"></trkpt>
<trkpt lat="38.931477" lon="-120.113901"></trkpt>
<trkpt lat="38.931520" lon="-120.113720"></trkpt>
<trkpt lat="38.931477" lon="-120.113901"></trkpt>
<trkpt lat="38.931661" lon="-120.113836"></trkpt>
<trkpt lat="38.932045" lon="-120.113950"></trkpt>
<trkpt lat="38.932224" lon="-120.113902"></trkpt>
<trkpt lat="38.932366" lon="-120.113762"></trkpt>
<trkpt lat="38.932508" lon="-120.113738"></trkpt>
<trkpt lat="38.932717" lon="-120.113597"></trkpt>
<trkpt lat="38.932881" lon="-120.113624"></trkpt>
<trkpt lat="38.932927" lon="-120.113869"></trkpt>
<trkpt lat="38.933162" lon="-120.114023"></trkpt>
<trkpt lat="38.933235" lon="-120.114153"></trkpt>
<trkpt lat="38.933400" lon="-120.114243"></trkpt>
<trkpt lat="38.933555" lon="-120.114167"></trkpt>
<trkpt lat="38.933686" lon="-120.114468"></trkpt>
<trkpt lat="38.933938" lon="-120.114447"></trkpt>
<trkpt lat="38.934029" lon="-120.114594"></trkpt>
<trkpt lat="38.934284" lon="-120.114702"></trkpt>
<trkpt lat="38.934358" lon="-120.114863"></trkpt>
<trkpt lat="38.934472" lon="-120.114799"></trkpt>
<trkpt lat="38.934427" lon="-120.114625"></trkpt>
<trkpt lat="38.933984" lon="-120.114038"></trkpt>
<trkpt lat="38.933915" lon="-120.113842"></trkpt>
<trkpt lat="38.933936" lon="-120.113697"></trkpt>
<trkpt lat="38.934004" lon="-120.113576"></trkpt>
<trkpt lat="38.934027" lon="-120.113312"></trkpt>
<trkpt lat="38.934260" lon="-120.113579"></trkpt>
<trkpt lat="38.934466" lon="-120.113740"></trkpt>
<trkpt lat="38.934494" lon="-120.113747"></trkpt>
<trkpt lat="38.934507" lon="-120.113697"></trkpt>
<trkpt lat="38.934438" lon="-120.113460"></trkpt>
<trkpt lat="38.934443" lon="-120.113295"></trkpt>
<trkpt lat="38.934497" lon="-120.113320"></trkpt>
<trkpt lat="38.934735" lon="-120.113652"></trkpt>
<trkpt lat="38.934896" lon="-120.113772"></trkpt>
<trkpt lat="38.935344" lon="-120.113913"></trkpt>
<trkpt lat="38.935376" lon="-120.113869"></trkpt>
<trkpt lat="38.935350" lon="-120.113753"></trkpt>
<trkpt lat="38.935377" lon="-120.113728"></trkpt>
<trkpt lat="38.936327" lon="-120.114268"></trkpt>
<trkpt lat="38.936588" lon="-120.114246"></trkpt>
<trkpt lat="38.936647" lon="-120.114195"></trkpt>
<trkpt lat="38.936801" lon="-120.114153"></trkpt>
<trkpt lat="38.936973" lon="-120.114016"></trkpt>
<trkpt lat="38.937488" lon="-120.113784"></trkpt>
<trkpt lat="38.937693" lon="-120.113731"></trkpt>
<trkpt lat="38.937966" lon="-120.113548"></trkpt>
<trkpt lat="38.938195" lon="-120.113452"></trkpt>
<trkpt lat="38.938449" lon="-120.113242"></trkpt>
<trkpt lat="38.938473" lon="-120.113174"></trkpt>
<trkpt lat="38.938425" lon="-120.113118"></trkpt>
<trkpt lat="38.937799" lon="-120.113034"></trkpt>
<trkpt lat="38.937730" lon="-120.112966"></trkpt>
<trkpt lat="38.937734" lon="-120.112921"></trkpt>
<trkpt lat="38.937949" lon="-120.112631"></trkpt>
<trkpt lat="38.938081" lon="-120.112365"></trkpt>
<trkpt lat="38.938231" lon="-120.112179"></trkpt>
<trkpt lat="38.938368" lon="-120.112093"></trkpt>
<trkpt lat="38.938481" lon="-120.111966"></trkpt>
<trkpt lat="38.938858" lon="-120.111421"></trkpt>
<trkpt lat="38.938848" lon="-120.111346"></trkpt>
<trkpt lat="38.938820" lon="-120.111327"></trkpt>
<trkpt lat="38.938601" lon="-120.111323"></trkpt>
<trkpt lat="38.938720" lon="-120.110983"></trkpt>
<trkpt lat="38.938851" lon="-120.110870"></trkpt>
<trkpt lat="38.939167" lon="-120.110768"></trkpt>
<trkpt lat="38.939258" lon="-120.110677"></trkpt>
<trkpt lat="38.939421" lon="-120.110621"></trkpt>
<trkpt lat="38.939626" lon="-120.110379"></trkpt>
<trkpt lat="38.939872" lon="-120.110199"></trkpt>
<trkpt lat="38.939916" lon="-120.110130"></trkpt>
<trkpt lat="38.939951" lon="-120.109872"></trkpt>
<trkpt lat="38.940131" lon="-120.109583"></trkpt>
<trkpt lat="38.940254" lon="-120.109287"></trkpt>
<trkpt lat="38.940379" lon="-120.109110"></trkpt>
<trkpt lat="38.940454" lon="-120.108896"></trkpt>
<trkpt lat="38.940681" lon="-120.108676"></trkpt>
<trkpt lat="38.941071" lon="-120.108478"></trkpt>
<trkpt lat="38.941165" lon="-120.108386"></trkpt>
<trkpt lat="38.941353" lon="-120.108134"></trkpt>
<trkpt lat="38.941468" lon="-120.107874"></trkpt>
<trkpt lat="38.941774" lon="-120.107614"></trkpt>
<trkpt lat="38.942059" lon="-120.107300"></trkpt>
<trkpt lat="38.942153" lon="-120.107095"></trkpt>
<trkpt lat="38.942325" lon="-120.107000"></trkpt>
<trkpt lat="38.942473" lon="-120.106805"></trkpt>
<trkpt lat="38.942833" lon="-120.106682"></trkpt>
<trkpt lat="38.943186" lon="-120.106411"></trkpt>
<trkpt lat="38.943495" lon="-120.106267"></trkpt>
<trkpt lat="38.943613" lon="-120.106098"></trkpt>
<trkpt lat="38.943563" lon="-120.105884"></trkpt>
<trkpt lat="38.943610" lon="-120.105818"></trkpt>
<trkpt lat="38.943854" lon="-120.105797"></trkpt>
<trkpt lat="38.944113" lon="-120.105641"></trkpt>
<trkpt lat="38.944335" lon="-120.105617"></trkpt>
<trkpt lat="38.944115" lon="-120.105341"></trkpt>
<trkpt lat="38.943923" lon="-120.105007"></trkpt>
<trkpt lat="38.943888" lon="-120.104873"></trkpt>
<trkpt lat="38.943949" lon="-120.104638"></trkpt>
<trkpt lat="38.943901" lon="-120.104531"></trkpt>
<trkpt lat="38.943753" lon="-120.104430"></trkpt>
<trkpt lat="38.943447" lon="-120.104384"></trkpt>
<trkpt lat="38.943359" lon="-120.104258"></trkpt>
<trkpt lat="38.943292" lon="-120.103851"></trkpt>
<trkpt lat="38.943002" lon="-120.103145"></trkpt>
<trkpt lat="38.942960" lon="-120.102982"></trkpt>
<trkpt lat="38.942973" lon="-120.102901"></trkpt>
<trkpt lat="38.943113" lon="-120.102960"></trkpt>
<trkpt lat="38.943169" lon="-120.102948"></trkpt>
<trkpt lat="38.943086" lon="-120.102711"></trkpt>
<trkpt lat="38.942852" lon="-120.102351"></trkpt>
<trkpt lat="38.942641" lon="-120.102115"></trkpt>
<trkpt lat="38.942105" lon="-120.101804"></trkpt>
<trkpt lat="38.941982" lon="-120.101689"></trkpt>
<trkpt lat="38.941997" lon="-120.101635"></trkpt>
<trkpt lat="38.942040" lon="-120.101622"></trkpt>
<trkpt lat="38.943106" lon="-120.101649"></trkpt>
<trkpt lat="38.943376" lon="-120.101608"></trkpt>
<trkpt lat="38.943486" lon="-120.101557"></trkpt>
<trkpt lat="38.943472" lon="-120.101496"></trkpt>
<trkpt lat="38.943244" lon="-120.101262"></trkpt>
<trkpt lat="38.943219" lon="-120.101187"></trkpt>
<trkpt lat="38.943246" lon="-120.101099"></trkpt>
<trkpt lat="38.943438" lon="-120.100983"></trkpt>
<trkpt lat="38.943401" lon="-120.100624"></trkpt>
<trkpt lat="38.943586" lon="-120.100043"></trkpt>
</trkseg></trk>
</gpx>
