<?xml version="1.0" encoding="UTF-8"?>
<gpx version="1.1" creator="Eric Sichak trip reports" xmlns="http://www.topografix.com/GPX/1/1">
<metadata><name>Chamonix–Zermatt Haute Route – Day 1</name><time>2024-03-10T11:37:04Z</time></metadata>
<trk><name>Chamonix–Zermatt Haute Route – Day 1</name><type>ski</type><trkseg>
<trkpt lat="45.982771" lon="6.926550"><ele>1259.0</ele><time>2024-03-10T11:37:04Z</time></trkpt>
<trkpt lat="45.982758" lon="6.926571"><ele>1257.8</ele><time>2024-03-10T11:37:18Z</time></trkpt>
<trkpt lat="45.982787" lon="6.926565"><ele>1256.8</ele><time>2024-03-10T11:38:38Z</time></trkpt>
<trkpt lat="45.982767" lon="6.926561"><ele>1257.0</ele><time>2024-03-10T11:38:45Z</time></trkpt>
<trkpt lat="45.982759" lon="6.926686"><ele>1256.8</ele><time>2024-03-10T11:39:01Z</time></trkpt>
<trkpt lat="45.982712" lon="6.926712"><ele>1256.6</ele><time>2024-03-10T11:39:07Z</time></trkpt>
<trkpt lat="45.982486" lon="6.926634"><ele>1255.8</ele><time>2024-03-10T11:39:27Z</time></trkpt>
<trkpt lat="45.982251" lon="6.926617"><ele>1255.0</ele><time>2024-03-10T11:39:49Z</time></trkpt>
<trkpt lat="45.982126" lon="6.926445"><ele>1255.0</ele><time>2024-03-10T11:40:03Z</time></trkpt>
<trkpt lat="45.982089" lon="6.926333"><ele>1255.0</ele><time>2024-03-10T11:40:10Z</time></trkpt>
<trkpt lat="45.982171" lon="6.925994"><ele>1253.6</ele><time>2024-03-10T11:40:30Z</time></trkpt>
<trkpt lat="45.981867" lon="6.925775"><ele>1251.6</ele><time>2024-03-10T11:40:56Z</time></trkpt>
<trkpt lat="45.981547" lon="6.925657"><ele>1250.8</ele><time>2024-03-10T11:41:21Z</time></trkpt>
<trkpt lat="45.981316" lon="6.925346"><ele>1248.6</ele><time>2024-03-10T11:41:45Z</time></trkpt>
<trkpt lat="45.981127" lon="6.925701"><ele>1245.0</ele><time>2024-03-10T11:42:27Z</time></trkpt>
<trkpt lat="45.981046" lon="6.925841"><ele>1240.6</ele><time>2024-03-10T11:42:41Z</time></trkpt>
<trkpt lat="45.980876" lon="6.925925"><ele>1238.6</ele><time>2024-03-10T11:42:55Z</time></trkpt>
<trkpt lat="45.980831" lon="6.925935"><ele>1238.0</ele><time>2024-03-10T11:42:58Z</time></trkpt>
<trkpt lat="45.980769" lon="6.925857"><ele>1237.2</ele><time>2024-03-10T11:43:02Z</time></trkpt>
<trkpt lat="45.980562" lon="6.925295"><ele>1234.2</ele><time>2024-03-10T11:43:34Z</time></trkpt>
<trkpt lat="45.980474" lon="6.925269"><ele>1233.8</ele><time>2024-03-10T11:43:41Z</time></trkpt>
<trkpt lat="45.980311" lon="6.925341"><ele>1233.4</ele><time>2024-03-10T11:43:52Z</time></trkpt>
<trkpt lat="45.980166" lon="6.925462"><ele>1232.4</ele><time>2024-03-10T11:44:07Z</time></trkpt>
<trkpt lat="45.979931" lon="6.925559"><ele>1232.8</ele><time>2024-03-10T11:44:25Z</time></trkpt>
<trkpt lat="45.979159" lon="6.926113"><ele>1233.0</ele><time>2024-03-10T11:45:30Z</time></trkpt>
<trkpt lat="45.979069" lon="6.926214"><ele>1233.4</ele><time>2024-03-10T11:45:38Z</time></trkpt>
<trkpt lat="45.979036" lon="6.926340"><ele>1233.6</ele><time>2024-03-10T11:45:45Z</time></trkpt>
<trkpt lat="45.979021" lon="6.926660"><ele>1234.8</ele><time>2024-03-10T11:46:02Z</time></trkpt>
<trkpt lat="45.978959" lon="6.926954"><ele>1236.8</ele><time>2024-03-10T11:46:19Z</time></trkpt>
<trkpt lat="45.978948" lon="6.927367"><ele>1239.0</ele><time>2024-03-10T11:46:40Z</time></trkpt>
<trkpt lat="45.978806" lon="6.927762"><ele>1242.4</ele><time>2024-03-10T11:47:07Z</time></trkpt>
<trkpt lat="45.978838" lon="6.927933"><ele>1242.2</ele><time>2024-03-10T11:47:25Z</time></trkpt>
<trkpt lat="45.978941" lon="6.927897"><ele>1242.2</ele><time>2024-03-10T11:47:37Z</time></trkpt>
<trkpt lat="45.978993" lon="6.927951"><ele>1242.0</ele><time>2024-03-10T11:47:46Z</time></trkpt>
<trkpt lat="45.978944" lon="6.928217"><ele>1242.0</ele><time>2024-03-10T11:48:08Z</time></trkpt>
<trkpt lat="45.978980" lon="6.928246"><ele>1241.8</ele><time>2024-03-10T11:48:16Z</time></trkpt>
<trkpt lat="45.978872" lon="6.928341"><ele>1241.4</ele><time>2024-03-10T11:48:55Z</time></trkpt>
<trkpt lat="45.978905" lon="6.928345"><ele>1240.8</ele><time>2024-03-10T11:49:06Z</time></trkpt>
<trkpt lat="45.978664" lon="6.928449"><ele>1242.6</ele><time>2024-03-10T11:49:16Z</time></trkpt>
<trkpt lat="45.978403" lon="6.928651"><ele>1253.0</ele><time>2024-03-10T11:49:24Z</time></trkpt>
<trkpt lat="45.977769" lon="6.929073"><ele>1265.0</ele><time>2024-03-10T11:49:43Z</time></trkpt>
<trkpt lat="45.977142" lon="6.929526"><ele>1271.0</ele><time>2024-03-10T11:50:02Z</time></trkpt>
<trkpt lat="45.976851" lon="6.929758"><ele>1276.8</ele><time>2024-03-10T11:50:12Z</time></trkpt>
<trkpt lat="45.976460" lon="6.930038"><ele>1289.0</ele><time>2024-03-10T11:50:24Z</time></trkpt>
<trkpt lat="45.975896" lon="6.930437"><ele>1312.6</ele><time>2024-03-10T11:50:43Z</time></trkpt>
<trkpt lat="45.975233" lon="6.930899"><ele>1348.0</ele><time>2024-03-10T11:51:05Z</time></trkpt>
<trkpt lat="45.974569" lon="6.931315"><ele>1392.4</ele><time>2024-03-10T11:51:28Z</time></trkpt>
<trkpt lat="45.974077" lon="6.931615"><ele>1428.4</ele><time>2024-03-10T11:51:45Z</time></trkpt>
<trkpt lat="45.973945" lon="6.931715"><ele>1441.8</ele><time>2024-03-10T11:51:51Z</time></trkpt>
<trkpt lat="45.973715" lon="6.931866"><ele>1453.0</ele><time>2024-03-10T11:51:58Z</time></trkpt>
<trkpt lat="45.973318" lon="6.932229"><ele>1476.8</ele><time>2024-03-10T11:52:12Z</time></trkpt>
<trkpt lat="45.972330" lon="6.932949"><ele>1547.0</ele><time>2024-03-10T11:52:48Z</time></trkpt>
<trkpt lat="45.971655" lon="6.933441"><ele>1604.0</ele><time>2024-03-10T11:53:13Z</time></trkpt>
<trkpt lat="45.970984" lon="6.933888"><ele>1666.6</ele><time>2024-03-10T11:53:38Z</time></trkpt>
<trkpt lat="45.970875" lon="6.933949"><ele>1673.2</ele><time>2024-03-10T11:53:41Z</time></trkpt>
<trkpt lat="45.970766" lon="6.934019"><ele>1686.6</ele><time>2024-03-10T11:53:46Z</time></trkpt>
<trkpt lat="45.970146" lon="6.934435"><ele>1737.6</ele><time>2024-03-10T11:54:08Z</time></trkpt>
<trkpt lat="45.969850" lon="6.934708"><ele>1769.2</ele><time>2024-03-10T11:54:21Z</time></trkpt>
<trkpt lat="45.969522" lon="6.934973"><ele>1810.0</ele><time>2024-03-10T11:54:37Z</time></trkpt>
<trkpt lat="45.968974" lon="6.935330"><ele>1850.6</ele><time>2024-03-10T11:54:55Z</time></trkpt>
<trkpt lat="45.968687" lon="6.935550"><ele>1878.4</ele><time>2024-03-10T11:55:07Z</time></trkpt>
<trkpt lat="45.968412" lon="6.935753"><ele>1894.0</ele><time>2024-03-10T11:55:16Z</time></trkpt>
<trkpt lat="45.968301" lon="6.935854"><ele>1904.8</ele><time>2024-03-10T11:55:22Z</time></trkpt>
<trkpt lat="45.967511" lon="6.936423"><ele>1935.4</ele><time>2024-03-10T11:55:48Z</time></trkpt>
<trkpt lat="45.966752" lon="6.936970"><ele>1972.8</ele><time>2024-03-10T11:56:14Z</time></trkpt>
<trkpt lat="45.965649" lon="6.937720"><ele>2015.8</ele><time>2024-03-10T11:56:49Z</time></trkpt>
<trkpt lat="45.965104" lon="6.938122"><ele>2041.8</ele><time>2024-03-10T11:57:07Z</time></trkpt>
<trkpt lat="45.964342" lon="6.938717"><ele>2087.0</ele><time>2024-03-10T11:57:35Z</time></trkpt>
<trkpt lat="45.962972" lon="6.939671"><ele>2118.4</ele><time>2024-03-10T11:58:18Z</time></trkpt>
<trkpt lat="45.961956" lon="6.940384"><ele>2153.4</ele><time>2024-03-10T11:58:51Z</time></trkpt>
<trkpt lat="45.961773" lon="6.940537"><ele>2154.8</ele><time>2024-03-10T11:59:04Z</time></trkpt>
<trkpt lat="45.961634" lon="6.940699"><ele>2153.8</ele><time>2024-03-10T11:59:28Z</time></trkpt>
<trkpt lat="45.961619" lon="6.940741"><ele>2154.0</ele><time>2024-03-10T11:59:33Z</time></trkpt>
<trkpt lat="45.961685" lon="6.940783"><ele>2152.8</ele><time>2024-03-10T12:01:40Z</time></trkpt>
<trkpt lat="45.961662" lon="6.940837"><ele>2153.2</ele><time>2024-03-10T12:02:05Z</time></trkpt>
<trkpt lat="45.961655" lon="6.940798"><ele>2152.4</ele><time>2024-03-10T12:02:57Z</time></trkpt>
<trkpt lat="45.961744" lon="6.940822"><ele>2151.8</ele><time>2024-03-10T12:03:22Z</time></trkpt>
<trkpt lat="45.961988" lon="6.940952"><ele>2150.0</ele><time>2024-03-10T12:03:29Z</time></trkpt>
<trkpt lat="45.962326" lon="6.941202"><ele>2145.6</ele><time>2024-03-10T12:03:37Z</time></trkpt>
<trkpt lat="45.962509" lon="6.941267"><ele>2142.6</ele><time>2024-03-10T12:03:41Z</time></trkpt>
<trkpt lat="45.962708" lon="6.941410"><ele>2136.6</ele><time>2024-03-10T12:03:46Z</time></trkpt>
<trkpt lat="45.962805" lon="6.941401"><ele>2132.8</ele><time>2024-03-10T12:03:48Z</time></trkpt>
<trkpt lat="45.962885" lon="6.941474"><ele>2129.8</ele><time>2024-03-10T12:03:50Z</time></trkpt>
<trkpt lat="45.963066" lon="6.941538"><ele>2122.0</ele><time>2024-03-10T12:03:54Z</time></trkpt>
<trkpt lat="45.963135" lon="6.941488"><ele>2118.0</ele><time>2024-03-10T12:03:56Z</time></trkpt>
<trkpt lat="45.963218" lon="6.941603"><ele>2113.2</ele><time>2024-03-10T12:03:59Z</time></trkpt>
<trkpt lat="45.963289" lon="6.941577"><ele>2109.4</ele><time>2024-03-10T12:04:01Z</time></trkpt>
<trkpt lat="45.963371" lon="6.941635"><ele>2103.8</ele><time>2024-03-10T12:04:04Z</time></trkpt>
<trkpt lat="45.963464" lon="6.941686"><ele>2102.2</ele><time>2024-03-10T12:04:06Z</time></trkpt>
<trkpt lat="45.963507" lon="6.941779"><ele>2097.8</ele><time>2024-03-10T12:04:08Z</time></trkpt>
<trkpt lat="45.963593" lon="6.941736"><ele>2095.0</ele><time>2024-03-10T12:04:11Z</time></trkpt>
<trkpt lat="45.963654" lon="6.941792"><ele>2091.2</ele><time>2024-03-10T12:04:13Z</time></trkpt>
<trkpt lat="45.963812" lon="6.941811"><ele>2084.8</ele><time>2024-03-10T12:04:17Z</time></trkpt>
<trkpt lat="45.963976" lon="6.941883"><ele>2077.8</ele><time>2024-03-10T12:04:21Z</time></trkpt>
<trkpt lat="45.964074" lon="6.941968"><ele>2074.6</ele><time>2024-03-10T12:04:23Z</time></trkpt>
<trkpt lat="45.964273" lon="6.942033"><ele>2065.2</ele><time>2024-03-10T12:04:27Z</time></trkpt>
<trkpt lat="45.964267" lon="6.942051"><ele>2061.4</ele><time>2024-03-10T12:04:35Z</time></trkpt>
<trkpt lat="45.964246" lon="6.942068"><ele>2062.2</ele><time>2024-03-10T12:05:14Z</time></trkpt>
<trkpt lat="45.964270" lon="6.942150"><ele>2062.2</ele><time>2024-03-10T12:05:16Z</time></trkpt>
<trkpt lat="45.964386" lon="6.942277"><ele>2060.0</ele><time>2024-03-10T12:05:19Z</time></trkpt>
<trkpt lat="45.964526" lon="6.942516"><ele>2052.4</ele><time>2024-03-10T12:05:24Z</time></trkpt>
<trkpt lat="45.964572" lon="6.942805"><ele>2045.4</ele><time>2024-03-10T12:05:28Z</time></trkpt>
<trkpt lat="45.964623" lon="6.942834"><ele>2042.4</ele><time>2024-03-10T12:05:29Z</time></trkpt>
<trkpt lat="45.965236" lon="6.943140"><ele>2033.4</ele><time>2024-03-10T12:05:34Z</time></trkpt>
<trkpt lat="45.965508" lon="6.943318"><ele>2024.8</ele><time>2024-03-10T12:05:36Z</time></trkpt>
<trkpt lat="45.965639" lon="6.943361"><ele>2024.0</ele><time>2024-03-10T12:05:37Z</time></trkpt>
<trkpt lat="45.965796" lon="6.943422"><ele>2017.4</ele><time>2024-03-10T12:05:38Z</time></trkpt>
<trkpt lat="45.966214" lon="6.943575"><ele>2012.8</ele><time>2024-03-10T12:05:41Z</time></trkpt>
<trkpt lat="45.966612" lon="6.943654"><ele>2003.0</ele><time>2024-03-10T12:05:44Z</time></trkpt>
<trkpt lat="45.966869" lon="6.943649"><ele>2000.4</ele><time>2024-03-10T12:05:46Z</time></trkpt>
<trkpt lat="45.967100" lon="6.943665"><ele>1994.4</ele><time>2024-03-10T12:05:48Z</time></trkpt>
<trkpt lat="45.967506" lon="6.943704"><ele>1990.6</ele><time>2024-03-10T12:05:52Z</time></trkpt>
<trkpt lat="45.968016" lon="6.943640"><ele>1985.8</ele><time>2024-03-10T12:06:01Z</time></trkpt>
<trkpt lat="45.968070" lon="6.943676"><ele>1985.8</ele><time>2024-03-10T12:06:03Z</time></trkpt>
<trkpt lat="45.968204" lon="6.943973"><ele>1985.8</ele><time>2024-03-10T12:06:14Z</time></trkpt>
<trkpt lat="45.968207" lon="6.944124"><ele>1985.6</ele><time>2024-03-10T12:06:19Z</time></trkpt>
<trkpt lat="45.968147" lon="6.944406"><ele>1985.0</ele><time>2024-03-10T12:06:40Z</time></trkpt>
<trkpt lat="45.968099" lon="6.944450"><ele>1985.4</ele><time>2024-03-10T12:06:50Z</time></trkpt>
<trkpt lat="45.968107" lon="6.944476"><ele>1984.8</ele><time>2024-03-10T12:07:20Z</time></trkpt>
<trkpt lat="45.967870" lon="6.944620"><ele>1984.0</ele><time>2024-03-10T12:07:30Z</time></trkpt>
<trkpt lat="45.967685" lon="6.944771"><ele>1988.0</ele><time>2024-03-10T12:07:35Z</time></trkpt>
<trkpt lat="45.967357" lon="6.945037"><ele>2009.2</ele><time>2024-03-10T12:07:46Z</time></trkpt>
<trkpt lat="45.967028" lon="6.945311"><ele>2037.0</ele><time>2024-03-10T12:07:59Z</time></trkpt>
<trkpt lat="45.966547" lon="6.945693"><ele>2065.4</ele><time>2024-03-10T12:08:15Z</time></trkpt>
<trkpt lat="45.966014" lon="6.946139"><ele>2105.4</ele><time>2024-03-10T12:08:35Z</time></trkpt>
<trkpt lat="45.965644" lon="6.946416"><ele>2125.8</ele><time>2024-03-10T12:08:47Z</time></trkpt>
<trkpt lat="45.965300" lon="6.946692"><ele>2151.4</ele><time>2024-03-10T12:09:00Z</time></trkpt>
<trkpt lat="45.964798" lon="6.947095"><ele>2180.4</ele><time>2024-03-10T12:09:17Z</time></trkpt>
<trkpt lat="45.964651" lon="6.947217"><ele>2192.8</ele><time>2024-03-10T12:09:22Z</time></trkpt>
<trkpt lat="45.964594" lon="6.947277"><ele>2201.8</ele><time>2024-03-10T12:09:25Z</time></trkpt>
<trkpt lat="45.964384" lon="6.947462"><ele>2214.2</ele><time>2024-03-10T12:09:33Z</time></trkpt>
<trkpt lat="45.963673" lon="6.948036"><ele>2244.4</ele><time>2024-03-10T12:09:57Z</time></trkpt>
<trkpt lat="45.963165" lon="6.948445"><ele>2274.6</ele><time>2024-03-10T12:10:15Z</time></trkpt>
<trkpt lat="45.962337" lon="6.949112"><ele>2312.8</ele><time>2024-03-10T12:10:43Z</time></trkpt>
<trkpt lat="45.961687" lon="6.949632"><ele>2352.2</ele><time>2024-03-10T12:11:06Z</time></trkpt>
<trkpt lat="45.961187" lon="6.950046"><ele>2376.2</ele><time>2024-03-10T12:11:23Z</time></trkpt>
<trkpt lat="45.960162" lon="6.950876"><ele>2437.0</ele><time>2024-03-10T12:11:59Z</time></trkpt>
<trkpt lat="45.959773" lon="6.951190"><ele>2470.4</ele><time>2024-03-10T12:12:14Z</time></trkpt>
<trkpt lat="45.959024" lon="6.951784"><ele>2546.4</ele><time>2024-03-10T12:12:44Z</time></trkpt>
<trkpt lat="45.958652" lon="6.952098"><ele>2575.0</ele><time>2024-03-10T12:12:58Z</time></trkpt>
<trkpt lat="45.958278" lon="6.952404"><ele>2598.8</ele><time>2024-03-10T12:13:11Z</time></trkpt>
<trkpt lat="45.958218" lon="6.952453"><ele>2604.8</ele><time>2024-03-10T12:13:14Z</time></trkpt>
<trkpt lat="45.958203" lon="6.952455"><ele>2610.8</ele><time>2024-03-10T12:13:23Z</time></trkpt>
<trkpt lat="45.958178" lon="6.952486"><ele>2607.2</ele><time>2024-03-10T12:14:12Z</time></trkpt>
<trkpt lat="45.957829" lon="6.952733"><ele>2614.0</ele><time>2024-03-10T12:14:36Z</time></trkpt>
<trkpt lat="45.957785" lon="6.952839"><ele>2614.0</ele><time>2024-03-10T12:14:39Z</time></trkpt>
<trkpt lat="45.957796" lon="6.952892"><ele>2609.8</ele><time>2024-03-10T12:15:58Z</time></trkpt>
<trkpt lat="45.957780" lon="6.953170"><ele>2608.4</ele><time>2024-03-10T12:16:27Z</time></trkpt>
<trkpt lat="45.957711" lon="6.953342"><ele>2607.8</ele><time>2024-03-10T12:16:41Z</time></trkpt>
<trkpt lat="45.957694" lon="6.953536"><ele>2606.8</ele><time>2024-03-10T12:16:46Z</time></trkpt>
<trkpt lat="45.957792" lon="6.954261"><ele>2603.2</ele><time>2024-03-10T12:16:56Z</time></trkpt>
<trkpt lat="45.957917" lon="6.954519"><ele>2600.8</ele><time>2024-03-10T12:16:59Z</time></trkpt>
<trkpt lat="45.958096" lon="6.954667"><ele>2599.0</ele><time>2024-03-10T12:17:02Z</time></trkpt>
<trkpt lat="45.958298" lon="6.954873"><ele>2593.0</ele><time>2024-03-10T12:17:06Z</time></trkpt>
<trkpt lat="45.958306" lon="6.954922"><ele>2592.8</ele><time>2024-03-10T12:17:07Z</time></trkpt>
<trkpt lat="45.958278" lon="6.954955"><ele>2589.6</ele><time>2024-03-10T12:17:42Z</time></trkpt>
<trkpt lat="45.958381" lon="6.955249"><ele>2588.0</ele><time>2024-03-10T12:17:49Z</time></trkpt>
<trkpt lat="45.958406" lon="6.955503"><ele>2586.4</ele><time>2024-03-10T12:17:53Z</time></trkpt>
<trkpt lat="45.958477" lon="6.955714"><ele>2583.8</ele><time>2024-03-10T12:17:56Z</time></trkpt>
<trkpt lat="45.958549" lon="6.955809"><ele>2580.6</ele><time>2024-03-10T12:17:58Z</time></trkpt>
<trkpt lat="45.958623" lon="6.955734"><ele>2577.2</ele><time>2024-03-10T12:18:01Z</time></trkpt>
<trkpt lat="45.958686" lon="6.955735"><ele>2576.2</ele><time>2024-03-10T12:18:02Z</time></trkpt>
<trkpt lat="45.958771" lon="6.955779"><ele>2569.6</ele><time>2024-03-10T12:18:04Z</time></trkpt>
<trkpt lat="45.958790" lon="6.955722"><ele>2566.6</ele><time>2024-03-10T12:18:05Z</time></trkpt>
<trkpt lat="45.958839" lon="6.955703"><ele>2565.2</ele><time>2024-03-10T12:18:06Z</time></trkpt>
<trkpt lat="45.958925" lon="6.955769"><ele>2561.6</ele><time>2024-03-10T12:18:08Z</time></trkpt>
<trkpt lat="45.958957" lon="6.955746"><ele>2556.4</ele><time>2024-03-10T12:18:09Z</time></trkpt>
<trkpt lat="45.958997" lon="6.955685"><ele>2554.8</ele><time>2024-03-10T12:18:10Z</time></trkpt>
<trkpt lat="45.959073" lon="6.955732"><ele>2551.0</ele><time>2024-03-10T12:18:12Z</time></trkpt>
<trkpt lat="45.959163" lon="6.955648"><ele>2545.6</ele><time>2024-03-10T12:18:14Z</time></trkpt>
<trkpt lat="45.959355" lon="6.955714"><ele>2538.0</ele><time>2024-03-10T12:18:17Z</time></trkpt>
<trkpt lat="45.959394" lon="6.955554"><ele>2534.6</ele><time>2024-03-10T12:18:19Z</time></trkpt>
<trkpt lat="45.959487" lon="6.955413"><ele>2529.0</ele><time>2024-03-10T12:18:21Z</time></trkpt>
<trkpt lat="45.959579" lon="6.955514"><ele>2522.6</ele><time>2024-03-10T12:18:24Z</time></trkpt>
<trkpt lat="45.959648" lon="6.955561"><ele>2522.0</ele><time>2024-03-10T12:18:25Z</time></trkpt>
<trkpt lat="45.959705" lon="6.955547"><ele>2521.8</ele><time>2024-03-10T12:18:26Z</time></trkpt>
<trkpt lat="45.959759" lon="6.955384"><ele>2516.2</ele><time>2024-03-10T12:18:29Z</time></trkpt>
<trkpt lat="45.959887" lon="6.955294"><ele>2513.8</ele><time>2024-03-10T12:18:32Z</time></trkpt>
<trkpt lat="45.959963" lon="6.955379"><ele>2508.2</ele><time>2024-03-10T12:18:34Z</time></trkpt>
<trkpt lat="45.960257" lon="6.955501"><ele>2504.6</ele><time>2024-03-10T12:18:39Z</time></trkpt>
<trkpt lat="45.960278" lon="6.955544"><ele>2503.8</ele><time>2024-03-10T12:18:40Z</time></trkpt>
<trkpt lat="45.960273" lon="6.955531"><ele>2499.6</ele><time>2024-03-10T12:18:45Z</time></trkpt>
<trkpt lat="45.960284" lon="6.955554"><ele>2499.6</ele><time>2024-03-10T12:19:06Z</time></trkpt>
<trkpt lat="45.960446" lon="6.955662"><ele>2498.0</ele><time>2024-03-10T12:19:14Z</time></trkpt>
<trkpt lat="45.960535" lon="6.955678"><ele>2497.0</ele><time>2024-03-10T12:19:16Z</time></trkpt>
<trkpt lat="45.960805" lon="6.955637"><ele>2488.0</ele><time>2024-03-10T12:19:21Z</time></trkpt>
<trkpt lat="45.960871" lon="6.955650"><ele>2487.4</ele><time>2024-03-10T12:19:22Z</time></trkpt>
<trkpt lat="45.960918" lon="6.955688"><ele>2483.8</ele><time>2024-03-10T12:19:23Z</time></trkpt>
<trkpt lat="45.960991" lon="6.955606"><ele>2478.4</ele><time>2024-03-10T12:19:25Z</time></trkpt>
<trkpt lat="45.961026" lon="6.955625"><ele>2477.8</ele><time>2024-03-10T12:19:26Z</time></trkpt>
<trkpt lat="45.961105" lon="6.955591"><ele>2473.0</ele><time>2024-03-10T12:19:28Z</time></trkpt>
<trkpt lat="45.961171" lon="6.955631"><ele>2471.2</ele><time>2024-03-10T12:19:30Z</time></trkpt>
<trkpt lat="45.961194" lon="6.955614"><ele>2467.8</ele><time>2024-03-10T12:19:31Z</time></trkpt>
<trkpt lat="45.961277" lon="6.955538"><ele>2466.4</ele><time>2024-03-10T12:19:33Z</time></trkpt>
<trkpt lat="45.961343" lon="6.955576"><ele>2461.8</ele><time>2024-03-10T12:19:35Z</time></trkpt>
<trkpt lat="45.961425" lon="6.955700"><ele>2458.4</ele><time>2024-03-10T12:19:38Z</time></trkpt>
<trkpt lat="45.961560" lon="6.955789"><ele>2456.2</ele><time>2024-03-10T12:19:41Z</time></trkpt>
<trkpt lat="45.961752" lon="6.955720"><ele>2452.2</ele><time>2024-03-10T12:19:45Z</time></trkpt>
<trkpt lat="45.961873" lon="6.955778"><ele>2447.0</ele><time>2024-03-10T12:19:48Z</time></trkpt>
<trkpt lat="45.961944" lon="6.955682"><ele>2445.4</ele><time>2024-03-10T12:19:50Z</time></trkpt>
<trkpt lat="45.962027" lon="6.955684"><ele>2441.4</ele><time>2024-03-10T12:19:52Z</time></trkpt>
<trkpt lat="45.962091" lon="6.955759"><ele>2435.8</ele><time>2024-03-10T12:19:55Z</time></trkpt>
<trkpt lat="45.962223" lon="6.955825"><ele>2434.6</ele><time>2024-03-10T12:19:59Z</time></trkpt>
<trkpt lat="45.962318" lon="6.955828"><ele>2430.6</ele><time>2024-03-10T12:20:01Z</time></trkpt>
<trkpt lat="45.962433" lon="6.955950"><ele>2426.4</ele><time>2024-03-10T12:20:04Z</time></trkpt>
<trkpt lat="45.962480" lon="6.956052"><ele>2424.0</ele><time>2024-03-10T12:20:06Z</time></trkpt>
<trkpt lat="45.962493" lon="6.956088"><ele>2420.0</ele><time>2024-03-10T12:20:39Z</time></trkpt>
<trkpt lat="45.962462" lon="6.956490"><ele>2414.6</ele><time>2024-03-10T12:20:55Z</time></trkpt>
<trkpt lat="45.962508" lon="6.956499"><ele>2412.0</ele><time>2024-03-10T12:20:57Z</time></trkpt>
<trkpt lat="45.962557" lon="6.956578"><ele>2409.2</ele><time>2024-03-10T12:20:59Z</time></trkpt>
<trkpt lat="45.962652" lon="6.956549"><ele>2403.2</ele><time>2024-03-10T12:21:01Z</time></trkpt>
<trkpt lat="45.962718" lon="6.956670"><ele>2400.0</ele><time>2024-03-10T12:21:03Z</time></trkpt>
<trkpt lat="45.962794" lon="6.956632"><ele>2393.0</ele><time>2024-03-10T12:21:05Z</time></trkpt>
<trkpt lat="45.962873" lon="6.956775"><ele>2389.6</ele><time>2024-03-10T12:21:07Z</time></trkpt>
<trkpt lat="45.962895" lon="6.956826"><ele>2383.4</ele><time>2024-03-10T12:21:08Z</time></trkpt>
<trkpt lat="45.962922" lon="6.956782"><ele>2379.8</ele><time>2024-03-10T12:21:09Z</time></trkpt>
<trkpt lat="45.963020" lon="6.956847"><ele>2377.8</ele><time>2024-03-10T12:21:11Z</time></trkpt>
<trkpt lat="45.963051" lon="6.956911"><ele>2373.6</ele><time>2024-03-10T12:21:12Z</time></trkpt>
<trkpt lat="45.963077" lon="6.956855"><ele>2368.2</ele><time>2024-03-10T12:21:14Z</time></trkpt>
<trkpt lat="45.963165" lon="6.956854"><ele>2364.8</ele><time>2024-03-10T12:21:16Z</time></trkpt>
<trkpt lat="45.963212" lon="6.956937"><ele>2360.2</ele><time>2024-03-10T12:21:18Z</time></trkpt>
<trkpt lat="45.963237" lon="6.956918"><ele>2357.8</ele><time>2024-03-10T12:21:19Z</time></trkpt>
<trkpt lat="45.963310" lon="6.956968"><ele>2355.0</ele><time>2024-03-10T12:21:21Z</time></trkpt>
<trkpt lat="45.963344" lon="6.957156"><ele>2346.8</ele><time>2024-03-10T12:21:25Z</time></trkpt>
<trkpt lat="45.963429" lon="6.957249"><ele>2344.8</ele><time>2024-03-10T12:21:28Z</time></trkpt>
<trkpt lat="45.963496" lon="6.957197"><ele>2341.0</ele><time>2024-03-10T12:21:30Z</time></trkpt>
<trkpt lat="45.963612" lon="6.957249"><ele>2336.8</ele><time>2024-03-10T12:21:33Z</time></trkpt>
<trkpt lat="45.963642" lon="6.957202"><ele>2332.6</ele><time>2024-03-10T12:21:34Z</time></trkpt>
<trkpt lat="45.963688" lon="6.957099"><ele>2331.0</ele><time>2024-03-10T12:21:36Z</time></trkpt>
<trkpt lat="45.963730" lon="6.957103"><ele>2328.0</ele><time>2024-03-10T12:21:37Z</time></trkpt>
<trkpt lat="45.963795" lon="6.957230"><ele>2325.6</ele><time>2024-03-10T12:21:39Z</time></trkpt>
<trkpt lat="45.963813" lon="6.957214"><ele>2321.6</ele><time>2024-03-10T12:21:40Z</time></trkpt>
<trkpt lat="45.963861" lon="6.957193"><ele>2320.4</ele><time>2024-03-10T12:21:41Z</time></trkpt>
<trkpt lat="45.964016" lon="6.957388"><ele>2311.8</ele><time>2024-03-10T12:21:45Z</time></trkpt>
<trkpt lat="45.964066" lon="6.957405"><ele>2311.2</ele><time>2024-03-10T12:21:46Z</time></trkpt>
<trkpt lat="45.964140" lon="6.957264"><ele>2307.2</ele><time>2024-03-10T12:21:49Z</time></trkpt>
<trkpt lat="45.964224" lon="6.957366"><ele>2300.8</ele><time>2024-03-10T12:21:52Z</time></trkpt>
<trkpt lat="45.964392" lon="6.957459"><ele>2297.2</ele><time>2024-03-10T12:21:55Z</time></trkpt>
<trkpt lat="45.964392" lon="6.957412"><ele>2294.2</ele><time>2024-03-10T12:21:56Z</time></trkpt>
<trkpt lat="45.964472" lon="6.957286"><ele>2293.2</ele><time>2024-03-10T12:21:58Z</time></trkpt>
<trkpt lat="45.964654" lon="6.957201"><ele>2285.4</ele><time>2024-03-10T12:22:01Z</time></trkpt>
<trkpt lat="45.964744" lon="6.957283"><ele>2279.6</ele><time>2024-03-10T12:22:03Z</time></trkpt>
<trkpt lat="45.964921" lon="6.957298"><ele>2275.6</ele><time>2024-03-10T12:22:06Z</time></trkpt>
<trkpt lat="45.964945" lon="6.957351"><ele>2274.6</ele><time>2024-03-10T12:22:07Z</time></trkpt>
<trkpt lat="45.964983" lon="6.957380"><ele>2269.4</ele><time>2024-03-10T12:22:08Z</time></trkpt>
<trkpt lat="45.965084" lon="6.957311"><ele>2268.2</ele><time>2024-03-10T12:22:10Z</time></trkpt>
<trkpt lat="45.965224" lon="6.957442"><ele>2260.6</ele><time>2024-03-10T12:22:15Z</time></trkpt>
<trkpt lat="45.965341" lon="6.957503"><ele>2259.0</ele><time>2024-03-10T12:22:18Z</time></trkpt>
<trkpt lat="45.965459" lon="6.957502"><ele>2255.8</ele><time>2024-03-10T12:22:20Z</time></trkpt>
<trkpt lat="45.965577" lon="6.957601"><ele>2249.4</ele><time>2024-03-10T12:22:23Z</time></trkpt>
<trkpt lat="45.965757" lon="6.957712"><ele>2247.4</ele><time>2024-03-10T12:22:26Z</time></trkpt>
<trkpt lat="45.965866" lon="6.957633"><ele>2242.6</ele><time>2024-03-10T12:22:28Z</time></trkpt>
<trkpt lat="45.965932" lon="6.957421"><ele>2239.4</ele><time>2024-03-10T12:22:30Z</time></trkpt>
<trkpt lat="45.965992" lon="6.957361"><ele>2237.6</ele><time>2024-03-10T12:22:31Z</time></trkpt>
<trkpt lat="45.966025" lon="6.957404"><ele>2229.6</ele><time>2024-03-10T12:22:35Z</time></trkpt>
<trkpt lat="45.965993" lon="6.957405"><ele>2229.6</ele><time>2024-03-10T12:24:13Z</time></trkpt>
<trkpt lat="45.965996" lon="6.957503"><ele>2229.2</ele><time>2024-03-10T12:24:46Z</time></trkpt>
<trkpt lat="45.966002" lon="6.957460"><ele>2229.4</ele><time>2024-03-10T12:24:53Z</time></trkpt>
<trkpt lat="45.965967" lon="6.957428"><ele>2229.4</ele><time>2024-03-10T12:24:58Z</time></trkpt>
<trkpt lat="45.966058" lon="6.957502"><ele>2229.0</ele><time>2024-03-10T12:25:03Z</time></trkpt>
<trkpt lat="45.966195" lon="6.957448"><ele>2225.8</ele><time>2024-03-10T12:25:06Z</time></trkpt>
<trkpt lat="45.966345" lon="6.957648"><ele>2215.6</ele><time>2024-03-10T12:25:11Z</time></trkpt>
<trkpt lat="45.966528" lon="6.957841"><ele>2213.4</ele><time>2024-03-10T12:25:15Z</time></trkpt>
<trkpt lat="45.966689" lon="6.957996"><ele>2207.8</ele><time>2024-03-10T12:25:18Z</time></trkpt>
<trkpt lat="45.966790" lon="6.957961"><ele>2205.8</ele><time>2024-03-10T12:25:20Z</time></trkpt>
<trkpt lat="45.966865" lon="6.957986"><ele>2200.4</ele><time>2024-03-10T12:25:22Z</time></trkpt>
<trkpt lat="45.966874" lon="6.957807"><ele>2196.6</ele><time>2024-03-10T12:25:25Z</time></trkpt>
<trkpt lat="45.966896" lon="6.957789"><ele>2195.6</ele><time>2024-03-10T12:25:26Z</time></trkpt>
<trkpt lat="45.966956" lon="6.957856"><ele>2189.0</ele><time>2024-03-10T12:25:29Z</time></trkpt>
<trkpt lat="45.966998" lon="6.957851"><ele>2188.2</ele><time>2024-03-10T12:25:32Z</time></trkpt>
<trkpt lat="45.967034" lon="6.957736"><ele>2187.2</ele><time>2024-03-10T12:25:34Z</time></trkpt>
<trkpt lat="45.967082" lon="6.957753"><ele>2186.2</ele><time>2024-03-10T12:25:35Z</time></trkpt>
<trkpt lat="45.967112" lon="6.957828"><ele>2178.8</ele><time>2024-03-10T12:25:43Z</time></trkpt>
<trkpt lat="45.967183" lon="6.958016"><ele>2175.6</ele><time>2024-03-10T12:25:58Z</time></trkpt>
<trkpt lat="45.967254" lon="6.958832"><ele>2166.0</ele><time>2024-03-10T12:26:21Z</time></trkpt>
<trkpt lat="45.967397" lon="6.959767"><ele>2159.0</ele><time>2024-03-10T12:26:40Z</time></trkpt>
<trkpt lat="45.967686" lon="6.960417"><ele>2154.2</ele><time>2024-03-10T12:26:58Z</time></trkpt>
<trkpt lat="45.967806" lon="6.960611"><ele>2153.2</ele><time>2024-03-10T12:27:03Z</time></trkpt>
<trkpt lat="45.967853" lon="6.960633"><ele>2152.4</ele><time>2024-03-10T12:28:43Z</time></trkpt>
<trkpt lat="45.967829" lon="6.960643"><ele>2152.2</ele><time>2024-03-10T12:29:02Z</time></trkpt>
<trkpt lat="45.967845" lon="6.960626"><ele>2153.6</ele><time>2024-03-10T12:30:17Z</time></trkpt>
<trkpt lat="45.967820" lon="6.960625"><ele>2154.2</ele><time>2024-03-10T12:32:40Z</time></trkpt>
<trkpt lat="45.967846" lon="6.960635"><ele>2154.4</ele><time>2024-03-10T12:33:17Z</time></trkpt>
<trkpt lat="45.967836" lon="6.960605"><ele>2154.2</ele><time>2024-03-10T12:34:36Z</time></trkpt>
<trkpt lat="45.967824" lon="6.960641"><ele>2156.2</ele><time>2024-03-10T12:35:29Z</time></trkpt>
<trkpt lat="45.967867" lon="6.960817"><ele>2159.6</ele><time>2024-03-10T12:35:59Z</time></trkpt>
<trkpt lat="45.967779" lon="6.960834"><ele>2163.6</ele><time>2024-03-10T12:36:37Z</time></trkpt>
<trkpt lat="45.967438" lon="6.960724"><ele>2172.2</ele><time>2024-03-10T12:37:24Z</time></trkpt>
<trkpt lat="45.967466" lon="6.960904"><ele>2176.0</ele><time>2024-03-10T12:37:47Z</time></trkpt>
<trkpt lat="45.967469" lon="6.961388"><ele>2185.8</ele><time>2024-03-10T12:38:43Z</time></trkpt>
<trkpt lat="45.967380" lon="6.961786"><ele>2194.0</ele><time>2024-03-10T12:39:35Z</time></trkpt>
<trkpt lat="45.967305" lon="6.961759"><ele>2197.2</ele><time>2024-03-10T12:39:55Z</time></trkpt>
<trkpt lat="45.967085" lon="6.961561"><ele>2202.0</ele><time>2024-03-10T12:40:43Z</time></trkpt>
<trkpt lat="45.966940" lon="6.961487"><ele>2206.4</ele><time>2024-03-10T12:41:07Z</time></trkpt>
<trkpt lat="45.966928" lon="6.961935"><ele>2213.0</ele><time>2024-03-10T12:41:54Z</time></trkpt>
<trkpt lat="45.966554" lon="6.961830"><ele>2222.8</ele><time>2024-03-10T12:42:54Z</time></trkpt>
<trkpt lat="45.966470" lon="6.962393"><ele>2231.8</ele><time>2024-03-10T12:43:59Z</time></trkpt>
<trkpt lat="45.966374" lon="6.962345"><ele>2234.2</ele><time>2024-03-10T12:44:18Z</time></trkpt>
<trkpt lat="45.966209" lon="6.962149"><ele>2239.8</ele><time>2024-03-10T12:44:53Z</time></trkpt>
<trkpt lat="45.966052" lon="6.962025"><ele>2244.4</ele><time>2024-03-10T12:45:21Z</time></trkpt>
<trkpt lat="45.965972" lon="6.962321"><ele>2249.2</ele><time>2024-03-10T12:45:59Z</time></trkpt>
<trkpt lat="45.965886" lon="6.962212"><ele>2252.8</ele><time>2024-03-10T12:46:21Z</time></trkpt>
<trkpt lat="45.965858" lon="6.962415"><ele>2254.4</ele><time>2024-03-10T12:46:42Z</time></trkpt>
<trkpt lat="45.965868" lon="6.962641"><ele>2257.0</ele><time>2024-03-10T12:47:04Z</time></trkpt>
<trkpt lat="45.966062" lon="6.963193"><ele>2267.0</ele><time>2024-03-10T12:48:15Z</time></trkpt>
<trkpt lat="45.965897" lon="6.963560"><ele>2272.0</ele><time>2024-03-10T12:48:56Z</time></trkpt>
<trkpt lat="45.965766" lon="6.963638"><ele>2275.6</ele><time>2024-03-10T12:49:22Z</time></trkpt>
<trkpt lat="45.965837" lon="6.963772"><ele>2277.4</ele><time>2024-03-10T12:49:42Z</time></trkpt>
<trkpt lat="45.966077" lon="6.963918"><ele>2282.2</ele><time>2024-03-10T12:51:22Z</time></trkpt>
<trkpt lat="45.965893" lon="6.964453"><ele>2290.8</ele><time>2024-03-10T12:52:33Z</time></trkpt>
<trkpt lat="45.965522" lon="6.964870"><ele>2295.2</ele><time>2024-03-10T12:53:48Z</time></trkpt>
<trkpt lat="45.965323" lon="6.965136"><ele>2294.0</ele><time>2024-03-10T12:54:26Z</time></trkpt>
<trkpt lat="45.965154" lon="6.965250"><ele>2295.0</ele><time>2024-03-10T12:54:56Z</time></trkpt>
<trkpt lat="45.965116" lon="6.965367"><ele>2295.0</ele><time>2024-03-10T12:55:26Z</time></trkpt>
<trkpt lat="45.964862" lon="6.965701"><ele>2298.4</ele><time>2024-03-10T12:56:31Z</time></trkpt>
<trkpt lat="45.964757" lon="6.965875"><ele>2300.6</ele><time>2024-03-10T12:56:53Z</time></trkpt>
<trkpt lat="45.964526" lon="6.966449"><ele>2303.4</ele><time>2024-03-10T12:57:48Z</time></trkpt>
<trkpt lat="45.964298" lon="6.966749"><ele>2301.0</ele><time>2024-03-10T12:58:48Z</time></trkpt>
<trkpt lat="45.964193" lon="6.966988"><ele>2302.2</ele><time>2024-03-10T12:59:14Z</time></trkpt>
<trkpt lat="45.964063" lon="6.967101"><ele>2300.4</ele><time>2024-03-10T12:59:30Z</time></trkpt>
<trkpt lat="45.963869" lon="6.967347"><ele>2303.4</ele><time>2024-03-10T13:00:06Z</time></trkpt>
<trkpt lat="45.963735" lon="6.967604"><ele>2304.8</ele><time>2024-03-10T13:00:38Z</time></trkpt>
<trkpt lat="45.963468" lon="6.967983"><ele>2306.6</ele><time>2024-03-10T13:01:18Z</time></trkpt>
<trkpt lat="45.963346" lon="6.968272"><ele>2308.6</ele><time>2024-03-10T13:01:44Z</time></trkpt>
<trkpt lat="45.963118" lon="6.968644"><ele>2310.8</ele><time>2024-03-10T13:02:23Z</time></trkpt>
<trkpt lat="45.962489" lon="6.969532"><ele>2314.6</ele><time>2024-03-10T13:03:54Z</time></trkpt>
<trkpt lat="45.962454" lon="6.969623"><ele>2314.8</ele><time>2024-03-10T13:04:01Z</time></trkpt>
<trkpt lat="45.962442" lon="6.969804"><ele>2316.0</ele><time>2024-03-10T13:04:14Z</time></trkpt>
<trkpt lat="45.962209" lon="6.970213"><ele>2317.8</ele><time>2024-03-10T13:04:51Z</time></trkpt>
<trkpt lat="45.962132" lon="6.970428"><ele>2321.8</ele><time>2024-03-10T13:05:16Z</time></trkpt>
<trkpt lat="45.961944" lon="6.970621"><ele>2325.4</ele><time>2024-03-10T13:05:50Z</time></trkpt>
<trkpt lat="45.961885" lon="6.970740"><ele>2327.6</ele><time>2024-03-10T13:06:13Z</time></trkpt>
<trkpt lat="45.961786" lon="6.970777"><ele>2329.4</ele><time>2024-03-10T13:06:29Z</time></trkpt>
<trkpt lat="45.961746" lon="6.970719"><ele>2332.0</ele><time>2024-03-10T13:07:05Z</time></trkpt>
<trkpt lat="45.961730" lon="6.970774"><ele>2333.2</ele><time>2024-03-10T13:07:12Z</time></trkpt>
<trkpt lat="45.961575" lon="6.970919"><ele>2340.4</ele><time>2024-03-10T13:07:47Z</time></trkpt>
<trkpt lat="45.961595" lon="6.971007"><ele>2342.2</ele><time>2024-03-10T13:07:58Z</time></trkpt>
<trkpt lat="45.961574" lon="6.971044"><ele>2343.6</ele><time>2024-03-10T13:08:05Z</time></trkpt>
<trkpt lat="45.961431" lon="6.971133"><ele>2349.2</ele><time>2024-03-10T13:08:31Z</time></trkpt>
<trkpt lat="45.961434" lon="6.971201"><ele>2350.2</ele><time>2024-03-10T13:08:41Z</time></trkpt>
<trkpt lat="45.961391" lon="6.971240"><ele>2352.6</ele><time>2024-03-10T13:08:51Z</time></trkpt>
<trkpt lat="45.961369" lon="6.971320"><ele>2353.4</ele><time>2024-03-10T13:09:07Z</time></trkpt>
<trkpt lat="45.961356" lon="6.971293"><ele>2354.8</ele><time>2024-03-10T13:09:20Z</time></trkpt>
<trkpt lat="45.961406" lon="6.971328"><ele>2354.0</ele><time>2024-03-10T13:09:45Z</time></trkpt>
<trkpt lat="45.961352" lon="6.971305"><ele>2354.2</ele><time>2024-03-10T13:10:04Z</time></trkpt>
<trkpt lat="45.961351" lon="6.971348"><ele>2354.4</ele><time>2024-03-10T13:10:08Z</time></trkpt>
<trkpt lat="45.961358" lon="6.971314"><ele>2353.6</ele><time>2024-03-10T13:10:50Z</time></trkpt>
<trkpt lat="45.961377" lon="6.971321"><ele>2355.2</ele><time>2024-03-10T13:11:05Z</time></trkpt>
<trkpt lat="45.961339" lon="6.971348"><ele>2355.2</ele><time>2024-03-10T13:12:00Z</time></trkpt>
<trkpt lat="45.961365" lon="6.971328"><ele>2355.0</ele><time>2024-03-10T13:13:17Z</time></trkpt>
<trkpt lat="45.961342" lon="6.971333"><ele>2356.2</ele><time>2024-03-10T13:14:15Z</time></trkpt>
<trkpt lat="45.961353" lon="6.971321"><ele>2358.2</ele><time>2024-03-10T13:15:50Z</time></trkpt>
<trkpt lat="45.961370" lon="6.971342"><ele>2358.0</ele><time>2024-03-10T13:16:37Z</time></trkpt>
<trkpt lat="45.961340" lon="6.971331"><ele>2357.6</ele><time>2024-03-10T13:17:29Z</time></trkpt>
<trkpt lat="45.961352" lon="6.971354"><ele>2357.4</ele><time>2024-03-10T13:17:39Z</time></trkpt>
<trkpt lat="45.961362" lon="6.971320"><ele>2356.0</ele><time>2024-03-10T13:19:07Z</time></trkpt>
<trkpt lat="45.961341" lon="6.971362"><ele>2355.8</ele><time>2024-03-10T13:20:06Z</time></trkpt>
<trkpt lat="45.961278" lon="6.971372"><ele>2354.8</ele><time>2024-03-10T13:20:31Z</time></trkpt>
<trkpt lat="45.961268" lon="6.971490"><ele>2354.0</ele><time>2024-03-10T13:20:50Z</time></trkpt>
<trkpt lat="45.961163" lon="6.971835"><ele>2355.6</ele><time>2024-03-10T13:21:20Z</time></trkpt>
<trkpt lat="45.961165" lon="6.972106"><ele>2356.8</ele><time>2024-03-10T13:21:41Z</time></trkpt>
<trkpt lat="45.961248" lon="6.972718"><ele>2359.2</ele><time>2024-03-10T13:22:25Z</time></trkpt>
<trkpt lat="45.961363" lon="6.973077"><ele>2359.2</ele><time>2024-03-10T13:22:55Z</time></trkpt>
<trkpt lat="45.961419" lon="6.973383"><ele>2360.0</ele><time>2024-03-10T13:23:17Z</time></trkpt>
<trkpt lat="45.961421" lon="6.974045"><ele>2360.8</ele><time>2024-03-10T13:24:06Z</time></trkpt>
<trkpt lat="45.961313" lon="6.974751"><ele>2365.4</ele><time>2024-03-10T13:25:02Z</time></trkpt>
<trkpt lat="45.961226" lon="6.976357"><ele>2378.6</ele><time>2024-03-10T13:27:18Z</time></trkpt>
<trkpt lat="45.961091" lon="6.977084"><ele>2385.6</ele><time>2024-03-10T13:28:24Z</time></trkpt>
<trkpt lat="45.960953" lon="6.977670"><ele>2394.8</ele><time>2024-03-10T13:29:30Z</time></trkpt>
<trkpt lat="45.960746" lon="6.978269"><ele>2402.2</ele><time>2024-03-10T13:30:31Z</time></trkpt>
<trkpt lat="45.960624" lon="6.978470"><ele>2403.2</ele><time>2024-03-10T13:30:54Z</time></trkpt>
<trkpt lat="45.960259" lon="6.978940"><ele>2410.4</ele><time>2024-03-10T13:32:06Z</time></trkpt>
<trkpt lat="45.960085" lon="6.979233"><ele>2414.4</ele><time>2024-03-10T13:32:42Z</time></trkpt>
<trkpt lat="45.960052" lon="6.979507"><ele>2417.4</ele><time>2024-03-10T13:33:18Z</time></trkpt>
<trkpt lat="45.960018" lon="6.979590"><ele>2417.0</ele><time>2024-03-10T13:33:35Z</time></trkpt>
<trkpt lat="45.959781" lon="6.980025"><ele>2422.6</ele><time>2024-03-10T13:34:36Z</time></trkpt>
<trkpt lat="45.959471" lon="6.980459"><ele>2432.6</ele><time>2024-03-10T13:35:49Z</time></trkpt>
<trkpt lat="45.959363" lon="6.980895"><ele>2438.4</ele><time>2024-03-10T13:36:44Z</time></trkpt>
<trkpt lat="45.959156" lon="6.980998"><ele>2443.6</ele><time>2024-03-10T13:37:20Z</time></trkpt>
<trkpt lat="45.959102" lon="6.981101"><ele>2445.2</ele><time>2024-03-10T13:37:33Z</time></trkpt>
<trkpt lat="45.959073" lon="6.982218"><ele>2454.4</ele><time>2024-03-10T13:39:12Z</time></trkpt>
<trkpt lat="45.959182" lon="6.982639"><ele>2453.0</ele><time>2024-03-10T13:39:48Z</time></trkpt>
<trkpt lat="45.959377" lon="6.982970"><ele>2450.8</ele><time>2024-03-10T13:40:21Z</time></trkpt>
<trkpt lat="45.959711" lon="6.983158"><ele>2448.2</ele><time>2024-03-10T13:41:04Z</time></trkpt>
<trkpt lat="45.959841" lon="6.983260"><ele>2443.2</ele><time>2024-03-10T13:41:36Z</time></trkpt>
<trkpt lat="45.959894" lon="6.983477"><ele>2442.4</ele><time>2024-03-10T13:42:13Z</time></trkpt>
<trkpt lat="45.959939" lon="6.983543"><ele>2441.4</ele><time>2024-03-10T13:42:26Z</time></trkpt>
<trkpt lat="45.959921" lon="6.983711"><ele>2446.8</ele><time>2024-03-10T13:42:45Z</time></trkpt>
<trkpt lat="45.959670" lon="6.984246"><ele>2451.0</ele><time>2024-03-10T13:43:38Z</time></trkpt>
<trkpt lat="45.959579" lon="6.984351"><ele>2451.2</ele><time>2024-03-10T13:43:53Z</time></trkpt>
<trkpt lat="45.959440" lon="6.984382"><ele>2453.4</ele><time>2024-03-10T13:44:11Z</time></trkpt>
<trkpt lat="45.959301" lon="6.984518"><ele>2455.2</ele><time>2024-03-10T13:44:34Z</time></trkpt>
<trkpt lat="45.959008" lon="6.985016"><ele>2462.0</ele><time>2024-03-10T13:45:42Z</time></trkpt>
<trkpt lat="45.958913" lon="6.985031"><ele>2462.2</ele><time>2024-03-10T13:45:54Z</time></trkpt>
<trkpt lat="45.958692" lon="6.985154"><ele>2469.2</ele><time>2024-03-10T13:46:33Z</time></trkpt>
<trkpt lat="45.958498" lon="6.985250"><ele>2470.4</ele><time>2024-03-10T13:47:05Z</time></trkpt>
<trkpt lat="45.958306" lon="6.985292"><ele>2477.8</ele><time>2024-03-10T13:47:41Z</time></trkpt>
<trkpt lat="45.958199" lon="6.985381"><ele>2480.8</ele><time>2024-03-10T13:47:59Z</time></trkpt>
<trkpt lat="45.958043" lon="6.985561"><ele>2480.0</ele><time>2024-03-10T13:48:21Z</time></trkpt>
<trkpt lat="45.957571" lon="6.985963"><ele>2486.0</ele><time>2024-03-10T13:49:41Z</time></trkpt>
<trkpt lat="45.957291" lon="6.986318"><ele>2491.0</ele><time>2024-03-10T13:50:30Z</time></trkpt>
<trkpt lat="45.957151" lon="6.986430"><ele>2494.2</ele><time>2024-03-10T13:50:50Z</time></trkpt>
<trkpt lat="45.956868" lon="6.986804"><ele>2496.8</ele><time>2024-03-10T13:51:49Z</time></trkpt>
<trkpt lat="45.956400" lon="6.987199"><ele>2502.0</ele><time>2024-03-10T13:52:48Z</time></trkpt>
<trkpt lat="45.955935" lon="6.987542"><ele>2503.8</ele><time>2024-03-10T13:53:43Z</time></trkpt>
<trkpt lat="45.955583" lon="6.987701"><ele>2505.8</ele><time>2024-03-10T13:54:20Z</time></trkpt>
<trkpt lat="45.955081" lon="6.988043"><ele>2506.4</ele><time>2024-03-10T13:55:13Z</time></trkpt>
<trkpt lat="45.954429" lon="6.988546"><ele>2511.4</ele><time>2024-03-10T13:56:33Z</time></trkpt>
<trkpt lat="45.953605" lon="6.989395"><ele>2515.4</ele><time>2024-03-10T13:58:16Z</time></trkpt>
<trkpt lat="45.953429" lon="6.989561"><ele>2518.6</ele><time>2024-03-10T13:58:40Z</time></trkpt>
<trkpt lat="45.953255" lon="6.989661"><ele>2520.6</ele><time>2024-03-10T13:59:26Z</time></trkpt>
<trkpt lat="45.952716" lon="6.989829"><ele>2526.0</ele><time>2024-03-10T14:00:45Z</time></trkpt>
<trkpt lat="45.952443" lon="6.989975"><ele>2528.8</ele><time>2024-03-10T14:01:23Z</time></trkpt>
<trkpt lat="45.951711" lon="6.990507"><ele>2539.0</ele><time>2024-03-10T14:03:00Z</time></trkpt>
<trkpt lat="45.951459" lon="6.990718"><ele>2539.6</ele><time>2024-03-10T14:03:33Z</time></trkpt>
<trkpt lat="45.951042" lon="6.991174"><ele>2543.4</ele><time>2024-03-10T14:04:32Z</time></trkpt>
<trkpt lat="45.950073" lon="6.992097"><ele>2554.0</ele><time>2024-03-10T14:06:59Z</time></trkpt>
<trkpt lat="45.949920" lon="6.992210"><ele>2554.6</ele><time>2024-03-10T14:07:22Z</time></trkpt>
<trkpt lat="45.949715" lon="6.992464"><ele>2557.2</ele><time>2024-03-10T14:08:09Z</time></trkpt>
<trkpt lat="45.949588" lon="6.992568"><ele>2559.2</ele><time>2024-03-10T14:08:30Z</time></trkpt>
<trkpt lat="45.949315" lon="6.992908"><ele>2564.8</ele><time>2024-03-10T14:09:29Z</time></trkpt>
<trkpt lat="45.949279" lon="6.993143"><ele>2567.2</ele><time>2024-03-10T14:09:57Z</time></trkpt>
<trkpt lat="45.949198" lon="6.993278"><ele>2572.4</ele><time>2024-03-10T14:10:16Z</time></trkpt>
<trkpt lat="45.949065" lon="6.993450"><ele>2572.8</ele><time>2024-03-10T14:10:46Z</time></trkpt>
<trkpt lat="45.948616" lon="6.993790"><ele>2585.2</ele><time>2024-03-10T14:12:12Z</time></trkpt>
<trkpt lat="45.948305" lon="6.994238"><ele>2592.0</ele><time>2024-03-10T14:13:41Z</time></trkpt>
<trkpt lat="45.948244" lon="6.994414"><ele>2596.2</ele><time>2024-03-10T14:14:09Z</time></trkpt>
<trkpt lat="45.948272" lon="6.994830"><ele>2602.6</ele><time>2024-03-10T14:15:02Z</time></trkpt>
<trkpt lat="45.948080" lon="6.995053"><ele>2610.8</ele><time>2024-03-10T14:15:50Z</time></trkpt>
<trkpt lat="45.947920" lon="6.995372"><ele>2618.2</ele><time>2024-03-10T14:16:41Z</time></trkpt>
<trkpt lat="45.947884" lon="6.995500"><ele>2620.0</ele><time>2024-03-10T14:17:06Z</time></trkpt>
<trkpt lat="45.947931" lon="6.995484"><ele>2619.8</ele><time>2024-03-10T14:17:47Z</time></trkpt>
<trkpt lat="45.947936" lon="6.995532"><ele>2620.0</ele><time>2024-03-10T14:17:53Z</time></trkpt>
<trkpt lat="45.947901" lon="6.995521"><ele>2620.2</ele><time>2024-03-10T14:18:02Z</time></trkpt>
<trkpt lat="45.947733" lon="6.995881"><ele>2625.4</ele><time>2024-03-10T14:18:51Z</time></trkpt>
<trkpt lat="45.947680" lon="6.995938"><ele>2627.0</ele><time>2024-03-10T14:19:00Z</time></trkpt>
<trkpt lat="45.947579" lon="6.996282"><ele>2631.2</ele><time>2024-03-10T14:19:44Z</time></trkpt>
<trkpt lat="45.947373" lon="6.997539"><ele>2648.6</ele><time>2024-03-10T14:22:47Z</time></trkpt>
<trkpt lat="45.947350" lon="6.997932"><ele>2652.8</ele><time>2024-03-10T14:23:44Z</time></trkpt>
<trkpt lat="45.947212" lon="6.998503"><ele>2660.8</ele><time>2024-03-10T14:25:06Z</time></trkpt>
<trkpt lat="45.947105" lon="6.998988"><ele>2672.8</ele><time>2024-03-10T14:26:38Z</time></trkpt>
<trkpt lat="45.947099" lon="6.999308"><ele>2679.0</ele><time>2024-03-10T14:27:31Z</time></trkpt>
<trkpt lat="45.947018" lon="6.999509"><ele>2684.0</ele><time>2024-03-10T14:28:21Z</time></trkpt>
<trkpt lat="45.947073" lon="6.999629"><ele>2687.4</ele><time>2024-03-10T14:28:47Z</time></trkpt>
<trkpt lat="45.946983" lon="6.999814"><ele>2694.4</ele><time>2024-03-10T14:29:36Z</time></trkpt>
<trkpt lat="45.946957" lon="6.999826"><ele>2694.0</ele><time>2024-03-10T14:30:14Z</time></trkpt>
<trkpt lat="45.946986" lon="6.999808"><ele>2694.4</ele><time>2024-03-10T14:30:26Z</time></trkpt>
<trkpt lat="45.946950" lon="6.999843"><ele>2694.2</ele><time>2024-03-10T14:30:50Z</time></trkpt>
<trkpt lat="45.946968" lon="6.999836"><ele>2694.4</ele><time>2024-03-10T14:30:54Z</time></trkpt>
<trkpt lat="45.946952" lon="6.999865"><ele>2696.8</ele><time>2024-03-10T14:31:25Z</time></trkpt>
<trkpt lat="45.946920" lon="6.999869"><ele>2697.2</ele><time>2024-03-10T14:31:52Z</time></trkpt>
<trkpt lat="45.946960" lon="6.999886"><ele>2698.8</ele><time>2024-03-10T14:32:35Z</time></trkpt>
<trkpt lat="45.946921" lon="6.999985"><ele>2701.0</ele><time>2024-03-10T14:33:21Z</time></trkpt>
<trkpt lat="45.946845" lon="6.999990"><ele>2703.4</ele><time>2024-03-10T14:33:39Z</time></trkpt>
<trkpt lat="45.946875" lon="7.000051"><ele>2702.8</ele><time>2024-03-10T14:34:03Z</time></trkpt>
<trkpt lat="45.946873" lon="7.000040"><ele>2704.8</ele><time>2024-03-10T14:34:10Z</time></trkpt>
<trkpt lat="45.946857" lon="7.000125"><ele>2704.2</ele><time>2024-03-10T14:34:31Z</time></trkpt>
<trkpt lat="45.947021" lon="7.000134"><ele>2711.0</ele><time>2024-03-10T14:35:16Z</time></trkpt>
<trkpt lat="45.947040" lon="7.000150"><ele>2709.6</ele><time>2024-03-10T14:35:21Z</time></trkpt>
<trkpt lat="45.946865" lon="7.000424"><ele>2716.6</ele><time>2024-03-10T14:36:32Z</time></trkpt>
<trkpt lat="45.946874" lon="7.000358"><ele>2717.4</ele><time>2024-03-10T14:36:46Z</time></trkpt>
<trkpt lat="45.946851" lon="7.000470"><ele>2719.4</ele><time>2024-03-10T14:37:35Z</time></trkpt>
<trkpt lat="45.946842" lon="7.000428"><ele>2720.0</ele><time>2024-03-10T14:37:50Z</time></trkpt>
<trkpt lat="45.946837" lon="7.000462"><ele>2718.6</ele><time>2024-03-10T14:38:02Z</time></trkpt>
<trkpt lat="45.946777" lon="7.000505"><ele>2720.2</ele><time>2024-03-10T14:38:13Z</time></trkpt>
<trkpt lat="45.946783" lon="7.000520"><ele>2723.0</ele><time>2024-03-10T14:38:26Z</time></trkpt>
<trkpt lat="45.946785" lon="7.000521"><ele>2720.0</ele><time>2024-03-10T14:38:52Z</time></trkpt>
<trkpt lat="45.946755" lon="7.000603"><ele>2720.6</ele><time>2024-03-10T14:39:15Z</time></trkpt>
<trkpt lat="45.946760" lon="7.000571"><ele>2721.0</ele><time>2024-03-10T14:39:27Z</time></trkpt>
<trkpt lat="45.946762" lon="7.000617"><ele>2721.6</ele><time>2024-03-10T14:39:48Z</time></trkpt>
<trkpt lat="45.946850" lon="7.000606"><ele>2721.8</ele><time>2024-03-10T14:40:35Z</time></trkpt>
<trkpt lat="45.947066" lon="7.000653"><ele>2727.8</ele><time>2024-03-10T14:41:28Z</time></trkpt>
<trkpt lat="45.947026" lon="7.000698"><ele>2731.0</ele><time>2024-03-10T14:41:52Z</time></trkpt>
<trkpt lat="45.946960" lon="7.000715"><ele>2731.8</ele><time>2024-03-10T14:42:13Z</time></trkpt>
<trkpt lat="45.946928" lon="7.000789"><ele>2734.4</ele><time>2024-03-10T14:42:58Z</time></trkpt>
<trkpt lat="45.946897" lon="7.000798"><ele>2737.0</ele><time>2024-03-10T14:43:13Z</time></trkpt>
<trkpt lat="45.946906" lon="7.000776"><ele>2735.6</ele><time>2024-03-10T14:43:26Z</time></trkpt>
<trkpt lat="45.946866" lon="7.000830"><ele>2735.2</ele><time>2024-03-10T14:43:47Z</time></trkpt>
<trkpt lat="45.946840" lon="7.000963"><ele>2734.6</ele><time>2024-03-10T14:44:47Z</time></trkpt>
<trkpt lat="45.946884" lon="7.001457"><ele>2732.4</ele><time>2024-03-10T14:45:45Z</time></trkpt>
<trkpt lat="45.947003" lon="7.001849"><ele>2730.4</ele><time>2024-03-10T14:46:29Z</time></trkpt>
<trkpt lat="45.947019" lon="7.002058"><ele>2731.2</ele><time>2024-03-10T14:46:47Z</time></trkpt>
<trkpt lat="45.946958" lon="7.002345"><ele>2734.4</ele><time>2024-03-10T14:47:12Z</time></trkpt>
<trkpt lat="45.946735" lon="7.002923"><ele>2743.8</ele><time>2024-03-10T14:48:41Z</time></trkpt>
<trkpt lat="45.946697" lon="7.003140"><ele>2746.6</ele><time>2024-03-10T14:49:15Z</time></trkpt>
<trkpt lat="45.946633" lon="7.003261"><ele>2747.0</ele><time>2024-03-10T14:50:24Z</time></trkpt>
<trkpt lat="45.946636" lon="7.003228"><ele>2747.6</ele><time>2024-03-10T14:50:31Z</time></trkpt>
<trkpt lat="45.946566" lon="7.003495"><ele>2750.6</ele><time>2024-03-10T14:51:41Z</time></trkpt>
<trkpt lat="45.946554" lon="7.003481"><ele>2747.4</ele><time>2024-03-10T14:52:20Z</time></trkpt>
<trkpt lat="45.946593" lon="7.003513"><ele>2748.2</ele><time>2024-03-10T14:52:59Z</time></trkpt>
<trkpt lat="45.946553" lon="7.003492"><ele>2749.6</ele><time>2024-03-10T14:54:14Z</time></trkpt>
<trkpt lat="45.946555" lon="7.003530"><ele>2746.4</ele><time>2024-03-10T14:56:20Z</time></trkpt>
<trkpt lat="45.946570" lon="7.003511"><ele>2748.0</ele><time>2024-03-10T14:56:39Z</time></trkpt>
<trkpt lat="45.946555" lon="7.003477"><ele>2746.2</ele><time>2024-03-10T14:57:10Z</time></trkpt>
<trkpt lat="45.946580" lon="7.003524"><ele>2747.0</ele><time>2024-03-10T15:00:09Z</time></trkpt>
<trkpt lat="45.946560" lon="7.003491"><ele>2746.6</ele><time>2024-03-10T15:01:08Z</time></trkpt>
<trkpt lat="45.946586" lon="7.003480"><ele>2746.2</ele><time>2024-03-10T15:01:48Z</time></trkpt>
<trkpt lat="45.946573" lon="7.003516"><ele>2746.8</ele><time>2024-03-10T15:02:10Z</time></trkpt>
<trkpt lat="45.946544" lon="7.003496"><ele>2747.4</ele><time>2024-03-10T15:02:56Z</time></trkpt>
<trkpt lat="45.946577" lon="7.003499"><ele>2746.2</ele><time>2024-03-10T15:03:14Z</time></trkpt>
<trkpt lat="45.946562" lon="7.003474"><ele>2747.8</ele><time>2024-03-10T15:03:34Z</time></trkpt>
<trkpt lat="45.946587" lon="7.003507"><ele>2749.2</ele><time>2024-03-10T15:04:16Z</time></trkpt>
<trkpt lat="45.946503" lon="7.003597"><ele>2753.0</ele><time>2024-03-10T15:05:03Z</time></trkpt>
<trkpt lat="45.946479" lon="7.003679"><ele>2755.2</ele><time>2024-03-10T15:05:30Z</time></trkpt>
<trkpt lat="45.946522" lon="7.003893"><ele>2769.2</ele><time>2024-03-10T15:06:52Z</time></trkpt>
<trkpt lat="45.946500" lon="7.003980"><ele>2773.0</ele><time>2024-03-10T15:07:36Z</time></trkpt>
<trkpt lat="45.946489" lon="7.003958"><ele>2770.4</ele><time>2024-03-10T15:09:11Z</time></trkpt>
<trkpt lat="45.946514" lon="7.003979"><ele>2771.0</ele><time>2024-03-10T15:09:37Z</time></trkpt>
<trkpt lat="45.946485" lon="7.003962"><ele>2772.0</ele><time>2024-03-10T15:10:39Z</time></trkpt>
<trkpt lat="45.946496" lon="7.003974"><ele>2774.0</ele><time>2024-03-10T15:11:48Z</time></trkpt>
<trkpt lat="45.946481" lon="7.003983"><ele>2772.4</ele><time>2024-03-10T15:12:40Z</time></trkpt>
<trkpt lat="45.946504" lon="7.003965"><ele>2773.8</ele><time>2024-03-10T15:15:08Z</time></trkpt>
<trkpt lat="45.946448" lon="7.004167"><ele>2777.2</ele><time>2024-03-10T15:16:28Z</time></trkpt>
<trkpt lat="45.946452" lon="7.004257"><ele>2781.6</ele><time>2024-03-10T15:17:27Z</time></trkpt>
<trkpt lat="45.946413" lon="7.004521"><ele>2785.6</ele><time>2024-03-10T15:18:42Z</time></trkpt>
<trkpt lat="45.946381" lon="7.004595"><ele>2787.8</ele><time>2024-03-10T15:19:12Z</time></trkpt>
<trkpt lat="45.946333" lon="7.004644"><ele>2787.0</ele><time>2024-03-10T15:19:46Z</time></trkpt>
<trkpt lat="45.946305" lon="7.004596"><ele>2787.6</ele><time>2024-03-10T15:20:37Z</time></trkpt>
<trkpt lat="45.946329" lon="7.004604"><ele>2785.8</ele><time>2024-03-10T15:21:57Z</time></trkpt>
<trkpt lat="45.946309" lon="7.004605"><ele>2786.6</ele><time>2024-03-10T15:22:51Z</time></trkpt>
<trkpt lat="45.946323" lon="7.004633"><ele>2786.0</ele><time>2024-03-10T15:23:19Z</time></trkpt>
<trkpt lat="45.946323" lon="7.004605"><ele>2786.0</ele><time>2024-03-10T15:23:33Z</time></trkpt>
<trkpt lat="45.946341" lon="7.004628"><ele>2786.0</ele><time>2024-03-10T15:23:51Z</time></trkpt>
<trkpt lat="45.946320" lon="7.004596"><ele>2785.4</ele><time>2024-03-10T15:24:16Z</time></trkpt>
<trkpt lat="45.946348" lon="7.004602"><ele>2785.2</ele><time>2024-03-10T15:24:32Z</time></trkpt>
<trkpt lat="45.946331" lon="7.004635"><ele>2784.4</ele><time>2024-03-10T15:25:08Z</time></trkpt>
<trkpt lat="45.946374" lon="7.004684"><ele>2784.2</ele><time>2024-03-10T15:25:17Z</time></trkpt>
<trkpt lat="45.946423" lon="7.004692"><ele>2784.0</ele><time>2024-03-10T15:25:22Z</time></trkpt>
<trkpt lat="45.946413" lon="7.004647"><ele>2784.0</ele><time>2024-03-10T15:25:23Z</time></trkpt>
</trkseg></trk>
</gpx>
