<?xml version="1.0" encoding="UTF-8"?>
<gpx version="1.1" creator="Eric Sichak trip reports" xmlns="http://www.topografix.com/GPX/1/1">
<metadata><name>Chamonix–Zermatt Haute Route – Day 2</name><time>2024-03-11T05:50:23Z</time></metadata>
<trk><name>Chamonix–Zermatt Haute Route – Day 2</name><type>ski</type><trkseg>
<trkpt lat="45.946475" lon="7.004786"><ele>2792.8</ele><time>2024-03-11T05:50:23Z</time></trkpt>
<trkpt lat="45.946444" lon="7.004828"><ele>2794.4</ele><time>2024-03-11T05:50:34Z</time></trkpt>
<trkpt lat="45.946459" lon="7.004794"><ele>2795.0</ele><time>2024-03-11T05:50:57Z</time></trkpt>
<trkpt lat="45.946474" lon="7.004808"><ele>2791.8</ele><time>2024-03-11T05:51:53Z</time></trkpt>
<trkpt lat="45.946438" lon="7.004847"><ele>2789.8</ele><time>2024-03-11T05:52:57Z</time></trkpt>
<trkpt lat="45.946383" lon="7.005127"><ele>2790.0</ele><time>2024-03-11T05:53:27Z</time></trkpt>
<trkpt lat="45.946283" lon="7.005397"><ele>2788.0</ele><time>2024-03-11T05:53:53Z</time></trkpt>
<trkpt lat="45.946234" lon="7.005833"><ele>2784.0</ele><time>2024-03-11T05:54:05Z</time></trkpt>
<trkpt lat="45.946189" lon="7.006129"><ele>2777.0</ele><time>2024-03-11T05:54:12Z</time></trkpt>
<trkpt lat="45.946181" lon="7.006116"><ele>2775.4</ele><time>2024-03-11T05:54:15Z</time></trkpt>
<trkpt lat="45.946038" lon="7.006304"><ele>2772.0</ele><time>2024-03-11T05:54:21Z</time></trkpt>
<trkpt lat="45.945964" lon="7.006328"><ele>2771.0</ele><time>2024-03-11T05:54:23Z</time></trkpt>
<trkpt lat="45.945939" lon="7.005846"><ele>2761.0</ele><time>2024-03-11T05:54:30Z</time></trkpt>
<trkpt lat="45.945849" lon="7.005757"><ele>2758.2</ele><time>2024-03-11T05:54:32Z</time></trkpt>
<trkpt lat="45.945815" lon="7.005665"><ele>2756.2</ele><time>2024-03-11T05:54:33Z</time></trkpt>
<trkpt lat="45.945811" lon="7.005433"><ele>2748.0</ele><time>2024-03-11T05:54:36Z</time></trkpt>
<trkpt lat="45.945731" lon="7.005248"><ele>2744.6</ele><time>2024-03-11T05:54:39Z</time></trkpt>
<trkpt lat="45.945755" lon="7.005062"><ele>2738.6</ele><time>2024-03-11T05:54:41Z</time></trkpt>
<trkpt lat="45.945777" lon="7.004791"><ele>2735.6</ele><time>2024-03-11T05:54:44Z</time></trkpt>
<trkpt lat="45.945861" lon="7.004315"><ele>2729.6</ele><time>2024-03-11T05:54:50Z</time></trkpt>
<trkpt lat="45.945987" lon="7.003863"><ele>2726.6</ele><time>2024-03-11T05:54:59Z</time></trkpt>
<trkpt lat="45.946080" lon="7.003317"><ele>2721.4</ele><time>2024-03-11T05:55:15Z</time></trkpt>
<trkpt lat="45.946260" lon="7.002607"><ele>2712.4</ele><time>2024-03-11T05:55:27Z</time></trkpt>
<trkpt lat="45.946344" lon="7.001993"><ele>2706.8</ele><time>2024-03-11T05:55:36Z</time></trkpt>
<trkpt lat="45.946490" lon="7.001380"><ele>2703.8</ele><time>2024-03-11T05:57:27Z</time></trkpt>
<trkpt lat="45.946493" lon="7.001189"><ele>2701.2</ele><time>2024-03-11T05:57:36Z</time></trkpt>
<trkpt lat="45.946471" lon="7.001041"><ele>2695.2</ele><time>2024-03-11T05:57:44Z</time></trkpt>
<trkpt lat="45.946472" lon="7.000735"><ele>2687.0</ele><time>2024-03-11T05:57:57Z</time></trkpt>
<trkpt lat="45.946537" lon="7.000326"><ele>2679.0</ele><time>2024-03-11T05:58:07Z</time></trkpt>
<trkpt lat="45.946804" lon="6.999068"><ele>2660.2</ele><time>2024-03-11T05:58:33Z</time></trkpt>
<trkpt lat="45.946968" lon="6.998557"><ele>2655.6</ele><time>2024-03-11T05:58:43Z</time></trkpt>
<trkpt lat="45.947174" lon="6.997966"><ele>2645.0</ele><time>2024-03-11T05:58:50Z</time></trkpt>
<trkpt lat="45.947273" lon="6.997439"><ele>2640.0</ele><time>2024-03-11T05:58:57Z</time></trkpt>
<trkpt lat="45.947528" lon="6.996384"><ele>2627.8</ele><time>2024-03-11T05:59:17Z</time></trkpt>
<trkpt lat="45.947810" lon="6.995761"><ele>2621.0</ele><time>2024-03-11T05:59:28Z</time></trkpt>
<trkpt lat="45.947910" lon="6.995623"><ele>2617.6</ele><time>2024-03-11T05:59:32Z</time></trkpt>
<trkpt lat="45.947888" lon="6.995477"><ele>2615.8</ele><time>2024-03-11T05:59:35Z</time></trkpt>
<trkpt lat="45.947931" lon="6.995414"><ele>2613.8</ele><time>2024-03-11T05:59:37Z</time></trkpt>
<trkpt lat="45.947952" lon="6.995217"><ele>2611.6</ele><time>2024-03-11T05:59:41Z</time></trkpt>
<trkpt lat="45.947986" lon="6.995201"><ele>2610.0</ele><time>2024-03-11T05:59:43Z</time></trkpt>
<trkpt lat="45.947977" lon="6.995181"><ele>2608.4</ele><time>2024-03-11T06:00:05Z</time></trkpt>
<trkpt lat="45.947990" lon="6.995222"><ele>2608.0</ele><time>2024-03-11T06:00:40Z</time></trkpt>
<trkpt lat="45.947980" lon="6.995199"><ele>2608.6</ele><time>2024-03-11T06:01:03Z</time></trkpt>
<trkpt lat="45.948110" lon="6.995078"><ele>2607.8</ele><time>2024-03-11T06:01:10Z</time></trkpt>
<trkpt lat="45.948280" lon="6.994991"><ele>2604.6</ele><time>2024-03-11T06:01:13Z</time></trkpt>
<trkpt lat="45.948222" lon="6.994788"><ele>2601.2</ele><time>2024-03-11T06:01:16Z</time></trkpt>
<trkpt lat="45.948289" lon="6.994562"><ele>2597.2</ele><time>2024-03-11T06:01:19Z</time></trkpt>
<trkpt lat="45.948253" lon="6.994200"><ele>2591.8</ele><time>2024-03-11T06:01:23Z</time></trkpt>
<trkpt lat="45.948341" lon="6.993970"><ele>2589.0</ele><time>2024-03-11T06:01:26Z</time></trkpt>
<trkpt lat="45.948415" lon="6.993884"><ele>2586.4</ele><time>2024-03-11T06:01:31Z</time></trkpt>
<trkpt lat="45.948537" lon="6.993643"><ele>2583.2</ele><time>2024-03-11T06:01:37Z</time></trkpt>
<trkpt lat="45.948829" lon="6.993414"><ele>2576.6</ele><time>2024-03-11T06:01:44Z</time></trkpt>
<trkpt lat="45.949045" lon="6.993183"><ele>2571.0</ele><time>2024-03-11T06:01:48Z</time></trkpt>
<trkpt lat="45.949260" lon="6.992881"><ele>2564.2</ele><time>2024-03-11T06:01:53Z</time></trkpt>
<trkpt lat="45.949528" lon="6.992351"><ele>2557.2</ele><time>2024-03-11T06:02:00Z</time></trkpt>
<trkpt lat="45.949820" lon="6.991998"><ele>2551.2</ele><time>2024-03-11T06:02:05Z</time></trkpt>
<trkpt lat="45.950508" lon="6.991269"><ele>2544.6</ele><time>2024-03-11T06:02:19Z</time></trkpt>
<trkpt lat="45.951175" lon="6.990781"><ele>2539.0</ele><time>2024-03-11T06:02:46Z</time></trkpt>
<trkpt lat="45.951660" lon="6.990519"><ele>2534.4</ele><time>2024-03-11T06:03:06Z</time></trkpt>
<trkpt lat="45.952546" lon="6.989924"><ele>2524.4</ele><time>2024-03-11T06:03:33Z</time></trkpt>
<trkpt lat="45.953295" lon="6.989608"><ele>2516.2</ele><time>2024-03-11T06:03:50Z</time></trkpt>
<trkpt lat="45.953856" lon="6.989189"><ele>2510.0</ele><time>2024-03-11T06:04:06Z</time></trkpt>
<trkpt lat="45.954192" lon="6.988766"><ele>2507.8</ele><time>2024-03-11T06:04:54Z</time></trkpt>
<trkpt lat="45.954919" lon="6.988175"><ele>2502.2</ele><time>2024-03-11T06:06:01Z</time></trkpt>
<trkpt lat="45.955624" lon="6.987804"><ele>2498.2</ele><time>2024-03-11T06:07:02Z</time></trkpt>
<trkpt lat="45.955965" lon="6.987549"><ele>2497.0</ele><time>2024-03-11T06:07:34Z</time></trkpt>
<trkpt lat="45.956162" lon="6.987353"><ele>2496.2</ele><time>2024-03-11T06:07:54Z</time></trkpt>
<trkpt lat="45.956839" lon="6.986873"><ele>2491.4</ele><time>2024-03-11T06:08:35Z</time></trkpt>
<trkpt lat="45.957139" lon="6.986593"><ele>2487.8</ele><time>2024-03-11T06:08:47Z</time></trkpt>
<trkpt lat="45.957353" lon="6.986323"><ele>2485.6</ele><time>2024-03-11T06:08:54Z</time></trkpt>
<trkpt lat="45.957749" lon="6.985928"><ele>2479.4</ele><time>2024-03-11T06:09:03Z</time></trkpt>
<trkpt lat="45.957956" lon="6.985776"><ele>2476.6</ele><time>2024-03-11T06:09:07Z</time></trkpt>
<trkpt lat="45.958150" lon="6.985465"><ele>2472.2</ele><time>2024-03-11T06:09:13Z</time></trkpt>
<trkpt lat="45.958180" lon="6.985268"><ele>2471.2</ele><time>2024-03-11T06:09:17Z</time></trkpt>
<trkpt lat="45.958317" lon="6.985129"><ele>2468.0</ele><time>2024-03-11T06:09:22Z</time></trkpt>
<trkpt lat="45.958405" lon="6.984969"><ele>2465.2</ele><time>2024-03-11T06:09:26Z</time></trkpt>
<trkpt lat="45.958683" lon="6.985096"><ele>2462.6</ele><time>2024-03-11T06:09:33Z</time></trkpt>
<trkpt lat="45.958816" lon="6.985069"><ele>2458.8</ele><time>2024-03-11T06:09:36Z</time></trkpt>
<trkpt lat="45.959078" lon="6.984896"><ele>2455.4</ele><time>2024-03-11T06:09:40Z</time></trkpt>
<trkpt lat="45.959389" lon="6.984401"><ele>2446.6</ele><time>2024-03-11T06:09:47Z</time></trkpt>
<trkpt lat="45.959569" lon="6.984323"><ele>2444.4</ele><time>2024-03-11T06:09:50Z</time></trkpt>
<trkpt lat="45.959690" lon="6.984222"><ele>2444.0</ele><time>2024-03-11T06:09:52Z</time></trkpt>
<trkpt lat="45.959802" lon="6.984035"><ele>2441.2</ele><time>2024-03-11T06:09:55Z</time></trkpt>
<trkpt lat="45.959841" lon="6.983908"><ele>2438.8</ele><time>2024-03-11T06:10:23Z</time></trkpt>
<trkpt lat="45.959808" lon="6.983914"><ele>2438.8</ele><time>2024-03-11T06:10:42Z</time></trkpt>
<trkpt lat="45.959877" lon="6.983698"><ele>2438.0</ele><time>2024-03-11T06:11:29Z</time></trkpt>
<trkpt lat="45.960251" lon="6.983531"><ele>2433.4</ele><time>2024-03-11T06:11:37Z</time></trkpt>
<trkpt lat="45.960386" lon="6.983416"><ele>2431.4</ele><time>2024-03-11T06:11:41Z</time></trkpt>
<trkpt lat="45.960277" lon="6.983213"><ele>2430.8</ele><time>2024-03-11T06:12:06Z</time></trkpt>
<trkpt lat="45.960240" lon="6.983078"><ele>2430.4</ele><time>2024-03-11T06:12:10Z</time></trkpt>
<trkpt lat="45.960181" lon="6.982388"><ele>2426.6</ele><time>2024-03-11T06:12:51Z</time></trkpt>
<trkpt lat="45.960238" lon="6.982038"><ele>2425.2</ele><time>2024-03-11T06:13:01Z</time></trkpt>
<trkpt lat="45.960302" lon="6.981866"><ele>2423.0</ele><time>2024-03-11T06:13:03Z</time></trkpt>
<trkpt lat="45.960584" lon="6.981454"><ele>2416.4</ele><time>2024-03-11T06:13:08Z</time></trkpt>
<trkpt lat="45.960824" lon="6.981266"><ele>2410.6</ele><time>2024-03-11T06:13:11Z</time></trkpt>
<trkpt lat="45.960960" lon="6.981046"><ele>2408.2</ele><time>2024-03-11T06:13:13Z</time></trkpt>
<trkpt lat="45.961125" lon="6.980873"><ele>2401.4</ele><time>2024-03-11T06:13:15Z</time></trkpt>
<trkpt lat="45.962161" lon="6.979554"><ele>2380.6</ele><time>2024-03-11T06:13:28Z</time></trkpt>
<trkpt lat="45.962741" lon="6.978980"><ele>2371.2</ele><time>2024-03-11T06:13:36Z</time></trkpt>
<trkpt lat="45.963632" lon="6.978241"><ele>2360.6</ele><time>2024-03-11T06:13:53Z</time></trkpt>
<trkpt lat="45.964060" lon="6.977975"><ele>2357.8</ele><time>2024-03-11T06:14:06Z</time></trkpt>
<trkpt lat="45.964711" lon="6.977721"><ele>2352.0</ele><time>2024-03-11T06:14:27Z</time></trkpt>
<trkpt lat="45.964845" lon="6.977540"><ele>2350.0</ele><time>2024-03-11T06:16:07Z</time></trkpt>
<trkpt lat="45.964835" lon="6.977528"><ele>2351.4</ele><time>2024-03-11T06:16:19Z</time></trkpt>
<trkpt lat="45.964859" lon="6.977553"><ele>2352.8</ele><time>2024-03-11T06:19:39Z</time></trkpt>
<trkpt lat="45.964862" lon="6.977527"><ele>2351.4</ele><time>2024-03-11T06:20:04Z</time></trkpt>
<trkpt lat="45.964833" lon="6.977538"><ele>2352.0</ele><time>2024-03-11T06:20:31Z</time></trkpt>
<trkpt lat="45.964878" lon="6.977543"><ele>2353.8</ele><time>2024-03-11T06:20:52Z</time></trkpt>
<trkpt lat="45.964844" lon="6.977530"><ele>2355.8</ele><time>2024-03-11T06:21:15Z</time></trkpt>
<trkpt lat="45.964845" lon="6.977532"><ele>2360.2</ele><time>2024-03-11T06:21:47Z</time></trkpt>
<trkpt lat="45.964874" lon="6.977542"><ele>2359.8</ele><time>2024-03-11T06:21:52Z</time></trkpt>
<trkpt lat="45.964846" lon="6.977541"><ele>2360.8</ele><time>2024-03-11T06:22:01Z</time></trkpt>
<trkpt lat="45.964849" lon="6.977533"><ele>2367.0</ele><time>2024-03-11T06:23:56Z</time></trkpt>
<trkpt lat="45.965001" lon="6.977427"><ele>2367.6</ele><time>2024-03-11T06:24:19Z</time></trkpt>
<trkpt lat="45.965668" lon="6.976841"><ele>2383.4</ele><time>2024-03-11T06:27:03Z</time></trkpt>
<trkpt lat="45.965722" lon="6.976849"><ele>2384.2</ele><time>2024-03-11T06:27:25Z</time></trkpt>
<trkpt lat="45.965770" lon="6.976814"><ele>2379.8</ele><time>2024-03-11T06:29:36Z</time></trkpt>
<trkpt lat="45.965851" lon="6.976731"><ele>2385.6</ele><time>2024-03-11T06:32:04Z</time></trkpt>
<trkpt lat="45.965840" lon="6.976707"><ele>2386.6</ele><time>2024-03-11T06:32:28Z</time></trkpt>
<trkpt lat="45.965881" lon="6.976714"><ele>2386.6</ele><time>2024-03-11T06:33:12Z</time></trkpt>
<trkpt lat="45.965939" lon="6.976912"><ele>2400.6</ele><time>2024-03-11T06:35:24Z</time></trkpt>
<trkpt lat="45.965998" lon="6.977028"><ele>2405.0</ele><time>2024-03-11T06:36:39Z</time></trkpt>
<trkpt lat="45.965984" lon="6.977325"><ele>2414.4</ele><time>2024-03-11T06:38:40Z</time></trkpt>
<trkpt lat="45.966061" lon="6.977402"><ele>2420.4</ele><time>2024-03-11T06:39:32Z</time></trkpt>
<trkpt lat="45.966124" lon="6.977407"><ele>2422.6</ele><time>2024-03-11T06:41:50Z</time></trkpt>
<trkpt lat="45.966102" lon="6.977422"><ele>2423.0</ele><time>2024-03-11T06:43:12Z</time></trkpt>
<trkpt lat="45.966395" lon="6.977427"><ele>2428.8</ele><time>2024-03-11T06:45:10Z</time></trkpt>
<trkpt lat="45.967349" lon="6.977337"><ele>2455.8</ele><time>2024-03-11T06:48:07Z</time></trkpt>
<trkpt lat="45.967564" lon="6.977418"><ele>2462.0</ele><time>2024-03-11T06:48:51Z</time></trkpt>
<trkpt lat="45.967506" lon="6.977719"><ele>2468.0</ele><time>2024-03-11T06:49:52Z</time></trkpt>
<trkpt lat="45.967938" lon="6.977748"><ele>2479.0</ele><time>2024-03-11T06:52:11Z</time></trkpt>
<trkpt lat="45.968053" lon="6.977825"><ele>2482.6</ele><time>2024-03-11T06:52:30Z</time></trkpt>
<trkpt lat="45.968183" lon="6.977985"><ele>2487.6</ele><time>2024-03-11T06:52:58Z</time></trkpt>
<trkpt lat="45.968278" lon="6.978043"><ele>2490.0</ele><time>2024-03-11T06:53:54Z</time></trkpt>
<trkpt lat="45.968279" lon="6.978095"><ele>2492.6</ele><time>2024-03-11T06:55:17Z</time></trkpt>
<trkpt lat="45.968139" lon="6.978289"><ele>2497.6</ele><time>2024-03-11T06:56:48Z</time></trkpt>
<trkpt lat="45.968724" lon="6.978511"><ele>2514.2</ele><time>2024-03-11T06:58:27Z</time></trkpt>
<trkpt lat="45.968632" lon="6.978723"><ele>2519.8</ele><time>2024-03-11T06:59:04Z</time></trkpt>
<trkpt lat="45.969160" lon="6.978771"><ele>2536.0</ele><time>2024-03-11T07:00:52Z</time></trkpt>
<trkpt lat="45.969362" lon="6.978896"><ele>2543.2</ele><time>2024-03-11T07:01:38Z</time></trkpt>
<trkpt lat="45.969303" lon="6.979047"><ele>2546.4</ele><time>2024-03-11T07:02:07Z</time></trkpt>
<trkpt lat="45.969289" lon="6.979225"><ele>2550.4</ele><time>2024-03-11T07:02:28Z</time></trkpt>
<trkpt lat="45.969298" lon="6.979247"><ele>2553.0</ele><time>2024-03-11T07:02:39Z</time></trkpt>
<trkpt lat="45.969474" lon="6.979235"><ele>2558.6</ele><time>2024-03-11T07:03:17Z</time></trkpt>
<trkpt lat="45.969444" lon="6.979411"><ele>2560.4</ele><time>2024-03-11T07:03:38Z</time></trkpt>
<trkpt lat="45.969455" lon="6.979509"><ele>2563.0</ele><time>2024-03-11T07:03:53Z</time></trkpt>
<trkpt lat="45.969414" lon="6.979784"><ele>2570.2</ele><time>2024-03-11T07:04:52Z</time></trkpt>
<trkpt lat="45.969862" lon="6.979721"><ele>2584.0</ele><time>2024-03-11T07:06:33Z</time></trkpt>
<trkpt lat="45.969849" lon="6.980145"><ele>2590.0</ele><time>2024-03-11T07:07:28Z</time></trkpt>
<trkpt lat="45.969828" lon="6.980322"><ele>2595.0</ele><time>2024-03-11T07:07:54Z</time></trkpt>
<trkpt lat="45.970027" lon="6.980227"><ele>2600.8</ele><time>2024-03-11T07:08:35Z</time></trkpt>
<trkpt lat="45.970095" lon="6.980234"><ele>2602.6</ele><time>2024-03-11T07:08:48Z</time></trkpt>
<trkpt lat="45.970082" lon="6.980744"><ele>2611.6</ele><time>2024-03-11T07:10:00Z</time></trkpt>
<trkpt lat="45.970008" lon="6.981096"><ele>2619.6</ele><time>2024-03-11T07:11:04Z</time></trkpt>
<trkpt lat="45.970188" lon="6.981113"><ele>2625.0</ele><time>2024-03-11T07:11:51Z</time></trkpt>
<trkpt lat="45.970149" lon="6.981325"><ele>2629.0</ele><time>2024-03-11T07:12:35Z</time></trkpt>
<trkpt lat="45.970273" lon="6.981314"><ele>2633.4</ele><time>2024-03-11T07:13:12Z</time></trkpt>
<trkpt lat="45.970198" lon="6.981504"><ele>2635.6</ele><time>2024-03-11T07:13:41Z</time></trkpt>
<trkpt lat="45.970055" lon="6.981636"><ele>2641.2</ele><time>2024-03-11T07:14:24Z</time></trkpt>
<trkpt lat="45.969994" lon="6.981736"><ele>2645.8</ele><time>2024-03-11T07:15:06Z</time></trkpt>
<trkpt lat="45.970317" lon="6.981968"><ele>2656.2</ele><time>2024-03-11T07:16:34Z</time></trkpt>
<trkpt lat="45.970106" lon="6.982198"><ele>2663.0</ele><time>2024-03-11T07:17:33Z</time></trkpt>
<trkpt lat="45.970294" lon="6.982302"><ele>2668.8</ele><time>2024-03-11T07:18:25Z</time></trkpt>
<trkpt lat="45.970138" lon="6.982449"><ele>2674.0</ele><time>2024-03-11T07:19:37Z</time></trkpt>
<trkpt lat="45.970236" lon="6.982491"><ele>2676.8</ele><time>2024-03-11T07:20:28Z</time></trkpt>
<trkpt lat="45.970044" lon="6.982664"><ele>2683.4</ele><time>2024-03-11T07:21:48Z</time></trkpt>
<trkpt lat="45.970209" lon="6.982780"><ele>2688.4</ele><time>2024-03-11T07:22:44Z</time></trkpt>
<trkpt lat="45.970059" lon="6.982982"><ele>2694.4</ele><time>2024-03-11T07:23:41Z</time></trkpt>
<trkpt lat="45.970199" lon="6.983118"><ele>2699.6</ele><time>2024-03-11T07:24:20Z</time></trkpt>
<trkpt lat="45.970011" lon="6.983496"><ele>2710.2</ele><time>2024-03-11T07:25:44Z</time></trkpt>
<trkpt lat="45.970052" lon="6.983692"><ele>2715.0</ele><time>2024-03-11T07:26:29Z</time></trkpt>
<trkpt lat="45.970023" lon="6.983904"><ele>2720.2</ele><time>2024-03-11T07:27:02Z</time></trkpt>
<trkpt lat="45.970084" lon="6.984012"><ele>2723.2</ele><time>2024-03-11T07:27:26Z</time></trkpt>
<trkpt lat="45.970168" lon="6.984057"><ele>2725.4</ele><time>2024-03-11T07:27:50Z</time></trkpt>
<trkpt lat="45.970118" lon="6.984338"><ele>2732.6</ele><time>2024-03-11T07:28:51Z</time></trkpt>
<trkpt lat="45.970149" lon="6.984659"><ele>2740.2</ele><time>2024-03-11T07:30:01Z</time></trkpt>
<trkpt lat="45.970129" lon="6.984965"><ele>2746.4</ele><time>2024-03-11T07:30:45Z</time></trkpt>
<trkpt lat="45.970252" lon="6.985023"><ele>2750.2</ele><time>2024-03-11T07:31:20Z</time></trkpt>
<trkpt lat="45.970232" lon="6.985253"><ele>2755.8</ele><time>2024-03-11T07:32:08Z</time></trkpt>
<trkpt lat="45.970404" lon="6.985314"><ele>2760.8</ele><time>2024-03-11T07:33:02Z</time></trkpt>
<trkpt lat="45.970436" lon="6.985475"><ele>2763.0</ele><time>2024-03-11T07:34:02Z</time></trkpt>
<trkpt lat="45.970421" lon="6.985431"><ele>2762.8</ele><time>2024-03-11T07:34:12Z</time></trkpt>
<trkpt lat="45.970453" lon="6.985449"><ele>2763.0</ele><time>2024-03-11T07:34:22Z</time></trkpt>
<trkpt lat="45.970458" lon="6.985419"><ele>2763.0</ele><time>2024-03-11T07:34:28Z</time></trkpt>
<trkpt lat="45.970422" lon="6.985444"><ele>2763.0</ele><time>2024-03-11T07:34:54Z</time></trkpt>
<trkpt lat="45.970420" lon="6.985406"><ele>2763.0</ele><time>2024-03-11T07:35:20Z</time></trkpt>
<trkpt lat="45.970455" lon="6.985435"><ele>2762.6</ele><time>2024-03-11T07:35:39Z</time></trkpt>
<trkpt lat="45.970429" lon="6.985355"><ele>2762.4</ele><time>2024-03-11T07:36:12Z</time></trkpt>
<trkpt lat="45.970415" lon="6.985414"><ele>2761.8</ele><time>2024-03-11T07:36:33Z</time></trkpt>
<trkpt lat="45.970460" lon="6.985394"><ele>2762.4</ele><time>2024-03-11T07:37:15Z</time></trkpt>
<trkpt lat="45.970411" lon="6.985400"><ele>2763.2</ele><time>2024-03-11T07:37:27Z</time></trkpt>
<trkpt lat="45.970419" lon="6.985425"><ele>2762.8</ele><time>2024-03-11T07:37:43Z</time></trkpt>
<trkpt lat="45.970496" lon="6.985419"><ele>2765.6</ele><time>2024-03-11T07:38:25Z</time></trkpt>
<trkpt lat="45.970789" lon="6.984864"><ele>2780.8</ele><time>2024-03-11T07:40:43Z</time></trkpt>
<trkpt lat="45.970976" lon="6.984752"><ele>2787.8</ele><time>2024-03-11T07:42:23Z</time></trkpt>
<trkpt lat="45.971085" lon="6.984731"><ele>2790.6</ele><time>2024-03-11T07:42:54Z</time></trkpt>
<trkpt lat="45.971234" lon="6.984727"><ele>2795.2</ele><time>2024-03-11T07:43:48Z</time></trkpt>
<trkpt lat="45.971127" lon="6.984869"><ele>2798.0</ele><time>2024-03-11T07:44:23Z</time></trkpt>
<trkpt lat="45.971241" lon="6.984846"><ele>2801.2</ele><time>2024-03-11T07:45:05Z</time></trkpt>
<trkpt lat="45.971115" lon="6.985050"><ele>2805.8</ele><time>2024-03-11T07:46:06Z</time></trkpt>
<trkpt lat="45.971105" lon="6.985093"><ele>2806.6</ele><time>2024-03-11T07:46:11Z</time></trkpt>
<trkpt lat="45.971133" lon="6.985100"><ele>2807.8</ele><time>2024-03-11T07:46:29Z</time></trkpt>
<trkpt lat="45.971298" lon="6.985100"><ele>2811.6</ele><time>2024-03-11T07:48:32Z</time></trkpt>
<trkpt lat="45.971984" lon="6.984892"><ele>2814.6</ele><time>2024-03-11T07:50:19Z</time></trkpt>
<trkpt lat="45.972331" lon="6.984781"><ele>2819.4</ele><time>2024-03-11T07:51:13Z</time></trkpt>
<trkpt lat="45.972698" lon="6.984884"><ele>2829.0</ele><time>2024-03-11T07:52:35Z</time></trkpt>
<trkpt lat="45.972870" lon="6.984866"><ele>2834.6</ele><time>2024-03-11T07:53:33Z</time></trkpt>
<trkpt lat="45.972917" lon="6.984897"><ele>2834.8</ele><time>2024-03-11T07:53:51Z</time></trkpt>
<trkpt lat="45.972888" lon="6.984865"><ele>2834.8</ele><time>2024-03-11T07:54:37Z</time></trkpt>
<trkpt lat="45.972917" lon="6.984848"><ele>2836.0</ele><time>2024-03-11T07:55:27Z</time></trkpt>
<trkpt lat="45.973157" lon="6.985015"><ele>2836.8</ele><time>2024-03-11T07:57:36Z</time></trkpt>
<trkpt lat="45.973610" lon="6.985158"><ele>2843.6</ele><time>2024-03-11T07:59:15Z</time></trkpt>
<trkpt lat="45.973812" lon="6.985086"><ele>2849.0</ele><time>2024-03-11T08:00:20Z</time></trkpt>
<trkpt lat="45.974015" lon="6.984879"><ele>2856.6</ele><time>2024-03-11T08:01:42Z</time></trkpt>
<trkpt lat="45.974339" lon="6.984658"><ele>2870.8</ele><time>2024-03-11T08:03:28Z</time></trkpt>
<trkpt lat="45.974542" lon="6.984476"><ele>2882.0</ele><time>2024-03-11T08:04:56Z</time></trkpt>
<trkpt lat="45.974611" lon="6.984367"><ele>2884.2</ele><time>2024-03-11T08:05:24Z</time></trkpt>
<trkpt lat="45.974637" lon="6.984521"><ele>2887.6</ele><time>2024-03-11T08:06:06Z</time></trkpt>
<trkpt lat="45.974722" lon="6.984431"><ele>2889.8</ele><time>2024-03-11T08:06:27Z</time></trkpt>
<trkpt lat="45.974741" lon="6.984354"><ele>2891.0</ele><time>2024-03-11T08:06:42Z</time></trkpt>
<trkpt lat="45.974797" lon="6.984532"><ele>2893.6</ele><time>2024-03-11T08:07:37Z</time></trkpt>
<trkpt lat="45.974842" lon="6.984385"><ele>2896.0</ele><time>2024-03-11T08:08:30Z</time></trkpt>
<trkpt lat="45.974915" lon="6.984496"><ele>2897.8</ele><time>2024-03-11T08:08:50Z</time></trkpt>
<trkpt lat="45.974924" lon="6.984566"><ele>2899.0</ele><time>2024-03-11T08:08:56Z</time></trkpt>
<trkpt lat="45.974943" lon="6.984377"><ele>2901.6</ele><time>2024-03-11T08:09:39Z</time></trkpt>
<trkpt lat="45.975003" lon="6.984450"><ele>2905.6</ele><time>2024-03-11T08:10:43Z</time></trkpt>
<trkpt lat="45.975003" lon="6.984262"><ele>2908.8</ele><time>2024-03-11T08:11:41Z</time></trkpt>
<trkpt lat="45.975102" lon="6.984344"><ele>2912.6</ele><time>2024-03-11T08:12:36Z</time></trkpt>
<trkpt lat="45.975128" lon="6.984429"><ele>2914.0</ele><time>2024-03-11T08:13:22Z</time></trkpt>
<trkpt lat="45.975124" lon="6.984384"><ele>2915.0</ele><time>2024-03-11T08:14:21Z</time></trkpt>
<trkpt lat="45.975160" lon="6.984368"><ele>2913.8</ele><time>2024-03-11T08:18:37Z</time></trkpt>
<trkpt lat="45.975133" lon="6.984344"><ele>2914.8</ele><time>2024-03-11T08:21:02Z</time></trkpt>
<trkpt lat="45.975160" lon="6.984371"><ele>2915.8</ele><time>2024-03-11T08:21:37Z</time></trkpt>
<trkpt lat="45.975138" lon="6.984353"><ele>2916.4</ele><time>2024-03-11T08:21:50Z</time></trkpt>
<trkpt lat="45.975156" lon="6.984358"><ele>2919.6</ele><time>2024-03-11T08:22:28Z</time></trkpt>
<trkpt lat="45.975126" lon="6.984039"><ele>2933.0</ele><time>2024-03-11T08:25:35Z</time></trkpt>
<trkpt lat="45.975151" lon="6.984040"><ele>2936.4</ele><time>2024-03-11T08:26:21Z</time></trkpt>
<trkpt lat="45.975201" lon="6.983849"><ele>2940.8</ele><time>2024-03-11T08:27:49Z</time></trkpt>
<trkpt lat="45.975269" lon="6.983767"><ele>2945.2</ele><time>2024-03-11T08:29:18Z</time></trkpt>
<trkpt lat="45.975370" lon="6.983785"><ele>2949.2</ele><time>2024-03-11T08:30:46Z</time></trkpt>
<trkpt lat="45.975577" lon="6.983635"><ele>2966.6</ele><time>2024-03-11T08:35:07Z</time></trkpt>
<trkpt lat="45.975555" lon="6.983629"><ele>2968.0</ele><time>2024-03-11T08:35:34Z</time></trkpt>
<trkpt lat="45.975633" lon="6.983590"><ele>2971.4</ele><time>2024-03-11T08:36:38Z</time></trkpt>
<trkpt lat="45.975677" lon="6.983537"><ele>2978.8</ele><time>2024-03-11T08:38:32Z</time></trkpt>
<trkpt lat="45.975740" lon="6.983520"><ele>2981.8</ele><time>2024-03-11T08:39:24Z</time></trkpt>
<trkpt lat="45.975842" lon="6.983470"><ele>2994.8</ele><time>2024-03-11T08:42:31Z</time></trkpt>
<trkpt lat="45.975875" lon="6.983417"><ele>2997.6</ele><time>2024-03-11T08:43:06Z</time></trkpt>
<trkpt lat="45.975949" lon="6.983482"><ele>3004.4</ele><time>2024-03-11T08:44:45Z</time></trkpt>
<trkpt lat="45.975955" lon="6.983469"><ele>3008.4</ele><time>2024-03-11T08:45:53Z</time></trkpt>
<trkpt lat="45.975978" lon="6.983487"><ele>3008.4</ele><time>2024-03-11T08:46:13Z</time></trkpt>
<trkpt lat="45.975959" lon="6.983486"><ele>3008.4</ele><time>2024-03-11T08:46:28Z</time></trkpt>
<trkpt lat="45.975984" lon="6.983455"><ele>3008.0</ele><time>2024-03-11T08:46:49Z</time></trkpt>
<trkpt lat="45.975952" lon="6.983493"><ele>3008.4</ele><time>2024-03-11T08:47:09Z</time></trkpt>
<trkpt lat="45.975964" lon="6.983479"><ele>3012.0</ele><time>2024-03-11T08:47:58Z</time></trkpt>
<trkpt lat="45.976031" lon="6.983492"><ele>3016.6</ele><time>2024-03-11T08:48:39Z</time></trkpt>
<trkpt lat="45.976076" lon="6.983579"><ele>3020.0</ele><time>2024-03-11T08:49:26Z</time></trkpt>
<trkpt lat="45.976143" lon="6.983643"><ele>3027.4</ele><time>2024-03-11T08:51:04Z</time></trkpt>
<trkpt lat="45.976182" lon="6.983625"><ele>3029.4</ele><time>2024-03-11T08:51:18Z</time></trkpt>
<trkpt lat="45.976215" lon="6.983670"><ele>3031.4</ele><time>2024-03-11T08:51:52Z</time></trkpt>
<trkpt lat="45.976265" lon="6.983664"><ele>3033.6</ele><time>2024-03-11T08:53:00Z</time></trkpt>
<trkpt lat="45.976238" lon="6.983665"><ele>3034.0</ele><time>2024-03-11T08:53:48Z</time></trkpt>
<trkpt lat="45.976253" lon="6.983684"><ele>3033.4</ele><time>2024-03-11T08:54:02Z</time></trkpt>
<trkpt lat="45.976240" lon="6.983665"><ele>3034.4</ele><time>2024-03-11T08:56:03Z</time></trkpt>
<trkpt lat="45.976266" lon="6.983649"><ele>3033.0</ele><time>2024-03-11T08:56:36Z</time></trkpt>
<trkpt lat="45.976244" lon="6.983640"><ele>3033.2</ele><time>2024-03-11T08:56:42Z</time></trkpt>
<trkpt lat="45.976248" lon="6.983691"><ele>3034.2</ele><time>2024-03-11T09:04:19Z</time></trkpt>
<trkpt lat="45.976247" lon="6.983657"><ele>3033.2</ele><time>2024-03-11T09:05:40Z</time></trkpt>
<trkpt lat="45.976241" lon="6.983677"><ele>3034.4</ele><time>2024-03-11T09:06:07Z</time></trkpt>
<trkpt lat="45.976341" lon="6.983642"><ele>3034.2</ele><time>2024-03-11T09:07:13Z</time></trkpt>
<trkpt lat="45.976459" lon="6.983525"><ele>3032.2</ele><time>2024-03-11T09:07:16Z</time></trkpt>
<trkpt lat="45.976580" lon="6.983173"><ele>3026.6</ele><time>2024-03-11T09:07:20Z</time></trkpt>
<trkpt lat="45.976606" lon="6.983026"><ele>3021.4</ele><time>2024-03-11T09:07:22Z</time></trkpt>
<trkpt lat="45.976636" lon="6.982983"><ele>3017.8</ele><time>2024-03-11T09:09:26Z</time></trkpt>
<trkpt lat="45.976677" lon="6.982968"><ele>3018.4</ele><time>2024-03-11T09:11:55Z</time></trkpt>
<trkpt lat="45.976947" lon="6.983480"><ele>3010.8</ele><time>2024-03-11T09:12:09Z</time></trkpt>
<trkpt lat="45.977281" lon="6.983945"><ele>2996.4</ele><time>2024-03-11T09:12:19Z</time></trkpt>
<trkpt lat="45.977427" lon="6.984070"><ele>2991.6</ele><time>2024-03-11T09:12:23Z</time></trkpt>
<trkpt lat="45.977793" lon="6.984233"><ele>2982.0</ele><time>2024-03-11T09:12:32Z</time></trkpt>
<trkpt lat="45.977810" lon="6.984142"><ele>2978.0</ele><time>2024-03-11T09:12:35Z</time></trkpt>
<trkpt lat="45.977559" lon="6.983567"><ele>2965.6</ele><time>2024-03-11T09:12:46Z</time></trkpt>
<trkpt lat="45.977556" lon="6.983443"><ele>2964.0</ele><time>2024-03-11T09:12:48Z</time></trkpt>
<trkpt lat="45.977625" lon="6.983450"><ele>2961.2</ele><time>2024-03-11T09:12:50Z</time></trkpt>
<trkpt lat="45.977779" lon="6.983346"><ele>2956.4</ele><time>2024-03-11T09:12:53Z</time></trkpt>
<trkpt lat="45.977876" lon="6.983345"><ele>2951.4</ele><time>2024-03-11T09:12:55Z</time></trkpt>
<trkpt lat="45.978008" lon="6.983244"><ele>2948.0</ele><time>2024-03-11T09:12:57Z</time></trkpt>
<trkpt lat="45.978029" lon="6.982853"><ele>2941.0</ele><time>2024-03-11T09:13:01Z</time></trkpt>
<trkpt lat="45.978041" lon="6.982793"><ele>2939.6</ele><time>2024-03-11T09:13:02Z</time></trkpt>
<trkpt lat="45.978057" lon="6.982815"><ele>2936.0</ele><time>2024-03-11T09:13:11Z</time></trkpt>
<trkpt lat="45.978857" lon="6.983646"><ele>2925.4</ele><time>2024-03-11T09:14:04Z</time></trkpt>
<trkpt lat="45.979227" lon="6.984001"><ele>2918.0</ele><time>2024-03-11T09:14:12Z</time></trkpt>
<trkpt lat="45.979421" lon="6.984138"><ele>2915.0</ele><time>2024-03-11T09:14:28Z</time></trkpt>
<trkpt lat="45.979403" lon="6.984145"><ele>2917.8</ele><time>2024-03-11T09:15:05Z</time></trkpt>
<trkpt lat="45.979428" lon="6.984135"><ele>2918.8</ele><time>2024-03-11T09:15:12Z</time></trkpt>
<trkpt lat="45.979431" lon="6.984137"><ele>2925.6</ele><time>2024-03-11T09:19:23Z</time></trkpt>
<trkpt lat="45.979487" lon="6.984226"><ele>2924.4</ele><time>2024-03-11T09:19:46Z</time></trkpt>
<trkpt lat="45.979734" lon="6.984289"><ele>2921.4</ele><time>2024-03-11T09:20:23Z</time></trkpt>
<trkpt lat="45.979907" lon="6.984539"><ele>2919.6</ele><time>2024-03-11T09:20:54Z</time></trkpt>
<trkpt lat="45.980106" lon="6.984683"><ele>2918.0</ele><time>2024-03-11T09:22:28Z</time></trkpt>
<trkpt lat="45.980109" lon="6.984649"><ele>2917.6</ele><time>2024-03-11T09:22:52Z</time></trkpt>
<trkpt lat="45.980093" lon="6.984681"><ele>2918.6</ele><time>2024-03-11T09:23:53Z</time></trkpt>
<trkpt lat="45.980127" lon="6.984649"><ele>2916.4</ele><time>2024-03-11T09:27:42Z</time></trkpt>
<trkpt lat="45.980099" lon="6.984659"><ele>2920.8</ele><time>2024-03-11T09:29:14Z</time></trkpt>
<trkpt lat="45.980088" lon="6.984673"><ele>2918.8</ele><time>2024-03-11T09:29:24Z</time></trkpt>
<trkpt lat="45.980136" lon="6.984692"><ele>2918.8</ele><time>2024-03-11T09:31:26Z</time></trkpt>
<trkpt lat="45.980110" lon="6.984702"><ele>2917.2</ele><time>2024-03-11T09:33:54Z</time></trkpt>
<trkpt lat="45.980125" lon="6.984710"><ele>2915.2</ele><time>2024-03-11T09:37:21Z</time></trkpt>
<trkpt lat="45.980195" lon="6.984791"><ele>2915.2</ele><time>2024-03-11T09:37:44Z</time></trkpt>
<trkpt lat="45.980268" lon="6.985004"><ele>2912.8</ele><time>2024-03-11T09:39:04Z</time></trkpt>
<trkpt lat="45.980222" lon="6.986310"><ele>2905.6</ele><time>2024-03-11T09:40:43Z</time></trkpt>
<trkpt lat="45.980194" lon="6.986742"><ele>2903.8</ele><time>2024-03-11T09:41:19Z</time></trkpt>
<trkpt lat="45.980163" lon="6.986841"><ele>2902.4</ele><time>2024-03-11T09:42:05Z</time></trkpt>
<trkpt lat="45.980188" lon="6.986834"><ele>2902.6</ele><time>2024-03-11T09:43:45Z</time></trkpt>
<trkpt lat="45.980174" lon="6.986811"><ele>2900.8</ele><time>2024-03-11T09:44:36Z</time></trkpt>
<trkpt lat="45.980198" lon="6.986833"><ele>2900.2</ele><time>2024-03-11T09:44:41Z</time></trkpt>
<trkpt lat="45.980174" lon="6.986842"><ele>2900.6</ele><time>2024-03-11T09:45:21Z</time></trkpt>
<trkpt lat="45.980164" lon="6.986954"><ele>2901.4</ele><time>2024-03-11T09:46:10Z</time></trkpt>
<trkpt lat="45.980142" lon="6.987547"><ele>2900.0</ele><time>2024-03-11T09:46:49Z</time></trkpt>
<trkpt lat="45.980129" lon="6.987615"><ele>2897.4</ele><time>2024-03-11T09:51:03Z</time></trkpt>
<trkpt lat="45.980253" lon="6.987700"><ele>2896.2</ele><time>2024-03-11T09:52:24Z</time></trkpt>
<trkpt lat="45.980451" lon="6.987601"><ele>2893.2</ele><time>2024-03-11T09:52:51Z</time></trkpt>
<trkpt lat="45.980778" lon="6.987285"><ele>2889.0</ele><time>2024-03-11T09:53:30Z</time></trkpt>
<trkpt lat="45.981880" lon="6.986122"><ele>2877.4</ele><time>2024-03-11T09:55:53Z</time></trkpt>
<trkpt lat="45.983023" lon="6.984986"><ele>2872.6</ele><time>2024-03-11T09:58:21Z</time></trkpt>
<trkpt lat="45.983517" lon="6.984176"><ele>2869.8</ele><time>2024-03-11T10:00:56Z</time></trkpt>
<trkpt lat="45.983565" lon="6.983966"><ele>2869.8</ele><time>2024-03-11T10:11:42Z</time></trkpt>
<trkpt lat="45.983579" lon="6.984006"><ele>2869.4</ele><time>2024-03-11T10:11:54Z</time></trkpt>
<trkpt lat="45.983570" lon="6.983941"><ele>2869.2</ele><time>2024-03-11T10:13:49Z</time></trkpt>
<trkpt lat="45.983665" lon="6.983890"><ele>2868.0</ele><time>2024-03-11T10:14:59Z</time></trkpt>
<trkpt lat="45.983780" lon="6.983733"><ele>2865.6</ele><time>2024-03-11T10:15:02Z</time></trkpt>
<trkpt lat="45.983872" lon="6.983723"><ele>2862.4</ele><time>2024-03-11T10:15:04Z</time></trkpt>
<trkpt lat="45.983937" lon="6.983634"><ele>2859.8</ele><time>2024-03-11T10:15:06Z</time></trkpt>
<trkpt lat="45.984091" lon="6.983685"><ele>2853.2</ele><time>2024-03-11T10:15:10Z</time></trkpt>
<trkpt lat="45.984582" lon="6.983612"><ele>2836.8</ele><time>2024-03-11T10:15:19Z</time></trkpt>
<trkpt lat="45.984770" lon="6.983485"><ele>2830.6</ele><time>2024-03-11T10:15:23Z</time></trkpt>
<trkpt lat="45.984858" lon="6.983172"><ele>2824.4</ele><time>2024-03-11T10:15:27Z</time></trkpt>
<trkpt lat="45.984933" lon="6.983028"><ele>2821.2</ele><time>2024-03-11T10:15:29Z</time></trkpt>
<trkpt lat="45.985065" lon="6.983000"><ele>2815.4</ele><time>2024-03-11T10:15:31Z</time></trkpt>
<trkpt lat="45.985233" lon="6.982872"><ele>2811.8</ele><time>2024-03-11T10:15:33Z</time></trkpt>
<trkpt lat="45.985392" lon="6.982909"><ele>2802.2</ele><time>2024-03-11T10:15:35Z</time></trkpt>
<trkpt lat="45.985468" lon="6.982884"><ele>2798.6</ele><time>2024-03-11T10:15:36Z</time></trkpt>
<trkpt lat="45.985535" lon="6.982773"><ele>2796.2</ele><time>2024-03-11T10:15:37Z</time></trkpt>
<trkpt lat="45.985671" lon="6.982692"><ele>2791.6</ele><time>2024-03-11T10:15:39Z</time></trkpt>
<trkpt lat="45.985781" lon="6.982542"><ele>2785.0</ele><time>2024-03-11T10:15:41Z</time></trkpt>
<trkpt lat="45.985921" lon="6.982466"><ele>2778.6</ele><time>2024-03-11T10:15:43Z</time></trkpt>
<trkpt lat="45.986084" lon="6.982458"><ele>2775.4</ele><time>2024-03-11T10:15:45Z</time></trkpt>
<trkpt lat="45.986162" lon="6.982516"><ele>2766.8</ele><time>2024-03-11T10:15:46Z</time></trkpt>
<trkpt lat="45.986250" lon="6.982532"><ele>2765.4</ele><time>2024-03-11T10:15:47Z</time></trkpt>
<trkpt lat="45.986308" lon="6.982454"><ele>2764.4</ele><time>2024-03-11T10:15:48Z</time></trkpt>
<trkpt lat="45.986478" lon="6.982394"><ele>2759.8</ele><time>2024-03-11T10:15:50Z</time></trkpt>
<trkpt lat="45.986550" lon="6.982311"><ele>2755.2</ele><time>2024-03-11T10:15:51Z</time></trkpt>
<trkpt lat="45.986595" lon="6.981982"><ele>2747.6</ele><time>2024-03-11T10:15:54Z</time></trkpt>
<trkpt lat="45.986695" lon="6.982002"><ele>2741.4</ele><time>2024-03-11T10:15:56Z</time></trkpt>
<trkpt lat="45.986997" lon="6.982158"><ele>2732.0</ele><time>2024-03-11T10:16:03Z</time></trkpt>
<trkpt lat="45.987042" lon="6.981908"><ele>2730.0</ele><time>2024-03-11T10:16:07Z</time></trkpt>
<trkpt lat="45.987092" lon="6.981859"><ele>2727.2</ele><time>2024-03-11T10:16:08Z</time></trkpt>
<trkpt lat="45.987156" lon="6.981869"><ele>2722.4</ele><time>2024-03-11T10:16:09Z</time></trkpt>
<trkpt lat="45.987354" lon="6.981963"><ele>2715.2</ele><time>2024-03-11T10:16:27Z</time></trkpt>
<trkpt lat="45.987454" lon="6.981926"><ele>2715.2</ele><time>2024-03-11T10:16:32Z</time></trkpt>
<trkpt lat="45.987526" lon="6.981807"><ele>2711.4</ele><time>2024-03-11T10:16:34Z</time></trkpt>
<trkpt lat="45.987659" lon="6.981740"><ele>2705.2</ele><time>2024-03-11T10:16:36Z</time></trkpt>
<trkpt lat="45.987717" lon="6.981665"><ele>2700.8</ele><time>2024-03-11T10:16:37Z</time></trkpt>
<trkpt lat="45.987756" lon="6.981573"><ele>2698.6</ele><time>2024-03-11T10:16:38Z</time></trkpt>
<trkpt lat="45.987773" lon="6.981351"><ele>2693.8</ele><time>2024-03-11T10:16:40Z</time></trkpt>
<trkpt lat="45.987896" lon="6.981297"><ele>2687.4</ele><time>2024-03-11T10:16:42Z</time></trkpt>
<trkpt lat="45.987992" lon="6.981116"><ele>2683.8</ele><time>2024-03-11T10:16:44Z</time></trkpt>
<trkpt lat="45.988038" lon="6.980558"><ele>2671.8</ele><time>2024-03-11T10:16:49Z</time></trkpt>
<trkpt lat="45.988020" lon="6.980198"><ele>2668.0</ele><time>2024-03-11T10:16:53Z</time></trkpt>
<trkpt lat="45.988038" lon="6.979584"><ele>2658.6</ele><time>2024-03-11T10:16:59Z</time></trkpt>
<trkpt lat="45.988094" lon="6.978685"><ele>2648.2</ele><time>2024-03-11T10:17:07Z</time></trkpt>
<trkpt lat="45.988153" lon="6.978178"><ele>2640.2</ele><time>2024-03-11T10:17:26Z</time></trkpt>
<trkpt lat="45.988242" lon="6.978171"><ele>2639.0</ele><time>2024-03-11T10:19:46Z</time></trkpt>
<trkpt lat="45.988460" lon="6.977982"><ele>2630.4</ele><time>2024-03-11T10:19:51Z</time></trkpt>
<trkpt lat="45.988615" lon="6.977913"><ele>2622.8</ele><time>2024-03-11T10:19:54Z</time></trkpt>
<trkpt lat="45.988803" lon="6.977988"><ele>2615.4</ele><time>2024-03-11T10:19:57Z</time></trkpt>
<trkpt lat="45.988947" lon="6.978020"><ele>2613.6</ele><time>2024-03-11T10:19:59Z</time></trkpt>
<trkpt lat="45.989028" lon="6.977986"><ele>2610.0</ele><time>2024-03-11T10:20:00Z</time></trkpt>
<trkpt lat="45.989168" lon="6.978006"><ele>2603.2</ele><time>2024-03-11T10:20:02Z</time></trkpt>
<trkpt lat="45.989340" lon="6.978056"><ele>2600.0</ele><time>2024-03-11T10:20:04Z</time></trkpt>
<trkpt lat="45.989417" lon="6.978062"><ele>2594.4</ele><time>2024-03-11T10:20:05Z</time></trkpt>
<trkpt lat="45.989582" lon="6.977967"><ele>2590.6</ele><time>2024-03-11T10:20:07Z</time></trkpt>
<trkpt lat="45.989647" lon="6.977952"><ele>2586.2</ele><time>2024-03-11T10:20:08Z</time></trkpt>
<trkpt lat="45.989691" lon="6.977890"><ele>2584.2</ele><time>2024-03-11T10:20:09Z</time></trkpt>
<trkpt lat="45.989690" lon="6.977637"><ele>2579.6</ele><time>2024-03-11T10:20:12Z</time></trkpt>
<trkpt lat="45.989745" lon="6.977607"><ele>2575.0</ele><time>2024-03-11T10:20:13Z</time></trkpt>
<trkpt lat="45.989880" lon="6.977652"><ele>2569.0</ele><time>2024-03-11T10:20:22Z</time></trkpt>
<trkpt lat="45.989930" lon="6.977590"><ele>2568.4</ele><time>2024-03-11T10:21:35Z</time></trkpt>
<trkpt lat="45.990037" lon="6.977590"><ele>2566.0</ele><time>2024-03-11T10:21:37Z</time></trkpt>
<trkpt lat="45.990374" lon="6.977704"><ele>2556.6</ele><time>2024-03-11T10:21:43Z</time></trkpt>
<trkpt lat="45.990541" lon="6.977696"><ele>2553.2</ele><time>2024-03-11T10:21:46Z</time></trkpt>
<trkpt lat="45.990576" lon="6.977677"><ele>2552.2</ele><time>2024-03-11T10:21:47Z</time></trkpt>
<trkpt lat="45.990546" lon="6.977569"><ele>2550.4</ele><time>2024-03-11T10:21:49Z</time></trkpt>
<trkpt lat="45.990623" lon="6.977470"><ele>2546.8</ele><time>2024-03-11T10:21:51Z</time></trkpt>
<trkpt lat="45.990798" lon="6.977488"><ele>2538.6</ele><time>2024-03-11T10:21:54Z</time></trkpt>
<trkpt lat="45.991193" lon="6.977543"><ele>2534.0</ele><time>2024-03-11T10:22:01Z</time></trkpt>
<trkpt lat="45.991408" lon="6.977542"><ele>2528.6</ele><time>2024-03-11T10:22:09Z</time></trkpt>
<trkpt lat="45.991509" lon="6.977519"><ele>2527.2</ele><time>2024-03-11T10:22:18Z</time></trkpt>
<trkpt lat="45.991597" lon="6.977392"><ele>2524.2</ele><time>2024-03-11T10:22:21Z</time></trkpt>
<trkpt lat="45.991557" lon="6.977090"><ele>2518.8</ele><time>2024-03-11T10:22:24Z</time></trkpt>
<trkpt lat="45.991470" lon="6.976796"><ele>2508.4</ele><time>2024-03-11T10:22:27Z</time></trkpt>
<trkpt lat="45.991426" lon="6.976735"><ele>2504.4</ele><time>2024-03-11T10:22:28Z</time></trkpt>
<trkpt lat="45.991409" lon="6.976638"><ele>2503.2</ele><time>2024-03-11T10:22:29Z</time></trkpt>
<trkpt lat="45.991403" lon="6.976395"><ele>2497.8</ele><time>2024-03-11T10:22:32Z</time></trkpt>
<trkpt lat="45.991419" lon="6.976360"><ele>2494.6</ele><time>2024-03-11T10:23:00Z</time></trkpt>
<trkpt lat="45.991426" lon="6.976306"><ele>2495.2</ele><time>2024-03-11T10:24:32Z</time></trkpt>
<trkpt lat="45.991351" lon="6.976165"><ele>2494.4</ele><time>2024-03-11T10:24:35Z</time></trkpt>
<trkpt lat="45.991431" lon="6.975850"><ele>2485.8</ele><time>2024-03-11T10:24:40Z</time></trkpt>
<trkpt lat="45.991424" lon="6.975793"><ele>2483.6</ele><time>2024-03-11T10:24:41Z</time></trkpt>
<trkpt lat="45.991231" lon="6.975679"><ele>2475.8</ele><time>2024-03-11T10:24:46Z</time></trkpt>
<trkpt lat="45.990897" lon="6.975513"><ele>2469.0</ele><time>2024-03-11T10:24:53Z</time></trkpt>
<trkpt lat="45.990794" lon="6.975409"><ele>2465.4</ele><time>2024-03-11T10:24:55Z</time></trkpt>
<trkpt lat="45.990829" lon="6.975251"><ele>2458.0</ele><time>2024-03-11T10:24:57Z</time></trkpt>
<trkpt lat="45.990765" lon="6.975182"><ele>2455.6</ele><time>2024-03-11T10:24:59Z</time></trkpt>
<trkpt lat="45.990793" lon="6.975094"><ele>2453.0</ele><time>2024-03-11T10:25:01Z</time></trkpt>
<trkpt lat="45.990841" lon="6.975057"><ele>2450.4</ele><time>2024-03-11T10:25:03Z</time></trkpt>
<trkpt lat="45.990778" lon="6.974883"><ele>2448.6</ele><time>2024-03-11T10:25:06Z</time></trkpt>
<trkpt lat="45.990793" lon="6.974831"><ele>2447.4</ele><time>2024-03-11T10:25:07Z</time></trkpt>
<trkpt lat="45.990848" lon="6.974815"><ele>2441.6</ele><time>2024-03-11T10:25:08Z</time></trkpt>
<trkpt lat="45.990908" lon="6.974797"><ele>2440.6</ele><time>2024-03-11T10:25:09Z</time></trkpt>
<trkpt lat="45.990944" lon="6.974734"><ele>2439.0</ele><time>2024-03-11T10:25:10Z</time></trkpt>
<trkpt lat="45.990905" lon="6.974609"><ele>2436.4</ele><time>2024-03-11T10:25:12Z</time></trkpt>
<trkpt lat="45.990954" lon="6.974498"><ele>2432.4</ele><time>2024-03-11T10:25:14Z</time></trkpt>
<trkpt lat="45.991073" lon="6.974485"><ele>2425.6</ele><time>2024-03-11T10:25:17Z</time></trkpt>
<trkpt lat="45.991095" lon="6.974447"><ele>2425.2</ele><time>2024-03-11T10:25:18Z</time></trkpt>
<trkpt lat="45.991091" lon="6.974154"><ele>2420.2</ele><time>2024-03-11T10:25:22Z</time></trkpt>
<trkpt lat="45.991242" lon="6.973971"><ele>2411.8</ele><time>2024-03-11T10:25:25Z</time></trkpt>
<trkpt lat="45.991266" lon="6.973896"><ele>2409.8</ele><time>2024-03-11T10:25:26Z</time></trkpt>
<trkpt lat="45.991247" lon="6.973737"><ele>2407.4</ele><time>2024-03-11T10:25:28Z</time></trkpt>
<trkpt lat="45.991280" lon="6.973676"><ele>2403.2</ele><time>2024-03-11T10:25:30Z</time></trkpt>
<trkpt lat="45.991257" lon="6.973673"><ele>2401.2</ele><time>2024-03-11T10:25:56Z</time></trkpt>
<trkpt lat="45.991279" lon="6.973688"><ele>2402.2</ele><time>2024-03-11T10:28:34Z</time></trkpt>
<trkpt lat="45.991328" lon="6.973631"><ele>2401.6</ele><time>2024-03-11T10:28:37Z</time></trkpt>
<trkpt lat="45.991329" lon="6.973577"><ele>2401.4</ele><time>2024-03-11T10:28:38Z</time></trkpt>
<trkpt lat="45.991046" lon="6.973208"><ele>2393.2</ele><time>2024-03-11T10:28:45Z</time></trkpt>
<trkpt lat="45.991007" lon="6.973103"><ele>2391.4</ele><time>2024-03-11T10:28:47Z</time></trkpt>
<trkpt lat="45.991136" lon="6.972943"><ele>2386.4</ele><time>2024-03-11T10:28:51Z</time></trkpt>
<trkpt lat="45.991163" lon="6.972864"><ele>2384.8</ele><time>2024-03-11T10:28:52Z</time></trkpt>
<trkpt lat="45.991165" lon="6.972554"><ele>2377.2</ele><time>2024-03-11T10:28:56Z</time></trkpt>
<trkpt lat="45.991368" lon="6.972204"><ele>2365.4</ele><time>2024-03-11T10:29:02Z</time></trkpt>
<trkpt lat="45.991629" lon="6.971888"><ele>2348.6</ele><time>2024-03-11T10:29:07Z</time></trkpt>
<trkpt lat="45.991774" lon="6.971760"><ele>2344.2</ele><time>2024-03-11T10:29:09Z</time></trkpt>
<trkpt lat="45.991831" lon="6.971666"><ele>2337.4</ele><time>2024-03-11T10:29:10Z</time></trkpt>
<trkpt lat="45.991875" lon="6.971550"><ele>2336.2</ele><time>2024-03-11T10:29:11Z</time></trkpt>
<trkpt lat="45.992017" lon="6.971465"><ele>2333.2</ele><time>2024-03-11T10:29:13Z</time></trkpt>
<trkpt lat="45.992110" lon="6.971450"><ele>2327.4</ele><time>2024-03-11T10:29:14Z</time></trkpt>
<trkpt lat="45.992243" lon="6.971490"><ele>2324.0</ele><time>2024-03-11T10:29:16Z</time></trkpt>
<trkpt lat="45.992397" lon="6.971465"><ele>2322.6</ele><time>2024-03-11T10:29:19Z</time></trkpt>
<trkpt lat="45.992366" lon="6.971296"><ele>2321.2</ele><time>2024-03-11T10:29:21Z</time></trkpt>
<trkpt lat="45.992385" lon="6.971185"><ele>2320.0</ele><time>2024-03-11T10:29:22Z</time></trkpt>
<trkpt lat="45.992428" lon="6.971132"><ele>2318.0</ele><time>2024-03-11T10:29:23Z</time></trkpt>
<trkpt lat="45.992562" lon="6.971106"><ele>2310.6</ele><time>2024-03-11T10:29:25Z</time></trkpt>
<trkpt lat="45.992601" lon="6.971045"><ele>2308.0</ele><time>2024-03-11T10:29:26Z</time></trkpt>
<trkpt lat="45.992567" lon="6.970676"><ele>2304.2</ele><time>2024-03-11T10:29:29Z</time></trkpt>
<trkpt lat="45.992597" lon="6.970358"><ele>2294.8</ele><time>2024-03-11T10:29:31Z</time></trkpt>
<trkpt lat="45.992593" lon="6.970231"><ele>2293.8</ele><time>2024-03-11T10:29:32Z</time></trkpt>
<trkpt lat="45.992533" lon="6.970075"><ele>2293.0</ele><time>2024-03-11T10:29:34Z</time></trkpt>
<trkpt lat="45.992538" lon="6.969983"><ele>2290.8</ele><time>2024-03-11T10:29:56Z</time></trkpt>
<trkpt lat="45.992610" lon="6.969948"><ele>2291.6</ele><time>2024-03-11T10:32:24Z</time></trkpt>
<trkpt lat="45.992502" lon="6.969367"><ele>2286.2</ele><time>2024-03-11T10:32:33Z</time></trkpt>
<trkpt lat="45.992426" lon="6.969208"><ele>2283.4</ele><time>2024-03-11T10:32:36Z</time></trkpt>
<trkpt lat="45.992462" lon="6.969144"><ele>2281.0</ele><time>2024-03-11T10:32:38Z</time></trkpt>
<trkpt lat="45.992465" lon="6.969060"><ele>2279.8</ele><time>2024-03-11T10:32:39Z</time></trkpt>
<trkpt lat="45.992493" lon="6.968978"><ele>2277.8</ele><time>2024-03-11T10:32:40Z</time></trkpt>
<trkpt lat="45.992683" lon="6.968949"><ele>2268.2</ele><time>2024-03-11T10:32:43Z</time></trkpt>
<trkpt lat="45.992725" lon="6.968929"><ele>2265.8</ele><time>2024-03-11T10:32:44Z</time></trkpt>
<trkpt lat="45.992783" lon="6.968825"><ele>2262.6</ele><time>2024-03-11T10:32:46Z</time></trkpt>
<trkpt lat="45.992969" lon="6.968799"><ele>2253.0</ele><time>2024-03-11T10:32:50Z</time></trkpt>
<trkpt lat="45.993047" lon="6.968724"><ele>2247.2</ele><time>2024-03-11T10:32:52Z</time></trkpt>
<trkpt lat="45.993085" lon="6.968558"><ele>2245.0</ele><time>2024-03-11T10:32:54Z</time></trkpt>
<trkpt lat="45.993055" lon="6.968309"><ele>2240.2</ele><time>2024-03-11T10:32:58Z</time></trkpt>
<trkpt lat="45.992914" lon="6.967935"><ele>2233.6</ele><time>2024-03-11T10:33:04Z</time></trkpt>
<trkpt lat="45.993006" lon="6.967916"><ele>2229.6</ele><time>2024-03-11T10:33:07Z</time></trkpt>
<trkpt lat="45.992995" lon="6.967688"><ele>2226.2</ele><time>2024-03-11T10:33:10Z</time></trkpt>
<trkpt lat="45.993076" lon="6.967652"><ele>2221.4</ele><time>2024-03-11T10:33:12Z</time></trkpt>
<trkpt lat="45.993121" lon="6.967580"><ele>2219.4</ele><time>2024-03-11T10:33:13Z</time></trkpt>
<trkpt lat="45.993129" lon="6.967141"><ele>2210.8</ele><time>2024-03-11T10:33:18Z</time></trkpt>
<trkpt lat="45.993179" lon="6.967060"><ele>2207.0</ele><time>2024-03-11T10:33:20Z</time></trkpt>
<trkpt lat="45.993243" lon="6.967118"><ele>2204.2</ele><time>2024-03-11T10:33:22Z</time></trkpt>
<trkpt lat="45.993276" lon="6.967092"><ele>2202.2</ele><time>2024-03-11T10:33:23Z</time></trkpt>
<trkpt lat="45.993314" lon="6.966737"><ele>2196.0</ele><time>2024-03-11T10:33:28Z</time></trkpt>
<trkpt lat="45.993398" lon="6.966782"><ele>2191.6</ele><time>2024-03-11T10:33:30Z</time></trkpt>
<trkpt lat="45.993458" lon="6.966668"><ele>2188.6</ele><time>2024-03-11T10:33:32Z</time></trkpt>
<trkpt lat="45.993561" lon="6.966715"><ele>2181.0</ele><time>2024-03-11T10:33:35Z</time></trkpt>
<trkpt lat="45.993687" lon="6.966544"><ele>2177.4</ele><time>2024-03-11T10:33:43Z</time></trkpt>
<trkpt lat="45.993773" lon="6.966522"><ele>2171.6</ele><time>2024-03-11T10:33:45Z</time></trkpt>
<trkpt lat="45.993807" lon="6.966461"><ele>2169.0</ele><time>2024-03-11T10:33:46Z</time></trkpt>
<trkpt lat="45.993904" lon="6.966420"><ele>2164.6</ele><time>2024-03-11T10:33:48Z</time></trkpt>
<trkpt lat="45.993943" lon="6.966365"><ele>2160.4</ele><time>2024-03-11T10:33:49Z</time></trkpt>
<trkpt lat="45.994017" lon="6.966142"><ele>2154.8</ele><time>2024-03-11T10:33:52Z</time></trkpt>
<trkpt lat="45.994070" lon="6.966219"><ele>2147.8</ele><time>2024-03-11T10:33:55Z</time></trkpt>
<trkpt lat="45.994034" lon="6.966181"><ele>2148.0</ele><time>2024-03-11T10:36:09Z</time></trkpt>
<trkpt lat="45.994079" lon="6.966061"><ele>2147.8</ele><time>2024-03-11T10:36:12Z</time></trkpt>
<trkpt lat="45.994129" lon="6.965551"><ele>2139.6</ele><time>2024-03-11T10:36:18Z</time></trkpt>
<trkpt lat="45.994089" lon="6.965166"><ele>2134.4</ele><time>2024-03-11T10:36:24Z</time></trkpt>
<trkpt lat="45.994011" lon="6.964823"><ele>2131.0</ele><time>2024-03-11T10:36:29Z</time></trkpt>
<trkpt lat="45.993998" lon="6.964574"><ele>2127.0</ele><time>2024-03-11T10:36:33Z</time></trkpt>
<trkpt lat="45.993728" lon="6.964038"><ele>2118.6</ele><time>2024-03-11T10:36:49Z</time></trkpt>
<trkpt lat="45.993596" lon="6.963857"><ele>2115.6</ele><time>2024-03-11T10:36:53Z</time></trkpt>
<trkpt lat="45.993469" lon="6.963532"><ele>2111.0</ele><time>2024-03-11T10:36:57Z</time></trkpt>
<trkpt lat="45.993497" lon="6.963462"><ele>2109.4</ele><time>2024-03-11T10:36:58Z</time></trkpt>
<trkpt lat="45.993545" lon="6.963409"><ele>2108.6</ele><time>2024-03-11T10:36:59Z</time></trkpt>
<trkpt lat="45.993727" lon="6.963583"><ele>2099.0</ele><time>2024-03-11T10:37:02Z</time></trkpt>
<trkpt lat="45.993793" lon="6.963571"><ele>2095.2</ele><time>2024-03-11T10:37:03Z</time></trkpt>
<trkpt lat="45.993831" lon="6.963469"><ele>2093.8</ele><time>2024-03-11T10:37:04Z</time></trkpt>
<trkpt lat="45.993899" lon="6.963401"><ele>2092.8</ele><time>2024-03-11T10:37:05Z</time></trkpt>
<trkpt lat="45.993987" lon="6.963390"><ele>2089.8</ele><time>2024-03-11T10:37:06Z</time></trkpt>
<trkpt lat="45.994048" lon="6.963564"><ele>2085.4</ele><time>2024-03-11T10:37:08Z</time></trkpt>
<trkpt lat="45.994093" lon="6.963593"><ele>2084.8</ele><time>2024-03-11T10:37:09Z</time></trkpt>
<trkpt lat="45.994196" lon="6.963538"><ele>2083.4</ele><time>2024-03-11T10:37:11Z</time></trkpt>
<trkpt lat="45.994331" lon="6.963645"><ele>2076.0</ele><time>2024-03-11T10:37:14Z</time></trkpt>
<trkpt lat="45.994430" lon="6.963692"><ele>2074.8</ele><time>2024-03-11T10:37:16Z</time></trkpt>
<trkpt lat="45.994494" lon="6.963623"><ele>2072.8</ele><time>2024-03-11T10:37:18Z</time></trkpt>
<trkpt lat="45.994496" lon="6.963458"><ele>2067.8</ele><time>2024-03-11T10:37:20Z</time></trkpt>
<trkpt lat="45.994526" lon="6.963421"><ele>2066.2</ele><time>2024-03-11T10:37:21Z</time></trkpt>
<trkpt lat="45.994716" lon="6.963658"><ele>2058.2</ele><time>2024-03-11T10:37:26Z</time></trkpt>
<trkpt lat="45.994797" lon="6.963517"><ele>2054.4</ele><time>2024-03-11T10:37:34Z</time></trkpt>
<trkpt lat="45.994866" lon="6.963509"><ele>2051.2</ele><time>2024-03-11T10:37:36Z</time></trkpt>
<trkpt lat="45.994855" lon="6.963328"><ele>2045.2</ele><time>2024-03-11T10:37:39Z</time></trkpt>
<trkpt lat="45.994810" lon="6.963182"><ele>2042.2</ele><time>2024-03-11T10:37:41Z</time></trkpt>
<trkpt lat="45.994834" lon="6.963116"><ele>2041.0</ele><time>2024-03-11T10:37:42Z</time></trkpt>
<trkpt lat="45.994864" lon="6.963116"><ele>2040.4</ele><time>2024-03-11T10:37:43Z</time></trkpt>
<trkpt lat="45.994935" lon="6.963222"><ele>2032.8</ele><time>2024-03-11T10:37:46Z</time></trkpt>
<trkpt lat="45.995082" lon="6.963354"><ele>2031.0</ele><time>2024-03-11T10:37:50Z</time></trkpt>
<trkpt lat="45.995135" lon="6.963334"><ele>2029.2</ele><time>2024-03-11T10:37:51Z</time></trkpt>
<trkpt lat="45.995163" lon="6.963084"><ele>2023.4</ele><time>2024-03-11T10:37:54Z</time></trkpt>
<trkpt lat="45.995250" lon="6.963137"><ele>2017.8</ele><time>2024-03-11T10:37:57Z</time></trkpt>
<trkpt lat="45.995284" lon="6.963114"><ele>2016.2</ele><time>2024-03-11T10:37:58Z</time></trkpt>
<trkpt lat="45.995261" lon="6.963035"><ele>2014.6</ele><time>2024-03-11T10:38:00Z</time></trkpt>
<trkpt lat="45.995278" lon="6.962989"><ele>2013.4</ele><time>2024-03-11T10:38:01Z</time></trkpt>
<trkpt lat="45.995342" lon="6.963010"><ele>2012.2</ele><time>2024-03-11T10:38:03Z</time></trkpt>
<trkpt lat="45.995376" lon="6.963051"><ele>2008.0</ele><time>2024-03-11T10:38:06Z</time></trkpt>
<trkpt lat="45.995494" lon="6.963135"><ele>2006.8</ele><time>2024-03-11T10:38:12Z</time></trkpt>
<trkpt lat="45.995498" lon="6.962868"><ele>1999.6</ele><time>2024-03-11T10:38:16Z</time></trkpt>
<trkpt lat="45.995523" lon="6.962839"><ele>1997.0</ele><time>2024-03-11T10:38:17Z</time></trkpt>
<trkpt lat="45.995574" lon="6.962847"><ele>1996.0</ele><time>2024-03-11T10:38:18Z</time></trkpt>
<trkpt lat="45.995652" lon="6.962939"><ele>1988.4</ele><time>2024-03-11T10:38:21Z</time></trkpt>
<trkpt lat="45.995815" lon="6.963115"><ele>1984.4</ele><time>2024-03-11T10:38:28Z</time></trkpt>
<trkpt lat="45.995829" lon="6.963154"><ele>1980.0</ele><time>2024-03-11T10:38:56Z</time></trkpt>
<trkpt lat="45.995910" lon="6.963207"><ele>1977.0</ele><time>2024-03-11T10:40:02Z</time></trkpt>
<trkpt lat="45.995925" lon="6.963371"><ele>1972.0</ele><time>2024-03-11T10:40:14Z</time></trkpt>
<trkpt lat="45.995980" lon="6.963503"><ele>1966.8</ele><time>2024-03-11T10:40:22Z</time></trkpt>
<trkpt lat="45.996066" lon="6.963421"><ele>1963.4</ele><time>2024-03-11T10:40:25Z</time></trkpt>
<trkpt lat="45.996059" lon="6.963607"><ele>1956.8</ele><time>2024-03-11T10:40:29Z</time></trkpt>
<trkpt lat="45.996062" lon="6.963779"><ele>1955.0</ele><time>2024-03-11T10:40:31Z</time></trkpt>
<trkpt lat="45.996114" lon="6.964080"><ele>1945.0</ele><time>2024-03-11T10:40:51Z</time></trkpt>
<trkpt lat="45.996104" lon="6.964320"><ele>1944.8</ele><time>2024-03-11T10:41:04Z</time></trkpt>
<trkpt lat="45.996177" lon="6.964653"><ele>1938.0</ele><time>2024-03-11T10:41:08Z</time></trkpt>
<trkpt lat="45.996243" lon="6.964813"><ele>1935.6</ele><time>2024-03-11T10:41:10Z</time></trkpt>
<trkpt lat="45.996623" lon="6.964938"><ele>1926.2</ele><time>2024-03-11T10:41:16Z</time></trkpt>
<trkpt lat="45.996723" lon="6.964944"><ele>1923.6</ele><time>2024-03-11T10:41:18Z</time></trkpt>
<trkpt lat="45.996961" lon="6.964866"><ele>1919.6</ele><time>2024-03-11T10:41:22Z</time></trkpt>
<trkpt lat="45.997001" lon="6.964821"><ele>1916.8</ele><time>2024-03-11T10:41:23Z</time></trkpt>
<trkpt lat="45.997032" lon="6.964660"><ele>1914.8</ele><time>2024-03-11T10:41:25Z</time></trkpt>
<trkpt lat="45.997145" lon="6.964585"><ele>1908.2</ele><time>2024-03-11T10:41:28Z</time></trkpt>
<trkpt lat="45.997135" lon="6.964486"><ele>1903.2</ele><time>2024-03-11T10:42:06Z</time></trkpt>
<trkpt lat="45.997164" lon="6.964389"><ele>1903.6</ele><time>2024-03-11T10:42:17Z</time></trkpt>
<trkpt lat="45.997123" lon="6.964339"><ele>1902.2</ele><time>2024-03-11T10:42:19Z</time></trkpt>
<trkpt lat="45.996888" lon="6.964302"><ele>1897.2</ele><time>2024-03-11T10:42:26Z</time></trkpt>
<trkpt lat="45.996741" lon="6.964133"><ele>1894.4</ele><time>2024-03-11T10:42:32Z</time></trkpt>
<trkpt lat="45.996813" lon="6.964093"><ele>1892.2</ele><time>2024-03-11T10:42:34Z</time></trkpt>
<trkpt lat="45.996822" lon="6.963984"><ele>1889.6</ele><time>2024-03-11T10:42:36Z</time></trkpt>
<trkpt lat="45.996865" lon="6.963943"><ele>1887.6</ele><time>2024-03-11T10:42:37Z</time></trkpt>
<trkpt lat="45.996984" lon="6.963896"><ele>1881.4</ele><time>2024-03-11T10:42:40Z</time></trkpt>
<trkpt lat="45.996977" lon="6.963853"><ele>1880.4</ele><time>2024-03-11T10:42:41Z</time></trkpt>
<trkpt lat="45.997062" lon="6.963689"><ele>1877.6</ele><time>2024-03-11T10:42:43Z</time></trkpt>
<trkpt lat="45.997095" lon="6.963691"><ele>1875.4</ele><time>2024-03-11T10:42:44Z</time></trkpt>
<trkpt lat="45.997103" lon="6.963692"><ele>1867.2</ele><time>2024-03-11T10:42:47Z</time></trkpt>
<trkpt lat="45.997187" lon="6.963589"><ele>1866.6</ele><time>2024-03-11T10:42:53Z</time></trkpt>
<trkpt lat="45.997256" lon="6.963564"><ele>1864.2</ele><time>2024-03-11T10:42:55Z</time></trkpt>
<trkpt lat="45.997263" lon="6.963426"><ele>1861.8</ele><time>2024-03-11T10:42:57Z</time></trkpt>
<trkpt lat="45.997295" lon="6.963367"><ele>1860.0</ele><time>2024-03-11T10:42:58Z</time></trkpt>
<trkpt lat="45.997364" lon="6.963359"><ele>1854.6</ele><time>2024-03-11T10:43:01Z</time></trkpt>
<trkpt lat="45.997370" lon="6.963271"><ele>1854.2</ele><time>2024-03-11T10:43:05Z</time></trkpt>
<trkpt lat="45.997366" lon="6.963260"><ele>1851.6</ele><time>2024-03-11T10:43:13Z</time></trkpt>
<trkpt lat="45.997305" lon="6.963169"><ele>1851.0</ele><time>2024-03-11T10:43:21Z</time></trkpt>
<trkpt lat="45.997355" lon="6.963103"><ele>1849.0</ele><time>2024-03-11T10:43:24Z</time></trkpt>
<trkpt lat="45.997267" lon="6.963000"><ele>1844.6</ele><time>2024-03-11T10:43:30Z</time></trkpt>
<trkpt lat="45.997282" lon="6.962961"><ele>1843.6</ele><time>2024-03-11T10:43:31Z</time></trkpt>
<trkpt lat="45.997479" lon="6.962883"><ele>1834.0</ele><time>2024-03-11T10:43:39Z</time></trkpt>
<trkpt lat="45.997472" lon="6.962748"><ele>1830.8</ele><time>2024-03-11T10:43:42Z</time></trkpt>
<trkpt lat="45.997571" lon="6.962646"><ele>1827.6</ele><time>2024-03-11T10:43:44Z</time></trkpt>
<trkpt lat="45.997630" lon="6.962612"><ele>1822.8</ele><time>2024-03-11T10:43:46Z</time></trkpt>
<trkpt lat="45.997602" lon="6.962531"><ele>1821.4</ele><time>2024-03-11T10:43:48Z</time></trkpt>
<trkpt lat="45.997668" lon="6.962560"><ele>1817.0</ele><time>2024-03-11T10:43:58Z</time></trkpt>
<trkpt lat="45.997738" lon="6.962541"><ele>1814.8</ele><time>2024-03-11T10:44:07Z</time></trkpt>
<trkpt lat="45.997716" lon="6.962445"><ele>1810.4</ele><time>2024-03-11T10:44:11Z</time></trkpt>
<trkpt lat="45.997741" lon="6.962370"><ele>1809.8</ele><time>2024-03-11T10:44:14Z</time></trkpt>
<trkpt lat="45.997777" lon="6.962405"><ele>1806.4</ele><time>2024-03-11T10:44:17Z</time></trkpt>
<trkpt lat="45.997774" lon="6.962387"><ele>1804.8</ele><time>2024-03-11T10:44:19Z</time></trkpt>
<trkpt lat="45.997837" lon="6.962401"><ele>1804.6</ele><time>2024-03-11T10:44:22Z</time></trkpt>
<trkpt lat="45.997890" lon="6.962484"><ele>1803.8</ele><time>2024-03-11T10:44:24Z</time></trkpt>
<trkpt lat="45.997980" lon="6.962485"><ele>1800.2</ele><time>2024-03-11T10:44:28Z</time></trkpt>
<trkpt lat="45.998090" lon="6.962590"><ele>1794.2</ele><time>2024-03-11T10:44:39Z</time></trkpt>
<trkpt lat="45.998129" lon="6.962589"><ele>1791.2</ele><time>2024-03-11T10:44:44Z</time></trkpt>
<trkpt lat="45.998170" lon="6.962575"><ele>1790.6</ele><time>2024-03-11T10:44:46Z</time></trkpt>
<trkpt lat="45.998641" lon="6.962809"><ele>1776.4</ele><time>2024-03-11T10:45:24Z</time></trkpt>
<trkpt lat="45.998834" lon="6.962773"><ele>1771.2</ele><time>2024-03-11T10:45:30Z</time></trkpt>
<trkpt lat="45.998871" lon="6.962742"><ele>1767.2</ele><time>2024-03-11T10:46:14Z</time></trkpt>
<trkpt lat="45.999021" lon="6.962808"><ele>1765.0</ele><time>2024-03-11T10:46:33Z</time></trkpt>
<trkpt lat="45.999030" lon="6.962714"><ele>1763.4</ele><time>2024-03-11T10:46:35Z</time></trkpt>
<trkpt lat="45.998928" lon="6.962502"><ele>1756.2</ele><time>2024-03-11T10:46:39Z</time></trkpt>
<trkpt lat="45.998822" lon="6.962138"><ele>1748.8</ele><time>2024-03-11T10:46:44Z</time></trkpt>
<trkpt lat="45.998768" lon="6.961986"><ele>1742.2</ele><time>2024-03-11T10:47:03Z</time></trkpt>
<trkpt lat="45.998712" lon="6.961892"><ele>1741.0</ele><time>2024-03-11T10:47:52Z</time></trkpt>
<trkpt lat="45.998696" lon="6.961815"><ele>1738.6</ele><time>2024-03-11T10:48:10Z</time></trkpt>
<trkpt lat="45.998721" lon="6.961758"><ele>1733.8</ele><time>2024-03-11T10:48:21Z</time></trkpt>
<trkpt lat="45.998724" lon="6.961701"><ele>1733.6</ele><time>2024-03-11T10:48:22Z</time></trkpt>
<trkpt lat="45.998801" lon="6.961687"><ele>1730.8</ele><time>2024-03-11T10:48:24Z</time></trkpt>
<trkpt lat="45.998815" lon="6.961689"><ele>1724.2</ele><time>2024-03-11T10:48:27Z</time></trkpt>
<trkpt lat="45.998815" lon="6.961653"><ele>1723.6</ele><time>2024-03-11T10:48:31Z</time></trkpt>
<trkpt lat="45.998879" lon="6.961661"><ele>1721.2</ele><time>2024-03-11T10:48:36Z</time></trkpt>
<trkpt lat="45.998928" lon="6.961589"><ele>1717.8</ele><time>2024-03-11T10:48:43Z</time></trkpt>
<trkpt lat="45.999001" lon="6.961634"><ele>1715.2</ele><time>2024-03-11T10:48:50Z</time></trkpt>
<trkpt lat="45.999186" lon="6.961641"><ele>1712.4</ele><time>2024-03-11T10:49:37Z</time></trkpt>
<trkpt lat="45.999217" lon="6.961505"><ele>1709.8</ele><time>2024-03-11T10:49:46Z</time></trkpt>
<trkpt lat="45.999233" lon="6.961467"><ele>1704.6</ele><time>2024-03-11T10:49:50Z</time></trkpt>
<trkpt lat="45.999204" lon="6.961410"><ele>1703.4</ele><time>2024-03-11T10:49:59Z</time></trkpt>
<trkpt lat="45.999209" lon="6.961319"><ele>1702.4</ele><time>2024-03-11T10:50:02Z</time></trkpt>
<trkpt lat="45.999242" lon="6.961271"><ele>1700.4</ele><time>2024-03-11T10:50:04Z</time></trkpt>
<trkpt lat="45.999353" lon="6.961304"><ele>1695.0</ele><time>2024-03-11T10:50:23Z</time></trkpt>
<trkpt lat="45.999299" lon="6.961199"><ele>1694.6</ele><time>2024-03-11T10:50:27Z</time></trkpt>
<trkpt lat="45.999300" lon="6.961138"><ele>1693.2</ele><time>2024-03-11T10:50:29Z</time></trkpt>
<trkpt lat="45.999331" lon="6.961168"><ele>1690.0</ele><time>2024-03-11T10:50:33Z</time></trkpt>
<trkpt lat="45.999389" lon="6.961099"><ele>1688.6</ele><time>2024-03-11T10:50:39Z</time></trkpt>
<trkpt lat="45.999425" lon="6.961097"><ele>1685.2</ele><time>2024-03-11T10:50:43Z</time></trkpt>
<trkpt lat="45.999512" lon="6.961098"><ele>1684.4</ele><time>2024-03-11T10:50:46Z</time></trkpt>
<trkpt lat="45.999556" lon="6.961001"><ele>1680.4</ele><time>2024-03-11T10:51:03Z</time></trkpt>
<trkpt lat="45.999614" lon="6.960999"><ele>1680.0</ele><time>2024-03-11T10:51:18Z</time></trkpt>
<trkpt lat="45.999583" lon="6.960906"><ele>1674.6</ele><time>2024-03-11T10:51:29Z</time></trkpt>
<trkpt lat="45.999703" lon="6.960885"><ele>1672.8</ele><time>2024-03-11T10:52:20Z</time></trkpt>
<trkpt lat="45.999639" lon="6.960711"><ele>1668.0</ele><time>2024-03-11T10:52:30Z</time></trkpt>
<trkpt lat="45.999676" lon="6.960708"><ele>1665.4</ele><time>2024-03-11T10:52:39Z</time></trkpt>
<trkpt lat="45.999668" lon="6.960622"><ele>1663.4</ele><time>2024-03-11T10:52:47Z</time></trkpt>
<trkpt lat="45.999705" lon="6.960546"><ele>1663.0</ele><time>2024-03-11T10:52:49Z</time></trkpt>
<trkpt lat="45.999746" lon="6.960550"><ele>1659.8</ele><time>2024-03-11T10:52:51Z</time></trkpt>
<trkpt lat="45.999830" lon="6.960601"><ele>1659.0</ele><time>2024-03-11T10:52:56Z</time></trkpt>
<trkpt lat="45.999901" lon="6.960579"><ele>1658.8</ele><time>2024-03-11T10:52:58Z</time></trkpt>
<trkpt lat="45.999970" lon="6.960606"><ele>1657.2</ele><time>2024-03-11T10:53:00Z</time></trkpt>
<trkpt lat="46.000043" lon="6.960564"><ele>1654.0</ele><time>2024-03-11T10:53:53Z</time></trkpt>
<trkpt lat="46.000013" lon="6.960447"><ele>1652.4</ele><time>2024-03-11T10:54:05Z</time></trkpt>
<trkpt lat="46.000129" lon="6.960346"><ele>1648.4</ele><time>2024-03-11T10:54:18Z</time></trkpt>
<trkpt lat="46.000178" lon="6.960170"><ele>1644.8</ele><time>2024-03-11T10:54:26Z</time></trkpt>
<trkpt lat="46.000286" lon="6.960176"><ele>1641.4</ele><time>2024-03-11T10:54:30Z</time></trkpt>
<trkpt lat="46.000317" lon="6.960143"><ele>1641.0</ele><time>2024-03-11T10:54:32Z</time></trkpt>
<trkpt lat="46.000294" lon="6.959933"><ele>1637.2</ele><time>2024-03-11T10:54:56Z</time></trkpt>
<trkpt lat="46.000306" lon="6.959849"><ele>1633.8</ele><time>2024-03-11T10:55:02Z</time></trkpt>
<trkpt lat="46.000267" lon="6.959798"><ele>1632.4</ele><time>2024-03-11T10:55:17Z</time></trkpt>
<trkpt lat="46.000328" lon="6.959750"><ele>1631.0</ele><time>2024-03-11T10:55:27Z</time></trkpt>
<trkpt lat="46.000313" lon="6.959714"><ele>1630.2</ele><time>2024-03-11T10:55:30Z</time></trkpt>
<trkpt lat="46.000334" lon="6.959710"><ele>1628.4</ele><time>2024-03-11T10:55:38Z</time></trkpt>
<trkpt lat="46.000351" lon="6.959571"><ele>1627.8</ele><time>2024-03-11T10:55:42Z</time></trkpt>
<trkpt lat="46.000385" lon="6.959445"><ele>1624.0</ele><time>2024-03-11T10:55:45Z</time></trkpt>
<trkpt lat="46.000402" lon="6.959453"><ele>1621.6</ele><time>2024-03-11T10:55:47Z</time></trkpt>
<trkpt lat="46.000394" lon="6.959347"><ele>1619.4</ele><time>2024-03-11T10:55:57Z</time></trkpt>
<trkpt lat="46.000493" lon="6.959100"><ele>1615.0</ele><time>2024-03-11T10:56:04Z</time></trkpt>
<trkpt lat="46.000396" lon="6.958936"><ele>1612.0</ele><time>2024-03-11T10:56:09Z</time></trkpt>
<trkpt lat="46.000366" lon="6.958788"><ele>1608.0</ele><time>2024-03-11T10:56:24Z</time></trkpt>
<trkpt lat="46.000491" lon="6.958660"><ele>1603.4</ele><time>2024-03-11T10:56:33Z</time></trkpt>
<trkpt lat="46.000464" lon="6.958555"><ele>1602.4</ele><time>2024-03-11T10:56:52Z</time></trkpt>
<trkpt lat="46.000443" lon="6.958480"><ele>1600.4</ele><time>2024-03-11T10:56:54Z</time></trkpt>
<trkpt lat="46.000338" lon="6.958372"><ele>1596.4</ele><time>2024-03-11T10:57:16Z</time></trkpt>
<trkpt lat="46.000359" lon="6.958367"><ele>1596.2</ele><time>2024-03-11T10:57:35Z</time></trkpt>
<trkpt lat="46.000296" lon="6.958389"><ele>1596.4</ele><time>2024-03-11T11:01:01Z</time></trkpt>
<trkpt lat="46.000361" lon="6.958337"><ele>1595.8</ele><time>2024-03-11T11:01:39Z</time></trkpt>
<trkpt lat="46.000315" lon="6.958071"><ele>1592.6</ele><time>2024-03-11T11:01:45Z</time></trkpt>
<trkpt lat="46.000348" lon="6.957957"><ele>1587.6</ele><time>2024-03-11T11:01:58Z</time></trkpt>
<trkpt lat="46.000296" lon="6.957907"><ele>1586.0</ele><time>2024-03-11T11:02:07Z</time></trkpt>
<trkpt lat="46.000278" lon="6.957754"><ele>1583.8</ele><time>2024-03-11T11:02:17Z</time></trkpt>
<trkpt lat="46.000365" lon="6.957648"><ele>1582.0</ele><time>2024-03-11T11:02:20Z</time></trkpt>
<trkpt lat="46.000448" lon="6.957627"><ele>1580.0</ele><time>2024-03-11T11:02:41Z</time></trkpt>
<trkpt lat="46.000489" lon="6.957428"><ele>1579.0</ele><time>2024-03-11T11:03:03Z</time></trkpt>
<trkpt lat="46.000463" lon="6.957375"><ele>1578.0</ele><time>2024-03-11T11:03:05Z</time></trkpt>
<trkpt lat="46.000461" lon="6.957198"><ele>1576.2</ele><time>2024-03-11T11:03:09Z</time></trkpt>
<trkpt lat="46.000430" lon="6.957151"><ele>1573.6</ele><time>2024-03-11T11:03:14Z</time></trkpt>
<trkpt lat="46.000531" lon="6.957051"><ele>1572.6</ele><time>2024-03-11T11:03:18Z</time></trkpt>
<trkpt lat="46.000809" lon="6.956601"><ele>1568.4</ele><time>2024-03-11T11:03:53Z</time></trkpt>
<trkpt lat="46.000795" lon="6.956396"><ele>1566.8</ele><time>2024-03-11T11:04:16Z</time></trkpt>
<trkpt lat="46.000816" lon="6.956294"><ele>1565.4</ele><time>2024-03-11T11:04:29Z</time></trkpt>
<trkpt lat="46.000846" lon="6.956274"><ele>1566.2</ele><time>2024-03-11T11:04:58Z</time></trkpt>
<trkpt lat="46.000844" lon="6.956118"><ele>1565.8</ele><time>2024-03-11T11:05:02Z</time></trkpt>
<trkpt lat="46.001018" lon="6.955978"><ele>1564.4</ele><time>2024-03-11T11:05:16Z</time></trkpt>
<trkpt lat="46.001075" lon="6.955831"><ele>1564.4</ele><time>2024-03-11T11:05:31Z</time></trkpt>
<trkpt lat="46.001044" lon="6.955792"><ele>1564.8</ele><time>2024-03-11T11:05:59Z</time></trkpt>
<trkpt lat="46.001104" lon="6.955815"><ele>1565.2</ele><time>2024-03-11T11:06:16Z</time></trkpt>
<trkpt lat="46.001082" lon="6.955757"><ele>1565.2</ele><time>2024-03-11T11:06:45Z</time></trkpt>
<trkpt lat="46.001067" lon="6.955814"><ele>1565.4</ele><time>2024-03-11T11:06:53Z</time></trkpt>
<trkpt lat="46.001129" lon="6.955783"><ele>1565.6</ele><time>2024-03-11T11:07:21Z</time></trkpt>
<trkpt lat="46.001159" lon="6.955669"><ele>1565.4</ele><time>2024-03-11T11:07:31Z</time></trkpt>
<trkpt lat="46.001164" lon="6.955436"><ele>1563.2</ele><time>2024-03-11T11:07:42Z</time></trkpt>
<trkpt lat="46.001505" lon="6.954996"><ele>1558.2</ele><time>2024-03-11T11:07:53Z</time></trkpt>
<trkpt lat="46.001518" lon="6.954886"><ele>1557.6</ele><time>2024-03-11T11:07:55Z</time></trkpt>
<trkpt lat="46.001460" lon="6.954814"><ele>1557.2</ele><time>2024-03-11T11:08:04Z</time></trkpt>
<trkpt lat="46.001526" lon="6.954734"><ele>1556.8</ele><time>2024-03-11T11:08:34Z</time></trkpt>
<trkpt lat="46.001512" lon="6.954680"><ele>1557.0</ele><time>2024-03-11T11:08:51Z</time></trkpt>
<trkpt lat="46.001512" lon="6.954707"><ele>1556.6</ele><time>2024-03-11T11:09:01Z</time></trkpt>
<trkpt lat="46.001617" lon="6.954686"><ele>1554.8</ele><time>2024-03-11T11:09:34Z</time></trkpt>
<trkpt lat="46.001600" lon="6.954625"><ele>1552.6</ele><time>2024-03-11T11:09:48Z</time></trkpt>
<trkpt lat="46.001677" lon="6.954584"><ele>1551.8</ele><time>2024-03-11T11:09:53Z</time></trkpt>
<trkpt lat="46.001908" lon="6.954652"><ele>1545.8</ele><time>2024-03-11T11:10:01Z</time></trkpt>
<trkpt lat="46.001981" lon="6.954530"><ele>1544.0</ele><time>2024-03-11T11:10:05Z</time></trkpt>
<trkpt lat="46.002201" lon="6.954491"><ele>1539.6</ele><time>2024-03-11T11:10:10Z</time></trkpt>
<trkpt lat="46.002219" lon="6.954439"><ele>1539.4</ele><time>2024-03-11T11:10:11Z</time></trkpt>
<trkpt lat="46.002178" lon="6.954311"><ele>1538.6</ele><time>2024-03-11T11:10:13Z</time></trkpt>
<trkpt lat="46.002013" lon="6.954094"><ele>1536.6</ele><time>2024-03-11T11:10:17Z</time></trkpt>
<trkpt lat="46.001987" lon="6.954104"><ele>1533.2</ele><time>2024-03-11T11:10:22Z</time></trkpt>
<trkpt lat="46.002096" lon="6.954105"><ele>1534.0</ele><time>2024-03-11T11:10:55Z</time></trkpt>
<trkpt lat="46.001981" lon="6.954110"><ele>1534.6</ele><time>2024-03-11T11:11:42Z</time></trkpt>
<trkpt lat="46.002025" lon="6.954091"><ele>1535.0</ele><time>2024-03-11T11:12:15Z</time></trkpt>
<trkpt lat="46.001995" lon="6.954105"><ele>1534.8</ele><time>2024-03-11T11:13:37Z</time></trkpt>
<trkpt lat="46.001958" lon="6.954012"><ele>1534.2</ele><time>2024-03-11T11:13:41Z</time></trkpt>
<trkpt lat="46.001841" lon="6.953432"><ele>1530.4</ele><time>2024-03-11T11:13:50Z</time></trkpt>
<trkpt lat="46.001754" lon="6.953238"><ele>1529.0</ele><time>2024-03-11T11:13:52Z</time></trkpt>
<trkpt lat="46.001672" lon="6.952911"><ele>1524.2</ele><time>2024-03-11T11:13:55Z</time></trkpt>
<trkpt lat="46.001652" lon="6.952298"><ele>1518.8</ele><time>2024-03-11T11:14:00Z</time></trkpt>
<trkpt lat="46.001719" lon="6.951506"><ele>1510.2</ele><time>2024-03-11T11:14:06Z</time></trkpt>
<trkpt lat="46.001809" lon="6.951172"><ele>1507.8</ele><time>2024-03-11T11:14:09Z</time></trkpt>
<trkpt lat="46.002064" lon="6.950667"><ele>1505.6</ele><time>2024-03-11T11:14:15Z</time></trkpt>
<trkpt lat="46.002285" lon="6.950364"><ele>1509.8</ele><time>2024-03-11T11:14:28Z</time></trkpt>
<trkpt lat="46.002927" lon="6.949475"><ele>1506.0</ele><time>2024-03-11T11:15:12Z</time></trkpt>
<trkpt lat="46.003022" lon="6.949290"><ele>1505.6</ele><time>2024-03-11T11:15:20Z</time></trkpt>
<trkpt lat="46.003260" lon="6.949063"><ele>1505.2</ele><time>2024-03-11T11:15:35Z</time></trkpt>
<trkpt lat="46.003286" lon="6.948966"><ele>1503.4</ele><time>2024-03-11T11:15:39Z</time></trkpt>
<trkpt lat="46.003271" lon="6.948980"><ele>1502.6</ele><time>2024-03-11T11:16:07Z</time></trkpt>
<trkpt lat="46.003265" lon="6.948823"><ele>1501.8</ele><time>2024-03-11T11:16:17Z</time></trkpt>
<trkpt lat="46.003376" lon="6.948394"><ele>1499.2</ele><time>2024-03-11T11:16:23Z</time></trkpt>
<trkpt lat="46.003486" lon="6.948188"><ele>1499.2</ele><time>2024-03-11T11:16:26Z</time></trkpt>
<trkpt lat="46.003802" lon="6.947835"><ele>1497.2</ele><time>2024-03-11T11:16:33Z</time></trkpt>
<trkpt lat="46.003867" lon="6.947683"><ele>1496.4</ele><time>2024-03-11T11:16:35Z</time></trkpt>
<trkpt lat="46.003848" lon="6.947526"><ele>1496.2</ele><time>2024-03-11T11:16:37Z</time></trkpt>
<trkpt lat="46.003856" lon="6.947474"><ele>1494.0</ele><time>2024-03-11T11:16:39Z</time></trkpt>
<trkpt lat="46.003830" lon="6.947446"><ele>1491.2</ele><time>2024-03-11T11:17:25Z</time></trkpt>
<trkpt lat="46.003849" lon="6.947460"><ele>1490.6</ele><time>2024-03-11T11:17:52Z</time></trkpt>
<trkpt lat="46.003892" lon="6.947374"><ele>1489.6</ele><time>2024-03-11T11:18:00Z</time></trkpt>
<trkpt lat="46.003760" lon="6.947027"><ele>1484.4</ele><time>2024-03-11T11:18:18Z</time></trkpt>
<trkpt lat="46.003787" lon="6.946803"><ele>1482.8</ele><time>2024-03-11T11:18:28Z</time></trkpt>
<trkpt lat="46.003853" lon="6.946665"><ele>1481.6</ele><time>2024-03-11T11:18:43Z</time></trkpt>
<trkpt lat="46.003818" lon="6.946639"><ele>1481.6</ele><time>2024-03-11T11:19:31Z</time></trkpt>
<trkpt lat="46.003832" lon="6.946710"><ele>1480.6</ele><time>2024-03-11T11:19:55Z</time></trkpt>
<trkpt lat="46.003822" lon="6.946643"><ele>1479.6</ele><time>2024-03-11T11:20:55Z</time></trkpt>
</trkseg></trk>
</gpx>
