<?xml version="1.0" encoding="UTF-8"?>
<gpx version="1.1" creator="Eric Sichak trip reports" xmlns="http://www.topografix.com/GPX/1/1">
<metadata><name>Chamonix–Zermatt Haute Route – Day 5</name><time>2024-03-14T05:46:26Z</time></metadata>
<trk><name>Chamonix–Zermatt Haute Route – Day 5</name><type>ski</type><trkseg>
<trkpt lat="46.011076" lon="7.417576"><ele>2937.8</ele><time>2024-03-14T05:46:26Z</time></trkpt>
<trkpt lat="46.011065" lon="7.417477"><ele>2937.4</ele><time>2024-03-14T05:46:30Z</time></trkpt>
<trkpt lat="46.011095" lon="7.417495"><ele>2936.6</ele><time>2024-03-14T05:46:39Z</time></trkpt>
<trkpt lat="46.011072" lon="7.417474"><ele>2935.4</ele><time>2024-03-14T05:47:05Z</time></trkpt>
<trkpt lat="46.011078" lon="7.417456"><ele>2940.0</ele><time>2024-03-14T05:48:02Z</time></trkpt>
<trkpt lat="46.011055" lon="7.417392"><ele>2938.4</ele><time>2024-03-14T05:48:29Z</time></trkpt>
<trkpt lat="46.010977" lon="7.417403"><ele>2935.0</ele><time>2024-03-14T05:48:41Z</time></trkpt>
<trkpt lat="46.010975" lon="7.417339"><ele>2934.8</ele><time>2024-03-14T05:48:51Z</time></trkpt>
<trkpt lat="46.010945" lon="7.417315"><ele>2933.8</ele><time>2024-03-14T05:48:54Z</time></trkpt>
<trkpt lat="46.010908" lon="7.417402"><ele>2933.0</ele><time>2024-03-14T05:48:57Z</time></trkpt>
<trkpt lat="46.010890" lon="7.417387"><ele>2931.8</ele><time>2024-03-14T05:48:58Z</time></trkpt>
<trkpt lat="46.010405" lon="7.416896"><ele>2922.6</ele><time>2024-03-14T05:49:10Z</time></trkpt>
<trkpt lat="46.009704" lon="7.416371"><ele>2911.2</ele><time>2024-03-14T05:49:33Z</time></trkpt>
<trkpt lat="46.009066" lon="7.416204"><ele>2900.4</ele><time>2024-03-14T05:49:55Z</time></trkpt>
<trkpt lat="46.008934" lon="7.416232"><ele>2897.0</ele><time>2024-03-14T05:49:59Z</time></trkpt>
<trkpt lat="46.008775" lon="7.416398"><ele>2892.2</ele><time>2024-03-14T05:50:11Z</time></trkpt>
<trkpt lat="46.008756" lon="7.416454"><ele>2890.0</ele><time>2024-03-14T05:50:22Z</time></trkpt>
<trkpt lat="46.008822" lon="7.416561"><ele>2887.2</ele><time>2024-03-14T05:50:29Z</time></trkpt>
<trkpt lat="46.008742" lon="7.416602"><ele>2882.6</ele><time>2024-03-14T05:50:33Z</time></trkpt>
<trkpt lat="46.008598" lon="7.416561"><ele>2879.2</ele><time>2024-03-14T05:50:38Z</time></trkpt>
<trkpt lat="46.008457" lon="7.416456"><ele>2873.8</ele><time>2024-03-14T05:50:44Z</time></trkpt>
<trkpt lat="46.008230" lon="7.416389"><ele>2870.6</ele><time>2024-03-14T05:50:53Z</time></trkpt>
<trkpt lat="46.008122" lon="7.416406"><ele>2869.2</ele><time>2024-03-14T05:50:58Z</time></trkpt>
<trkpt lat="46.008012" lon="7.416485"><ele>2867.0</ele><time>2024-03-14T05:51:04Z</time></trkpt>
<trkpt lat="46.007990" lon="7.416512"><ele>2866.6</ele><time>2024-03-14T05:51:05Z</time></trkpt>
<trkpt lat="46.008023" lon="7.416574"><ele>2865.0</ele><time>2024-03-14T05:51:07Z</time></trkpt>
<trkpt lat="46.008025" lon="7.416773"><ele>2862.0</ele><time>2024-03-14T05:51:11Z</time></trkpt>
<trkpt lat="46.008091" lon="7.416831"><ele>2859.8</ele><time>2024-03-14T05:51:13Z</time></trkpt>
<trkpt lat="46.008073" lon="7.416941"><ele>2856.4</ele><time>2024-03-14T05:51:17Z</time></trkpt>
<trkpt lat="46.008174" lon="7.417030"><ele>2853.8</ele><time>2024-03-14T05:51:21Z</time></trkpt>
<trkpt lat="46.008149" lon="7.417089"><ele>2851.8</ele><time>2024-03-14T05:51:25Z</time></trkpt>
<trkpt lat="46.008253" lon="7.417289"><ele>2850.4</ele><time>2024-03-14T05:51:28Z</time></trkpt>
<trkpt lat="46.008266" lon="7.417647"><ele>2844.4</ele><time>2024-03-14T05:51:31Z</time></trkpt>
<trkpt lat="46.008300" lon="7.417979"><ele>2834.2</ele><time>2024-03-14T05:51:34Z</time></trkpt>
<trkpt lat="46.008339" lon="7.418175"><ele>2834.0</ele><time>2024-03-14T05:51:38Z</time></trkpt>
<trkpt lat="46.008337" lon="7.418281"><ele>2838.2</ele><time>2024-03-14T05:52:04Z</time></trkpt>
<trkpt lat="46.008305" lon="7.418552"><ele>2838.4</ele><time>2024-03-14T05:52:37Z</time></trkpt>
<trkpt lat="46.008232" lon="7.418794"><ele>2835.8</ele><time>2024-03-14T05:52:48Z</time></trkpt>
<trkpt lat="46.008094" lon="7.419043"><ele>2833.6</ele><time>2024-03-14T05:52:51Z</time></trkpt>
<trkpt lat="46.008043" lon="7.419415"><ele>2829.8</ele><time>2024-03-14T05:52:54Z</time></trkpt>
<trkpt lat="46.008221" lon="7.420186"><ele>2823.8</ele><time>2024-03-14T05:53:02Z</time></trkpt>
<trkpt lat="46.008262" lon="7.420242"><ele>2825.6</ele><time>2024-03-14T05:53:15Z</time></trkpt>
<trkpt lat="46.008273" lon="7.420239"><ele>2818.6</ele><time>2024-03-14T05:54:26Z</time></trkpt>
<trkpt lat="46.008262" lon="7.420252"><ele>2821.6</ele><time>2024-03-14T05:55:19Z</time></trkpt>
<trkpt lat="46.008243" lon="7.420234"><ele>2819.8</ele><time>2024-03-14T05:55:50Z</time></trkpt>
<trkpt lat="46.008266" lon="7.420249"><ele>2826.6</ele><time>2024-03-14T05:56:49Z</time></trkpt>
<trkpt lat="46.008257" lon="7.420243"><ele>2824.6</ele><time>2024-03-14T05:57:04Z</time></trkpt>
<trkpt lat="46.008289" lon="7.420288"><ele>2825.4</ele><time>2024-03-14T05:58:20Z</time></trkpt>
<trkpt lat="46.008290" lon="7.420402"><ele>2826.6</ele><time>2024-03-14T05:58:52Z</time></trkpt>
<trkpt lat="46.008277" lon="7.420372"><ele>2828.2</ele><time>2024-03-14T05:59:15Z</time></trkpt>
<trkpt lat="46.008302" lon="7.420388"><ele>2828.0</ele><time>2024-03-14T05:59:23Z</time></trkpt>
<trkpt lat="46.008291" lon="7.420450"><ele>2828.0</ele><time>2024-03-14T05:59:29Z</time></trkpt>
<trkpt lat="46.008284" lon="7.420453"><ele>2831.0</ele><time>2024-03-14T05:59:56Z</time></trkpt>
<trkpt lat="46.008293" lon="7.420464"><ele>2829.0</ele><time>2024-03-14T06:00:30Z</time></trkpt>
<trkpt lat="46.008067" lon="7.420769"><ele>2831.8</ele><time>2024-03-14T06:02:11Z</time></trkpt>
<trkpt lat="46.008040" lon="7.420792"><ele>2834.6</ele><time>2024-03-14T06:02:18Z</time></trkpt>
<trkpt lat="46.007680" lon="7.421227"><ele>2837.6</ele><time>2024-03-14T06:03:19Z</time></trkpt>
<trkpt lat="46.007550" lon="7.421221"><ele>2838.6</ele><time>2024-03-14T06:04:02Z</time></trkpt>
<trkpt lat="46.007398" lon="7.421262"><ele>2835.6</ele><time>2024-03-14T06:04:09Z</time></trkpt>
<trkpt lat="46.007339" lon="7.421334"><ele>2834.2</ele><time>2024-03-14T06:04:14Z</time></trkpt>
<trkpt lat="46.007249" lon="7.421563"><ele>2833.8</ele><time>2024-03-14T06:04:29Z</time></trkpt>
<trkpt lat="46.006955" lon="7.421807"><ele>2831.6</ele><time>2024-03-14T06:04:53Z</time></trkpt>
<trkpt lat="46.006724" lon="7.422232"><ele>2828.4</ele><time>2024-03-14T06:05:22Z</time></trkpt>
<trkpt lat="46.006498" lon="7.422838"><ele>2830.0</ele><time>2024-03-14T06:06:11Z</time></trkpt>
<trkpt lat="46.005807" lon="7.423410"><ele>2833.8</ele><time>2024-03-14T06:07:37Z</time></trkpt>
<trkpt lat="46.005547" lon="7.423716"><ele>2834.6</ele><time>2024-03-14T06:08:16Z</time></trkpt>
<trkpt lat="46.005282" lon="7.423861"><ele>2837.8</ele><time>2024-03-14T06:08:53Z</time></trkpt>
<trkpt lat="46.005005" lon="7.424109"><ele>2841.6</ele><time>2024-03-14T06:09:38Z</time></trkpt>
<trkpt lat="46.004440" lon="7.424805"><ele>2850.0</ele><time>2024-03-14T06:11:16Z</time></trkpt>
<trkpt lat="46.003660" lon="7.425683"><ele>2853.4</ele><time>2024-03-14T06:13:04Z</time></trkpt>
<trkpt lat="46.003114" lon="7.426473"><ele>2855.6</ele><time>2024-03-14T06:14:28Z</time></trkpt>
<trkpt lat="46.002763" lon="7.427106"><ele>2865.6</ele><time>2024-03-14T06:16:00Z</time></trkpt>
<trkpt lat="46.002703" lon="7.427369"><ele>2869.8</ele><time>2024-03-14T06:16:32Z</time></trkpt>
<trkpt lat="46.002710" lon="7.427630"><ele>2873.4</ele><time>2024-03-14T06:17:01Z</time></trkpt>
<trkpt lat="46.002747" lon="7.427815"><ele>2876.2</ele><time>2024-03-14T06:17:27Z</time></trkpt>
<trkpt lat="46.002565" lon="7.427851"><ele>2880.0</ele><time>2024-03-14T06:18:04Z</time></trkpt>
<trkpt lat="46.002524" lon="7.427898"><ele>2881.4</ele><time>2024-03-14T06:18:13Z</time></trkpt>
<trkpt lat="46.002481" lon="7.428063"><ele>2884.6</ele><time>2024-03-14T06:18:38Z</time></trkpt>
<trkpt lat="46.002616" lon="7.429003"><ele>2902.0</ele><time>2024-03-14T06:20:55Z</time></trkpt>
<trkpt lat="46.002681" lon="7.429152"><ele>2904.6</ele><time>2024-03-14T06:21:19Z</time></trkpt>
<trkpt lat="46.002604" lon="7.429356"><ele>2908.0</ele><time>2024-03-14T06:22:00Z</time></trkpt>
<trkpt lat="46.002684" lon="7.429498"><ele>2910.6</ele><time>2024-03-14T06:22:19Z</time></trkpt>
<trkpt lat="46.002601" lon="7.429652"><ele>2913.6</ele><time>2024-03-14T06:22:45Z</time></trkpt>
<trkpt lat="46.002713" lon="7.429816"><ele>2917.0</ele><time>2024-03-14T06:23:18Z</time></trkpt>
<trkpt lat="46.002567" lon="7.430119"><ele>2921.8</ele><time>2024-03-14T06:24:02Z</time></trkpt>
<trkpt lat="46.002720" lon="7.430279"><ele>2926.2</ele><time>2024-03-14T06:24:45Z</time></trkpt>
<trkpt lat="46.002591" lon="7.430514"><ele>2929.8</ele><time>2024-03-14T06:25:20Z</time></trkpt>
<trkpt lat="46.002717" lon="7.430618"><ele>2933.4</ele><time>2024-03-14T06:25:54Z</time></trkpt>
<trkpt lat="46.002704" lon="7.430699"><ele>2935.0</ele><time>2024-03-14T06:26:07Z</time></trkpt>
<trkpt lat="46.002635" lon="7.430767"><ele>2936.2</ele><time>2024-03-14T06:26:18Z</time></trkpt>
<trkpt lat="46.002614" lon="7.430863"><ele>2938.4</ele><time>2024-03-14T06:26:36Z</time></trkpt>
<trkpt lat="46.002692" lon="7.430972"><ele>2941.2</ele><time>2024-03-14T06:27:02Z</time></trkpt>
<trkpt lat="46.002585" lon="7.431162"><ele>2945.0</ele><time>2024-03-14T06:27:35Z</time></trkpt>
<trkpt lat="46.002734" lon="7.431301"><ele>2949.4</ele><time>2024-03-14T06:28:14Z</time></trkpt>
<trkpt lat="46.002645" lon="7.431466"><ele>2952.8</ele><time>2024-03-14T06:28:44Z</time></trkpt>
<trkpt lat="46.002878" lon="7.431596"><ele>2958.2</ele><time>2024-03-14T06:29:35Z</time></trkpt>
<trkpt lat="46.002673" lon="7.431833"><ele>2963.2</ele><time>2024-03-14T06:30:25Z</time></trkpt>
<trkpt lat="46.003015" lon="7.431942"><ele>2971.0</ele><time>2024-03-14T06:31:40Z</time></trkpt>
<trkpt lat="46.002978" lon="7.432039"><ele>2971.8</ele><time>2024-03-14T06:31:51Z</time></trkpt>
<trkpt lat="46.002728" lon="7.432347"><ele>2979.4</ele><time>2024-03-14T06:32:57Z</time></trkpt>
<trkpt lat="46.002964" lon="7.432379"><ele>2985.4</ele><time>2024-03-14T06:33:43Z</time></trkpt>
<trkpt lat="46.003269" lon="7.432282"><ele>2992.6</ele><time>2024-03-14T06:34:53Z</time></trkpt>
<trkpt lat="46.003179" lon="7.432497"><ele>2995.4</ele><time>2024-03-14T06:35:20Z</time></trkpt>
<trkpt lat="46.003148" lon="7.432553"><ele>2999.0</ele><time>2024-03-14T06:35:42Z</time></trkpt>
<trkpt lat="46.003512" lon="7.432376"><ele>3007.6</ele><time>2024-03-14T06:36:51Z</time></trkpt>
<trkpt lat="46.003835" lon="7.432314"><ele>3014.0</ele><time>2024-03-14T06:37:58Z</time></trkpt>
<trkpt lat="46.003769" lon="7.432625"><ele>3019.6</ele><time>2024-03-14T06:38:52Z</time></trkpt>
<trkpt lat="46.003873" lon="7.432636"><ele>3022.6</ele><time>2024-03-14T06:39:20Z</time></trkpt>
<trkpt lat="46.003740" lon="7.432942"><ele>3029.6</ele><time>2024-03-14T06:40:22Z</time></trkpt>
<trkpt lat="46.003778" lon="7.432927"><ele>3031.6</ele><time>2024-03-14T06:40:35Z</time></trkpt>
<trkpt lat="46.003957" lon="7.432992"><ele>3035.8</ele><time>2024-03-14T06:41:21Z</time></trkpt>
<trkpt lat="46.003846" lon="7.433198"><ele>3040.2</ele><time>2024-03-14T06:41:56Z</time></trkpt>
<trkpt lat="46.003807" lon="7.433213"><ele>3041.4</ele><time>2024-03-14T06:42:11Z</time></trkpt>
<trkpt lat="46.003994" lon="7.433258"><ele>3045.2</ele><time>2024-03-14T06:42:49Z</time></trkpt>
<trkpt lat="46.003761" lon="7.433510"><ele>3052.6</ele><time>2024-03-14T06:43:52Z</time></trkpt>
<trkpt lat="46.003952" lon="7.433551"><ele>3055.6</ele><time>2024-03-14T06:44:22Z</time></trkpt>
<trkpt lat="46.004087" lon="7.433640"><ele>3058.2</ele><time>2024-03-14T06:44:56Z</time></trkpt>
<trkpt lat="46.003828" lon="7.433883"><ele>3065.4</ele><time>2024-03-14T06:45:57Z</time></trkpt>
<trkpt lat="46.004002" lon="7.434039"><ele>3070.6</ele><time>2024-03-14T06:46:35Z</time></trkpt>
<trkpt lat="46.004088" lon="7.434217"><ele>3074.0</ele><time>2024-03-14T06:47:08Z</time></trkpt>
<trkpt lat="46.003919" lon="7.434502"><ele>3080.4</ele><time>2024-03-14T06:48:00Z</time></trkpt>
<trkpt lat="46.003892" lon="7.434603"><ele>3082.8</ele><time>2024-03-14T06:48:18Z</time></trkpt>
<trkpt lat="46.003921" lon="7.434999"><ele>3089.6</ele><time>2024-03-14T06:49:15Z</time></trkpt>
<trkpt lat="46.003972" lon="7.435107"><ele>3090.6</ele><time>2024-03-14T06:50:43Z</time></trkpt>
<trkpt lat="46.003855" lon="7.435087"><ele>3091.4</ele><time>2024-03-14T06:51:14Z</time></trkpt>
<trkpt lat="46.003915" lon="7.435069"><ele>3091.8</ele><time>2024-03-14T06:55:20Z</time></trkpt>
<trkpt lat="46.003893" lon="7.435091"><ele>3092.0</ele><time>2024-03-14T06:55:30Z</time></trkpt>
<trkpt lat="46.003880" lon="7.435070"><ele>3094.6</ele><time>2024-03-14T06:57:19Z</time></trkpt>
<trkpt lat="46.003829" lon="7.435122"><ele>3096.6</ele><time>2024-03-14T06:58:24Z</time></trkpt>
<trkpt lat="46.003623" lon="7.435185"><ele>3101.4</ele><time>2024-03-14T06:58:58Z</time></trkpt>
<trkpt lat="46.003758" lon="7.435947"><ele>3115.4</ele><time>2024-03-14T07:01:03Z</time></trkpt>
<trkpt lat="46.003834" lon="7.436231"><ele>3119.8</ele><time>2024-03-14T07:01:41Z</time></trkpt>
<trkpt lat="46.003236" lon="7.435800"><ele>3134.8</ele><time>2024-03-14T07:04:04Z</time></trkpt>
<trkpt lat="46.003038" lon="7.435751"><ele>3138.8</ele><time>2024-03-14T07:04:41Z</time></trkpt>
<trkpt lat="46.003074" lon="7.435830"><ele>3144.4</ele><time>2024-03-14T07:05:10Z</time></trkpt>
<trkpt lat="46.003177" lon="7.436046"><ele>3147.0</ele><time>2024-03-14T07:05:41Z</time></trkpt>
<trkpt lat="46.003069" lon="7.436026"><ele>3152.8</ele><time>2024-03-14T07:06:09Z</time></trkpt>
<trkpt lat="46.002750" lon="7.435968"><ele>3156.8</ele><time>2024-03-14T07:07:15Z</time></trkpt>
<trkpt lat="46.002664" lon="7.435993"><ele>3161.4</ele><time>2024-03-14T07:07:31Z</time></trkpt>
<trkpt lat="46.002722" lon="7.436121"><ele>3163.6</ele><time>2024-03-14T07:07:54Z</time></trkpt>
<trkpt lat="46.002753" lon="7.436293"><ele>3162.6</ele><time>2024-03-14T07:08:16Z</time></trkpt>
<trkpt lat="46.002853" lon="7.436458"><ele>3164.2</ele><time>2024-03-14T07:08:45Z</time></trkpt>
<trkpt lat="46.003017" lon="7.436896"><ele>3169.8</ele><time>2024-03-14T07:10:01Z</time></trkpt>
<trkpt lat="46.002748" lon="7.436844"><ele>3175.4</ele><time>2024-03-14T07:11:05Z</time></trkpt>
<trkpt lat="46.002619" lon="7.436836"><ele>3183.0</ele><time>2024-03-14T07:11:40Z</time></trkpt>
<trkpt lat="46.002444" lon="7.436816"><ele>3187.8</ele><time>2024-03-14T07:12:08Z</time></trkpt>
<trkpt lat="46.002522" lon="7.436910"><ele>3188.6</ele><time>2024-03-14T07:12:30Z</time></trkpt>
<trkpt lat="46.002665" lon="7.437313"><ele>3192.2</ele><time>2024-03-14T07:13:33Z</time></trkpt>
<trkpt lat="46.002620" lon="7.437320"><ele>3192.4</ele><time>2024-03-14T07:13:49Z</time></trkpt>
<trkpt lat="46.002485" lon="7.437226"><ele>3197.8</ele><time>2024-03-14T07:14:36Z</time></trkpt>
<trkpt lat="46.002341" lon="7.437176"><ele>3201.0</ele><time>2024-03-14T07:15:03Z</time></trkpt>
<trkpt lat="46.002403" lon="7.437245"><ele>3203.2</ele><time>2024-03-14T07:15:30Z</time></trkpt>
<trkpt lat="46.002444" lon="7.437572"><ele>3207.2</ele><time>2024-03-14T07:16:17Z</time></trkpt>
<trkpt lat="46.002229" lon="7.437422"><ele>3211.0</ele><time>2024-03-14T07:17:01Z</time></trkpt>
<trkpt lat="46.002116" lon="7.437297"><ele>3215.0</ele><time>2024-03-14T07:17:36Z</time></trkpt>
<trkpt lat="46.002162" lon="7.437366"><ele>3215.8</ele><time>2024-03-14T07:17:52Z</time></trkpt>
<trkpt lat="46.002167" lon="7.437712"><ele>3220.2</ele><time>2024-03-14T07:18:41Z</time></trkpt>
<trkpt lat="46.002138" lon="7.437975"><ele>3224.0</ele><time>2024-03-14T07:19:19Z</time></trkpt>
<trkpt lat="46.001860" lon="7.437595"><ele>3231.6</ele><time>2024-03-14T07:20:44Z</time></trkpt>
<trkpt lat="46.001760" lon="7.437515"><ele>3234.6</ele><time>2024-03-14T07:21:11Z</time></trkpt>
<trkpt lat="46.001799" lon="7.437655"><ele>3236.6</ele><time>2024-03-14T07:21:30Z</time></trkpt>
<trkpt lat="46.001815" lon="7.437932"><ele>3240.6</ele><time>2024-03-14T07:22:13Z</time></trkpt>
<trkpt lat="46.001654" lon="7.437814"><ele>3242.8</ele><time>2024-03-14T07:22:56Z</time></trkpt>
<trkpt lat="46.001576" lon="7.437703"><ele>3245.0</ele><time>2024-03-14T07:23:14Z</time></trkpt>
<trkpt lat="46.001392" lon="7.437553"><ele>3250.2</ele><time>2024-03-14T07:23:59Z</time></trkpt>
<trkpt lat="46.001428" lon="7.437615"><ele>3251.4</ele><time>2024-03-14T07:24:11Z</time></trkpt>
<trkpt lat="46.001456" lon="7.437914"><ele>3254.2</ele><time>2024-03-14T07:24:52Z</time></trkpt>
<trkpt lat="46.001085" lon="7.437654"><ele>3262.0</ele><time>2024-03-14T07:26:10Z</time></trkpt>
<trkpt lat="46.001262" lon="7.438117"><ele>3269.2</ele><time>2024-03-14T07:27:37Z</time></trkpt>
<trkpt lat="46.001117" lon="7.438073"><ele>3272.2</ele><time>2024-03-14T07:28:17Z</time></trkpt>
<trkpt lat="46.001127" lon="7.438039"><ele>3272.0</ele><time>2024-03-14T07:28:33Z</time></trkpt>
<trkpt lat="46.001117" lon="7.438066"><ele>3272.0</ele><time>2024-03-14T07:28:48Z</time></trkpt>
<trkpt lat="46.001135" lon="7.438049"><ele>3272.0</ele><time>2024-03-14T07:28:54Z</time></trkpt>
<trkpt lat="46.000983" lon="7.438013"><ele>3275.2</ele><time>2024-03-14T07:29:21Z</time></trkpt>
<trkpt lat="46.001013" lon="7.438030"><ele>3276.2</ele><time>2024-03-14T07:29:35Z</time></trkpt>
<trkpt lat="46.001208" lon="7.438453"><ele>3283.0</ele><time>2024-03-14T07:30:37Z</time></trkpt>
<trkpt lat="46.000865" lon="7.438401"><ele>3290.0</ele><time>2024-03-14T07:31:40Z</time></trkpt>
<trkpt lat="46.000863" lon="7.438356"><ele>3291.6</ele><time>2024-03-14T07:31:50Z</time></trkpt>
<trkpt lat="46.000885" lon="7.438342"><ele>3292.0</ele><time>2024-03-14T07:31:56Z</time></trkpt>
<trkpt lat="46.000927" lon="7.438413"><ele>3293.4</ele><time>2024-03-14T07:32:05Z</time></trkpt>
<trkpt lat="46.000974" lon="7.438564"><ele>3296.6</ele><time>2024-03-14T07:32:35Z</time></trkpt>
<trkpt lat="46.000684" lon="7.438535"><ele>3302.0</ele><time>2024-03-14T07:33:25Z</time></trkpt>
<trkpt lat="46.000728" lon="7.438516"><ele>3302.8</ele><time>2024-03-14T07:33:32Z</time></trkpt>
<trkpt lat="46.000801" lon="7.438611"><ele>3304.0</ele><time>2024-03-14T07:33:47Z</time></trkpt>
<trkpt lat="46.000821" lon="7.438690"><ele>3305.6</ele><time>2024-03-14T07:34:03Z</time></trkpt>
<trkpt lat="46.000731" lon="7.438722"><ele>3307.6</ele><time>2024-03-14T07:34:25Z</time></trkpt>
<trkpt lat="46.000581" lon="7.438676"><ele>3310.8</ele><time>2024-03-14T07:34:48Z</time></trkpt>
<trkpt lat="46.000629" lon="7.438701"><ele>3313.0</ele><time>2024-03-14T07:35:03Z</time></trkpt>
<trkpt lat="46.000680" lon="7.438863"><ele>3316.2</ele><time>2024-03-14T07:35:25Z</time></trkpt>
<trkpt lat="46.000591" lon="7.438911"><ele>3317.8</ele><time>2024-03-14T07:35:47Z</time></trkpt>
<trkpt lat="46.000470" lon="7.438868"><ele>3320.4</ele><time>2024-03-14T07:36:06Z</time></trkpt>
<trkpt lat="46.000538" lon="7.438937"><ele>3323.0</ele><time>2024-03-14T07:36:21Z</time></trkpt>
<trkpt lat="46.000531" lon="7.439046"><ele>3325.2</ele><time>2024-03-14T07:36:34Z</time></trkpt>
<trkpt lat="46.000252" lon="7.439038"><ele>3331.8</ele><time>2024-03-14T07:37:29Z</time></trkpt>
<trkpt lat="46.000275" lon="7.439197"><ele>3337.0</ele><time>2024-03-14T07:38:03Z</time></trkpt>
<trkpt lat="46.000238" lon="7.439364"><ele>3339.8</ele><time>2024-03-14T07:38:26Z</time></trkpt>
<trkpt lat="46.000086" lon="7.439379"><ele>3343.6</ele><time>2024-03-14T07:38:57Z</time></trkpt>
<trkpt lat="45.999776" lon="7.439321"><ele>3351.8</ele><time>2024-03-14T07:39:56Z</time></trkpt>
<trkpt lat="45.999663" lon="7.439548"><ele>3357.6</ele><time>2024-03-14T07:40:36Z</time></trkpt>
<trkpt lat="45.999471" lon="7.439679"><ele>3362.4</ele><time>2024-03-14T07:41:15Z</time></trkpt>
<trkpt lat="45.998706" lon="7.439834"><ele>3381.0</ele><time>2024-03-14T07:43:55Z</time></trkpt>
<trkpt lat="45.997817" lon="7.439885"><ele>3405.6</ele><time>2024-03-14T07:46:57Z</time></trkpt>
<trkpt lat="45.997395" lon="7.439935"><ele>3415.0</ele><time>2024-03-14T07:48:10Z</time></trkpt>
<trkpt lat="45.996948" lon="7.439883"><ele>3425.6</ele><time>2024-03-14T07:49:38Z</time></trkpt>
<trkpt lat="45.996824" lon="7.439789"><ele>3430.6</ele><time>2024-03-14T07:50:22Z</time></trkpt>
<trkpt lat="45.996730" lon="7.439656"><ele>3433.2</ele><time>2024-03-14T07:50:57Z</time></trkpt>
<trkpt lat="45.996144" lon="7.439179"><ele>3447.4</ele><time>2024-03-14T07:53:11Z</time></trkpt>
<trkpt lat="45.995698" lon="7.438917"><ele>3455.4</ele><time>2024-03-14T07:54:25Z</time></trkpt>
<trkpt lat="45.995007" lon="7.438428"><ele>3468.6</ele><time>2024-03-14T07:56:25Z</time></trkpt>
<trkpt lat="45.994246" lon="7.438050"><ele>3476.6</ele><time>2024-03-14T07:58:39Z</time></trkpt>
<trkpt lat="45.994176" lon="7.437990"><ele>3477.6</ele><time>2024-03-14T07:59:17Z</time></trkpt>
<trkpt lat="45.994183" lon="7.437904"><ele>3477.6</ele><time>2024-03-14T08:01:14Z</time></trkpt>
<trkpt lat="45.993987" lon="7.437881"><ele>3480.0</ele><time>2024-03-14T08:03:12Z</time></trkpt>
<trkpt lat="45.993991" lon="7.437853"><ele>3480.4</ele><time>2024-03-14T08:03:29Z</time></trkpt>
<trkpt lat="45.993973" lon="7.437888"><ele>3480.2</ele><time>2024-03-14T08:05:20Z</time></trkpt>
<trkpt lat="45.993985" lon="7.437857"><ele>3480.0</ele><time>2024-03-14T08:05:47Z</time></trkpt>
<trkpt lat="45.993977" lon="7.437885"><ele>3480.8</ele><time>2024-03-14T08:05:56Z</time></trkpt>
<trkpt lat="45.993960" lon="7.437854"><ele>3480.8</ele><time>2024-03-14T08:06:54Z</time></trkpt>
<trkpt lat="45.993971" lon="7.437889"><ele>3480.6</ele><time>2024-03-14T08:07:02Z</time></trkpt>
<trkpt lat="45.993955" lon="7.437863"><ele>3480.4</ele><time>2024-03-14T08:07:59Z</time></trkpt>
<trkpt lat="45.993982" lon="7.437859"><ele>3480.4</ele><time>2024-03-14T08:08:42Z</time></trkpt>
<trkpt lat="45.993966" lon="7.437892"><ele>3480.6</ele><time>2024-03-14T08:08:57Z</time></trkpt>
<trkpt lat="45.993886" lon="7.437781"><ele>3482.2</ele><time>2024-03-14T08:10:02Z</time></trkpt>
<trkpt lat="45.993576" lon="7.437625"><ele>3487.0</ele><time>2024-03-14T08:11:04Z</time></trkpt>
<trkpt lat="45.993476" lon="7.437577"><ele>3491.0</ele><time>2024-03-14T08:11:30Z</time></trkpt>
<trkpt lat="45.993357" lon="7.437553"><ele>3499.8</ele><time>2024-03-14T08:12:09Z</time></trkpt>
<trkpt lat="45.993211" lon="7.437534"><ele>3499.0</ele><time>2024-03-14T08:12:27Z</time></trkpt>
<trkpt lat="45.992904" lon="7.437460"><ele>3508.6</ele><time>2024-03-14T08:13:17Z</time></trkpt>
<trkpt lat="45.992493" lon="7.437409"><ele>3513.8</ele><time>2024-03-14T08:14:20Z</time></trkpt>
<trkpt lat="45.992360" lon="7.437350"><ele>3515.2</ele><time>2024-03-14T08:14:40Z</time></trkpt>
<trkpt lat="45.992154" lon="7.437308"><ele>3512.2</ele><time>2024-03-14T08:15:08Z</time></trkpt>
<trkpt lat="45.992042" lon="7.437326"><ele>3511.8</ele><time>2024-03-14T08:15:19Z</time></trkpt>
<trkpt lat="45.991865" lon="7.437457"><ele>3510.4</ele><time>2024-03-14T08:15:36Z</time></trkpt>
<trkpt lat="45.991681" lon="7.437664"><ele>3509.0</ele><time>2024-03-14T08:16:02Z</time></trkpt>
<trkpt lat="45.991511" lon="7.437892"><ele>3513.4</ele><time>2024-03-14T08:16:32Z</time></trkpt>
<trkpt lat="45.991385" lon="7.438089"><ele>3513.6</ele><time>2024-03-14T08:16:57Z</time></trkpt>
<trkpt lat="45.991268" lon="7.438343"><ele>3515.2</ele><time>2024-03-14T08:17:29Z</time></trkpt>
<trkpt lat="45.991220" lon="7.438485"><ele>3513.0</ele><time>2024-03-14T08:17:56Z</time></trkpt>
<trkpt lat="45.991199" lon="7.438518"><ele>3515.6</ele><time>2024-03-14T08:18:07Z</time></trkpt>
<trkpt lat="45.991213" lon="7.438528"><ele>3512.4</ele><time>2024-03-14T08:18:23Z</time></trkpt>
<trkpt lat="45.991174" lon="7.438548"><ele>3510.8</ele><time>2024-03-14T08:18:39Z</time></trkpt>
<trkpt lat="45.991206" lon="7.438521"><ele>3508.0</ele><time>2024-03-14T08:21:33Z</time></trkpt>
<trkpt lat="45.991100" lon="7.438819"><ele>3509.8</ele><time>2024-03-14T08:22:08Z</time></trkpt>
<trkpt lat="45.991082" lon="7.439284"><ele>3513.2</ele><time>2024-03-14T08:22:54Z</time></trkpt>
<trkpt lat="45.991155" lon="7.439887"><ele>3518.0</ele><time>2024-03-14T08:23:54Z</time></trkpt>
<trkpt lat="45.991292" lon="7.440621"><ele>3522.6</ele><time>2024-03-14T08:25:17Z</time></trkpt>
<trkpt lat="45.991427" lon="7.441021"><ele>3527.0</ele><time>2024-03-14T08:27:03Z</time></trkpt>
<trkpt lat="45.991414" lon="7.441083"><ele>3528.0</ele><time>2024-03-14T08:28:05Z</time></trkpt>
<trkpt lat="45.991439" lon="7.441065"><ele>3525.4</ele><time>2024-03-14T08:32:06Z</time></trkpt>
<trkpt lat="45.991418" lon="7.441055"><ele>3525.8</ele><time>2024-03-14T08:32:46Z</time></trkpt>
<trkpt lat="45.991443" lon="7.441067"><ele>3527.4</ele><time>2024-03-14T08:33:38Z</time></trkpt>
<trkpt lat="45.991429" lon="7.441042"><ele>3529.2</ele><time>2024-03-14T08:34:59Z</time></trkpt>
<trkpt lat="45.991441" lon="7.441084"><ele>3528.4</ele><time>2024-03-14T08:35:25Z</time></trkpt>
<trkpt lat="45.991421" lon="7.441077"><ele>3528.6</ele><time>2024-03-14T08:35:27Z</time></trkpt>
<trkpt lat="45.991433" lon="7.441053"><ele>3527.2</ele><time>2024-03-14T08:36:00Z</time></trkpt>
<trkpt lat="45.991469" lon="7.441125"><ele>3527.4</ele><time>2024-03-14T08:36:33Z</time></trkpt>
<trkpt lat="45.991532" lon="7.441578"><ele>3540.0</ele><time>2024-03-14T08:38:35Z</time></trkpt>
<trkpt lat="45.991518" lon="7.441665"><ele>3541.4</ele><time>2024-03-14T08:39:28Z</time></trkpt>
<trkpt lat="45.991538" lon="7.441674"><ele>3542.4</ele><time>2024-03-14T08:39:49Z</time></trkpt>
<trkpt lat="45.991491" lon="7.441935"><ele>3548.2</ele><time>2024-03-14T08:41:46Z</time></trkpt>
<trkpt lat="45.991411" lon="7.441848"><ele>3551.2</ele><time>2024-03-14T08:42:46Z</time></trkpt>
<trkpt lat="45.991421" lon="7.441896"><ele>3550.2</ele><time>2024-03-14T08:43:36Z</time></trkpt>
<trkpt lat="45.991419" lon="7.441856"><ele>3548.2</ele><time>2024-03-14T08:44:05Z</time></trkpt>
<trkpt lat="45.991408" lon="7.441890"><ele>3550.4</ele><time>2024-03-14T08:45:06Z</time></trkpt>
<trkpt lat="45.991422" lon="7.441854"><ele>3550.0</ele><time>2024-03-14T08:45:25Z</time></trkpt>
<trkpt lat="45.991365" lon="7.441793"><ele>3553.0</ele><time>2024-03-14T08:45:46Z</time></trkpt>
<trkpt lat="45.991325" lon="7.441809"><ele>3555.6</ele><time>2024-03-14T08:46:33Z</time></trkpt>
<trkpt lat="45.991307" lon="7.441892"><ele>3558.4</ele><time>2024-03-14T08:47:25Z</time></trkpt>
<trkpt lat="45.991250" lon="7.441863"><ele>3563.4</ele><time>2024-03-14T08:48:34Z</time></trkpt>
<trkpt lat="45.991189" lon="7.441911"><ele>3565.0</ele><time>2024-03-14T08:49:14Z</time></trkpt>
<trkpt lat="45.991219" lon="7.441908"><ele>3567.6</ele><time>2024-03-14T08:49:22Z</time></trkpt>
<trkpt lat="45.991147" lon="7.441904"><ele>3568.6</ele><time>2024-03-14T08:50:08Z</time></trkpt>
<trkpt lat="45.991056" lon="7.442115"><ele>3576.0</ele><time>2024-03-14T08:51:43Z</time></trkpt>
<trkpt lat="45.991022" lon="7.442124"><ele>3578.2</ele><time>2024-03-14T08:52:05Z</time></trkpt>
<trkpt lat="45.990920" lon="7.442288"><ele>3586.8</ele><time>2024-03-14T08:53:26Z</time></trkpt>
<trkpt lat="45.990625" lon="7.442504"><ele>3602.0</ele><time>2024-03-14T08:55:34Z</time></trkpt>
<trkpt lat="45.990600" lon="7.442432"><ele>3602.0</ele><time>2024-03-14T08:55:54Z</time></trkpt>
<trkpt lat="45.990521" lon="7.442369"><ele>3605.4</ele><time>2024-03-14T08:56:42Z</time></trkpt>
<trkpt lat="45.990488" lon="7.442390"><ele>3605.6</ele><time>2024-03-14T08:57:08Z</time></trkpt>
<trkpt lat="45.990531" lon="7.442358"><ele>3605.6</ele><time>2024-03-14T09:00:22Z</time></trkpt>
<trkpt lat="45.990507" lon="7.442369"><ele>3605.2</ele><time>2024-03-14T09:00:40Z</time></trkpt>
<trkpt lat="45.990521" lon="7.442406"><ele>3605.2</ele><time>2024-03-14T09:01:25Z</time></trkpt>
<trkpt lat="45.990486" lon="7.442387"><ele>3605.4</ele><time>2024-03-14T09:02:42Z</time></trkpt>
<trkpt lat="45.990508" lon="7.442399"><ele>3606.4</ele><time>2024-03-14T09:02:57Z</time></trkpt>
<trkpt lat="45.990390" lon="7.442233"><ele>3610.6</ele><time>2024-03-14T09:04:51Z</time></trkpt>
<trkpt lat="45.990311" lon="7.442280"><ele>3614.0</ele><time>2024-03-14T09:05:22Z</time></trkpt>
<trkpt lat="45.989945" lon="7.442840"><ele>3625.0</ele><time>2024-03-14T09:07:05Z</time></trkpt>
<trkpt lat="45.989499" lon="7.443584"><ele>3632.0</ele><time>2024-03-14T09:08:30Z</time></trkpt>
<trkpt lat="45.989164" lon="7.443907"><ele>3633.8</ele><time>2024-03-14T09:09:14Z</time></trkpt>
<trkpt lat="45.988641" lon="7.444221"><ele>3633.6</ele><time>2024-03-14T09:10:29Z</time></trkpt>
<trkpt lat="45.988470" lon="7.444366"><ele>3633.4</ele><time>2024-03-14T09:10:52Z</time></trkpt>
<trkpt lat="45.988124" lon="7.444834"><ele>3631.4</ele><time>2024-03-14T09:11:36Z</time></trkpt>
<trkpt lat="45.987942" lon="7.445150"><ele>3631.6</ele><time>2024-03-14T09:12:04Z</time></trkpt>
<trkpt lat="45.987539" lon="7.446185"><ele>3632.2</ele><time>2024-03-14T09:13:26Z</time></trkpt>
<trkpt lat="45.987522" lon="7.446245"><ele>3632.4</ele><time>2024-03-14T09:14:09Z</time></trkpt>
<trkpt lat="45.987546" lon="7.446239"><ele>3633.6</ele><time>2024-03-14T09:15:21Z</time></trkpt>
<trkpt lat="45.987521" lon="7.446224"><ele>3635.0</ele><time>2024-03-14T09:15:56Z</time></trkpt>
<trkpt lat="45.987533" lon="7.446251"><ele>3636.4</ele><time>2024-03-14T09:16:29Z</time></trkpt>
<trkpt lat="45.987534" lon="7.446201"><ele>3636.4</ele><time>2024-03-14T09:16:42Z</time></trkpt>
<trkpt lat="45.987539" lon="7.446236"><ele>3638.8</ele><time>2024-03-14T09:17:36Z</time></trkpt>
<trkpt lat="45.987370" lon="7.446624"><ele>3640.6</ele><time>2024-03-14T09:18:07Z</time></trkpt>
<trkpt lat="45.987198" lon="7.447191"><ele>3642.6</ele><time>2024-03-14T09:18:49Z</time></trkpt>
<trkpt lat="45.987001" lon="7.447968"><ele>3647.8</ele><time>2024-03-14T09:19:57Z</time></trkpt>
<trkpt lat="45.986983" lon="7.448473"><ele>3653.6</ele><time>2024-03-14T09:20:52Z</time></trkpt>
<trkpt lat="45.987067" lon="7.448782"><ele>3658.2</ele><time>2024-03-14T09:21:30Z</time></trkpt>
<trkpt lat="45.987074" lon="7.448908"><ele>3659.8</ele><time>2024-03-14T09:21:45Z</time></trkpt>
<trkpt lat="45.987040" lon="7.449035"><ele>3662.2</ele><time>2024-03-14T09:22:02Z</time></trkpt>
<trkpt lat="45.987138" lon="7.449217"><ele>3664.4</ele><time>2024-03-14T09:22:27Z</time></trkpt>
<trkpt lat="45.987096" lon="7.449370"><ele>3667.0</ele><time>2024-03-14T09:22:47Z</time></trkpt>
<trkpt lat="45.987162" lon="7.449551"><ele>3669.2</ele><time>2024-03-14T09:23:10Z</time></trkpt>
<trkpt lat="45.987206" lon="7.450053"><ele>3674.6</ele><time>2024-03-14T09:24:05Z</time></trkpt>
<trkpt lat="45.987281" lon="7.450600"><ele>3677.6</ele><time>2024-03-14T09:24:55Z</time></trkpt>
<trkpt lat="45.987479" lon="7.451307"><ele>3678.8</ele><time>2024-03-14T09:26:00Z</time></trkpt>
<trkpt lat="45.987740" lon="7.451917"><ele>3683.2</ele><time>2024-03-14T09:27:08Z</time></trkpt>
<trkpt lat="45.988185" lon="7.452401"><ele>3691.4</ele><time>2024-03-14T09:28:33Z</time></trkpt>
<trkpt lat="45.988641" lon="7.452747"><ele>3703.2</ele><time>2024-03-14T09:30:21Z</time></trkpt>
<trkpt lat="45.988920" lon="7.452905"><ele>3709.8</ele><time>2024-03-14T09:31:22Z</time></trkpt>
<trkpt lat="45.988894" lon="7.453013"><ele>3712.4</ele><time>2024-03-14T09:31:40Z</time></trkpt>
<trkpt lat="45.988730" lon="7.453313"><ele>3718.2</ele><time>2024-03-14T09:32:37Z</time></trkpt>
<trkpt lat="45.989284" lon="7.453662"><ele>3729.6</ele><time>2024-03-14T09:34:33Z</time></trkpt>
<trkpt lat="45.989896" lon="7.454264"><ele>3740.2</ele><time>2024-03-14T09:36:30Z</time></trkpt>
<trkpt lat="45.990041" lon="7.454479"><ele>3745.4</ele><time>2024-03-14T09:37:12Z</time></trkpt>
<trkpt lat="45.990239" lon="7.454626"><ele>3751.0</ele><time>2024-03-14T09:38:02Z</time></trkpt>
<trkpt lat="45.990489" lon="7.455073"><ele>3762.0</ele><time>2024-03-14T09:39:40Z</time></trkpt>
<trkpt lat="45.990565" lon="7.455071"><ele>3764.2</ele><time>2024-03-14T09:39:59Z</time></trkpt>
<trkpt lat="45.990847" lon="7.454831"><ele>3771.8</ele><time>2024-03-14T09:41:14Z</time></trkpt>
<trkpt lat="45.991037" lon="7.454793"><ele>3776.6</ele><time>2024-03-14T09:41:56Z</time></trkpt>
<trkpt lat="45.991171" lon="7.454940"><ele>3782.0</ele><time>2024-03-14T09:42:40Z</time></trkpt>
<trkpt lat="45.991194" lon="7.455006"><ele>3784.6</ele><time>2024-03-14T09:43:02Z</time></trkpt>
<trkpt lat="45.991149" lon="7.455121"><ele>3786.6</ele><time>2024-03-14T09:45:39Z</time></trkpt>
<trkpt lat="45.991166" lon="7.455155"><ele>3787.4</ele><time>2024-03-14T09:45:45Z</time></trkpt>
<trkpt lat="45.991250" lon="7.455217"><ele>3790.4</ele><time>2024-03-14T09:46:07Z</time></trkpt>
<trkpt lat="45.991295" lon="7.455257"><ele>3794.4</ele><time>2024-03-14T09:47:51Z</time></trkpt>
<trkpt lat="45.991282" lon="7.455282"><ele>3795.0</ele><time>2024-03-14T09:48:32Z</time></trkpt>
<trkpt lat="45.991360" lon="7.455232"><ele>3794.0</ele><time>2024-03-14T09:50:34Z</time></trkpt>
<trkpt lat="45.991348" lon="7.455191"><ele>3793.6</ele><time>2024-03-14T09:51:00Z</time></trkpt>
<trkpt lat="45.991210" lon="7.455222"><ele>3791.0</ele><time>2024-03-14T09:51:38Z</time></trkpt>
<trkpt lat="45.991176" lon="7.455144"><ele>3788.0</ele><time>2024-03-14T09:51:52Z</time></trkpt>
<trkpt lat="45.991187" lon="7.455130"><ele>3785.0</ele><time>2024-03-14T09:52:13Z</time></trkpt>
<trkpt lat="45.991158" lon="7.455108"><ele>3785.8</ele><time>2024-03-14T09:53:23Z</time></trkpt>
<trkpt lat="45.991175" lon="7.455124"><ele>3785.4</ele><time>2024-03-14T09:54:01Z</time></trkpt>
<trkpt lat="45.991162" lon="7.455115"><ele>3781.4</ele><time>2024-03-14T10:00:46Z</time></trkpt>
<trkpt lat="45.991167" lon="7.455136"><ele>3783.2</ele><time>2024-03-14T10:02:38Z</time></trkpt>
<trkpt lat="45.991144" lon="7.455096"><ele>3785.0</ele><time>2024-03-14T10:04:13Z</time></trkpt>
<trkpt lat="45.991178" lon="7.455076"><ele>3790.4</ele><time>2024-03-14T10:05:26Z</time></trkpt>
<trkpt lat="45.991200" lon="7.455009"><ele>3790.2</ele><time>2024-03-14T10:05:34Z</time></trkpt>
<trkpt lat="45.991182" lon="7.455018"><ele>3794.2</ele><time>2024-03-14T10:05:55Z</time></trkpt>
<trkpt lat="45.991135" lon="7.454976"><ele>3793.0</ele><time>2024-03-14T10:06:56Z</time></trkpt>
<trkpt lat="45.991115" lon="7.454849"><ele>3792.2</ele><time>2024-03-14T10:06:58Z</time></trkpt>
<trkpt lat="45.991040" lon="7.454873"><ele>3790.2</ele><time>2024-03-14T10:07:00Z</time></trkpt>
<trkpt lat="45.990930" lon="7.454796"><ele>3787.2</ele><time>2024-03-14T10:07:04Z</time></trkpt>
<trkpt lat="45.990787" lon="7.454905"><ele>3784.4</ele><time>2024-03-14T10:07:08Z</time></trkpt>
<trkpt lat="45.990764" lon="7.454871"><ele>3783.0</ele><time>2024-03-14T10:07:09Z</time></trkpt>
<trkpt lat="45.990627" lon="7.454891"><ele>3780.4</ele><time>2024-03-14T10:07:13Z</time></trkpt>
<trkpt lat="45.990500" lon="7.455047"><ele>3776.4</ele><time>2024-03-14T10:07:17Z</time></trkpt>
<trkpt lat="45.990427" lon="7.454721"><ele>3773.2</ele><time>2024-03-14T10:07:24Z</time></trkpt>
<trkpt lat="45.990347" lon="7.454746"><ele>3773.0</ele><time>2024-03-14T10:07:26Z</time></trkpt>
<trkpt lat="45.990285" lon="7.454706"><ele>3771.2</ele><time>2024-03-14T10:07:28Z</time></trkpt>
<trkpt lat="45.990253" lon="7.454629"><ele>3768.0</ele><time>2024-03-14T10:07:30Z</time></trkpt>
<trkpt lat="45.990168" lon="7.454667"><ele>3767.0</ele><time>2024-03-14T10:07:32Z</time></trkpt>
<trkpt lat="45.990090" lon="7.454840"><ele>3763.2</ele><time>2024-03-14T10:07:35Z</time></trkpt>
<trkpt lat="45.990021" lon="7.454908"><ele>3761.6</ele><time>2024-03-14T10:07:37Z</time></trkpt>
<trkpt lat="45.989968" lon="7.454891"><ele>3760.4</ele><time>2024-03-14T10:07:39Z</time></trkpt>
<trkpt lat="45.989935" lon="7.454924"><ele>3760.2</ele><time>2024-03-14T10:07:40Z</time></trkpt>
<trkpt lat="45.989911" lon="7.455054"><ele>3759.6</ele><time>2024-03-14T10:07:42Z</time></trkpt>
<trkpt lat="45.989960" lon="7.455424"><ele>3750.6</ele><time>2024-03-14T10:08:14Z</time></trkpt>
<trkpt lat="45.989918" lon="7.455618"><ele>3749.8</ele><time>2024-03-14T10:08:42Z</time></trkpt>
<trkpt lat="45.990010" lon="7.455986"><ele>3743.0</ele><time>2024-03-14T10:08:49Z</time></trkpt>
<trkpt lat="45.990230" lon="7.456397"><ele>3736.4</ele><time>2024-03-14T10:09:00Z</time></trkpt>
<trkpt lat="45.990243" lon="7.456475"><ele>3735.8</ele><time>2024-03-14T10:09:02Z</time></trkpt>
<trkpt lat="45.990206" lon="7.456483"><ele>3734.8</ele><time>2024-03-14T10:09:03Z</time></trkpt>
<trkpt lat="45.990177" lon="7.456626"><ele>3731.6</ele><time>2024-03-14T10:09:06Z</time></trkpt>
<trkpt lat="45.990106" lon="7.456667"><ele>3728.6</ele><time>2024-03-14T10:09:08Z</time></trkpt>
<trkpt lat="45.989958" lon="7.456905"><ele>3721.8</ele><time>2024-03-14T10:09:12Z</time></trkpt>
<trkpt lat="45.989958" lon="7.457053"><ele>3717.2</ele><time>2024-03-14T10:09:14Z</time></trkpt>
<trkpt lat="45.989871" lon="7.457036"><ele>3714.0</ele><time>2024-03-14T10:09:17Z</time></trkpt>
<trkpt lat="45.989874" lon="7.457226"><ele>3710.6</ele><time>2024-03-14T10:09:21Z</time></trkpt>
<trkpt lat="45.989823" lon="7.457329"><ele>3709.6</ele><time>2024-03-14T10:09:23Z</time></trkpt>
<trkpt lat="45.989752" lon="7.457370"><ele>3707.6</ele><time>2024-03-14T10:09:25Z</time></trkpt>
<trkpt lat="45.989712" lon="7.457465"><ele>3705.8</ele><time>2024-03-14T10:09:27Z</time></trkpt>
<trkpt lat="45.989669" lon="7.457470"><ele>3704.6</ele><time>2024-03-14T10:09:28Z</time></trkpt>
<trkpt lat="45.989627" lon="7.457583"><ele>3702.8</ele><time>2024-03-14T10:09:30Z</time></trkpt>
<trkpt lat="45.989586" lon="7.457602"><ele>3702.0</ele><time>2024-03-14T10:09:31Z</time></trkpt>
<trkpt lat="45.989481" lon="7.457533"><ele>3698.6</ele><time>2024-03-14T10:09:34Z</time></trkpt>
<trkpt lat="45.989474" lon="7.457648"><ele>3697.0</ele><time>2024-03-14T10:09:37Z</time></trkpt>
<trkpt lat="45.989461" lon="7.457634"><ele>3690.4</ele><time>2024-03-14T10:09:57Z</time></trkpt>
<trkpt lat="45.989478" lon="7.457645"><ele>3690.2</ele><time>2024-03-14T10:10:22Z</time></trkpt>
<trkpt lat="45.989427" lon="7.457861"><ele>3689.4</ele><time>2024-03-14T10:11:40Z</time></trkpt>
<trkpt lat="45.989191" lon="7.457685"><ele>3686.4</ele><time>2024-03-14T10:11:47Z</time></trkpt>
<trkpt lat="45.989078" lon="7.457668"><ele>3685.8</ele><time>2024-03-14T10:11:51Z</time></trkpt>
<trkpt lat="45.989076" lon="7.457814"><ele>3684.8</ele><time>2024-03-14T10:11:53Z</time></trkpt>
<trkpt lat="45.988894" lon="7.458058"><ele>3672.8</ele><time>2024-03-14T10:12:00Z</time></trkpt>
<trkpt lat="45.988951" lon="7.458330"><ele>3667.0</ele><time>2024-03-14T10:12:05Z</time></trkpt>
<trkpt lat="45.988889" lon="7.458269"><ele>3664.2</ele><time>2024-03-14T10:12:10Z</time></trkpt>
<trkpt lat="45.988833" lon="7.458384"><ele>3663.6</ele><time>2024-03-14T10:12:13Z</time></trkpt>
<trkpt lat="45.988809" lon="7.458417"><ele>3660.4</ele><time>2024-03-14T10:12:15Z</time></trkpt>
<trkpt lat="45.988761" lon="7.458379"><ele>3656.6</ele><time>2024-03-14T10:12:20Z</time></trkpt>
<trkpt lat="45.988771" lon="7.458379"><ele>3654.4</ele><time>2024-03-14T10:12:32Z</time></trkpt>
<trkpt lat="45.988696" lon="7.458349"><ele>3654.2</ele><time>2024-03-14T10:12:36Z</time></trkpt>
<trkpt lat="45.988669" lon="7.458377"><ele>3654.2</ele><time>2024-03-14T10:12:37Z</time></trkpt>
<trkpt lat="45.988670" lon="7.458530"><ele>3652.4</ele><time>2024-03-14T10:12:39Z</time></trkpt>
<trkpt lat="45.988654" lon="7.458580"><ele>3650.6</ele><time>2024-03-14T10:12:40Z</time></trkpt>
<trkpt lat="45.988587" lon="7.458588"><ele>3647.6</ele><time>2024-03-14T10:12:42Z</time></trkpt>
<trkpt lat="45.988566" lon="7.458717"><ele>3644.8</ele><time>2024-03-14T10:12:44Z</time></trkpt>
<trkpt lat="45.988491" lon="7.458707"><ele>3641.0</ele><time>2024-03-14T10:12:46Z</time></trkpt>
<trkpt lat="45.988464" lon="7.458741"><ele>3640.6</ele><time>2024-03-14T10:12:47Z</time></trkpt>
<trkpt lat="45.988450" lon="7.458868"><ele>3637.0</ele><time>2024-03-14T10:12:49Z</time></trkpt>
<trkpt lat="45.988383" lon="7.458849"><ele>3633.2</ele><time>2024-03-14T10:12:51Z</time></trkpt>
<trkpt lat="45.988334" lon="7.458903"><ele>3630.4</ele><time>2024-03-14T10:12:53Z</time></trkpt>
<trkpt lat="45.988297" lon="7.459025"><ele>3628.4</ele><time>2024-03-14T10:12:55Z</time></trkpt>
<trkpt lat="45.988247" lon="7.458978"><ele>3622.6</ele><time>2024-03-14T10:12:59Z</time></trkpt>
<trkpt lat="45.988175" lon="7.459038"><ele>3622.0</ele><time>2024-03-14T10:13:01Z</time></trkpt>
<trkpt lat="45.988184" lon="7.459212"><ele>3618.0</ele><time>2024-03-14T10:13:04Z</time></trkpt>
<trkpt lat="45.988222" lon="7.459323"><ele>3617.2</ele><time>2024-03-14T10:13:06Z</time></trkpt>
<trkpt lat="45.988198" lon="7.459324"><ele>3615.2</ele><time>2024-03-14T10:13:08Z</time></trkpt>
<trkpt lat="45.988212" lon="7.459320"><ele>3611.4</ele><time>2024-03-14T10:13:37Z</time></trkpt>
<trkpt lat="45.988084" lon="7.459321"><ele>3610.6</ele><time>2024-03-14T10:13:49Z</time></trkpt>
<trkpt lat="45.988061" lon="7.459377"><ele>3610.2</ele><time>2024-03-14T10:13:50Z</time></trkpt>
<trkpt lat="45.988074" lon="7.459461"><ele>3608.6</ele><time>2024-03-14T10:13:51Z</time></trkpt>
<trkpt lat="45.988127" lon="7.459579"><ele>3604.8</ele><time>2024-03-14T10:13:53Z</time></trkpt>
<trkpt lat="45.988253" lon="7.459827"><ele>3603.8</ele><time>2024-03-14T10:13:59Z</time></trkpt>
<trkpt lat="45.988374" lon="7.460201"><ele>3599.6</ele><time>2024-03-14T10:14:06Z</time></trkpt>
<trkpt lat="45.988166" lon="7.460409"><ele>3591.0</ele><time>2024-03-14T10:14:12Z</time></trkpt>
<trkpt lat="45.988012" lon="7.460664"><ele>3584.0</ele><time>2024-03-14T10:14:16Z</time></trkpt>
<trkpt lat="45.987966" lon="7.460834"><ele>3579.6</ele><time>2024-03-14T10:14:18Z</time></trkpt>
<trkpt lat="45.987771" lon="7.460920"><ele>3572.4</ele><time>2024-03-14T10:14:21Z</time></trkpt>
<trkpt lat="45.987696" lon="7.461201"><ele>3569.2</ele><time>2024-03-14T10:14:24Z</time></trkpt>
<trkpt lat="45.987654" lon="7.461270"><ele>3566.8</ele><time>2024-03-14T10:14:25Z</time></trkpt>
<trkpt lat="45.987480" lon="7.461333"><ele>3559.4</ele><time>2024-03-14T10:14:28Z</time></trkpt>
<trkpt lat="45.987235" lon="7.461596"><ele>3554.8</ele><time>2024-03-14T10:14:32Z</time></trkpt>
<trkpt lat="45.986977" lon="7.461754"><ele>3549.2</ele><time>2024-03-14T10:14:36Z</time></trkpt>
<trkpt lat="45.986927" lon="7.461763"><ele>3547.6</ele><time>2024-03-14T10:14:37Z</time></trkpt>
<trkpt lat="45.986827" lon="7.461696"><ele>3545.0</ele><time>2024-03-14T10:14:40Z</time></trkpt>
<trkpt lat="45.986571" lon="7.461805"><ele>3540.0</ele><time>2024-03-14T10:14:46Z</time></trkpt>
<trkpt lat="45.986470" lon="7.461885"><ele>3537.6</ele><time>2024-03-14T10:14:48Z</time></trkpt>
<trkpt lat="45.986440" lon="7.461986"><ele>3536.6</ele><time>2024-03-14T10:14:49Z</time></trkpt>
<trkpt lat="45.986524" lon="7.462188"><ele>3531.0</ele><time>2024-03-14T10:14:52Z</time></trkpt>
<trkpt lat="45.986526" lon="7.462186"><ele>3525.4</ele><time>2024-03-14T10:15:23Z</time></trkpt>
<trkpt lat="45.986485" lon="7.462237"><ele>3525.2</ele><time>2024-03-14T10:15:30Z</time></trkpt>
<trkpt lat="45.986496" lon="7.462347"><ele>3524.2</ele><time>2024-03-14T10:15:32Z</time></trkpt>
<trkpt lat="45.986715" lon="7.462832"><ele>3518.6</ele><time>2024-03-14T10:15:39Z</time></trkpt>
<trkpt lat="45.987055" lon="7.463403"><ele>3508.6</ele><time>2024-03-14T10:15:47Z</time></trkpt>
<trkpt lat="45.987148" lon="7.463516"><ele>3507.6</ele><time>2024-03-14T10:15:49Z</time></trkpt>
<trkpt lat="45.987228" lon="7.463570"><ele>3505.0</ele><time>2024-03-14T10:15:52Z</time></trkpt>
<trkpt lat="45.987228" lon="7.463566"><ele>3502.8</ele><time>2024-03-14T10:16:02Z</time></trkpt>
<trkpt lat="45.987458" lon="7.463897"><ele>3498.4</ele><time>2024-03-14T10:16:12Z</time></trkpt>
<trkpt lat="45.987415" lon="7.463972"><ele>3497.2</ele><time>2024-03-14T10:16:14Z</time></trkpt>
<trkpt lat="45.987422" lon="7.464086"><ele>3494.6</ele><time>2024-03-14T10:16:16Z</time></trkpt>
<trkpt lat="45.987368" lon="7.464168"><ele>3491.2</ele><time>2024-03-14T10:16:18Z</time></trkpt>
<trkpt lat="45.987372" lon="7.464277"><ele>3486.8</ele><time>2024-03-14T10:16:20Z</time></trkpt>
<trkpt lat="45.987304" lon="7.464419"><ele>3482.8</ele><time>2024-03-14T10:16:23Z</time></trkpt>
<trkpt lat="45.987379" lon="7.464485"><ele>3477.8</ele><time>2024-03-14T10:16:26Z</time></trkpt>
<trkpt lat="45.987352" lon="7.464662"><ele>3473.8</ele><time>2024-03-14T10:16:30Z</time></trkpt>
<trkpt lat="45.987503" lon="7.464837"><ele>3467.2</ele><time>2024-03-14T10:16:34Z</time></trkpt>
<trkpt lat="45.987424" lon="7.464894"><ele>3464.0</ele><time>2024-03-14T10:16:37Z</time></trkpt>
<trkpt lat="45.987401" lon="7.464982"><ele>3462.8</ele><time>2024-03-14T10:16:39Z</time></trkpt>
<trkpt lat="45.987613" lon="7.465190"><ele>3457.4</ele><time>2024-03-14T10:16:43Z</time></trkpt>
<trkpt lat="45.987756" lon="7.465259"><ele>3455.0</ele><time>2024-03-14T10:16:46Z</time></trkpt>
<trkpt lat="45.987674" lon="7.465344"><ele>3452.2</ele><time>2024-03-14T10:16:49Z</time></trkpt>
<trkpt lat="45.987656" lon="7.465393"><ele>3449.2</ele><time>2024-03-14T10:16:50Z</time></trkpt>
<trkpt lat="45.987755" lon="7.465529"><ele>3446.8</ele><time>2024-03-14T10:16:53Z</time></trkpt>
<trkpt lat="45.987856" lon="7.465535"><ele>3444.0</ele><time>2024-03-14T10:16:55Z</time></trkpt>
<trkpt lat="45.987897" lon="7.465585"><ele>3443.6</ele><time>2024-03-14T10:16:56Z</time></trkpt>
<trkpt lat="45.987917" lon="7.465786"><ele>3442.2</ele><time>2024-03-14T10:16:59Z</time></trkpt>
<trkpt lat="45.988030" lon="7.466030"><ele>3433.4</ele><time>2024-03-14T10:17:02Z</time></trkpt>
<trkpt lat="45.988046" lon="7.466258"><ele>3430.4</ele><time>2024-03-14T10:17:04Z</time></trkpt>
<trkpt lat="45.988155" lon="7.466599"><ele>3421.8</ele><time>2024-03-14T10:17:08Z</time></trkpt>
<trkpt lat="45.988079" lon="7.466599"><ele>3414.0</ele><time>2024-03-14T10:17:15Z</time></trkpt>
<trkpt lat="45.987946" lon="7.466927"><ele>3411.0</ele><time>2024-03-14T10:17:24Z</time></trkpt>
<trkpt lat="45.987847" lon="7.466952"><ele>3408.6</ele><time>2024-03-14T10:17:27Z</time></trkpt>
<trkpt lat="45.987804" lon="7.467083"><ele>3407.2</ele><time>2024-03-14T10:17:29Z</time></trkpt>
<trkpt lat="45.987702" lon="7.467059"><ele>3401.8</ele><time>2024-03-14T10:17:33Z</time></trkpt>
<trkpt lat="45.987732" lon="7.467048"><ele>3394.4</ele><time>2024-03-14T10:18:51Z</time></trkpt>
<trkpt lat="45.987684" lon="7.467270"><ele>3393.8</ele><time>2024-03-14T10:19:01Z</time></trkpt>
<trkpt lat="45.987593" lon="7.467308"><ele>3389.2</ele><time>2024-03-14T10:19:04Z</time></trkpt>
<trkpt lat="45.987571" lon="7.467358"><ele>3388.4</ele><time>2024-03-14T10:19:05Z</time></trkpt>
<trkpt lat="45.987562" lon="7.467438"><ele>3387.8</ele><time>2024-03-14T10:19:06Z</time></trkpt>
<trkpt lat="45.987641" lon="7.467811"><ele>3380.0</ele><time>2024-03-14T10:19:13Z</time></trkpt>
<trkpt lat="45.987731" lon="7.468110"><ele>3374.2</ele><time>2024-03-14T10:19:18Z</time></trkpt>
<trkpt lat="45.987812" lon="7.468233"><ele>3370.4</ele><time>2024-03-14T10:19:23Z</time></trkpt>
<trkpt lat="45.987825" lon="7.468261"><ele>3365.6</ele><time>2024-03-14T10:20:02Z</time></trkpt>
<trkpt lat="45.987863" lon="7.468503"><ele>3361.0</ele><time>2024-03-14T10:20:13Z</time></trkpt>
<trkpt lat="45.987830" lon="7.468517"><ele>3357.2</ele><time>2024-03-14T10:20:25Z</time></trkpt>
<trkpt lat="45.987615" lon="7.468377"><ele>3352.4</ele><time>2024-03-14T10:20:52Z</time></trkpt>
<trkpt lat="45.987203" lon="7.468024"><ele>3342.6</ele><time>2024-03-14T10:21:04Z</time></trkpt>
<trkpt lat="45.987060" lon="7.468116"><ele>3336.0</ele><time>2024-03-14T10:21:09Z</time></trkpt>
<trkpt lat="45.987073" lon="7.468306"><ele>3328.4</ele><time>2024-03-14T10:21:12Z</time></trkpt>
<trkpt lat="45.986955" lon="7.468316"><ele>3323.0</ele><time>2024-03-14T10:21:15Z</time></trkpt>
<trkpt lat="45.986938" lon="7.468371"><ele>3321.0</ele><time>2024-03-14T10:21:16Z</time></trkpt>
<trkpt lat="45.986965" lon="7.468641"><ele>3312.4</ele><time>2024-03-14T10:21:19Z</time></trkpt>
<trkpt lat="45.986875" lon="7.468606"><ele>3309.4</ele><time>2024-03-14T10:21:21Z</time></trkpt>
<trkpt lat="45.986767" lon="7.468697"><ele>3307.4</ele><time>2024-03-14T10:21:23Z</time></trkpt>
<trkpt lat="45.986776" lon="7.468883"><ele>3301.4</ele><time>2024-03-14T10:21:25Z</time></trkpt>
<trkpt lat="45.986748" lon="7.468876"><ele>3298.2</ele><time>2024-03-14T10:21:26Z</time></trkpt>
<trkpt lat="45.986693" lon="7.468908"><ele>3297.2</ele><time>2024-03-14T10:21:27Z</time></trkpt>
<trkpt lat="45.986609" lon="7.469137"><ele>3292.8</ele><time>2024-03-14T10:21:29Z</time></trkpt>
<trkpt lat="45.986571" lon="7.469426"><ele>3285.6</ele><time>2024-03-14T10:21:31Z</time></trkpt>
<trkpt lat="45.986500" lon="7.469815"><ele>3280.4</ele><time>2024-03-14T10:21:35Z</time></trkpt>
<trkpt lat="45.986476" lon="7.469852"><ele>3280.0</ele><time>2024-03-14T10:21:36Z</time></trkpt>
<trkpt lat="45.986459" lon="7.469782"><ele>3273.6</ele><time>2024-03-14T10:22:00Z</time></trkpt>
<trkpt lat="45.986469" lon="7.469794"><ele>3270.6</ele><time>2024-03-14T10:23:01Z</time></trkpt>
<trkpt lat="45.986406" lon="7.469710"><ele>3270.2</ele><time>2024-03-14T10:23:14Z</time></trkpt>
<trkpt lat="45.986380" lon="7.469726"><ele>3270.0</ele><time>2024-03-14T10:23:15Z</time></trkpt>
<trkpt lat="45.986323" lon="7.469821"><ele>3268.2</ele><time>2024-03-14T10:23:17Z</time></trkpt>
<trkpt lat="45.986288" lon="7.470010"><ele>3266.4</ele><time>2024-03-14T10:23:20Z</time></trkpt>
<trkpt lat="45.986230" lon="7.470005"><ele>3264.4</ele><time>2024-03-14T10:23:22Z</time></trkpt>
<trkpt lat="45.986147" lon="7.470162"><ele>3262.4</ele><time>2024-03-14T10:23:24Z</time></trkpt>
<trkpt lat="45.986190" lon="7.470381"><ele>3254.6</ele><time>2024-03-14T10:24:22Z</time></trkpt>
<trkpt lat="45.986063" lon="7.470478"><ele>3253.2</ele><time>2024-03-14T10:24:57Z</time></trkpt>
<trkpt lat="45.986073" lon="7.470530"><ele>3252.2</ele><time>2024-03-14T10:24:58Z</time></trkpt>
<trkpt lat="45.986125" lon="7.470572"><ele>3249.8</ele><time>2024-03-14T10:25:00Z</time></trkpt>
<trkpt lat="45.986150" lon="7.470552"><ele>3245.4</ele><time>2024-03-14T10:26:15Z</time></trkpt>
<trkpt lat="45.986172" lon="7.470616"><ele>3244.6</ele><time>2024-03-14T10:26:32Z</time></trkpt>
<trkpt lat="45.986232" lon="7.470656"><ele>3240.6</ele><time>2024-03-14T10:27:43Z</time></trkpt>
<trkpt lat="45.986911" lon="7.470969"><ele>3229.6</ele><time>2024-03-14T10:28:17Z</time></trkpt>
<trkpt lat="45.987520" lon="7.471107"><ele>3212.2</ele><time>2024-03-14T10:28:29Z</time></trkpt>
<trkpt lat="45.987838" lon="7.471243"><ele>3205.4</ele><time>2024-03-14T10:28:33Z</time></trkpt>
<trkpt lat="45.988286" lon="7.471587"><ele>3196.4</ele><time>2024-03-14T10:28:39Z</time></trkpt>
<trkpt lat="45.988748" lon="7.472015"><ele>3188.6</ele><time>2024-03-14T10:28:45Z</time></trkpt>
<trkpt lat="45.989128" lon="7.472310"><ele>3185.8</ele><time>2024-03-14T10:28:50Z</time></trkpt>
<trkpt lat="45.989420" lon="7.472496"><ele>3179.6</ele><time>2024-03-14T10:29:13Z</time></trkpt>
<trkpt lat="45.989484" lon="7.472636"><ele>3177.2</ele><time>2024-03-14T10:30:16Z</time></trkpt>
<trkpt lat="45.989629" lon="7.472773"><ele>3177.2</ele><time>2024-03-14T10:30:56Z</time></trkpt>
<trkpt lat="45.989750" lon="7.473257"><ele>3171.4</ele><time>2024-03-14T10:31:04Z</time></trkpt>
<trkpt lat="45.989895" lon="7.474045"><ele>3170.2</ele><time>2024-03-14T10:31:14Z</time></trkpt>
<trkpt lat="45.989875" lon="7.474786"><ele>3166.2</ele><time>2024-03-14T10:32:16Z</time></trkpt>
<trkpt lat="45.989826" lon="7.475064"><ele>3164.8</ele><time>2024-03-14T10:32:50Z</time></trkpt>
<trkpt lat="45.989801" lon="7.475289"><ele>3167.2</ele><time>2024-03-14T10:33:48Z</time></trkpt>
<trkpt lat="45.989792" lon="7.475425"><ele>3165.0</ele><time>2024-03-14T10:34:15Z</time></trkpt>
<trkpt lat="45.989746" lon="7.475570"><ele>3168.0</ele><time>2024-03-14T10:34:45Z</time></trkpt>
<trkpt lat="45.989760" lon="7.475597"><ele>3167.8</ele><time>2024-03-14T10:35:09Z</time></trkpt>
<trkpt lat="45.989736" lon="7.475609"><ele>3168.0</ele><time>2024-03-14T10:35:15Z</time></trkpt>
</trkseg></trk>
</gpx>
