<?xml version="1.0" encoding="UTF-8"?>
<gpx version="1.1" creator="Eric Sichak trip reports" xmlns="http://www.topografix.com/GPX/1/1">
<metadata><name>Tumalo Falls: North Fork to Bridge Creek Loop</name><time>2026-09-07T16:19:48Z</time></metadata>
<trk><name>Tumalo Falls: North Fork to Bridge Creek Loop</name><type>hike</type><trkseg>
<trkpt lat="44.032289" lon="-121.566429"><ele>1520.4</ele><time>2026-09-07T16:19:48Z</time></trkpt>
<trkpt lat="44.032128" lon="-121.566442"><ele>1519.0</ele><time>2026-09-07T16:20:02Z</time></trkpt>
<trkpt lat="44.032046" lon="-121.566525"><ele>1519.8</ele><time>2026-09-07T16:20:09Z</time></trkpt>
<trkpt lat="44.032012" lon="-121.566635"><ele>1520.6</ele><time>2026-09-07T16:20:16Z</time></trkpt>
<trkpt lat="44.032072" lon="-121.566754"><ele>1522.6</ele><time>2026-09-07T16:20:27Z</time></trkpt>
<trkpt lat="44.032346" lon="-121.566854"><ele>1526.0</ele><time>2026-09-07T16:20:55Z</time></trkpt>
<trkpt lat="44.032510" lon="-121.566859"><ele>1527.6</ele><time>2026-09-07T16:21:10Z</time></trkpt>
<trkpt lat="44.032500" lon="-121.566949"><ele>1528.2</ele><time>2026-09-07T16:21:17Z</time></trkpt>
<trkpt lat="44.032301" lon="-121.567199"><ele>1532.2</ele><time>2026-09-07T16:21:44Z</time></trkpt>
<trkpt lat="44.032244" lon="-121.567321"><ele>1534.2</ele><time>2026-09-07T16:21:57Z</time></trkpt>
<trkpt lat="44.032274" lon="-121.567478"><ele>1536.4</ele><time>2026-09-07T16:22:10Z</time></trkpt>
<trkpt lat="44.032352" lon="-121.567576"><ele>1538.6</ele><time>2026-09-07T16:22:22Z</time></trkpt>
<trkpt lat="44.032576" lon="-121.567587"><ele>1542.4</ele><time>2026-09-07T16:22:47Z</time></trkpt>
<trkpt lat="44.033038" lon="-121.567269"><ele>1550.4</ele><time>2026-09-07T16:23:42Z</time></trkpt>
<trkpt lat="44.033274" lon="-121.567187"><ele>1552.8</ele><time>2026-09-07T16:24:06Z</time></trkpt>
<trkpt lat="44.033416" lon="-121.567075"><ele>1555.2</ele><time>2026-09-07T16:24:22Z</time></trkpt>
<trkpt lat="44.033575" lon="-121.567104"><ele>1555.8</ele><time>2026-09-07T16:24:39Z</time></trkpt>
<trkpt lat="44.033592" lon="-121.567061"><ele>1555.4</ele><time>2026-09-07T16:25:15Z</time></trkpt>
<trkpt lat="44.033556" lon="-121.567093"><ele>1553.6</ele><time>2026-09-07T16:26:02Z</time></trkpt>
<trkpt lat="44.033697" lon="-121.567143"><ele>1553.2</ele><time>2026-09-07T16:26:55Z</time></trkpt>
<trkpt lat="44.033874" lon="-121.567097"><ele>1552.4</ele><time>2026-09-07T16:27:16Z</time></trkpt>
<trkpt lat="44.033926" lon="-121.567027"><ele>1552.0</ele><time>2026-09-07T16:27:23Z</time></trkpt>
<trkpt lat="44.033933" lon="-121.566899"><ele>1551.4</ele><time>2026-09-07T16:28:04Z</time></trkpt>
<trkpt lat="44.033948" lon="-121.566965"><ele>1551.0</ele><time>2026-09-07T16:28:23Z</time></trkpt>
<trkpt lat="44.034121" lon="-121.567045"><ele>1552.6</ele><time>2026-09-07T16:28:56Z</time></trkpt>
<trkpt lat="44.034039" lon="-121.567396"><ele>1554.8</ele><time>2026-09-07T16:29:45Z</time></trkpt>
<trkpt lat="44.034060" lon="-121.567480"><ele>1555.6</ele><time>2026-09-07T16:29:54Z</time></trkpt>
<trkpt lat="44.034141" lon="-121.567566"><ele>1556.6</ele><time>2026-09-07T16:30:06Z</time></trkpt>
<trkpt lat="44.034285" lon="-121.567599"><ele>1556.6</ele><time>2026-09-07T16:30:21Z</time></trkpt>
<trkpt lat="44.034635" lon="-121.567898"><ele>1555.4</ele><time>2026-09-07T16:31:02Z</time></trkpt>
<trkpt lat="44.034888" lon="-121.568061"><ele>1557.0</ele><time>2026-09-07T16:31:30Z</time></trkpt>
<trkpt lat="44.034956" lon="-121.568243"><ele>1558.8</ele><time>2026-09-07T16:31:45Z</time></trkpt>
<trkpt lat="44.035039" lon="-121.568323"><ele>1559.4</ele><time>2026-09-07T16:31:55Z</time></trkpt>
<trkpt lat="44.035195" lon="-121.568374"><ele>1560.4</ele><time>2026-09-07T16:32:09Z</time></trkpt>
<trkpt lat="44.035350" lon="-121.568558"><ele>1564.0</ele><time>2026-09-07T16:32:32Z</time></trkpt>
<trkpt lat="44.035988" lon="-121.568889"><ele>1566.2</ele><time>2026-09-07T16:33:36Z</time></trkpt>
<trkpt lat="44.036251" lon="-121.569065"><ele>1564.8</ele><time>2026-09-07T16:34:02Z</time></trkpt>
<trkpt lat="44.036388" lon="-121.569242"><ele>1566.0</ele><time>2026-09-07T16:34:20Z</time></trkpt>
<trkpt lat="44.036810" lon="-121.569475"><ele>1565.6</ele><time>2026-09-07T16:35:01Z</time></trkpt>
<trkpt lat="44.037002" lon="-121.569823"><ele>1568.2</ele><time>2026-09-07T16:35:31Z</time></trkpt>
<trkpt lat="44.037140" lon="-121.569943"><ele>1570.2</ele><time>2026-09-07T16:35:47Z</time></trkpt>
<trkpt lat="44.037207" lon="-121.569961"><ele>1571.2</ele><time>2026-09-07T16:35:54Z</time></trkpt>
<trkpt lat="44.037292" lon="-121.570074"><ele>1571.2</ele><time>2026-09-07T16:36:07Z</time></trkpt>
<trkpt lat="44.037510" lon="-121.570483"><ele>1572.0</ele><time>2026-09-07T16:36:40Z</time></trkpt>
<trkpt lat="44.037577" lon="-121.570769"><ele>1574.4</ele><time>2026-09-07T16:37:01Z</time></trkpt>
<trkpt lat="44.037743" lon="-121.571205"><ele>1579.0</ele><time>2026-09-07T16:37:40Z</time></trkpt>
<trkpt lat="44.037982" lon="-121.571594"><ele>1584.2</ele><time>2026-09-07T16:38:21Z</time></trkpt>
<trkpt lat="44.038009" lon="-121.571717"><ele>1586.2</ele><time>2026-09-07T16:38:36Z</time></trkpt>
<trkpt lat="44.038134" lon="-121.571938"><ele>1586.6</ele><time>2026-09-07T16:38:54Z</time></trkpt>
<trkpt lat="44.038270" lon="-121.572474"><ele>1587.2</ele><time>2026-09-07T16:39:29Z</time></trkpt>
<trkpt lat="44.038379" lon="-121.572605"><ele>1586.8</ele><time>2026-09-07T16:39:43Z</time></trkpt>
<trkpt lat="44.038510" lon="-121.572951"><ele>1588.0</ele><time>2026-09-07T16:40:09Z</time></trkpt>
<trkpt lat="44.038596" lon="-121.573209"><ele>1592.0</ele><time>2026-09-07T16:40:31Z</time></trkpt>
<trkpt lat="44.038647" lon="-121.573495"><ele>1593.6</ele><time>2026-09-07T16:40:49Z</time></trkpt>
<trkpt lat="44.038951" lon="-121.574029"><ele>1596.2</ele><time>2026-09-07T16:41:34Z</time></trkpt>
<trkpt lat="44.039014" lon="-121.574468"><ele>1599.4</ele><time>2026-09-07T16:42:05Z</time></trkpt>
<trkpt lat="44.039089" lon="-121.574633"><ele>1602.0</ele><time>2026-09-07T16:42:19Z</time></trkpt>
<trkpt lat="44.039282" lon="-121.574933"><ele>1602.6</ele><time>2026-09-07T16:42:44Z</time></trkpt>
<trkpt lat="44.039474" lon="-121.575309"><ele>1605.0</ele><time>2026-09-07T16:43:14Z</time></trkpt>
<trkpt lat="44.039698" lon="-121.575612"><ele>1605.6</ele><time>2026-09-07T16:43:41Z</time></trkpt>
<trkpt lat="44.039798" lon="-121.575912"><ele>1608.2</ele><time>2026-09-07T16:44:04Z</time></trkpt>
<trkpt lat="44.039942" lon="-121.576220"><ele>1612.8</ele><time>2026-09-07T16:44:32Z</time></trkpt>
<trkpt lat="44.040138" lon="-121.576454"><ele>1615.2</ele><time>2026-09-07T16:44:58Z</time></trkpt>
<trkpt lat="44.040309" lon="-121.576437"><ele>1617.0</ele><time>2026-09-07T16:45:15Z</time></trkpt>
<trkpt lat="44.040403" lon="-121.576506"><ele>1618.8</ele><time>2026-09-07T16:45:27Z</time></trkpt>
<trkpt lat="44.040600" lon="-121.576713"><ele>1620.0</ele><time>2026-09-07T16:45:50Z</time></trkpt>
<trkpt lat="44.040582" lon="-121.576925"><ele>1621.8</ele><time>2026-09-07T16:46:19Z</time></trkpt>
<trkpt lat="44.040638" lon="-121.577030"><ele>1623.6</ele><time>2026-09-07T16:46:29Z</time></trkpt>
<trkpt lat="44.040975" lon="-121.577324"><ele>1628.6</ele><time>2026-09-07T16:47:13Z</time></trkpt>
<trkpt lat="44.040988" lon="-121.577382"><ele>1628.6</ele><time>2026-09-07T16:47:20Z</time></trkpt>
<trkpt lat="44.041022" lon="-121.577376"><ele>1628.6</ele><time>2026-09-07T16:47:28Z</time></trkpt>
<trkpt lat="44.041016" lon="-121.577340"><ele>1627.8</ele><time>2026-09-07T16:47:34Z</time></trkpt>
<trkpt lat="44.040984" lon="-121.577306"><ele>1627.2</ele><time>2026-09-07T16:47:39Z</time></trkpt>
<trkpt lat="44.040935" lon="-121.577330"><ele>1627.0</ele><time>2026-09-07T16:47:46Z</time></trkpt>
<trkpt lat="44.040942" lon="-121.577465"><ele>1627.8</ele><time>2026-09-07T16:47:54Z</time></trkpt>
<trkpt lat="44.041045" lon="-121.577766"><ele>1631.0</ele><time>2026-09-07T16:48:15Z</time></trkpt>
<trkpt lat="44.041174" lon="-121.577927"><ele>1632.6</ele><time>2026-09-07T16:48:31Z</time></trkpt>
<trkpt lat="44.041280" lon="-121.577966"><ele>1632.0</ele><time>2026-09-07T16:48:40Z</time></trkpt>
<trkpt lat="44.041338" lon="-121.577910"><ele>1631.0</ele><time>2026-09-07T16:48:47Z</time></trkpt>
<trkpt lat="44.041313" lon="-121.577887"><ele>1628.4</ele><time>2026-09-07T16:49:30Z</time></trkpt>
<trkpt lat="44.041264" lon="-121.577893"><ele>1628.2</ele><time>2026-09-07T16:49:59Z</time></trkpt>
<trkpt lat="44.041284" lon="-121.577916"><ele>1628.2</ele><time>2026-09-07T16:50:20Z</time></trkpt>
<trkpt lat="44.041262" lon="-121.578062"><ele>1628.8</ele><time>2026-09-07T16:50:34Z</time></trkpt>
<trkpt lat="44.041187" lon="-121.578176"><ele>1630.2</ele><time>2026-09-07T16:50:47Z</time></trkpt>
<trkpt lat="44.041206" lon="-121.578324"><ele>1630.6</ele><time>2026-09-07T16:50:55Z</time></trkpt>
<trkpt lat="44.041367" lon="-121.578548"><ele>1631.8</ele><time>2026-09-07T16:51:15Z</time></trkpt>
<trkpt lat="44.041662" lon="-121.578789"><ele>1633.4</ele><time>2026-09-07T16:51:57Z</time></trkpt>
<trkpt lat="44.041827" lon="-121.579029"><ele>1635.4</ele><time>2026-09-07T16:52:19Z</time></trkpt>
<trkpt lat="44.041952" lon="-121.579066"><ele>1634.0</ele><time>2026-09-07T16:53:14Z</time></trkpt>
<trkpt lat="44.041900" lon="-121.579114"><ele>1633.6</ele><time>2026-09-07T16:53:37Z</time></trkpt>
<trkpt lat="44.041947" lon="-121.579395"><ele>1635.8</ele><time>2026-09-07T16:53:59Z</time></trkpt>
<trkpt lat="44.041990" lon="-121.579486"><ele>1636.4</ele><time>2026-09-07T16:54:08Z</time></trkpt>
<trkpt lat="44.042091" lon="-121.579586"><ele>1636.6</ele><time>2026-09-07T16:54:20Z</time></trkpt>
<trkpt lat="44.042261" lon="-121.579638"><ele>1637.4</ele><time>2026-09-07T16:54:35Z</time></trkpt>
<trkpt lat="44.042458" lon="-121.579894"><ele>1638.0</ele><time>2026-09-07T16:55:00Z</time></trkpt>
<trkpt lat="44.042576" lon="-121.579918"><ele>1637.4</ele><time>2026-09-07T16:55:11Z</time></trkpt>
<trkpt lat="44.042709" lon="-121.580049"><ele>1636.4</ele><time>2026-09-07T16:55:26Z</time></trkpt>
<trkpt lat="44.043210" lon="-121.580806"><ele>1638.8</ele><time>2026-09-07T16:56:38Z</time></trkpt>
<trkpt lat="44.043543" lon="-121.580834"><ele>1638.8</ele><time>2026-09-07T16:57:07Z</time></trkpt>
<trkpt lat="44.044099" lon="-121.581078"><ele>1642.2</ele><time>2026-09-07T16:57:58Z</time></trkpt>
<trkpt lat="44.044643" lon="-121.581205"><ele>1645.4</ele><time>2026-09-07T16:58:56Z</time></trkpt>
<trkpt lat="44.044867" lon="-121.581352"><ele>1645.8</ele><time>2026-09-07T16:59:20Z</time></trkpt>
<trkpt lat="44.045055" lon="-121.581615"><ele>1649.0</ele><time>2026-09-07T16:59:52Z</time></trkpt>
<trkpt lat="44.045181" lon="-121.581954"><ele>1653.0</ele><time>2026-09-07T17:00:23Z</time></trkpt>
<trkpt lat="44.045292" lon="-121.582102"><ele>1654.8</ele><time>2026-09-07T17:01:01Z</time></trkpt>
<trkpt lat="44.045500" lon="-121.582247"><ele>1657.2</ele><time>2026-09-07T17:01:24Z</time></trkpt>
<trkpt lat="44.045695" lon="-121.582295"><ele>1659.8</ele><time>2026-09-07T17:01:43Z</time></trkpt>
<trkpt lat="44.045872" lon="-121.582710"><ele>1663.4</ele><time>2026-09-07T17:02:18Z</time></trkpt>
<trkpt lat="44.046017" lon="-121.582881"><ele>1664.8</ele><time>2026-09-07T17:02:35Z</time></trkpt>
<trkpt lat="44.046079" lon="-121.583002"><ele>1667.0</ele><time>2026-09-07T17:02:48Z</time></trkpt>
<trkpt lat="44.046225" lon="-121.583738"><ele>1668.6</ele><time>2026-09-07T17:03:39Z</time></trkpt>
<trkpt lat="44.046375" lon="-121.584233"><ele>1668.8</ele><time>2026-09-07T17:04:14Z</time></trkpt>
<trkpt lat="44.046372" lon="-121.584475"><ele>1670.8</ele><time>2026-09-07T17:04:29Z</time></trkpt>
<trkpt lat="44.046497" lon="-121.584808"><ele>1671.4</ele><time>2026-09-07T17:04:50Z</time></trkpt>
<trkpt lat="44.046535" lon="-121.584999"><ele>1672.4</ele><time>2026-09-07T17:05:04Z</time></trkpt>
<trkpt lat="44.046522" lon="-121.585349"><ele>1675.4</ele><time>2026-09-07T17:05:27Z</time></trkpt>
<trkpt lat="44.046609" lon="-121.585791"><ele>1677.8</ele><time>2026-09-07T17:05:56Z</time></trkpt>
<trkpt lat="44.046594" lon="-121.586102"><ele>1680.0</ele><time>2026-09-07T17:06:16Z</time></trkpt>
<trkpt lat="44.046626" lon="-121.586744"><ele>1682.4</ele><time>2026-09-07T17:06:57Z</time></trkpt>
<trkpt lat="44.046664" lon="-121.586980"><ele>1681.8</ele><time>2026-09-07T17:07:11Z</time></trkpt>
<trkpt lat="44.046643" lon="-121.587272"><ele>1683.8</ele><time>2026-09-07T17:07:32Z</time></trkpt>
<trkpt lat="44.046667" lon="-121.587425"><ele>1683.6</ele><time>2026-09-07T17:07:40Z</time></trkpt>
<trkpt lat="44.046831" lon="-121.587898"><ele>1684.4</ele><time>2026-09-07T17:08:16Z</time></trkpt>
<trkpt lat="44.047023" lon="-121.588149"><ele>1683.8</ele><time>2026-09-07T17:08:39Z</time></trkpt>
<trkpt lat="44.047093" lon="-121.588516"><ele>1683.4</ele><time>2026-09-07T17:09:03Z</time></trkpt>
<trkpt lat="44.047228" lon="-121.588783"><ele>1683.8</ele><time>2026-09-07T17:09:24Z</time></trkpt>
<trkpt lat="44.047472" lon="-121.589096"><ele>1686.2</ele><time>2026-09-07T17:09:53Z</time></trkpt>
<trkpt lat="44.047586" lon="-121.589345"><ele>1687.2</ele><time>2026-09-07T17:10:16Z</time></trkpt>
<trkpt lat="44.047666" lon="-121.589683"><ele>1689.0</ele><time>2026-09-07T17:10:44Z</time></trkpt>
<trkpt lat="44.047651" lon="-121.589912"><ele>1690.4</ele><time>2026-09-07T17:11:01Z</time></trkpt>
<trkpt lat="44.047675" lon="-121.589996"><ele>1690.8</ele><time>2026-09-07T17:11:19Z</time></trkpt>
<trkpt lat="44.047669" lon="-121.589962"><ele>1688.8</ele><time>2026-09-07T17:13:14Z</time></trkpt>
<trkpt lat="44.047683" lon="-121.589978"><ele>1689.4</ele><time>2026-09-07T17:13:29Z</time></trkpt>
<trkpt lat="44.047653" lon="-121.589979"><ele>1689.4</ele><time>2026-09-07T17:13:39Z</time></trkpt>
<trkpt lat="44.047695" lon="-121.590049"><ele>1689.2</ele><time>2026-09-07T17:14:05Z</time></trkpt>
<trkpt lat="44.047661" lon="-121.590495"><ele>1693.8</ele><time>2026-09-07T17:14:37Z</time></trkpt>
<trkpt lat="44.047618" lon="-121.590620"><ele>1694.8</ele><time>2026-09-07T17:14:46Z</time></trkpt>
<trkpt lat="44.047574" lon="-121.591345"><ele>1695.6</ele><time>2026-09-07T17:15:31Z</time></trkpt>
<trkpt lat="44.047643" lon="-121.591660"><ele>1696.0</ele><time>2026-09-07T17:15:51Z</time></trkpt>
<trkpt lat="44.047766" lon="-121.591947"><ele>1696.6</ele><time>2026-09-07T17:16:13Z</time></trkpt>
<trkpt lat="44.047878" lon="-121.592082"><ele>1697.4</ele><time>2026-09-07T17:16:27Z</time></trkpt>
<trkpt lat="44.047990" lon="-121.592106"><ele>1697.4</ele><time>2026-09-07T17:16:40Z</time></trkpt>
<trkpt lat="44.047941" lon="-121.592154"><ele>1696.6</ele><time>2026-09-07T17:16:48Z</time></trkpt>
<trkpt lat="44.048052" lon="-121.592275"><ele>1689.8</ele><time>2026-09-07T17:17:26Z</time></trkpt>
<trkpt lat="44.048060" lon="-121.592311"><ele>1688.6</ele><time>2026-09-07T17:17:38Z</time></trkpt>
<trkpt lat="44.048027" lon="-121.592325"><ele>1687.0</ele><time>2026-09-07T17:17:47Z</time></trkpt>
<trkpt lat="44.048042" lon="-121.592367"><ele>1686.2</ele><time>2026-09-07T17:18:06Z</time></trkpt>
<trkpt lat="44.048037" lon="-121.592301"><ele>1686.4</ele><time>2026-09-07T17:18:42Z</time></trkpt>
<trkpt lat="44.048012" lon="-121.592346"><ele>1686.6</ele><time>2026-09-07T17:19:06Z</time></trkpt>
<trkpt lat="44.047993" lon="-121.592306"><ele>1686.6</ele><time>2026-09-07T17:19:16Z</time></trkpt>
<trkpt lat="44.048043" lon="-121.592492"><ele>1683.4</ele><time>2026-09-07T17:20:05Z</time></trkpt>
<trkpt lat="44.047977" lon="-121.592517"><ele>1683.0</ele><time>2026-09-07T17:20:24Z</time></trkpt>
<trkpt lat="44.047953" lon="-121.592488"><ele>1682.8</ele><time>2026-09-07T17:20:41Z</time></trkpt>
<trkpt lat="44.047935" lon="-121.592544"><ele>1683.2</ele><time>2026-09-07T17:21:05Z</time></trkpt>
<trkpt lat="44.047970" lon="-121.592512"><ele>1684.4</ele><time>2026-09-07T17:21:24Z</time></trkpt>
<trkpt lat="44.047923" lon="-121.592522"><ele>1684.4</ele><time>2026-09-07T17:22:07Z</time></trkpt>
<trkpt lat="44.047960" lon="-121.592565"><ele>1686.6</ele><time>2026-09-07T17:23:29Z</time></trkpt>
<trkpt lat="44.047954" lon="-121.592530"><ele>1685.6</ele><time>2026-09-07T17:23:45Z</time></trkpt>
<trkpt lat="44.047980" lon="-121.592547"><ele>1686.6</ele><time>2026-09-07T17:24:08Z</time></trkpt>
<trkpt lat="44.048020" lon="-121.592483"><ele>1688.6</ele><time>2026-09-07T17:24:54Z</time></trkpt>
<trkpt lat="44.048012" lon="-121.592528"><ele>1689.2</ele><time>2026-09-07T17:25:39Z</time></trkpt>
<trkpt lat="44.048041" lon="-121.592538"><ele>1689.4</ele><time>2026-09-07T17:25:48Z</time></trkpt>
<trkpt lat="44.048009" lon="-121.592480"><ele>1690.4</ele><time>2026-09-07T17:26:16Z</time></trkpt>
<trkpt lat="44.048071" lon="-121.592475"><ele>1690.0</ele><time>2026-09-07T17:26:49Z</time></trkpt>
<trkpt lat="44.048015" lon="-121.592355"><ele>1694.8</ele><time>2026-09-07T17:27:44Z</time></trkpt>
<trkpt lat="44.048069" lon="-121.592321"><ele>1696.8</ele><time>2026-09-07T17:28:11Z</time></trkpt>
<trkpt lat="44.048077" lon="-121.592249"><ele>1699.0</ele><time>2026-09-07T17:28:30Z</time></trkpt>
<trkpt lat="44.047970" lon="-121.592155"><ele>1704.8</ele><time>2026-09-07T17:28:58Z</time></trkpt>
<trkpt lat="44.047927" lon="-121.592071"><ele>1706.8</ele><time>2026-09-07T17:29:13Z</time></trkpt>
<trkpt lat="44.047870" lon="-121.592113"><ele>1706.8</ele><time>2026-09-07T17:29:31Z</time></trkpt>
<trkpt lat="44.047903" lon="-121.592132"><ele>1706.0</ele><time>2026-09-07T17:29:54Z</time></trkpt>
<trkpt lat="44.047861" lon="-121.592133"><ele>1705.8</ele><time>2026-09-07T17:30:05Z</time></trkpt>
<trkpt lat="44.047901" lon="-121.592142"><ele>1705.2</ele><time>2026-09-07T17:30:29Z</time></trkpt>
<trkpt lat="44.047908" lon="-121.592114"><ele>1704.8</ele><time>2026-09-07T17:30:54Z</time></trkpt>
<trkpt lat="44.047713" lon="-121.592166"><ele>1706.4</ele><time>2026-09-07T17:31:14Z</time></trkpt>
<trkpt lat="44.047658" lon="-121.592243"><ele>1707.2</ele><time>2026-09-07T17:31:21Z</time></trkpt>
<trkpt lat="44.047653" lon="-121.592493"><ele>1708.2</ele><time>2026-09-07T17:31:37Z</time></trkpt>
<trkpt lat="44.047582" lon="-121.592591"><ele>1709.2</ele><time>2026-09-07T17:31:45Z</time></trkpt>
<trkpt lat="44.047528" lon="-121.592756"><ele>1710.2</ele><time>2026-09-07T17:31:56Z</time></trkpt>
<trkpt lat="44.047412" lon="-121.592884"><ele>1712.4</ele><time>2026-09-07T17:32:10Z</time></trkpt>
<trkpt lat="44.047329" lon="-121.593230"><ele>1713.4</ele><time>2026-09-07T17:32:32Z</time></trkpt>
<trkpt lat="44.047289" lon="-121.593645"><ele>1714.4</ele><time>2026-09-07T17:32:57Z</time></trkpt>
<trkpt lat="44.047216" lon="-121.593927"><ele>1715.6</ele><time>2026-09-07T17:33:15Z</time></trkpt>
<trkpt lat="44.047111" lon="-121.594172"><ele>1718.0</ele><time>2026-09-07T17:33:34Z</time></trkpt>
<trkpt lat="44.047094" lon="-121.594805"><ele>1717.6</ele><time>2026-09-07T17:34:12Z</time></trkpt>
<trkpt lat="44.047038" lon="-121.595242"><ele>1719.4</ele><time>2026-09-07T17:34:39Z</time></trkpt>
<trkpt lat="44.047057" lon="-121.595369"><ele>1719.4</ele><time>2026-09-07T17:34:46Z</time></trkpt>
<trkpt lat="44.047040" lon="-121.595711"><ele>1720.6</ele><time>2026-09-07T17:35:08Z</time></trkpt>
<trkpt lat="44.047076" lon="-121.595941"><ele>1720.4</ele><time>2026-09-07T17:35:21Z</time></trkpt>
<trkpt lat="44.047035" lon="-121.596213"><ele>1722.0</ele><time>2026-09-07T17:35:39Z</time></trkpt>
<trkpt lat="44.047051" lon="-121.596448"><ele>1722.6</ele><time>2026-09-07T17:35:52Z</time></trkpt>
<trkpt lat="44.047026" lon="-121.596653"><ele>1723.2</ele><time>2026-09-07T17:36:05Z</time></trkpt>
<trkpt lat="44.046959" lon="-121.596743"><ele>1724.8</ele><time>2026-09-07T17:36:14Z</time></trkpt>
<trkpt lat="44.046865" lon="-121.596997"><ele>1726.4</ele><time>2026-09-07T17:36:32Z</time></trkpt>
<trkpt lat="44.046713" lon="-121.597132"><ele>1728.6</ele><time>2026-09-07T17:36:49Z</time></trkpt>
<trkpt lat="44.046624" lon="-121.597269"><ele>1729.8</ele><time>2026-09-07T17:37:02Z</time></trkpt>
<trkpt lat="44.046531" lon="-121.597316"><ele>1730.6</ele><time>2026-09-07T17:37:11Z</time></trkpt>
<trkpt lat="44.046354" lon="-121.597325"><ele>1731.0</ele><time>2026-09-07T17:37:27Z</time></trkpt>
<trkpt lat="44.046155" lon="-121.597290"><ele>1732.0</ele><time>2026-09-07T17:37:44Z</time></trkpt>
<trkpt lat="44.046065" lon="-121.597351"><ele>1731.8</ele><time>2026-09-07T17:37:52Z</time></trkpt>
<trkpt lat="44.045856" lon="-121.597766"><ele>1733.0</ele><time>2026-09-07T17:38:21Z</time></trkpt>
<trkpt lat="44.045771" lon="-121.598009"><ele>1733.4</ele><time>2026-09-07T17:38:37Z</time></trkpt>
<trkpt lat="44.045782" lon="-121.598376"><ele>1732.6</ele><time>2026-09-07T17:39:00Z</time></trkpt>
<trkpt lat="44.045851" lon="-121.598542"><ele>1731.6</ele><time>2026-09-07T17:39:11Z</time></trkpt>
<trkpt lat="44.045973" lon="-121.598722"><ele>1728.2</ele><time>2026-09-07T17:39:30Z</time></trkpt>
<trkpt lat="44.045957" lon="-121.598974"><ele>1723.4</ele><time>2026-09-07T17:40:10Z</time></trkpt>
<trkpt lat="44.045902" lon="-121.599067"><ele>1723.0</ele><time>2026-09-07T17:40:32Z</time></trkpt>
<trkpt lat="44.045966" lon="-121.599133"><ele>1724.2</ele><time>2026-09-07T17:41:00Z</time></trkpt>
<trkpt lat="44.046024" lon="-121.599131"><ele>1723.0</ele><time>2026-09-07T17:41:07Z</time></trkpt>
<trkpt lat="44.046086" lon="-121.599027"><ele>1723.2</ele><time>2026-09-07T17:41:46Z</time></trkpt>
<trkpt lat="44.046095" lon="-121.599060"><ele>1723.4</ele><time>2026-09-07T17:42:01Z</time></trkpt>
<trkpt lat="44.046098" lon="-121.598994"><ele>1722.8</ele><time>2026-09-07T17:42:19Z</time></trkpt>
<trkpt lat="44.046150" lon="-121.599030"><ele>1722.6</ele><time>2026-09-07T17:42:25Z</time></trkpt>
<trkpt lat="44.046212" lon="-121.599125"><ele>1724.0</ele><time>2026-09-07T17:42:33Z</time></trkpt>
<trkpt lat="44.046246" lon="-121.599397"><ele>1726.0</ele><time>2026-09-07T17:42:53Z</time></trkpt>
<trkpt lat="44.046407" lon="-121.599786"><ele>1730.8</ele><time>2026-09-07T17:43:33Z</time></trkpt>
<trkpt lat="44.046332" lon="-121.599899"><ele>1732.6</ele><time>2026-09-07T17:43:50Z</time></trkpt>
<trkpt lat="44.046219" lon="-121.599944"><ele>1733.4</ele><time>2026-09-07T17:44:02Z</time></trkpt>
<trkpt lat="44.045995" lon="-121.600142"><ele>1737.2</ele><time>2026-09-07T17:44:29Z</time></trkpt>
<trkpt lat="44.045902" lon="-121.600102"><ele>1737.2</ele><time>2026-09-07T17:44:43Z</time></trkpt>
<trkpt lat="44.045844" lon="-121.599943"><ele>1735.0</ele><time>2026-09-07T17:45:14Z</time></trkpt>
<trkpt lat="44.045992" lon="-121.600290"><ele>1738.6</ele><time>2026-09-07T17:45:49Z</time></trkpt>
<trkpt lat="44.046086" lon="-121.600320"><ele>1738.6</ele><time>2026-09-07T17:45:58Z</time></trkpt>
<trkpt lat="44.046161" lon="-121.600401"><ele>1739.4</ele><time>2026-09-07T17:46:07Z</time></trkpt>
<trkpt lat="44.046351" lon="-121.600436"><ele>1739.8</ele><time>2026-09-07T17:46:23Z</time></trkpt>
<trkpt lat="44.046450" lon="-121.600539"><ele>1740.8</ele><time>2026-09-07T17:46:35Z</time></trkpt>
<trkpt lat="44.046496" lon="-121.600793"><ele>1743.8</ele><time>2026-09-07T17:46:57Z</time></trkpt>
<trkpt lat="44.046409" lon="-121.600955"><ele>1746.0</ele><time>2026-09-07T17:47:15Z</time></trkpt>
<trkpt lat="44.046317" lon="-121.601006"><ele>1747.2</ele><time>2026-09-07T17:47:25Z</time></trkpt>
<trkpt lat="44.046016" lon="-121.601361"><ele>1750.0</ele><time>2026-09-07T17:48:08Z</time></trkpt>
<trkpt lat="44.045953" lon="-121.601602"><ele>1750.4</ele><time>2026-09-07T17:48:26Z</time></trkpt>
<trkpt lat="44.045990" lon="-121.601753"><ele>1750.0</ele><time>2026-09-07T17:49:02Z</time></trkpt>
<trkpt lat="44.045968" lon="-121.601831"><ele>1751.0</ele><time>2026-09-07T17:49:08Z</time></trkpt>
<trkpt lat="44.045983" lon="-121.602145"><ele>1752.6</ele><time>2026-09-07T17:49:47Z</time></trkpt>
<trkpt lat="44.045932" lon="-121.602238"><ele>1752.8</ele><time>2026-09-07T17:49:55Z</time></trkpt>
<trkpt lat="44.045857" lon="-121.602607"><ele>1755.6</ele><time>2026-09-07T17:50:21Z</time></trkpt>
<trkpt lat="44.045711" lon="-121.602850"><ele>1755.8</ele><time>2026-09-07T17:50:44Z</time></trkpt>
<trkpt lat="44.045474" lon="-121.603064"><ele>1757.8</ele><time>2026-09-07T17:51:08Z</time></trkpt>
<trkpt lat="44.045470" lon="-121.603120"><ele>1758.2</ele><time>2026-09-07T17:51:11Z</time></trkpt>
<trkpt lat="44.045614" lon="-121.603146"><ele>1759.4</ele><time>2026-09-07T17:51:24Z</time></trkpt>
<trkpt lat="44.045677" lon="-121.603204"><ele>1760.0</ele><time>2026-09-07T17:51:31Z</time></trkpt>
<trkpt lat="44.045782" lon="-121.603420"><ele>1762.4</ele><time>2026-09-07T17:51:50Z</time></trkpt>
<trkpt lat="44.045809" lon="-121.603550"><ele>1764.2</ele><time>2026-09-07T17:52:03Z</time></trkpt>
<trkpt lat="44.045500" lon="-121.603684"><ele>1766.8</ele><time>2026-09-07T17:52:34Z</time></trkpt>
<trkpt lat="44.045463" lon="-121.603825"><ele>1768.4</ele><time>2026-09-07T17:52:45Z</time></trkpt>
<trkpt lat="44.045350" lon="-121.604020"><ele>1770.6</ele><time>2026-09-07T17:53:02Z</time></trkpt>
<trkpt lat="44.045329" lon="-121.604201"><ele>1771.0</ele><time>2026-09-07T17:53:19Z</time></trkpt>
<trkpt lat="44.045336" lon="-121.604152"><ele>1770.8</ele><time>2026-09-07T17:53:25Z</time></trkpt>
<trkpt lat="44.045254" lon="-121.604138"><ele>1768.4</ele><time>2026-09-07T17:54:03Z</time></trkpt>
<trkpt lat="44.045318" lon="-121.604142"><ele>1768.6</ele><time>2026-09-07T17:54:10Z</time></trkpt>
<trkpt lat="44.045325" lon="-121.604227"><ele>1769.4</ele><time>2026-09-07T17:54:15Z</time></trkpt>
<trkpt lat="44.045398" lon="-121.604270"><ele>1770.4</ele><time>2026-09-07T17:54:37Z</time></trkpt>
<trkpt lat="44.045307" lon="-121.604282"><ele>1769.8</ele><time>2026-09-07T17:54:57Z</time></trkpt>
<trkpt lat="44.045345" lon="-121.604477"><ele>1771.8</ele><time>2026-09-07T17:55:20Z</time></trkpt>
<trkpt lat="44.045280" lon="-121.604961"><ele>1775.2</ele><time>2026-09-07T17:55:55Z</time></trkpt>
<trkpt lat="44.045321" lon="-121.605525"><ele>1778.8</ele><time>2026-09-07T17:56:34Z</time></trkpt>
<trkpt lat="44.045430" lon="-121.605914"><ele>1782.6</ele><time>2026-09-07T17:57:03Z</time></trkpt>
<trkpt lat="44.045642" lon="-121.606063"><ele>1786.8</ele><time>2026-09-07T17:57:28Z</time></trkpt>
<trkpt lat="44.045695" lon="-121.606320"><ele>1789.0</ele><time>2026-09-07T17:57:46Z</time></trkpt>
<trkpt lat="44.045858" lon="-121.606576"><ele>1792.0</ele><time>2026-09-07T17:58:10Z</time></trkpt>
<trkpt lat="44.045889" lon="-121.606763"><ele>1794.2</ele><time>2026-09-07T17:58:24Z</time></trkpt>
<trkpt lat="44.046012" lon="-121.606932"><ele>1797.6</ele><time>2026-09-07T17:58:45Z</time></trkpt>
<trkpt lat="44.046001" lon="-121.607029"><ele>1798.8</ele><time>2026-09-07T17:58:52Z</time></trkpt>
<trkpt lat="44.045918" lon="-121.607218"><ele>1800.8</ele><time>2026-09-07T17:59:07Z</time></trkpt>
<trkpt lat="44.045737" lon="-121.607438"><ele>1802.4</ele><time>2026-09-07T17:59:29Z</time></trkpt>
<trkpt lat="44.045701" lon="-121.607534"><ele>1802.6</ele><time>2026-09-07T17:59:34Z</time></trkpt>
<trkpt lat="44.045750" lon="-121.607571"><ele>1803.4</ele><time>2026-09-07T17:59:40Z</time></trkpt>
<trkpt lat="44.045974" lon="-121.607490"><ele>1803.2</ele><time>2026-09-07T18:00:22Z</time></trkpt>
<trkpt lat="44.045990" lon="-121.607523"><ele>1804.0</ele><time>2026-09-07T18:00:28Z</time></trkpt>
<trkpt lat="44.045772" lon="-121.607970"><ele>1808.2</ele><time>2026-09-07T18:01:03Z</time></trkpt>
<trkpt lat="44.045759" lon="-121.608223"><ele>1810.4</ele><time>2026-09-07T18:01:20Z</time></trkpt>
<trkpt lat="44.045698" lon="-121.608244"><ele>1808.6</ele><time>2026-09-07T18:01:38Z</time></trkpt>
<trkpt lat="44.045680" lon="-121.608309"><ele>1807.4</ele><time>2026-09-07T18:01:59Z</time></trkpt>
<trkpt lat="44.045702" lon="-121.608313"><ele>1807.0</ele><time>2026-09-07T18:02:04Z</time></trkpt>
<trkpt lat="44.045717" lon="-121.608235"><ele>1807.8</ele><time>2026-09-07T18:02:13Z</time></trkpt>
<trkpt lat="44.045680" lon="-121.608281"><ele>1807.0</ele><time>2026-09-07T18:02:40Z</time></trkpt>
<trkpt lat="44.045701" lon="-121.608245"><ele>1807.2</ele><time>2026-09-07T18:03:14Z</time></trkpt>
<trkpt lat="44.045697" lon="-121.608311"><ele>1807.8</ele><time>2026-09-07T18:03:46Z</time></trkpt>
<trkpt lat="44.045737" lon="-121.608316"><ele>1808.4</ele><time>2026-09-07T18:04:16Z</time></trkpt>
<trkpt lat="44.045770" lon="-121.608248"><ele>1809.2</ele><time>2026-09-07T18:04:23Z</time></trkpt>
<trkpt lat="44.045852" lon="-121.608276"><ele>1811.0</ele><time>2026-09-07T18:04:35Z</time></trkpt>
<trkpt lat="44.046155" lon="-121.608113"><ele>1813.8</ele><time>2026-09-07T18:05:07Z</time></trkpt>
<trkpt lat="44.046325" lon="-121.608132"><ele>1815.2</ele><time>2026-09-07T18:05:24Z</time></trkpt>
<trkpt lat="44.046402" lon="-121.608225"><ele>1816.8</ele><time>2026-09-07T18:05:36Z</time></trkpt>
<trkpt lat="44.046360" lon="-121.608427"><ele>1819.0</ele><time>2026-09-07T18:05:54Z</time></trkpt>
<trkpt lat="44.046295" lon="-121.608574"><ele>1820.2</ele><time>2026-09-07T18:06:07Z</time></trkpt>
<trkpt lat="44.046444" lon="-121.609306"><ele>1824.0</ele><time>2026-09-07T18:07:39Z</time></trkpt>
<trkpt lat="44.046521" lon="-121.609513"><ele>1824.2</ele><time>2026-09-07T18:07:55Z</time></trkpt>
<trkpt lat="44.046457" lon="-121.609599"><ele>1824.6</ele><time>2026-09-07T18:08:03Z</time></trkpt>
<trkpt lat="44.046312" lon="-121.609671"><ele>1825.2</ele><time>2026-09-07T18:08:18Z</time></trkpt>
<trkpt lat="44.046027" lon="-121.609424"><ele>1822.0</ele><time>2026-09-07T18:08:57Z</time></trkpt>
<trkpt lat="44.046108" lon="-121.609528"><ele>1824.0</ele><time>2026-09-07T18:09:13Z</time></trkpt>
<trkpt lat="44.046023" lon="-121.609586"><ele>1827.8</ele><time>2026-09-07T18:09:23Z</time></trkpt>
<trkpt lat="44.045898" lon="-121.609572"><ele>1824.6</ele><time>2026-09-07T18:11:05Z</time></trkpt>
<trkpt lat="44.045999" lon="-121.609646"><ele>1824.4</ele><time>2026-09-07T18:11:58Z</time></trkpt>
<trkpt lat="44.046158" lon="-121.609578"><ele>1822.6</ele><time>2026-09-07T18:12:26Z</time></trkpt>
<trkpt lat="44.046334" lon="-121.609730"><ele>1824.0</ele><time>2026-09-07T18:12:51Z</time></trkpt>
<trkpt lat="44.046324" lon="-121.609843"><ele>1825.8</ele><time>2026-09-07T18:13:02Z</time></trkpt>
<trkpt lat="44.046453" lon="-121.610102"><ele>1829.4</ele><time>2026-09-07T18:13:25Z</time></trkpt>
<trkpt lat="44.046463" lon="-121.610402"><ele>1833.4</ele><time>2026-09-07T18:13:45Z</time></trkpt>
<trkpt lat="44.046536" lon="-121.610604"><ele>1835.6</ele><time>2026-09-07T18:13:59Z</time></trkpt>
<trkpt lat="44.046658" lon="-121.610627"><ele>1837.0</ele><time>2026-09-07T18:14:10Z</time></trkpt>
<trkpt lat="44.046990" lon="-121.610317"><ele>1841.6</ele><time>2026-09-07T18:14:46Z</time></trkpt>
<trkpt lat="44.047213" lon="-121.610294"><ele>1844.4</ele><time>2026-09-07T18:15:09Z</time></trkpt>
<trkpt lat="44.047394" lon="-121.610328"><ele>1846.8</ele><time>2026-09-07T18:15:25Z</time></trkpt>
<trkpt lat="44.047528" lon="-121.610280"><ele>1847.6</ele><time>2026-09-07T18:15:37Z</time></trkpt>
<trkpt lat="44.047642" lon="-121.610316"><ele>1849.0</ele><time>2026-09-07T18:15:49Z</time></trkpt>
<trkpt lat="44.047870" lon="-121.610515"><ele>1853.0</ele><time>2026-09-07T18:16:17Z</time></trkpt>
<trkpt lat="44.048074" lon="-121.610601"><ele>1855.2</ele><time>2026-09-07T18:16:36Z</time></trkpt>
<trkpt lat="44.048219" lon="-121.610744"><ele>1857.4</ele><time>2026-09-07T18:16:53Z</time></trkpt>
<trkpt lat="44.049049" lon="-121.611330"><ele>1856.8</ele><time>2026-09-07T18:18:10Z</time></trkpt>
<trkpt lat="44.049132" lon="-121.611417"><ele>1856.6</ele><time>2026-09-07T18:18:18Z</time></trkpt>
<trkpt lat="44.049371" lon="-121.611820"><ele>1858.4</ele><time>2026-09-07T18:18:51Z</time></trkpt>
<trkpt lat="44.049436" lon="-121.612025"><ele>1859.8</ele><time>2026-09-07T18:19:07Z</time></trkpt>
<trkpt lat="44.049513" lon="-121.612116"><ele>1860.2</ele><time>2026-09-07T18:19:15Z</time></trkpt>
<trkpt lat="44.049575" lon="-121.612280"><ele>1861.4</ele><time>2026-09-07T18:19:39Z</time></trkpt>
<trkpt lat="44.049595" lon="-121.612282"><ele>1859.0</ele><time>2026-09-07T18:20:18Z</time></trkpt>
<trkpt lat="44.049451" lon="-121.612202"><ele>1859.4</ele><time>2026-09-07T18:22:13Z</time></trkpt>
<trkpt lat="44.049473" lon="-121.612193"><ele>1859.4</ele><time>2026-09-07T18:22:24Z</time></trkpt>
<trkpt lat="44.049455" lon="-121.612149"><ele>1859.2</ele><time>2026-09-07T18:22:34Z</time></trkpt>
<trkpt lat="44.049397" lon="-121.612131"><ele>1859.2</ele><time>2026-09-07T18:22:55Z</time></trkpt>
<trkpt lat="44.049231" lon="-121.611964"><ele>1861.0</ele><time>2026-09-07T18:23:19Z</time></trkpt>
<trkpt lat="44.048372" lon="-121.611759"><ele>1870.8</ele><time>2026-09-07T18:24:39Z</time></trkpt>
<trkpt lat="44.048054" lon="-121.611598"><ele>1874.0</ele><time>2026-09-07T18:25:10Z</time></trkpt>
<trkpt lat="44.047281" lon="-121.611382"><ele>1864.2</ele><time>2026-09-07T18:26:22Z</time></trkpt>
<trkpt lat="44.047147" lon="-121.611393"><ele>1862.0</ele><time>2026-09-07T18:26:35Z</time></trkpt>
<trkpt lat="44.047015" lon="-121.611466"><ele>1861.0</ele><time>2026-09-07T18:26:49Z</time></trkpt>
<trkpt lat="44.046904" lon="-121.611420"><ele>1858.6</ele><time>2026-09-07T18:27:00Z</time></trkpt>
<trkpt lat="44.046588" lon="-121.611504"><ele>1856.2</ele><time>2026-09-07T18:27:27Z</time></trkpt>
<trkpt lat="44.046144" lon="-121.611864"><ele>1857.4</ele><time>2026-09-07T18:28:07Z</time></trkpt>
<trkpt lat="44.046036" lon="-121.612212"><ele>1857.2</ele><time>2026-09-07T18:28:29Z</time></trkpt>
<trkpt lat="44.045838" lon="-121.612449"><ele>1853.2</ele><time>2026-09-07T18:28:55Z</time></trkpt>
<trkpt lat="44.045683" lon="-121.612480"><ele>1851.0</ele><time>2026-09-07T18:29:09Z</time></trkpt>
<trkpt lat="44.045561" lon="-121.612432"><ele>1849.4</ele><time>2026-09-07T18:29:23Z</time></trkpt>
<trkpt lat="44.045534" lon="-121.612316"><ele>1848.2</ele><time>2026-09-07T18:29:52Z</time></trkpt>
<trkpt lat="44.045563" lon="-121.612114"><ele>1849.2</ele><time>2026-09-07T18:30:14Z</time></trkpt>
<trkpt lat="44.045530" lon="-121.612153"><ele>1848.8</ele><time>2026-09-07T18:30:18Z</time></trkpt>
<trkpt lat="44.045522" lon="-121.612511"><ele>1847.6</ele><time>2026-09-07T18:30:40Z</time></trkpt>
<trkpt lat="44.045453" lon="-121.612564"><ele>1845.6</ele><time>2026-09-07T18:31:13Z</time></trkpt>
<trkpt lat="44.045487" lon="-121.612689"><ele>1845.4</ele><time>2026-09-07T18:31:35Z</time></trkpt>
<trkpt lat="44.045483" lon="-121.612591"><ele>1844.8</ele><time>2026-09-07T18:31:53Z</time></trkpt>
<trkpt lat="44.045439" lon="-121.612564"><ele>1841.8</ele><time>2026-09-07T18:33:36Z</time></trkpt>
<trkpt lat="44.045444" lon="-121.612603"><ele>1841.8</ele><time>2026-09-07T18:33:44Z</time></trkpt>
<trkpt lat="44.045429" lon="-121.612576"><ele>1842.2</ele><time>2026-09-07T18:33:59Z</time></trkpt>
<trkpt lat="44.045317" lon="-121.612676"><ele>1843.0</ele><time>2026-09-07T18:34:41Z</time></trkpt>
<trkpt lat="44.045354" lon="-121.612653"><ele>1843.6</ele><time>2026-09-07T18:35:01Z</time></trkpt>
<trkpt lat="44.045309" lon="-121.612532"><ele>1844.2</ele><time>2026-09-07T18:35:16Z</time></trkpt>
<trkpt lat="44.045321" lon="-121.612444"><ele>1844.0</ele><time>2026-09-07T18:35:22Z</time></trkpt>
<trkpt lat="44.045265" lon="-121.612329"><ele>1844.0</ele><time>2026-09-07T18:35:30Z</time></trkpt>
<trkpt lat="44.045005" lon="-121.612203"><ele>1847.6</ele><time>2026-09-07T18:35:57Z</time></trkpt>
<trkpt lat="44.044906" lon="-121.611693"><ele>1847.6</ele><time>2026-09-07T18:36:33Z</time></trkpt>
<trkpt lat="44.044921" lon="-121.611341"><ele>1846.8</ele><time>2026-09-07T18:36:57Z</time></trkpt>
<trkpt lat="44.044851" lon="-121.611171"><ele>1846.8</ele><time>2026-09-07T18:37:08Z</time></trkpt>
<trkpt lat="44.044924" lon="-121.610925"><ele>1846.6</ele><time>2026-09-07T18:37:23Z</time></trkpt>
<trkpt lat="44.044860" lon="-121.610638"><ele>1848.0</ele><time>2026-09-07T18:37:39Z</time></trkpt>
<trkpt lat="44.044907" lon="-121.610362"><ele>1849.4</ele><time>2026-09-07T18:37:56Z</time></trkpt>
<trkpt lat="44.044870" lon="-121.609919"><ele>1850.0</ele><time>2026-09-07T18:38:19Z</time></trkpt>
<trkpt lat="44.044807" lon="-121.609757"><ele>1850.2</ele><time>2026-09-07T18:38:28Z</time></trkpt>
<trkpt lat="44.044672" lon="-121.609554"><ele>1850.4</ele><time>2026-09-07T18:39:43Z</time></trkpt>
<trkpt lat="44.044281" lon="-121.609194"><ele>1850.2</ele><time>2026-09-07T18:40:25Z</time></trkpt>
<trkpt lat="44.044058" lon="-121.609109"><ele>1848.6</ele><time>2026-09-07T18:40:41Z</time></trkpt>
<trkpt lat="44.043906" lon="-121.608922"><ele>1849.0</ele><time>2026-09-07T18:40:58Z</time></trkpt>
<trkpt lat="44.043801" lon="-121.608735"><ele>1849.4</ele><time>2026-09-07T18:41:11Z</time></trkpt>
<trkpt lat="44.043699" lon="-121.608041"><ele>1846.6</ele><time>2026-09-07T18:41:52Z</time></trkpt>
<trkpt lat="44.043696" lon="-121.607258"><ele>1838.8</ele><time>2026-09-07T18:42:37Z</time></trkpt>
<trkpt lat="44.043600" lon="-121.607009"><ele>1837.8</ele><time>2026-09-07T18:42:54Z</time></trkpt>
<trkpt lat="44.043551" lon="-121.606699"><ele>1835.6</ele><time>2026-09-07T18:43:24Z</time></trkpt>
<trkpt lat="44.043607" lon="-121.606393"><ele>1832.8</ele><time>2026-09-07T18:43:40Z</time></trkpt>
<trkpt lat="44.043538" lon="-121.606069"><ele>1831.2</ele><time>2026-09-07T18:43:59Z</time></trkpt>
<trkpt lat="44.043531" lon="-121.605871"><ele>1829.8</ele><time>2026-09-07T18:44:11Z</time></trkpt>
<trkpt lat="44.043566" lon="-121.605728"><ele>1828.0</ele><time>2026-09-07T18:44:19Z</time></trkpt>
<trkpt lat="44.043526" lon="-121.605174"><ele>1821.6</ele><time>2026-09-07T18:44:54Z</time></trkpt>
<trkpt lat="44.043592" lon="-121.604789"><ele>1818.0</ele><time>2026-09-07T18:45:19Z</time></trkpt>
<trkpt lat="44.043672" lon="-121.604556"><ele>1816.0</ele><time>2026-09-07T18:45:33Z</time></trkpt>
<trkpt lat="44.043702" lon="-121.604305"><ele>1813.8</ele><time>2026-09-07T18:45:48Z</time></trkpt>
<trkpt lat="44.043774" lon="-121.604073"><ele>1811.2</ele><time>2026-09-07T18:46:07Z</time></trkpt>
<trkpt lat="44.043808" lon="-121.603741"><ele>1808.2</ele><time>2026-09-07T18:46:40Z</time></trkpt>
<trkpt lat="44.043707" lon="-121.602919"><ele>1805.8</ele><time>2026-09-07T18:47:28Z</time></trkpt>
<trkpt lat="44.043739" lon="-121.602441"><ele>1801.2</ele><time>2026-09-07T18:47:57Z</time></trkpt>
<trkpt lat="44.043645" lon="-121.601927"><ele>1798.0</ele><time>2026-09-07T18:48:45Z</time></trkpt>
<trkpt lat="44.043696" lon="-121.601659"><ele>1796.6</ele><time>2026-09-07T18:49:02Z</time></trkpt>
<trkpt lat="44.043765" lon="-121.601538"><ele>1795.0</ele><time>2026-09-07T18:49:11Z</time></trkpt>
<trkpt lat="44.043778" lon="-121.601321"><ele>1792.4</ele><time>2026-09-07T18:49:24Z</time></trkpt>
<trkpt lat="44.043665" lon="-121.600953"><ele>1791.2</ele><time>2026-09-07T18:49:49Z</time></trkpt>
<trkpt lat="44.043500" lon="-121.600681"><ele>1791.2</ele><time>2026-09-07T18:50:10Z</time></trkpt>
<trkpt lat="44.043534" lon="-121.600406"><ele>1789.2</ele><time>2026-09-07T18:50:28Z</time></trkpt>
<trkpt lat="44.043232" lon="-121.599682"><ele>1788.4</ele><time>2026-09-07T18:51:18Z</time></trkpt>
<trkpt lat="44.043175" lon="-121.599453"><ele>1789.4</ele><time>2026-09-07T18:51:33Z</time></trkpt>
<trkpt lat="44.042909" lon="-121.599085"><ele>1787.6</ele><time>2026-09-07T18:52:03Z</time></trkpt>
<trkpt lat="44.042914" lon="-121.598783"><ele>1790.6</ele><time>2026-09-07T18:52:26Z</time></trkpt>
<trkpt lat="44.042754" lon="-121.598448"><ele>1790.6</ele><time>2026-09-07T18:52:49Z</time></trkpt>
<trkpt lat="44.042719" lon="-121.598146"><ele>1788.6</ele><time>2026-09-07T18:53:09Z</time></trkpt>
<trkpt lat="44.042773" lon="-121.597934"><ele>1787.4</ele><time>2026-09-07T18:53:22Z</time></trkpt>
<trkpt lat="44.042574" lon="-121.597127"><ele>1783.8</ele><time>2026-09-07T18:54:12Z</time></trkpt>
<trkpt lat="44.042592" lon="-121.596956"><ele>1785.4</ele><time>2026-09-07T18:54:25Z</time></trkpt>
<trkpt lat="44.042448" lon="-121.596212"><ele>1782.2</ele><time>2026-09-07T18:55:11Z</time></trkpt>
<trkpt lat="44.042302" lon="-121.595808"><ele>1781.4</ele><time>2026-09-07T18:55:40Z</time></trkpt>
<trkpt lat="44.042279" lon="-121.595802"><ele>1778.4</ele><time>2026-09-07T18:56:35Z</time></trkpt>
<trkpt lat="44.042002" lon="-121.594813"><ele>1781.6</ele><time>2026-09-07T18:58:15Z</time></trkpt>
<trkpt lat="44.041841" lon="-121.594565"><ele>1781.6</ele><time>2026-09-07T18:58:34Z</time></trkpt>
<trkpt lat="44.041780" lon="-121.594290"><ele>1780.4</ele><time>2026-09-07T18:58:53Z</time></trkpt>
<trkpt lat="44.041632" lon="-121.594025"><ele>1778.0</ele><time>2026-09-07T18:59:14Z</time></trkpt>
<trkpt lat="44.041579" lon="-121.593822"><ele>1776.2</ele><time>2026-09-07T18:59:26Z</time></trkpt>
<trkpt lat="44.041458" lon="-121.593627"><ele>1775.8</ele><time>2026-09-07T18:59:40Z</time></trkpt>
<trkpt lat="44.040997" lon="-121.593287"><ele>1773.6</ele><time>2026-09-07T19:00:21Z</time></trkpt>
<trkpt lat="44.040923" lon="-121.593129"><ele>1772.0</ele><time>2026-09-07T19:00:31Z</time></trkpt>
<trkpt lat="44.040521" lon="-121.592915"><ele>1767.4</ele><time>2026-09-07T19:01:04Z</time></trkpt>
<trkpt lat="44.040434" lon="-121.592911"><ele>1766.8</ele><time>2026-09-07T19:01:11Z</time></trkpt>
<trkpt lat="44.040343" lon="-121.592961"><ele>1766.6</ele><time>2026-09-07T19:01:19Z</time></trkpt>
<trkpt lat="44.039992" lon="-121.592924"><ele>1762.6</ele><time>2026-09-07T19:01:47Z</time></trkpt>
<trkpt lat="44.039773" lon="-121.592945"><ele>1761.0</ele><time>2026-09-07T19:02:05Z</time></trkpt>
<trkpt lat="44.039465" lon="-121.592868"><ele>1758.8</ele><time>2026-09-07T19:02:29Z</time></trkpt>
<trkpt lat="44.039277" lon="-121.592898"><ele>1758.0</ele><time>2026-09-07T19:02:43Z</time></trkpt>
<trkpt lat="44.039063" lon="-121.593083"><ele>1757.2</ele><time>2026-09-07T19:03:04Z</time></trkpt>
<trkpt lat="44.038872" lon="-121.593151"><ele>1755.0</ele><time>2026-09-07T19:03:20Z</time></trkpt>
<trkpt lat="44.038434" lon="-121.593480"><ele>1750.4</ele><time>2026-09-07T19:04:02Z</time></trkpt>
<trkpt lat="44.038259" lon="-121.593657"><ele>1749.6</ele><time>2026-09-07T19:04:19Z</time></trkpt>
<trkpt lat="44.038050" lon="-121.593780"><ele>1749.2</ele><time>2026-09-07T19:04:38Z</time></trkpt>
<trkpt lat="44.037865" lon="-121.593972"><ele>1745.0</ele><time>2026-09-07T19:04:58Z</time></trkpt>
<trkpt lat="44.037627" lon="-121.594039"><ele>1739.8</ele><time>2026-09-07T19:05:22Z</time></trkpt>
<trkpt lat="44.037438" lon="-121.594050"><ele>1737.8</ele><time>2026-09-07T19:05:37Z</time></trkpt>
<trkpt lat="44.037114" lon="-121.593941"><ele>1734.4</ele><time>2026-09-07T19:06:05Z</time></trkpt>
<trkpt lat="44.037008" lon="-121.593714"><ele>1732.4</ele><time>2026-09-07T19:06:21Z</time></trkpt>
<trkpt lat="44.036635" lon="-121.593259"><ele>1727.4</ele><time>2026-09-07T19:06:59Z</time></trkpt>
<trkpt lat="44.036443" lon="-121.593100"><ele>1726.0</ele><time>2026-09-07T19:07:16Z</time></trkpt>
<trkpt lat="44.036326" lon="-121.592890"><ele>1725.0</ele><time>2026-09-07T19:07:31Z</time></trkpt>
<trkpt lat="44.036207" lon="-121.592862"><ele>1723.2</ele><time>2026-09-07T19:07:41Z</time></trkpt>
<trkpt lat="44.036042" lon="-121.592899"><ele>1723.6</ele><time>2026-09-07T19:08:10Z</time></trkpt>
<trkpt lat="44.035850" lon="-121.592723"><ele>1723.0</ele><time>2026-09-07T19:08:30Z</time></trkpt>
<trkpt lat="44.035647" lon="-121.592275"><ele>1721.2</ele><time>2026-09-07T19:09:01Z</time></trkpt>
<trkpt lat="44.035528" lon="-121.592096"><ele>1720.2</ele><time>2026-09-07T19:09:15Z</time></trkpt>
<trkpt lat="44.035419" lon="-121.592014"><ele>1720.2</ele><time>2026-09-07T19:09:27Z</time></trkpt>
<trkpt lat="44.035261" lon="-121.591612"><ele>1718.6</ele><time>2026-09-07T19:09:53Z</time></trkpt>
<trkpt lat="44.035105" lon="-121.591477"><ele>1718.8</ele><time>2026-09-07T19:10:08Z</time></trkpt>
<trkpt lat="44.035038" lon="-121.591480"><ele>1719.4</ele><time>2026-09-07T19:10:16Z</time></trkpt>
<trkpt lat="44.034930" lon="-121.591406"><ele>1720.2</ele><time>2026-09-07T19:10:26Z</time></trkpt>
<trkpt lat="44.034768" lon="-121.591162"><ele>1719.6</ele><time>2026-09-07T19:10:45Z</time></trkpt>
<trkpt lat="44.034283" lon="-121.590745"><ele>1718.6</ele><time>2026-09-07T19:11:29Z</time></trkpt>
<trkpt lat="44.034211" lon="-121.590633"><ele>1717.2</ele><time>2026-09-07T19:11:38Z</time></trkpt>
<trkpt lat="44.034095" lon="-121.590545"><ele>1715.2</ele><time>2026-09-07T19:11:49Z</time></trkpt>
<trkpt lat="44.033787" lon="-121.590519"><ele>1713.6</ele><time>2026-09-07T19:12:13Z</time></trkpt>
<trkpt lat="44.033563" lon="-121.590348"><ele>1708.2</ele><time>2026-09-07T19:12:35Z</time></trkpt>
<trkpt lat="44.033507" lon="-121.590267"><ele>1706.6</ele><time>2026-09-07T19:12:43Z</time></trkpt>
<trkpt lat="44.033447" lon="-121.590251"><ele>1705.4</ele><time>2026-09-07T19:12:49Z</time></trkpt>
<trkpt lat="44.033302" lon="-121.590315"><ele>1704.2</ele><time>2026-09-07T19:13:01Z</time></trkpt>
<trkpt lat="44.032894" lon="-121.590302"><ele>1698.0</ele><time>2026-09-07T19:14:01Z</time></trkpt>
<trkpt lat="44.032717" lon="-121.590261"><ele>1695.6</ele><time>2026-09-07T19:14:15Z</time></trkpt>
<trkpt lat="44.032330" lon="-121.590329"><ele>1690.0</ele><time>2026-09-07T19:14:48Z</time></trkpt>
<trkpt lat="44.031959" lon="-121.590186"><ele>1686.0</ele><time>2026-09-07T19:15:19Z</time></trkpt>
<trkpt lat="44.031876" lon="-121.590218"><ele>1685.4</ele><time>2026-09-07T19:15:26Z</time></trkpt>
<trkpt lat="44.031734" lon="-121.590364"><ele>1684.0</ele><time>2026-09-07T19:15:40Z</time></trkpt>
<trkpt lat="44.031631" lon="-121.590357"><ele>1683.8</ele><time>2026-09-07T19:15:48Z</time></trkpt>
<trkpt lat="44.031494" lon="-121.590501"><ele>1684.4</ele><time>2026-09-07T19:16:03Z</time></trkpt>
<trkpt lat="44.031326" lon="-121.590584"><ele>1684.8</ele><time>2026-09-07T19:16:18Z</time></trkpt>
<trkpt lat="44.031244" lon="-121.590573"><ele>1684.2</ele><time>2026-09-07T19:16:25Z</time></trkpt>
<trkpt lat="44.031100" lon="-121.590426"><ele>1683.8</ele><time>2026-09-07T19:16:39Z</time></trkpt>
<trkpt lat="44.030845" lon="-121.590048"><ele>1683.6</ele><time>2026-09-07T19:17:11Z</time></trkpt>
<trkpt lat="44.030822" lon="-121.589904"><ele>1684.8</ele><time>2026-09-07T19:17:19Z</time></trkpt>
<trkpt lat="44.030871" lon="-121.589750"><ele>1686.0</ele><time>2026-09-07T19:17:30Z</time></trkpt>
<trkpt lat="44.030865" lon="-121.589601"><ele>1688.0</ele><time>2026-09-07T19:17:41Z</time></trkpt>
<trkpt lat="44.030659" lon="-121.589216"><ele>1692.2</ele><time>2026-09-07T19:18:14Z</time></trkpt>
<trkpt lat="44.030502" lon="-121.589009"><ele>1693.6</ele><time>2026-09-07T19:18:32Z</time></trkpt>
<trkpt lat="44.030376" lon="-121.588784"><ele>1693.0</ele><time>2026-09-07T19:18:48Z</time></trkpt>
<trkpt lat="44.030316" lon="-121.588388"><ele>1694.8</ele><time>2026-09-07T19:19:12Z</time></trkpt>
<trkpt lat="44.030212" lon="-121.588327"><ele>1693.4</ele><time>2026-09-07T19:19:21Z</time></trkpt>
<trkpt lat="44.030138" lon="-121.588188"><ele>1692.0</ele><time>2026-09-07T19:19:32Z</time></trkpt>
<trkpt lat="44.030116" lon="-121.588074"><ele>1692.0</ele><time>2026-09-07T19:19:40Z</time></trkpt>
<trkpt lat="44.029955" lon="-121.587869"><ele>1689.2</ele><time>2026-09-07T19:19:57Z</time></trkpt>
<trkpt lat="44.029781" lon="-121.587821"><ele>1685.8</ele><time>2026-09-07T19:20:11Z</time></trkpt>
<trkpt lat="44.029669" lon="-121.587745"><ele>1683.8</ele><time>2026-09-07T19:20:21Z</time></trkpt>
<trkpt lat="44.029530" lon="-121.587461"><ele>1682.8</ele><time>2026-09-07T19:20:41Z</time></trkpt>
<trkpt lat="44.029507" lon="-121.587326"><ele>1683.0</ele><time>2026-09-07T19:20:49Z</time></trkpt>
<trkpt lat="44.029403" lon="-121.587092"><ele>1680.4</ele><time>2026-09-07T19:21:07Z</time></trkpt>
<trkpt lat="44.029182" lon="-121.586877"><ele>1676.0</ele><time>2026-09-07T19:21:31Z</time></trkpt>
<trkpt lat="44.029164" lon="-121.586687"><ele>1675.6</ele><time>2026-09-07T19:22:01Z</time></trkpt>
<trkpt lat="44.029167" lon="-121.586743"><ele>1673.6</ele><time>2026-09-07T19:22:40Z</time></trkpt>
<trkpt lat="44.029143" lon="-121.586723"><ele>1672.6</ele><time>2026-09-07T19:23:24Z</time></trkpt>
<trkpt lat="44.029183" lon="-121.586746"><ele>1672.8</ele><time>2026-09-07T19:24:49Z</time></trkpt>
<trkpt lat="44.029169" lon="-121.586679"><ele>1673.0</ele><time>2026-09-07T19:25:03Z</time></trkpt>
<trkpt lat="44.029217" lon="-121.586432"><ele>1672.8</ele><time>2026-09-07T19:25:24Z</time></trkpt>
<trkpt lat="44.029186" lon="-121.586014"><ele>1672.0</ele><time>2026-09-07T19:26:02Z</time></trkpt>
<trkpt lat="44.029329" lon="-121.585487"><ele>1668.8</ele><time>2026-09-07T19:26:34Z</time></trkpt>
<trkpt lat="44.029442" lon="-121.585239"><ele>1665.6</ele><time>2026-09-07T19:26:53Z</time></trkpt>
<trkpt lat="44.029582" lon="-121.585081"><ele>1663.6</ele><time>2026-09-07T19:27:07Z</time></trkpt>
<trkpt lat="44.029610" lon="-121.584897"><ele>1663.4</ele><time>2026-09-07T19:27:17Z</time></trkpt>
<trkpt lat="44.029608" lon="-121.584650"><ele>1661.4</ele><time>2026-09-07T19:27:31Z</time></trkpt>
<trkpt lat="44.029634" lon="-121.584532"><ele>1661.4</ele><time>2026-09-07T19:27:38Z</time></trkpt>
<trkpt lat="44.029578" lon="-121.583832"><ele>1655.8</ele><time>2026-09-07T19:28:19Z</time></trkpt>
<trkpt lat="44.029617" lon="-121.583597"><ele>1653.8</ele><time>2026-09-07T19:28:34Z</time></trkpt>
<trkpt lat="44.029598" lon="-121.583312"><ele>1651.6</ele><time>2026-09-07T19:28:49Z</time></trkpt>
<trkpt lat="44.029643" lon="-121.582955"><ele>1651.0</ele><time>2026-09-07T19:29:12Z</time></trkpt>
<trkpt lat="44.029770" lon="-121.582811"><ele>1651.2</ele><time>2026-09-07T19:29:25Z</time></trkpt>
<trkpt lat="44.029895" lon="-121.582769"><ele>1651.2</ele><time>2026-09-07T19:29:35Z</time></trkpt>
<trkpt lat="44.030028" lon="-121.582648"><ele>1649.4</ele><time>2026-09-07T19:29:48Z</time></trkpt>
<trkpt lat="44.030013" lon="-121.582525"><ele>1647.4</ele><time>2026-09-07T19:29:56Z</time></trkpt>
<trkpt lat="44.030123" lon="-121.582306"><ele>1645.6</ele><time>2026-09-07T19:30:13Z</time></trkpt>
<trkpt lat="44.030017" lon="-121.582043"><ele>1643.0</ele><time>2026-09-07T19:30:38Z</time></trkpt>
<trkpt lat="44.030098" lon="-121.581786"><ele>1641.0</ele><time>2026-09-07T19:30:54Z</time></trkpt>
<trkpt lat="44.030213" lon="-121.581586"><ele>1640.0</ele><time>2026-09-07T19:31:08Z</time></trkpt>
<trkpt lat="44.030301" lon="-121.581292"><ele>1638.0</ele><time>2026-09-07T19:31:25Z</time></trkpt>
<trkpt lat="44.030374" lon="-121.580891"><ele>1632.0</ele><time>2026-09-07T19:32:13Z</time></trkpt>
<trkpt lat="44.030479" lon="-121.580373"><ele>1630.6</ele><time>2026-09-07T19:32:33Z</time></trkpt>
<trkpt lat="44.030567" lon="-121.580283"><ele>1629.6</ele><time>2026-09-07T19:32:41Z</time></trkpt>
<trkpt lat="44.030521" lon="-121.580202"><ele>1628.8</ele><time>2026-09-07T19:32:46Z</time></trkpt>
<trkpt lat="44.030470" lon="-121.580186"><ele>1627.6</ele><time>2026-09-07T19:32:54Z</time></trkpt>
<trkpt lat="44.030460" lon="-121.580119"><ele>1626.4</ele><time>2026-09-07T19:33:06Z</time></trkpt>
<trkpt lat="44.030455" lon="-121.580179"><ele>1626.6</ele><time>2026-09-07T19:33:46Z</time></trkpt>
<trkpt lat="44.030543" lon="-121.580232"><ele>1626.8</ele><time>2026-09-07T19:34:13Z</time></trkpt>
<trkpt lat="44.030710" lon="-121.580241"><ele>1627.2</ele><time>2026-09-07T19:34:29Z</time></trkpt>
<trkpt lat="44.030794" lon="-121.580328"><ele>1627.4</ele><time>2026-09-07T19:34:37Z</time></trkpt>
<trkpt lat="44.030910" lon="-121.580376"><ele>1625.6</ele><time>2026-09-07T19:34:49Z</time></trkpt>
<trkpt lat="44.030952" lon="-121.580339"><ele>1625.4</ele><time>2026-09-07T19:34:57Z</time></trkpt>
<trkpt lat="44.030973" lon="-121.580245"><ele>1626.6</ele><time>2026-09-07T19:35:04Z</time></trkpt>
<trkpt lat="44.030868" lon="-121.579682"><ele>1624.6</ele><time>2026-09-07T19:35:34Z</time></trkpt>
<trkpt lat="44.030714" lon="-121.579377"><ele>1622.4</ele><time>2026-09-07T19:36:03Z</time></trkpt>
<trkpt lat="44.030732" lon="-121.579252"><ele>1621.4</ele><time>2026-09-07T19:36:14Z</time></trkpt>
<trkpt lat="44.030709" lon="-121.579202"><ele>1620.8</ele><time>2026-09-07T19:36:20Z</time></trkpt>
<trkpt lat="44.030824" lon="-121.578958"><ele>1620.0</ele><time>2026-09-07T19:36:41Z</time></trkpt>
<trkpt lat="44.030994" lon="-121.578718"><ele>1617.2</ele><time>2026-09-07T19:37:01Z</time></trkpt>
<trkpt lat="44.031129" lon="-121.578638"><ele>1617.6</ele><time>2026-09-07T19:37:13Z</time></trkpt>
<trkpt lat="44.031176" lon="-121.578574"><ele>1616.6</ele><time>2026-09-07T19:37:19Z</time></trkpt>
<trkpt lat="44.031228" lon="-121.578399"><ele>1615.0</ele><time>2026-09-07T19:37:31Z</time></trkpt>
<trkpt lat="44.031287" lon="-121.577838"><ele>1608.4</ele><time>2026-09-07T19:38:07Z</time></trkpt>
<trkpt lat="44.031581" lon="-121.577379"><ele>1604.4</ele><time>2026-09-07T19:38:41Z</time></trkpt>
<trkpt lat="44.031591" lon="-121.577304"><ele>1604.2</ele><time>2026-09-07T19:38:45Z</time></trkpt>
<trkpt lat="44.031595" lon="-121.577195"><ele>1603.0</ele><time>2026-09-07T19:38:50Z</time></trkpt>
<trkpt lat="44.031429" lon="-121.577050"><ele>1600.8</ele><time>2026-09-07T19:39:04Z</time></trkpt>
<trkpt lat="44.031347" lon="-121.576887"><ele>1598.8</ele><time>2026-09-07T19:39:15Z</time></trkpt>
<trkpt lat="44.031423" lon="-121.576579"><ele>1596.0</ele><time>2026-09-07T19:39:34Z</time></trkpt>
<trkpt lat="44.031424" lon="-121.576467"><ele>1595.4</ele><time>2026-09-07T19:39:40Z</time></trkpt>
<trkpt lat="44.031130" lon="-121.575908"><ele>1588.4</ele><time>2026-09-07T19:40:21Z</time></trkpt>
<trkpt lat="44.031068" lon="-121.575717"><ele>1586.2</ele><time>2026-09-07T19:40:33Z</time></trkpt>
<trkpt lat="44.030928" lon="-121.575447"><ele>1584.2</ele><time>2026-09-07T19:40:52Z</time></trkpt>
<trkpt lat="44.030867" lon="-121.575117"><ele>1582.6</ele><time>2026-09-07T19:41:10Z</time></trkpt>
<trkpt lat="44.030857" lon="-121.574860"><ele>1582.4</ele><time>2026-09-07T19:41:24Z</time></trkpt>
<trkpt lat="44.030798" lon="-121.574637"><ele>1583.0</ele><time>2026-09-07T19:41:37Z</time></trkpt>
<trkpt lat="44.030744" lon="-121.574547"><ele>1582.8</ele><time>2026-09-07T19:41:42Z</time></trkpt>
<trkpt lat="44.030755" lon="-121.574444"><ele>1582.0</ele><time>2026-09-07T19:41:48Z</time></trkpt>
<trkpt lat="44.030888" lon="-121.574288"><ele>1580.8</ele><time>2026-09-07T19:42:01Z</time></trkpt>
<trkpt lat="44.030977" lon="-121.574083"><ele>1580.6</ele><time>2026-09-07T19:42:15Z</time></trkpt>
<trkpt lat="44.031126" lon="-121.573862"><ele>1583.2</ele><time>2026-09-07T19:42:32Z</time></trkpt>
<trkpt lat="44.031281" lon="-121.573512"><ele>1583.4</ele><time>2026-09-07T19:42:54Z</time></trkpt>
<trkpt lat="44.031269" lon="-121.573173"><ele>1582.4</ele><time>2026-09-07T19:43:13Z</time></trkpt>
<trkpt lat="44.031234" lon="-121.573113"><ele>1581.0</ele><time>2026-09-07T19:43:26Z</time></trkpt>
<trkpt lat="44.031207" lon="-121.572936"><ele>1579.4</ele><time>2026-09-07T19:43:51Z</time></trkpt>
<trkpt lat="44.031149" lon="-121.572830"><ele>1577.6</ele><time>2026-09-07T19:43:59Z</time></trkpt>
<trkpt lat="44.031092" lon="-121.572526"><ele>1574.4</ele><time>2026-09-07T19:44:30Z</time></trkpt>
<trkpt lat="44.031142" lon="-121.572429"><ele>1573.0</ele><time>2026-09-07T19:44:35Z</time></trkpt>
<trkpt lat="44.031200" lon="-121.572099"><ele>1571.6</ele><time>2026-09-07T19:44:55Z</time></trkpt>
<trkpt lat="44.031328" lon="-121.571891"><ele>1573.2</ele><time>2026-09-07T19:45:12Z</time></trkpt>
<trkpt lat="44.031376" lon="-121.571726"><ele>1572.8</ele><time>2026-09-07T19:45:20Z</time></trkpt>
<trkpt lat="44.031277" lon="-121.571209"><ele>1566.0</ele><time>2026-09-07T19:45:55Z</time></trkpt>
<trkpt lat="44.031176" lon="-121.571069"><ele>1563.2</ele><time>2026-09-07T19:46:08Z</time></trkpt>
<trkpt lat="44.031127" lon="-121.571075"><ele>1562.6</ele><time>2026-09-07T19:46:25Z</time></trkpt>
<trkpt lat="44.031128" lon="-121.571081"><ele>1560.2</ele><time>2026-09-07T19:47:05Z</time></trkpt>
<trkpt lat="44.031171" lon="-121.571093"><ele>1558.2</ele><time>2026-09-07T19:47:59Z</time></trkpt>
<trkpt lat="44.031196" lon="-121.571013"><ele>1559.4</ele><time>2026-09-07T19:48:06Z</time></trkpt>
<trkpt lat="44.031177" lon="-121.570608"><ele>1556.6</ele><time>2026-09-07T19:48:27Z</time></trkpt>
<trkpt lat="44.031269" lon="-121.570339"><ele>1555.0</ele><time>2026-09-07T19:48:41Z</time></trkpt>
<trkpt lat="44.031289" lon="-121.570195"><ele>1553.4</ele><time>2026-09-07T19:48:50Z</time></trkpt>
<trkpt lat="44.031270" lon="-121.569926"><ele>1552.8</ele><time>2026-09-07T19:49:04Z</time></trkpt>
<trkpt lat="44.031329" lon="-121.569574"><ele>1552.0</ele><time>2026-09-07T19:49:24Z</time></trkpt>
<trkpt lat="44.031438" lon="-121.569163"><ele>1551.0</ele><time>2026-09-07T19:49:48Z</time></trkpt>
<trkpt lat="44.031706" lon="-121.568548"><ele>1548.8</ele><time>2026-09-07T19:50:49Z</time></trkpt>
<trkpt lat="44.031968" lon="-121.568257"><ele>1547.2</ele><time>2026-09-07T19:51:14Z</time></trkpt>
<trkpt lat="44.032118" lon="-121.568024"><ele>1544.4</ele><time>2026-09-07T19:51:32Z</time></trkpt>
<trkpt lat="44.032212" lon="-121.567710"><ele>1540.6</ele><time>2026-09-07T19:51:51Z</time></trkpt>
<trkpt lat="44.032340" lon="-121.567535"><ele>1538.4</ele><time>2026-09-07T19:52:06Z</time></trkpt>
<trkpt lat="44.032288" lon="-121.567331"><ele>1535.4</ele><time>2026-09-07T19:52:19Z</time></trkpt>
<trkpt lat="44.032410" lon="-121.567209"><ele>1533.2</ele><time>2026-09-07T19:52:33Z</time></trkpt>
<trkpt lat="44.032555" lon="-121.566931"><ele>1531.4</ele><time>2026-09-07T19:52:52Z</time></trkpt>
<trkpt lat="44.032513" lon="-121.566881"><ele>1530.4</ele><time>2026-09-07T19:52:57Z</time></trkpt>
<trkpt lat="44.032373" lon="-121.566871"><ele>1528.6</ele><time>2026-09-07T19:53:06Z</time></trkpt>
<trkpt lat="44.032064" lon="-121.566721"><ele>1525.4</ele><time>2026-09-07T19:53:42Z</time></trkpt>
<trkpt lat="44.032043" lon="-121.566615"><ele>1524.4</ele><time>2026-09-07T19:53:48Z</time></trkpt>
<trkpt lat="44.032177" lon="-121.566466"><ele>1522.4</ele><time>2026-09-07T19:54:09Z</time></trkpt>
<trkpt lat="44.032380" lon="-121.566463"><ele>1523.0</ele><time>2026-09-07T19:54:31Z</time></trkpt>
<trkpt lat="44.032162" lon="-121.566454"><ele>1522.8</ele><time>2026-09-07T19:54:56Z</time></trkpt>
<trkpt lat="44.032010" lon="-121.566366"><ele>1520.8</ele><time>2026-09-07T19:55:22Z</time></trkpt>
<trkpt lat="44.031953" lon="-121.566403"><ele>1520.8</ele><time>2026-09-07T19:55:30Z</time></trkpt>
<trkpt lat="44.031681" lon="-121.566161"><ele>1518.8</ele><time>2026-09-07T19:55:58Z</time></trkpt>
<trkpt lat="44.031601" lon="-121.566012"><ele>1517.8</ele><time>2026-09-07T19:56:15Z</time></trkpt>
</trkseg></trk>
</gpx>
