<?xml version="1.0" encoding="UTF-8"?>
<gpx version="1.1" creator="Eric Sichak trip reports" xmlns="http://www.topografix.com/GPX/1/1">
<metadata><name>Tallac</name><time>2026-09-24T21:31:55Z</time></metadata>
<trk><name>Tallac</name><type>hike</type><trkseg>
<trkpt lat="38.921382" lon="-120.068205"><ele>1967.2</ele><time>2026-09-24T21:31:55Z</time></trkpt>
<trkpt lat="38.921131" lon="-120.068171"><ele>1968.4</ele><time>2026-09-24T21:32:12Z</time></trkpt>
<trkpt lat="38.920588" lon="-120.068279"><ele>1973.4</ele><time>2026-09-24T21:32:46Z</time></trkpt>
<trkpt lat="38.920509" lon="-120.068501"><ele>1975.2</ele><time>2026-09-24T21:32:58Z</time></trkpt>
<trkpt lat="38.920528" lon="-120.068635"><ele>1977.4</ele><time>2026-09-24T21:33:05Z</time></trkpt>
<trkpt lat="38.920506" lon="-120.068766"><ele>1977.8</ele><time>2026-09-24T21:33:12Z</time></trkpt>
<trkpt lat="38.920409" lon="-120.069005"><ele>1980.0</ele><time>2026-09-24T21:33:26Z</time></trkpt>
<trkpt lat="38.920419" lon="-120.069180"><ele>1982.0</ele><time>2026-09-24T21:33:36Z</time></trkpt>
<trkpt lat="38.920307" lon="-120.069503"><ele>1985.2</ele><time>2026-09-24T21:33:58Z</time></trkpt>
<trkpt lat="38.920493" lon="-120.069912"><ele>1989.6</ele><time>2026-09-24T21:34:25Z</time></trkpt>
<trkpt lat="38.920421" lon="-120.070010"><ele>1992.0</ele><time>2026-09-24T21:34:34Z</time></trkpt>
<trkpt lat="38.920322" lon="-120.070008"><ele>1991.8</ele><time>2026-09-24T21:34:41Z</time></trkpt>
<trkpt lat="38.920226" lon="-120.070109"><ele>1994.2</ele><time>2026-09-24T21:34:52Z</time></trkpt>
<trkpt lat="38.920221" lon="-120.070191"><ele>1994.8</ele><time>2026-09-24T21:34:57Z</time></trkpt>
<trkpt lat="38.920130" lon="-120.070402"><ele>1996.2</ele><time>2026-09-24T21:35:11Z</time></trkpt>
<trkpt lat="38.919935" lon="-120.070703"><ele>1997.6</ele><time>2026-09-24T21:35:31Z</time></trkpt>
<trkpt lat="38.919811" lon="-120.070734"><ele>1998.4</ele><time>2026-09-24T21:35:40Z</time></trkpt>
<trkpt lat="38.919541" lon="-120.070678"><ele>2002.0</ele><time>2026-09-24T21:36:00Z</time></trkpt>
<trkpt lat="38.919291" lon="-120.070687"><ele>2004.8</ele><time>2026-09-24T21:36:17Z</time></trkpt>
<trkpt lat="38.918765" lon="-120.070631"><ele>2009.0</ele><time>2026-09-24T21:36:54Z</time></trkpt>
<trkpt lat="38.918572" lon="-120.070694"><ele>2011.2</ele><time>2026-09-24T21:37:08Z</time></trkpt>
<trkpt lat="38.918371" lon="-120.070626"><ele>2014.2</ele><time>2026-09-24T21:37:26Z</time></trkpt>
<trkpt lat="38.918268" lon="-120.070685"><ele>2016.8</ele><time>2026-09-24T21:37:36Z</time></trkpt>
<trkpt lat="38.918174" lon="-120.070636"><ele>2018.0</ele><time>2026-09-24T21:37:46Z</time></trkpt>
<trkpt lat="38.917924" lon="-120.070796"><ele>2024.6</ele><time>2026-09-24T21:38:09Z</time></trkpt>
<trkpt lat="38.917759" lon="-120.070818"><ele>2025.2</ele><time>2026-09-24T21:38:21Z</time></trkpt>
<trkpt lat="38.917582" lon="-120.070788"><ele>2027.4</ele><time>2026-09-24T21:38:36Z</time></trkpt>
<trkpt lat="38.917517" lon="-120.070840"><ele>2029.4</ele><time>2026-09-24T21:38:42Z</time></trkpt>
<trkpt lat="38.917458" lon="-120.070974"><ele>2032.6</ele><time>2026-09-24T21:38:54Z</time></trkpt>
<trkpt lat="38.917288" lon="-120.071056"><ele>2037.8</ele><time>2026-09-24T21:39:11Z</time></trkpt>
<trkpt lat="38.917122" lon="-120.071225"><ele>2039.6</ele><time>2026-09-24T21:39:28Z</time></trkpt>
<trkpt lat="38.916790" lon="-120.071301"><ele>2044.6</ele><time>2026-09-24T21:39:55Z</time></trkpt>
<trkpt lat="38.916681" lon="-120.071369"><ele>2045.6</ele><time>2026-09-24T21:40:05Z</time></trkpt>
<trkpt lat="38.916338" lon="-120.071394"><ele>2053.6</ele><time>2026-09-24T21:40:35Z</time></trkpt>
<trkpt lat="38.916196" lon="-120.071369"><ele>2056.0</ele><time>2026-09-24T21:40:47Z</time></trkpt>
<trkpt lat="38.916083" lon="-120.071461"><ele>2058.2</ele><time>2026-09-24T21:40:58Z</time></trkpt>
<trkpt lat="38.915851" lon="-120.071563"><ele>2060.4</ele><time>2026-09-24T21:41:17Z</time></trkpt>
<trkpt lat="38.915586" lon="-120.071605"><ele>2062.8</ele><time>2026-09-24T21:41:36Z</time></trkpt>
<trkpt lat="38.915038" lon="-120.071761"><ele>2064.6</ele><time>2026-09-24T21:42:14Z</time></trkpt>
<trkpt lat="38.914642" lon="-120.071811"><ele>2063.8</ele><time>2026-09-24T21:42:43Z</time></trkpt>
<trkpt lat="38.914086" lon="-120.071760"><ele>2069.2</ele><time>2026-09-24T21:43:22Z</time></trkpt>
<trkpt lat="38.913847" lon="-120.071704"><ele>2072.4</ele><time>2026-09-24T21:43:40Z</time></trkpt>
<trkpt lat="38.913629" lon="-120.071745"><ele>2078.2</ele><time>2026-09-24T21:44:02Z</time></trkpt>
<trkpt lat="38.913634" lon="-120.071895"><ele>2079.8</ele><time>2026-09-24T21:44:14Z</time></trkpt>
<trkpt lat="38.913605" lon="-120.071971"><ele>2082.2</ele><time>2026-09-24T21:44:22Z</time></trkpt>
<trkpt lat="38.913455" lon="-120.071945"><ele>2085.8</ele><time>2026-09-24T21:44:36Z</time></trkpt>
<trkpt lat="38.913380" lon="-120.071899"><ele>2089.2</ele><time>2026-09-24T21:44:44Z</time></trkpt>
<trkpt lat="38.913283" lon="-120.071899"><ele>2091.4</ele><time>2026-09-24T21:44:53Z</time></trkpt>
<trkpt lat="38.913233" lon="-120.071935"><ele>2092.6</ele><time>2026-09-24T21:44:58Z</time></trkpt>
<trkpt lat="38.913170" lon="-120.071915"><ele>2092.4</ele><time>2026-09-24T21:45:04Z</time></trkpt>
<trkpt lat="38.913039" lon="-120.071968"><ele>2095.6</ele><time>2026-09-24T21:45:15Z</time></trkpt>
<trkpt lat="38.912777" lon="-120.071923"><ele>2098.8</ele><time>2026-09-24T21:45:37Z</time></trkpt>
<trkpt lat="38.912330" lon="-120.072038"><ele>2103.2</ele><time>2026-09-24T21:46:11Z</time></trkpt>
<trkpt lat="38.912086" lon="-120.072144"><ele>2105.2</ele><time>2026-09-24T21:46:30Z</time></trkpt>
<trkpt lat="38.911854" lon="-120.072134"><ele>2108.0</ele><time>2026-09-24T21:46:47Z</time></trkpt>
<trkpt lat="38.911368" lon="-120.072255"><ele>2109.8</ele><time>2026-09-24T21:47:23Z</time></trkpt>
<trkpt lat="38.911085" lon="-120.072294"><ele>2113.0</ele><time>2026-09-24T21:47:44Z</time></trkpt>
<trkpt lat="38.911040" lon="-120.072327"><ele>2111.6</ele><time>2026-09-24T21:47:58Z</time></trkpt>
<trkpt lat="38.910777" lon="-120.072365"><ele>2113.8</ele><time>2026-09-24T21:48:17Z</time></trkpt>
<trkpt lat="38.910478" lon="-120.072485"><ele>2116.0</ele><time>2026-09-24T21:48:41Z</time></trkpt>
<trkpt lat="38.909848" lon="-120.072617"><ele>2119.8</ele><time>2026-09-24T21:49:28Z</time></trkpt>
<trkpt lat="38.909697" lon="-120.072693"><ele>2121.0</ele><time>2026-09-24T21:49:40Z</time></trkpt>
<trkpt lat="38.909595" lon="-120.072690"><ele>2123.4</ele><time>2026-09-24T21:49:48Z</time></trkpt>
<trkpt lat="38.909241" lon="-120.072814"><ele>2122.6</ele><time>2026-09-24T21:50:14Z</time></trkpt>
<trkpt lat="38.908766" lon="-120.072912"><ele>2124.2</ele><time>2026-09-24T21:50:48Z</time></trkpt>
<trkpt lat="38.908448" lon="-120.073059"><ele>2125.2</ele><time>2026-09-24T21:51:13Z</time></trkpt>
<trkpt lat="38.907882" lon="-120.073131"><ele>2126.2</ele><time>2026-09-24T21:51:51Z</time></trkpt>
<trkpt lat="38.907720" lon="-120.073215"><ele>2128.0</ele><time>2026-09-24T21:52:04Z</time></trkpt>
<trkpt lat="38.906929" lon="-120.073449"><ele>2131.6</ele><time>2026-09-24T21:53:05Z</time></trkpt>
<trkpt lat="38.906665" lon="-120.073674"><ele>2132.6</ele><time>2026-09-24T21:53:27Z</time></trkpt>
<trkpt lat="38.906436" lon="-120.073678"><ele>2131.8</ele><time>2026-09-24T21:53:45Z</time></trkpt>
<trkpt lat="38.905601" lon="-120.073876"><ele>2134.6</ele><time>2026-09-24T21:54:55Z</time></trkpt>
<trkpt lat="38.905497" lon="-120.074153"><ele>2136.4</ele><time>2026-09-24T21:55:14Z</time></trkpt>
<trkpt lat="38.905221" lon="-120.074510"><ele>2137.0</ele><time>2026-09-24T21:55:43Z</time></trkpt>
<trkpt lat="38.905186" lon="-120.074622"><ele>2137.8</ele><time>2026-09-24T21:55:51Z</time></trkpt>
<trkpt lat="38.905195" lon="-120.074829"><ele>2140.4</ele><time>2026-09-24T21:56:03Z</time></trkpt>
<trkpt lat="38.905222" lon="-120.074915"><ele>2140.2</ele><time>2026-09-24T21:56:09Z</time></trkpt>
<trkpt lat="38.905413" lon="-120.075026"><ele>2141.2</ele><time>2026-09-24T21:56:26Z</time></trkpt>
<trkpt lat="38.905782" lon="-120.075082"><ele>2145.0</ele><time>2026-09-24T21:56:53Z</time></trkpt>
<trkpt lat="38.905838" lon="-120.075132"><ele>2147.4</ele><time>2026-09-24T21:57:00Z</time></trkpt>
<trkpt lat="38.905682" lon="-120.075288"><ele>2149.2</ele><time>2026-09-24T21:57:17Z</time></trkpt>
<trkpt lat="38.905448" lon="-120.075419"><ele>2152.2</ele><time>2026-09-24T21:57:38Z</time></trkpt>
<trkpt lat="38.905273" lon="-120.075573"><ele>2154.4</ele><time>2026-09-24T21:57:53Z</time></trkpt>
<trkpt lat="38.905212" lon="-120.075592"><ele>2156.8</ele><time>2026-09-24T21:57:58Z</time></trkpt>
<trkpt lat="38.905062" lon="-120.075784"><ele>2157.8</ele><time>2026-09-24T21:58:14Z</time></trkpt>
<trkpt lat="38.905031" lon="-120.076086"><ele>2157.2</ele><time>2026-09-24T21:58:32Z</time></trkpt>
<trkpt lat="38.904895" lon="-120.076429"><ele>2158.8</ele><time>2026-09-24T21:58:54Z</time></trkpt>
<trkpt lat="38.904886" lon="-120.076706"><ele>2163.0</ele><time>2026-09-24T21:59:12Z</time></trkpt>
<trkpt lat="38.904918" lon="-120.076951"><ele>2160.4</ele><time>2026-09-24T21:59:26Z</time></trkpt>
<trkpt lat="38.904829" lon="-120.077167"><ele>2160.0</ele><time>2026-09-24T21:59:40Z</time></trkpt>
<trkpt lat="38.904811" lon="-120.077407"><ele>2158.8</ele><time>2026-09-24T21:59:54Z</time></trkpt>
<trkpt lat="38.904723" lon="-120.077590"><ele>2159.6</ele><time>2026-09-24T22:00:07Z</time></trkpt>
<trkpt lat="38.904577" lon="-120.077731"><ele>2161.6</ele><time>2026-09-24T22:00:21Z</time></trkpt>
<trkpt lat="38.904532" lon="-120.078112"><ele>2168.2</ele><time>2026-09-24T22:00:54Z</time></trkpt>
<trkpt lat="38.904489" lon="-120.078199"><ele>2168.6</ele><time>2026-09-24T22:01:01Z</time></trkpt>
<trkpt lat="38.904421" lon="-120.078226"><ele>2169.4</ele><time>2026-09-24T22:01:07Z</time></trkpt>
<trkpt lat="38.904336" lon="-120.078153"><ele>2169.4</ele><time>2026-09-24T22:01:16Z</time></trkpt>
<trkpt lat="38.904324" lon="-120.078193"><ele>2170.0</ele><time>2026-09-24T22:01:19Z</time></trkpt>
<trkpt lat="38.904265" lon="-120.078195"><ele>2171.2</ele><time>2026-09-24T22:01:25Z</time></trkpt>
<trkpt lat="38.904117" lon="-120.077907"><ele>2175.8</ele><time>2026-09-24T22:01:48Z</time></trkpt>
<trkpt lat="38.904064" lon="-120.078185"><ele>2179.0</ele><time>2026-09-24T22:02:13Z</time></trkpt>
<trkpt lat="38.903981" lon="-120.078296"><ele>2182.0</ele><time>2026-09-24T22:02:25Z</time></trkpt>
<trkpt lat="38.903933" lon="-120.078221"><ele>2184.6</ele><time>2026-09-24T22:02:37Z</time></trkpt>
<trkpt lat="38.903797" lon="-120.078310"><ele>2188.4</ele><time>2026-09-24T22:02:54Z</time></trkpt>
<trkpt lat="38.903748" lon="-120.078231"><ele>2190.2</ele><time>2026-09-24T22:03:02Z</time></trkpt>
<trkpt lat="38.903662" lon="-120.078201"><ele>2191.4</ele><time>2026-09-24T22:03:09Z</time></trkpt>
<trkpt lat="38.903525" lon="-120.078248"><ele>2192.8</ele><time>2026-09-24T22:03:22Z</time></trkpt>
<trkpt lat="38.903409" lon="-120.078159"><ele>2194.8</ele><time>2026-09-24T22:03:33Z</time></trkpt>
<trkpt lat="38.903325" lon="-120.078317"><ele>2197.2</ele><time>2026-09-24T22:03:45Z</time></trkpt>
<trkpt lat="38.903183" lon="-120.078388"><ele>2200.6</ele><time>2026-09-24T22:03:59Z</time></trkpt>
<trkpt lat="38.903098" lon="-120.078547"><ele>2203.0</ele><time>2026-09-24T22:04:13Z</time></trkpt>
<trkpt lat="38.903011" lon="-120.078492"><ele>2204.0</ele><time>2026-09-24T22:04:21Z</time></trkpt>
<trkpt lat="38.902862" lon="-120.078515"><ele>2207.6</ele><time>2026-09-24T22:04:33Z</time></trkpt>
<trkpt lat="38.902741" lon="-120.078225"><ele>2208.2</ele><time>2026-09-24T22:04:54Z</time></trkpt>
<trkpt lat="38.902664" lon="-120.078161"><ele>2208.2</ele><time>2026-09-24T22:05:01Z</time></trkpt>
<trkpt lat="38.902550" lon="-120.078191"><ele>2209.8</ele><time>2026-09-24T22:05:10Z</time></trkpt>
<trkpt lat="38.902446" lon="-120.078327"><ele>2207.4</ele><time>2026-09-24T22:05:22Z</time></trkpt>
<trkpt lat="38.902253" lon="-120.078313"><ele>2208.2</ele><time>2026-09-24T22:05:38Z</time></trkpt>
<trkpt lat="38.902123" lon="-120.078262"><ele>2208.4</ele><time>2026-09-24T22:05:48Z</time></trkpt>
<trkpt lat="38.901891" lon="-120.078233"><ele>2207.2</ele><time>2026-09-24T22:06:07Z</time></trkpt>
<trkpt lat="38.901797" lon="-120.078183"><ele>2208.6</ele><time>2026-09-24T22:06:14Z</time></trkpt>
<trkpt lat="38.901702" lon="-120.078066"><ele>2210.2</ele><time>2026-09-24T22:06:25Z</time></trkpt>
<trkpt lat="38.901434" lon="-120.077995"><ele>2211.6</ele><time>2026-09-24T22:06:44Z</time></trkpt>
<trkpt lat="38.901164" lon="-120.078075"><ele>2211.0</ele><time>2026-09-24T22:07:03Z</time></trkpt>
<trkpt lat="38.901055" lon="-120.078187"><ele>2212.8</ele><time>2026-09-24T22:07:13Z</time></trkpt>
<trkpt lat="38.900734" lon="-120.078315"><ele>2217.0</ele><time>2026-09-24T22:07:44Z</time></trkpt>
<trkpt lat="38.900667" lon="-120.078564"><ele>2220.2</ele><time>2026-09-24T22:08:02Z</time></trkpt>
<trkpt lat="38.900579" lon="-120.078609"><ele>2222.8</ele><time>2026-09-24T22:08:10Z</time></trkpt>
<trkpt lat="38.900432" lon="-120.078903"><ele>2222.6</ele><time>2026-09-24T22:08:32Z</time></trkpt>
<trkpt lat="38.900332" lon="-120.078960"><ele>2225.4</ele><time>2026-09-24T22:08:45Z</time></trkpt>
<trkpt lat="38.900371" lon="-120.079040"><ele>2227.0</ele><time>2026-09-24T22:08:52Z</time></trkpt>
<trkpt lat="38.900289" lon="-120.079048"><ele>2228.0</ele><time>2026-09-24T22:09:01Z</time></trkpt>
<trkpt lat="38.900249" lon="-120.079176"><ele>2230.2</ele><time>2026-09-24T22:09:13Z</time></trkpt>
<trkpt lat="38.900193" lon="-120.079226"><ele>2231.4</ele><time>2026-09-24T22:09:21Z</time></trkpt>
<trkpt lat="38.900230" lon="-120.079428"><ele>2234.8</ele><time>2026-09-24T22:09:37Z</time></trkpt>
<trkpt lat="38.900211" lon="-120.079513"><ele>2235.4</ele><time>2026-09-24T22:09:43Z</time></trkpt>
<trkpt lat="38.900108" lon="-120.079605"><ele>2234.4</ele><time>2026-09-24T22:09:55Z</time></trkpt>
<trkpt lat="38.899946" lon="-120.079675"><ele>2233.4</ele><time>2026-09-24T22:10:09Z</time></trkpt>
<trkpt lat="38.899806" lon="-120.079833"><ele>2234.8</ele><time>2026-09-24T22:10:23Z</time></trkpt>
<trkpt lat="38.899832" lon="-120.080043"><ele>2234.4</ele><time>2026-09-24T22:10:34Z</time></trkpt>
<trkpt lat="38.899807" lon="-120.080259"><ele>2237.0</ele><time>2026-09-24T22:10:49Z</time></trkpt>
<trkpt lat="38.899792" lon="-120.080320"><ele>2238.0</ele><time>2026-09-24T22:10:54Z</time></trkpt>
<trkpt lat="38.899729" lon="-120.080315"><ele>2238.8</ele><time>2026-09-24T22:11:01Z</time></trkpt>
<trkpt lat="38.899704" lon="-120.080360"><ele>2240.8</ele><time>2026-09-24T22:11:06Z</time></trkpt>
<trkpt lat="38.899815" lon="-120.080546"><ele>2242.2</ele><time>2026-09-24T22:11:24Z</time></trkpt>
<trkpt lat="38.899776" lon="-120.080814"><ele>2243.0</ele><time>2026-09-24T22:11:50Z</time></trkpt>
<trkpt lat="38.899673" lon="-120.080964"><ele>2244.0</ele><time>2026-09-24T22:12:04Z</time></trkpt>
<trkpt lat="38.899621" lon="-120.081146"><ele>2247.0</ele><time>2026-09-24T22:12:16Z</time></trkpt>
<trkpt lat="38.899466" lon="-120.081398"><ele>2251.6</ele><time>2026-09-24T22:12:41Z</time></trkpt>
<trkpt lat="38.899383" lon="-120.081706"><ele>2255.6</ele><time>2026-09-24T22:13:03Z</time></trkpt>
<trkpt lat="38.899066" lon="-120.082091"><ele>2262.6</ele><time>2026-09-24T22:13:51Z</time></trkpt>
<trkpt lat="38.898677" lon="-120.082113"><ele>2268.6</ele><time>2026-09-24T22:14:31Z</time></trkpt>
<trkpt lat="38.898515" lon="-120.082044"><ele>2270.4</ele><time>2026-09-24T22:14:47Z</time></trkpt>
<trkpt lat="38.898349" lon="-120.082109"><ele>2272.6</ele><time>2026-09-24T22:15:02Z</time></trkpt>
<trkpt lat="38.898142" lon="-120.082058"><ele>2275.8</ele><time>2026-09-24T22:15:22Z</time></trkpt>
<trkpt lat="38.898064" lon="-120.082144"><ele>2277.0</ele><time>2026-09-24T22:15:31Z</time></trkpt>
<trkpt lat="38.898019" lon="-120.082292"><ele>2279.2</ele><time>2026-09-24T22:15:43Z</time></trkpt>
<trkpt lat="38.897935" lon="-120.082430"><ele>2281.2</ele><time>2026-09-24T22:15:58Z</time></trkpt>
<trkpt lat="38.897881" lon="-120.082449"><ele>2282.8</ele><time>2026-09-24T22:16:06Z</time></trkpt>
<trkpt lat="38.897819" lon="-120.082562"><ele>2286.2</ele><time>2026-09-24T22:16:20Z</time></trkpt>
<trkpt lat="38.897603" lon="-120.082401"><ele>2291.4</ele><time>2026-09-24T22:16:47Z</time></trkpt>
<trkpt lat="38.897439" lon="-120.082146"><ele>2290.0</ele><time>2026-09-24T22:17:07Z</time></trkpt>
<trkpt lat="38.897353" lon="-120.082098"><ele>2288.8</ele><time>2026-09-24T22:17:13Z</time></trkpt>
<trkpt lat="38.897227" lon="-120.081910"><ele>2287.2</ele><time>2026-09-24T22:17:27Z</time></trkpt>
<trkpt lat="38.897169" lon="-120.081745"><ele>2286.2</ele><time>2026-09-24T22:17:37Z</time></trkpt>
<trkpt lat="38.897010" lon="-120.081679"><ele>2286.6</ele><time>2026-09-24T22:17:49Z</time></trkpt>
<trkpt lat="38.897004" lon="-120.081570"><ele>2287.6</ele><time>2026-09-24T22:17:55Z</time></trkpt>
<trkpt lat="38.896946" lon="-120.081444"><ele>2290.4</ele><time>2026-09-24T22:18:05Z</time></trkpt>
<trkpt lat="38.896906" lon="-120.081534"><ele>2292.0</ele><time>2026-09-24T22:18:11Z</time></trkpt>
<trkpt lat="38.896752" lon="-120.081648"><ele>2295.4</ele><time>2026-09-24T22:18:26Z</time></trkpt>
<trkpt lat="38.896561" lon="-120.081622"><ele>2296.4</ele><time>2026-09-24T22:18:41Z</time></trkpt>
<trkpt lat="38.896346" lon="-120.081540"><ele>2300.0</ele><time>2026-09-24T22:18:59Z</time></trkpt>
<trkpt lat="38.896085" lon="-120.081548"><ele>2304.2</ele><time>2026-09-24T22:19:24Z</time></trkpt>
<trkpt lat="38.895823" lon="-120.081630"><ele>2312.4</ele><time>2026-09-24T22:19:53Z</time></trkpt>
<trkpt lat="38.895503" lon="-120.081749"><ele>2318.0</ele><time>2026-09-24T22:20:23Z</time></trkpt>
<trkpt lat="38.895335" lon="-120.081698"><ele>2322.8</ele><time>2026-09-24T22:20:40Z</time></trkpt>
<trkpt lat="38.895137" lon="-120.081732"><ele>2325.4</ele><time>2026-09-24T22:20:56Z</time></trkpt>
<trkpt lat="38.894984" lon="-120.081800"><ele>2325.8</ele><time>2026-09-24T22:21:08Z</time></trkpt>
<trkpt lat="38.894833" lon="-120.081749"><ele>2327.4</ele><time>2026-09-24T22:21:21Z</time></trkpt>
<trkpt lat="38.894714" lon="-120.081886"><ele>2327.4</ele><time>2026-09-24T22:21:33Z</time></trkpt>
<trkpt lat="38.894462" lon="-120.082005"><ele>2327.8</ele><time>2026-09-24T22:21:58Z</time></trkpt>
<trkpt lat="38.894399" lon="-120.082186"><ele>2327.4</ele><time>2026-09-24T22:22:10Z</time></trkpt>
<trkpt lat="38.894348" lon="-120.082235"><ele>2328.2</ele><time>2026-09-24T22:22:15Z</time></trkpt>
<trkpt lat="38.894334" lon="-120.082338"><ele>2332.0</ele><time>2026-09-24T22:26:41Z</time></trkpt>
<trkpt lat="38.894165" lon="-120.082481"><ele>2338.0</ele><time>2026-09-24T22:27:00Z</time></trkpt>
<trkpt lat="38.894117" lon="-120.082606"><ele>2340.2</ele><time>2026-09-24T22:27:13Z</time></trkpt>
<trkpt lat="38.894274" lon="-120.082694"><ele>2346.4</ele><time>2026-09-24T22:27:34Z</time></trkpt>
<trkpt lat="38.894225" lon="-120.082880"><ele>2351.2</ele><time>2026-09-24T22:27:53Z</time></trkpt>
<trkpt lat="38.894158" lon="-120.082966"><ele>2354.4</ele><time>2026-09-24T22:28:03Z</time></trkpt>
<trkpt lat="38.894153" lon="-120.083033"><ele>2355.0</ele><time>2026-09-24T22:28:09Z</time></trkpt>
<trkpt lat="38.894193" lon="-120.083244"><ele>2357.8</ele><time>2026-09-24T22:28:35Z</time></trkpt>
<trkpt lat="38.894310" lon="-120.083442"><ele>2362.4</ele><time>2026-09-24T22:29:00Z</time></trkpt>
<trkpt lat="38.894042" lon="-120.083415"><ele>2367.2</ele><time>2026-09-24T22:29:25Z</time></trkpt>
<trkpt lat="38.893966" lon="-120.083432"><ele>2369.2</ele><time>2026-09-24T22:29:34Z</time></trkpt>
<trkpt lat="38.893908" lon="-120.083489"><ele>2369.6</ele><time>2026-09-24T22:29:41Z</time></trkpt>
<trkpt lat="38.893884" lon="-120.083640"><ele>2370.4</ele><time>2026-09-24T22:29:54Z</time></trkpt>
<trkpt lat="38.893770" lon="-120.083951"><ele>2375.0</ele><time>2026-09-24T22:30:25Z</time></trkpt>
<trkpt lat="38.893837" lon="-120.084068"><ele>2379.2</ele><time>2026-09-24T22:30:35Z</time></trkpt>
<trkpt lat="38.894010" lon="-120.084118"><ele>2382.8</ele><time>2026-09-24T22:30:52Z</time></trkpt>
<trkpt lat="38.893989" lon="-120.084161"><ele>2382.0</ele><time>2026-09-24T22:30:57Z</time></trkpt>
<trkpt lat="38.893770" lon="-120.084253"><ele>2385.6</ele><time>2026-09-24T22:31:24Z</time></trkpt>
<trkpt lat="38.893639" lon="-120.084269"><ele>2387.8</ele><time>2026-09-24T22:31:37Z</time></trkpt>
<trkpt lat="38.893741" lon="-120.084387"><ele>2391.4</ele><time>2026-09-24T22:31:53Z</time></trkpt>
<trkpt lat="38.893646" lon="-120.084391"><ele>2395.4</ele><time>2026-09-24T22:32:03Z</time></trkpt>
<trkpt lat="38.893644" lon="-120.084440"><ele>2397.2</ele><time>2026-09-24T22:32:08Z</time></trkpt>
<trkpt lat="38.893783" lon="-120.084499"><ele>2398.0</ele><time>2026-09-24T22:32:23Z</time></trkpt>
<trkpt lat="38.893849" lon="-120.084583"><ele>2399.6</ele><time>2026-09-24T22:32:32Z</time></trkpt>
<trkpt lat="38.893718" lon="-120.084725"><ele>2402.4</ele><time>2026-09-24T22:32:51Z</time></trkpt>
<trkpt lat="38.893727" lon="-120.084786"><ele>2402.8</ele><time>2026-09-24T22:32:56Z</time></trkpt>
<trkpt lat="38.893693" lon="-120.084841"><ele>2403.4</ele><time>2026-09-24T22:33:01Z</time></trkpt>
<trkpt lat="38.893711" lon="-120.084939"><ele>2402.8</ele><time>2026-09-24T22:33:07Z</time></trkpt>
<trkpt lat="38.893691" lon="-120.085001"><ele>2402.2</ele><time>2026-09-24T22:33:12Z</time></trkpt>
<trkpt lat="38.893652" lon="-120.084987"><ele>2404.0</ele><time>2026-09-24T22:33:16Z</time></trkpt>
<trkpt lat="38.893642" lon="-120.085066"><ele>2405.2</ele><time>2026-09-24T22:33:23Z</time></trkpt>
<trkpt lat="38.893565" lon="-120.085192"><ele>2406.6</ele><time>2026-09-24T22:33:38Z</time></trkpt>
<trkpt lat="38.893542" lon="-120.085434"><ele>2408.2</ele><time>2026-09-24T22:34:05Z</time></trkpt>
<trkpt lat="38.893594" lon="-120.085567"><ele>2410.8</ele><time>2026-09-24T22:34:14Z</time></trkpt>
<trkpt lat="38.893802" lon="-120.085710"><ele>2412.2</ele><time>2026-09-24T22:34:32Z</time></trkpt>
<trkpt lat="38.893974" lon="-120.085965"><ele>2413.6</ele><time>2026-09-24T22:34:54Z</time></trkpt>
<trkpt lat="38.894000" lon="-120.086135"><ele>2417.0</ele><time>2026-09-24T22:35:09Z</time></trkpt>
<trkpt lat="38.894176" lon="-120.086337"><ele>2422.0</ele><time>2026-09-24T22:35:50Z</time></trkpt>
<trkpt lat="38.894273" lon="-120.086365"><ele>2422.4</ele><time>2026-09-24T22:35:57Z</time></trkpt>
<trkpt lat="38.894321" lon="-120.086488"><ele>2425.8</ele><time>2026-09-24T22:36:09Z</time></trkpt>
<trkpt lat="38.894495" lon="-120.086593"><ele>2430.6</ele><time>2026-09-24T22:36:31Z</time></trkpt>
<trkpt lat="38.894435" lon="-120.086681"><ele>2435.0</ele><time>2026-09-24T22:36:44Z</time></trkpt>
<trkpt lat="38.894421" lon="-120.086815"><ele>2439.4</ele><time>2026-09-24T22:36:59Z</time></trkpt>
<trkpt lat="38.894292" lon="-120.086952"><ele>2444.0</ele><time>2026-09-24T22:37:18Z</time></trkpt>
<trkpt lat="38.894294" lon="-120.086990"><ele>2445.0</ele><time>2026-09-24T22:37:21Z</time></trkpt>
<trkpt lat="38.894468" lon="-120.087101"><ele>2449.0</ele><time>2026-09-24T22:37:46Z</time></trkpt>
<trkpt lat="38.894482" lon="-120.087133"><ele>2451.8</ele><time>2026-09-24T22:37:50Z</time></trkpt>
<trkpt lat="38.894422" lon="-120.087298"><ele>2458.6</ele><time>2026-09-24T22:38:11Z</time></trkpt>
<trkpt lat="38.894433" lon="-120.087367"><ele>2459.6</ele><time>2026-09-24T22:38:17Z</time></trkpt>
<trkpt lat="38.894381" lon="-120.087413"><ele>2461.4</ele><time>2026-09-24T22:38:24Z</time></trkpt>
<trkpt lat="38.894226" lon="-120.087850"><ele>2471.0</ele><time>2026-09-24T22:39:06Z</time></trkpt>
<trkpt lat="38.894120" lon="-120.088625"><ele>2483.0</ele><time>2026-09-24T22:40:10Z</time></trkpt>
<trkpt lat="38.893924" lon="-120.088851"><ele>2487.6</ele><time>2026-09-24T22:40:36Z</time></trkpt>
<trkpt lat="38.893871" lon="-120.088934"><ele>2492.8</ele><time>2026-09-24T22:40:43Z</time></trkpt>
<trkpt lat="38.893820" lon="-120.089011"><ele>2493.6</ele><time>2026-09-24T22:40:51Z</time></trkpt>
<trkpt lat="38.893750" lon="-120.089131"><ele>2494.4</ele><time>2026-09-24T22:41:02Z</time></trkpt>
<trkpt lat="38.893754" lon="-120.089218"><ele>2496.2</ele><time>2026-09-24T22:41:08Z</time></trkpt>
<trkpt lat="38.893866" lon="-120.089364"><ele>2495.6</ele><time>2026-09-24T22:41:25Z</time></trkpt>
<trkpt lat="38.893984" lon="-120.089463"><ele>2499.4</ele><time>2026-09-24T22:41:41Z</time></trkpt>
<trkpt lat="38.894041" lon="-120.089556"><ele>2501.6</ele><time>2026-09-24T22:41:52Z</time></trkpt>
<trkpt lat="38.894295" lon="-120.089688"><ele>2505.2</ele><time>2026-09-24T22:42:22Z</time></trkpt>
<trkpt lat="38.894432" lon="-120.089605"><ele>2507.2</ele><time>2026-09-24T22:42:35Z</time></trkpt>
<trkpt lat="38.894557" lon="-120.089608"><ele>2509.2</ele><time>2026-09-24T22:42:48Z</time></trkpt>
<trkpt lat="38.894634" lon="-120.089396"><ele>2512.6</ele><time>2026-09-24T22:43:04Z</time></trkpt>
<trkpt lat="38.894714" lon="-120.089361"><ele>2512.6</ele><time>2026-09-24T22:43:12Z</time></trkpt>
<trkpt lat="38.894821" lon="-120.089266"><ele>2517.8</ele><time>2026-09-24T22:43:24Z</time></trkpt>
<trkpt lat="38.894848" lon="-120.089281"><ele>2518.0</ele><time>2026-09-24T22:43:28Z</time></trkpt>
<trkpt lat="38.894834" lon="-120.089387"><ele>2513.2</ele><time>2026-09-24T22:43:37Z</time></trkpt>
<trkpt lat="38.894825" lon="-120.089456"><ele>2519.6</ele><time>2026-09-24T22:43:43Z</time></trkpt>
<trkpt lat="38.894833" lon="-120.089532"><ele>2516.8</ele><time>2026-09-24T22:43:51Z</time></trkpt>
<trkpt lat="38.894870" lon="-120.089676"><ele>2524.6</ele><time>2026-09-24T22:44:03Z</time></trkpt>
<trkpt lat="38.894858" lon="-120.090003"><ele>2524.2</ele><time>2026-09-24T22:44:30Z</time></trkpt>
<trkpt lat="38.894852" lon="-120.090119"><ele>2529.8</ele><time>2026-09-24T22:44:42Z</time></trkpt>
<trkpt lat="38.894750" lon="-120.090374"><ele>2532.0</ele><time>2026-09-24T22:45:04Z</time></trkpt>
<trkpt lat="38.894637" lon="-120.090570"><ele>2535.6</ele><time>2026-09-24T22:45:24Z</time></trkpt>
<trkpt lat="38.894610" lon="-120.090657"><ele>2534.4</ele><time>2026-09-24T22:45:31Z</time></trkpt>
<trkpt lat="38.894581" lon="-120.090907"><ele>2541.6</ele><time>2026-09-24T22:45:56Z</time></trkpt>
<trkpt lat="38.894535" lon="-120.091051"><ele>2543.2</ele><time>2026-09-24T22:46:10Z</time></trkpt>
<trkpt lat="38.894732" lon="-120.090939"><ele>2552.4</ele><time>2026-09-24T22:46:34Z</time></trkpt>
<trkpt lat="38.895088" lon="-120.090751"><ele>2558.6</ele><time>2026-09-24T22:47:21Z</time></trkpt>
<trkpt lat="38.895297" lon="-120.090731"><ele>2560.4</ele><time>2026-09-24T22:47:44Z</time></trkpt>
<trkpt lat="38.895477" lon="-120.090821"><ele>2564.0</ele><time>2026-09-24T22:48:10Z</time></trkpt>
<trkpt lat="38.895555" lon="-120.090813"><ele>2565.2</ele><time>2026-09-24T22:48:19Z</time></trkpt>
<trkpt lat="38.895882" lon="-120.090922"><ele>2570.0</ele><time>2026-09-24T22:49:00Z</time></trkpt>
<trkpt lat="38.895815" lon="-120.090994"><ele>2574.4</ele><time>2026-09-24T22:49:10Z</time></trkpt>
<trkpt lat="38.895594" lon="-120.091098"><ele>2577.8</ele><time>2026-09-24T22:49:34Z</time></trkpt>
<trkpt lat="38.895515" lon="-120.091187"><ele>2581.6</ele><time>2026-09-24T22:49:49Z</time></trkpt>
<trkpt lat="38.895318" lon="-120.091306"><ele>2586.2</ele><time>2026-09-24T22:50:11Z</time></trkpt>
<trkpt lat="38.895108" lon="-120.091617"><ele>2590.6</ele><time>2026-09-24T22:50:49Z</time></trkpt>
<trkpt lat="38.894997" lon="-120.091864"><ele>2597.0</ele><time>2026-09-24T22:51:15Z</time></trkpt>
<trkpt lat="38.894833" lon="-120.092000"><ele>2600.2</ele><time>2026-09-24T22:51:34Z</time></trkpt>
<trkpt lat="38.894757" lon="-120.092137"><ele>2602.6</ele><time>2026-09-24T22:51:50Z</time></trkpt>
<trkpt lat="38.894763" lon="-120.092122"><ele>2606.2</ele><time>2026-09-24T22:53:59Z</time></trkpt>
<trkpt lat="38.894630" lon="-120.092317"><ele>2612.4</ele><time>2026-09-24T22:54:14Z</time></trkpt>
<trkpt lat="38.894384" lon="-120.092641"><ele>2620.0</ele><time>2026-09-24T22:55:01Z</time></trkpt>
<trkpt lat="38.894176" lon="-120.092820"><ele>2624.8</ele><time>2026-09-24T22:55:24Z</time></trkpt>
<trkpt lat="38.894094" lon="-120.092841"><ele>2626.2</ele><time>2026-09-24T22:55:31Z</time></trkpt>
<trkpt lat="38.894068" lon="-120.092893"><ele>2627.0</ele><time>2026-09-24T22:55:36Z</time></trkpt>
<trkpt lat="38.893846" lon="-120.092934"><ele>2633.0</ele><time>2026-09-24T22:55:55Z</time></trkpt>
<trkpt lat="38.893884" lon="-120.092987"><ele>2635.8</ele><time>2026-09-24T22:56:01Z</time></trkpt>
<trkpt lat="38.894107" lon="-120.093102"><ele>2640.6</ele><time>2026-09-24T22:56:24Z</time></trkpt>
<trkpt lat="38.894158" lon="-120.093145"><ele>2644.2</ele><time>2026-09-24T22:56:31Z</time></trkpt>
<trkpt lat="38.894163" lon="-120.093218"><ele>2646.6</ele><time>2026-09-24T22:56:39Z</time></trkpt>
<trkpt lat="38.894116" lon="-120.093253"><ele>2649.6</ele><time>2026-09-24T22:56:43Z</time></trkpt>
<trkpt lat="38.893873" lon="-120.093400"><ele>2651.0</ele><time>2026-09-24T22:57:09Z</time></trkpt>
<trkpt lat="38.893607" lon="-120.093412"><ele>2660.0</ele><time>2026-09-24T22:57:36Z</time></trkpt>
<trkpt lat="38.893578" lon="-120.093451"><ele>2661.4</ele><time>2026-09-24T22:57:41Z</time></trkpt>
<trkpt lat="38.893590" lon="-120.093519"><ele>2659.0</ele><time>2026-09-24T22:57:47Z</time></trkpt>
<trkpt lat="38.893698" lon="-120.093644"><ele>2666.2</ele><time>2026-09-24T22:58:00Z</time></trkpt>
<trkpt lat="38.893739" lon="-120.093698"><ele>2661.6</ele><time>2026-09-24T22:58:05Z</time></trkpt>
<trkpt lat="38.893887" lon="-120.093878"><ele>2664.6</ele><time>2026-09-24T22:58:22Z</time></trkpt>
<trkpt lat="38.893947" lon="-120.093990"><ele>2664.2</ele><time>2026-09-24T22:58:30Z</time></trkpt>
<trkpt lat="38.894108" lon="-120.094149"><ele>2665.0</ele><time>2026-09-24T22:58:46Z</time></trkpt>
<trkpt lat="38.894183" lon="-120.094423"><ele>2664.2</ele><time>2026-09-24T22:59:05Z</time></trkpt>
<trkpt lat="38.894302" lon="-120.094810"><ele>2667.8</ele><time>2026-09-24T22:59:34Z</time></trkpt>
<trkpt lat="38.894330" lon="-120.094996"><ele>2669.6</ele><time>2026-09-24T22:59:47Z</time></trkpt>
<trkpt lat="38.894318" lon="-120.095141"><ele>2669.8</ele><time>2026-09-24T22:59:56Z</time></trkpt>
<trkpt lat="38.894356" lon="-120.095351"><ele>2669.8</ele><time>2026-09-24T23:00:09Z</time></trkpt>
<trkpt lat="38.894446" lon="-120.095435"><ele>2673.0</ele><time>2026-09-24T23:00:22Z</time></trkpt>
<trkpt lat="38.894470" lon="-120.095527"><ele>2674.6</ele><time>2026-09-24T23:00:31Z</time></trkpt>
<trkpt lat="38.894553" lon="-120.095605"><ele>2676.8</ele><time>2026-09-24T23:00:43Z</time></trkpt>
<trkpt lat="38.894620" lon="-120.095706"><ele>2679.4</ele><time>2026-09-24T23:00:56Z</time></trkpt>
<trkpt lat="38.894629" lon="-120.095784"><ele>2679.8</ele><time>2026-09-24T23:01:02Z</time></trkpt>
<trkpt lat="38.894718" lon="-120.095890"><ele>2683.2</ele><time>2026-09-24T23:01:18Z</time></trkpt>
<trkpt lat="38.894820" lon="-120.096243"><ele>2686.8</ele><time>2026-09-24T23:01:47Z</time></trkpt>
<trkpt lat="38.894917" lon="-120.096285"><ele>2689.4</ele><time>2026-09-24T23:01:58Z</time></trkpt>
<trkpt lat="38.894904" lon="-120.096334"><ele>2690.4</ele><time>2026-09-24T23:02:05Z</time></trkpt>
<trkpt lat="38.894935" lon="-120.096376"><ele>2691.6</ele><time>2026-09-24T23:02:10Z</time></trkpt>
<trkpt lat="38.895102" lon="-120.096475"><ele>2697.4</ele><time>2026-09-24T23:02:33Z</time></trkpt>
<trkpt lat="38.895210" lon="-120.096397"><ele>2698.0</ele><time>2026-09-24T23:02:45Z</time></trkpt>
<trkpt lat="38.895345" lon="-120.096514"><ele>2700.8</ele><time>2026-09-24T23:02:59Z</time></trkpt>
<trkpt lat="38.895488" lon="-120.096467"><ele>2703.2</ele><time>2026-09-24T23:03:11Z</time></trkpt>
<trkpt lat="38.895548" lon="-120.096480"><ele>2703.6</ele><time>2026-09-24T23:03:17Z</time></trkpt>
<trkpt lat="38.895597" lon="-120.096539"><ele>2704.6</ele><time>2026-09-24T23:03:23Z</time></trkpt>
<trkpt lat="38.895684" lon="-120.096500"><ele>2707.0</ele><time>2026-09-24T23:03:33Z</time></trkpt>
<trkpt lat="38.895816" lon="-120.096500"><ele>2712.2</ele><time>2026-09-24T23:03:53Z</time></trkpt>
<trkpt lat="38.895975" lon="-120.096540"><ele>2714.6</ele><time>2026-09-24T23:05:05Z</time></trkpt>
<trkpt lat="38.896152" lon="-120.096723"><ele>2721.2</ele><time>2026-09-24T23:05:30Z</time></trkpt>
<trkpt lat="38.896237" lon="-120.096703"><ele>2722.6</ele><time>2026-09-24T23:05:43Z</time></trkpt>
<trkpt lat="38.896293" lon="-120.096750"><ele>2726.0</ele><time>2026-09-24T23:05:52Z</time></trkpt>
<trkpt lat="38.896380" lon="-120.096921"><ele>2730.0</ele><time>2026-09-24T23:06:10Z</time></trkpt>
<trkpt lat="38.896560" lon="-120.097097"><ele>2736.0</ele><time>2026-09-24T23:06:33Z</time></trkpt>
<trkpt lat="38.896706" lon="-120.097130"><ele>2739.0</ele><time>2026-09-24T23:06:48Z</time></trkpt>
<trkpt lat="38.896747" lon="-120.097228"><ele>2741.4</ele><time>2026-09-24T23:06:58Z</time></trkpt>
<trkpt lat="38.896835" lon="-120.097193"><ele>2743.2</ele><time>2026-09-24T23:07:08Z</time></trkpt>
<trkpt lat="38.896916" lon="-120.097275"><ele>2747.0</ele><time>2026-09-24T23:07:18Z</time></trkpt>
<trkpt lat="38.897000" lon="-120.097302"><ele>2748.2</ele><time>2026-09-24T23:07:26Z</time></trkpt>
<trkpt lat="38.897083" lon="-120.097398"><ele>2750.4</ele><time>2026-09-24T23:07:36Z</time></trkpt>
<trkpt lat="38.897207" lon="-120.097308"><ele>2754.4</ele><time>2026-09-24T23:07:48Z</time></trkpt>
<trkpt lat="38.897327" lon="-120.097516"><ele>2758.4</ele><time>2026-09-24T23:08:07Z</time></trkpt>
<trkpt lat="38.897409" lon="-120.097575"><ele>2760.8</ele><time>2026-09-24T23:08:17Z</time></trkpt>
<trkpt lat="38.897492" lon="-120.097575"><ele>2762.6</ele><time>2026-09-24T23:08:24Z</time></trkpt>
<trkpt lat="38.897705" lon="-120.097724"><ele>2768.6</ele><time>2026-09-24T23:08:52Z</time></trkpt>
<trkpt lat="38.897874" lon="-120.097736"><ele>2771.8</ele><time>2026-09-24T23:09:09Z</time></trkpt>
<trkpt lat="38.897941" lon="-120.097708"><ele>2773.6</ele><time>2026-09-24T23:09:16Z</time></trkpt>
<trkpt lat="38.898084" lon="-120.097736"><ele>2775.8</ele><time>2026-09-24T23:09:28Z</time></trkpt>
<trkpt lat="38.898295" lon="-120.097857"><ele>2778.0</ele><time>2026-09-24T23:09:48Z</time></trkpt>
<trkpt lat="38.898468" lon="-120.098039"><ele>2781.4</ele><time>2026-09-24T23:10:06Z</time></trkpt>
<trkpt lat="38.898732" lon="-120.098223"><ele>2786.2</ele><time>2026-09-24T23:10:31Z</time></trkpt>
<trkpt lat="38.899188" lon="-120.098458"><ele>2791.2</ele><time>2026-09-24T23:11:10Z</time></trkpt>
<trkpt lat="38.899729" lon="-120.098843"><ele>2796.0</ele><time>2026-09-24T23:11:57Z</time></trkpt>
<trkpt lat="38.900595" lon="-120.099281"><ele>2804.8</ele><time>2026-09-24T23:13:08Z</time></trkpt>
<trkpt lat="38.900972" lon="-120.099434"><ele>2813.8</ele><time>2026-09-24T23:13:50Z</time></trkpt>
<trkpt lat="38.901201" lon="-120.099482"><ele>2819.4</ele><time>2026-09-24T23:14:13Z</time></trkpt>
<trkpt lat="38.901421" lon="-120.099680"><ele>2824.6</ele><time>2026-09-24T23:14:40Z</time></trkpt>
<trkpt lat="38.901774" lon="-120.099862"><ele>2830.6</ele><time>2026-09-24T23:15:14Z</time></trkpt>
<trkpt lat="38.901882" lon="-120.100027"><ele>2832.0</ele><time>2026-09-24T23:15:28Z</time></trkpt>
<trkpt lat="38.902106" lon="-120.100202"><ele>2835.0</ele><time>2026-09-24T23:15:49Z</time></trkpt>
<trkpt lat="38.902181" lon="-120.100398"><ele>2836.2</ele><time>2026-09-24T23:16:02Z</time></trkpt>
<trkpt lat="38.902375" lon="-120.100635"><ele>2837.0</ele><time>2026-09-24T23:16:22Z</time></trkpt>
<trkpt lat="38.902442" lon="-120.100801"><ele>2838.4</ele><time>2026-09-24T23:16:33Z</time></trkpt>
<trkpt lat="38.902663" lon="-120.100996"><ele>2839.2</ele><time>2026-09-24T23:16:54Z</time></trkpt>
<trkpt lat="38.902734" lon="-120.101129"><ele>2840.4</ele><time>2026-09-24T23:17:06Z</time></trkpt>
<trkpt lat="38.902823" lon="-120.101184"><ele>2841.6</ele><time>2026-09-24T23:17:16Z</time></trkpt>
<trkpt lat="38.903002" lon="-120.101184"><ele>2846.2</ele><time>2026-09-24T23:17:38Z</time></trkpt>
<trkpt lat="38.903041" lon="-120.101231"><ele>2846.4</ele><time>2026-09-24T23:17:43Z</time></trkpt>
<trkpt lat="38.903123" lon="-120.101146"><ele>2849.4</ele><time>2026-09-24T23:17:59Z</time></trkpt>
<trkpt lat="38.903336" lon="-120.101187"><ele>2854.0</ele><time>2026-09-24T23:18:23Z</time></trkpt>
<trkpt lat="38.903588" lon="-120.101109"><ele>2858.4</ele><time>2026-09-24T23:18:53Z</time></trkpt>
<trkpt lat="38.903793" lon="-120.100809"><ele>2867.0</ele><time>2026-09-24T23:20:02Z</time></trkpt>
<trkpt lat="38.903804" lon="-120.100689"><ele>2869.6</ele><time>2026-09-24T23:20:16Z</time></trkpt>
<trkpt lat="38.903691" lon="-120.100327"><ele>2874.8</ele><time>2026-09-24T23:20:48Z</time></trkpt>
<trkpt lat="38.903814" lon="-120.100161"><ele>2877.6</ele><time>2026-09-24T23:21:05Z</time></trkpt>
<trkpt lat="38.903861" lon="-120.099977"><ele>2881.8</ele><time>2026-09-24T23:21:25Z</time></trkpt>
<trkpt lat="38.904015" lon="-120.099898"><ele>2887.0</ele><time>2026-09-24T23:21:51Z</time></trkpt>
<trkpt lat="38.904163" lon="-120.099874"><ele>2890.4</ele><time>2026-09-24T23:22:12Z</time></trkpt>
<trkpt lat="38.904221" lon="-120.099804"><ele>2891.8</ele><time>2026-09-24T23:22:19Z</time></trkpt>
<trkpt lat="38.904252" lon="-120.099316"><ele>2899.4</ele><time>2026-09-24T23:23:01Z</time></trkpt>
<trkpt lat="38.904203" lon="-120.099261"><ele>2900.4</ele><time>2026-09-24T23:23:07Z</time></trkpt>
<trkpt lat="38.904161" lon="-120.099083"><ele>2901.0</ele><time>2026-09-24T23:23:20Z</time></trkpt>
<trkpt lat="38.904038" lon="-120.098789"><ele>2904.4</ele><time>2026-09-24T23:23:42Z</time></trkpt>
<trkpt lat="38.904003" lon="-120.098586"><ele>2905.6</ele><time>2026-09-24T23:23:57Z</time></trkpt>
<trkpt lat="38.904050" lon="-120.098524"><ele>2906.0</ele><time>2026-09-24T23:24:03Z</time></trkpt>
<trkpt lat="38.904229" lon="-120.098486"><ele>2910.2</ele><time>2026-09-24T23:24:23Z</time></trkpt>
<trkpt lat="38.904298" lon="-120.098517"><ele>2912.6</ele><time>2026-09-24T23:24:31Z</time></trkpt>
<trkpt lat="38.904511" lon="-120.098423"><ele>2919.2</ele><time>2026-09-24T23:24:58Z</time></trkpt>
<trkpt lat="38.904517" lon="-120.098316"><ele>2920.2</ele><time>2026-09-24T23:25:06Z</time></trkpt>
<trkpt lat="38.904596" lon="-120.098208"><ele>2920.8</ele><time>2026-09-24T23:25:17Z</time></trkpt>
<trkpt lat="38.904774" lon="-120.098107"><ele>2924.4</ele><time>2026-09-24T23:25:38Z</time></trkpt>
<trkpt lat="38.904888" lon="-120.098142"><ele>2928.8</ele><time>2026-09-24T23:25:51Z</time></trkpt>
<trkpt lat="38.904909" lon="-120.098029"><ele>2929.2</ele><time>2026-09-24T23:27:30Z</time></trkpt>
<trkpt lat="38.904876" lon="-120.098093"><ele>2929.6</ele><time>2026-09-24T23:27:37Z</time></trkpt>
<trkpt lat="38.904976" lon="-120.098202"><ele>2931.2</ele><time>2026-09-24T23:27:50Z</time></trkpt>
<trkpt lat="38.905113" lon="-120.098284"><ele>2935.8</ele><time>2026-09-24T23:28:06Z</time></trkpt>
<trkpt lat="38.905151" lon="-120.098406"><ele>2941.6</ele><time>2026-09-24T23:28:28Z</time></trkpt>
<trkpt lat="38.905303" lon="-120.098495"><ele>2946.4</ele><time>2026-09-24T23:29:00Z</time></trkpt>
<trkpt lat="38.905400" lon="-120.098698"><ele>2952.6</ele><time>2026-09-24T23:29:31Z</time></trkpt>
<trkpt lat="38.905521" lon="-120.098767"><ele>2953.0</ele><time>2026-09-24T23:29:44Z</time></trkpt>
<trkpt lat="38.905674" lon="-120.098765"><ele>2955.0</ele><time>2026-09-24T23:29:59Z</time></trkpt>
<trkpt lat="38.905756" lon="-120.098903"><ele>2958.4</ele><time>2026-09-24T23:30:18Z</time></trkpt>
<trkpt lat="38.905857" lon="-120.098901"><ele>2958.0</ele><time>2026-09-24T23:30:30Z</time></trkpt>
<trkpt lat="38.905950" lon="-120.098973"><ele>2961.8</ele><time>2026-09-24T23:30:45Z</time></trkpt>
<trkpt lat="38.905979" lon="-120.098991"><ele>2966.6</ele><time>2026-09-24T23:39:01Z</time></trkpt>
<trkpt lat="38.905963" lon="-120.098981"><ele>2964.6</ele><time>2026-09-24T23:39:08Z</time></trkpt>
<trkpt lat="38.905925" lon="-120.099013"><ele>2966.0</ele><time>2026-09-24T23:39:15Z</time></trkpt>
<trkpt lat="38.905889" lon="-120.098972"><ele>2965.0</ele><time>2026-09-24T23:39:21Z</time></trkpt>
<trkpt lat="38.905857" lon="-120.098933"><ele>2959.2</ele><time>2026-09-24T23:39:29Z</time></trkpt>
<trkpt lat="38.905766" lon="-120.098902"><ele>2959.2</ele><time>2026-09-24T23:39:38Z</time></trkpt>
<trkpt lat="38.905745" lon="-120.098886"><ele>2956.4</ele><time>2026-09-24T23:39:45Z</time></trkpt>
<trkpt lat="38.905667" lon="-120.098753"><ele>2952.6</ele><time>2026-09-24T23:40:05Z</time></trkpt>
<trkpt lat="38.905554" lon="-120.098685"><ele>2950.4</ele><time>2026-09-24T23:40:17Z</time></trkpt>
<trkpt lat="38.905481" lon="-120.098584"><ele>2950.8</ele><time>2026-09-24T23:40:28Z</time></trkpt>
<trkpt lat="38.905401" lon="-120.098617"><ele>2949.2</ele><time>2026-09-24T23:40:40Z</time></trkpt>
<trkpt lat="38.905236" lon="-120.098421"><ele>2942.2</ele><time>2026-09-24T23:41:16Z</time></trkpt>
<trkpt lat="38.905150" lon="-120.098406"><ele>2940.2</ele><time>2026-09-24T23:41:32Z</time></trkpt>
<trkpt lat="38.905107" lon="-120.098280"><ele>2933.4</ele><time>2026-09-24T23:41:56Z</time></trkpt>
<trkpt lat="38.904946" lon="-120.098187"><ele>2930.0</ele><time>2026-09-24T23:42:12Z</time></trkpt>
<trkpt lat="38.904885" lon="-120.098103"><ele>2927.2</ele><time>2026-09-24T23:42:19Z</time></trkpt>
<trkpt lat="38.904767" lon="-120.098114"><ele>2925.0</ele><time>2026-09-24T23:42:32Z</time></trkpt>
<trkpt lat="38.904610" lon="-120.098183"><ele>2920.8</ele><time>2026-09-24T23:42:48Z</time></trkpt>
<trkpt lat="38.904536" lon="-120.098277"><ele>2920.6</ele><time>2026-09-24T23:42:55Z</time></trkpt>
<trkpt lat="38.904495" lon="-120.098489"><ele>2918.8</ele><time>2026-09-24T23:43:08Z</time></trkpt>
<trkpt lat="38.904425" lon="-120.098459"><ele>2918.6</ele><time>2026-09-24T23:43:16Z</time></trkpt>
<trkpt lat="38.904317" lon="-120.098492"><ele>2913.2</ele><time>2026-09-24T23:43:29Z</time></trkpt>
<trkpt lat="38.904042" lon="-120.098506"><ele>2907.6</ele><time>2026-09-24T23:43:54Z</time></trkpt>
<trkpt lat="38.903990" lon="-120.098577"><ele>2906.2</ele><time>2026-09-24T23:43:58Z</time></trkpt>
<trkpt lat="38.903990" lon="-120.098645"><ele>2905.8</ele><time>2026-09-24T23:44:01Z</time></trkpt>
<trkpt lat="38.904031" lon="-120.098706"><ele>2905.2</ele><time>2026-09-24T23:44:06Z</time></trkpt>
<trkpt lat="38.904053" lon="-120.098873"><ele>2902.6</ele><time>2026-09-24T23:44:16Z</time></trkpt>
<trkpt lat="38.904162" lon="-120.099091"><ele>2901.6</ele><time>2026-09-24T23:44:31Z</time></trkpt>
<trkpt lat="38.904176" lon="-120.099213"><ele>2901.8</ele><time>2026-09-24T23:44:38Z</time></trkpt>
<trkpt lat="38.904229" lon="-120.099332"><ele>2901.0</ele><time>2026-09-24T23:44:48Z</time></trkpt>
<trkpt lat="38.904208" lon="-120.099758"><ele>2893.2</ele><time>2026-09-24T23:45:14Z</time></trkpt>
<trkpt lat="38.904136" lon="-120.099881"><ele>2891.4</ele><time>2026-09-24T23:45:25Z</time></trkpt>
<trkpt lat="38.904053" lon="-120.099867"><ele>2888.6</ele><time>2026-09-24T23:45:34Z</time></trkpt>
<trkpt lat="38.903836" lon="-120.099968"><ele>2883.8</ele><time>2026-09-24T23:45:54Z</time></trkpt>
<trkpt lat="38.903804" lon="-120.100181"><ele>2878.2</ele><time>2026-09-24T23:46:06Z</time></trkpt>
<trkpt lat="38.903699" lon="-120.100321"><ele>2876.2</ele><time>2026-09-24T23:46:18Z</time></trkpt>
<trkpt lat="38.903703" lon="-120.100408"><ele>2875.0</ele><time>2026-09-24T23:46:23Z</time></trkpt>
<trkpt lat="38.903762" lon="-120.100513"><ele>2873.6</ele><time>2026-09-24T23:46:29Z</time></trkpt>
<trkpt lat="38.903777" lon="-120.100813"><ele>2867.4</ele><time>2026-09-24T23:46:51Z</time></trkpt>
<trkpt lat="38.903585" lon="-120.101097"><ele>2859.6</ele><time>2026-09-24T23:47:18Z</time></trkpt>
<trkpt lat="38.903455" lon="-120.101135"><ele>2854.4</ele><time>2026-09-24T23:47:30Z</time></trkpt>
<trkpt lat="38.903258" lon="-120.101173"><ele>2853.0</ele><time>2026-09-24T23:47:42Z</time></trkpt>
<trkpt lat="38.903153" lon="-120.101126"><ele>2849.0</ele><time>2026-09-24T23:47:52Z</time></trkpt>
<trkpt lat="38.903112" lon="-120.101137"><ele>2848.4</ele><time>2026-09-24T23:47:56Z</time></trkpt>
<trkpt lat="38.903063" lon="-120.101215"><ele>2846.4</ele><time>2026-09-24T23:48:03Z</time></trkpt>
<trkpt lat="38.902979" lon="-120.101165"><ele>2842.8</ele><time>2026-09-24T23:48:12Z</time></trkpt>
<trkpt lat="38.902800" lon="-120.101174"><ele>2838.4</ele><time>2026-09-24T23:48:27Z</time></trkpt>
<trkpt lat="38.902739" lon="-120.101128"><ele>2836.8</ele><time>2026-09-24T23:48:32Z</time></trkpt>
<trkpt lat="38.902677" lon="-120.100998"><ele>2834.2</ele><time>2026-09-24T23:48:44Z</time></trkpt>
<trkpt lat="38.902459" lon="-120.100805"><ele>2834.8</ele><time>2026-09-24T23:49:04Z</time></trkpt>
<trkpt lat="38.902381" lon="-120.100629"><ele>2834.0</ele><time>2026-09-24T23:49:15Z</time></trkpt>
<trkpt lat="38.902274" lon="-120.100534"><ele>2833.8</ele><time>2026-09-24T23:49:24Z</time></trkpt>
<trkpt lat="38.902082" lon="-120.100176"><ele>2834.6</ele><time>2026-09-24T23:49:49Z</time></trkpt>
<trkpt lat="38.901889" lon="-120.100015"><ele>2831.6</ele><time>2026-09-24T23:50:06Z</time></trkpt>
<trkpt lat="38.901787" lon="-120.099860"><ele>2830.4</ele><time>2026-09-24T23:50:18Z</time></trkpt>
<trkpt lat="38.901443" lon="-120.099662"><ele>2825.4</ele><time>2026-09-24T23:50:43Z</time></trkpt>
<trkpt lat="38.901225" lon="-120.099487"><ele>2819.8</ele><time>2026-09-24T23:51:02Z</time></trkpt>
<trkpt lat="38.900954" lon="-120.099418"><ele>2814.0</ele><time>2026-09-24T23:51:22Z</time></trkpt>
<trkpt lat="38.900849" lon="-120.099359"><ele>2809.0</ele><time>2026-09-24T23:51:33Z</time></trkpt>
<trkpt lat="38.900311" lon="-120.099165"><ele>2800.0</ele><time>2026-09-24T23:52:39Z</time></trkpt>
<trkpt lat="38.900180" lon="-120.099069"><ele>2798.6</ele><time>2026-09-24T23:52:53Z</time></trkpt>
<trkpt lat="38.899778" lon="-120.098877"><ele>2799.4</ele><time>2026-09-24T23:53:09Z</time></trkpt>
<trkpt lat="38.899449" lon="-120.098666"><ele>2797.2</ele><time>2026-09-24T23:53:23Z</time></trkpt>
<trkpt lat="38.899319" lon="-120.098546"><ele>2795.4</ele><time>2026-09-24T23:53:29Z</time></trkpt>
<trkpt lat="38.898828" lon="-120.098255"><ele>2788.8</ele><time>2026-09-24T23:54:06Z</time></trkpt>
<trkpt lat="38.898752" lon="-120.098250"><ele>2788.2</ele><time>2026-09-24T23:54:11Z</time></trkpt>
<trkpt lat="38.898636" lon="-120.098140"><ele>2786.2</ele><time>2026-09-24T23:54:20Z</time></trkpt>
<trkpt lat="38.898533" lon="-120.098092"><ele>2783.8</ele><time>2026-09-24T23:54:27Z</time></trkpt>
<trkpt lat="38.898291" lon="-120.097843"><ele>2779.4</ele><time>2026-09-24T23:54:48Z</time></trkpt>
<trkpt lat="38.898113" lon="-120.097741"><ele>2779.0</ele><time>2026-09-24T23:55:02Z</time></trkpt>
<trkpt lat="38.897917" lon="-120.097695"><ele>2775.8</ele><time>2026-09-24T23:55:15Z</time></trkpt>
<trkpt lat="38.897680" lon="-120.097692"><ele>2771.2</ele><time>2026-09-24T23:55:34Z</time></trkpt>
<trkpt lat="38.897593" lon="-120.097606"><ele>2768.4</ele><time>2026-09-24T23:55:43Z</time></trkpt>
<trkpt lat="38.897313" lon="-120.097506"><ele>2761.8</ele><time>2026-09-24T23:56:06Z</time></trkpt>
<trkpt lat="38.897218" lon="-120.097295"><ele>2758.6</ele><time>2026-09-24T23:56:22Z</time></trkpt>
<trkpt lat="38.897155" lon="-120.097346"><ele>2757.0</ele><time>2026-09-24T23:56:27Z</time></trkpt>
<trkpt lat="38.897060" lon="-120.097358"><ele>2755.8</ele><time>2026-09-24T23:56:34Z</time></trkpt>
<trkpt lat="38.897005" lon="-120.097271"><ele>2753.6</ele><time>2026-09-24T23:56:41Z</time></trkpt>
<trkpt lat="38.896912" lon="-120.097259"><ele>2753.8</ele><time>2026-09-24T23:56:46Z</time></trkpt>
<trkpt lat="38.896820" lon="-120.097173"><ele>2750.8</ele><time>2026-09-24T23:56:58Z</time></trkpt>
<trkpt lat="38.896751" lon="-120.097219"><ele>2748.8</ele><time>2026-09-24T23:57:04Z</time></trkpt>
<trkpt lat="38.896707" lon="-120.097122"><ele>2746.8</ele><time>2026-09-24T23:57:12Z</time></trkpt>
<trkpt lat="38.896567" lon="-120.097073"><ele>2742.8</ele><time>2026-09-24T23:57:25Z</time></trkpt>
<trkpt lat="38.896413" lon="-120.096926"><ele>2736.0</ele><time>2026-09-24T23:57:44Z</time></trkpt>
<trkpt lat="38.896285" lon="-120.096727"><ele>2732.0</ele><time>2026-09-24T23:58:01Z</time></trkpt>
<trkpt lat="38.896226" lon="-120.096678"><ele>2730.2</ele><time>2026-09-24T23:58:08Z</time></trkpt>
<trkpt lat="38.896193" lon="-120.096713"><ele>2729.0</ele><time>2026-09-24T23:58:11Z</time></trkpt>
<trkpt lat="38.896107" lon="-120.096682"><ele>2727.0</ele><time>2026-09-24T23:58:21Z</time></trkpt>
<trkpt lat="38.895976" lon="-120.096528"><ele>2722.8</ele><time>2026-09-24T23:58:38Z</time></trkpt>
<trkpt lat="38.895919" lon="-120.096536"><ele>2721.0</ele><time>2026-09-24T23:58:43Z</time></trkpt>
<trkpt lat="38.895827" lon="-120.096485"><ele>2718.6</ele><time>2026-09-24T23:58:53Z</time></trkpt>
<trkpt lat="38.895746" lon="-120.096559"><ele>2717.4</ele><time>2026-09-24T23:59:02Z</time></trkpt>
<trkpt lat="38.895727" lon="-120.096510"><ele>2715.6</ele><time>2026-09-24T23:59:06Z</time></trkpt>
<trkpt lat="38.895619" lon="-120.096524"><ele>2713.6</ele><time>2026-09-24T23:59:16Z</time></trkpt>
<trkpt lat="38.895522" lon="-120.096469"><ele>2711.2</ele><time>2026-09-24T23:59:25Z</time></trkpt>
<trkpt lat="38.895336" lon="-120.096494"><ele>2709.4</ele><time>2026-09-24T23:59:42Z</time></trkpt>
<trkpt lat="38.895209" lon="-120.096380"><ele>2706.6</ele><time>2026-09-24T23:59:54Z</time></trkpt>
<trkpt lat="38.895114" lon="-120.096467"><ele>2705.4</ele><time>2026-09-25T00:00:05Z</time></trkpt>
<trkpt lat="38.895031" lon="-120.096404"><ele>2701.8</ele><time>2026-09-25T00:00:15Z</time></trkpt>
<trkpt lat="38.894865" lon="-120.096376"><ele>2696.4</ele><time>2026-09-25T00:00:34Z</time></trkpt>
<trkpt lat="38.894765" lon="-120.096103"><ele>2690.2</ele><time>2026-09-25T00:00:54Z</time></trkpt>
<trkpt lat="38.894711" lon="-120.095876"><ele>2687.8</ele><time>2026-09-25T00:01:08Z</time></trkpt>
<trkpt lat="38.894645" lon="-120.095803"><ele>2685.8</ele><time>2026-09-25T00:01:16Z</time></trkpt>
<trkpt lat="38.894552" lon="-120.095604"><ele>2681.2</ele><time>2026-09-25T00:01:34Z</time></trkpt>
<trkpt lat="38.894454" lon="-120.095496"><ele>2679.6</ele><time>2026-09-25T00:01:46Z</time></trkpt>
<trkpt lat="38.894460" lon="-120.095457"><ele>2679.0</ele><time>2026-09-25T00:01:50Z</time></trkpt>
<trkpt lat="38.894379" lon="-120.095388"><ele>2674.0</ele><time>2026-09-25T00:02:05Z</time></trkpt>
<trkpt lat="38.894351" lon="-120.095329"><ele>2673.6</ele><time>2026-09-25T00:02:09Z</time></trkpt>
<trkpt lat="38.894338" lon="-120.094998"><ele>2670.4</ele><time>2026-09-25T00:02:28Z</time></trkpt>
<trkpt lat="38.894235" lon="-120.094521"><ele>2667.8</ele><time>2026-09-25T00:03:01Z</time></trkpt>
<trkpt lat="38.894159" lon="-120.094372"><ele>2668.6</ele><time>2026-09-25T00:03:12Z</time></trkpt>
<trkpt lat="38.894100" lon="-120.094139"><ele>2669.8</ele><time>2026-09-25T00:03:28Z</time></trkpt>
<trkpt lat="38.894040" lon="-120.094050"><ele>2670.2</ele><time>2026-09-25T00:03:35Z</time></trkpt>
<trkpt lat="38.893933" lon="-120.093977"><ele>2669.8</ele><time>2026-09-25T00:03:45Z</time></trkpt>
<trkpt lat="38.893901" lon="-120.093905"><ele>2668.2</ele><time>2026-09-25T00:03:50Z</time></trkpt>
<trkpt lat="38.893607" lon="-120.093556"><ele>2668.6</ele><time>2026-09-25T00:04:22Z</time></trkpt>
<trkpt lat="38.893579" lon="-120.093458"><ele>2666.4</ele><time>2026-09-25T00:04:31Z</time></trkpt>
<trkpt lat="38.893657" lon="-120.093396"><ele>2661.6</ele><time>2026-09-25T00:05:37Z</time></trkpt>
<trkpt lat="38.893870" lon="-120.093423"><ele>2655.8</ele><time>2026-09-25T00:05:55Z</time></trkpt>
<trkpt lat="38.894041" lon="-120.093277"><ele>2650.2</ele><time>2026-09-25T00:06:12Z</time></trkpt>
<trkpt lat="38.894153" lon="-120.093234"><ele>2648.6</ele><time>2026-09-25T00:06:21Z</time></trkpt>
<trkpt lat="38.894186" lon="-120.093178"><ele>2647.8</ele><time>2026-09-25T00:06:27Z</time></trkpt>
<trkpt lat="38.894160" lon="-120.093133"><ele>2646.4</ele><time>2026-09-25T00:06:31Z</time></trkpt>
<trkpt lat="38.893845" lon="-120.092905"><ele>2636.4</ele><time>2026-09-25T00:07:02Z</time></trkpt>
<trkpt lat="38.894060" lon="-120.092893"><ele>2636.0</ele><time>2026-09-25T00:07:20Z</time></trkpt>
<trkpt lat="38.894092" lon="-120.092838"><ele>2634.0</ele><time>2026-09-25T00:07:25Z</time></trkpt>
<trkpt lat="38.894202" lon="-120.092805"><ele>2632.8</ele><time>2026-09-25T00:07:34Z</time></trkpt>
<trkpt lat="38.894381" lon="-120.092658"><ele>2628.2</ele><time>2026-09-25T00:07:50Z</time></trkpt>
<trkpt lat="38.894639" lon="-120.092300"><ele>2620.4</ele><time>2026-09-25T00:08:26Z</time></trkpt>
<trkpt lat="38.894695" lon="-120.092199"><ele>2616.2</ele><time>2026-09-25T00:08:35Z</time></trkpt>
<trkpt lat="38.894785" lon="-120.092112"><ele>2614.0</ele><time>2026-09-25T00:08:46Z</time></trkpt>
<trkpt lat="38.894843" lon="-120.091980"><ele>2611.6</ele><time>2026-09-25T00:09:01Z</time></trkpt>
<trkpt lat="38.895017" lon="-120.091830"><ele>2608.2</ele><time>2026-09-25T00:09:23Z</time></trkpt>
<trkpt lat="38.895310" lon="-120.091298"><ele>2595.4</ele><time>2026-09-25T00:10:21Z</time></trkpt>
<trkpt lat="38.895452" lon="-120.091212"><ele>2594.8</ele><time>2026-09-25T00:10:40Z</time></trkpt>
<trkpt lat="38.895565" lon="-120.091096"><ele>2589.8</ele><time>2026-09-25T00:10:55Z</time></trkpt>
<trkpt lat="38.895761" lon="-120.091022"><ele>2585.2</ele><time>2026-09-25T00:11:14Z</time></trkpt>
<trkpt lat="38.895876" lon="-120.090910"><ele>2581.8</ele><time>2026-09-25T00:11:26Z</time></trkpt>
<trkpt lat="38.895614" lon="-120.090862"><ele>2576.8</ele><time>2026-09-25T00:11:53Z</time></trkpt>
<trkpt lat="38.895578" lon="-120.090815"><ele>2574.4</ele><time>2026-09-25T00:11:59Z</time></trkpt>
<trkpt lat="38.895267" lon="-120.090719"><ele>2568.6</ele><time>2026-09-25T00:12:28Z</time></trkpt>
<trkpt lat="38.894997" lon="-120.090759"><ele>2564.4</ele><time>2026-09-25T00:12:51Z</time></trkpt>
<trkpt lat="38.894661" lon="-120.090980"><ele>2554.6</ele><time>2026-09-25T00:13:54Z</time></trkpt>
<trkpt lat="38.894530" lon="-120.091029"><ele>2551.8</ele><time>2026-09-25T00:14:08Z</time></trkpt>
<trkpt lat="38.894628" lon="-120.090583"><ele>2543.4</ele><time>2026-09-25T00:14:50Z</time></trkpt>
<trkpt lat="38.894744" lon="-120.090388"><ele>2540.0</ele><time>2026-09-25T00:15:08Z</time></trkpt>
<trkpt lat="38.894852" lon="-120.090099"><ele>2536.8</ele><time>2026-09-25T00:15:31Z</time></trkpt>
<trkpt lat="38.894836" lon="-120.089890"><ele>2533.2</ele><time>2026-09-25T00:15:50Z</time></trkpt>
<trkpt lat="38.894870" lon="-120.089713"><ele>2528.4</ele><time>2026-09-25T00:16:03Z</time></trkpt>
<trkpt lat="38.894815" lon="-120.089472"><ele>2524.8</ele><time>2026-09-25T00:16:22Z</time></trkpt>
<trkpt lat="38.894835" lon="-120.089273"><ele>2521.0</ele><time>2026-09-25T00:16:39Z</time></trkpt>
<trkpt lat="38.894607" lon="-120.089435"><ele>2517.8</ele><time>2026-09-25T00:17:01Z</time></trkpt>
<trkpt lat="38.894553" lon="-120.089588"><ele>2514.4</ele><time>2026-09-25T00:17:12Z</time></trkpt>
<trkpt lat="38.894408" lon="-120.089597"><ele>2512.2</ele><time>2026-09-25T00:17:23Z</time></trkpt>
<trkpt lat="38.894260" lon="-120.089684"><ele>2509.0</ele><time>2026-09-25T00:17:36Z</time></trkpt>
<trkpt lat="38.894042" lon="-120.089556"><ele>2504.4</ele><time>2026-09-25T00:17:59Z</time></trkpt>
<trkpt lat="38.893972" lon="-120.089443"><ele>2502.6</ele><time>2026-09-25T00:18:09Z</time></trkpt>
<trkpt lat="38.893799" lon="-120.089291"><ele>2497.6</ele><time>2026-09-25T00:18:28Z</time></trkpt>
<trkpt lat="38.893754" lon="-120.089176"><ele>2496.6</ele><time>2026-09-25T00:18:37Z</time></trkpt>
<trkpt lat="38.893774" lon="-120.089080"><ele>2495.6</ele><time>2026-09-25T00:18:45Z</time></trkpt>
<trkpt lat="38.894135" lon="-120.088604"><ele>2484.0</ele><time>2026-09-25T00:19:25Z</time></trkpt>
<trkpt lat="38.894203" lon="-120.087948"><ele>2472.4</ele><time>2026-09-25T00:20:10Z</time></trkpt>
<trkpt lat="38.894456" lon="-120.087232"><ele>2456.8</ele><time>2026-09-25T00:21:15Z</time></trkpt>
<trkpt lat="38.894492" lon="-120.087114"><ele>2451.6</ele><time>2026-09-25T00:21:26Z</time></trkpt>
<trkpt lat="38.894385" lon="-120.087019"><ele>2448.4</ele><time>2026-09-25T00:21:41Z</time></trkpt>
<trkpt lat="38.894290" lon="-120.087007"><ele>2446.2</ele><time>2026-09-25T00:21:48Z</time></trkpt>
<trkpt lat="38.894290" lon="-120.086971"><ele>2445.2</ele><time>2026-09-25T00:21:52Z</time></trkpt>
<trkpt lat="38.894430" lon="-120.086826"><ele>2441.4</ele><time>2026-09-25T00:22:09Z</time></trkpt>
<trkpt lat="38.894444" lon="-120.086694"><ele>2436.6</ele><time>2026-09-25T00:22:21Z</time></trkpt>
<trkpt lat="38.894497" lon="-120.086617"><ele>2434.2</ele><time>2026-09-25T00:22:30Z</time></trkpt>
<trkpt lat="38.894160" lon="-120.086330"><ele>2427.4</ele><time>2026-09-25T00:23:09Z</time></trkpt>
<trkpt lat="38.894008" lon="-120.086150"><ele>2421.6</ele><time>2026-09-25T00:23:28Z</time></trkpt>
<trkpt lat="38.893976" lon="-120.085978"><ele>2417.8</ele><time>2026-09-25T00:23:46Z</time></trkpt>
<trkpt lat="38.893789" lon="-120.085709"><ele>2418.4</ele><time>2026-09-25T00:24:07Z</time></trkpt>
<trkpt lat="38.893555" lon="-120.085513"><ele>2418.0</ele><time>2026-09-25T00:24:30Z</time></trkpt>
<trkpt lat="38.893532" lon="-120.085412"><ele>2416.8</ele><time>2026-09-25T00:24:36Z</time></trkpt>
<trkpt lat="38.893582" lon="-120.085163"><ele>2414.6</ele><time>2026-09-25T00:24:54Z</time></trkpt>
<trkpt lat="38.893656" lon="-120.085052"><ele>2412.2</ele><time>2026-09-25T00:25:03Z</time></trkpt>
<trkpt lat="38.893651" lon="-120.085000"><ele>2411.0</ele><time>2026-09-25T00:25:06Z</time></trkpt>
<trkpt lat="38.893705" lon="-120.084990"><ele>2409.0</ele><time>2026-09-25T00:25:12Z</time></trkpt>
<trkpt lat="38.893737" lon="-120.084692"><ele>2407.6</ele><time>2026-09-25T00:25:32Z</time></trkpt>
<trkpt lat="38.893850" lon="-120.084593"><ele>2403.8</ele><time>2026-09-25T00:25:46Z</time></trkpt>
<trkpt lat="38.893757" lon="-120.084492"><ele>2403.0</ele><time>2026-09-25T00:25:57Z</time></trkpt>
<trkpt lat="38.893659" lon="-120.084471"><ele>2401.4</ele><time>2026-09-25T00:26:06Z</time></trkpt>
<trkpt lat="38.893627" lon="-120.084421"><ele>2399.8</ele><time>2026-09-25T00:26:11Z</time></trkpt>
<trkpt lat="38.893748" lon="-120.084408"><ele>2397.0</ele><time>2026-09-25T00:26:21Z</time></trkpt>
<trkpt lat="38.893651" lon="-120.084275"><ele>2392.0</ele><time>2026-09-25T00:26:35Z</time></trkpt>
<trkpt lat="38.893848" lon="-120.084252"><ele>2387.8</ele><time>2026-09-25T00:26:50Z</time></trkpt>
<trkpt lat="38.894017" lon="-120.084143"><ele>2385.8</ele><time>2026-09-25T00:27:02Z</time></trkpt>
<trkpt lat="38.893992" lon="-120.084082"><ele>2383.4</ele><time>2026-09-25T00:27:07Z</time></trkpt>
<trkpt lat="38.893849" lon="-120.084063"><ele>2381.0</ele><time>2026-09-25T00:27:19Z</time></trkpt>
<trkpt lat="38.893765" lon="-120.083969"><ele>2378.4</ele><time>2026-09-25T00:27:32Z</time></trkpt>
<trkpt lat="38.893854" lon="-120.083693"><ele>2373.0</ele><time>2026-09-25T00:27:55Z</time></trkpt>
<trkpt lat="38.893907" lon="-120.083611"><ele>2370.8</ele><time>2026-09-25T00:28:02Z</time></trkpt>
<trkpt lat="38.893922" lon="-120.083470"><ele>2369.2</ele><time>2026-09-25T00:28:10Z</time></trkpt>
<trkpt lat="38.894050" lon="-120.083436"><ele>2367.0</ele><time>2026-09-25T00:28:21Z</time></trkpt>
<trkpt lat="38.894280" lon="-120.083463"><ele>2364.4</ele><time>2026-09-25T00:28:38Z</time></trkpt>
<trkpt lat="38.894319" lon="-120.083428"><ele>2362.6</ele><time>2026-09-25T00:28:42Z</time></trkpt>
<trkpt lat="38.894194" lon="-120.083220"><ele>2355.4</ele><time>2026-09-25T00:29:04Z</time></trkpt>
<trkpt lat="38.894163" lon="-120.083028"><ele>2348.6</ele><time>2026-09-25T00:29:22Z</time></trkpt>
<trkpt lat="38.894290" lon="-120.082726"><ele>2341.8</ele><time>2026-09-25T00:29:46Z</time></trkpt>
<trkpt lat="38.894264" lon="-120.082670"><ele>2340.6</ele><time>2026-09-25T00:29:50Z</time></trkpt>
<trkpt lat="38.894131" lon="-120.082587"><ele>2336.2</ele><time>2026-09-25T00:30:06Z</time></trkpt>
<trkpt lat="38.894298" lon="-120.082317"><ele>2330.8</ele><time>2026-09-25T00:30:32Z</time></trkpt>
<trkpt lat="38.894324" lon="-120.082329"><ele>2327.8</ele><time>2026-09-25T00:33:26Z</time></trkpt>
<trkpt lat="38.894456" lon="-120.082050"><ele>2328.0</ele><time>2026-09-25T00:33:46Z</time></trkpt>
<trkpt lat="38.894694" lon="-120.081923"><ele>2325.6</ele><time>2026-09-25T00:34:15Z</time></trkpt>
<trkpt lat="38.894848" lon="-120.081771"><ele>2326.2</ele><time>2026-09-25T00:34:31Z</time></trkpt>
<trkpt lat="38.894997" lon="-120.081843"><ele>2325.2</ele><time>2026-09-25T00:34:39Z</time></trkpt>
<trkpt lat="38.895155" lon="-120.081758"><ele>2325.4</ele><time>2026-09-25T00:34:49Z</time></trkpt>
<trkpt lat="38.895273" lon="-120.081743"><ele>2324.0</ele><time>2026-09-25T00:34:59Z</time></trkpt>
<trkpt lat="38.895496" lon="-120.081814"><ele>2319.2</ele><time>2026-09-25T00:35:10Z</time></trkpt>
<trkpt lat="38.895795" lon="-120.081694"><ele>2315.4</ele><time>2026-09-25T00:35:22Z</time></trkpt>
<trkpt lat="38.895890" lon="-120.081628"><ele>2309.0</ele><time>2026-09-25T00:35:43Z</time></trkpt>
<trkpt lat="38.896151" lon="-120.081597"><ele>2302.8</ele><time>2026-09-25T00:35:58Z</time></trkpt>
<trkpt lat="38.896499" lon="-120.081626"><ele>2297.6</ele><time>2026-09-25T00:36:17Z</time></trkpt>
<trkpt lat="38.896635" lon="-120.081668"><ele>2298.2</ele><time>2026-09-25T00:36:23Z</time></trkpt>
<trkpt lat="38.896788" lon="-120.081646"><ele>2297.2</ele><time>2026-09-25T00:36:29Z</time></trkpt>
<trkpt lat="38.896954" lon="-120.081447"><ele>2293.8</ele><time>2026-09-25T00:36:40Z</time></trkpt>
<trkpt lat="38.896984" lon="-120.081659"><ele>2291.4</ele><time>2026-09-25T00:36:53Z</time></trkpt>
<trkpt lat="38.897125" lon="-120.081754"><ele>2291.4</ele><time>2026-09-25T00:37:02Z</time></trkpt>
<trkpt lat="38.897219" lon="-120.081937"><ele>2291.4</ele><time>2026-09-25T00:37:16Z</time></trkpt>
<trkpt lat="38.897356" lon="-120.082121"><ele>2292.6</ele><time>2026-09-25T00:37:31Z</time></trkpt>
<trkpt lat="38.897430" lon="-120.082162"><ele>2294.0</ele><time>2026-09-25T00:37:38Z</time></trkpt>
<trkpt lat="38.897451" lon="-120.082240"><ele>2294.0</ele><time>2026-09-25T00:37:45Z</time></trkpt>
<trkpt lat="38.897545" lon="-120.082325"><ele>2295.8</ele><time>2026-09-25T00:37:56Z</time></trkpt>
<trkpt lat="38.897602" lon="-120.082433"><ele>2295.4</ele><time>2026-09-25T00:38:04Z</time></trkpt>
<trkpt lat="38.897780" lon="-120.082583"><ele>2290.4</ele><time>2026-09-25T00:38:23Z</time></trkpt>
<trkpt lat="38.897931" lon="-120.082442"><ele>2287.0</ele><time>2026-09-25T00:38:39Z</time></trkpt>
<trkpt lat="38.898121" lon="-120.082100"><ele>2281.4</ele><time>2026-09-25T00:39:02Z</time></trkpt>
<trkpt lat="38.898290" lon="-120.082149"><ele>2277.8</ele><time>2026-09-25T00:39:16Z</time></trkpt>
<trkpt lat="38.898369" lon="-120.082153"><ele>2277.8</ele><time>2026-09-25T00:39:20Z</time></trkpt>
<trkpt lat="38.898492" lon="-120.082082"><ele>2277.4</ele><time>2026-09-25T00:39:25Z</time></trkpt>
<trkpt lat="38.898787" lon="-120.082142"><ele>2274.6</ele><time>2026-09-25T00:39:39Z</time></trkpt>
<trkpt lat="38.899054" lon="-120.082116"><ele>2269.4</ele><time>2026-09-25T00:39:55Z</time></trkpt>
<trkpt lat="38.899370" lon="-120.081746"><ele>2259.8</ele><time>2026-09-25T00:40:27Z</time></trkpt>
<trkpt lat="38.899432" lon="-120.081626"><ele>2257.4</ele><time>2026-09-25T00:40:35Z</time></trkpt>
<trkpt lat="38.899476" lon="-120.081410"><ele>2253.8</ele><time>2026-09-25T00:40:48Z</time></trkpt>
<trkpt lat="38.899598" lon="-120.081225"><ele>2250.4</ele><time>2026-09-25T00:40:58Z</time></trkpt>
<trkpt lat="38.899675" lon="-120.081005"><ele>2248.8</ele><time>2026-09-25T00:41:05Z</time></trkpt>
<trkpt lat="38.899765" lon="-120.080899"><ele>2247.8</ele><time>2026-09-25T00:41:10Z</time></trkpt>
<trkpt lat="38.899794" lon="-120.080655"><ele>2246.4</ele><time>2026-09-25T00:41:21Z</time></trkpt>
<trkpt lat="38.899838" lon="-120.080575"><ele>2243.4</ele><time>2026-09-25T00:41:27Z</time></trkpt>
<trkpt lat="38.899722" lon="-120.080386"><ele>2243.4</ele><time>2026-09-25T00:41:37Z</time></trkpt>
<trkpt lat="38.899820" lon="-120.080334"><ele>2241.4</ele><time>2026-09-25T00:41:47Z</time></trkpt>
<trkpt lat="38.899838" lon="-120.080112"><ele>2239.0</ele><time>2026-09-25T00:41:59Z</time></trkpt>
<trkpt lat="38.899826" lon="-120.079830"><ele>2239.2</ele><time>2026-09-25T00:42:10Z</time></trkpt>
<trkpt lat="38.899935" lon="-120.079719"><ele>2239.0</ele><time>2026-09-25T00:42:15Z</time></trkpt>
<trkpt lat="38.900193" lon="-120.079560"><ele>2240.0</ele><time>2026-09-25T00:42:27Z</time></trkpt>
<trkpt lat="38.900239" lon="-120.079444"><ele>2239.8</ele><time>2026-09-25T00:42:32Z</time></trkpt>
<trkpt lat="38.900210" lon="-120.079275"><ele>2237.6</ele><time>2026-09-25T00:42:43Z</time></trkpt>
<trkpt lat="38.900282" lon="-120.079102"><ele>2231.8</ele><time>2026-09-25T00:43:00Z</time></trkpt>
<trkpt lat="38.900383" lon="-120.079063"><ele>2230.2</ele><time>2026-09-25T00:43:08Z</time></trkpt>
<trkpt lat="38.900339" lon="-120.078975"><ele>2229.8</ele><time>2026-09-25T00:43:15Z</time></trkpt>
<trkpt lat="38.900416" lon="-120.078977"><ele>2227.4</ele><time>2026-09-25T00:43:22Z</time></trkpt>
<trkpt lat="38.900544" lon="-120.078693"><ele>2224.0</ele><time>2026-09-25T00:43:39Z</time></trkpt>
<trkpt lat="38.900673" lon="-120.078569"><ele>2223.8</ele><time>2026-09-25T00:43:51Z</time></trkpt>
<trkpt lat="38.900708" lon="-120.078348"><ele>2223.0</ele><time>2026-09-25T00:44:04Z</time></trkpt>
<trkpt lat="38.900871" lon="-120.078319"><ele>2220.6</ele><time>2026-09-25T00:44:10Z</time></trkpt>
<trkpt lat="38.901276" lon="-120.078068"><ele>2216.4</ele><time>2026-09-25T00:44:25Z</time></trkpt>
<trkpt lat="38.901466" lon="-120.078048"><ele>2216.0</ele><time>2026-09-25T00:44:39Z</time></trkpt>
<trkpt lat="38.901657" lon="-120.078095"><ele>2215.2</ele><time>2026-09-25T00:44:54Z</time></trkpt>
<trkpt lat="38.901816" lon="-120.078239"><ele>2212.0</ele><time>2026-09-25T00:45:06Z</time></trkpt>
<trkpt lat="38.902269" lon="-120.078348"><ele>2215.6</ele><time>2026-09-25T00:45:32Z</time></trkpt>
<trkpt lat="38.902389" lon="-120.078354"><ele>2215.2</ele><time>2026-09-25T00:45:42Z</time></trkpt>
<trkpt lat="38.902447" lon="-120.078324"><ele>2214.4</ele><time>2026-09-25T00:45:48Z</time></trkpt>
<trkpt lat="38.902494" lon="-120.078242"><ele>2214.6</ele><time>2026-09-25T00:45:54Z</time></trkpt>
<trkpt lat="38.902628" lon="-120.078177"><ele>2213.8</ele><time>2026-09-25T00:46:06Z</time></trkpt>
<trkpt lat="38.902743" lon="-120.078276"><ele>2212.8</ele><time>2026-09-25T00:46:17Z</time></trkpt>
<trkpt lat="38.902828" lon="-120.078512"><ele>2211.2</ele><time>2026-09-25T00:46:30Z</time></trkpt>
<trkpt lat="38.902888" lon="-120.078556"><ele>2211.2</ele><time>2026-09-25T00:46:34Z</time></trkpt>
<trkpt lat="38.902974" lon="-120.078540"><ele>2210.6</ele><time>2026-09-25T00:46:40Z</time></trkpt>
<trkpt lat="38.903060" lon="-120.078572"><ele>2209.0</ele><time>2026-09-25T00:46:45Z</time></trkpt>
<trkpt lat="38.903114" lon="-120.078555"><ele>2208.4</ele><time>2026-09-25T00:46:48Z</time></trkpt>
<trkpt lat="38.903184" lon="-120.078400"><ele>2207.2</ele><time>2026-09-25T00:46:53Z</time></trkpt>
<trkpt lat="38.903321" lon="-120.078311"><ele>2206.2</ele><time>2026-09-25T00:47:00Z</time></trkpt>
<trkpt lat="38.903400" lon="-120.078165"><ele>2204.8</ele><time>2026-09-25T00:47:07Z</time></trkpt>
<trkpt lat="38.903461" lon="-120.078232"><ele>2203.4</ele><time>2026-09-25T00:47:11Z</time></trkpt>
<trkpt lat="38.903556" lon="-120.078256"><ele>2203.0</ele><time>2026-09-25T00:47:15Z</time></trkpt>
<trkpt lat="38.903661" lon="-120.078223"><ele>2202.0</ele><time>2026-09-25T00:47:19Z</time></trkpt>
<trkpt lat="38.903741" lon="-120.078241"><ele>2201.6</ele><time>2026-09-25T00:47:22Z</time></trkpt>
<trkpt lat="38.903793" lon="-120.078312"><ele>2200.4</ele><time>2026-09-25T00:47:27Z</time></trkpt>
<trkpt lat="38.903935" lon="-120.078233"><ele>2194.6</ele><time>2026-09-25T00:47:41Z</time></trkpt>
<trkpt lat="38.903931" lon="-120.078286"><ele>2193.6</ele><time>2026-09-25T00:47:44Z</time></trkpt>
<trkpt lat="38.903980" lon="-120.078323"><ele>2192.0</ele><time>2026-09-25T00:47:48Z</time></trkpt>
<trkpt lat="38.904046" lon="-120.078220"><ele>2190.2</ele><time>2026-09-25T00:47:55Z</time></trkpt>
<trkpt lat="38.904107" lon="-120.077918"><ele>2187.0</ele><time>2026-09-25T00:48:09Z</time></trkpt>
<trkpt lat="38.904237" lon="-120.078203"><ele>2184.4</ele><time>2026-09-25T00:48:21Z</time></trkpt>
<trkpt lat="38.904276" lon="-120.078220"><ele>2183.8</ele><time>2026-09-25T00:48:23Z</time></trkpt>
<trkpt lat="38.904342" lon="-120.078155"><ele>2182.4</ele><time>2026-09-25T00:48:27Z</time></trkpt>
<trkpt lat="38.904394" lon="-120.078213"><ele>2182.2</ele><time>2026-09-25T00:48:30Z</time></trkpt>
<trkpt lat="38.904488" lon="-120.078213"><ele>2181.8</ele><time>2026-09-25T00:48:35Z</time></trkpt>
<trkpt lat="38.904536" lon="-120.078117"><ele>2180.8</ele><time>2026-09-25T00:48:40Z</time></trkpt>
<trkpt lat="38.904559" lon="-120.077796"><ele>2174.2</ele><time>2026-09-25T00:49:00Z</time></trkpt>
<trkpt lat="38.904783" lon="-120.077460"><ele>2172.8</ele><time>2026-09-25T00:49:16Z</time></trkpt>
<trkpt lat="38.904848" lon="-120.077133"><ele>2173.8</ele><time>2026-09-25T00:49:28Z</time></trkpt>
<trkpt lat="38.904920" lon="-120.076964"><ele>2173.4</ele><time>2026-09-25T00:49:34Z</time></trkpt>
<trkpt lat="38.904896" lon="-120.076747"><ele>2173.4</ele><time>2026-09-25T00:49:48Z</time></trkpt>
<trkpt lat="38.904905" lon="-120.076432"><ele>2170.2</ele><time>2026-09-25T00:50:06Z</time></trkpt>
<trkpt lat="38.905048" lon="-120.076028"><ele>2169.4</ele><time>2026-09-25T00:50:18Z</time></trkpt>
<trkpt lat="38.905056" lon="-120.075840"><ele>2168.2</ele><time>2026-09-25T00:50:24Z</time></trkpt>
<trkpt lat="38.905101" lon="-120.075738"><ele>2168.4</ele><time>2026-09-25T00:50:29Z</time></trkpt>
<trkpt lat="38.905854" lon="-120.075168"><ele>2159.8</ele><time>2026-09-25T00:51:01Z</time></trkpt>
<trkpt lat="38.905816" lon="-120.075092"><ele>2158.6</ele><time>2026-09-25T00:51:04Z</time></trkpt>
<trkpt lat="38.905637" lon="-120.075037"><ele>2156.6</ele><time>2026-09-25T00:51:09Z</time></trkpt>
<trkpt lat="38.905350" lon="-120.075008"><ele>2155.2</ele><time>2026-09-25T00:51:17Z</time></trkpt>
<trkpt lat="38.905249" lon="-120.074972"><ele>2154.2</ele><time>2026-09-25T00:51:20Z</time></trkpt>
<trkpt lat="38.905203" lon="-120.074901"><ele>2153.6</ele><time>2026-09-25T00:51:23Z</time></trkpt>
<trkpt lat="38.905187" lon="-120.074723"><ele>2152.8</ele><time>2026-09-25T00:51:28Z</time></trkpt>
<trkpt lat="38.905226" lon="-120.074525"><ele>2151.4</ele><time>2026-09-25T00:51:33Z</time></trkpt>
<trkpt lat="38.905465" lon="-120.074212"><ele>2149.2</ele><time>2026-09-25T00:51:44Z</time></trkpt>
<trkpt lat="38.905582" lon="-120.073918"><ele>2146.0</ele><time>2026-09-25T00:51:56Z</time></trkpt>
<trkpt lat="38.905627" lon="-120.073888"><ele>2145.4</ele><time>2026-09-25T00:52:00Z</time></trkpt>
<trkpt lat="38.905840" lon="-120.073828"><ele>2144.0</ele><time>2026-09-25T00:52:13Z</time></trkpt>
<trkpt lat="38.906012" lon="-120.073827"><ele>2142.6</ele><time>2026-09-25T00:52:26Z</time></trkpt>
<trkpt lat="38.906414" lon="-120.073713"><ele>2138.4</ele><time>2026-09-25T00:52:51Z</time></trkpt>
<trkpt lat="38.906623" lon="-120.073705"><ele>2137.0</ele><time>2026-09-25T00:53:07Z</time></trkpt>
<trkpt lat="38.906977" lon="-120.073464"><ele>2138.4</ele><time>2026-09-25T00:53:23Z</time></trkpt>
<trkpt lat="38.907921" lon="-120.073159"><ele>2130.6</ele><time>2026-09-25T00:54:42Z</time></trkpt>
<trkpt lat="38.908490" lon="-120.073079"><ele>2127.8</ele><time>2026-09-25T00:55:06Z</time></trkpt>
<trkpt lat="38.908545" lon="-120.073010"><ele>2127.6</ele><time>2026-09-25T00:55:10Z</time></trkpt>
<trkpt lat="38.908723" lon="-120.072954"><ele>2125.6</ele><time>2026-09-25T00:55:17Z</time></trkpt>
<trkpt lat="38.909163" lon="-120.072868"><ele>2125.8</ele><time>2026-09-25T00:55:44Z</time></trkpt>
<trkpt lat="38.909559" lon="-120.072720"><ele>2125.2</ele><time>2026-09-25T00:56:15Z</time></trkpt>
<trkpt lat="38.909689" lon="-120.072718"><ele>2124.2</ele><time>2026-09-25T00:56:24Z</time></trkpt>
<trkpt lat="38.909885" lon="-120.072622"><ele>2123.4</ele><time>2026-09-25T00:56:38Z</time></trkpt>
<trkpt lat="38.910455" lon="-120.072513"><ele>2119.4</ele><time>2026-09-25T00:57:04Z</time></trkpt>
<trkpt lat="38.910929" lon="-120.072352"><ele>2117.8</ele><time>2026-09-25T00:57:26Z</time></trkpt>
<trkpt lat="38.911321" lon="-120.072299"><ele>2114.8</ele><time>2026-09-25T00:57:42Z</time></trkpt>
<trkpt lat="38.911812" lon="-120.072175"><ele>2112.2</ele><time>2026-09-25T00:58:04Z</time></trkpt>
<trkpt lat="38.912091" lon="-120.072166"><ele>2110.0</ele><time>2026-09-25T00:58:16Z</time></trkpt>
<trkpt lat="38.912312" lon="-120.072071"><ele>2108.0</ele><time>2026-09-25T00:58:29Z</time></trkpt>
<trkpt lat="38.912811" lon="-120.071946"><ele>2100.2</ele><time>2026-09-25T00:59:03Z</time></trkpt>
<trkpt lat="38.913033" lon="-120.071987"><ele>2097.4</ele><time>2026-09-25T00:59:19Z</time></trkpt>
<trkpt lat="38.913249" lon="-120.071919"><ele>2093.2</ele><time>2026-09-25T00:59:35Z</time></trkpt>
<trkpt lat="38.913615" lon="-120.071976"><ele>2083.8</ele><time>2026-09-25T01:00:02Z</time></trkpt>
<trkpt lat="38.913634" lon="-120.071756"><ele>2078.6</ele><time>2026-09-25T01:00:16Z</time></trkpt>
<trkpt lat="38.913774" lon="-120.071777"><ele>2076.8</ele><time>2026-09-25T01:00:27Z</time></trkpt>
<trkpt lat="38.913903" lon="-120.071722"><ele>2073.6</ele><time>2026-09-25T01:00:33Z</time></trkpt>
<trkpt lat="38.914336" lon="-120.071815"><ele>2068.0</ele><time>2026-09-25T01:00:52Z</time></trkpt>
<trkpt lat="38.914643" lon="-120.071829"><ele>2067.2</ele><time>2026-09-25T01:01:03Z</time></trkpt>
<trkpt lat="38.915009" lon="-120.071786"><ele>2067.6</ele><time>2026-09-25T01:01:18Z</time></trkpt>
<trkpt lat="38.915385" lon="-120.071651"><ele>2068.6</ele><time>2026-09-25T01:01:32Z</time></trkpt>
<trkpt lat="38.915878" lon="-120.071592"><ele>2061.6</ele><time>2026-09-25T01:02:06Z</time></trkpt>
<trkpt lat="38.916001" lon="-120.071541"><ele>2060.0</ele><time>2026-09-25T01:02:15Z</time></trkpt>
<trkpt lat="38.916148" lon="-120.071424"><ele>2057.6</ele><time>2026-09-25T01:02:27Z</time></trkpt>
<trkpt lat="38.916670" lon="-120.071377"><ele>2051.0</ele><time>2026-09-25T01:02:49Z</time></trkpt>
<trkpt lat="38.917103" lon="-120.071243"><ele>2047.0</ele><time>2026-09-25T01:03:04Z</time></trkpt>
<trkpt lat="38.917294" lon="-120.071066"><ele>2043.6</ele><time>2026-09-25T01:03:15Z</time></trkpt>
<trkpt lat="38.917457" lon="-120.071011"><ele>2039.6</ele><time>2026-09-25T01:03:28Z</time></trkpt>
<trkpt lat="38.917545" lon="-120.070821"><ele>2034.6</ele><time>2026-09-25T01:03:41Z</time></trkpt>
<trkpt lat="38.917883" lon="-120.070826"><ele>2029.6</ele><time>2026-09-25T01:04:04Z</time></trkpt>
<trkpt lat="38.917983" lon="-120.070791"><ele>2028.2</ele><time>2026-09-25T01:04:11Z</time></trkpt>
<trkpt lat="38.918160" lon="-120.070653"><ele>2025.8</ele><time>2026-09-25T01:04:26Z</time></trkpt>
<trkpt lat="38.918279" lon="-120.070706"><ele>2022.8</ele><time>2026-09-25T01:04:36Z</time></trkpt>
<trkpt lat="38.918335" lon="-120.070643"><ele>2020.2</ele><time>2026-09-25T01:04:46Z</time></trkpt>
<trkpt lat="38.918384" lon="-120.070640"><ele>2019.2</ele><time>2026-09-25T01:04:50Z</time></trkpt>
<trkpt lat="38.918492" lon="-120.070712"><ele>2018.0</ele><time>2026-09-25T01:04:58Z</time></trkpt>
<trkpt lat="38.918588" lon="-120.070721"><ele>2016.8</ele><time>2026-09-25T01:05:03Z</time></trkpt>
<trkpt lat="38.918806" lon="-120.070662"><ele>2014.6</ele><time>2026-09-25T01:05:10Z</time></trkpt>
<trkpt lat="38.919504" lon="-120.070699"><ele>2009.0</ele><time>2026-09-25T01:05:34Z</time></trkpt>
<trkpt lat="38.919762" lon="-120.070758"><ele>2005.8</ele><time>2026-09-25T01:05:45Z</time></trkpt>
<trkpt lat="38.919909" lon="-120.070729"><ele>2004.4</ele><time>2026-09-25T01:05:51Z</time></trkpt>
<trkpt lat="38.920149" lon="-120.070390"><ele>2002.2</ele><time>2026-09-25T01:06:05Z</time></trkpt>
<trkpt lat="38.920275" lon="-120.070069"><ele>1999.8</ele><time>2026-09-25T01:06:17Z</time></trkpt>
<trkpt lat="38.920444" lon="-120.070044"><ele>1996.0</ele><time>2026-09-25T01:06:23Z</time></trkpt>
<trkpt lat="38.920519" lon="-120.069934"><ele>1994.8</ele><time>2026-09-25T01:06:27Z</time></trkpt>
<trkpt lat="38.920313" lon="-120.069518"><ele>1990.0</ele><time>2026-09-25T01:06:43Z</time></trkpt>
<trkpt lat="38.920446" lon="-120.069156"><ele>1984.8</ele><time>2026-09-25T01:06:54Z</time></trkpt>
<trkpt lat="38.920439" lon="-120.069025"><ele>1982.6</ele><time>2026-09-25T01:06:58Z</time></trkpt>
<trkpt lat="38.920539" lon="-120.068679"><ele>1980.2</ele><time>2026-09-25T01:07:07Z</time></trkpt>
<trkpt lat="38.920551" lon="-120.068372"><ele>1978.0</ele><time>2026-09-25T01:07:15Z</time></trkpt>
<trkpt lat="38.920625" lon="-120.068275"><ele>1977.0</ele><time>2026-09-25T01:07:18Z</time></trkpt>
<trkpt lat="38.921032" lon="-120.068201"><ele>1973.2</ele><time>2026-09-25T01:07:30Z</time></trkpt>
<trkpt lat="38.921326" lon="-120.068193"><ele>1971.4</ele><time>2026-09-25T01:07:39Z</time></trkpt>
</trkseg></trk>
</gpx>
