<?xml version="1.0" encoding="UTF-8"?>
<gpx version="1.1" creator="Eric Sichak trip reports" xmlns="http://www.topografix.com/GPX/1/1">
<metadata><name>Paddle near Tahoma</name><time>2026-07-31T15:59:10Z</time></metadata>
<trk><name>Paddle near Tahoma</name><type>other</type><trkseg>
<trkpt lat="39.000859" lon="-120.101503"><time>2026-07-31T15:59:10Z</time></trkpt>
<trkpt lat="39.000549" lon="-120.100033"><time>2026-07-31T16:00:30Z</time></trkpt>
<trkpt lat="39.000350" lon="-120.099473"><time>2026-07-31T16:01:01Z</time></trkpt>
<trkpt lat="39.000244" lon="-120.099277"><time>2026-07-31T16:01:16Z</time></trkpt>
<trkpt lat="39.000074" lon="-120.098736"><time>2026-07-31T16:01:46Z</time></trkpt>
<trkpt lat="38.999932" lon="-120.098153"><time>2026-07-31T16:02:39Z</time></trkpt>
<trkpt lat="38.999762" lon="-120.097104"><time>2026-07-31T16:03:31Z</time></trkpt>
<trkpt lat="38.999213" lon="-120.095403"><time>2026-07-31T16:05:34Z</time></trkpt>
<trkpt lat="38.999277" lon="-120.095440"><time>2026-07-31T16:06:38Z</time></trkpt>
<trkpt lat="38.998770" lon="-120.095056"><time>2026-07-31T16:07:13Z</time></trkpt>
<trkpt lat="38.998620" lon="-120.094982"><time>2026-07-31T16:07:26Z</time></trkpt>
<trkpt lat="38.998626" lon="-120.095027"><time>2026-07-31T16:07:54Z</time></trkpt>
<trkpt lat="38.998328" lon="-120.094943"><time>2026-07-31T16:08:29Z</time></trkpt>
<trkpt lat="38.997952" lon="-120.094676"><time>2026-07-31T16:08:53Z</time></trkpt>
<trkpt lat="38.997122" lon="-120.094209"><time>2026-07-31T16:09:58Z</time></trkpt>
<trkpt lat="38.997179" lon="-120.094276"><time>2026-07-31T16:10:56Z</time></trkpt>
<trkpt lat="38.996248" lon="-120.093811"><time>2026-07-31T16:12:26Z</time></trkpt>
<trkpt lat="38.995431" lon="-120.093610"><time>2026-07-31T16:13:26Z</time></trkpt>
<trkpt lat="38.995422" lon="-120.093664"><time>2026-07-31T16:14:01Z</time></trkpt>
<trkpt lat="38.994853" lon="-120.093688"><time>2026-07-31T16:14:44Z</time></trkpt>
<trkpt lat="38.994227" lon="-120.093637"><time>2026-07-31T16:15:29Z</time></trkpt>
<trkpt lat="38.993556" lon="-120.093385"><time>2026-07-31T16:16:16Z</time></trkpt>
<trkpt lat="38.993244" lon="-120.093319"><time>2026-07-31T16:16:40Z</time></trkpt>
<trkpt lat="38.992470" lon="-120.093052"><time>2026-07-31T16:17:39Z</time></trkpt>
<trkpt lat="38.992500" lon="-120.093084"><time>2026-07-31T16:17:47Z</time></trkpt>
<trkpt lat="38.993301" lon="-120.093091"><time>2026-07-31T16:19:06Z</time></trkpt>
<trkpt lat="38.993857" lon="-120.093152"><time>2026-07-31T16:19:45Z</time></trkpt>
<trkpt lat="38.994464" lon="-120.093268"><time>2026-07-31T16:20:21Z</time></trkpt>
<trkpt lat="38.995167" lon="-120.093474"><time>2026-07-31T16:21:12Z</time></trkpt>
<trkpt lat="38.995682" lon="-120.093707"><time>2026-07-31T16:21:51Z</time></trkpt>
<trkpt lat="38.995974" lon="-120.093773"><time>2026-07-31T16:22:10Z</time></trkpt>
<trkpt lat="38.996294" lon="-120.093924"><time>2026-07-31T16:22:32Z</time></trkpt>
<trkpt lat="38.996834" lon="-120.094298"><time>2026-07-31T16:23:14Z</time></trkpt>
<trkpt lat="38.997165" lon="-120.094661"><time>2026-07-31T16:24:01Z</time></trkpt>
<trkpt lat="38.997478" lon="-120.094774"><time>2026-07-31T16:24:20Z</time></trkpt>
<trkpt lat="38.997653" lon="-120.094785"><time>2026-07-31T16:24:30Z</time></trkpt>
<trkpt lat="38.997752" lon="-120.094855"><time>2026-07-31T16:24:48Z</time></trkpt>
<trkpt lat="38.997768" lon="-120.094839"><time>2026-07-31T16:25:03Z</time></trkpt>
<trkpt lat="38.997739" lon="-120.094825"><time>2026-07-31T16:25:12Z</time></trkpt>
<trkpt lat="38.997922" lon="-120.094809"><time>2026-07-31T16:25:25Z</time></trkpt>
<trkpt lat="38.998159" lon="-120.094848"><time>2026-07-31T16:25:36Z</time></trkpt>
<trkpt lat="38.998566" lon="-120.095007"><time>2026-07-31T16:26:00Z</time></trkpt>
<trkpt lat="38.998540" lon="-120.095023"><time>2026-07-31T16:26:12Z</time></trkpt>
<trkpt lat="38.998840" lon="-120.095225"><time>2026-07-31T16:26:40Z</time></trkpt>
<trkpt lat="38.999002" lon="-120.095375"><time>2026-07-31T16:26:52Z</time></trkpt>
<trkpt lat="38.999310" lon="-120.095684"><time>2026-07-31T16:27:19Z</time></trkpt>
<trkpt lat="38.999479" lon="-120.095920"><time>2026-07-31T16:27:36Z</time></trkpt>
<trkpt lat="38.999669" lon="-120.096422"><time>2026-07-31T16:28:11Z</time></trkpt>
<trkpt lat="38.999808" lon="-120.096966"><time>2026-07-31T16:29:03Z</time></trkpt>
<trkpt lat="38.999844" lon="-120.097295"><time>2026-07-31T16:29:33Z</time></trkpt>
<trkpt lat="38.999937" lon="-120.097733"><time>2026-07-31T16:29:53Z</time></trkpt>
<trkpt lat="39.000043" lon="-120.098056"><time>2026-07-31T16:30:11Z</time></trkpt>
<trkpt lat="39.000186" lon="-120.098800"><time>2026-07-31T16:30:47Z</time></trkpt>
<trkpt lat="39.000199" lon="-120.099014"><time>2026-07-31T16:31:01Z</time></trkpt>
<trkpt lat="39.000331" lon="-120.099403"><time>2026-07-31T16:31:17Z</time></trkpt>
<trkpt lat="39.000447" lon="-120.099885"><time>2026-07-31T16:31:48Z</time></trkpt>
<trkpt lat="39.000527" lon="-120.100446"><time>2026-07-31T16:32:35Z</time></trkpt>
<trkpt lat="39.000637" lon="-120.100773"><time>2026-07-31T16:32:54Z</time></trkpt>
<trkpt lat="39.000709" lon="-120.101354"><time>2026-07-31T16:33:22Z</time></trkpt>
<trkpt lat="39.000699" lon="-120.101536"><time>2026-07-31T16:33:45Z</time></trkpt>
<trkpt lat="39.000675" lon="-120.101542"><time>2026-07-31T16:33:58Z</time></trkpt>
<trkpt lat="39.001056" lon="-120.101701"><time>2026-07-31T16:34:51Z</time></trkpt>
<trkpt lat="39.001405" lon="-120.101983"><time>2026-07-31T16:35:30Z</time></trkpt>
<trkpt lat="39.001612" lon="-120.102256"><time>2026-07-31T16:35:50Z</time></trkpt>
<trkpt lat="39.001765" lon="-120.102542"><time>2026-07-31T16:36:18Z</time></trkpt>
<trkpt lat="39.001665" lon="-120.102374"><time>2026-07-31T16:36:57Z</time></trkpt>
<trkpt lat="39.001466" lon="-120.102167"><time>2026-07-31T16:37:28Z</time></trkpt>
<trkpt lat="39.001297" lon="-120.102077"><time>2026-07-31T16:37:50Z</time></trkpt>
<trkpt lat="39.001007" lon="-120.101835"><time>2026-07-31T16:38:20Z</time></trkpt>
<trkpt lat="39.000878" lon="-120.101625"><time>2026-07-31T16:38:43Z</time></trkpt>
<trkpt lat="39.000670" lon="-120.101541"><time>2026-07-31T16:39:28Z</time></trkpt>
<trkpt lat="39.000856" lon="-120.101570"><time>2026-07-31T16:50:12Z</time></trkpt>
<trkpt lat="39.001007" lon="-120.101708"><time>2026-07-31T16:50:31Z</time></trkpt>
<trkpt lat="39.001147" lon="-120.101767"><time>2026-07-31T16:50:44Z</time></trkpt>
<trkpt lat="39.001317" lon="-120.101964"><time>2026-07-31T16:51:08Z</time></trkpt>
<trkpt lat="39.001449" lon="-120.102052"><time>2026-07-31T16:51:22Z</time></trkpt>
<trkpt lat="39.001712" lon="-120.102321"><time>2026-07-31T16:51:53Z</time></trkpt>
<trkpt lat="39.001819" lon="-120.102550"><time>2026-07-31T16:52:12Z</time></trkpt>
<trkpt lat="39.001974" lon="-120.102700"><time>2026-07-31T16:52:31Z</time></trkpt>
<trkpt lat="39.002085" lon="-120.102987"><time>2026-07-31T16:52:54Z</time></trkpt>
<trkpt lat="39.002224" lon="-120.103152"><time>2026-07-31T16:53:12Z</time></trkpt>
<trkpt lat="39.002315" lon="-120.103331"><time>2026-07-31T16:53:29Z</time></trkpt>
<trkpt lat="39.002609" lon="-120.103656"><time>2026-07-31T16:54:07Z</time></trkpt>
<trkpt lat="39.002763" lon="-120.104025"><time>2026-07-31T16:54:38Z</time></trkpt>
<trkpt lat="39.002915" lon="-120.104276"><time>2026-07-31T16:55:02Z</time></trkpt>
<trkpt lat="39.003277" lon="-120.104702"><time>2026-07-31T16:55:52Z</time></trkpt>
<trkpt lat="39.003976" lon="-120.105935"><time>2026-07-31T16:57:45Z</time></trkpt>
<trkpt lat="39.004398" lon="-120.106504"><time>2026-07-31T16:58:46Z</time></trkpt>
<trkpt lat="39.004591" lon="-120.106820"><time>2026-07-31T16:59:18Z</time></trkpt>
<trkpt lat="39.004945" lon="-120.107101"><time>2026-07-31T17:00:00Z</time></trkpt>
<trkpt lat="39.005030" lon="-120.107207"><time>2026-07-31T17:00:12Z</time></trkpt>
<trkpt lat="39.005663" lon="-120.108322"><time>2026-07-31T17:02:03Z</time></trkpt>
<trkpt lat="39.006421" lon="-120.109302"><time>2026-07-31T17:03:53Z</time></trkpt>
<trkpt lat="39.006753" lon="-120.109646"><time>2026-07-31T17:04:35Z</time></trkpt>
<trkpt lat="39.007008" lon="-120.109981"><time>2026-07-31T17:05:12Z</time></trkpt>
<trkpt lat="39.007557" lon="-120.110483"><time>2026-07-31T17:06:21Z</time></trkpt>
<trkpt lat="39.007664" lon="-120.110642"><time>2026-07-31T17:06:40Z</time></trkpt>
<trkpt lat="39.007779" lon="-120.110742"><time>2026-07-31T17:06:55Z</time></trkpt>
<trkpt lat="39.007914" lon="-120.110956"><time>2026-07-31T17:07:18Z</time></trkpt>
<trkpt lat="39.008586" lon="-120.111305"><time>2026-07-31T17:08:36Z</time></trkpt>
<trkpt lat="39.008945" lon="-120.111593"><time>2026-07-31T17:09:22Z</time></trkpt>
<trkpt lat="39.009299" lon="-120.111926"><time>2026-07-31T17:10:10Z</time></trkpt>
<trkpt lat="39.009736" lon="-120.112424"><time>2026-07-31T17:11:13Z</time></trkpt>
<trkpt lat="39.010206" lon="-120.112827"><time>2026-07-31T17:12:21Z</time></trkpt>
<trkpt lat="39.010374" lon="-120.113045"><time>2026-07-31T17:12:52Z</time></trkpt>
<trkpt lat="39.010508" lon="-120.113084"><time>2026-07-31T17:13:07Z</time></trkpt>
<trkpt lat="39.010773" lon="-120.113284"><time>2026-07-31T17:13:40Z</time></trkpt>
<trkpt lat="39.011470" lon="-120.113644"><time>2026-07-31T17:15:05Z</time></trkpt>
<trkpt lat="39.011630" lon="-120.113669"><time>2026-07-31T17:15:23Z</time></trkpt>
<trkpt lat="39.011798" lon="-120.113745"><time>2026-07-31T17:15:43Z</time></trkpt>
<trkpt lat="39.011922" lon="-120.113747"><time>2026-07-31T17:15:57Z</time></trkpt>
<trkpt lat="39.012030" lon="-120.113801"><time>2026-07-31T17:16:10Z</time></trkpt>
<trkpt lat="39.012367" lon="-120.113818"><time>2026-07-31T17:16:50Z</time></trkpt>
<trkpt lat="39.012517" lon="-120.113883"><time>2026-07-31T17:17:10Z</time></trkpt>
<trkpt lat="39.012860" lon="-120.113830"><time>2026-07-31T17:17:56Z</time></trkpt>
<trkpt lat="39.013327" lon="-120.114236"><time>2026-07-31T17:19:02Z</time></trkpt>
<trkpt lat="39.013453" lon="-120.114272"><time>2026-07-31T17:19:16Z</time></trkpt>
<trkpt lat="39.013612" lon="-120.114377"><time>2026-07-31T17:19:36Z</time></trkpt>
<trkpt lat="39.013705" lon="-120.114394"><time>2026-07-31T17:19:47Z</time></trkpt>
<trkpt lat="39.013886" lon="-120.114356"><time>2026-07-31T17:20:12Z</time></trkpt>
<trkpt lat="39.014135" lon="-120.114469"><time>2026-07-31T17:20:48Z</time></trkpt>
<trkpt lat="39.014375" lon="-120.114676"><time>2026-07-31T17:21:21Z</time></trkpt>
<trkpt lat="39.014580" lon="-120.114713"><time>2026-07-31T17:21:46Z</time></trkpt>
<trkpt lat="39.015053" lon="-120.115058"><time>2026-07-31T17:22:52Z</time></trkpt>
<trkpt lat="39.015219" lon="-120.115254"><time>2026-07-31T17:23:17Z</time></trkpt>
<trkpt lat="39.015819" lon="-120.115623"><time>2026-07-31T17:24:34Z</time></trkpt>
<trkpt lat="39.015987" lon="-120.115827"><time>2026-07-31T17:25:01Z</time></trkpt>
<trkpt lat="39.016093" lon="-120.115896"><time>2026-07-31T17:25:16Z</time></trkpt>
<trkpt lat="39.016216" lon="-120.116036"><time>2026-07-31T17:25:35Z</time></trkpt>
<trkpt lat="39.016421" lon="-120.116112"><time>2026-07-31T17:26:01Z</time></trkpt>
<trkpt lat="39.016585" lon="-120.116283"><time>2026-07-31T17:26:27Z</time></trkpt>
<trkpt lat="39.016919" lon="-120.116402"><time>2026-07-31T17:27:21Z</time></trkpt>
<trkpt lat="39.016271" lon="-120.116091"><time>2026-07-31T17:28:59Z</time></trkpt>
<trkpt lat="39.016140" lon="-120.115961"><time>2026-07-31T17:29:23Z</time></trkpt>
<trkpt lat="39.016028" lon="-120.115760"><time>2026-07-31T17:29:48Z</time></trkpt>
<trkpt lat="39.015805" lon="-120.115506"><time>2026-07-31T17:30:26Z</time></trkpt>
<trkpt lat="39.015596" lon="-120.115435"><time>2026-07-31T17:30:51Z</time></trkpt>
<trkpt lat="39.015457" lon="-120.115305"><time>2026-07-31T17:31:09Z</time></trkpt>
<trkpt lat="39.015332" lon="-120.115257"><time>2026-07-31T17:31:24Z</time></trkpt>
<trkpt lat="39.015119" lon="-120.115061"><time>2026-07-31T17:31:53Z</time></trkpt>
<trkpt lat="39.015059" lon="-120.114958"><time>2026-07-31T17:32:05Z</time></trkpt>
<trkpt lat="39.014724" lon="-120.114698"><time>2026-07-31T17:32:51Z</time></trkpt>
<trkpt lat="39.014373" lon="-120.114528"><time>2026-07-31T17:33:41Z</time></trkpt>
<trkpt lat="39.014000" lon="-120.114277"><time>2026-07-31T17:34:37Z</time></trkpt>
<trkpt lat="39.013721" lon="-120.114181"><time>2026-07-31T17:36:32Z</time></trkpt>
<trkpt lat="39.013589" lon="-120.114006"><time>2026-07-31T17:36:59Z</time></trkpt>
<trkpt lat="39.012985" lon="-120.113722"><time>2026-07-31T17:39:58Z</time></trkpt>
<trkpt lat="39.012775" lon="-120.113739"><time>2026-07-31T17:41:30Z</time></trkpt>
<trkpt lat="39.012696" lon="-120.113690"><time>2026-07-31T17:41:43Z</time></trkpt>
<trkpt lat="39.012540" lon="-120.113674"><time>2026-07-31T17:42:00Z</time></trkpt>
<trkpt lat="39.012355" lon="-120.113578"><time>2026-07-31T17:42:21Z</time></trkpt>
<trkpt lat="39.012199" lon="-120.113584"><time>2026-07-31T17:42:36Z</time></trkpt>
<trkpt lat="39.011949" lon="-120.113438"><time>2026-07-31T17:43:03Z</time></trkpt>
<trkpt lat="39.011772" lon="-120.113430"><time>2026-07-31T17:43:20Z</time></trkpt>
<trkpt lat="39.011524" lon="-120.113354"><time>2026-07-31T17:43:46Z</time></trkpt>
<trkpt lat="39.011361" lon="-120.113250"><time>2026-07-31T17:44:06Z</time></trkpt>
<trkpt lat="39.011177" lon="-120.113205"><time>2026-07-31T17:44:27Z</time></trkpt>
<trkpt lat="39.010093" lon="-120.112578"><time>2026-07-31T17:46:41Z</time></trkpt>
<trkpt lat="39.009748" lon="-120.112314"><time>2026-07-31T17:47:27Z</time></trkpt>
<trkpt lat="39.009466" lon="-120.111975"><time>2026-07-31T17:48:09Z</time></trkpt>
<trkpt lat="39.009079" lon="-120.111601"><time>2026-07-31T17:49:06Z</time></trkpt>
<trkpt lat="39.009027" lon="-120.111513"><time>2026-07-31T17:49:16Z</time></trkpt>
<trkpt lat="39.008883" lon="-120.111403"><time>2026-07-31T17:49:35Z</time></trkpt>
<trkpt lat="39.008798" lon="-120.111275"><time>2026-07-31T17:49:50Z</time></trkpt>
<trkpt lat="39.008689" lon="-120.111183"><time>2026-07-31T17:50:05Z</time></trkpt>
<trkpt lat="39.008453" lon="-120.110757"><time>2026-07-31T17:50:58Z</time></trkpt>
<trkpt lat="39.008282" lon="-120.110617"><time>2026-07-31T17:51:23Z</time></trkpt>
<trkpt lat="39.007823" lon="-120.110423"><time>2026-07-31T17:52:27Z</time></trkpt>
<trkpt lat="39.007659" lon="-120.110286"><time>2026-07-31T17:52:51Z</time></trkpt>
<trkpt lat="39.007481" lon="-120.110015"><time>2026-07-31T17:53:26Z</time></trkpt>
<trkpt lat="39.007330" lon="-120.109923"><time>2026-07-31T17:53:46Z</time></trkpt>
<trkpt lat="39.007147" lon="-120.109700"><time>2026-07-31T17:54:18Z</time></trkpt>
<trkpt lat="39.007056" lon="-120.109639"><time>2026-07-31T17:54:29Z</time></trkpt>
<trkpt lat="39.006870" lon="-120.109387"><time>2026-07-31T17:55:03Z</time></trkpt>
<trkpt lat="39.006509" lon="-120.109041"><time>2026-07-31T17:56:04Z</time></trkpt>
<trkpt lat="39.006117" lon="-120.108524"><time>2026-07-31T17:57:14Z</time></trkpt>
<trkpt lat="39.005814" lon="-120.108275"><time>2026-07-31T17:57:59Z</time></trkpt>
<trkpt lat="39.005670" lon="-120.108008"><time>2026-07-31T17:58:28Z</time></trkpt>
<trkpt lat="39.005381" lon="-120.107636"><time>2026-07-31T17:59:19Z</time></trkpt>
<trkpt lat="39.005322" lon="-120.107494"><time>2026-07-31T17:59:34Z</time></trkpt>
<trkpt lat="39.005189" lon="-120.107400"><time>2026-07-31T17:59:54Z</time></trkpt>
<trkpt lat="39.005030" lon="-120.107211"><time>2026-07-31T18:00:24Z</time></trkpt>
<trkpt lat="39.004790" lon="-120.106734"><time>2026-07-31T18:01:19Z</time></trkpt>
<trkpt lat="39.004569" lon="-120.106399"><time>2026-07-31T18:02:04Z</time></trkpt>
<trkpt lat="39.004139" lon="-120.105839"><time>2026-07-31T18:03:14Z</time></trkpt>
<trkpt lat="39.003977" lon="-120.105692"><time>2026-07-31T18:03:37Z</time></trkpt>
<trkpt lat="39.003413" lon="-120.104929"><time>2026-07-31T18:05:18Z</time></trkpt>
<trkpt lat="39.003067" lon="-120.104316"><time>2026-07-31T18:06:29Z</time></trkpt>
<trkpt lat="39.002981" lon="-120.104237"><time>2026-07-31T18:06:41Z</time></trkpt>
<trkpt lat="39.002828" lon="-120.104170"><time>2026-07-31T18:07:00Z</time></trkpt>
<trkpt lat="39.002537" lon="-120.103848"><time>2026-07-31T18:07:44Z</time></trkpt>
<trkpt lat="39.002427" lon="-120.103664"><time>2026-07-31T18:08:08Z</time></trkpt>
<trkpt lat="39.002236" lon="-120.103478"><time>2026-07-31T18:08:35Z</time></trkpt>
<trkpt lat="39.002036" lon="-120.102877"><time>2026-07-31T18:09:37Z</time></trkpt>
<trkpt lat="39.001568" lon="-120.102186"><time>2026-07-31T18:10:59Z</time></trkpt>
<trkpt lat="39.001357" lon="-120.101978"><time>2026-07-31T18:11:30Z</time></trkpt>
<trkpt lat="39.001219" lon="-120.101905"><time>2026-07-31T18:11:49Z</time></trkpt>
<trkpt lat="39.000786" lon="-120.101561"><time>2026-07-31T18:12:50Z</time></trkpt>
<trkpt lat="39.000711" lon="-120.101548"><time>2026-07-31T18:13:27Z</time></trkpt>
<trkpt lat="39.000464" lon="-120.101709"><time>2026-07-31T19:00:00Z</time></trkpt>
<trkpt lat="39.000114" lon="-120.101367"><time>2026-07-31T19:00:45Z</time></trkpt>
<trkpt lat="38.999952" lon="-120.101137"><time>2026-07-31T19:01:14Z</time></trkpt>
<trkpt lat="38.999897" lon="-120.101166"><time>2026-07-31T19:01:48Z</time></trkpt>
<trkpt lat="38.999956" lon="-120.101184"><time>2026-07-31T19:02:06Z</time></trkpt>
<trkpt lat="38.999951" lon="-120.101147"><time>2026-07-31T19:02:14Z</time></trkpt>
<trkpt lat="39.000008" lon="-120.101157"><time>2026-07-31T19:02:24Z</time></trkpt>
<trkpt lat="39.000030" lon="-120.101120"><time>2026-07-31T19:02:31Z</time></trkpt>
<trkpt lat="38.999971" lon="-120.100840"><time>2026-07-31T19:02:51Z</time></trkpt>
<trkpt lat="38.999889" lon="-120.100649"><time>2026-07-31T19:03:05Z</time></trkpt>
<trkpt lat="38.999757" lon="-120.100450"><time>2026-07-31T19:03:24Z</time></trkpt>
<trkpt lat="38.999702" lon="-120.100200"><time>2026-07-31T19:03:45Z</time></trkpt>
<trkpt lat="38.999569" lon="-120.100033"><time>2026-07-31T19:04:05Z</time></trkpt>
<trkpt lat="38.999335" lon="-120.099640"><time>2026-07-31T19:04:40Z</time></trkpt>
<trkpt lat="38.999160" lon="-120.099526"><time>2026-07-31T19:04:56Z</time></trkpt>
<trkpt lat="38.999057" lon="-120.099521"><time>2026-07-31T19:05:05Z</time></trkpt>
<trkpt lat="38.998913" lon="-120.099627"><time>2026-07-31T19:05:22Z</time></trkpt>
<trkpt lat="38.998775" lon="-120.099558"><time>2026-07-31T19:05:37Z</time></trkpt>
<trkpt lat="38.998418" lon="-120.098692"><time>2026-07-31T19:06:39Z</time></trkpt>
<trkpt lat="38.998373" lon="-120.098465"><time>2026-07-31T19:06:56Z</time></trkpt>
<trkpt lat="38.998401" lon="-120.098211"><time>2026-07-31T19:07:13Z</time></trkpt>
<trkpt lat="38.998555" lon="-120.097711"><time>2026-07-31T19:07:49Z</time></trkpt>
<trkpt lat="38.998550" lon="-120.097525"><time>2026-07-31T19:08:02Z</time></trkpt>
<trkpt lat="38.998617" lon="-120.097214"><time>2026-07-31T19:08:25Z</time></trkpt>
<trkpt lat="38.998649" lon="-120.097095"><time>2026-07-31T19:08:34Z</time></trkpt>
<trkpt lat="38.998765" lon="-120.096879"><time>2026-07-31T19:08:51Z</time></trkpt>
<trkpt lat="38.998777" lon="-120.096678"><time>2026-07-31T19:09:09Z</time></trkpt>
<trkpt lat="38.998847" lon="-120.096451"><time>2026-07-31T19:09:33Z</time></trkpt>
<trkpt lat="38.998790" lon="-120.096324"><time>2026-07-31T19:09:47Z</time></trkpt>
<trkpt lat="38.998544" lon="-120.096423"><time>2026-07-31T19:10:18Z</time></trkpt>
<trkpt lat="38.998369" lon="-120.096336"><time>2026-07-31T19:10:37Z</time></trkpt>
<trkpt lat="38.998219" lon="-120.096154"><time>2026-07-31T19:10:58Z</time></trkpt>
<trkpt lat="38.998127" lon="-120.095933"><time>2026-07-31T19:11:15Z</time></trkpt>
<trkpt lat="38.997994" lon="-120.095830"><time>2026-07-31T19:11:32Z</time></trkpt>
<trkpt lat="38.997647" lon="-120.095785"><time>2026-07-31T19:12:11Z</time></trkpt>
<trkpt lat="38.997337" lon="-120.095626"><time>2026-07-31T19:12:53Z</time></trkpt>
<trkpt lat="38.997301" lon="-120.095625"><time>2026-07-31T19:13:02Z</time></trkpt>
<trkpt lat="38.997315" lon="-120.095683"><time>2026-07-31T19:13:20Z</time></trkpt>
<trkpt lat="38.997069" lon="-120.095530"><time>2026-07-31T19:14:01Z</time></trkpt>
<trkpt lat="38.997106" lon="-120.095384"><time>2026-07-31T19:14:27Z</time></trkpt>
<trkpt lat="38.997059" lon="-120.095425"><time>2026-07-31T19:14:41Z</time></trkpt>
<trkpt lat="38.997083" lon="-120.095511"><time>2026-07-31T19:14:59Z</time></trkpt>
<trkpt lat="38.996988" lon="-120.095441"><time>2026-07-31T19:15:45Z</time></trkpt>
<trkpt lat="38.996881" lon="-120.095236"><time>2026-07-31T19:16:03Z</time></trkpt>
<trkpt lat="38.996785" lon="-120.095173"><time>2026-07-31T19:16:19Z</time></trkpt>
<trkpt lat="38.996664" lon="-120.095142"><time>2026-07-31T19:16:33Z</time></trkpt>
<trkpt lat="38.996566" lon="-120.095161"><time>2026-07-31T19:16:42Z</time></trkpt>
<trkpt lat="38.996368" lon="-120.095011"><time>2026-07-31T19:17:06Z</time></trkpt>
<trkpt lat="38.996072" lon="-120.095054"><time>2026-07-31T19:17:30Z</time></trkpt>
<trkpt lat="38.995924" lon="-120.094948"><time>2026-07-31T19:17:46Z</time></trkpt>
<trkpt lat="38.995861" lon="-120.094963"><time>2026-07-31T19:17:56Z</time></trkpt>
<trkpt lat="38.995806" lon="-120.095041"><time>2026-07-31T19:18:06Z</time></trkpt>
<trkpt lat="38.995834" lon="-120.095061"><time>2026-07-31T19:18:15Z</time></trkpt>
<trkpt lat="38.995828" lon="-120.095284"><time>2026-07-31T19:18:46Z</time></trkpt>
<trkpt lat="38.995772" lon="-120.095417"><time>2026-07-31T19:19:03Z</time></trkpt>
<trkpt lat="38.995775" lon="-120.095720"><time>2026-07-31T19:19:26Z</time></trkpt>
<trkpt lat="38.995717" lon="-120.095868"><time>2026-07-31T19:19:34Z</time></trkpt>
<trkpt lat="38.995630" lon="-120.095968"><time>2026-07-31T19:19:43Z</time></trkpt>
<trkpt lat="38.995370" lon="-120.096049"><time>2026-07-31T19:20:06Z</time></trkpt>
<trkpt lat="38.995164" lon="-120.096266"><time>2026-07-31T19:20:30Z</time></trkpt>
<trkpt lat="38.995076" lon="-120.096315"><time>2026-07-31T19:20:40Z</time></trkpt>
<trkpt lat="38.995025" lon="-120.096430"><time>2026-07-31T19:20:55Z</time></trkpt>
<trkpt lat="38.994954" lon="-120.096448"><time>2026-07-31T19:21:02Z</time></trkpt>
<trkpt lat="38.994478" lon="-120.096316"><time>2026-07-31T19:21:46Z</time></trkpt>
<trkpt lat="38.994178" lon="-120.096473"><time>2026-07-31T19:22:24Z</time></trkpt>
<trkpt lat="38.994093" lon="-120.096395"><time>2026-07-31T19:22:33Z</time></trkpt>
<trkpt lat="38.993870" lon="-120.096349"><time>2026-07-31T19:22:53Z</time></trkpt>
<trkpt lat="38.993464" lon="-120.096455"><time>2026-07-31T19:23:29Z</time></trkpt>
<trkpt lat="38.993341" lon="-120.096439"><time>2026-07-31T19:23:37Z</time></trkpt>
<trkpt lat="38.993142" lon="-120.096329"><time>2026-07-31T19:23:57Z</time></trkpt>
<trkpt lat="38.992804" lon="-120.096305"><time>2026-07-31T19:24:30Z</time></trkpt>
<trkpt lat="38.992574" lon="-120.096148"><time>2026-07-31T19:24:52Z</time></trkpt>
<trkpt lat="38.992460" lon="-120.096146"><time>2026-07-31T19:25:02Z</time></trkpt>
<trkpt lat="38.992229" lon="-120.096255"><time>2026-07-31T19:25:31Z</time></trkpt>
<trkpt lat="38.992123" lon="-120.096232"><time>2026-07-31T19:25:42Z</time></trkpt>
<trkpt lat="38.991849" lon="-120.096255"><time>2026-07-31T19:26:04Z</time></trkpt>
<trkpt lat="38.991527" lon="-120.096420"><time>2026-07-31T19:26:36Z</time></trkpt>
<trkpt lat="38.991356" lon="-120.096446"><time>2026-07-31T19:26:52Z</time></trkpt>
<trkpt lat="38.990964" lon="-120.096380"><time>2026-07-31T19:27:23Z</time></trkpt>
<trkpt lat="38.990697" lon="-120.096188"><time>2026-07-31T19:27:46Z</time></trkpt>
<trkpt lat="38.990631" lon="-120.096237"><time>2026-07-31T19:27:53Z</time></trkpt>
<trkpt lat="38.990576" lon="-120.096348"><time>2026-07-31T19:28:01Z</time></trkpt>
<trkpt lat="38.990430" lon="-120.096793"><time>2026-07-31T19:28:30Z</time></trkpt>
<trkpt lat="38.990369" lon="-120.096891"><time>2026-07-31T19:28:37Z</time></trkpt>
<trkpt lat="38.990220" lon="-120.097077"><time>2026-07-31T19:28:55Z</time></trkpt>
<trkpt lat="38.990080" lon="-120.097086"><time>2026-07-31T19:29:18Z</time></trkpt>
<trkpt lat="38.989931" lon="-120.097169"><time>2026-07-31T19:29:37Z</time></trkpt>
<trkpt lat="38.989770" lon="-120.097452"><time>2026-07-31T19:29:59Z</time></trkpt>
<trkpt lat="38.989654" lon="-120.097570"><time>2026-07-31T19:30:11Z</time></trkpt>
<trkpt lat="38.989577" lon="-120.097889"><time>2026-07-31T19:30:32Z</time></trkpt>
<trkpt lat="38.989526" lon="-120.097993"><time>2026-07-31T19:30:40Z</time></trkpt>
<trkpt lat="38.989224" lon="-120.098068"><time>2026-07-31T19:31:05Z</time></trkpt>
<trkpt lat="38.989051" lon="-120.098448"><time>2026-07-31T19:31:34Z</time></trkpt>
<trkpt lat="38.988833" lon="-120.098527"><time>2026-07-31T19:31:48Z</time></trkpt>
<trkpt lat="38.988533" lon="-120.098378"><time>2026-07-31T19:32:18Z</time></trkpt>
<trkpt lat="38.988106" lon="-120.098528"><time>2026-07-31T19:32:58Z</time></trkpt>
<trkpt lat="38.987638" lon="-120.098454"><time>2026-07-31T19:33:37Z</time></trkpt>
<trkpt lat="38.986933" lon="-120.098830"><time>2026-07-31T19:34:41Z</time></trkpt>
<trkpt lat="38.986763" lon="-120.098999"><time>2026-07-31T19:34:58Z</time></trkpt>
<trkpt lat="38.986596" lon="-120.099087"><time>2026-07-31T19:35:16Z</time></trkpt>
<trkpt lat="38.986416" lon="-120.099034"><time>2026-07-31T19:35:32Z</time></trkpt>
<trkpt lat="38.986266" lon="-120.098888"><time>2026-07-31T19:35:42Z</time></trkpt>
<trkpt lat="38.986137" lon="-120.098830"><time>2026-07-31T19:35:52Z</time></trkpt>
<trkpt lat="38.986028" lon="-120.098679"><time>2026-07-31T19:36:05Z</time></trkpt>
<trkpt lat="38.985781" lon="-120.098494"><time>2026-07-31T19:36:27Z</time></trkpt>
<trkpt lat="38.985716" lon="-120.098372"><time>2026-07-31T19:36:36Z</time></trkpt>
<trkpt lat="38.985651" lon="-120.098322"><time>2026-07-31T19:36:41Z</time></trkpt>
<trkpt lat="38.985526" lon="-120.097905"><time>2026-07-31T19:37:08Z</time></trkpt>
<trkpt lat="38.985349" lon="-120.097681"><time>2026-07-31T19:37:27Z</time></trkpt>
<trkpt lat="38.984564" lon="-120.097345"><time>2026-07-31T19:38:32Z</time></trkpt>
<trkpt lat="38.984261" lon="-120.097097"><time>2026-07-31T19:38:58Z</time></trkpt>
<trkpt lat="38.984082" lon="-120.096881"><time>2026-07-31T19:39:19Z</time></trkpt>
<trkpt lat="38.983422" lon="-120.096521"><time>2026-07-31T19:40:15Z</time></trkpt>
<trkpt lat="38.983118" lon="-120.096249"><time>2026-07-31T19:40:43Z</time></trkpt>
<trkpt lat="38.982741" lon="-120.096045"><time>2026-07-31T19:41:15Z</time></trkpt>
<trkpt lat="38.982551" lon="-120.095978"><time>2026-07-31T19:41:33Z</time></trkpt>
<trkpt lat="38.982176" lon="-120.096003"><time>2026-07-31T19:42:01Z</time></trkpt>
<trkpt lat="38.981754" lon="-120.096118"><time>2026-07-31T19:42:36Z</time></trkpt>
<trkpt lat="38.981444" lon="-120.096161"><time>2026-07-31T19:43:01Z</time></trkpt>
<trkpt lat="38.981137" lon="-120.096306"><time>2026-07-31T19:43:26Z</time></trkpt>
<trkpt lat="38.980818" lon="-120.096342"><time>2026-07-31T19:43:51Z</time></trkpt>
<trkpt lat="38.980644" lon="-120.095959"><time>2026-07-31T19:44:19Z</time></trkpt>
<trkpt lat="38.980394" lon="-120.095699"><time>2026-07-31T19:44:48Z</time></trkpt>
<trkpt lat="38.980216" lon="-120.095641"><time>2026-07-31T19:45:04Z</time></trkpt>
<trkpt lat="38.980032" lon="-120.095639"><time>2026-07-31T19:45:22Z</time></trkpt>
<trkpt lat="38.979863" lon="-120.095681"><time>2026-07-31T19:45:34Z</time></trkpt>
<trkpt lat="38.979641" lon="-120.095800"><time>2026-07-31T19:45:54Z</time></trkpt>
<trkpt lat="38.979403" lon="-120.095818"><time>2026-07-31T19:46:14Z</time></trkpt>
<trkpt lat="38.979067" lon="-120.095725"><time>2026-07-31T19:46:41Z</time></trkpt>
<trkpt lat="38.979010" lon="-120.095649"><time>2026-07-31T19:46:52Z</time></trkpt>
<trkpt lat="38.978985" lon="-120.095525"><time>2026-07-31T19:47:25Z</time></trkpt>
<trkpt lat="38.979272" lon="-120.095651"><time>2026-07-31T19:47:54Z</time></trkpt>
<trkpt lat="38.979545" lon="-120.095719"><time>2026-07-31T19:48:19Z</time></trkpt>
<trkpt lat="38.979914" lon="-120.095467"><time>2026-07-31T19:48:53Z</time></trkpt>
<trkpt lat="38.980032" lon="-120.095442"><time>2026-07-31T19:49:02Z</time></trkpt>
<trkpt lat="38.980385" lon="-120.095516"><time>2026-07-31T19:49:32Z</time></trkpt>
<trkpt lat="38.980579" lon="-120.095745"><time>2026-07-31T19:50:01Z</time></trkpt>
<trkpt lat="38.980678" lon="-120.096002"><time>2026-07-31T19:50:22Z</time></trkpt>
<trkpt lat="38.980742" lon="-120.096063"><time>2026-07-31T19:50:32Z</time></trkpt>
<trkpt lat="38.981891" lon="-120.095751"><time>2026-07-31T19:52:11Z</time></trkpt>
<trkpt lat="38.982332" lon="-120.095508"><time>2026-07-31T19:52:56Z</time></trkpt>
<trkpt lat="38.982603" lon="-120.095470"><time>2026-07-31T19:53:15Z</time></trkpt>
<trkpt lat="38.982768" lon="-120.095507"><time>2026-07-31T19:53:27Z</time></trkpt>
<trkpt lat="38.983227" lon="-120.095782"><time>2026-07-31T19:54:12Z</time></trkpt>
<trkpt lat="38.983424" lon="-120.095935"><time>2026-07-31T19:54:33Z</time></trkpt>
<trkpt lat="38.983498" lon="-120.096041"><time>2026-07-31T19:54:43Z</time></trkpt>
<trkpt lat="38.983842" lon="-120.096080"><time>2026-07-31T19:55:08Z</time></trkpt>
<trkpt lat="38.984023" lon="-120.096308"><time>2026-07-31T19:55:30Z</time></trkpt>
<trkpt lat="38.984232" lon="-120.096457"><time>2026-07-31T19:55:52Z</time></trkpt>
<trkpt lat="38.985070" lon="-120.096881"><time>2026-07-31T19:57:09Z</time></trkpt>
<trkpt lat="38.985281" lon="-120.097124"><time>2026-07-31T19:57:32Z</time></trkpt>
<trkpt lat="38.985580" lon="-120.097589"><time>2026-07-31T19:58:14Z</time></trkpt>
<trkpt lat="38.985935" lon="-120.097800"><time>2026-07-31T19:58:51Z</time></trkpt>
<trkpt lat="38.986132" lon="-120.097977"><time>2026-07-31T19:59:09Z</time></trkpt>
<trkpt lat="38.986328" lon="-120.097997"><time>2026-07-31T19:59:26Z</time></trkpt>
<trkpt lat="38.986577" lon="-120.097861"><time>2026-07-31T19:59:47Z</time></trkpt>
<trkpt lat="38.986652" lon="-120.097767"><time>2026-07-31T19:59:54Z</time></trkpt>
<trkpt lat="38.986873" lon="-120.097626"><time>2026-07-31T20:00:12Z</time></trkpt>
<trkpt lat="38.987113" lon="-120.097544"><time>2026-07-31T20:00:35Z</time></trkpt>
<trkpt lat="38.987320" lon="-120.097415"><time>2026-07-31T20:00:51Z</time></trkpt>
<trkpt lat="38.987661" lon="-120.097444"><time>2026-07-31T20:01:20Z</time></trkpt>
<trkpt lat="38.987724" lon="-120.097479"><time>2026-07-31T20:01:27Z</time></trkpt>
<trkpt lat="38.988133" lon="-120.097375"><time>2026-07-31T20:01:58Z</time></trkpt>
<trkpt lat="38.988362" lon="-120.097411"><time>2026-07-31T20:02:14Z</time></trkpt>
<trkpt lat="38.988554" lon="-120.097552"><time>2026-07-31T20:02:31Z</time></trkpt>
<trkpt lat="38.988776" lon="-120.097511"><time>2026-07-31T20:02:52Z</time></trkpt>
<trkpt lat="38.988916" lon="-120.097153"><time>2026-07-31T20:03:13Z</time></trkpt>
<trkpt lat="38.989194" lon="-120.096977"><time>2026-07-31T20:03:37Z</time></trkpt>
<trkpt lat="38.989326" lon="-120.096830"><time>2026-07-31T20:03:54Z</time></trkpt>
<trkpt lat="38.989455" lon="-120.096525"><time>2026-07-31T20:04:13Z</time></trkpt>
<trkpt lat="38.989587" lon="-120.096310"><time>2026-07-31T20:04:28Z</time></trkpt>
<trkpt lat="38.989705" lon="-120.096204"><time>2026-07-31T20:04:42Z</time></trkpt>
<trkpt lat="38.990039" lon="-120.096071"><time>2026-07-31T20:05:09Z</time></trkpt>
<trkpt lat="38.990302" lon="-120.095761"><time>2026-07-31T20:05:38Z</time></trkpt>
<trkpt lat="38.990481" lon="-120.095402"><time>2026-07-31T20:06:06Z</time></trkpt>
<trkpt lat="38.990581" lon="-120.095421"><time>2026-07-31T20:06:13Z</time></trkpt>
<trkpt lat="38.990807" lon="-120.095551"><time>2026-07-31T20:06:32Z</time></trkpt>
<trkpt lat="38.991024" lon="-120.095599"><time>2026-07-31T20:06:51Z</time></trkpt>
<trkpt lat="38.991433" lon="-120.095594"><time>2026-07-31T20:07:21Z</time></trkpt>
<trkpt lat="38.991502" lon="-120.095642"><time>2026-07-31T20:07:29Z</time></trkpt>
<trkpt lat="38.991633" lon="-120.095620"><time>2026-07-31T20:07:41Z</time></trkpt>
<trkpt lat="38.991932" lon="-120.095649"><time>2026-07-31T20:08:04Z</time></trkpt>
<trkpt lat="38.992116" lon="-120.095635"><time>2026-07-31T20:08:21Z</time></trkpt>
<trkpt lat="38.992260" lon="-120.095568"><time>2026-07-31T20:08:36Z</time></trkpt>
<trkpt lat="38.992435" lon="-120.095590"><time>2026-07-31T20:08:52Z</time></trkpt>
<trkpt lat="38.992676" lon="-120.095785"><time>2026-07-31T20:09:15Z</time></trkpt>
<trkpt lat="38.992876" lon="-120.095753"><time>2026-07-31T20:09:33Z</time></trkpt>
<trkpt lat="38.992962" lon="-120.095778"><time>2026-07-31T20:09:39Z</time></trkpt>
<trkpt lat="38.993036" lon="-120.095854"><time>2026-07-31T20:09:50Z</time></trkpt>
<trkpt lat="38.993429" lon="-120.095839"><time>2026-07-31T20:10:14Z</time></trkpt>
<trkpt lat="38.993640" lon="-120.095764"><time>2026-07-31T20:10:31Z</time></trkpt>
<trkpt lat="38.993817" lon="-120.095788"><time>2026-07-31T20:10:46Z</time></trkpt>
<trkpt lat="38.994005" lon="-120.095882"><time>2026-07-31T20:11:02Z</time></trkpt>
<trkpt lat="38.994119" lon="-120.095986"><time>2026-07-31T20:11:22Z</time></trkpt>
<trkpt lat="38.994322" lon="-120.095855"><time>2026-07-31T20:11:40Z</time></trkpt>
<trkpt lat="38.994439" lon="-120.095823"><time>2026-07-31T20:11:50Z</time></trkpt>
<trkpt lat="38.994844" lon="-120.095973"><time>2026-07-31T20:12:23Z</time></trkpt>
<trkpt lat="38.995103" lon="-120.095769"><time>2026-07-31T20:12:57Z</time></trkpt>
<trkpt lat="38.995486" lon="-120.095761"><time>2026-07-31T20:13:30Z</time></trkpt>
<trkpt lat="38.995616" lon="-120.095734"><time>2026-07-31T20:13:38Z</time></trkpt>
<trkpt lat="38.995713" lon="-120.095654"><time>2026-07-31T20:13:44Z</time></trkpt>
<trkpt lat="38.995687" lon="-120.095479"><time>2026-07-31T20:13:57Z</time></trkpt>
<trkpt lat="38.995779" lon="-120.095186"><time>2026-07-31T20:14:24Z</time></trkpt>
<trkpt lat="38.995731" lon="-120.094894"><time>2026-07-31T20:14:55Z</time></trkpt>
<trkpt lat="38.995758" lon="-120.094833"><time>2026-07-31T20:15:01Z</time></trkpt>
<trkpt lat="38.995906" lon="-120.094809"><time>2026-07-31T20:15:16Z</time></trkpt>
<trkpt lat="38.996129" lon="-120.094936"><time>2026-07-31T20:15:36Z</time></trkpt>
<trkpt lat="38.996274" lon="-120.094878"><time>2026-07-31T20:15:53Z</time></trkpt>
<trkpt lat="38.996416" lon="-120.094895"><time>2026-07-31T20:16:02Z</time></trkpt>
<trkpt lat="38.996605" lon="-120.095058"><time>2026-07-31T20:16:22Z</time></trkpt>
<trkpt lat="38.996792" lon="-120.095094"><time>2026-07-31T20:16:42Z</time></trkpt>
<trkpt lat="38.996931" lon="-120.095200"><time>2026-07-31T20:17:06Z</time></trkpt>
<trkpt lat="38.996991" lon="-120.095339"><time>2026-07-31T20:17:19Z</time></trkpt>
<trkpt lat="38.997074" lon="-120.095438"><time>2026-07-31T20:17:30Z</time></trkpt>
<trkpt lat="38.997102" lon="-120.095538"><time>2026-07-31T20:17:37Z</time></trkpt>
<trkpt lat="38.997144" lon="-120.095524"><time>2026-07-31T20:17:42Z</time></trkpt>
<trkpt lat="38.997202" lon="-120.095563"><time>2026-07-31T20:17:52Z</time></trkpt>
<trkpt lat="38.997228" lon="-120.095637"><time>2026-07-31T20:17:57Z</time></trkpt>
<trkpt lat="38.997364" lon="-120.095601"><time>2026-07-31T20:18:31Z</time></trkpt>
<trkpt lat="38.997721" lon="-120.095743"><time>2026-07-31T20:19:03Z</time></trkpt>
<trkpt lat="38.997932" lon="-120.095767"><time>2026-07-31T20:19:21Z</time></trkpt>
<trkpt lat="38.998117" lon="-120.095872"><time>2026-07-31T20:19:38Z</time></trkpt>
<trkpt lat="38.998347" lon="-120.096272"><time>2026-07-31T20:20:05Z</time></trkpt>
<trkpt lat="38.998442" lon="-120.096374"><time>2026-07-31T20:20:20Z</time></trkpt>
<trkpt lat="38.998557" lon="-120.096426"><time>2026-07-31T20:20:32Z</time></trkpt>
<trkpt lat="38.998757" lon="-120.096326"><time>2026-07-31T20:20:51Z</time></trkpt>
<trkpt lat="38.998861" lon="-120.096445"><time>2026-07-31T20:21:04Z</time></trkpt>
<trkpt lat="38.998894" lon="-120.096536"><time>2026-07-31T20:21:12Z</time></trkpt>
<trkpt lat="38.998872" lon="-120.096659"><time>2026-07-31T20:21:19Z</time></trkpt>
<trkpt lat="38.998817" lon="-120.096727"><time>2026-07-31T20:21:27Z</time></trkpt>
<trkpt lat="38.998820" lon="-120.096887"><time>2026-07-31T20:21:40Z</time></trkpt>
<trkpt lat="38.998686" lon="-120.097150"><time>2026-07-31T20:22:00Z</time></trkpt>
<trkpt lat="38.998647" lon="-120.097411"><time>2026-07-31T20:22:15Z</time></trkpt>
<trkpt lat="38.998604" lon="-120.097513"><time>2026-07-31T20:22:23Z</time></trkpt>
<trkpt lat="38.998612" lon="-120.097766"><time>2026-07-31T20:22:38Z</time></trkpt>
<trkpt lat="38.998468" lon="-120.098189"><time>2026-07-31T20:23:09Z</time></trkpt>
<trkpt lat="38.998433" lon="-120.098520"><time>2026-07-31T20:23:33Z</time></trkpt>
<trkpt lat="38.998465" lon="-120.098676"><time>2026-07-31T20:23:48Z</time></trkpt>
<trkpt lat="38.998783" lon="-120.099554"><time>2026-07-31T20:24:46Z</time></trkpt>
<trkpt lat="38.998877" lon="-120.099622"><time>2026-07-31T20:24:55Z</time></trkpt>
<trkpt lat="38.998968" lon="-120.099620"><time>2026-07-31T20:25:03Z</time></trkpt>
<trkpt lat="38.999030" lon="-120.099521"><time>2026-07-31T20:25:11Z</time></trkpt>
<trkpt lat="38.999117" lon="-120.099468"><time>2026-07-31T20:25:18Z</time></trkpt>
<trkpt lat="38.999365" lon="-120.099603"><time>2026-07-31T20:25:39Z</time></trkpt>
<trkpt lat="38.999598" lon="-120.100034"><time>2026-07-31T20:26:16Z</time></trkpt>
<trkpt lat="38.999757" lon="-120.100256"><time>2026-07-31T20:26:35Z</time></trkpt>
<trkpt lat="38.999801" lon="-120.100440"><time>2026-07-31T20:26:50Z</time></trkpt>
<trkpt lat="39.000016" lon="-120.100992"><time>2026-07-31T20:27:32Z</time></trkpt>
<trkpt lat="39.000462" lon="-120.101759"><time>2026-07-31T20:28:33Z</time></trkpt>
<trkpt lat="39.000497" lon="-120.101776"><time>2026-07-31T20:28:38Z</time></trkpt>
<trkpt lat="39.000546" lon="-120.101720"><time>2026-07-31T20:29:20Z</time></trkpt>
</trkseg></trk>
</gpx>
