<?xml version="1.0" encoding="UTF-8"?>
<gpx version="1.1" creator="Eric Sichak trip reports" xmlns="http://www.topografix.com/GPX/1/1">
<metadata><name>Ride near South Lake Tahoe</name><time>2025-05-09T00:08:17Z</time></metadata>
<trk><name>Ride near South Lake Tahoe</name><type>mtb</type><trkseg>
<trkpt lat="38.922555" lon="-120.045945"><ele>1949.8</ele><time>2025-05-09T00:08:17Z</time></trkpt>
<trkpt lat="38.922711" lon="-120.045863"><ele>1950.2</ele><time>2025-05-09T00:08:43Z</time></trkpt>
<trkpt lat="38.922675" lon="-120.045637"><ele>1950.0</ele><time>2025-05-09T00:08:50Z</time></trkpt>
<trkpt lat="38.922733" lon="-120.045540"><ele>1950.6</ele><time>2025-05-09T00:08:55Z</time></trkpt>
<trkpt lat="38.922677" lon="-120.045446"><ele>1951.0</ele><time>2025-05-09T00:08:59Z</time></trkpt>
<trkpt lat="38.922667" lon="-120.045310"><ele>1951.0</ele><time>2025-05-09T00:09:03Z</time></trkpt>
<trkpt lat="38.922739" lon="-120.045157"><ele>1950.4</ele><time>2025-05-09T00:09:06Z</time></trkpt>
<trkpt lat="38.922941" lon="-120.044938"><ele>1949.6</ele><time>2025-05-09T00:09:12Z</time></trkpt>
<trkpt lat="38.923010" lon="-120.044749"><ele>1950.2</ele><time>2025-05-09T00:09:17Z</time></trkpt>
<trkpt lat="38.923088" lon="-120.044257"><ele>1952.4</ele><time>2025-05-09T00:09:33Z</time></trkpt>
<trkpt lat="38.923193" lon="-120.043948"><ele>1952.2</ele><time>2025-05-09T00:09:40Z</time></trkpt>
<trkpt lat="38.923308" lon="-120.043826"><ele>1951.6</ele><time>2025-05-09T00:09:44Z</time></trkpt>
<trkpt lat="38.923772" lon="-120.043594"><ele>1951.8</ele><time>2025-05-09T00:09:56Z</time></trkpt>
<trkpt lat="38.923884" lon="-120.043492"><ele>1951.6</ele><time>2025-05-09T00:09:59Z</time></trkpt>
<trkpt lat="38.924002" lon="-120.043026"><ele>1948.4</ele><time>2025-05-09T00:10:05Z</time></trkpt>
<trkpt lat="38.924211" lon="-120.042685"><ele>1946.8</ele><time>2025-05-09T00:10:10Z</time></trkpt>
<trkpt lat="38.924374" lon="-120.042023"><ele>1944.4</ele><time>2025-05-09T00:10:17Z</time></trkpt>
<trkpt lat="38.924471" lon="-120.041863"><ele>1943.4</ele><time>2025-05-09T00:10:19Z</time></trkpt>
<trkpt lat="38.924785" lon="-120.041499"><ele>1941.2</ele><time>2025-05-09T00:10:24Z</time></trkpt>
<trkpt lat="38.924870" lon="-120.041336"><ele>1940.6</ele><time>2025-05-09T00:10:26Z</time></trkpt>
<trkpt lat="38.924945" lon="-120.041072"><ele>1940.4</ele><time>2025-05-09T00:10:29Z</time></trkpt>
<trkpt lat="38.924978" lon="-120.040801"><ele>1940.8</ele><time>2025-05-09T00:10:32Z</time></trkpt>
<trkpt lat="38.924947" lon="-120.040539"><ele>1940.6</ele><time>2025-05-09T00:10:35Z</time></trkpt>
<trkpt lat="38.924894" lon="-120.040378"><ele>1940.0</ele><time>2025-05-09T00:10:37Z</time></trkpt>
<trkpt lat="38.924777" lon="-120.040163"><ele>1939.4</ele><time>2025-05-09T00:10:40Z</time></trkpt>
<trkpt lat="38.924552" lon="-120.039901"><ele>1939.2</ele><time>2025-05-09T00:10:45Z</time></trkpt>
<trkpt lat="38.924483" lon="-120.039626"><ele>1939.0</ele><time>2025-05-09T00:10:49Z</time></trkpt>
<trkpt lat="38.924221" lon="-120.038994"><ele>1938.2</ele><time>2025-05-09T00:10:58Z</time></trkpt>
<trkpt lat="38.924160" lon="-120.038766"><ele>1938.0</ele><time>2025-05-09T00:11:01Z</time></trkpt>
<trkpt lat="38.924088" lon="-120.038164"><ele>1937.4</ele><time>2025-05-09T00:11:09Z</time></trkpt>
<trkpt lat="38.924032" lon="-120.037997"><ele>1936.2</ele><time>2025-05-09T00:11:32Z</time></trkpt>
<trkpt lat="38.923617" lon="-120.037618"><ele>1939.2</ele><time>2025-05-09T00:12:33Z</time></trkpt>
<trkpt lat="38.923338" lon="-120.037271"><ele>1941.0</ele><time>2025-05-09T00:12:47Z</time></trkpt>
<trkpt lat="38.923110" lon="-120.037130"><ele>1942.8</ele><time>2025-05-09T00:12:58Z</time></trkpt>
<trkpt lat="38.922958" lon="-120.036893"><ele>1943.4</ele><time>2025-05-09T00:13:08Z</time></trkpt>
<trkpt lat="38.922878" lon="-120.036578"><ele>1943.2</ele><time>2025-05-09T00:13:19Z</time></trkpt>
<trkpt lat="38.922944" lon="-120.036361"><ele>1942.6</ele><time>2025-05-09T00:13:24Z</time></trkpt>
<trkpt lat="38.923113" lon="-120.036137"><ele>1940.6</ele><time>2025-05-09T00:13:29Z</time></trkpt>
<trkpt lat="38.923119" lon="-120.035962"><ele>1939.8</ele><time>2025-05-09T00:13:32Z</time></trkpt>
<trkpt lat="38.922958" lon="-120.035650"><ele>1938.4</ele><time>2025-05-09T00:13:38Z</time></trkpt>
<trkpt lat="38.922717" lon="-120.035017"><ele>1938.8</ele><time>2025-05-09T00:13:51Z</time></trkpt>
<trkpt lat="38.922421" lon="-120.034505"><ele>1938.8</ele><time>2025-05-09T00:14:05Z</time></trkpt>
<trkpt lat="38.921829" lon="-120.033831"><ele>1942.2</ele><time>2025-05-09T00:14:32Z</time></trkpt>
<trkpt lat="38.921045" lon="-120.033190"><ele>1947.0</ele><time>2025-05-09T00:15:20Z</time></trkpt>
<trkpt lat="38.920593" lon="-120.032897"><ele>1949.8</ele><time>2025-05-09T00:15:42Z</time></trkpt>
<trkpt lat="38.920282" lon="-120.032562"><ele>1951.0</ele><time>2025-05-09T00:15:59Z</time></trkpt>
<trkpt lat="38.920143" lon="-120.032509"><ele>1950.8</ele><time>2025-05-09T00:16:06Z</time></trkpt>
<trkpt lat="38.920044" lon="-120.032366"><ele>1950.4</ele><time>2025-05-09T00:16:12Z</time></trkpt>
<trkpt lat="38.919873" lon="-120.032269"><ele>1951.6</ele><time>2025-05-09T00:16:19Z</time></trkpt>
<trkpt lat="38.919455" lon="-120.031831"><ele>1952.6</ele><time>2025-05-09T00:16:40Z</time></trkpt>
<trkpt lat="38.919326" lon="-120.031782"><ele>1954.2</ele><time>2025-05-09T00:16:46Z</time></trkpt>
<trkpt lat="38.919236" lon="-120.031634"><ele>1953.6</ele><time>2025-05-09T00:16:52Z</time></trkpt>
<trkpt lat="38.919002" lon="-120.031447"><ele>1953.6</ele><time>2025-05-09T00:17:03Z</time></trkpt>
<trkpt lat="38.918880" lon="-120.031283"><ele>1954.2</ele><time>2025-05-09T00:17:09Z</time></trkpt>
<trkpt lat="38.918818" lon="-120.031127"><ele>1954.4</ele><time>2025-05-09T00:17:13Z</time></trkpt>
<trkpt lat="38.918749" lon="-120.031041"><ele>1954.6</ele><time>2025-05-09T00:17:16Z</time></trkpt>
<trkpt lat="38.918630" lon="-120.030968"><ele>1954.8</ele><time>2025-05-09T00:17:21Z</time></trkpt>
<trkpt lat="38.918499" lon="-120.030792"><ele>1955.4</ele><time>2025-05-09T00:17:28Z</time></trkpt>
<trkpt lat="38.918339" lon="-120.030758"><ele>1955.2</ele><time>2025-05-09T00:17:33Z</time></trkpt>
<trkpt lat="38.917984" lon="-120.030414"><ele>1956.4</ele><time>2025-05-09T00:17:48Z</time></trkpt>
<trkpt lat="38.917824" lon="-120.030375"><ele>1956.2</ele><time>2025-05-09T00:17:54Z</time></trkpt>
<trkpt lat="38.917363" lon="-120.030049"><ele>1957.4</ele><time>2025-05-09T00:18:15Z</time></trkpt>
<trkpt lat="38.916985" lon="-120.029910"><ele>1957.8</ele><time>2025-05-09T00:18:35Z</time></trkpt>
<trkpt lat="38.916920" lon="-120.029828"><ele>1958.0</ele><time>2025-05-09T00:18:39Z</time></trkpt>
<trkpt lat="38.916848" lon="-120.029838"><ele>1958.2</ele><time>2025-05-09T00:18:42Z</time></trkpt>
<trkpt lat="38.916639" lon="-120.029725"><ele>1958.4</ele><time>2025-05-09T00:18:53Z</time></trkpt>
<trkpt lat="38.916308" lon="-120.029677"><ele>1959.0</ele><time>2025-05-09T00:19:10Z</time></trkpt>
<trkpt lat="38.916186" lon="-120.029578"><ele>1959.4</ele><time>2025-05-09T00:19:16Z</time></trkpt>
<trkpt lat="38.916062" lon="-120.029545"><ele>1959.0</ele><time>2025-05-09T00:19:21Z</time></trkpt>
<trkpt lat="38.915978" lon="-120.029436"><ele>1959.0</ele><time>2025-05-09T00:19:24Z</time></trkpt>
<trkpt lat="38.915852" lon="-120.029371"><ele>1958.6</ele><time>2025-05-09T00:19:28Z</time></trkpt>
<trkpt lat="38.915776" lon="-120.029271"><ele>1958.6</ele><time>2025-05-09T00:19:31Z</time></trkpt>
<trkpt lat="38.915507" lon="-120.029111"><ele>1958.8</ele><time>2025-05-09T00:19:39Z</time></trkpt>
<trkpt lat="38.915438" lon="-120.029004"><ele>1958.4</ele><time>2025-05-09T00:19:42Z</time></trkpt>
<trkpt lat="38.915258" lon="-120.028912"><ele>1957.8</ele><time>2025-05-09T00:19:47Z</time></trkpt>
<trkpt lat="38.915120" lon="-120.028735"><ele>1957.6</ele><time>2025-05-09T00:19:52Z</time></trkpt>
<trkpt lat="38.914763" lon="-120.028447"><ele>1957.0</ele><time>2025-05-09T00:20:04Z</time></trkpt>
<trkpt lat="38.914382" lon="-120.028036"><ele>1956.6</ele><time>2025-05-09T00:20:15Z</time></trkpt>
<trkpt lat="38.914147" lon="-120.027699"><ele>1957.6</ele><time>2025-05-09T00:20:23Z</time></trkpt>
<trkpt lat="38.913985" lon="-120.027593"><ele>1957.0</ele><time>2025-05-09T00:20:27Z</time></trkpt>
<trkpt lat="38.913865" lon="-120.027408"><ele>1956.6</ele><time>2025-05-09T00:20:31Z</time></trkpt>
<trkpt lat="38.913711" lon="-120.027257"><ele>1956.4</ele><time>2025-05-09T00:20:35Z</time></trkpt>
<trkpt lat="38.913592" lon="-120.027054"><ele>1956.4</ele><time>2025-05-09T00:20:39Z</time></trkpt>
<trkpt lat="38.913112" lon="-120.026909"><ele>1957.2</ele><time>2025-05-09T00:20:54Z</time></trkpt>
<trkpt lat="38.912977" lon="-120.026800"><ele>1956.8</ele><time>2025-05-09T00:21:00Z</time></trkpt>
<trkpt lat="38.912813" lon="-120.026762"><ele>1957.0</ele><time>2025-05-09T00:21:06Z</time></trkpt>
<trkpt lat="38.912727" lon="-120.026675"><ele>1957.4</ele><time>2025-05-09T00:21:10Z</time></trkpt>
<trkpt lat="38.912629" lon="-120.026639"><ele>1957.4</ele><time>2025-05-09T00:21:14Z</time></trkpt>
<trkpt lat="38.912523" lon="-120.026517"><ele>1957.6</ele><time>2025-05-09T00:21:20Z</time></trkpt>
<trkpt lat="38.912469" lon="-120.026514"><ele>1957.6</ele><time>2025-05-09T00:21:23Z</time></trkpt>
<trkpt lat="38.912431" lon="-120.026564"><ele>1958.4</ele><time>2025-05-09T00:21:26Z</time></trkpt>
<trkpt lat="38.912518" lon="-120.026803"><ele>1965.8</ele><time>2025-05-09T00:21:37Z</time></trkpt>
<trkpt lat="38.912623" lon="-120.027026"><ele>1967.8</ele><time>2025-05-09T00:21:50Z</time></trkpt>
<trkpt lat="38.912641" lon="-120.027190"><ele>1967.6</ele><time>2025-05-09T00:21:57Z</time></trkpt>
<trkpt lat="38.912614" lon="-120.027236"><ele>1968.8</ele><time>2025-05-09T00:22:00Z</time></trkpt>
<trkpt lat="38.912542" lon="-120.027246"><ele>1969.2</ele><time>2025-05-09T00:22:04Z</time></trkpt>
<trkpt lat="38.912264" lon="-120.027137"><ele>1968.2</ele><time>2025-05-09T00:22:22Z</time></trkpt>
<trkpt lat="38.912195" lon="-120.027194"><ele>1968.6</ele><time>2025-05-09T00:22:28Z</time></trkpt>
<trkpt lat="38.912185" lon="-120.027256"><ele>1969.6</ele><time>2025-05-09T00:22:32Z</time></trkpt>
<trkpt lat="38.912227" lon="-120.027392"><ele>1975.4</ele><time>2025-05-09T00:22:40Z</time></trkpt>
<trkpt lat="38.912377" lon="-120.027818"><ele>1980.0</ele><time>2025-05-09T00:23:08Z</time></trkpt>
<trkpt lat="38.912503" lon="-120.027952"><ele>1980.8</ele><time>2025-05-09T00:23:18Z</time></trkpt>
<trkpt lat="38.912560" lon="-120.028051"><ele>1978.2</ele><time>2025-05-09T00:23:39Z</time></trkpt>
<trkpt lat="38.912589" lon="-120.028240"><ele>1979.2</ele><time>2025-05-09T00:23:49Z</time></trkpt>
<trkpt lat="38.912692" lon="-120.028499"><ele>1981.8</ele><time>2025-05-09T00:24:06Z</time></trkpt>
<trkpt lat="38.913010" lon="-120.028817"><ele>1985.4</ele><time>2025-05-09T00:24:39Z</time></trkpt>
<trkpt lat="38.912973" lon="-120.028892"><ele>1985.8</ele><time>2025-05-09T00:24:45Z</time></trkpt>
<trkpt lat="38.912834" lon="-120.028841"><ele>1986.0</ele><time>2025-05-09T00:24:55Z</time></trkpt>
<trkpt lat="38.912712" lon="-120.028881"><ele>1986.4</ele><time>2025-05-09T00:25:06Z</time></trkpt>
<trkpt lat="38.912724" lon="-120.028961"><ele>1987.2</ele><time>2025-05-09T00:25:12Z</time></trkpt>
<trkpt lat="38.912993" lon="-120.029232"><ele>1989.0</ele><time>2025-05-09T00:25:34Z</time></trkpt>
<trkpt lat="38.913116" lon="-120.029450"><ele>1993.0</ele><time>2025-05-09T00:25:51Z</time></trkpt>
<trkpt lat="38.913155" lon="-120.029516"><ele>1998.0</ele><time>2025-05-09T00:25:57Z</time></trkpt>
<trkpt lat="38.913215" lon="-120.029631"><ele>1998.4</ele><time>2025-05-09T00:26:06Z</time></trkpt>
<trkpt lat="38.913356" lon="-120.029734"><ele>1999.4</ele><time>2025-05-09T00:26:18Z</time></trkpt>
<trkpt lat="38.913382" lon="-120.029772"><ele>2002.6</ele><time>2025-05-09T00:26:21Z</time></trkpt>
<trkpt lat="38.913619" lon="-120.030154"><ele>2007.2</ele><time>2025-05-09T00:26:51Z</time></trkpt>
<trkpt lat="38.913765" lon="-120.030337"><ele>2006.8</ele><time>2025-05-09T00:27:02Z</time></trkpt>
<trkpt lat="38.913870" lon="-120.030526"><ele>2012.6</ele><time>2025-05-09T00:27:15Z</time></trkpt>
<trkpt lat="38.913961" lon="-120.030611"><ele>2013.0</ele><time>2025-05-09T00:27:24Z</time></trkpt>
<trkpt lat="38.914158" lon="-120.030902"><ele>2015.6</ele><time>2025-05-09T00:27:47Z</time></trkpt>
<trkpt lat="38.914596" lon="-120.031139"><ele>2021.0</ele><time>2025-05-09T00:28:22Z</time></trkpt>
<trkpt lat="38.914606" lon="-120.031174"><ele>2019.4</ele><time>2025-05-09T00:28:39Z</time></trkpt>
<trkpt lat="38.914798" lon="-120.031276"><ele>2021.2</ele><time>2025-05-09T00:28:52Z</time></trkpt>
<trkpt lat="38.914894" lon="-120.031364"><ele>2025.0</ele><time>2025-05-09T00:28:59Z</time></trkpt>
<trkpt lat="38.915076" lon="-120.031636"><ele>2028.8</ele><time>2025-05-09T00:29:18Z</time></trkpt>
<trkpt lat="38.915380" lon="-120.031867"><ele>2031.0</ele><time>2025-05-09T00:29:47Z</time></trkpt>
<trkpt lat="38.915699" lon="-120.032189"><ele>2032.6</ele><time>2025-05-09T00:30:17Z</time></trkpt>
<trkpt lat="38.915789" lon="-120.032323"><ele>2034.0</ele><time>2025-05-09T00:30:25Z</time></trkpt>
<trkpt lat="38.915942" lon="-120.032445"><ele>2035.2</ele><time>2025-05-09T00:30:38Z</time></trkpt>
<trkpt lat="38.916043" lon="-120.032698"><ele>2036.0</ele><time>2025-05-09T00:30:53Z</time></trkpt>
<trkpt lat="38.916071" lon="-120.032973"><ele>2037.6</ele><time>2025-05-09T00:31:11Z</time></trkpt>
<trkpt lat="38.916434" lon="-120.033153"><ele>2040.8</ele><time>2025-05-09T00:31:37Z</time></trkpt>
<trkpt lat="38.916565" lon="-120.033318"><ele>2042.8</ele><time>2025-05-09T00:31:53Z</time></trkpt>
<trkpt lat="38.916678" lon="-120.033391"><ele>2043.2</ele><time>2025-05-09T00:32:01Z</time></trkpt>
<trkpt lat="38.916746" lon="-120.033485"><ele>2044.0</ele><time>2025-05-09T00:32:10Z</time></trkpt>
<trkpt lat="38.916855" lon="-120.033779"><ele>2047.6</ele><time>2025-05-09T00:32:56Z</time></trkpt>
<trkpt lat="38.917079" lon="-120.034194"><ele>2054.4</ele><time>2025-05-09T00:33:25Z</time></trkpt>
<trkpt lat="38.917319" lon="-120.034516"><ele>2059.2</ele><time>2025-05-09T00:34:16Z</time></trkpt>
<trkpt lat="38.917643" lon="-120.034869"><ele>2063.2</ele><time>2025-05-09T00:34:42Z</time></trkpt>
<trkpt lat="38.917832" lon="-120.035150"><ele>2067.0</ele><time>2025-05-09T00:35:04Z</time></trkpt>
<trkpt lat="38.917904" lon="-120.035176"><ele>2067.6</ele><time>2025-05-09T00:35:10Z</time></trkpt>
<trkpt lat="38.918013" lon="-120.035296"><ele>2069.2</ele><time>2025-05-09T00:35:20Z</time></trkpt>
<trkpt lat="38.918252" lon="-120.035813"><ele>2073.0</ele><time>2025-05-09T00:35:47Z</time></trkpt>
<trkpt lat="38.918279" lon="-120.035952"><ele>2074.0</ele><time>2025-05-09T00:35:55Z</time></trkpt>
<trkpt lat="38.918220" lon="-120.036117"><ele>2077.0</ele><time>2025-05-09T00:36:08Z</time></trkpt>
<trkpt lat="38.918102" lon="-120.035993"><ele>2078.4</ele><time>2025-05-09T00:37:14Z</time></trkpt>
<trkpt lat="38.917809" lon="-120.035524"><ele>2081.0</ele><time>2025-05-09T00:37:39Z</time></trkpt>
<trkpt lat="38.917026" lon="-120.035167"><ele>2089.6</ele><time>2025-05-09T00:38:57Z</time></trkpt>
<trkpt lat="38.916702" lon="-120.034938"><ele>2093.2</ele><time>2025-05-09T00:39:27Z</time></trkpt>
<trkpt lat="38.916614" lon="-120.034904"><ele>2094.2</ele><time>2025-05-09T00:39:33Z</time></trkpt>
<trkpt lat="38.916610" lon="-120.034934"><ele>2094.6</ele><time>2025-05-09T00:39:37Z</time></trkpt>
<trkpt lat="38.916629" lon="-120.034913"><ele>2094.4</ele><time>2025-05-09T00:40:43Z</time></trkpt>
<trkpt lat="38.916365" lon="-120.034811"><ele>2097.8</ele><time>2025-05-09T00:41:07Z</time></trkpt>
<trkpt lat="38.916156" lon="-120.034771"><ele>2100.2</ele><time>2025-05-09T00:41:19Z</time></trkpt>
<trkpt lat="38.915956" lon="-120.034680"><ele>2104.2</ele><time>2025-05-09T00:41:32Z</time></trkpt>
<trkpt lat="38.915803" lon="-120.034565"><ele>2106.2</ele><time>2025-05-09T00:41:43Z</time></trkpt>
<trkpt lat="38.915537" lon="-120.034494"><ele>2110.2</ele><time>2025-05-09T00:41:59Z</time></trkpt>
<trkpt lat="38.915231" lon="-120.034373"><ele>2112.2</ele><time>2025-05-09T00:42:18Z</time></trkpt>
<trkpt lat="38.915140" lon="-120.034300"><ele>2112.4</ele><time>2025-05-09T00:42:22Z</time></trkpt>
<trkpt lat="38.915068" lon="-120.034300"><ele>2112.4</ele><time>2025-05-09T00:42:25Z</time></trkpt>
<trkpt lat="38.915036" lon="-120.034325"><ele>2112.8</ele><time>2025-05-09T00:42:27Z</time></trkpt>
<trkpt lat="38.915041" lon="-120.034367"><ele>2113.6</ele><time>2025-05-09T00:42:29Z</time></trkpt>
<trkpt lat="38.915095" lon="-120.034381"><ele>2114.8</ele><time>2025-05-09T00:42:33Z</time></trkpt>
<trkpt lat="38.915258" lon="-120.034607"><ele>2119.4</ele><time>2025-05-09T00:43:08Z</time></trkpt>
<trkpt lat="38.915299" lon="-120.034641"><ele>2123.0</ele><time>2025-05-09T00:44:13Z</time></trkpt>
<trkpt lat="38.915709" lon="-120.034970"><ele>2127.0</ele><time>2025-05-09T00:44:36Z</time></trkpt>
<trkpt lat="38.916068" lon="-120.035356"><ele>2129.8</ele><time>2025-05-09T00:44:56Z</time></trkpt>
<trkpt lat="38.916198" lon="-120.035426"><ele>2130.6</ele><time>2025-05-09T00:45:01Z</time></trkpt>
<trkpt lat="38.916392" lon="-120.035638"><ele>2132.8</ele><time>2025-05-09T00:45:11Z</time></trkpt>
<trkpt lat="38.916440" lon="-120.035731"><ele>2133.6</ele><time>2025-05-09T00:45:15Z</time></trkpt>
<trkpt lat="38.916566" lon="-120.036242"><ele>2135.2</ele><time>2025-05-09T00:45:30Z</time></trkpt>
<trkpt lat="38.916587" lon="-120.036520"><ele>2136.0</ele><time>2025-05-09T00:45:37Z</time></trkpt>
<trkpt lat="38.916544" lon="-120.036699"><ele>2136.2</ele><time>2025-05-09T00:45:42Z</time></trkpt>
<trkpt lat="38.916609" lon="-120.036966"><ele>2137.2</ele><time>2025-05-09T00:45:50Z</time></trkpt>
<trkpt lat="38.916601" lon="-120.037091"><ele>2137.6</ele><time>2025-05-09T00:45:55Z</time></trkpt>
<trkpt lat="38.916535" lon="-120.037176"><ele>2138.6</ele><time>2025-05-09T00:46:00Z</time></trkpt>
<trkpt lat="38.916475" lon="-120.037127"><ele>2140.4</ele><time>2025-05-09T00:46:06Z</time></trkpt>
<trkpt lat="38.916344" lon="-120.036871"><ele>2141.0</ele><time>2025-05-09T00:46:20Z</time></trkpt>
<trkpt lat="38.916346" lon="-120.036742"><ele>2141.4</ele><time>2025-05-09T00:46:26Z</time></trkpt>
<trkpt lat="38.916228" lon="-120.036308"><ele>2143.2</ele><time>2025-05-09T00:46:46Z</time></trkpt>
<trkpt lat="38.916152" lon="-120.036293"><ele>2144.6</ele><time>2025-05-09T00:46:58Z</time></trkpt>
<trkpt lat="38.916137" lon="-120.036627"><ele>2142.8</ele><time>2025-05-09T00:47:40Z</time></trkpt>
<trkpt lat="38.916049" lon="-120.037062"><ele>2144.4</ele><time>2025-05-09T00:47:56Z</time></trkpt>
<trkpt lat="38.916055" lon="-120.037332"><ele>2147.0</ele><time>2025-05-09T00:48:06Z</time></trkpt>
<trkpt lat="38.916028" lon="-120.037407"><ele>2147.4</ele><time>2025-05-09T00:48:09Z</time></trkpt>
<trkpt lat="38.915976" lon="-120.037442"><ele>2148.8</ele><time>2025-05-09T00:48:12Z</time></trkpt>
<trkpt lat="38.915651" lon="-120.036989"><ele>2151.0</ele><time>2025-05-09T00:48:34Z</time></trkpt>
<trkpt lat="38.915629" lon="-120.036796"><ele>2152.2</ele><time>2025-05-09T00:48:42Z</time></trkpt>
<trkpt lat="38.915565" lon="-120.036619"><ele>2153.4</ele><time>2025-05-09T00:48:51Z</time></trkpt>
<trkpt lat="38.915605" lon="-120.036409"><ele>2153.8</ele><time>2025-05-09T00:48:59Z</time></trkpt>
<trkpt lat="38.915577" lon="-120.036107"><ele>2155.0</ele><time>2025-05-09T00:49:11Z</time></trkpt>
<trkpt lat="38.915284" lon="-120.035795"><ele>2156.2</ele><time>2025-05-09T00:49:30Z</time></trkpt>
<trkpt lat="38.915184" lon="-120.035712"><ele>2156.0</ele><time>2025-05-09T00:49:34Z</time></trkpt>
<trkpt lat="38.915002" lon="-120.035664"><ele>2155.8</ele><time>2025-05-09T00:49:40Z</time></trkpt>
<trkpt lat="38.914903" lon="-120.035546"><ele>2156.2</ele><time>2025-05-09T00:49:44Z</time></trkpt>
<trkpt lat="38.914498" lon="-120.035378"><ele>2156.8</ele><time>2025-05-09T00:49:58Z</time></trkpt>
<trkpt lat="38.914265" lon="-120.035391"><ele>2158.0</ele><time>2025-05-09T00:50:05Z</time></trkpt>
<trkpt lat="38.914154" lon="-120.035349"><ele>2159.0</ele><time>2025-05-09T00:50:09Z</time></trkpt>
<trkpt lat="38.913929" lon="-120.035401"><ele>2159.0</ele><time>2025-05-09T00:50:16Z</time></trkpt>
<trkpt lat="38.913838" lon="-120.035464"><ele>2159.4</ele><time>2025-05-09T00:50:23Z</time></trkpt>
<trkpt lat="38.913688" lon="-120.035489"><ele>2157.6</ele><time>2025-05-09T00:52:10Z</time></trkpt>
<trkpt lat="38.913214" lon="-120.035713"><ele>2156.0</ele><time>2025-05-09T00:52:19Z</time></trkpt>
<trkpt lat="38.912831" lon="-120.035727"><ele>2154.8</ele><time>2025-05-09T00:52:24Z</time></trkpt>
<trkpt lat="38.912695" lon="-120.035660"><ele>2154.2</ele><time>2025-05-09T00:52:26Z</time></trkpt>
<trkpt lat="38.912401" lon="-120.035328"><ele>2151.0</ele><time>2025-05-09T00:52:31Z</time></trkpt>
<trkpt lat="38.912151" lon="-120.034886"><ele>2147.6</ele><time>2025-05-09T00:52:36Z</time></trkpt>
<trkpt lat="38.911873" lon="-120.034477"><ele>2146.8</ele><time>2025-05-09T00:52:41Z</time></trkpt>
<trkpt lat="38.911477" lon="-120.034048"><ele>2143.8</ele><time>2025-05-09T00:52:47Z</time></trkpt>
<trkpt lat="38.911244" lon="-120.033709"><ele>2143.6</ele><time>2025-05-09T00:52:51Z</time></trkpt>
<trkpt lat="38.910977" lon="-120.033182"><ele>2146.0</ele><time>2025-05-09T00:52:58Z</time></trkpt>
<trkpt lat="38.910792" lon="-120.032977"><ele>2146.0</ele><time>2025-05-09T00:53:02Z</time></trkpt>
<trkpt lat="38.910042" lon="-120.032577"><ele>2146.4</ele><time>2025-05-09T00:53:15Z</time></trkpt>
<trkpt lat="38.909672" lon="-120.032450"><ele>2145.2</ele><time>2025-05-09T00:53:21Z</time></trkpt>
<trkpt lat="38.909350" lon="-120.032272"><ele>2142.2</ele><time>2025-05-09T00:53:26Z</time></trkpt>
<trkpt lat="38.909128" lon="-120.032207"><ele>2141.2</ele><time>2025-05-09T00:53:29Z</time></trkpt>
<trkpt lat="38.909016" lon="-120.032114"><ele>2140.4</ele><time>2025-05-09T00:53:31Z</time></trkpt>
<trkpt lat="38.908899" lon="-120.032075"><ele>2140.6</ele><time>2025-05-09T00:53:33Z</time></trkpt>
<trkpt lat="38.908716" lon="-120.031853"><ele>2142.4</ele><time>2025-05-09T00:53:37Z</time></trkpt>
<trkpt lat="38.908657" lon="-120.031566"><ele>2141.8</ele><time>2025-05-09T00:53:41Z</time></trkpt>
<trkpt lat="38.908431" lon="-120.031442"><ele>2141.4</ele><time>2025-05-09T00:53:51Z</time></trkpt>
<trkpt lat="38.908292" lon="-120.031425"><ele>2140.8</ele><time>2025-05-09T00:53:59Z</time></trkpt>
<trkpt lat="38.908185" lon="-120.031286"><ele>2140.2</ele><time>2025-05-09T00:54:07Z</time></trkpt>
<trkpt lat="38.907780" lon="-120.031065"><ele>2142.4</ele><time>2025-05-09T00:54:32Z</time></trkpt>
<trkpt lat="38.907726" lon="-120.030994"><ele>2143.8</ele><time>2025-05-09T00:54:37Z</time></trkpt>
<trkpt lat="38.907604" lon="-120.030934"><ele>2144.6</ele><time>2025-05-09T00:54:44Z</time></trkpt>
<trkpt lat="38.907558" lon="-120.030940"><ele>2145.6</ele><time>2025-05-09T00:54:47Z</time></trkpt>
<trkpt lat="38.907541" lon="-120.031007"><ele>2147.4</ele><time>2025-05-09T00:54:51Z</time></trkpt>
<trkpt lat="38.907572" lon="-120.031281"><ele>2148.0</ele><time>2025-05-09T00:55:05Z</time></trkpt>
<trkpt lat="38.907529" lon="-120.031582"><ele>2149.2</ele><time>2025-05-09T00:55:22Z</time></trkpt>
<trkpt lat="38.907475" lon="-120.031627"><ele>2150.0</ele><time>2025-05-09T00:55:28Z</time></trkpt>
<trkpt lat="38.907423" lon="-120.031607"><ele>2150.6</ele><time>2025-05-09T00:55:33Z</time></trkpt>
<trkpt lat="38.907321" lon="-120.031494"><ele>2151.2</ele><time>2025-05-09T00:55:44Z</time></trkpt>
<trkpt lat="38.907284" lon="-120.031257"><ele>2151.0</ele><time>2025-05-09T00:55:56Z</time></trkpt>
<trkpt lat="38.907174" lon="-120.031055"><ele>2152.2</ele><time>2025-05-09T00:56:07Z</time></trkpt>
<trkpt lat="38.907142" lon="-120.030834"><ele>2151.8</ele><time>2025-05-09T00:56:14Z</time></trkpt>
<trkpt lat="38.906948" lon="-120.030673"><ele>2153.4</ele><time>2025-05-09T00:56:26Z</time></trkpt>
<trkpt lat="38.906644" lon="-120.030273"><ele>2156.4</ele><time>2025-05-09T00:56:47Z</time></trkpt>
<trkpt lat="38.906499" lon="-120.029989"><ele>2158.8</ele><time>2025-05-09T00:57:01Z</time></trkpt>
<trkpt lat="38.906347" lon="-120.029596"><ele>2158.2</ele><time>2025-05-09T00:57:15Z</time></trkpt>
<trkpt lat="38.906029" lon="-120.029162"><ele>2159.6</ele><time>2025-05-09T00:57:35Z</time></trkpt>
<trkpt lat="38.905925" lon="-120.028955"><ele>2160.4</ele><time>2025-05-09T00:57:45Z</time></trkpt>
<trkpt lat="38.905807" lon="-120.028658"><ele>2161.6</ele><time>2025-05-09T00:57:58Z</time></trkpt>
<trkpt lat="38.905721" lon="-120.028262"><ele>2163.2</ele><time>2025-05-09T00:58:14Z</time></trkpt>
<trkpt lat="38.905620" lon="-120.028041"><ele>2163.8</ele><time>2025-05-09T00:58:24Z</time></trkpt>
<trkpt lat="38.905665" lon="-120.027693"><ele>2164.4</ele><time>2025-05-09T00:58:34Z</time></trkpt>
<trkpt lat="38.905635" lon="-120.027417"><ele>2165.6</ele><time>2025-05-09T00:58:47Z</time></trkpt>
<trkpt lat="38.905551" lon="-120.027316"><ele>2165.8</ele><time>2025-05-09T00:59:05Z</time></trkpt>
<trkpt lat="38.905456" lon="-120.027083"><ele>2165.8</ele><time>2025-05-09T00:59:16Z</time></trkpt>
<trkpt lat="38.905459" lon="-120.027068"><ele>2161.2</ele><time>2025-05-09T01:02:35Z</time></trkpt>
<trkpt lat="38.905408" lon="-120.027008"><ele>2161.2</ele><time>2025-05-09T01:02:43Z</time></trkpt>
<trkpt lat="38.905398" lon="-120.026878"><ele>2161.4</ele><time>2025-05-09T01:04:23Z</time></trkpt>
<trkpt lat="38.905303" lon="-120.026765"><ele>2160.4</ele><time>2025-05-09T01:04:27Z</time></trkpt>
<trkpt lat="38.905229" lon="-120.026732"><ele>2160.0</ele><time>2025-05-09T01:04:29Z</time></trkpt>
<trkpt lat="38.905167" lon="-120.026577"><ele>2159.6</ele><time>2025-05-09T01:04:32Z</time></trkpt>
<trkpt lat="38.905211" lon="-120.026475"><ele>2159.2</ele><time>2025-05-09T01:04:34Z</time></trkpt>
<trkpt lat="38.905403" lon="-120.026351"><ele>2158.0</ele><time>2025-05-09T01:04:39Z</time></trkpt>
<trkpt lat="38.905512" lon="-120.026209"><ele>2157.2</ele><time>2025-05-09T01:04:43Z</time></trkpt>
<trkpt lat="38.905571" lon="-120.025928"><ele>2156.4</ele><time>2025-05-09T01:04:48Z</time></trkpt>
<trkpt lat="38.905538" lon="-120.025826"><ele>2156.0</ele><time>2025-05-09T01:04:50Z</time></trkpt>
<trkpt lat="38.905458" lon="-120.025742"><ele>2155.6</ele><time>2025-05-09T01:04:53Z</time></trkpt>
<trkpt lat="38.905435" lon="-120.025549"><ele>2155.4</ele><time>2025-05-09T01:04:56Z</time></trkpt>
<trkpt lat="38.905345" lon="-120.025403"><ele>2154.0</ele><time>2025-05-09T01:04:59Z</time></trkpt>
<trkpt lat="38.905314" lon="-120.025198"><ele>2154.2</ele><time>2025-05-09T01:05:03Z</time></trkpt>
<trkpt lat="38.905088" lon="-120.024976"><ele>2153.8</ele><time>2025-05-09T01:05:09Z</time></trkpt>
<trkpt lat="38.905043" lon="-120.024733"><ele>2153.0</ele><time>2025-05-09T01:05:13Z</time></trkpt>
<trkpt lat="38.904904" lon="-120.024629"><ele>2152.6</ele><time>2025-05-09T01:05:16Z</time></trkpt>
<trkpt lat="38.904867" lon="-120.024299"><ele>2151.6</ele><time>2025-05-09T01:05:21Z</time></trkpt>
<trkpt lat="38.904714" lon="-120.024004"><ele>2151.2</ele><time>2025-05-09T01:05:26Z</time></trkpt>
<trkpt lat="38.904711" lon="-120.023935"><ele>2151.2</ele><time>2025-05-09T01:05:27Z</time></trkpt>
<trkpt lat="38.904753" lon="-120.023675"><ele>2153.4</ele><time>2025-05-09T01:05:32Z</time></trkpt>
<trkpt lat="38.904754" lon="-120.023408"><ele>2153.6</ele><time>2025-05-09T01:05:36Z</time></trkpt>
<trkpt lat="38.904821" lon="-120.023123"><ele>2153.2</ele><time>2025-05-09T01:05:40Z</time></trkpt>
<trkpt lat="38.904797" lon="-120.022880"><ele>2152.4</ele><time>2025-05-09T01:05:43Z</time></trkpt>
<trkpt lat="38.904847" lon="-120.022638"><ele>2153.0</ele><time>2025-05-09T01:05:46Z</time></trkpt>
<trkpt lat="38.904917" lon="-120.022519"><ele>2153.0</ele><time>2025-05-09T01:05:48Z</time></trkpt>
<trkpt lat="38.904939" lon="-120.022334"><ele>2153.8</ele><time>2025-05-09T01:05:51Z</time></trkpt>
<trkpt lat="38.905026" lon="-120.022172"><ele>2153.2</ele><time>2025-05-09T01:05:54Z</time></trkpt>
<trkpt lat="38.905096" lon="-120.022082"><ele>2152.4</ele><time>2025-05-09T01:05:56Z</time></trkpt>
<trkpt lat="38.905229" lon="-120.022058"><ele>2151.6</ele><time>2025-05-09T01:05:59Z</time></trkpt>
<trkpt lat="38.905238" lon="-120.021957"><ele>2150.8</ele><time>2025-05-09T01:06:01Z</time></trkpt>
<trkpt lat="38.905173" lon="-120.021926"><ele>2150.2</ele><time>2025-05-09T01:06:03Z</time></trkpt>
<trkpt lat="38.904947" lon="-120.022007"><ele>2148.8</ele><time>2025-05-09T01:06:09Z</time></trkpt>
<trkpt lat="38.904807" lon="-120.022126"><ele>2147.8</ele><time>2025-05-09T01:06:12Z</time></trkpt>
<trkpt lat="38.904550" lon="-120.022447"><ele>2146.4</ele><time>2025-05-09T01:06:18Z</time></trkpt>
<trkpt lat="38.904384" lon="-120.022860"><ele>2144.6</ele><time>2025-05-09T01:06:24Z</time></trkpt>
<trkpt lat="38.904309" lon="-120.022923"><ele>2144.0</ele><time>2025-05-09T01:06:26Z</time></trkpt>
<trkpt lat="38.904277" lon="-120.022862"><ele>2143.2</ele><time>2025-05-09T01:06:28Z</time></trkpt>
<trkpt lat="38.904305" lon="-120.022747"><ele>2142.0</ele><time>2025-05-09T01:06:30Z</time></trkpt>
<trkpt lat="38.904307" lon="-120.022509"><ele>2140.4</ele><time>2025-05-09T01:06:33Z</time></trkpt>
<trkpt lat="38.904363" lon="-120.022398"><ele>2138.4</ele><time>2025-05-09T01:06:35Z</time></trkpt>
<trkpt lat="38.904339" lon="-120.022243"><ele>2137.6</ele><time>2025-05-09T01:06:37Z</time></trkpt>
<trkpt lat="38.904570" lon="-120.021672"><ele>2134.4</ele><time>2025-05-09T01:06:44Z</time></trkpt>
<trkpt lat="38.904609" lon="-120.021505"><ele>2132.8</ele><time>2025-05-09T01:06:46Z</time></trkpt>
<trkpt lat="38.904563" lon="-120.021398"><ele>2128.4</ele><time>2025-05-09T01:06:53Z</time></trkpt>
<trkpt lat="38.904526" lon="-120.021391"><ele>2124.2</ele><time>2025-05-09T01:07:19Z</time></trkpt>
<trkpt lat="38.904413" lon="-120.021413"><ele>2123.6</ele><time>2025-05-09T01:07:22Z</time></trkpt>
<trkpt lat="38.904316" lon="-120.021686"><ele>2123.0</ele><time>2025-05-09T01:07:26Z</time></trkpt>
<trkpt lat="38.904087" lon="-120.022167"><ele>2126.6</ele><time>2025-05-09T01:07:35Z</time></trkpt>
<trkpt lat="38.903785" lon="-120.022736"><ele>2122.2</ele><time>2025-05-09T01:07:42Z</time></trkpt>
<trkpt lat="38.903680" lon="-120.022844"><ele>2120.2</ele><time>2025-05-09T01:07:44Z</time></trkpt>
<trkpt lat="38.903550" lon="-120.023089"><ele>2117.6</ele><time>2025-05-09T01:07:48Z</time></trkpt>
<trkpt lat="38.903491" lon="-120.023291"><ele>2116.4</ele><time>2025-05-09T01:07:51Z</time></trkpt>
<trkpt lat="38.903358" lon="-120.023512"><ele>2114.8</ele><time>2025-05-09T01:07:55Z</time></trkpt>
<trkpt lat="38.903212" lon="-120.023937"><ele>2111.8</ele><time>2025-05-09T01:08:30Z</time></trkpt>
<trkpt lat="38.903119" lon="-120.024111"><ele>2110.0</ele><time>2025-05-09T01:08:33Z</time></trkpt>
<trkpt lat="38.903051" lon="-120.024714"><ele>2107.2</ele><time>2025-05-09T01:08:42Z</time></trkpt>
<trkpt lat="38.903022" lon="-120.024748"><ele>2106.8</ele><time>2025-05-09T01:08:43Z</time></trkpt>
<trkpt lat="38.902986" lon="-120.024691"><ele>2106.0</ele><time>2025-05-09T01:08:45Z</time></trkpt>
<trkpt lat="38.903008" lon="-120.024510"><ele>2104.6</ele><time>2025-05-09T01:08:48Z</time></trkpt>
<trkpt lat="38.902958" lon="-120.023865"><ele>2101.4</ele><time>2025-05-09T01:08:57Z</time></trkpt>
<trkpt lat="38.902958" lon="-120.023372"><ele>2097.0</ele><time>2025-05-09T01:09:02Z</time></trkpt>
<trkpt lat="38.903078" lon="-120.022803"><ele>2094.0</ele><time>2025-05-09T01:09:08Z</time></trkpt>
<trkpt lat="38.903169" lon="-120.022524"><ele>2093.4</ele><time>2025-05-09T01:09:11Z</time></trkpt>
<trkpt lat="38.903160" lon="-120.022212"><ele>2092.2</ele><time>2025-05-09T01:09:14Z</time></trkpt>
<trkpt lat="38.903238" lon="-120.021891"><ele>2090.2</ele><time>2025-05-09T01:09:17Z</time></trkpt>
<trkpt lat="38.903259" lon="-120.021512"><ele>2088.8</ele><time>2025-05-09T01:09:20Z</time></trkpt>
<trkpt lat="38.903215" lon="-120.021309"><ele>2088.4</ele><time>2025-05-09T01:09:22Z</time></trkpt>
<trkpt lat="38.903056" lon="-120.021112"><ele>2088.2</ele><time>2025-05-09T01:09:25Z</time></trkpt>
<trkpt lat="38.902868" lon="-120.020963"><ele>2087.4</ele><time>2025-05-09T01:09:28Z</time></trkpt>
<trkpt lat="38.902677" lon="-120.021002"><ele>2086.0</ele><time>2025-05-09T01:09:32Z</time></trkpt>
<trkpt lat="38.902564" lon="-120.020950"><ele>2084.4</ele><time>2025-05-09T01:09:36Z</time></trkpt>
<trkpt lat="38.902572" lon="-120.021038"><ele>2082.8</ele><time>2025-05-09T01:09:39Z</time></trkpt>
<trkpt lat="38.902727" lon="-120.021113"><ele>2081.4</ele><time>2025-05-09T01:09:43Z</time></trkpt>
<trkpt lat="38.902884" lon="-120.021271"><ele>2081.0</ele><time>2025-05-09T01:09:46Z</time></trkpt>
<trkpt lat="38.903049" lon="-120.021566"><ele>2080.6</ele><time>2025-05-09T01:09:51Z</time></trkpt>
<trkpt lat="38.902998" lon="-120.021597"><ele>2080.6</ele><time>2025-05-09T01:09:53Z</time></trkpt>
<trkpt lat="38.902933" lon="-120.021508"><ele>2080.2</ele><time>2025-05-09T01:09:55Z</time></trkpt>
<trkpt lat="38.902836" lon="-120.021458"><ele>2078.8</ele><time>2025-05-09T01:09:57Z</time></trkpt>
<trkpt lat="38.902773" lon="-120.021340"><ele>2077.0</ele><time>2025-05-09T01:09:59Z</time></trkpt>
<trkpt lat="38.902709" lon="-120.021322"><ele>2075.8</ele><time>2025-05-09T01:10:00Z</time></trkpt>
<trkpt lat="38.902576" lon="-120.021313"><ele>2074.4</ele><time>2025-05-09T01:10:02Z</time></trkpt>
<trkpt lat="38.902320" lon="-120.021401"><ele>2072.6</ele><time>2025-05-09T01:10:08Z</time></trkpt>
<trkpt lat="38.902313" lon="-120.021438"><ele>2071.8</ele><time>2025-05-09T01:10:09Z</time></trkpt>
<trkpt lat="38.902372" lon="-120.021502"><ele>2068.8</ele><time>2025-05-09T01:10:14Z</time></trkpt>
<trkpt lat="38.902532" lon="-120.021471"><ele>2066.2</ele><time>2025-05-09T01:10:28Z</time></trkpt>
<trkpt lat="38.902587" lon="-120.021492"><ele>2065.8</ele><time>2025-05-09T01:10:29Z</time></trkpt>
<trkpt lat="38.902648" lon="-120.021680"><ele>2065.4</ele><time>2025-05-09T01:10:32Z</time></trkpt>
<trkpt lat="38.902611" lon="-120.021805"><ele>2065.2</ele><time>2025-05-09T01:10:34Z</time></trkpt>
<trkpt lat="38.902552" lon="-120.021857"><ele>2065.2</ele><time>2025-05-09T01:10:35Z</time></trkpt>
<trkpt lat="38.902490" lon="-120.021990"><ele>2065.2</ele><time>2025-05-09T01:10:37Z</time></trkpt>
<trkpt lat="38.902416" lon="-120.022387"><ele>2064.6</ele><time>2025-05-09T01:10:42Z</time></trkpt>
<trkpt lat="38.902371" lon="-120.022459"><ele>2064.4</ele><time>2025-05-09T01:10:43Z</time></trkpt>
<trkpt lat="38.902191" lon="-120.022545"><ele>2063.0</ele><time>2025-05-09T01:10:46Z</time></trkpt>
<trkpt lat="38.901966" lon="-120.022810"><ele>2061.6</ele><time>2025-05-09T01:10:51Z</time></trkpt>
<trkpt lat="38.901928" lon="-120.022965"><ele>2060.0</ele><time>2025-05-09T01:10:53Z</time></trkpt>
<trkpt lat="38.901959" lon="-120.023138"><ele>2059.4</ele><time>2025-05-09T01:10:55Z</time></trkpt>
<trkpt lat="38.901940" lon="-120.023225"><ele>2059.0</ele><time>2025-05-09T01:10:56Z</time></trkpt>
<trkpt lat="38.901854" lon="-120.023313"><ele>2057.8</ele><time>2025-05-09T01:10:58Z</time></trkpt>
<trkpt lat="38.901843" lon="-120.023471"><ele>2056.6</ele><time>2025-05-09T01:11:00Z</time></trkpt>
<trkpt lat="38.901781" lon="-120.023622"><ele>2055.2</ele><time>2025-05-09T01:11:02Z</time></trkpt>
<trkpt lat="38.901639" lon="-120.023687"><ele>2054.2</ele><time>2025-05-09T01:11:04Z</time></trkpt>
<trkpt lat="38.901409" lon="-120.023699"><ele>2051.8</ele><time>2025-05-09T01:11:07Z</time></trkpt>
<trkpt lat="38.901293" lon="-120.023766"><ele>2050.6</ele><time>2025-05-09T01:11:09Z</time></trkpt>
<trkpt lat="38.901217" lon="-120.023904"><ele>2050.2</ele><time>2025-05-09T01:11:11Z</time></trkpt>
<trkpt lat="38.901200" lon="-120.024212"><ele>2048.8</ele><time>2025-05-09T01:11:15Z</time></trkpt>
<trkpt lat="38.901087" lon="-120.024291"><ele>2047.6</ele><time>2025-05-09T01:11:17Z</time></trkpt>
<trkpt lat="38.901021" lon="-120.024417"><ele>2047.0</ele><time>2025-05-09T01:11:19Z</time></trkpt>
<trkpt lat="38.900912" lon="-120.024511"><ele>2046.8</ele><time>2025-05-09T01:11:21Z</time></trkpt>
<trkpt lat="38.900857" lon="-120.024662"><ele>2046.4</ele><time>2025-05-09T01:11:23Z</time></trkpt>
<trkpt lat="38.900775" lon="-120.024651"><ele>2045.8</ele><time>2025-05-09T01:11:25Z</time></trkpt>
<trkpt lat="38.900749" lon="-120.024598"><ele>2045.0</ele><time>2025-05-09T01:11:26Z</time></trkpt>
<trkpt lat="38.900785" lon="-120.024400"><ele>2043.2</ele><time>2025-05-09T01:11:29Z</time></trkpt>
<trkpt lat="38.900817" lon="-120.023557"><ele>2041.0</ele><time>2025-05-09T01:11:39Z</time></trkpt>
<trkpt lat="38.900975" lon="-120.023282"><ele>2040.0</ele><time>2025-05-09T01:11:44Z</time></trkpt>
<trkpt lat="38.901014" lon="-120.023211"><ele>2029.6</ele><time>2025-05-09T01:13:02Z</time></trkpt>
<trkpt lat="38.901038" lon="-120.023179"><ele>2029.6</ele><time>2025-05-09T01:13:03Z</time></trkpt>
<trkpt lat="38.901158" lon="-120.023180"><ele>2028.4</ele><time>2025-05-09T01:13:06Z</time></trkpt>
<trkpt lat="38.901267" lon="-120.023141"><ele>2027.8</ele><time>2025-05-09T01:13:09Z</time></trkpt>
<trkpt lat="38.901267" lon="-120.023099"><ele>2027.8</ele><time>2025-05-09T01:13:10Z</time></trkpt>
<trkpt lat="38.900928" lon="-120.022975"><ele>2025.2</ele><time>2025-05-09T01:13:17Z</time></trkpt>
<trkpt lat="38.900810" lon="-120.023035"><ele>2024.8</ele><time>2025-05-09T01:13:19Z</time></trkpt>
<trkpt lat="38.900607" lon="-120.023048"><ele>2023.6</ele><time>2025-05-09T01:13:22Z</time></trkpt>
<trkpt lat="38.900336" lon="-120.023150"><ele>2021.8</ele><time>2025-05-09T01:13:26Z</time></trkpt>
<trkpt lat="38.900295" lon="-120.023196"><ele>2021.4</ele><time>2025-05-09T01:13:27Z</time></trkpt>
<trkpt lat="38.900274" lon="-120.023344"><ele>2021.0</ele><time>2025-05-09T01:13:29Z</time></trkpt>
<trkpt lat="38.900185" lon="-120.023436"><ele>2020.8</ele><time>2025-05-09T01:13:31Z</time></trkpt>
<trkpt lat="38.900089" lon="-120.023408"><ele>2021.0</ele><time>2025-05-09T01:13:33Z</time></trkpt>
<trkpt lat="38.899921" lon="-120.023444"><ele>2021.2</ele><time>2025-05-09T01:13:36Z</time></trkpt>
<trkpt lat="38.899732" lon="-120.023218"><ele>2020.2</ele><time>2025-05-09T01:13:40Z</time></trkpt>
<trkpt lat="38.899559" lon="-120.023295"><ele>2019.8</ele><time>2025-05-09T01:13:43Z</time></trkpt>
<trkpt lat="38.899353" lon="-120.023309"><ele>2020.0</ele><time>2025-05-09T01:13:46Z</time></trkpt>
<trkpt lat="38.899177" lon="-120.023156"><ele>2020.2</ele><time>2025-05-09T01:13:49Z</time></trkpt>
<trkpt lat="38.899101" lon="-120.022912"><ele>2020.2</ele><time>2025-05-09T01:13:52Z</time></trkpt>
<trkpt lat="38.899071" lon="-120.022658"><ele>2020.6</ele><time>2025-05-09T01:13:55Z</time></trkpt>
<trkpt lat="38.898983" lon="-120.022518"><ele>2020.4</ele><time>2025-05-09T01:13:57Z</time></trkpt>
<trkpt lat="38.898696" lon="-120.022443"><ele>2019.4</ele><time>2025-05-09T01:14:02Z</time></trkpt>
<trkpt lat="38.898571" lon="-120.022462"><ele>2019.0</ele><time>2025-05-09T01:14:04Z</time></trkpt>
<trkpt lat="38.898449" lon="-120.022536"><ele>2018.0</ele><time>2025-05-09T01:14:06Z</time></trkpt>
<trkpt lat="38.898377" lon="-120.022745"><ele>2015.8</ele><time>2025-05-09T01:14:09Z</time></trkpt>
<trkpt lat="38.898342" lon="-120.022765"><ele>2015.4</ele><time>2025-05-09T01:14:10Z</time></trkpt>
<trkpt lat="38.898267" lon="-120.022710"><ele>2014.4</ele><time>2025-05-09T01:14:12Z</time></trkpt>
<trkpt lat="38.898220" lon="-120.022618"><ele>2013.8</ele><time>2025-05-09T01:14:14Z</time></trkpt>
<trkpt lat="38.898241" lon="-120.022432"><ele>2011.6</ele><time>2025-05-09T01:14:17Z</time></trkpt>
<trkpt lat="38.898254" lon="-120.022349"><ele>2011.0</ele><time>2025-05-09T01:14:18Z</time></trkpt>
<trkpt lat="38.898326" lon="-120.022232"><ele>2010.4</ele><time>2025-05-09T01:14:20Z</time></trkpt>
<trkpt lat="38.898276" lon="-120.022125"><ele>2009.4</ele><time>2025-05-09T01:14:22Z</time></trkpt>
<trkpt lat="38.898173" lon="-120.022165"><ele>2008.2</ele><time>2025-05-09T01:14:24Z</time></trkpt>
<trkpt lat="38.897983" lon="-120.022320"><ele>2006.0</ele><time>2025-05-09T01:14:28Z</time></trkpt>
<trkpt lat="38.897891" lon="-120.022524"><ele>2006.0</ele><time>2025-05-09T01:14:31Z</time></trkpt>
<trkpt lat="38.897666" lon="-120.022771"><ele>2006.0</ele><time>2025-05-09T01:14:36Z</time></trkpt>
<trkpt lat="38.897619" lon="-120.022920"><ele>2005.6</ele><time>2025-05-09T01:14:38Z</time></trkpt>
<trkpt lat="38.897632" lon="-120.023091"><ele>2005.2</ele><time>2025-05-09T01:14:41Z</time></trkpt>
<trkpt lat="38.897505" lon="-120.023205"><ele>2005.0</ele><time>2025-05-09T01:14:44Z</time></trkpt>
<trkpt lat="38.897397" lon="-120.023414"><ele>2004.6</ele><time>2025-05-09T01:14:47Z</time></trkpt>
<trkpt lat="38.897392" lon="-120.023648"><ele>2003.6</ele><time>2025-05-09T01:14:50Z</time></trkpt>
<trkpt lat="38.897432" lon="-120.023787"><ele>2003.2</ele><time>2025-05-09T01:14:52Z</time></trkpt>
<trkpt lat="38.897435" lon="-120.023956"><ele>2002.4</ele><time>2025-05-09T01:14:54Z</time></trkpt>
<trkpt lat="38.897343" lon="-120.024197"><ele>2001.4</ele><time>2025-05-09T01:14:57Z</time></trkpt>
<trkpt lat="38.897347" lon="-120.024272"><ele>2000.6</ele><time>2025-05-09T01:14:58Z</time></trkpt>
<trkpt lat="38.897509" lon="-120.024545"><ele>1998.8</ele><time>2025-05-09T01:15:03Z</time></trkpt>
<trkpt lat="38.897500" lon="-120.024592"><ele>1998.4</ele><time>2025-05-09T01:15:04Z</time></trkpt>
<trkpt lat="38.897110" lon="-120.024914"><ele>1998.0</ele><time>2025-05-09T01:15:14Z</time></trkpt>
<trkpt lat="38.896756" lon="-120.025269"><ele>1996.0</ele><time>2025-05-09T01:15:21Z</time></trkpt>
<trkpt lat="38.896664" lon="-120.025638"><ele>1995.8</ele><time>2025-05-09T01:15:26Z</time></trkpt>
<trkpt lat="38.896504" lon="-120.025782"><ele>1995.8</ele><time>2025-05-09T01:15:29Z</time></trkpt>
<trkpt lat="38.896369" lon="-120.025823"><ele>1995.4</ele><time>2025-05-09T01:15:31Z</time></trkpt>
<trkpt lat="38.896263" lon="-120.025908"><ele>1994.8</ele><time>2025-05-09T01:15:33Z</time></trkpt>
<trkpt lat="38.896087" lon="-120.025934"><ele>1993.8</ele><time>2025-05-09T01:15:36Z</time></trkpt>
<trkpt lat="38.895955" lon="-120.026118"><ele>1991.8</ele><time>2025-05-09T01:15:39Z</time></trkpt>
<trkpt lat="38.895789" lon="-120.026505"><ele>1989.2</ele><time>2025-05-09T01:15:44Z</time></trkpt>
<trkpt lat="38.895577" lon="-120.026691"><ele>1988.2</ele><time>2025-05-09T01:15:48Z</time></trkpt>
<trkpt lat="38.895373" lon="-120.026686"><ele>1989.0</ele><time>2025-05-09T01:15:52Z</time></trkpt>
<trkpt lat="38.895075" lon="-120.026558"><ele>1988.0</ele><time>2025-05-09T01:15:58Z</time></trkpt>
<trkpt lat="38.894668" lon="-120.026639"><ele>1987.2</ele><time>2025-05-09T01:16:05Z</time></trkpt>
<trkpt lat="38.894621" lon="-120.026607"><ele>1987.6</ele><time>2025-05-09T01:16:08Z</time></trkpt>
<trkpt lat="38.894589" lon="-120.026652"><ele>1979.6</ele><time>2025-05-09T01:17:44Z</time></trkpt>
<trkpt lat="38.894456" lon="-120.026708"><ele>1978.4</ele><time>2025-05-09T01:17:48Z</time></trkpt>
<trkpt lat="38.894372" lon="-120.026680"><ele>1978.2</ele><time>2025-05-09T01:17:50Z</time></trkpt>
<trkpt lat="38.894182" lon="-120.026717"><ele>1979.4</ele><time>2025-05-09T01:17:57Z</time></trkpt>
<trkpt lat="38.894224" lon="-120.026739"><ele>1973.6</ele><time>2025-05-09T01:19:29Z</time></trkpt>
<trkpt lat="38.894394" lon="-120.026701"><ele>1974.4</ele><time>2025-05-09T01:19:36Z</time></trkpt>
<trkpt lat="38.894452" lon="-120.026741"><ele>1975.2</ele><time>2025-05-09T01:19:39Z</time></trkpt>
<trkpt lat="38.894453" lon="-120.026813"><ele>1976.0</ele><time>2025-05-09T01:19:41Z</time></trkpt>
<trkpt lat="38.894310" lon="-120.026993"><ele>1979.2</ele><time>2025-05-09T01:19:50Z</time></trkpt>
<trkpt lat="38.893984" lon="-120.027167"><ele>1978.6</ele><time>2025-05-09T01:20:27Z</time></trkpt>
<trkpt lat="38.893555" lon="-120.027202"><ele>1979.0</ele><time>2025-05-09T01:20:39Z</time></trkpt>
<trkpt lat="38.893473" lon="-120.027337"><ele>1979.8</ele><time>2025-05-09T01:20:45Z</time></trkpt>
<trkpt lat="38.893438" lon="-120.027488"><ele>1973.8</ele><time>2025-05-09T01:22:47Z</time></trkpt>
<trkpt lat="38.893464" lon="-120.027500"><ele>1975.0</ele><time>2025-05-09T01:22:54Z</time></trkpt>
<trkpt lat="38.893430" lon="-120.027486"><ele>1973.8</ele><time>2025-05-09T01:23:14Z</time></trkpt>
<trkpt lat="38.893423" lon="-120.027422"><ele>1973.6</ele><time>2025-05-09T01:23:19Z</time></trkpt>
<trkpt lat="38.893506" lon="-120.027366"><ele>1974.0</ele><time>2025-05-09T01:23:28Z</time></trkpt>
<trkpt lat="38.893639" lon="-120.027500"><ele>1973.2</ele><time>2025-05-09T01:23:32Z</time></trkpt>
<trkpt lat="38.893652" lon="-120.027598"><ele>1972.6</ele><time>2025-05-09T01:23:34Z</time></trkpt>
<trkpt lat="38.893618" lon="-120.027625"><ele>1972.2</ele><time>2025-05-09T01:23:35Z</time></trkpt>
<trkpt lat="38.893419" lon="-120.027604"><ele>1971.0</ele><time>2025-05-09T01:23:39Z</time></trkpt>
<trkpt lat="38.893267" lon="-120.027829"><ele>1971.0</ele><time>2025-05-09T01:23:46Z</time></trkpt>
<trkpt lat="38.893254" lon="-120.027886"><ele>1972.6</ele><time>2025-05-09T01:23:48Z</time></trkpt>
<trkpt lat="38.893443" lon="-120.028061"><ele>1973.2</ele><time>2025-05-09T01:23:57Z</time></trkpt>
<trkpt lat="38.893596" lon="-120.028304"><ele>1976.6</ele><time>2025-05-09T01:24:05Z</time></trkpt>
<trkpt lat="38.893826" lon="-120.028770"><ele>1981.0</ele><time>2025-05-09T01:24:21Z</time></trkpt>
<trkpt lat="38.893908" lon="-120.028872"><ele>1982.4</ele><time>2025-05-09T01:24:26Z</time></trkpt>
<trkpt lat="38.894191" lon="-120.028996"><ele>1983.2</ele><time>2025-05-09T01:24:40Z</time></trkpt>
<trkpt lat="38.894233" lon="-120.029057"><ele>1983.2</ele><time>2025-05-09T01:24:43Z</time></trkpt>
<trkpt lat="38.894195" lon="-120.029116"><ele>1984.4</ele><time>2025-05-09T01:24:46Z</time></trkpt>
<trkpt lat="38.894062" lon="-120.029089"><ele>1986.0</ele><time>2025-05-09T01:24:51Z</time></trkpt>
<trkpt lat="38.893885" lon="-120.029137"><ele>1988.8</ele><time>2025-05-09T01:24:59Z</time></trkpt>
<trkpt lat="38.893808" lon="-120.029267"><ele>1989.6</ele><time>2025-05-09T01:25:05Z</time></trkpt>
<trkpt lat="38.893770" lon="-120.029446"><ele>1989.6</ele><time>2025-05-09T01:25:11Z</time></trkpt>
<trkpt lat="38.893758" lon="-120.029878"><ele>1989.4</ele><time>2025-05-09T01:25:25Z</time></trkpt>
<trkpt lat="38.893792" lon="-120.030311"><ele>1988.0</ele><time>2025-05-09T01:25:41Z</time></trkpt>
<trkpt lat="38.893745" lon="-120.030545"><ele>1987.0</ele><time>2025-05-09T01:25:50Z</time></trkpt>
<trkpt lat="38.893741" lon="-120.030813"><ele>1986.4</ele><time>2025-05-09T01:26:01Z</time></trkpt>
<trkpt lat="38.893786" lon="-120.030989"><ele>1986.0</ele><time>2025-05-09T01:26:11Z</time></trkpt>
<trkpt lat="38.893773" lon="-120.031026"><ele>1986.0</ele><time>2025-05-09T01:26:13Z</time></trkpt>
<trkpt lat="38.893744" lon="-120.031013"><ele>1985.6</ele><time>2025-05-09T01:26:15Z</time></trkpt>
<trkpt lat="38.893754" lon="-120.030888"><ele>1984.8</ele><time>2025-05-09T01:26:20Z</time></trkpt>
<trkpt lat="38.893808" lon="-120.030897"><ele>1985.0</ele><time>2025-05-09T01:26:24Z</time></trkpt>
<trkpt lat="38.893763" lon="-120.031117"><ele>1984.4</ele><time>2025-05-09T01:26:32Z</time></trkpt>
<trkpt lat="38.893769" lon="-120.031340"><ele>1984.8</ele><time>2025-05-09T01:26:40Z</time></trkpt>
<trkpt lat="38.893734" lon="-120.031332"><ele>1985.0</ele><time>2025-05-09T01:26:42Z</time></trkpt>
<trkpt lat="38.893716" lon="-120.031264"><ele>1984.8</ele><time>2025-05-09T01:26:44Z</time></trkpt>
<trkpt lat="38.893721" lon="-120.031200"><ele>1984.6</ele><time>2025-05-09T01:26:46Z</time></trkpt>
<trkpt lat="38.893754" lon="-120.031175"><ele>1984.2</ele><time>2025-05-09T01:26:48Z</time></trkpt>
<trkpt lat="38.893775" lon="-120.031218"><ele>1984.0</ele><time>2025-05-09T01:26:50Z</time></trkpt>
<trkpt lat="38.893759" lon="-120.031736"><ele>1987.4</ele><time>2025-05-09T01:27:04Z</time></trkpt>
<trkpt lat="38.893790" lon="-120.032640"><ele>1994.2</ele><time>2025-05-09T01:27:46Z</time></trkpt>
<trkpt lat="38.893772" lon="-120.034032"><ele>2003.6</ele><time>2025-05-09T01:28:58Z</time></trkpt>
<trkpt lat="38.893745" lon="-120.034278"><ele>2005.6</ele><time>2025-05-09T01:29:11Z</time></trkpt>
<trkpt lat="38.893582" lon="-120.034829"><ele>2010.0</ele><time>2025-05-09T01:29:41Z</time></trkpt>
<trkpt lat="38.893378" lon="-120.035355"><ele>2014.2</ele><time>2025-05-09T01:30:06Z</time></trkpt>
<trkpt lat="38.892943" lon="-120.036685"><ele>2016.2</ele><time>2025-05-09T01:30:57Z</time></trkpt>
<trkpt lat="38.892791" lon="-120.037044"><ele>2017.0</ele><time>2025-05-09T01:31:12Z</time></trkpt>
<trkpt lat="38.892716" lon="-120.037143"><ele>2017.4</ele><time>2025-05-09T01:31:17Z</time></trkpt>
<trkpt lat="38.892579" lon="-120.037768"><ele>2020.4</ele><time>2025-05-09T01:31:45Z</time></trkpt>
<trkpt lat="38.892356" lon="-120.038515"><ele>2025.8</ele><time>2025-05-09T01:32:20Z</time></trkpt>
<trkpt lat="38.892185" lon="-120.038982"><ele>2029.4</ele><time>2025-05-09T01:32:41Z</time></trkpt>
<trkpt lat="38.891844" lon="-120.039582"><ele>2034.6</ele><time>2025-05-09T01:33:10Z</time></trkpt>
<trkpt lat="38.891711" lon="-120.039935"><ele>2038.8</ele><time>2025-05-09T01:33:26Z</time></trkpt>
<trkpt lat="38.891551" lon="-120.040253"><ele>2041.8</ele><time>2025-05-09T01:33:41Z</time></trkpt>
<trkpt lat="38.891247" lon="-120.040689"><ele>2048.0</ele><time>2025-05-09T01:34:08Z</time></trkpt>
<trkpt lat="38.890989" lon="-120.041315"><ele>2051.4</ele><time>2025-05-09T01:34:41Z</time></trkpt>
<trkpt lat="38.890831" lon="-120.041545"><ele>2051.8</ele><time>2025-05-09T01:34:55Z</time></trkpt>
<trkpt lat="38.890625" lon="-120.041648"><ele>2051.2</ele><time>2025-05-09T01:35:07Z</time></trkpt>
<trkpt lat="38.890379" lon="-120.041648"><ele>2049.8</ele><time>2025-05-09T01:35:13Z</time></trkpt>
<trkpt lat="38.890228" lon="-120.041690"><ele>2048.4</ele><time>2025-05-09T01:35:16Z</time></trkpt>
<trkpt lat="38.889699" lon="-120.041556"><ele>2047.0</ele><time>2025-05-09T01:35:26Z</time></trkpt>
<trkpt lat="38.889463" lon="-120.041582"><ele>2045.8</ele><time>2025-05-09T01:35:30Z</time></trkpt>
<trkpt lat="38.889121" lon="-120.041532"><ele>2044.8</ele><time>2025-05-09T01:35:35Z</time></trkpt>
<trkpt lat="38.888961" lon="-120.041553"><ele>2044.2</ele><time>2025-05-09T01:35:37Z</time></trkpt>
<trkpt lat="38.888821" lon="-120.041518"><ele>2043.8</ele><time>2025-05-09T01:35:39Z</time></trkpt>
<trkpt lat="38.888625" lon="-120.041411"><ele>2043.6</ele><time>2025-05-09T01:35:42Z</time></trkpt>
<trkpt lat="38.888394" lon="-120.041434"><ele>2044.0</ele><time>2025-05-09T01:35:49Z</time></trkpt>
<trkpt lat="38.888416" lon="-120.041558"><ele>2039.0</ele><time>2025-05-09T01:36:30Z</time></trkpt>
<trkpt lat="38.888286" lon="-120.041703"><ele>2039.8</ele><time>2025-05-09T01:36:41Z</time></trkpt>
<trkpt lat="38.888221" lon="-120.041866"><ele>2040.2</ele><time>2025-05-09T01:36:50Z</time></trkpt>
<trkpt lat="38.888210" lon="-120.041979"><ele>2040.4</ele><time>2025-05-09T01:36:55Z</time></trkpt>
<trkpt lat="38.888259" lon="-120.042075"><ele>2040.6</ele><time>2025-05-09T01:36:59Z</time></trkpt>
<trkpt lat="38.888143" lon="-120.042389"><ele>2042.6</ele><time>2025-05-09T01:37:13Z</time></trkpt>
<trkpt lat="38.888138" lon="-120.042534"><ele>2043.8</ele><time>2025-05-09T01:37:19Z</time></trkpt>
<trkpt lat="38.887780" lon="-120.042994"><ele>2050.2</ele><time>2025-05-09T01:37:57Z</time></trkpt>
<trkpt lat="38.887521" lon="-120.043195"><ele>2052.2</ele><time>2025-05-09T01:38:11Z</time></trkpt>
<trkpt lat="38.887478" lon="-120.043296"><ele>2053.4</ele><time>2025-05-09T01:38:18Z</time></trkpt>
<trkpt lat="38.887500" lon="-120.043349"><ele>2054.4</ele><time>2025-05-09T01:38:21Z</time></trkpt>
<trkpt lat="38.887732" lon="-120.043355"><ele>2056.4</ele><time>2025-05-09T01:38:35Z</time></trkpt>
<trkpt lat="38.887860" lon="-120.043418"><ele>2058.4</ele><time>2025-05-09T01:38:44Z</time></trkpt>
<trkpt lat="38.887912" lon="-120.043468"><ele>2058.8</ele><time>2025-05-09T01:38:48Z</time></trkpt>
<trkpt lat="38.887911" lon="-120.043522"><ele>2059.6</ele><time>2025-05-09T01:38:51Z</time></trkpt>
<trkpt lat="38.887701" lon="-120.043646"><ele>2062.2</ele><time>2025-05-09T01:39:06Z</time></trkpt>
<trkpt lat="38.887532" lon="-120.043866"><ele>2064.2</ele><time>2025-05-09T01:39:22Z</time></trkpt>
<trkpt lat="38.887358" lon="-120.044006"><ele>2065.8</ele><time>2025-05-09T01:39:34Z</time></trkpt>
<trkpt lat="38.887227" lon="-120.044064"><ele>2066.2</ele><time>2025-05-09T01:39:42Z</time></trkpt>
<trkpt lat="38.886925" lon="-120.044377"><ele>2068.8</ele><time>2025-05-09T01:40:29Z</time></trkpt>
<trkpt lat="38.886941" lon="-120.044452"><ele>2069.0</ele><time>2025-05-09T01:40:32Z</time></trkpt>
<trkpt lat="38.887132" lon="-120.044404"><ele>2071.0</ele><time>2025-05-09T01:40:44Z</time></trkpt>
<trkpt lat="38.887210" lon="-120.044437"><ele>2071.4</ele><time>2025-05-09T01:40:49Z</time></trkpt>
<trkpt lat="38.887228" lon="-120.044497"><ele>2072.4</ele><time>2025-05-09T01:40:54Z</time></trkpt>
<trkpt lat="38.887183" lon="-120.044560"><ele>2073.4</ele><time>2025-05-09T01:40:59Z</time></trkpt>
<trkpt lat="38.886827" lon="-120.044805"><ele>2076.2</ele><time>2025-05-09T01:41:25Z</time></trkpt>
<trkpt lat="38.886689" lon="-120.045009"><ele>2078.2</ele><time>2025-05-09T01:41:39Z</time></trkpt>
<trkpt lat="38.886605" lon="-120.045180"><ele>2080.6</ele><time>2025-05-09T01:41:52Z</time></trkpt>
<trkpt lat="38.886614" lon="-120.045246"><ele>2081.2</ele><time>2025-05-09T01:41:56Z</time></trkpt>
<trkpt lat="38.886783" lon="-120.045166"><ele>2083.8</ele><time>2025-05-09T01:42:12Z</time></trkpt>
<trkpt lat="38.886826" lon="-120.045185"><ele>2084.6</ele><time>2025-05-09T01:42:15Z</time></trkpt>
<trkpt lat="38.886831" lon="-120.045229"><ele>2085.2</ele><time>2025-05-09T01:42:19Z</time></trkpt>
<trkpt lat="38.886708" lon="-120.045360"><ele>2086.0</ele><time>2025-05-09T01:42:40Z</time></trkpt>
<trkpt lat="38.886643" lon="-120.045588"><ele>2088.4</ele><time>2025-05-09T01:43:04Z</time></trkpt>
<trkpt lat="38.885966" lon="-120.046634"><ele>2097.2</ele><time>2025-05-09T01:44:17Z</time></trkpt>
<trkpt lat="38.886008" lon="-120.046688"><ele>2098.2</ele><time>2025-05-09T01:44:21Z</time></trkpt>
<trkpt lat="38.886099" lon="-120.046624"><ele>2099.2</ele><time>2025-05-09T01:44:29Z</time></trkpt>
<trkpt lat="38.886280" lon="-120.046615"><ele>2100.6</ele><time>2025-05-09T01:44:42Z</time></trkpt>
<trkpt lat="38.886367" lon="-120.046690"><ele>2102.0</ele><time>2025-05-09T01:44:49Z</time></trkpt>
<trkpt lat="38.886420" lon="-120.046799"><ele>2102.8</ele><time>2025-05-09T01:44:56Z</time></trkpt>
<trkpt lat="38.886417" lon="-120.046971"><ele>2104.0</ele><time>2025-05-09T01:45:06Z</time></trkpt>
<trkpt lat="38.886368" lon="-120.047022"><ele>2104.8</ele><time>2025-05-09T01:45:11Z</time></trkpt>
<trkpt lat="38.886265" lon="-120.047013"><ele>2106.6</ele><time>2025-05-09T01:45:18Z</time></trkpt>
<trkpt lat="38.886046" lon="-120.047131"><ele>2108.2</ele><time>2025-05-09T01:45:37Z</time></trkpt>
<trkpt lat="38.886005" lon="-120.047262"><ele>2108.8</ele><time>2025-05-09T01:45:45Z</time></trkpt>
<trkpt lat="38.885725" lon="-120.047712"><ele>2113.2</ele><time>2025-05-09T01:46:17Z</time></trkpt>
<trkpt lat="38.885546" lon="-120.047834"><ele>2113.6</ele><time>2025-05-09T01:46:27Z</time></trkpt>
<trkpt lat="38.885093" lon="-120.048329"><ele>2119.2</ele><time>2025-05-09T01:47:06Z</time></trkpt>
<trkpt lat="38.885094" lon="-120.048378"><ele>2119.6</ele><time>2025-05-09T01:47:08Z</time></trkpt>
<trkpt lat="38.885131" lon="-120.048407"><ele>2120.2</ele><time>2025-05-09T01:47:10Z</time></trkpt>
<trkpt lat="38.885378" lon="-120.048307"><ele>2123.2</ele><time>2025-05-09T01:47:30Z</time></trkpt>
<trkpt lat="38.885698" lon="-120.048333"><ele>2125.8</ele><time>2025-05-09T01:47:53Z</time></trkpt>
<trkpt lat="38.885752" lon="-120.048355"><ele>2126.2</ele><time>2025-05-09T01:47:57Z</time></trkpt>
<trkpt lat="38.885763" lon="-120.048449"><ele>2127.2</ele><time>2025-05-09T01:48:03Z</time></trkpt>
<trkpt lat="38.885697" lon="-120.048518"><ele>2128.8</ele><time>2025-05-09T01:48:09Z</time></trkpt>
<trkpt lat="38.885550" lon="-120.048550"><ele>2129.6</ele><time>2025-05-09T01:48:18Z</time></trkpt>
<trkpt lat="38.885239" lon="-120.048761"><ele>2133.0</ele><time>2025-05-09T01:48:41Z</time></trkpt>
<trkpt lat="38.885144" lon="-120.048885"><ele>2135.4</ele><time>2025-05-09T01:48:50Z</time></trkpt>
<trkpt lat="38.884840" lon="-120.049084"><ele>2137.4</ele><time>2025-05-09T01:49:11Z</time></trkpt>
<trkpt lat="38.884655" lon="-120.049252"><ele>2138.8</ele><time>2025-05-09T01:49:24Z</time></trkpt>
<trkpt lat="38.884416" lon="-120.049533"><ele>2142.0</ele><time>2025-05-09T01:49:49Z</time></trkpt>
<trkpt lat="38.884306" lon="-120.049734"><ele>2144.8</ele><time>2025-05-09T01:50:05Z</time></trkpt>
<trkpt lat="38.884150" lon="-120.049892"><ele>2146.0</ele><time>2025-05-09T01:50:18Z</time></trkpt>
<trkpt lat="38.883956" lon="-120.050287"><ele>2149.4</ele><time>2025-05-09T01:50:42Z</time></trkpt>
<trkpt lat="38.883968" lon="-120.050359"><ele>2150.4</ele><time>2025-05-09T01:50:46Z</time></trkpt>
<trkpt lat="38.884036" lon="-120.050332"><ele>2151.6</ele><time>2025-05-09T01:50:50Z</time></trkpt>
<trkpt lat="38.884224" lon="-120.050200"><ele>2155.2</ele><time>2025-05-09T01:51:07Z</time></trkpt>
<trkpt lat="38.884370" lon="-120.050049"><ele>2155.4</ele><time>2025-05-09T01:51:16Z</time></trkpt>
<trkpt lat="38.884652" lon="-120.049919"><ele>2158.8</ele><time>2025-05-09T01:51:40Z</time></trkpt>
<trkpt lat="38.884978" lon="-120.049825"><ele>2162.0</ele><time>2025-05-09T01:52:04Z</time></trkpt>
<trkpt lat="38.885232" lon="-120.049821"><ele>2163.8</ele><time>2025-05-09T01:52:21Z</time></trkpt>
<trkpt lat="38.885264" lon="-120.049896"><ele>2164.2</ele><time>2025-05-09T01:52:25Z</time></trkpt>
<trkpt lat="38.885234" lon="-120.049953"><ele>2165.4</ele><time>2025-05-09T01:52:28Z</time></trkpt>
<trkpt lat="38.884982" lon="-120.050002"><ele>2167.0</ele><time>2025-05-09T01:52:41Z</time></trkpt>
<trkpt lat="38.884794" lon="-120.050212"><ele>2169.8</ele><time>2025-05-09T01:52:59Z</time></trkpt>
<trkpt lat="38.884572" lon="-120.050724"><ele>2173.8</ele><time>2025-05-09T01:53:34Z</time></trkpt>
<trkpt lat="38.884565" lon="-120.050799"><ele>2174.0</ele><time>2025-05-09T01:53:37Z</time></trkpt>
<trkpt lat="38.884617" lon="-120.050857"><ele>2175.4</ele><time>2025-05-09T01:53:42Z</time></trkpt>
<trkpt lat="38.884900" lon="-120.050825"><ele>2179.2</ele><time>2025-05-09T01:54:03Z</time></trkpt>
<trkpt lat="38.885086" lon="-120.050714"><ele>2180.8</ele><time>2025-05-09T01:54:20Z</time></trkpt>
<trkpt lat="38.884971" lon="-120.050808"><ele>2181.2</ele><time>2025-05-09T01:54:57Z</time></trkpt>
<trkpt lat="38.884938" lon="-120.050754"><ele>2180.0</ele><time>2025-05-09T01:57:58Z</time></trkpt>
<trkpt lat="38.885084" lon="-120.050759"><ele>2182.0</ele><time>2025-05-09T01:58:56Z</time></trkpt>
<trkpt lat="38.885120" lon="-120.050703"><ele>2181.6</ele><time>2025-05-09T01:59:31Z</time></trkpt>
<trkpt lat="38.885272" lon="-120.050685"><ele>2182.0</ele><time>2025-05-09T01:59:38Z</time></trkpt>
<trkpt lat="38.885304" lon="-120.050759"><ele>2183.4</ele><time>2025-05-09T01:59:42Z</time></trkpt>
<trkpt lat="38.885282" lon="-120.050823"><ele>2184.4</ele><time>2025-05-09T01:59:45Z</time></trkpt>
<trkpt lat="38.885113" lon="-120.051133"><ele>2187.0</ele><time>2025-05-09T02:00:02Z</time></trkpt>
<trkpt lat="38.885022" lon="-120.051213"><ele>2187.6</ele><time>2025-05-09T02:00:08Z</time></trkpt>
<trkpt lat="38.885005" lon="-120.051295"><ele>2188.4</ele><time>2025-05-09T02:00:13Z</time></trkpt>
<trkpt lat="38.885035" lon="-120.051356"><ele>2189.4</ele><time>2025-05-09T02:00:17Z</time></trkpt>
<trkpt lat="38.885091" lon="-120.051372"><ele>2191.0</ele><time>2025-05-09T02:00:21Z</time></trkpt>
<trkpt lat="38.885337" lon="-120.051247"><ele>2194.2</ele><time>2025-05-09T02:00:38Z</time></trkpt>
<trkpt lat="38.885451" lon="-120.051259"><ele>2195.6</ele><time>2025-05-09T02:00:46Z</time></trkpt>
<trkpt lat="38.885566" lon="-120.051190"><ele>2197.2</ele><time>2025-05-09T02:00:56Z</time></trkpt>
<trkpt lat="38.885704" lon="-120.051170"><ele>2198.8</ele><time>2025-05-09T02:01:06Z</time></trkpt>
<trkpt lat="38.885661" lon="-120.051379"><ele>2203.0</ele><time>2025-05-09T02:01:21Z</time></trkpt>
<trkpt lat="38.885590" lon="-120.051543"><ele>2205.8</ele><time>2025-05-09T02:01:36Z</time></trkpt>
<trkpt lat="38.885566" lon="-120.051711"><ele>2207.6</ele><time>2025-05-09T02:01:48Z</time></trkpt>
<trkpt lat="38.885302" lon="-120.052001"><ele>2208.8</ele><time>2025-05-09T02:02:12Z</time></trkpt>
<trkpt lat="38.885161" lon="-120.052095"><ele>2209.6</ele><time>2025-05-09T02:02:20Z</time></trkpt>
<trkpt lat="38.885004" lon="-120.052330"><ele>2211.2</ele><time>2025-05-09T02:02:37Z</time></trkpt>
<trkpt lat="38.884540" lon="-120.052636"><ele>2212.2</ele><time>2025-05-09T02:03:00Z</time></trkpt>
<trkpt lat="38.884308" lon="-120.052881"><ele>2212.6</ele><time>2025-05-09T02:03:11Z</time></trkpt>
<trkpt lat="38.884000" lon="-120.053080"><ele>2213.2</ele><time>2025-05-09T02:03:24Z</time></trkpt>
<trkpt lat="38.883804" lon="-120.053383"><ele>2214.4</ele><time>2025-05-09T02:03:36Z</time></trkpt>
<trkpt lat="38.883550" lon="-120.053488"><ele>2216.0</ele><time>2025-05-09T02:03:46Z</time></trkpt>
<trkpt lat="38.883270" lon="-120.053838"><ele>2218.8</ele><time>2025-05-09T02:04:07Z</time></trkpt>
<trkpt lat="38.883292" lon="-120.053891"><ele>2219.8</ele><time>2025-05-09T02:04:13Z</time></trkpt>
<trkpt lat="38.883287" lon="-120.053955"><ele>2217.2</ele><time>2025-05-09T02:05:55Z</time></trkpt>
<trkpt lat="38.883328" lon="-120.053997"><ele>2217.0</ele><time>2025-05-09T02:05:57Z</time></trkpt>
<trkpt lat="38.883553" lon="-120.053842"><ele>2213.2</ele><time>2025-05-09T02:06:02Z</time></trkpt>
<trkpt lat="38.883612" lon="-120.053859"><ele>2212.0</ele><time>2025-05-09T02:06:04Z</time></trkpt>
<trkpt lat="38.883595" lon="-120.054132"><ele>2208.6</ele><time>2025-05-09T02:06:09Z</time></trkpt>
<trkpt lat="38.883542" lon="-120.054247"><ele>2207.4</ele><time>2025-05-09T02:06:11Z</time></trkpt>
<trkpt lat="38.883445" lon="-120.054355"><ele>2206.0</ele><time>2025-05-09T02:06:14Z</time></trkpt>
<trkpt lat="38.883453" lon="-120.054417"><ele>2205.8</ele><time>2025-05-09T02:06:16Z</time></trkpt>
<trkpt lat="38.883575" lon="-120.054390"><ele>2205.6</ele><time>2025-05-09T02:06:19Z</time></trkpt>
<trkpt lat="38.883799" lon="-120.054236"><ele>2202.8</ele><time>2025-05-09T02:06:23Z</time></trkpt>
<trkpt lat="38.884163" lon="-120.054164"><ele>2200.4</ele><time>2025-05-09T02:06:29Z</time></trkpt>
<trkpt lat="38.884582" lon="-120.053898"><ele>2197.2</ele><time>2025-05-09T02:06:39Z</time></trkpt>
<trkpt lat="38.884698" lon="-120.053723"><ele>2196.6</ele><time>2025-05-09T02:06:44Z</time></trkpt>
<trkpt lat="38.884997" lon="-120.053661"><ele>2195.4</ele><time>2025-05-09T02:06:51Z</time></trkpt>
<trkpt lat="38.885379" lon="-120.053408"><ele>2193.0</ele><time>2025-05-09T02:07:00Z</time></trkpt>
<trkpt lat="38.885682" lon="-120.053282"><ele>2189.6</ele><time>2025-05-09T02:07:08Z</time></trkpt>
<trkpt lat="38.885966" lon="-120.053083"><ele>2188.0</ele><time>2025-05-09T02:07:18Z</time></trkpt>
<trkpt lat="38.886181" lon="-120.053020"><ele>2187.0</ele><time>2025-05-09T02:07:25Z</time></trkpt>
<trkpt lat="38.886306" lon="-120.052911"><ele>2186.4</ele><time>2025-05-09T02:07:29Z</time></trkpt>
<trkpt lat="38.886507" lon="-120.052866"><ele>2185.6</ele><time>2025-05-09T02:07:34Z</time></trkpt>
<trkpt lat="38.886584" lon="-120.052812"><ele>2185.2</ele><time>2025-05-09T02:07:36Z</time></trkpt>
<trkpt lat="38.886610" lon="-120.052742"><ele>2185.0</ele><time>2025-05-09T02:07:38Z</time></trkpt>
<trkpt lat="38.886791" lon="-120.052722"><ele>2185.0</ele><time>2025-05-09T02:07:44Z</time></trkpt>
<trkpt lat="38.887052" lon="-120.052572"><ele>2184.4</ele><time>2025-05-09T02:07:53Z</time></trkpt>
<trkpt lat="38.887298" lon="-120.052500"><ele>2183.4</ele><time>2025-05-09T02:08:00Z</time></trkpt>
<trkpt lat="38.887561" lon="-120.052319"><ele>2183.6</ele><time>2025-05-09T02:08:08Z</time></trkpt>
<trkpt lat="38.887894" lon="-120.052285"><ele>2183.0</ele><time>2025-05-09T02:08:18Z</time></trkpt>
<trkpt lat="38.888112" lon="-120.052136"><ele>2183.0</ele><time>2025-05-09T02:08:24Z</time></trkpt>
<trkpt lat="38.888235" lon="-120.052154"><ele>2183.0</ele><time>2025-05-09T02:08:27Z</time></trkpt>
<trkpt lat="38.888304" lon="-120.052125"><ele>2182.8</ele><time>2025-05-09T02:08:29Z</time></trkpt>
<trkpt lat="38.888693" lon="-120.051999"><ele>2179.6</ele><time>2025-05-09T02:08:37Z</time></trkpt>
<trkpt lat="38.888869" lon="-120.051884"><ele>2176.2</ele><time>2025-05-09T02:08:41Z</time></trkpt>
<trkpt lat="38.889080" lon="-120.051810"><ele>2172.0</ele><time>2025-05-09T02:08:46Z</time></trkpt>
<trkpt lat="38.889141" lon="-120.051713"><ele>2171.0</ele><time>2025-05-09T02:08:49Z</time></trkpt>
<trkpt lat="38.889357" lon="-120.051545"><ele>2169.8</ele><time>2025-05-09T02:08:55Z</time></trkpt>
<trkpt lat="38.889418" lon="-120.051531"><ele>2169.6</ele><time>2025-05-09T02:08:57Z</time></trkpt>
<trkpt lat="38.889473" lon="-120.051453"><ele>2169.6</ele><time>2025-05-09T02:09:00Z</time></trkpt>
<trkpt lat="38.889720" lon="-120.051354"><ele>2170.0</ele><time>2025-05-09T02:09:10Z</time></trkpt>
<trkpt lat="38.890365" lon="-120.050816"><ele>2167.4</ele><time>2025-05-09T02:09:32Z</time></trkpt>
<trkpt lat="38.890486" lon="-120.050747"><ele>2166.2</ele><time>2025-05-09T02:09:35Z</time></trkpt>
<trkpt lat="38.890551" lon="-120.050625"><ele>2164.8</ele><time>2025-05-09T02:09:38Z</time></trkpt>
<trkpt lat="38.890670" lon="-120.050586"><ele>2164.0</ele><time>2025-05-09T02:09:41Z</time></trkpt>
<trkpt lat="38.890730" lon="-120.050477"><ele>2163.6</ele><time>2025-05-09T02:09:44Z</time></trkpt>
<trkpt lat="38.890892" lon="-120.050307"><ele>2162.8</ele><time>2025-05-09T02:09:51Z</time></trkpt>
<trkpt lat="38.890920" lon="-120.050230"><ele>2162.4</ele><time>2025-05-09T02:09:53Z</time></trkpt>
<trkpt lat="38.891058" lon="-120.050144"><ele>2162.0</ele><time>2025-05-09T02:09:57Z</time></trkpt>
<trkpt lat="38.891169" lon="-120.049973"><ele>2161.6</ele><time>2025-05-09T02:10:01Z</time></trkpt>
<trkpt lat="38.891245" lon="-120.049939"><ele>2161.0</ele><time>2025-05-09T02:10:03Z</time></trkpt>
<trkpt lat="38.891403" lon="-120.049782"><ele>2160.0</ele><time>2025-05-09T02:10:08Z</time></trkpt>
<trkpt lat="38.891441" lon="-120.049652"><ele>2159.6</ele><time>2025-05-09T02:10:11Z</time></trkpt>
<trkpt lat="38.891925" lon="-120.049248"><ele>2156.4</ele><time>2025-05-09T02:10:28Z</time></trkpt>
<trkpt lat="38.892251" lon="-120.048883"><ele>2154.6</ele><time>2025-05-09T02:10:41Z</time></trkpt>
<trkpt lat="38.892411" lon="-120.048780"><ele>2154.4</ele><time>2025-05-09T02:10:46Z</time></trkpt>
<trkpt lat="38.892540" lon="-120.048626"><ele>2153.6</ele><time>2025-05-09T02:10:52Z</time></trkpt>
<trkpt lat="38.892748" lon="-120.048533"><ele>2153.8</ele><time>2025-05-09T02:11:09Z</time></trkpt>
<trkpt lat="38.892947" lon="-120.048343"><ele>2153.4</ele><time>2025-05-09T02:11:17Z</time></trkpt>
<trkpt lat="38.893009" lon="-120.048339"><ele>2153.0</ele><time>2025-05-09T02:11:19Z</time></trkpt>
<trkpt lat="38.893138" lon="-120.048213"><ele>2152.8</ele><time>2025-05-09T02:11:24Z</time></trkpt>
<trkpt lat="38.893415" lon="-120.048058"><ele>2151.4</ele><time>2025-05-09T02:11:33Z</time></trkpt>
<trkpt lat="38.893502" lon="-120.047949"><ele>2150.6</ele><time>2025-05-09T02:11:37Z</time></trkpt>
<trkpt lat="38.893570" lon="-120.047926"><ele>2150.0</ele><time>2025-05-09T02:11:39Z</time></trkpt>
<trkpt lat="38.893732" lon="-120.047783"><ele>2149.2</ele><time>2025-05-09T02:11:44Z</time></trkpt>
<trkpt lat="38.894007" lon="-120.047488"><ele>2146.0</ele><time>2025-05-09T02:11:52Z</time></trkpt>
<trkpt lat="38.894092" lon="-120.047442"><ele>2145.4</ele><time>2025-05-09T02:11:54Z</time></trkpt>
<trkpt lat="38.894162" lon="-120.047311"><ele>2144.4</ele><time>2025-05-09T02:11:58Z</time></trkpt>
<trkpt lat="38.894255" lon="-120.047325"><ele>2143.4</ele><time>2025-05-09T02:12:01Z</time></trkpt>
<trkpt lat="38.894346" lon="-120.047236"><ele>2142.6</ele><time>2025-05-09T02:12:04Z</time></trkpt>
<trkpt lat="38.894391" lon="-120.047121"><ele>2141.8</ele><time>2025-05-09T02:12:06Z</time></trkpt>
<trkpt lat="38.894529" lon="-120.047082"><ele>2140.4</ele><time>2025-05-09T02:12:09Z</time></trkpt>
<trkpt lat="38.894702" lon="-120.046777"><ele>2138.6</ele><time>2025-05-09T02:12:16Z</time></trkpt>
<trkpt lat="38.894768" lon="-120.046737"><ele>2138.0</ele><time>2025-05-09T02:12:18Z</time></trkpt>
<trkpt lat="38.894881" lon="-120.046537"><ele>2136.8</ele><time>2025-05-09T02:12:23Z</time></trkpt>
<trkpt lat="38.895136" lon="-120.046272"><ele>2132.6</ele><time>2025-05-09T02:12:30Z</time></trkpt>
<trkpt lat="38.895176" lon="-120.046173"><ele>2132.4</ele><time>2025-05-09T02:12:32Z</time></trkpt>
<trkpt lat="38.895295" lon="-120.046082"><ele>2132.0</ele><time>2025-05-09T02:12:36Z</time></trkpt>
<trkpt lat="38.895388" lon="-120.045928"><ele>2131.6</ele><time>2025-05-09T02:12:40Z</time></trkpt>
<trkpt lat="38.895472" lon="-120.045909"><ele>2131.4</ele><time>2025-05-09T02:12:42Z</time></trkpt>
<trkpt lat="38.895574" lon="-120.045779"><ele>2130.8</ele><time>2025-05-09T02:12:45Z</time></trkpt>
<trkpt lat="38.895716" lon="-120.045693"><ele>2129.4</ele><time>2025-05-09T02:12:48Z</time></trkpt>
<trkpt lat="38.896226" lon="-120.045065"><ele>2124.6</ele><time>2025-05-09T02:13:07Z</time></trkpt>
<trkpt lat="38.896449" lon="-120.044926"><ele>2123.2</ele><time>2025-05-09T02:13:18Z</time></trkpt>
<trkpt lat="38.896651" lon="-120.044684"><ele>2121.8</ele><time>2025-05-09T02:13:26Z</time></trkpt>
<trkpt lat="38.896679" lon="-120.044610"><ele>2120.4</ele><time>2025-05-09T02:13:28Z</time></trkpt>
<trkpt lat="38.896723" lon="-120.044594"><ele>2119.4</ele><time>2025-05-09T02:13:30Z</time></trkpt>
<trkpt lat="38.896758" lon="-120.044493"><ele>2118.4</ele><time>2025-05-09T02:13:33Z</time></trkpt>
<trkpt lat="38.896813" lon="-120.044443"><ele>2117.8</ele><time>2025-05-09T02:13:35Z</time></trkpt>
<trkpt lat="38.896832" lon="-120.044344"><ele>2115.4</ele><time>2025-05-09T02:13:38Z</time></trkpt>
<trkpt lat="38.896910" lon="-120.044276"><ele>2114.2</ele><time>2025-05-09T02:13:43Z</time></trkpt>
<trkpt lat="38.897050" lon="-120.043938"><ele>2109.4</ele><time>2025-05-09T02:13:52Z</time></trkpt>
<trkpt lat="38.897206" lon="-120.043778"><ele>2107.4</ele><time>2025-05-09T02:13:59Z</time></trkpt>
<trkpt lat="38.897255" lon="-120.043682"><ele>2107.0</ele><time>2025-05-09T02:14:01Z</time></trkpt>
<trkpt lat="38.897247" lon="-120.043560"><ele>2104.4</ele><time>2025-05-09T02:14:04Z</time></trkpt>
<trkpt lat="38.897363" lon="-120.043462"><ele>2103.2</ele><time>2025-05-09T02:14:08Z</time></trkpt>
<trkpt lat="38.897380" lon="-120.043353"><ele>2101.6</ele><time>2025-05-09T02:14:11Z</time></trkpt>
<trkpt lat="38.897480" lon="-120.043251"><ele>2100.0</ele><time>2025-05-09T02:14:15Z</time></trkpt>
<trkpt lat="38.897496" lon="-120.043162"><ele>2099.6</ele><time>2025-05-09T02:14:17Z</time></trkpt>
<trkpt lat="38.897553" lon="-120.043117"><ele>2098.4</ele><time>2025-05-09T02:14:20Z</time></trkpt>
<trkpt lat="38.897657" lon="-120.042812"><ele>2095.6</ele><time>2025-05-09T02:14:29Z</time></trkpt>
<trkpt lat="38.897806" lon="-120.042687"><ele>2094.0</ele><time>2025-05-09T02:14:46Z</time></trkpt>
<trkpt lat="38.897901" lon="-120.042442"><ele>2091.4</ele><time>2025-05-09T02:14:52Z</time></trkpt>
<trkpt lat="38.897979" lon="-120.042377"><ele>2090.2</ele><time>2025-05-09T02:14:55Z</time></trkpt>
<trkpt lat="38.897998" lon="-120.042289"><ele>2089.8</ele><time>2025-05-09T02:14:58Z</time></trkpt>
<trkpt lat="38.898064" lon="-120.042224"><ele>2088.8</ele><time>2025-05-09T02:15:01Z</time></trkpt>
<trkpt lat="38.898114" lon="-120.042040"><ele>2087.8</ele><time>2025-05-09T02:15:05Z</time></trkpt>
<trkpt lat="38.898275" lon="-120.041833"><ele>2085.8</ele><time>2025-05-09T02:15:10Z</time></trkpt>
<trkpt lat="38.898318" lon="-120.041665"><ele>2084.2</ele><time>2025-05-09T02:15:14Z</time></trkpt>
<trkpt lat="38.898537" lon="-120.041373"><ele>2079.6</ele><time>2025-05-09T02:15:22Z</time></trkpt>
<trkpt lat="38.898577" lon="-120.041271"><ele>2079.6</ele><time>2025-05-09T02:15:25Z</time></trkpt>
<trkpt lat="38.898857" lon="-120.040959"><ele>2079.8</ele><time>2025-05-09T02:15:37Z</time></trkpt>
<trkpt lat="38.898914" lon="-120.040812"><ele>2079.2</ele><time>2025-05-09T02:15:40Z</time></trkpt>
<trkpt lat="38.898989" lon="-120.040748"><ele>2078.2</ele><time>2025-05-09T02:15:42Z</time></trkpt>
<trkpt lat="38.899131" lon="-120.040467"><ele>2077.2</ele><time>2025-05-09T02:15:48Z</time></trkpt>
<trkpt lat="38.899243" lon="-120.040361"><ele>2076.4</ele><time>2025-05-09T02:15:52Z</time></trkpt>
<trkpt lat="38.899283" lon="-120.040239"><ele>2076.0</ele><time>2025-05-09T02:15:55Z</time></trkpt>
<trkpt lat="38.899501" lon="-120.040048"><ele>2075.4</ele><time>2025-05-09T02:16:04Z</time></trkpt>
<trkpt lat="38.899569" lon="-120.039888"><ele>2074.2</ele><time>2025-05-09T02:16:08Z</time></trkpt>
<trkpt lat="38.899645" lon="-120.039827"><ele>2072.6</ele><time>2025-05-09T02:16:11Z</time></trkpt>
<trkpt lat="38.899884" lon="-120.039474"><ele>2068.6</ele><time>2025-05-09T02:16:20Z</time></trkpt>
<trkpt lat="38.899979" lon="-120.039408"><ele>2067.4</ele><time>2025-05-09T02:16:24Z</time></trkpt>
<trkpt lat="38.899990" lon="-120.039297"><ele>2066.2</ele><time>2025-05-09T02:16:27Z</time></trkpt>
<trkpt lat="38.900062" lon="-120.039179"><ele>2065.4</ele><time>2025-05-09T02:16:31Z</time></trkpt>
<trkpt lat="38.900225" lon="-120.039027"><ele>2064.4</ele><time>2025-05-09T02:16:40Z</time></trkpt>
<trkpt lat="38.900525" lon="-120.038880"><ele>2063.6</ele><time>2025-05-09T02:17:06Z</time></trkpt>
<trkpt lat="38.900664" lon="-120.038737"><ele>2061.4</ele><time>2025-05-09T02:17:12Z</time></trkpt>
<trkpt lat="38.900893" lon="-120.038763"><ele>2058.6</ele><time>2025-05-09T02:17:17Z</time></trkpt>
<trkpt lat="38.901001" lon="-120.038866"><ele>2056.4</ele><time>2025-05-09T02:17:21Z</time></trkpt>
<trkpt lat="38.901150" lon="-120.038900"><ele>2055.2</ele><time>2025-05-09T02:17:25Z</time></trkpt>
<trkpt lat="38.901470" lon="-120.038894"><ele>2052.6</ele><time>2025-05-09T02:17:32Z</time></trkpt>
<trkpt lat="38.901584" lon="-120.038808"><ele>2051.0</ele><time>2025-05-09T02:17:36Z</time></trkpt>
<trkpt lat="38.901709" lon="-120.038814"><ele>2050.0</ele><time>2025-05-09T02:17:40Z</time></trkpt>
<trkpt lat="38.901774" lon="-120.038749"><ele>2049.0</ele><time>2025-05-09T02:17:43Z</time></trkpt>
<trkpt lat="38.902031" lon="-120.038632"><ele>2046.0</ele><time>2025-05-09T02:17:52Z</time></trkpt>
<trkpt lat="38.902121" lon="-120.038543"><ele>2046.0</ele><time>2025-05-09T02:17:56Z</time></trkpt>
<trkpt lat="38.902671" lon="-120.038453"><ele>2043.6</ele><time>2025-05-09T02:18:17Z</time></trkpt>
<trkpt lat="38.902785" lon="-120.038481"><ele>2043.4</ele><time>2025-05-09T02:18:21Z</time></trkpt>
<trkpt lat="38.902963" lon="-120.038449"><ele>2043.0</ele><time>2025-05-09T02:18:27Z</time></trkpt>
<trkpt lat="38.903166" lon="-120.038542"><ele>2041.2</ele><time>2025-05-09T02:18:33Z</time></trkpt>
<trkpt lat="38.903246" lon="-120.038468"><ele>2040.6</ele><time>2025-05-09T02:18:37Z</time></trkpt>
<trkpt lat="38.903373" lon="-120.038444"><ele>2039.0</ele><time>2025-05-09T02:18:40Z</time></trkpt>
<trkpt lat="38.903479" lon="-120.038376"><ele>2037.4</ele><time>2025-05-09T02:18:44Z</time></trkpt>
<trkpt lat="38.903516" lon="-120.038436"><ele>2036.4</ele><time>2025-05-09T02:18:47Z</time></trkpt>
<trkpt lat="38.903457" lon="-120.038508"><ele>2035.4</ele><time>2025-05-09T02:18:50Z</time></trkpt>
<trkpt lat="38.903477" lon="-120.038567"><ele>2035.0</ele><time>2025-05-09T02:18:52Z</time></trkpt>
<trkpt lat="38.903559" lon="-120.038529"><ele>2034.6</ele><time>2025-05-09T02:18:55Z</time></trkpt>
<trkpt lat="38.903633" lon="-120.038442"><ele>2034.2</ele><time>2025-05-09T02:19:01Z</time></trkpt>
<trkpt lat="38.903703" lon="-120.038454"><ele>2033.0</ele><time>2025-05-09T02:20:00Z</time></trkpt>
<trkpt lat="38.903976" lon="-120.038667"><ele>2031.0</ele><time>2025-05-09T02:20:09Z</time></trkpt>
<trkpt lat="38.904043" lon="-120.038816"><ele>2029.8</ele><time>2025-05-09T02:20:11Z</time></trkpt>
<trkpt lat="38.904110" lon="-120.039339"><ele>2025.0</ele><time>2025-05-09T02:20:16Z</time></trkpt>
<trkpt lat="38.904237" lon="-120.039934"><ele>2020.8</ele><time>2025-05-09T02:20:23Z</time></trkpt>
<trkpt lat="38.904397" lon="-120.040230"><ele>2019.8</ele><time>2025-05-09T02:20:28Z</time></trkpt>
<trkpt lat="38.904602" lon="-120.040867"><ele>2018.0</ele><time>2025-05-09T02:20:35Z</time></trkpt>
<trkpt lat="38.904656" lon="-120.041723"><ele>2018.2</ele><time>2025-05-09T02:20:46Z</time></trkpt>
<trkpt lat="38.904931" lon="-120.042194"><ele>2015.2</ele><time>2025-05-09T02:20:55Z</time></trkpt>
<trkpt lat="38.905095" lon="-120.042338"><ele>2014.2</ele><time>2025-05-09T02:20:58Z</time></trkpt>
<trkpt lat="38.905249" lon="-120.042651"><ele>2013.2</ele><time>2025-05-09T02:21:02Z</time></trkpt>
<trkpt lat="38.905432" lon="-120.042835"><ele>2012.0</ele><time>2025-05-09T02:21:05Z</time></trkpt>
<trkpt lat="38.905630" lon="-120.043273"><ele>2011.0</ele><time>2025-05-09T02:21:09Z</time></trkpt>
<trkpt lat="38.905763" lon="-120.043494"><ele>2009.8</ele><time>2025-05-09T02:21:11Z</time></trkpt>
<trkpt lat="38.906019" lon="-120.043739"><ele>2007.8</ele><time>2025-05-09T02:21:14Z</time></trkpt>
<trkpt lat="38.906243" lon="-120.044140"><ele>2004.2</ele><time>2025-05-09T02:21:18Z</time></trkpt>
<trkpt lat="38.906417" lon="-120.044263"><ele>2001.6</ele><time>2025-05-09T02:21:21Z</time></trkpt>
<trkpt lat="38.906559" lon="-120.044244"><ele>1999.2</ele><time>2025-05-09T02:21:24Z</time></trkpt>
<trkpt lat="38.906935" lon="-120.043867"><ele>1999.0</ele><time>2025-05-09T02:21:34Z</time></trkpt>
<trkpt lat="38.907319" lon="-120.043672"><ele>1998.4</ele><time>2025-05-09T02:21:42Z</time></trkpt>
<trkpt lat="38.908206" lon="-120.043567"><ele>1995.8</ele><time>2025-05-09T02:22:00Z</time></trkpt>
<trkpt lat="38.908836" lon="-120.043697"><ele>1993.0</ele><time>2025-05-09T02:22:11Z</time></trkpt>
<trkpt lat="38.909248" lon="-120.043707"><ele>1990.8</ele><time>2025-05-09T02:22:18Z</time></trkpt>
<trkpt lat="38.909372" lon="-120.043614"><ele>1989.6</ele><time>2025-05-09T02:22:25Z</time></trkpt>
<trkpt lat="38.909453" lon="-120.043633"><ele>1988.6</ele><time>2025-05-09T02:22:32Z</time></trkpt>
<trkpt lat="38.909473" lon="-120.043502"><ele>1987.6</ele><time>2025-05-09T02:22:50Z</time></trkpt>
<trkpt lat="38.909523" lon="-120.043441"><ele>1988.4</ele><time>2025-05-09T02:23:00Z</time></trkpt>
<trkpt lat="38.909698" lon="-120.043573"><ele>1987.0</ele><time>2025-05-09T02:23:08Z</time></trkpt>
<trkpt lat="38.910218" lon="-120.043823"><ele>1983.4</ele><time>2025-05-09T02:23:21Z</time></trkpt>
<trkpt lat="38.910434" lon="-120.043981"><ele>1983.6</ele><time>2025-05-09T02:23:26Z</time></trkpt>
<trkpt lat="38.910995" lon="-120.044257"><ele>1984.0</ele><time>2025-05-09T02:23:39Z</time></trkpt>
<trkpt lat="38.911122" lon="-120.044272"><ele>1983.6</ele><time>2025-05-09T02:23:42Z</time></trkpt>
<trkpt lat="38.911220" lon="-120.044359"><ele>1983.4</ele><time>2025-05-09T02:23:45Z</time></trkpt>
<trkpt lat="38.911629" lon="-120.044466"><ele>1983.2</ele><time>2025-05-09T02:23:55Z</time></trkpt>
<trkpt lat="38.911906" lon="-120.044706"><ele>1981.8</ele><time>2025-05-09T02:24:03Z</time></trkpt>
<trkpt lat="38.911993" lon="-120.044705"><ele>1981.4</ele><time>2025-05-09T02:24:05Z</time></trkpt>
<trkpt lat="38.912072" lon="-120.044775"><ele>1981.6</ele><time>2025-05-09T02:24:08Z</time></trkpt>
<trkpt lat="38.912322" lon="-120.044858"><ele>1981.0</ele><time>2025-05-09T02:24:16Z</time></trkpt>
<trkpt lat="38.912653" lon="-120.045049"><ele>1977.4</ele><time>2025-05-09T02:24:27Z</time></trkpt>
<trkpt lat="38.912844" lon="-120.045103"><ele>1975.2</ele><time>2025-05-09T02:24:32Z</time></trkpt>
<trkpt lat="38.912911" lon="-120.045084"><ele>1975.0</ele><time>2025-05-09T02:24:38Z</time></trkpt>
<trkpt lat="38.913021" lon="-120.045169"><ele>1973.8</ele><time>2025-05-09T02:24:48Z</time></trkpt>
<trkpt lat="38.913243" lon="-120.045031"><ele>1972.8</ele><time>2025-05-09T02:24:55Z</time></trkpt>
<trkpt lat="38.913332" lon="-120.045091"><ele>1973.0</ele><time>2025-05-09T02:24:58Z</time></trkpt>
<trkpt lat="38.913484" lon="-120.045020"><ele>1972.8</ele><time>2025-05-09T02:25:02Z</time></trkpt>
<trkpt lat="38.913614" lon="-120.045110"><ele>1972.8</ele><time>2025-05-09T02:25:06Z</time></trkpt>
<trkpt lat="38.913697" lon="-120.045048"><ele>1972.2</ele><time>2025-05-09T02:25:10Z</time></trkpt>
<trkpt lat="38.913868" lon="-120.045002"><ele>1971.8</ele><time>2025-05-09T02:25:15Z</time></trkpt>
<trkpt lat="38.914312" lon="-120.045016"><ele>1971.0</ele><time>2025-05-09T02:25:26Z</time></trkpt>
<trkpt lat="38.914508" lon="-120.044949"><ele>1970.6</ele><time>2025-05-09T02:25:31Z</time></trkpt>
<trkpt lat="38.914598" lon="-120.044984"><ele>1971.2</ele><time>2025-05-09T02:25:34Z</time></trkpt>
<trkpt lat="38.914704" lon="-120.044968"><ele>1971.4</ele><time>2025-05-09T02:25:37Z</time></trkpt>
<trkpt lat="38.914876" lon="-120.045032"><ele>1969.6</ele><time>2025-05-09T02:25:42Z</time></trkpt>
<trkpt lat="38.914983" lon="-120.044970"><ele>1969.0</ele><time>2025-05-09T02:25:45Z</time></trkpt>
<trkpt lat="38.915083" lon="-120.044990"><ele>1969.0</ele><time>2025-05-09T02:25:48Z</time></trkpt>
<trkpt lat="38.915273" lon="-120.044897"><ele>1968.8</ele><time>2025-05-09T02:25:54Z</time></trkpt>
<trkpt lat="38.915323" lon="-120.044931"><ele>1968.6</ele><time>2025-05-09T02:25:56Z</time></trkpt>
<trkpt lat="38.915525" lon="-120.044887"><ele>1968.0</ele><time>2025-05-09T02:26:02Z</time></trkpt>
<trkpt lat="38.915760" lon="-120.044904"><ele>1966.8</ele><time>2025-05-09T02:26:08Z</time></trkpt>
<trkpt lat="38.916238" lon="-120.044823"><ele>1967.2</ele><time>2025-05-09T02:26:19Z</time></trkpt>
<trkpt lat="38.916318" lon="-120.044855"><ele>1967.2</ele><time>2025-05-09T02:26:21Z</time></trkpt>
<trkpt lat="38.916376" lon="-120.045000"><ele>1967.2</ele><time>2025-05-09T02:26:24Z</time></trkpt>
<trkpt lat="38.916411" lon="-120.045014"><ele>1967.2</ele><time>2025-05-09T02:26:25Z</time></trkpt>
<trkpt lat="38.916694" lon="-120.044928"><ele>1967.2</ele><time>2025-05-09T02:26:33Z</time></trkpt>
<trkpt lat="38.916832" lon="-120.044996"><ele>1966.8</ele><time>2025-05-09T02:26:37Z</time></trkpt>
<trkpt lat="38.916991" lon="-120.044948"><ele>1966.6</ele><time>2025-05-09T02:26:41Z</time></trkpt>
<trkpt lat="38.917161" lon="-120.045049"><ele>1966.6</ele><time>2025-05-09T02:26:45Z</time></trkpt>
<trkpt lat="38.917812" lon="-120.045173"><ele>1964.6</ele><time>2025-05-09T02:27:00Z</time></trkpt>
<trkpt lat="38.918367" lon="-120.045208"><ele>1964.0</ele><time>2025-05-09T02:27:13Z</time></trkpt>
<trkpt lat="38.918483" lon="-120.045281"><ele>1963.2</ele><time>2025-05-09T02:27:17Z</time></trkpt>
<trkpt lat="38.918594" lon="-120.045248"><ele>1962.6</ele><time>2025-05-09T02:27:20Z</time></trkpt>
<trkpt lat="38.918887" lon="-120.044991"><ele>1962.4</ele><time>2025-05-09T02:27:29Z</time></trkpt>
<trkpt lat="38.919000" lon="-120.044944"><ele>1962.4</ele><time>2025-05-09T02:27:32Z</time></trkpt>
<trkpt lat="38.919237" lon="-120.044971"><ele>1961.6</ele><time>2025-05-09T02:27:38Z</time></trkpt>
<trkpt lat="38.919367" lon="-120.044894"><ele>1961.6</ele><time>2025-05-09T02:27:42Z</time></trkpt>
<trkpt lat="38.920015" lon="-120.044979"><ele>1961.2</ele><time>2025-05-09T02:27:56Z</time></trkpt>
<trkpt lat="38.920248" lon="-120.044919"><ele>1961.0</ele><time>2025-05-09T02:28:01Z</time></trkpt>
<trkpt lat="38.920736" lon="-120.044950"><ele>1962.6</ele><time>2025-05-09T02:28:11Z</time></trkpt>
<trkpt lat="38.920933" lon="-120.044905"><ele>1962.8</ele><time>2025-05-09T02:28:15Z</time></trkpt>
<trkpt lat="38.921130" lon="-120.044927"><ele>1962.8</ele><time>2025-05-09T02:28:19Z</time></trkpt>
<trkpt lat="38.921408" lon="-120.044855"><ele>1962.6</ele><time>2025-05-09T02:28:25Z</time></trkpt>
<trkpt lat="38.921612" lon="-120.044946"><ele>1959.8</ele><time>2025-05-09T02:28:30Z</time></trkpt>
<trkpt lat="38.921757" lon="-120.044926"><ele>1959.4</ele><time>2025-05-09T02:28:33Z</time></trkpt>
<trkpt lat="38.921906" lon="-120.044985"><ele>1957.4</ele><time>2025-05-09T02:28:36Z</time></trkpt>
<trkpt lat="38.922158" lon="-120.044964"><ele>1956.8</ele><time>2025-05-09T02:28:41Z</time></trkpt>
<trkpt lat="38.922271" lon="-120.044984"><ele>1955.6</ele><time>2025-05-09T02:28:43Z</time></trkpt>
<trkpt lat="38.922383" lon="-120.045090"><ele>1954.8</ele><time>2025-05-09T02:28:46Z</time></trkpt>
<trkpt lat="38.922498" lon="-120.045071"><ele>1954.8</ele><time>2025-05-09T02:28:49Z</time></trkpt>
<trkpt lat="38.922690" lon="-120.045107"><ele>1953.8</ele><time>2025-05-09T02:28:54Z</time></trkpt>
<trkpt lat="38.922642" lon="-120.045350"><ele>1952.4</ele><time>2025-05-09T02:29:04Z</time></trkpt>
<trkpt lat="38.922719" lon="-120.045607"><ele>1952.4</ele><time>2025-05-09T02:29:13Z</time></trkpt>
<trkpt lat="38.922665" lon="-120.045696"><ele>1951.6</ele><time>2025-05-09T02:29:17Z</time></trkpt>
<trkpt lat="38.922636" lon="-120.045876"><ele>1950.6</ele><time>2025-05-09T02:29:22Z</time></trkpt>
<trkpt lat="38.922562" lon="-120.045957"><ele>1950.4</ele><time>2025-05-09T02:29:29Z</time></trkpt>
</trkseg></trk>
</gpx>
