<?xml version="1.0" encoding="UTF-8"?>
<gpx version="1.1" creator="Eric Sichak trip reports" xmlns="http://www.topografix.com/GPX/1/1">
<metadata><name>Showing Holt and Aliya around Tahoe</name><time>2025-05-20T23:21:42Z</time></metadata>
<trk><name>Showing Holt and Aliya around Tahoe</name><type>mtb</type><trkseg>
<trkpt lat="38.921882" lon="-120.045901"><ele>1948.0</ele><time>2025-05-20T23:21:42Z</time></trkpt>
<trkpt lat="38.921937" lon="-120.045871"><ele>1948.0</ele><time>2025-05-20T23:21:47Z</time></trkpt>
<trkpt lat="38.922344" lon="-120.045953"><ele>1947.2</ele><time>2025-05-20T23:22:01Z</time></trkpt>
<trkpt lat="38.922537" lon="-120.045933"><ele>1947.0</ele><time>2025-05-20T23:22:05Z</time></trkpt>
<trkpt lat="38.922647" lon="-120.045876"><ele>1945.8</ele><time>2025-05-20T23:22:07Z</time></trkpt>
<trkpt lat="38.922754" lon="-120.045568"><ele>1945.6</ele><time>2025-05-20T23:22:13Z</time></trkpt>
<trkpt lat="38.922724" lon="-120.045476"><ele>1946.6</ele><time>2025-05-20T23:22:16Z</time></trkpt>
<trkpt lat="38.922671" lon="-120.045422"><ele>1947.2</ele><time>2025-05-20T23:22:19Z</time></trkpt>
<trkpt lat="38.922676" lon="-120.045311"><ele>1946.4</ele><time>2025-05-20T23:22:23Z</time></trkpt>
<trkpt lat="38.922753" lon="-120.045164"><ele>1945.6</ele><time>2025-05-20T23:22:26Z</time></trkpt>
<trkpt lat="38.922978" lon="-120.044896"><ele>1947.0</ele><time>2025-05-20T23:22:32Z</time></trkpt>
<trkpt lat="38.923146" lon="-120.044068"><ele>1948.0</ele><time>2025-05-20T23:22:50Z</time></trkpt>
<trkpt lat="38.923299" lon="-120.043834"><ele>1948.6</ele><time>2025-05-20T23:22:56Z</time></trkpt>
<trkpt lat="38.923732" lon="-120.043614"><ele>1949.2</ele><time>2025-05-20T23:23:07Z</time></trkpt>
<trkpt lat="38.923892" lon="-120.043479"><ele>1948.6</ele><time>2025-05-20T23:23:11Z</time></trkpt>
<trkpt lat="38.924047" lon="-120.042976"><ele>1946.4</ele><time>2025-05-20T23:23:17Z</time></trkpt>
<trkpt lat="38.924216" lon="-120.042729"><ele>1946.2</ele><time>2025-05-20T23:23:21Z</time></trkpt>
<trkpt lat="38.924408" lon="-120.041973"><ele>1943.4</ele><time>2025-05-20T23:23:29Z</time></trkpt>
<trkpt lat="38.924821" lon="-120.041412"><ele>1941.8</ele><time>2025-05-20T23:23:36Z</time></trkpt>
<trkpt lat="38.924922" lon="-120.041118"><ele>1941.6</ele><time>2025-05-20T23:23:39Z</time></trkpt>
<trkpt lat="38.924975" lon="-120.040834"><ele>1940.6</ele><time>2025-05-20T23:23:42Z</time></trkpt>
<trkpt lat="38.924945" lon="-120.040561"><ele>1939.0</ele><time>2025-05-20T23:23:45Z</time></trkpt>
<trkpt lat="38.924874" lon="-120.040321"><ele>1938.8</ele><time>2025-05-20T23:23:48Z</time></trkpt>
<trkpt lat="38.924568" lon="-120.039889"><ele>1938.6</ele><time>2025-05-20T23:23:55Z</time></trkpt>
<trkpt lat="38.924466" lon="-120.039505"><ele>1938.0</ele><time>2025-05-20T23:24:00Z</time></trkpt>
<trkpt lat="38.924196" lon="-120.038872"><ele>1938.0</ele><time>2025-05-20T23:24:09Z</time></trkpt>
<trkpt lat="38.924123" lon="-120.038332"><ele>1937.2</ele><time>2025-05-20T23:24:16Z</time></trkpt>
<trkpt lat="38.924047" lon="-120.038044"><ele>1936.4</ele><time>2025-05-20T23:24:20Z</time></trkpt>
<trkpt lat="38.923975" lon="-120.037934"><ele>1936.6</ele><time>2025-05-20T23:24:22Z</time></trkpt>
<trkpt lat="38.923658" lon="-120.037657"><ele>1937.6</ele><time>2025-05-20T23:24:33Z</time></trkpt>
<trkpt lat="38.923433" lon="-120.037352"><ele>1938.2</ele><time>2025-05-20T23:24:46Z</time></trkpt>
<trkpt lat="38.923089" lon="-120.037090"><ele>1941.4</ele><time>2025-05-20T23:25:04Z</time></trkpt>
<trkpt lat="38.922960" lon="-120.036904"><ele>1942.2</ele><time>2025-05-20T23:25:12Z</time></trkpt>
<trkpt lat="38.922904" lon="-120.036745"><ele>1942.4</ele><time>2025-05-20T23:25:18Z</time></trkpt>
<trkpt lat="38.922885" lon="-120.036540"><ele>1942.0</ele><time>2025-05-20T23:25:23Z</time></trkpt>
<trkpt lat="38.922944" lon="-120.036376"><ele>1942.0</ele><time>2025-05-20T23:25:26Z</time></trkpt>
<trkpt lat="38.923112" lon="-120.036137"><ele>1941.0</ele><time>2025-05-20T23:25:30Z</time></trkpt>
<trkpt lat="38.923127" lon="-120.035981"><ele>1940.0</ele><time>2025-05-20T23:25:32Z</time></trkpt>
<trkpt lat="38.922973" lon="-120.035689"><ele>1938.4</ele><time>2025-05-20T23:25:37Z</time></trkpt>
<trkpt lat="38.922647" lon="-120.034827"><ele>1939.0</ele><time>2025-05-20T23:25:51Z</time></trkpt>
<trkpt lat="38.922469" lon="-120.034547"><ele>1938.6</ele><time>2025-05-20T23:25:57Z</time></trkpt>
<trkpt lat="38.921912" lon="-120.033902"><ele>1942.0</ele><time>2025-05-20T23:26:21Z</time></trkpt>
<trkpt lat="38.921578" lon="-120.033628"><ele>1944.8</ele><time>2025-05-20T23:26:37Z</time></trkpt>
<trkpt lat="38.921494" lon="-120.033521"><ele>1946.0</ele><time>2025-05-20T23:26:42Z</time></trkpt>
<trkpt lat="38.921107" lon="-120.033211"><ele>1949.2</ele><time>2025-05-20T23:27:03Z</time></trkpt>
<trkpt lat="38.920895" lon="-120.033097"><ele>1951.2</ele><time>2025-05-20T23:27:12Z</time></trkpt>
<trkpt lat="38.920597" lon="-120.032886"><ele>1951.2</ele><time>2025-05-20T23:27:27Z</time></trkpt>
<trkpt lat="38.920412" lon="-120.032722"><ele>1950.0</ele><time>2025-05-20T23:27:36Z</time></trkpt>
<trkpt lat="38.920281" lon="-120.032551"><ele>1950.0</ele><time>2025-05-20T23:27:43Z</time></trkpt>
<trkpt lat="38.920169" lon="-120.032514"><ele>1950.6</ele><time>2025-05-20T23:27:48Z</time></trkpt>
<trkpt lat="38.919979" lon="-120.032305"><ele>1951.0</ele><time>2025-05-20T23:27:57Z</time></trkpt>
<trkpt lat="38.919874" lon="-120.032254"><ele>1953.2</ele><time>2025-05-20T23:28:02Z</time></trkpt>
<trkpt lat="38.919768" lon="-120.032101"><ele>1953.6</ele><time>2025-05-20T23:28:08Z</time></trkpt>
<trkpt lat="38.919658" lon="-120.032057"><ele>1954.2</ele><time>2025-05-20T23:28:13Z</time></trkpt>
<trkpt lat="38.919469" lon="-120.031833"><ele>1956.0</ele><time>2025-05-20T23:28:22Z</time></trkpt>
<trkpt lat="38.919354" lon="-120.031796"><ele>1955.0</ele><time>2025-05-20T23:28:27Z</time></trkpt>
<trkpt lat="38.919251" lon="-120.031637"><ele>1954.2</ele><time>2025-05-20T23:28:32Z</time></trkpt>
<trkpt lat="38.919015" lon="-120.031464"><ele>1954.0</ele><time>2025-05-20T23:28:41Z</time></trkpt>
<trkpt lat="38.918762" lon="-120.031061"><ele>1953.2</ele><time>2025-05-20T23:28:53Z</time></trkpt>
<trkpt lat="38.918444" lon="-120.030757"><ele>1953.8</ele><time>2025-05-20T23:29:06Z</time></trkpt>
<trkpt lat="38.918347" lon="-120.030755"><ele>1953.8</ele><time>2025-05-20T23:29:09Z</time></trkpt>
<trkpt lat="38.917997" lon="-120.030420"><ele>1954.8</ele><time>2025-05-20T23:29:24Z</time></trkpt>
<trkpt lat="38.917830" lon="-120.030386"><ele>1955.0</ele><time>2025-05-20T23:29:30Z</time></trkpt>
<trkpt lat="38.917369" lon="-120.030064"><ele>1956.6</ele><time>2025-05-20T23:29:49Z</time></trkpt>
<trkpt lat="38.917015" lon="-120.029925"><ele>1958.4</ele><time>2025-05-20T23:30:14Z</time></trkpt>
<trkpt lat="38.916915" lon="-120.029831"><ele>1958.6</ele><time>2025-05-20T23:30:22Z</time></trkpt>
<trkpt lat="38.916855" lon="-120.029842"><ele>1958.8</ele><time>2025-05-20T23:30:25Z</time></trkpt>
<trkpt lat="38.916660" lon="-120.029744"><ele>1959.0</ele><time>2025-05-20T23:30:34Z</time></trkpt>
<trkpt lat="38.916316" lon="-120.029677"><ele>1960.4</ele><time>2025-05-20T23:30:48Z</time></trkpt>
<trkpt lat="38.916196" lon="-120.029589"><ele>1960.2</ele><time>2025-05-20T23:30:53Z</time></trkpt>
<trkpt lat="38.916129" lon="-120.029585"><ele>1960.0</ele><time>2025-05-20T23:30:55Z</time></trkpt>
<trkpt lat="38.915991" lon="-120.029440"><ele>1959.8</ele><time>2025-05-20T23:31:00Z</time></trkpt>
<trkpt lat="38.915888" lon="-120.029398"><ele>1960.2</ele><time>2025-05-20T23:31:03Z</time></trkpt>
<trkpt lat="38.915773" lon="-120.029280"><ele>1960.6</ele><time>2025-05-20T23:31:07Z</time></trkpt>
<trkpt lat="38.915537" lon="-120.029134"><ele>1960.8</ele><time>2025-05-20T23:31:14Z</time></trkpt>
<trkpt lat="38.915417" lon="-120.028992"><ele>1960.4</ele><time>2025-05-20T23:31:18Z</time></trkpt>
<trkpt lat="38.915295" lon="-120.028942"><ele>1960.0</ele><time>2025-05-20T23:31:21Z</time></trkpt>
<trkpt lat="38.914906" lon="-120.028532"><ele>1959.8</ele><time>2025-05-20T23:31:33Z</time></trkpt>
<trkpt lat="38.914748" lon="-120.028432"><ele>1959.2</ele><time>2025-05-20T23:31:37Z</time></trkpt>
<trkpt lat="38.914596" lon="-120.028228"><ele>1958.0</ele><time>2025-05-20T23:31:41Z</time></trkpt>
<trkpt lat="38.914289" lon="-120.027910"><ele>1957.0</ele><time>2025-05-20T23:31:48Z</time></trkpt>
<trkpt lat="38.914186" lon="-120.027739"><ele>1956.6</ele><time>2025-05-20T23:31:51Z</time></trkpt>
<trkpt lat="38.913993" lon="-120.027603"><ele>1955.6</ele><time>2025-05-20T23:31:55Z</time></trkpt>
<trkpt lat="38.913882" lon="-120.027439"><ele>1954.8</ele><time>2025-05-20T23:31:58Z</time></trkpt>
<trkpt lat="38.913719" lon="-120.027282"><ele>1953.8</ele><time>2025-05-20T23:32:02Z</time></trkpt>
<trkpt lat="38.913607" lon="-120.027078"><ele>1953.8</ele><time>2025-05-20T23:32:06Z</time></trkpt>
<trkpt lat="38.913537" lon="-120.027035"><ele>1953.2</ele><time>2025-05-20T23:32:08Z</time></trkpt>
<trkpt lat="38.913399" lon="-120.027033"><ele>1953.4</ele><time>2025-05-20T23:32:12Z</time></trkpt>
<trkpt lat="38.913095" lon="-120.026915"><ele>1955.6</ele><time>2025-05-20T23:32:22Z</time></trkpt>
<trkpt lat="38.912923" lon="-120.026794"><ele>1956.0</ele><time>2025-05-20T23:32:28Z</time></trkpt>
<trkpt lat="38.912840" lon="-120.026783"><ele>1956.4</ele><time>2025-05-20T23:32:31Z</time></trkpt>
<trkpt lat="38.912726" lon="-120.026664"><ele>1957.4</ele><time>2025-05-20T23:32:36Z</time></trkpt>
<trkpt lat="38.912480" lon="-120.026514"><ele>1958.6</ele><time>2025-05-20T23:32:45Z</time></trkpt>
<trkpt lat="38.912439" lon="-120.026543"><ele>1959.0</ele><time>2025-05-20T23:32:47Z</time></trkpt>
<trkpt lat="38.912448" lon="-120.026614"><ele>1959.4</ele><time>2025-05-20T23:32:50Z</time></trkpt>
<trkpt lat="38.912573" lon="-120.026948"><ele>1962.8</ele><time>2025-05-20T23:33:05Z</time></trkpt>
<trkpt lat="38.912650" lon="-120.027081"><ele>1963.0</ele><time>2025-05-20T23:33:11Z</time></trkpt>
<trkpt lat="38.912647" lon="-120.027222"><ele>1963.6</ele><time>2025-05-20T23:33:16Z</time></trkpt>
<trkpt lat="38.912541" lon="-120.027264"><ele>1965.2</ele><time>2025-05-20T23:33:21Z</time></trkpt>
<trkpt lat="38.912277" lon="-120.027147"><ele>1966.8</ele><time>2025-05-20T23:33:34Z</time></trkpt>
<trkpt lat="38.912186" lon="-120.027237"><ele>1968.2</ele><time>2025-05-20T23:33:40Z</time></trkpt>
<trkpt lat="38.912210" lon="-120.027374"><ele>1969.0</ele><time>2025-05-20T23:33:46Z</time></trkpt>
<trkpt lat="38.912380" lon="-120.027820"><ele>1973.4</ele><time>2025-05-20T23:34:10Z</time></trkpt>
<trkpt lat="38.912564" lon="-120.028055"><ele>1975.2</ele><time>2025-05-20T23:34:23Z</time></trkpt>
<trkpt lat="38.912591" lon="-120.028248"><ele>1978.0</ele><time>2025-05-20T23:34:33Z</time></trkpt>
<trkpt lat="38.912671" lon="-120.028441"><ele>1981.0</ele><time>2025-05-20T23:34:43Z</time></trkpt>
<trkpt lat="38.912834" lon="-120.028650"><ele>1985.2</ele><time>2025-05-20T23:34:58Z</time></trkpt>
<trkpt lat="38.913009" lon="-120.028817"><ele>1987.4</ele><time>2025-05-20T23:35:11Z</time></trkpt>
<trkpt lat="38.913012" lon="-120.028858"><ele>1987.8</ele><time>2025-05-20T23:35:13Z</time></trkpt>
<trkpt lat="38.912964" lon="-120.028906"><ele>1988.8</ele><time>2025-05-20T23:35:17Z</time></trkpt>
<trkpt lat="38.912836" lon="-120.028849"><ele>1989.0</ele><time>2025-05-20T23:35:25Z</time></trkpt>
<trkpt lat="38.912737" lon="-120.028863"><ele>1990.0</ele><time>2025-05-20T23:35:31Z</time></trkpt>
<trkpt lat="38.912722" lon="-120.028969"><ele>1990.6</ele><time>2025-05-20T23:35:37Z</time></trkpt>
<trkpt lat="38.912980" lon="-120.029223"><ele>1994.4</ele><time>2025-05-20T23:35:56Z</time></trkpt>
<trkpt lat="38.913233" lon="-120.029638"><ele>1999.2</ele><time>2025-05-20T23:36:24Z</time></trkpt>
<trkpt lat="38.913362" lon="-120.029728"><ele>2000.2</ele><time>2025-05-20T23:36:33Z</time></trkpt>
<trkpt lat="38.913504" lon="-120.030000"><ele>2002.8</ele><time>2025-05-20T23:36:49Z</time></trkpt>
<trkpt lat="38.913715" lon="-120.030264"><ele>2006.4</ele><time>2025-05-20T23:37:07Z</time></trkpt>
<trkpt lat="38.913845" lon="-120.030498"><ele>2010.0</ele><time>2025-05-20T23:37:20Z</time></trkpt>
<trkpt lat="38.914184" lon="-120.030934"><ele>2014.4</ele><time>2025-05-20T23:37:53Z</time></trkpt>
<trkpt lat="38.914803" lon="-120.031268"><ele>2019.8</ele><time>2025-05-20T23:38:35Z</time></trkpt>
<trkpt lat="38.914920" lon="-120.031388"><ele>2021.8</ele><time>2025-05-20T23:38:45Z</time></trkpt>
<trkpt lat="38.915065" lon="-120.031624"><ele>2024.6</ele><time>2025-05-20T23:39:01Z</time></trkpt>
<trkpt lat="38.915517" lon="-120.031996"><ele>2030.0</ele><time>2025-05-20T23:39:37Z</time></trkpt>
<trkpt lat="38.915773" lon="-120.032308"><ele>2033.6</ele><time>2025-05-20T23:39:59Z</time></trkpt>
<trkpt lat="38.915940" lon="-120.032436"><ele>2035.4</ele><time>2025-05-20T23:40:10Z</time></trkpt>
<trkpt lat="38.916047" lon="-120.032671"><ele>2038.0</ele><time>2025-05-20T23:40:22Z</time></trkpt>
<trkpt lat="38.916052" lon="-120.032908"><ele>2039.6</ele><time>2025-05-20T23:40:33Z</time></trkpt>
<trkpt lat="38.916081" lon="-120.032976"><ele>2040.4</ele><time>2025-05-20T23:40:36Z</time></trkpt>
<trkpt lat="38.916447" lon="-120.033168"><ele>2044.8</ele><time>2025-05-20T23:40:59Z</time></trkpt>
<trkpt lat="38.916730" lon="-120.033456"><ele>2048.0</ele><time>2025-05-20T23:41:19Z</time></trkpt>
<trkpt lat="38.916855" lon="-120.033769"><ele>2052.2</ele><time>2025-05-20T23:41:39Z</time></trkpt>
<trkpt lat="38.917086" lon="-120.034190"><ele>2057.6</ele><time>2025-05-20T23:42:07Z</time></trkpt>
<trkpt lat="38.917256" lon="-120.034383"><ele>2060.4</ele><time>2025-05-20T23:42:25Z</time></trkpt>
<trkpt lat="38.917326" lon="-120.034517"><ele>2062.2</ele><time>2025-05-20T23:42:34Z</time></trkpt>
<trkpt lat="38.918020" lon="-120.035320"><ele>2073.2</ele><time>2025-05-20T23:43:38Z</time></trkpt>
<trkpt lat="38.918264" lon="-120.035856"><ele>2076.8</ele><time>2025-05-20T23:44:04Z</time></trkpt>
<trkpt lat="38.918276" lon="-120.035976"><ele>2077.6</ele><time>2025-05-20T23:44:09Z</time></trkpt>
<trkpt lat="38.918248" lon="-120.036063"><ele>2078.8</ele><time>2025-05-20T23:44:14Z</time></trkpt>
<trkpt lat="38.918179" lon="-120.036082"><ele>2080.6</ele><time>2025-05-20T23:44:19Z</time></trkpt>
<trkpt lat="38.917799" lon="-120.035513"><ele>2083.4</ele><time>2025-05-20T23:44:49Z</time></trkpt>
<trkpt lat="38.917165" lon="-120.035235"><ele>2090.2</ele><time>2025-05-20T23:45:34Z</time></trkpt>
<trkpt lat="38.916711" lon="-120.034942"><ele>2094.4</ele><time>2025-05-20T23:46:07Z</time></trkpt>
<trkpt lat="38.916310" lon="-120.034796"><ele>2098.0</ele><time>2025-05-20T23:46:35Z</time></trkpt>
<trkpt lat="38.916158" lon="-120.034772"><ele>2100.6</ele><time>2025-05-20T23:46:46Z</time></trkpt>
<trkpt lat="38.915845" lon="-120.034594"><ele>2105.0</ele><time>2025-05-20T23:47:11Z</time></trkpt>
<trkpt lat="38.915545" lon="-120.034503"><ele>2109.0</ele><time>2025-05-20T23:47:30Z</time></trkpt>
<trkpt lat="38.915133" lon="-120.034296"><ele>2111.6</ele><time>2025-05-20T23:47:53Z</time></trkpt>
<trkpt lat="38.915049" lon="-120.034303"><ele>2112.4</ele><time>2025-05-20T23:47:57Z</time></trkpt>
<trkpt lat="38.915036" lon="-120.034369"><ele>2113.6</ele><time>2025-05-20T23:48:01Z</time></trkpt>
<trkpt lat="38.915180" lon="-120.034485"><ele>2116.6</ele><time>2025-05-20T23:48:15Z</time></trkpt>
<trkpt lat="38.915283" lon="-120.034653"><ele>2120.2</ele><time>2025-05-20T23:48:29Z</time></trkpt>
<trkpt lat="38.915586" lon="-120.034874"><ele>2122.4</ele><time>2025-05-20T23:48:47Z</time></trkpt>
<trkpt lat="38.916077" lon="-120.035370"><ele>2126.4</ele><time>2025-05-20T23:49:17Z</time></trkpt>
<trkpt lat="38.916209" lon="-120.035433"><ele>2126.8</ele><time>2025-05-20T23:49:22Z</time></trkpt>
<trkpt lat="38.916444" lon="-120.035724"><ele>2128.4</ele><time>2025-05-20T23:49:35Z</time></trkpt>
<trkpt lat="38.916579" lon="-120.036332"><ele>2129.6</ele><time>2025-05-20T23:49:53Z</time></trkpt>
<trkpt lat="38.916595" lon="-120.036567"><ele>2130.2</ele><time>2025-05-20T23:50:00Z</time></trkpt>
<trkpt lat="38.916552" lon="-120.036712"><ele>2130.6</ele><time>2025-05-20T23:50:04Z</time></trkpt>
<trkpt lat="38.916600" lon="-120.037105"><ele>2132.0</ele><time>2025-05-20T23:50:15Z</time></trkpt>
<trkpt lat="38.916530" lon="-120.037190"><ele>2133.4</ele><time>2025-05-20T23:50:20Z</time></trkpt>
<trkpt lat="38.916493" lon="-120.037158"><ele>2134.4</ele><time>2025-05-20T23:50:23Z</time></trkpt>
<trkpt lat="38.916358" lon="-120.036893"><ele>2135.4</ele><time>2025-05-20T23:50:34Z</time></trkpt>
<trkpt lat="38.916255" lon="-120.036342"><ele>2138.6</ele><time>2025-05-20T23:50:53Z</time></trkpt>
<trkpt lat="38.916224" lon="-120.036303"><ele>2139.0</ele><time>2025-05-20T23:50:55Z</time></trkpt>
<trkpt lat="38.916170" lon="-120.036307"><ele>2140.4</ele><time>2025-05-20T23:50:58Z</time></trkpt>
<trkpt lat="38.916134" lon="-120.036445"><ele>2141.0</ele><time>2025-05-20T23:51:05Z</time></trkpt>
<trkpt lat="38.916145" lon="-120.036645"><ele>2140.8</ele><time>2025-05-20T23:51:10Z</time></trkpt>
<trkpt lat="38.916044" lon="-120.037057"><ele>2142.8</ele><time>2025-05-20T23:51:23Z</time></trkpt>
<trkpt lat="38.916056" lon="-120.037354"><ele>2145.4</ele><time>2025-05-20T23:51:36Z</time></trkpt>
<trkpt lat="38.915994" lon="-120.037465"><ele>2147.4</ele><time>2025-05-20T23:51:42Z</time></trkpt>
<trkpt lat="38.915642" lon="-120.036974"><ele>2149.6</ele><time>2025-05-20T23:52:03Z</time></trkpt>
<trkpt lat="38.915570" lon="-120.036638"><ele>2151.8</ele><time>2025-05-20T23:52:16Z</time></trkpt>
<trkpt lat="38.915611" lon="-120.036396"><ele>2152.6</ele><time>2025-05-20T23:52:25Z</time></trkpt>
<trkpt lat="38.915559" lon="-120.036075"><ele>2154.0</ele><time>2025-05-20T23:52:35Z</time></trkpt>
<trkpt lat="38.915273" lon="-120.035770"><ele>2155.8</ele><time>2025-05-20T23:52:50Z</time></trkpt>
<trkpt lat="38.915140" lon="-120.035682"><ele>2155.6</ele><time>2025-05-20T23:52:55Z</time></trkpt>
<trkpt lat="38.915018" lon="-120.035652"><ele>2156.4</ele><time>2025-05-20T23:52:59Z</time></trkpt>
<trkpt lat="38.914915" lon="-120.035539"><ele>2156.6</ele><time>2025-05-20T23:53:03Z</time></trkpt>
<trkpt lat="38.914560" lon="-120.035392"><ele>2158.2</ele><time>2025-05-20T23:53:16Z</time></trkpt>
<trkpt lat="38.914229" lon="-120.035359"><ele>2161.4</ele><time>2025-05-20T23:53:31Z</time></trkpt>
<trkpt lat="38.914167" lon="-120.035365"><ele>2158.2</ele><time>2025-05-20T23:57:13Z</time></trkpt>
<trkpt lat="38.913956" lon="-120.035393"><ele>2158.4</ele><time>2025-05-20T23:57:20Z</time></trkpt>
<trkpt lat="38.913283" lon="-120.035703"><ele>2155.6</ele><time>2025-05-20T23:57:35Z</time></trkpt>
<trkpt lat="38.912770" lon="-120.035717"><ele>2154.6</ele><time>2025-05-20T23:57:42Z</time></trkpt>
<trkpt lat="38.912633" lon="-120.035629"><ele>2154.0</ele><time>2025-05-20T23:57:44Z</time></trkpt>
<trkpt lat="38.912403" lon="-120.035342"><ele>2152.2</ele><time>2025-05-20T23:57:48Z</time></trkpt>
<trkpt lat="38.912101" lon="-120.034804"><ele>2149.0</ele><time>2025-05-20T23:57:54Z</time></trkpt>
<trkpt lat="38.911813" lon="-120.034397"><ele>2147.2</ele><time>2025-05-20T23:57:59Z</time></trkpt>
<trkpt lat="38.911419" lon="-120.033977"><ele>2145.0</ele><time>2025-05-20T23:58:05Z</time></trkpt>
<trkpt lat="38.910966" lon="-120.033176"><ele>2145.8</ele><time>2025-05-20T23:58:15Z</time></trkpt>
<trkpt lat="38.910765" lon="-120.032972"><ele>2145.6</ele><time>2025-05-20T23:58:19Z</time></trkpt>
<trkpt lat="38.910072" lon="-120.032603"><ele>2146.4</ele><time>2025-05-20T23:58:31Z</time></trkpt>
<trkpt lat="38.908907" lon="-120.032094"><ele>2142.2</ele><time>2025-05-20T23:58:50Z</time></trkpt>
<trkpt lat="38.908745" lon="-120.031896"><ele>2141.6</ele><time>2025-05-20T23:58:54Z</time></trkpt>
<trkpt lat="38.908715" lon="-120.031835"><ele>2141.6</ele><time>2025-05-20T23:58:55Z</time></trkpt>
<trkpt lat="38.908708" lon="-120.031683"><ele>2141.0</ele><time>2025-05-20T23:58:57Z</time></trkpt>
<trkpt lat="38.908640" lon="-120.031570"><ele>2141.0</ele><time>2025-05-20T23:58:59Z</time></trkpt>
<trkpt lat="38.908439" lon="-120.031457"><ele>2141.2</ele><time>2025-05-20T23:59:08Z</time></trkpt>
<trkpt lat="38.908269" lon="-120.031431"><ele>2141.2</ele><time>2025-05-20T23:59:17Z</time></trkpt>
<trkpt lat="38.908175" lon="-120.031289"><ele>2140.4</ele><time>2025-05-20T23:59:23Z</time></trkpt>
<trkpt lat="38.907783" lon="-120.031091"><ele>2141.6</ele><time>2025-05-20T23:59:47Z</time></trkpt>
<trkpt lat="38.907620" lon="-120.030952"><ele>2143.2</ele><time>2025-05-20T23:59:59Z</time></trkpt>
<trkpt lat="38.907551" lon="-120.030952"><ele>2144.4</ele><time>2025-05-21T00:00:03Z</time></trkpt>
<trkpt lat="38.907534" lon="-120.030989"><ele>2145.0</ele><time>2025-05-21T00:00:05Z</time></trkpt>
<trkpt lat="38.907574" lon="-120.031270"><ele>2146.2</ele><time>2025-05-21T00:00:17Z</time></trkpt>
<trkpt lat="38.907537" lon="-120.031409"><ele>2147.4</ele><time>2025-05-21T00:00:23Z</time></trkpt>
<trkpt lat="38.907535" lon="-120.031569"><ele>2148.0</ele><time>2025-05-21T00:00:30Z</time></trkpt>
<trkpt lat="38.907453" lon="-120.031633"><ele>2149.2</ele><time>2025-05-21T00:00:35Z</time></trkpt>
<trkpt lat="38.907314" lon="-120.031500"><ele>2151.2</ele><time>2025-05-21T00:00:47Z</time></trkpt>
<trkpt lat="38.907280" lon="-120.031252"><ele>2151.2</ele><time>2025-05-21T00:00:56Z</time></trkpt>
<trkpt lat="38.907168" lon="-120.031062"><ele>2152.2</ele><time>2025-05-21T00:01:04Z</time></trkpt>
<trkpt lat="38.907149" lon="-120.030849"><ele>2152.4</ele><time>2025-05-21T00:01:11Z</time></trkpt>
<trkpt lat="38.907094" lon="-120.030778"><ele>2153.2</ele><time>2025-05-21T00:01:16Z</time></trkpt>
<trkpt lat="38.906970" lon="-120.030718"><ele>2153.2</ele><time>2025-05-21T00:01:23Z</time></trkpt>
<trkpt lat="38.906808" lon="-120.030529"><ele>2153.4</ele><time>2025-05-21T00:01:33Z</time></trkpt>
<trkpt lat="38.906525" lon="-120.030052"><ele>2156.4</ele><time>2025-05-21T00:01:55Z</time></trkpt>
<trkpt lat="38.906346" lon="-120.029594"><ele>2156.6</ele><time>2025-05-21T00:02:12Z</time></trkpt>
<trkpt lat="38.906099" lon="-120.029262"><ele>2157.6</ele><time>2025-05-21T00:02:24Z</time></trkpt>
<trkpt lat="38.905898" lon="-120.028922"><ele>2160.0</ele><time>2025-05-21T00:02:40Z</time></trkpt>
<trkpt lat="38.905803" lon="-120.028651"><ele>2160.8</ele><time>2025-05-21T00:02:49Z</time></trkpt>
<trkpt lat="38.905692" lon="-120.028182"><ele>2162.4</ele><time>2025-05-21T00:03:04Z</time></trkpt>
<trkpt lat="38.905630" lon="-120.028061"><ele>2163.8</ele><time>2025-05-21T00:03:10Z</time></trkpt>
<trkpt lat="38.905672" lon="-120.027688"><ele>2164.0</ele><time>2025-05-21T00:03:19Z</time></trkpt>
<trkpt lat="38.905637" lon="-120.027397"><ele>2166.0</ele><time>2025-05-21T00:03:31Z</time></trkpt>
<trkpt lat="38.905551" lon="-120.027298"><ele>2166.6</ele><time>2025-05-21T00:03:37Z</time></trkpt>
<trkpt lat="38.905502" lon="-120.027133"><ele>2166.2</ele><time>2025-05-21T00:03:46Z</time></trkpt>
<trkpt lat="38.905451" lon="-120.027080"><ele>2162.2</ele><time>2025-05-21T00:08:05Z</time></trkpt>
<trkpt lat="38.905385" lon="-120.026857"><ele>2162.0</ele><time>2025-05-21T00:08:12Z</time></trkpt>
<trkpt lat="38.905208" lon="-120.026693"><ele>2161.8</ele><time>2025-05-21T00:08:18Z</time></trkpt>
<trkpt lat="38.905173" lon="-120.026588"><ele>2161.0</ele><time>2025-05-21T00:08:20Z</time></trkpt>
<trkpt lat="38.905199" lon="-120.026478"><ele>2160.0</ele><time>2025-05-21T00:08:22Z</time></trkpt>
<trkpt lat="38.905346" lon="-120.026343"><ele>2159.6</ele><time>2025-05-21T00:08:26Z</time></trkpt>
<trkpt lat="38.905407" lon="-120.026328"><ele>2159.8</ele><time>2025-05-21T00:08:28Z</time></trkpt>
<trkpt lat="38.905537" lon="-120.026155"><ele>2159.0</ele><time>2025-05-21T00:08:33Z</time></trkpt>
<trkpt lat="38.905571" lon="-120.025920"><ele>2157.2</ele><time>2025-05-21T00:08:37Z</time></trkpt>
<trkpt lat="38.905556" lon="-120.025856"><ele>2156.6</ele><time>2025-05-21T00:08:38Z</time></trkpt>
<trkpt lat="38.905472" lon="-120.025757"><ele>2156.0</ele><time>2025-05-21T00:08:41Z</time></trkpt>
<trkpt lat="38.905440" lon="-120.025568"><ele>2154.8</ele><time>2025-05-21T00:08:44Z</time></trkpt>
<trkpt lat="38.905349" lon="-120.025417"><ele>2153.4</ele><time>2025-05-21T00:08:47Z</time></trkpt>
<trkpt lat="38.905330" lon="-120.025208"><ele>2153.6</ele><time>2025-05-21T00:08:51Z</time></trkpt>
<trkpt lat="38.905122" lon="-120.024993"><ele>2152.0</ele><time>2025-05-21T00:09:01Z</time></trkpt>
<trkpt lat="38.905047" lon="-120.024732"><ele>2151.2</ele><time>2025-05-21T00:09:06Z</time></trkpt>
<trkpt lat="38.904912" lon="-120.024641"><ele>2149.8</ele><time>2025-05-21T00:09:09Z</time></trkpt>
<trkpt lat="38.904887" lon="-120.024590"><ele>2149.2</ele><time>2025-05-21T00:09:10Z</time></trkpt>
<trkpt lat="38.904879" lon="-120.024330"><ele>2149.2</ele><time>2025-05-21T00:09:14Z</time></trkpt>
<trkpt lat="38.904720" lon="-120.023976"><ele>2147.2</ele><time>2025-05-21T00:09:20Z</time></trkpt>
<trkpt lat="38.904768" lon="-120.023613"><ele>2146.8</ele><time>2025-05-21T00:09:26Z</time></trkpt>
<trkpt lat="38.904764" lon="-120.023343"><ele>2145.4</ele><time>2025-05-21T00:09:30Z</time></trkpt>
<trkpt lat="38.904833" lon="-120.023193"><ele>2145.0</ele><time>2025-05-21T00:09:33Z</time></trkpt>
<trkpt lat="38.904815" lon="-120.022916"><ele>2144.0</ele><time>2025-05-21T00:09:37Z</time></trkpt>
<trkpt lat="38.904847" lon="-120.022692"><ele>2142.8</ele><time>2025-05-21T00:09:40Z</time></trkpt>
<trkpt lat="38.904921" lon="-120.022519"><ele>2143.0</ele><time>2025-05-21T00:09:43Z</time></trkpt>
<trkpt lat="38.904950" lon="-120.022342"><ele>2142.6</ele><time>2025-05-21T00:09:46Z</time></trkpt>
<trkpt lat="38.905094" lon="-120.022102"><ele>2140.6</ele><time>2025-05-21T00:09:51Z</time></trkpt>
<trkpt lat="38.905232" lon="-120.022073"><ele>2139.6</ele><time>2025-05-21T00:09:54Z</time></trkpt>
<trkpt lat="38.905245" lon="-120.021976"><ele>2139.2</ele><time>2025-05-21T00:09:56Z</time></trkpt>
<trkpt lat="38.905167" lon="-120.021942"><ele>2138.4</ele><time>2025-05-21T00:09:58Z</time></trkpt>
<trkpt lat="38.904863" lon="-120.022096"><ele>2136.8</ele><time>2025-05-21T00:10:05Z</time></trkpt>
<trkpt lat="38.904573" lon="-120.022465"><ele>2135.6</ele><time>2025-05-21T00:10:12Z</time></trkpt>
<trkpt lat="38.904391" lon="-120.022912"><ele>2135.0</ele><time>2025-05-21T00:10:18Z</time></trkpt>
<trkpt lat="38.904360" lon="-120.022954"><ele>2134.8</ele><time>2025-05-21T00:10:19Z</time></trkpt>
<trkpt lat="38.904313" lon="-120.022947"><ele>2134.4</ele><time>2025-05-21T00:10:20Z</time></trkpt>
<trkpt lat="38.904287" lon="-120.022913"><ele>2134.0</ele><time>2025-05-21T00:10:21Z</time></trkpt>
<trkpt lat="38.904305" lon="-120.022595"><ele>2131.2</ele><time>2025-05-21T00:10:26Z</time></trkpt>
<trkpt lat="38.904367" lon="-120.022464"><ele>2131.0</ele><time>2025-05-21T00:10:28Z</time></trkpt>
<trkpt lat="38.904359" lon="-120.022242"><ele>2130.8</ele><time>2025-05-21T00:10:31Z</time></trkpt>
<trkpt lat="38.904571" lon="-120.021699"><ele>2129.2</ele><time>2025-05-21T00:10:38Z</time></trkpt>
<trkpt lat="38.904613" lon="-120.021524"><ele>2128.6</ele><time>2025-05-21T00:10:40Z</time></trkpt>
<trkpt lat="38.904553" lon="-120.021416"><ele>2127.6</ele><time>2025-05-21T00:10:42Z</time></trkpt>
<trkpt lat="38.904501" lon="-120.021396"><ele>2127.0</ele><time>2025-05-21T00:10:43Z</time></trkpt>
<trkpt lat="38.904396" lon="-120.021435"><ele>2126.6</ele><time>2025-05-21T00:10:45Z</time></trkpt>
<trkpt lat="38.904356" lon="-120.021499"><ele>2126.6</ele><time>2025-05-21T00:10:46Z</time></trkpt>
<trkpt lat="38.904303" lon="-120.021749"><ele>2126.0</ele><time>2025-05-21T00:10:49Z</time></trkpt>
<trkpt lat="38.904167" lon="-120.022035"><ele>2125.6</ele><time>2025-05-21T00:10:55Z</time></trkpt>
<trkpt lat="38.903954" lon="-120.022449"><ele>2122.2</ele><time>2025-05-21T00:11:01Z</time></trkpt>
<trkpt lat="38.903732" lon="-120.022780"><ele>2117.0</ele><time>2025-05-21T00:11:05Z</time></trkpt>
<trkpt lat="38.903607" lon="-120.023020"><ele>2116.2</ele><time>2025-05-21T00:11:08Z</time></trkpt>
<trkpt lat="38.903562" lon="-120.023201"><ele>2115.6</ele><time>2025-05-21T00:11:10Z</time></trkpt>
<trkpt lat="38.903385" lon="-120.023496"><ele>2114.6</ele><time>2025-05-21T00:11:14Z</time></trkpt>
<trkpt lat="38.903206" lon="-120.024021"><ele>2111.8</ele><time>2025-05-21T00:11:21Z</time></trkpt>
<trkpt lat="38.903133" lon="-120.024139"><ele>2109.0</ele><time>2025-05-21T00:11:23Z</time></trkpt>
<trkpt lat="38.903081" lon="-120.024423"><ele>2106.8</ele><time>2025-05-21T00:11:27Z</time></trkpt>
<trkpt lat="38.903079" lon="-120.024654"><ele>2106.0</ele><time>2025-05-21T00:11:30Z</time></trkpt>
<trkpt lat="38.903057" lon="-120.024730"><ele>2106.0</ele><time>2025-05-21T00:11:31Z</time></trkpt>
<trkpt lat="38.903022" lon="-120.024739"><ele>2106.0</ele><time>2025-05-21T00:11:32Z</time></trkpt>
<trkpt lat="38.902994" lon="-120.024654"><ele>2105.4</ele><time>2025-05-21T00:11:34Z</time></trkpt>
<trkpt lat="38.903013" lon="-120.024489"><ele>2103.6</ele><time>2025-05-21T00:11:37Z</time></trkpt>
<trkpt lat="38.902984" lon="-120.024371"><ele>2102.6</ele><time>2025-05-21T00:11:39Z</time></trkpt>
<trkpt lat="38.902999" lon="-120.024161"><ele>2101.4</ele><time>2025-05-21T00:11:42Z</time></trkpt>
<trkpt lat="38.902957" lon="-120.023522"><ele>2096.8</ele><time>2025-05-21T00:11:49Z</time></trkpt>
<trkpt lat="38.902976" lon="-120.023317"><ele>2096.2</ele><time>2025-05-21T00:11:51Z</time></trkpt>
<trkpt lat="38.903176" lon="-120.022519"><ele>2093.8</ele><time>2025-05-21T00:12:00Z</time></trkpt>
<trkpt lat="38.903171" lon="-120.022227"><ele>2092.2</ele><time>2025-05-21T00:12:03Z</time></trkpt>
<trkpt lat="38.903236" lon="-120.021960"><ele>2091.4</ele><time>2025-05-21T00:12:06Z</time></trkpt>
<trkpt lat="38.903280" lon="-120.021471"><ele>2090.2</ele><time>2025-05-21T00:12:11Z</time></trkpt>
<trkpt lat="38.903235" lon="-120.021306"><ele>2090.4</ele><time>2025-05-21T00:12:13Z</time></trkpt>
<trkpt lat="38.903022" lon="-120.021066"><ele>2088.6</ele><time>2025-05-21T00:12:17Z</time></trkpt>
<trkpt lat="38.902946" lon="-120.021034"><ele>2087.8</ele><time>2025-05-21T00:12:18Z</time></trkpt>
<trkpt lat="38.902878" lon="-120.020948"><ele>2087.2</ele><time>2025-05-21T00:12:20Z</time></trkpt>
<trkpt lat="38.902736" lon="-120.020990"><ele>2087.6</ele><time>2025-05-21T00:12:23Z</time></trkpt>
<trkpt lat="38.902613" lon="-120.020926"><ele>2085.0</ele><time>2025-05-21T00:12:26Z</time></trkpt>
<trkpt lat="38.902577" lon="-120.020950"><ele>2084.6</ele><time>2025-05-21T00:12:27Z</time></trkpt>
<trkpt lat="38.902578" lon="-120.021006"><ele>2084.2</ele><time>2025-05-21T00:12:29Z</time></trkpt>
<trkpt lat="38.902784" lon="-120.021150"><ele>2080.6</ele><time>2025-05-21T00:12:36Z</time></trkpt>
<trkpt lat="38.902916" lon="-120.021285"><ele>2079.0</ele><time>2025-05-21T00:12:39Z</time></trkpt>
<trkpt lat="38.903040" lon="-120.021498"><ele>2080.8</ele><time>2025-05-21T00:12:44Z</time></trkpt>
<trkpt lat="38.903047" lon="-120.021575"><ele>2080.8</ele><time>2025-05-21T00:12:46Z</time></trkpt>
<trkpt lat="38.903022" lon="-120.021589"><ele>2080.6</ele><time>2025-05-21T00:12:47Z</time></trkpt>
<trkpt lat="38.902962" lon="-120.021499"><ele>2078.8</ele><time>2025-05-21T00:12:49Z</time></trkpt>
<trkpt lat="38.902873" lon="-120.021485"><ele>2076.6</ele><time>2025-05-21T00:12:51Z</time></trkpt>
<trkpt lat="38.902773" lon="-120.021340"><ele>2073.6</ele><time>2025-05-21T00:12:54Z</time></trkpt>
<trkpt lat="38.902653" lon="-120.021303"><ele>2071.8</ele><time>2025-05-21T00:12:56Z</time></trkpt>
<trkpt lat="38.902331" lon="-120.021387"><ele>2071.6</ele><time>2025-05-21T00:13:03Z</time></trkpt>
<trkpt lat="38.902330" lon="-120.021466"><ele>2071.0</ele><time>2025-05-21T00:13:05Z</time></trkpt>
<trkpt lat="38.902396" lon="-120.021552"><ele>2069.6</ele><time>2025-05-21T00:13:08Z</time></trkpt>
<trkpt lat="38.902488" lon="-120.021499"><ele>2067.8</ele><time>2025-05-21T00:13:12Z</time></trkpt>
<trkpt lat="38.902594" lon="-120.021510"><ele>2067.0</ele><time>2025-05-21T00:13:14Z</time></trkpt>
<trkpt lat="38.902664" lon="-120.021679"><ele>2067.0</ele><time>2025-05-21T00:13:17Z</time></trkpt>
<trkpt lat="38.902642" lon="-120.021798"><ele>2066.8</ele><time>2025-05-21T00:13:19Z</time></trkpt>
<trkpt lat="38.902541" lon="-120.021903"><ele>2066.2</ele><time>2025-05-21T00:13:21Z</time></trkpt>
<trkpt lat="38.902517" lon="-120.021975"><ele>2065.4</ele><time>2025-05-21T00:13:22Z</time></trkpt>
<trkpt lat="38.902440" lon="-120.022380"><ele>2065.4</ele><time>2025-05-21T00:13:27Z</time></trkpt>
<trkpt lat="38.902393" lon="-120.022454"><ele>2065.6</ele><time>2025-05-21T00:13:28Z</time></trkpt>
<trkpt lat="38.902204" lon="-120.022544"><ele>2062.8</ele><time>2025-05-21T00:13:31Z</time></trkpt>
<trkpt lat="38.901960" lon="-120.022841"><ele>2061.8</ele><time>2025-05-21T00:13:37Z</time></trkpt>
<trkpt lat="38.901944" lon="-120.023000"><ele>2060.6</ele><time>2025-05-21T00:13:39Z</time></trkpt>
<trkpt lat="38.901980" lon="-120.023167"><ele>2059.4</ele><time>2025-05-21T00:13:41Z</time></trkpt>
<trkpt lat="38.901958" lon="-120.023239"><ele>2058.6</ele><time>2025-05-21T00:13:42Z</time></trkpt>
<trkpt lat="38.901876" lon="-120.023322"><ele>2056.8</ele><time>2025-05-21T00:13:44Z</time></trkpt>
<trkpt lat="38.901870" lon="-120.023468"><ele>2055.8</ele><time>2025-05-21T00:13:46Z</time></trkpt>
<trkpt lat="38.901781" lon="-120.023648"><ele>2054.8</ele><time>2025-05-21T00:13:49Z</time></trkpt>
<trkpt lat="38.901578" lon="-120.023720"><ele>2053.4</ele><time>2025-05-21T00:13:52Z</time></trkpt>
<trkpt lat="38.901428" lon="-120.023698"><ele>2050.4</ele><time>2025-05-21T00:13:54Z</time></trkpt>
<trkpt lat="38.901303" lon="-120.023771"><ele>2049.2</ele><time>2025-05-21T00:13:56Z</time></trkpt>
<trkpt lat="38.901230" lon="-120.023907"><ele>2049.2</ele><time>2025-05-21T00:13:58Z</time></trkpt>
<trkpt lat="38.901251" lon="-120.024165"><ele>2049.0</ele><time>2025-05-21T00:14:01Z</time></trkpt>
<trkpt lat="38.900917" lon="-120.024526"><ele>2046.2</ele><time>2025-05-21T00:14:08Z</time></trkpt>
<trkpt lat="38.900868" lon="-120.024672"><ele>2045.8</ele><time>2025-05-21T00:14:10Z</time></trkpt>
<trkpt lat="38.900820" lon="-120.024690"><ele>2045.4</ele><time>2025-05-21T00:14:11Z</time></trkpt>
<trkpt lat="38.900755" lon="-120.024605"><ele>2044.2</ele><time>2025-05-21T00:14:13Z</time></trkpt>
<trkpt lat="38.900792" lon="-120.024386"><ele>2042.4</ele><time>2025-05-21T00:14:16Z</time></trkpt>
<trkpt lat="38.900818" lon="-120.023548"><ele>2042.4</ele><time>2025-05-21T00:14:26Z</time></trkpt>
<trkpt lat="38.901025" lon="-120.023185"><ele>2040.4</ele><time>2025-05-21T00:14:31Z</time></trkpt>
<trkpt lat="38.901092" lon="-120.023162"><ele>2039.8</ele><time>2025-05-21T00:14:32Z</time></trkpt>
<trkpt lat="38.901250" lon="-120.023192"><ele>2038.4</ele><time>2025-05-21T00:14:35Z</time></trkpt>
<trkpt lat="38.901275" lon="-120.023144"><ele>2038.0</ele><time>2025-05-21T00:14:36Z</time></trkpt>
<trkpt lat="38.901222" lon="-120.023045"><ele>2036.8</ele><time>2025-05-21T00:14:38Z</time></trkpt>
<trkpt lat="38.900892" lon="-120.022970"><ele>2036.2</ele><time>2025-05-21T00:14:44Z</time></trkpt>
<trkpt lat="38.900789" lon="-120.023026"><ele>2036.2</ele><time>2025-05-21T00:14:46Z</time></trkpt>
<trkpt lat="38.900519" lon="-120.023043"><ele>2034.0</ele><time>2025-05-21T00:14:50Z</time></trkpt>
<trkpt lat="38.900340" lon="-120.023127"><ele>2031.8</ele><time>2025-05-21T00:14:53Z</time></trkpt>
<trkpt lat="38.900302" lon="-120.023191"><ele>2031.4</ele><time>2025-05-21T00:14:54Z</time></trkpt>
<trkpt lat="38.900277" lon="-120.023391"><ele>2031.0</ele><time>2025-05-21T00:14:57Z</time></trkpt>
<trkpt lat="38.900217" lon="-120.023430"><ele>2030.6</ele><time>2025-05-21T00:14:58Z</time></trkpt>
<trkpt lat="38.900078" lon="-120.023403"><ele>2030.2</ele><time>2025-05-21T00:15:01Z</time></trkpt>
<trkpt lat="38.899966" lon="-120.023453"><ele>2029.8</ele><time>2025-05-21T00:15:03Z</time></trkpt>
<trkpt lat="38.899779" lon="-120.023227"><ele>2027.4</ele><time>2025-05-21T00:15:07Z</time></trkpt>
<trkpt lat="38.899715" lon="-120.023219"><ele>2026.8</ele><time>2025-05-21T00:15:08Z</time></trkpt>
<trkpt lat="38.899556" lon="-120.023306"><ele>2026.2</ele><time>2025-05-21T00:15:11Z</time></trkpt>
<trkpt lat="38.899374" lon="-120.023310"><ele>2025.6</ele><time>2025-05-21T00:15:14Z</time></trkpt>
<trkpt lat="38.899202" lon="-120.023171"><ele>2025.2</ele><time>2025-05-21T00:15:17Z</time></trkpt>
<trkpt lat="38.899120" lon="-120.022929"><ele>2025.2</ele><time>2025-05-21T00:15:20Z</time></trkpt>
<trkpt lat="38.899061" lon="-120.022599"><ele>2025.6</ele><time>2025-05-21T00:15:24Z</time></trkpt>
<trkpt lat="38.899020" lon="-120.022534"><ele>2025.0</ele><time>2025-05-21T00:15:25Z</time></trkpt>
<trkpt lat="38.898741" lon="-120.022449"><ele>2022.4</ele><time>2025-05-21T00:15:30Z</time></trkpt>
<trkpt lat="38.898572" lon="-120.022457"><ele>2022.8</ele><time>2025-05-21T00:15:33Z</time></trkpt>
<trkpt lat="38.898459" lon="-120.022515"><ele>2022.4</ele><time>2025-05-21T00:15:35Z</time></trkpt>
<trkpt lat="38.898363" lon="-120.022748"><ele>2019.4</ele><time>2025-05-21T00:15:39Z</time></trkpt>
<trkpt lat="38.898282" lon="-120.022721"><ele>2017.6</ele><time>2025-05-21T00:15:41Z</time></trkpt>
<trkpt lat="38.898224" lon="-120.022574"><ele>2015.4</ele><time>2025-05-21T00:15:44Z</time></trkpt>
<trkpt lat="38.898254" lon="-120.022352"><ele>2014.0</ele><time>2025-05-21T00:15:47Z</time></trkpt>
<trkpt lat="38.898332" lon="-120.022232"><ele>2013.0</ele><time>2025-05-21T00:15:49Z</time></trkpt>
<trkpt lat="38.898333" lon="-120.022173"><ele>2012.4</ele><time>2025-05-21T00:15:50Z</time></trkpt>
<trkpt lat="38.898266" lon="-120.022102"><ele>2011.4</ele><time>2025-05-21T00:15:52Z</time></trkpt>
<trkpt lat="38.898029" lon="-120.022294"><ele>2009.2</ele><time>2025-05-21T00:15:57Z</time></trkpt>
<trkpt lat="38.897901" lon="-120.022551"><ele>2009.8</ele><time>2025-05-21T00:16:01Z</time></trkpt>
<trkpt lat="38.897656" lon="-120.022817"><ele>2010.0</ele><time>2025-05-21T00:16:07Z</time></trkpt>
<trkpt lat="38.897617" lon="-120.022996"><ele>2009.4</ele><time>2025-05-21T00:16:11Z</time></trkpt>
<trkpt lat="38.897630" lon="-120.022986"><ele>2008.0</ele><time>2025-05-21T00:16:14Z</time></trkpt>
<trkpt lat="38.897618" lon="-120.023109"><ele>1993.4</ele><time>2025-05-21T00:19:22Z</time></trkpt>
<trkpt lat="38.897499" lon="-120.023214"><ele>1992.6</ele><time>2025-05-21T00:19:26Z</time></trkpt>
<trkpt lat="38.897398" lon="-120.023413"><ele>1992.2</ele><time>2025-05-21T00:19:29Z</time></trkpt>
<trkpt lat="38.897390" lon="-120.023669"><ele>1992.2</ele><time>2025-05-21T00:19:46Z</time></trkpt>
<trkpt lat="38.897430" lon="-120.023768"><ele>1991.8</ele><time>2025-05-21T00:19:49Z</time></trkpt>
<trkpt lat="38.897428" lon="-120.023980"><ele>1991.4</ele><time>2025-05-21T00:19:52Z</time></trkpt>
<trkpt lat="38.897351" lon="-120.024212"><ele>1990.2</ele><time>2025-05-21T00:19:55Z</time></trkpt>
<trkpt lat="38.897369" lon="-120.024281"><ele>1989.6</ele><time>2025-05-21T00:19:56Z</time></trkpt>
<trkpt lat="38.897520" lon="-120.024499"><ele>1988.0</ele><time>2025-05-21T00:20:00Z</time></trkpt>
<trkpt lat="38.897496" lon="-120.024603"><ele>1987.6</ele><time>2025-05-21T00:20:02Z</time></trkpt>
<trkpt lat="38.897226" lon="-120.024805"><ele>1987.4</ele><time>2025-05-21T00:20:08Z</time></trkpt>
<trkpt lat="38.896817" lon="-120.025209"><ele>1990.2</ele><time>2025-05-21T00:20:16Z</time></trkpt>
<trkpt lat="38.896720" lon="-120.025342"><ele>1990.2</ele><time>2025-05-21T00:20:18Z</time></trkpt>
<trkpt lat="38.896692" lon="-120.025555"><ele>1990.2</ele><time>2025-05-21T00:20:21Z</time></trkpt>
<trkpt lat="38.896619" lon="-120.025682"><ele>1991.2</ele><time>2025-05-21T00:20:24Z</time></trkpt>
<trkpt lat="38.896271" lon="-120.025906"><ele>1989.2</ele><time>2025-05-21T00:20:36Z</time></trkpt>
<trkpt lat="38.896108" lon="-120.025924"><ele>1987.0</ele><time>2025-05-21T00:20:40Z</time></trkpt>
<trkpt lat="38.896002" lon="-120.026077"><ele>1985.6</ele><time>2025-05-21T00:20:43Z</time></trkpt>
<trkpt lat="38.895777" lon="-120.026521"><ele>1985.2</ele><time>2025-05-21T00:20:49Z</time></trkpt>
<trkpt lat="38.895597" lon="-120.026677"><ele>1985.4</ele><time>2025-05-21T00:20:52Z</time></trkpt>
<trkpt lat="38.895378" lon="-120.026686"><ele>1986.4</ele><time>2025-05-21T00:20:56Z</time></trkpt>
<trkpt lat="38.895070" lon="-120.026567"><ele>1985.6</ele><time>2025-05-21T00:21:01Z</time></trkpt>
<trkpt lat="38.894512" lon="-120.026668"><ele>1986.8</ele><time>2025-05-21T00:21:10Z</time></trkpt>
<trkpt lat="38.894450" lon="-120.026836"><ele>1985.6</ele><time>2025-05-21T00:21:13Z</time></trkpt>
<trkpt lat="38.894351" lon="-120.026957"><ele>1986.0</ele><time>2025-05-21T00:21:18Z</time></trkpt>
<trkpt lat="38.894002" lon="-120.027149"><ele>1985.4</ele><time>2025-05-21T00:21:27Z</time></trkpt>
<trkpt lat="38.893587" lon="-120.027240"><ele>1985.8</ele><time>2025-05-21T00:21:36Z</time></trkpt>
<trkpt lat="38.893542" lon="-120.027332"><ele>1984.4</ele><time>2025-05-21T00:21:39Z</time></trkpt>
<trkpt lat="38.893422" lon="-120.027410"><ele>1981.4</ele><time>2025-05-21T00:21:54Z</time></trkpt>
<trkpt lat="38.893422" lon="-120.027485"><ele>1982.0</ele><time>2025-05-21T00:22:02Z</time></trkpt>
<trkpt lat="38.893458" lon="-120.027381"><ele>1974.2</ele><time>2025-05-21T00:25:10Z</time></trkpt>
<trkpt lat="38.893500" lon="-120.027358"><ele>1974.0</ele><time>2025-05-21T00:25:15Z</time></trkpt>
<trkpt lat="38.893448" lon="-120.027447"><ele>1975.4</ele><time>2025-05-21T00:25:27Z</time></trkpt>
<trkpt lat="38.893473" lon="-120.027415"><ele>1978.6</ele><time>2025-05-21T00:26:27Z</time></trkpt>
<trkpt lat="38.893548" lon="-120.027376"><ele>1976.2</ele><time>2025-05-21T00:27:14Z</time></trkpt>
<trkpt lat="38.893665" lon="-120.027501"><ele>1975.2</ele><time>2025-05-21T00:27:18Z</time></trkpt>
<trkpt lat="38.893679" lon="-120.027573"><ele>1975.6</ele><time>2025-05-21T00:27:20Z</time></trkpt>
<trkpt lat="38.893402" lon="-120.027622"><ele>1973.2</ele><time>2025-05-21T00:27:32Z</time></trkpt>
<trkpt lat="38.893338" lon="-120.027733"><ele>1970.8</ele><time>2025-05-21T00:27:41Z</time></trkpt>
<trkpt lat="38.893230" lon="-120.027797"><ele>1969.2</ele><time>2025-05-21T00:28:17Z</time></trkpt>
<trkpt lat="38.893258" lon="-120.027913"><ele>1969.8</ele><time>2025-05-21T00:28:21Z</time></trkpt>
<trkpt lat="38.893422" lon="-120.028037"><ele>1970.8</ele><time>2025-05-21T00:28:27Z</time></trkpt>
<trkpt lat="38.893504" lon="-120.028192"><ele>1973.2</ele><time>2025-05-21T00:28:32Z</time></trkpt>
<trkpt lat="38.893585" lon="-120.028275"><ele>1974.0</ele><time>2025-05-21T00:28:36Z</time></trkpt>
<trkpt lat="38.893819" lon="-120.028735"><ele>1977.4</ele><time>2025-05-21T00:28:54Z</time></trkpt>
<trkpt lat="38.893909" lon="-120.028853"><ele>1978.4</ele><time>2025-05-21T00:29:00Z</time></trkpt>
<trkpt lat="38.894197" lon="-120.028992"><ele>1980.4</ele><time>2025-05-21T00:29:13Z</time></trkpt>
<trkpt lat="38.894233" lon="-120.029049"><ele>1981.2</ele><time>2025-05-21T00:29:16Z</time></trkpt>
<trkpt lat="38.894189" lon="-120.029121"><ele>1982.0</ele><time>2025-05-21T00:29:20Z</time></trkpt>
<trkpt lat="38.894059" lon="-120.029109"><ele>1982.8</ele><time>2025-05-21T00:29:25Z</time></trkpt>
<trkpt lat="38.893884" lon="-120.029150"><ele>1984.0</ele><time>2025-05-21T00:29:33Z</time></trkpt>
<trkpt lat="38.893819" lon="-120.029246"><ele>1984.6</ele><time>2025-05-21T00:29:38Z</time></trkpt>
<trkpt lat="38.893768" lon="-120.029457"><ele>1984.6</ele><time>2025-05-21T00:29:45Z</time></trkpt>
<trkpt lat="38.893752" lon="-120.029721"><ele>1984.4</ele><time>2025-05-21T00:29:52Z</time></trkpt>
<trkpt lat="38.893789" lon="-120.030349"><ele>1983.8</ele><time>2025-05-21T00:30:12Z</time></trkpt>
<trkpt lat="38.893763" lon="-120.030455"><ele>1977.8</ele><time>2025-05-21T00:32:21Z</time></trkpt>
<trkpt lat="38.893738" lon="-120.030587"><ele>1977.4</ele><time>2025-05-21T00:32:25Z</time></trkpt>
<trkpt lat="38.893784" lon="-120.030739"><ele>1977.4</ele><time>2025-05-21T00:32:30Z</time></trkpt>
<trkpt lat="38.893772" lon="-120.030812"><ele>1977.8</ele><time>2025-05-21T00:32:34Z</time></trkpt>
<trkpt lat="38.893712" lon="-120.030889"><ele>1977.8</ele><time>2025-05-21T00:32:39Z</time></trkpt>
<trkpt lat="38.893769" lon="-120.031021"><ele>1978.0</ele><time>2025-05-21T00:32:44Z</time></trkpt>
<trkpt lat="38.893781" lon="-120.031202"><ele>1978.4</ele><time>2025-05-21T00:32:52Z</time></trkpt>
<trkpt lat="38.893761" lon="-120.031585"><ele>1980.2</ele><time>2025-05-21T00:33:06Z</time></trkpt>
<trkpt lat="38.893784" lon="-120.031916"><ele>1982.6</ele><time>2025-05-21T00:33:21Z</time></trkpt>
<trkpt lat="38.893760" lon="-120.032596"><ele>1987.8</ele><time>2025-05-21T00:33:51Z</time></trkpt>
<trkpt lat="38.893769" lon="-120.034062"><ele>1999.2</ele><time>2025-05-21T00:35:00Z</time></trkpt>
<trkpt lat="38.893734" lon="-120.034305"><ele>2001.4</ele><time>2025-05-21T00:35:13Z</time></trkpt>
<trkpt lat="38.893592" lon="-120.034797"><ele>2006.2</ele><time>2025-05-21T00:35:37Z</time></trkpt>
<trkpt lat="38.893304" lon="-120.035580"><ele>2014.2</ele><time>2025-05-21T00:36:16Z</time></trkpt>
<trkpt lat="38.892946" lon="-120.036660"><ele>2015.8</ele><time>2025-05-21T00:37:01Z</time></trkpt>
<trkpt lat="38.892781" lon="-120.037023"><ele>2015.8</ele><time>2025-05-21T00:37:20Z</time></trkpt>
<trkpt lat="38.892743" lon="-120.037170"><ele>2017.0</ele><time>2025-05-21T00:37:25Z</time></trkpt>
<trkpt lat="38.892684" lon="-120.037234"><ele>2018.2</ele><time>2025-05-21T00:37:29Z</time></trkpt>
<trkpt lat="38.892599" lon="-120.037671"><ele>2022.2</ele><time>2025-05-21T00:37:43Z</time></trkpt>
<trkpt lat="38.892138" lon="-120.039084"><ele>2032.0</ele><time>2025-05-21T00:38:40Z</time></trkpt>
<trkpt lat="38.891861" lon="-120.039551"><ele>2034.0</ele><time>2025-05-21T00:39:02Z</time></trkpt>
<trkpt lat="38.891588" lon="-120.040183"><ele>2038.0</ele><time>2025-05-21T00:39:28Z</time></trkpt>
<trkpt lat="38.891243" lon="-120.040700"><ele>2041.8</ele><time>2025-05-21T00:39:56Z</time></trkpt>
<trkpt lat="38.890922" lon="-120.041435"><ele>2043.8</ele><time>2025-05-21T00:40:29Z</time></trkpt>
<trkpt lat="38.890764" lon="-120.041595"><ele>2044.0</ele><time>2025-05-21T00:40:42Z</time></trkpt>
<trkpt lat="38.890622" lon="-120.041670"><ele>2043.6</ele><time>2025-05-21T00:40:56Z</time></trkpt>
<trkpt lat="38.890411" lon="-120.041653"><ele>2042.4</ele><time>2025-05-21T00:41:01Z</time></trkpt>
<trkpt lat="38.890218" lon="-120.041694"><ele>2041.2</ele><time>2025-05-21T00:41:05Z</time></trkpt>
<trkpt lat="38.889748" lon="-120.041556"><ele>2040.8</ele><time>2025-05-21T00:41:14Z</time></trkpt>
<trkpt lat="38.889402" lon="-120.041594"><ele>2039.4</ele><time>2025-05-21T00:41:20Z</time></trkpt>
<trkpt lat="38.889152" lon="-120.041554"><ele>2038.2</ele><time>2025-05-21T00:41:24Z</time></trkpt>
<trkpt lat="38.888920" lon="-120.041572"><ele>2038.0</ele><time>2025-05-21T00:41:28Z</time></trkpt>
<trkpt lat="38.888687" lon="-120.041432"><ele>2037.0</ele><time>2025-05-21T00:41:32Z</time></trkpt>
<trkpt lat="38.888417" lon="-120.041436"><ele>2037.4</ele><time>2025-05-21T00:41:40Z</time></trkpt>
<trkpt lat="38.888405" lon="-120.041570"><ele>2037.6</ele><time>2025-05-21T00:41:48Z</time></trkpt>
<trkpt lat="38.888265" lon="-120.041742"><ele>2038.8</ele><time>2025-05-21T00:41:56Z</time></trkpt>
<trkpt lat="38.888210" lon="-120.041914"><ele>2039.0</ele><time>2025-05-21T00:42:03Z</time></trkpt>
<trkpt lat="38.888212" lon="-120.041980"><ele>2039.0</ele><time>2025-05-21T00:42:06Z</time></trkpt>
<trkpt lat="38.888263" lon="-120.042078"><ele>2039.8</ele><time>2025-05-21T00:42:11Z</time></trkpt>
<trkpt lat="38.888142" lon="-120.042394"><ele>2041.0</ele><time>2025-05-21T00:42:24Z</time></trkpt>
<trkpt lat="38.888133" lon="-120.042534"><ele>2042.0</ele><time>2025-05-21T00:42:29Z</time></trkpt>
<trkpt lat="38.888028" lon="-120.042639"><ele>2043.2</ele><time>2025-05-21T00:42:35Z</time></trkpt>
<trkpt lat="38.887788" lon="-120.042996"><ele>2046.8</ele><time>2025-05-21T00:42:54Z</time></trkpt>
<trkpt lat="38.887548" lon="-120.043172"><ele>2048.4</ele><time>2025-05-21T00:43:07Z</time></trkpt>
<trkpt lat="38.887483" lon="-120.043281"><ele>2050.0</ele><time>2025-05-21T00:43:13Z</time></trkpt>
<trkpt lat="38.887518" lon="-120.043363"><ele>2051.0</ele><time>2025-05-21T00:43:17Z</time></trkpt>
<trkpt lat="38.887714" lon="-120.043348"><ele>2052.8</ele><time>2025-05-21T00:43:28Z</time></trkpt>
<trkpt lat="38.887850" lon="-120.043412"><ele>2056.4</ele><time>2025-05-21T00:43:37Z</time></trkpt>
<trkpt lat="38.887906" lon="-120.043459"><ele>2057.8</ele><time>2025-05-21T00:43:41Z</time></trkpt>
<trkpt lat="38.887905" lon="-120.043538"><ele>2059.4</ele><time>2025-05-21T00:43:45Z</time></trkpt>
<trkpt lat="38.887719" lon="-120.043645"><ele>2061.4</ele><time>2025-05-21T00:43:57Z</time></trkpt>
<trkpt lat="38.887531" lon="-120.043853"><ele>2063.8</ele><time>2025-05-21T00:44:12Z</time></trkpt>
<trkpt lat="38.887346" lon="-120.044011"><ele>2065.4</ele><time>2025-05-21T00:44:24Z</time></trkpt>
<trkpt lat="38.887227" lon="-120.044067"><ele>2065.4</ele><time>2025-05-21T00:44:31Z</time></trkpt>
<trkpt lat="38.886938" lon="-120.044352"><ele>2067.2</ele><time>2025-05-21T00:44:49Z</time></trkpt>
<trkpt lat="38.886916" lon="-120.044414"><ele>2067.6</ele><time>2025-05-21T00:44:51Z</time></trkpt>
<trkpt lat="38.886947" lon="-120.044462"><ele>2068.2</ele><time>2025-05-21T00:44:53Z</time></trkpt>
<trkpt lat="38.887170" lon="-120.044410"><ele>2069.2</ele><time>2025-05-21T00:45:06Z</time></trkpt>
<trkpt lat="38.887229" lon="-120.044500"><ele>2071.0</ele><time>2025-05-21T00:45:11Z</time></trkpt>
<trkpt lat="38.887166" lon="-120.044572"><ele>2072.8</ele><time>2025-05-21T00:45:17Z</time></trkpt>
<trkpt lat="38.886824" lon="-120.044808"><ele>2075.2</ele><time>2025-05-21T00:45:38Z</time></trkpt>
<trkpt lat="38.886699" lon="-120.044992"><ele>2077.2</ele><time>2025-05-21T00:45:48Z</time></trkpt>
<trkpt lat="38.886594" lon="-120.045196"><ele>2079.0</ele><time>2025-05-21T00:45:59Z</time></trkpt>
<trkpt lat="38.886607" lon="-120.045249"><ele>2079.6</ele><time>2025-05-21T00:46:01Z</time></trkpt>
<trkpt lat="38.886780" lon="-120.045161"><ele>2081.2</ele><time>2025-05-21T00:46:13Z</time></trkpt>
<trkpt lat="38.886835" lon="-120.045205"><ele>2082.8</ele><time>2025-05-21T00:46:17Z</time></trkpt>
<trkpt lat="38.886654" lon="-120.045466"><ele>2085.4</ele><time>2025-05-21T00:46:36Z</time></trkpt>
<trkpt lat="38.886624" lon="-120.045595"><ele>2087.0</ele><time>2025-05-21T00:46:44Z</time></trkpt>
<trkpt lat="38.886508" lon="-120.045806"><ele>2088.4</ele><time>2025-05-21T00:46:56Z</time></trkpt>
<trkpt lat="38.886388" lon="-120.045956"><ele>2089.2</ele><time>2025-05-21T00:47:04Z</time></trkpt>
<trkpt lat="38.886089" lon="-120.046461"><ele>2093.4</ele><time>2025-05-21T00:47:31Z</time></trkpt>
<trkpt lat="38.885963" lon="-120.046611"><ele>2094.8</ele><time>2025-05-21T00:47:40Z</time></trkpt>
<trkpt lat="38.885986" lon="-120.046690"><ele>2095.6</ele><time>2025-05-21T00:47:43Z</time></trkpt>
<trkpt lat="38.886086" lon="-120.046622"><ele>2096.6</ele><time>2025-05-21T00:47:50Z</time></trkpt>
<trkpt lat="38.886267" lon="-120.046615"><ele>2098.2</ele><time>2025-05-21T00:48:01Z</time></trkpt>
<trkpt lat="38.886403" lon="-120.046753"><ele>2100.2</ele><time>2025-05-21T00:48:11Z</time></trkpt>
<trkpt lat="38.886428" lon="-120.046826"><ele>2100.8</ele><time>2025-05-21T00:48:16Z</time></trkpt>
<trkpt lat="38.886418" lon="-120.046949"><ele>2101.8</ele><time>2025-05-21T00:48:21Z</time></trkpt>
<trkpt lat="38.886355" lon="-120.047031"><ele>2103.0</ele><time>2025-05-21T00:48:26Z</time></trkpt>
<trkpt lat="38.886226" lon="-120.047031"><ele>2104.4</ele><time>2025-05-21T00:48:34Z</time></trkpt>
<trkpt lat="38.886051" lon="-120.047134"><ele>2105.8</ele><time>2025-05-21T00:48:45Z</time></trkpt>
<trkpt lat="38.886007" lon="-120.047263"><ele>2106.6</ele><time>2025-05-21T00:48:50Z</time></trkpt>
<trkpt lat="38.885841" lon="-120.047468"><ele>2108.8</ele><time>2025-05-21T00:49:03Z</time></trkpt>
<trkpt lat="38.885756" lon="-120.047661"><ele>2110.8</ele><time>2025-05-21T00:49:12Z</time></trkpt>
<trkpt lat="38.885555" lon="-120.047833"><ele>2111.8</ele><time>2025-05-21T00:49:23Z</time></trkpt>
<trkpt lat="38.885096" lon="-120.048355"><ele>2117.0</ele><time>2025-05-21T00:49:54Z</time></trkpt>
<trkpt lat="38.885123" lon="-120.048422"><ele>2118.0</ele><time>2025-05-21T00:49:57Z</time></trkpt>
<trkpt lat="38.885379" lon="-120.048299"><ele>2120.6</ele><time>2025-05-21T00:50:12Z</time></trkpt>
<trkpt lat="38.885719" lon="-120.048331"><ele>2123.8</ele><time>2025-05-21T00:50:30Z</time></trkpt>
<trkpt lat="38.885774" lon="-120.048391"><ele>2124.8</ele><time>2025-05-21T00:50:34Z</time></trkpt>
<trkpt lat="38.885767" lon="-120.048452"><ele>2125.8</ele><time>2025-05-21T00:50:37Z</time></trkpt>
<trkpt lat="38.885691" lon="-120.048522"><ele>2127.4</ele><time>2025-05-21T00:50:43Z</time></trkpt>
<trkpt lat="38.885552" lon="-120.048551"><ele>2127.8</ele><time>2025-05-21T00:50:50Z</time></trkpt>
<trkpt lat="38.885300" lon="-120.048716"><ele>2130.8</ele><time>2025-05-21T00:51:05Z</time></trkpt>
<trkpt lat="38.885173" lon="-120.048854"><ele>2133.4</ele><time>2025-05-21T00:51:14Z</time></trkpt>
<trkpt lat="38.884671" lon="-120.049223"><ele>2137.8</ele><time>2025-05-21T00:51:44Z</time></trkpt>
<trkpt lat="38.884400" lon="-120.049564"><ele>2141.4</ele><time>2025-05-21T00:52:03Z</time></trkpt>
<trkpt lat="38.884286" lon="-120.049752"><ele>2144.4</ele><time>2025-05-21T00:52:16Z</time></trkpt>
<trkpt lat="38.884144" lon="-120.049897"><ele>2144.8</ele><time>2025-05-21T00:52:25Z</time></trkpt>
<trkpt lat="38.883945" lon="-120.050295"><ele>2148.4</ele><time>2025-05-21T00:52:47Z</time></trkpt>
<trkpt lat="38.883957" lon="-120.050356"><ele>2149.2</ele><time>2025-05-21T00:52:50Z</time></trkpt>
<trkpt lat="38.884018" lon="-120.050348"><ele>2150.2</ele><time>2025-05-21T00:52:55Z</time></trkpt>
<trkpt lat="38.884233" lon="-120.050209"><ele>2153.2</ele><time>2025-05-21T00:53:17Z</time></trkpt>
<trkpt lat="38.884364" lon="-120.050063"><ele>2153.6</ele><time>2025-05-21T00:53:24Z</time></trkpt>
<trkpt lat="38.884674" lon="-120.049904"><ele>2157.6</ele><time>2025-05-21T00:53:40Z</time></trkpt>
<trkpt lat="38.885043" lon="-120.049821"><ele>2161.4</ele><time>2025-05-21T00:54:01Z</time></trkpt>
<trkpt lat="38.885254" lon="-120.049838"><ele>2164.0</ele><time>2025-05-21T00:54:13Z</time></trkpt>
<trkpt lat="38.885265" lon="-120.049896"><ele>2165.0</ele><time>2025-05-21T00:54:16Z</time></trkpt>
<trkpt lat="38.885238" lon="-120.049955"><ele>2166.4</ele><time>2025-05-21T00:54:19Z</time></trkpt>
<trkpt lat="38.884976" lon="-120.050010"><ele>2167.0</ele><time>2025-05-21T00:54:32Z</time></trkpt>
<trkpt lat="38.884807" lon="-120.050197"><ele>2169.6</ele><time>2025-05-21T00:54:44Z</time></trkpt>
<trkpt lat="38.884641" lon="-120.050526"><ele>2172.2</ele><time>2025-05-21T00:55:00Z</time></trkpt>
<trkpt lat="38.884569" lon="-120.050806"><ele>2174.8</ele><time>2025-05-21T00:55:13Z</time></trkpt>
<trkpt lat="38.884646" lon="-120.050852"><ele>2176.2</ele><time>2025-05-21T00:55:18Z</time></trkpt>
<trkpt lat="38.884913" lon="-120.050833"><ele>2181.0</ele><time>2025-05-21T00:55:38Z</time></trkpt>
<trkpt lat="38.884983" lon="-120.050770"><ele>2181.6</ele><time>2025-05-21T00:55:45Z</time></trkpt>
<trkpt lat="38.885027" lon="-120.050735"><ele>2185.8</ele><time>2025-05-21T00:58:19Z</time></trkpt>
<trkpt lat="38.885240" lon="-120.050671"><ele>2187.0</ele><time>2025-05-21T00:58:30Z</time></trkpt>
<trkpt lat="38.885287" lon="-120.050736"><ele>2188.2</ele><time>2025-05-21T00:58:34Z</time></trkpt>
<trkpt lat="38.885269" lon="-120.050825"><ele>2189.6</ele><time>2025-05-21T00:58:40Z</time></trkpt>
<trkpt lat="38.885119" lon="-120.051079"><ele>2191.6</ele><time>2025-05-21T00:58:55Z</time></trkpt>
<trkpt lat="38.885022" lon="-120.051177"><ele>2191.8</ele><time>2025-05-21T00:59:01Z</time></trkpt>
<trkpt lat="38.885011" lon="-120.051309"><ele>2193.2</ele><time>2025-05-21T00:59:07Z</time></trkpt>
<trkpt lat="38.885119" lon="-120.051346"><ele>2196.0</ele><time>2025-05-21T00:59:15Z</time></trkpt>
<trkpt lat="38.885328" lon="-120.051237"><ele>2197.8</ele><time>2025-05-21T00:59:29Z</time></trkpt>
<trkpt lat="38.885485" lon="-120.051223"><ele>2200.8</ele><time>2025-05-21T00:59:40Z</time></trkpt>
<trkpt lat="38.885681" lon="-120.051154"><ele>2203.0</ele><time>2025-05-21T00:59:54Z</time></trkpt>
<trkpt lat="38.885706" lon="-120.051214"><ele>2204.2</ele><time>2025-05-21T00:59:58Z</time></trkpt>
<trkpt lat="38.885588" lon="-120.051542"><ele>2209.0</ele><time>2025-05-21T01:00:23Z</time></trkpt>
<trkpt lat="38.885580" lon="-120.051668"><ele>2210.2</ele><time>2025-05-21T01:00:32Z</time></trkpt>
<trkpt lat="38.885081" lon="-120.052207"><ele>2212.8</ele><time>2025-05-21T01:01:03Z</time></trkpt>
<trkpt lat="38.884989" lon="-120.052360"><ele>2213.6</ele><time>2025-05-21T01:01:11Z</time></trkpt>
<trkpt lat="38.884741" lon="-120.052485"><ele>2214.6</ele><time>2025-05-21T01:01:23Z</time></trkpt>
<trkpt lat="38.884525" lon="-120.052645"><ele>2214.6</ele><time>2025-05-21T01:01:33Z</time></trkpt>
<trkpt lat="38.884316" lon="-120.052865"><ele>2214.8</ele><time>2025-05-21T01:01:43Z</time></trkpt>
<trkpt lat="38.883970" lon="-120.053091"><ele>2215.2</ele><time>2025-05-21T01:01:58Z</time></trkpt>
<trkpt lat="38.883777" lon="-120.053389"><ele>2216.6</ele><time>2025-05-21T01:02:10Z</time></trkpt>
<trkpt lat="38.883685" lon="-120.053455"><ele>2217.4</ele><time>2025-05-21T01:02:15Z</time></trkpt>
<trkpt lat="38.883579" lon="-120.053460"><ele>2217.8</ele><time>2025-05-21T01:02:19Z</time></trkpt>
<trkpt lat="38.883522" lon="-120.053500"><ele>2217.8</ele><time>2025-05-21T01:02:21Z</time></trkpt>
<trkpt lat="38.883394" lon="-120.053692"><ele>2219.0</ele><time>2025-05-21T01:02:30Z</time></trkpt>
<trkpt lat="38.883286" lon="-120.053771"><ele>2220.0</ele><time>2025-05-21T01:02:38Z</time></trkpt>
<trkpt lat="38.883276" lon="-120.053956"><ele>2219.8</ele><time>2025-05-21T01:05:33Z</time></trkpt>
<trkpt lat="38.883332" lon="-120.053991"><ele>2219.0</ele><time>2025-05-21T01:05:35Z</time></trkpt>
<trkpt lat="38.883558" lon="-120.053850"><ele>2215.0</ele><time>2025-05-21T01:05:40Z</time></trkpt>
<trkpt lat="38.883596" lon="-120.053873"><ele>2214.0</ele><time>2025-05-21T01:05:42Z</time></trkpt>
<trkpt lat="38.883571" lon="-120.054134"><ele>2211.8</ele><time>2025-05-21T01:05:47Z</time></trkpt>
<trkpt lat="38.883443" lon="-120.054341"><ele>2209.0</ele><time>2025-05-21T01:05:52Z</time></trkpt>
<trkpt lat="38.883450" lon="-120.054410"><ele>2209.0</ele><time>2025-05-21T01:05:54Z</time></trkpt>
<trkpt lat="38.883559" lon="-120.054405"><ele>2208.0</ele><time>2025-05-21T01:05:57Z</time></trkpt>
<trkpt lat="38.883894" lon="-120.054204"><ele>2204.2</ele><time>2025-05-21T01:06:03Z</time></trkpt>
<trkpt lat="38.884123" lon="-120.054196"><ele>2203.8</ele><time>2025-05-21T01:06:07Z</time></trkpt>
<trkpt lat="38.884606" lon="-120.053866"><ele>2199.4</ele><time>2025-05-21T01:06:18Z</time></trkpt>
<trkpt lat="38.884709" lon="-120.053714"><ele>2199.6</ele><time>2025-05-21T01:06:23Z</time></trkpt>
<trkpt lat="38.885008" lon="-120.053669"><ele>2197.8</ele><time>2025-05-21T01:06:30Z</time></trkpt>
<trkpt lat="38.885399" lon="-120.053411"><ele>2195.8</ele><time>2025-05-21T01:06:39Z</time></trkpt>
<trkpt lat="38.885608" lon="-120.053302"><ele>2192.8</ele><time>2025-05-21T01:06:44Z</time></trkpt>
<trkpt lat="38.885673" lon="-120.053305"><ele>2191.8</ele><time>2025-05-21T01:06:46Z</time></trkpt>
<trkpt lat="38.885762" lon="-120.053212"><ele>2191.6</ele><time>2025-05-21T01:06:49Z</time></trkpt>
<trkpt lat="38.886013" lon="-120.053063"><ele>2191.2</ele><time>2025-05-21T01:06:57Z</time></trkpt>
<trkpt lat="38.886146" lon="-120.053041"><ele>2190.6</ele><time>2025-05-21T01:07:01Z</time></trkpt>
<trkpt lat="38.886322" lon="-120.052916"><ele>2190.0</ele><time>2025-05-21T01:07:07Z</time></trkpt>
<trkpt lat="38.886429" lon="-120.052911"><ele>2189.4</ele><time>2025-05-21T01:07:10Z</time></trkpt>
<trkpt lat="38.886578" lon="-120.052844"><ele>2188.8</ele><time>2025-05-21T01:07:14Z</time></trkpt>
<trkpt lat="38.886635" lon="-120.052740"><ele>2188.4</ele><time>2025-05-21T01:07:17Z</time></trkpt>
<trkpt lat="38.886795" lon="-120.052737"><ele>2188.0</ele><time>2025-05-21T01:07:22Z</time></trkpt>
<trkpt lat="38.886973" lon="-120.052603"><ele>2187.8</ele><time>2025-05-21T01:07:28Z</time></trkpt>
<trkpt lat="38.887315" lon="-120.052494"><ele>2186.8</ele><time>2025-05-21T01:07:37Z</time></trkpt>
<trkpt lat="38.887543" lon="-120.052317"><ele>2187.0</ele><time>2025-05-21T01:07:44Z</time></trkpt>
<trkpt lat="38.887956" lon="-120.052251"><ele>2186.2</ele><time>2025-05-21T01:07:56Z</time></trkpt>
<trkpt lat="38.888117" lon="-120.052128"><ele>2186.8</ele><time>2025-05-21T01:08:02Z</time></trkpt>
<trkpt lat="38.888608" lon="-120.052031"><ele>2183.4</ele><time>2025-05-21T01:08:15Z</time></trkpt>
<trkpt lat="38.888769" lon="-120.051930"><ele>2179.8</ele><time>2025-05-21T01:08:20Z</time></trkpt>
<trkpt lat="38.889043" lon="-120.051827"><ele>2175.4</ele><time>2025-05-21T01:08:28Z</time></trkpt>
<trkpt lat="38.889354" lon="-120.051545"><ele>2172.6</ele><time>2025-05-21T01:08:41Z</time></trkpt>
<trkpt lat="38.889429" lon="-120.051521"><ele>2172.4</ele><time>2025-05-21T01:08:45Z</time></trkpt>
<trkpt lat="38.889471" lon="-120.051452"><ele>2172.4</ele><time>2025-05-21T01:08:48Z</time></trkpt>
<trkpt lat="38.889712" lon="-120.051344"><ele>2172.8</ele><time>2025-05-21T01:08:58Z</time></trkpt>
<trkpt lat="38.889841" lon="-120.051200"><ele>2172.2</ele><time>2025-05-21T01:09:06Z</time></trkpt>
<trkpt lat="38.890056" lon="-120.051076"><ele>2172.0</ele><time>2025-05-21T01:09:14Z</time></trkpt>
<trkpt lat="38.890448" lon="-120.050760"><ele>2168.2</ele><time>2025-05-21T01:09:26Z</time></trkpt>
<trkpt lat="38.890545" lon="-120.050617"><ele>2166.8</ele><time>2025-05-21T01:09:30Z</time></trkpt>
<trkpt lat="38.890683" lon="-120.050578"><ele>2165.6</ele><time>2025-05-21T01:09:34Z</time></trkpt>
<trkpt lat="38.890905" lon="-120.050242"><ele>2163.4</ele><time>2025-05-21T01:09:47Z</time></trkpt>
<trkpt lat="38.891031" lon="-120.050167"><ele>2162.4</ele><time>2025-05-21T01:09:52Z</time></trkpt>
<trkpt lat="38.891144" lon="-120.049997"><ele>2161.6</ele><time>2025-05-21T01:09:57Z</time></trkpt>
<trkpt lat="38.891310" lon="-120.049842"><ele>2160.0</ele><time>2025-05-21T01:10:03Z</time></trkpt>
<trkpt lat="38.891404" lon="-120.049796"><ele>2157.0</ele><time>2025-05-21T01:12:03Z</time></trkpt>
<trkpt lat="38.891480" lon="-120.049648"><ele>2155.4</ele><time>2025-05-21T01:12:07Z</time></trkpt>
<trkpt lat="38.891707" lon="-120.049470"><ele>2153.4</ele><time>2025-05-21T01:12:15Z</time></trkpt>
<trkpt lat="38.891717" lon="-120.049419"><ele>2153.0</ele><time>2025-05-21T01:12:19Z</time></trkpt>
<trkpt lat="38.891983" lon="-120.049185"><ele>2151.4</ele><time>2025-05-21T01:12:38Z</time></trkpt>
<trkpt lat="38.892241" lon="-120.048883"><ele>2150.0</ele><time>2025-05-21T01:12:48Z</time></trkpt>
<trkpt lat="38.892401" lon="-120.048787"><ele>2149.0</ele><time>2025-05-21T01:12:53Z</time></trkpt>
<trkpt lat="38.892548" lon="-120.048617"><ele>2148.4</ele><time>2025-05-21T01:12:59Z</time></trkpt>
<trkpt lat="38.892820" lon="-120.048492"><ele>2148.4</ele><time>2025-05-21T01:13:10Z</time></trkpt>
<trkpt lat="38.892930" lon="-120.048358"><ele>2148.6</ele><time>2025-05-21T01:13:15Z</time></trkpt>
<trkpt lat="38.893015" lon="-120.048333"><ele>2148.0</ele><time>2025-05-21T01:13:18Z</time></trkpt>
<trkpt lat="38.893139" lon="-120.048214"><ele>2148.4</ele><time>2025-05-21T01:13:23Z</time></trkpt>
<trkpt lat="38.893397" lon="-120.048078"><ele>2147.6</ele><time>2025-05-21T01:13:31Z</time></trkpt>
<trkpt lat="38.893816" lon="-120.047667"><ele>2144.2</ele><time>2025-05-21T01:13:45Z</time></trkpt>
<trkpt lat="38.894127" lon="-120.047428"><ele>2141.6</ele><time>2025-05-21T01:13:53Z</time></trkpt>
<trkpt lat="38.894166" lon="-120.047326"><ele>2140.8</ele><time>2025-05-21T01:13:56Z</time></trkpt>
<trkpt lat="38.894275" lon="-120.047333"><ele>2139.6</ele><time>2025-05-21T01:14:00Z</time></trkpt>
<trkpt lat="38.894361" lon="-120.047245"><ele>2138.0</ele><time>2025-05-21T01:14:03Z</time></trkpt>
<trkpt lat="38.894408" lon="-120.047142"><ele>2136.8</ele><time>2025-05-21T01:14:05Z</time></trkpt>
<trkpt lat="38.894552" lon="-120.047075"><ele>2135.8</ele><time>2025-05-21T01:14:09Z</time></trkpt>
<trkpt lat="38.894723" lon="-120.046783"><ele>2133.0</ele><time>2025-05-21T01:14:17Z</time></trkpt>
<trkpt lat="38.894809" lon="-120.046720"><ele>2131.8</ele><time>2025-05-21T01:14:20Z</time></trkpt>
<trkpt lat="38.894890" lon="-120.046552"><ele>2130.8</ele><time>2025-05-21T01:14:25Z</time></trkpt>
<trkpt lat="38.895135" lon="-120.046299"><ele>2128.2</ele><time>2025-05-21T01:14:34Z</time></trkpt>
<trkpt lat="38.895200" lon="-120.046157"><ele>2128.0</ele><time>2025-05-21T01:14:38Z</time></trkpt>
<trkpt lat="38.895283" lon="-120.046112"><ele>2127.2</ele><time>2025-05-21T01:14:41Z</time></trkpt>
<trkpt lat="38.895388" lon="-120.045949"><ele>2126.8</ele><time>2025-05-21T01:14:46Z</time></trkpt>
<trkpt lat="38.895487" lon="-120.045908"><ele>2125.8</ele><time>2025-05-21T01:14:49Z</time></trkpt>
<trkpt lat="38.895617" lon="-120.045756"><ele>2124.8</ele><time>2025-05-21T01:14:53Z</time></trkpt>
<trkpt lat="38.895741" lon="-120.045694"><ele>2124.0</ele><time>2025-05-21T01:14:56Z</time></trkpt>
<trkpt lat="38.895801" lon="-120.045580"><ele>2123.8</ele><time>2025-05-21T01:14:59Z</time></trkpt>
<trkpt lat="38.895922" lon="-120.045468"><ele>2123.0</ele><time>2025-05-21T01:15:03Z</time></trkpt>
<trkpt lat="38.895977" lon="-120.045344"><ele>2123.0</ele><time>2025-05-21T01:15:07Z</time></trkpt>
<trkpt lat="38.896188" lon="-120.045113"><ele>2121.4</ele><time>2025-05-21T01:15:15Z</time></trkpt>
<trkpt lat="38.896442" lon="-120.044936"><ele>2121.8</ele><time>2025-05-21T01:15:25Z</time></trkpt>
<trkpt lat="38.896649" lon="-120.044729"><ele>2121.0</ele><time>2025-05-21T01:15:56Z</time></trkpt>
<trkpt lat="38.896686" lon="-120.044622"><ele>2119.6</ele><time>2025-05-21T01:15:59Z</time></trkpt>
<trkpt lat="38.896835" lon="-120.044447"><ele>2116.8</ele><time>2025-05-21T01:16:07Z</time></trkpt>
<trkpt lat="38.896848" lon="-120.044359"><ele>2115.2</ele><time>2025-05-21T01:16:11Z</time></trkpt>
<trkpt lat="38.896927" lon="-120.044270"><ele>2113.8</ele><time>2025-05-21T01:16:15Z</time></trkpt>
<trkpt lat="38.897044" lon="-120.043977"><ele>2109.8</ele><time>2025-05-21T01:16:23Z</time></trkpt>
<trkpt lat="38.897221" lon="-120.043760"><ele>2107.2</ele><time>2025-05-21T01:16:31Z</time></trkpt>
<trkpt lat="38.897258" lon="-120.043565"><ele>2105.6</ele><time>2025-05-21T01:16:36Z</time></trkpt>
<trkpt lat="38.897376" lon="-120.043467"><ele>2104.0</ele><time>2025-05-21T01:16:40Z</time></trkpt>
<trkpt lat="38.897388" lon="-120.043370"><ele>2103.0</ele><time>2025-05-21T01:16:43Z</time></trkpt>
<trkpt lat="38.897469" lon="-120.043297"><ele>2101.8</ele><time>2025-05-21T01:16:46Z</time></trkpt>
<trkpt lat="38.897501" lon="-120.043202"><ele>2101.4</ele><time>2025-05-21T01:16:48Z</time></trkpt>
<trkpt lat="38.897574" lon="-120.043115"><ele>2100.4</ele><time>2025-05-21T01:16:51Z</time></trkpt>
<trkpt lat="38.897576" lon="-120.043020"><ele>2099.8</ele><time>2025-05-21T01:16:54Z</time></trkpt>
<trkpt lat="38.897643" lon="-120.042862"><ele>2098.4</ele><time>2025-05-21T01:16:58Z</time></trkpt>
<trkpt lat="38.897711" lon="-120.042795"><ele>2097.6</ele><time>2025-05-21T01:17:03Z</time></trkpt>
<trkpt lat="38.897741" lon="-120.042710"><ele>2097.8</ele><time>2025-05-21T01:17:06Z</time></trkpt>
<trkpt lat="38.897781" lon="-120.042700"><ele>2097.2</ele><time>2025-05-21T01:17:08Z</time></trkpt>
<trkpt lat="38.897956" lon="-120.042404"><ele>2095.2</ele><time>2025-05-21T01:17:18Z</time></trkpt>
<trkpt lat="38.897981" lon="-120.042302"><ele>2094.6</ele><time>2025-05-21T01:17:21Z</time></trkpt>
<trkpt lat="38.898069" lon="-120.042203"><ele>2094.4</ele><time>2025-05-21T01:17:25Z</time></trkpt>
<trkpt lat="38.898124" lon="-120.041989"><ele>2093.4</ele><time>2025-05-21T01:17:30Z</time></trkpt>
<trkpt lat="38.898265" lon="-120.041828"><ele>2092.0</ele><time>2025-05-21T01:17:35Z</time></trkpt>
<trkpt lat="38.898284" lon="-120.041709"><ele>2090.4</ele><time>2025-05-21T01:17:38Z</time></trkpt>
<trkpt lat="38.898525" lon="-120.041397"><ele>2085.4</ele><time>2025-05-21T01:17:48Z</time></trkpt>
<trkpt lat="38.898565" lon="-120.041281"><ele>2085.4</ele><time>2025-05-21T01:17:51Z</time></trkpt>
<trkpt lat="38.898725" lon="-120.041126"><ele>2085.4</ele><time>2025-05-21T01:17:57Z</time></trkpt>
<trkpt lat="38.898892" lon="-120.040812"><ele>2083.6</ele><time>2025-05-21T01:18:04Z</time></trkpt>
<trkpt lat="38.898989" lon="-120.040738"><ele>2082.8</ele><time>2025-05-21T01:18:07Z</time></trkpt>
<trkpt lat="38.899020" lon="-120.040634"><ele>2082.2</ele><time>2025-05-21T01:18:10Z</time></trkpt>
<trkpt lat="38.899117" lon="-120.040528"><ele>2080.8</ele><time>2025-05-21T01:18:13Z</time></trkpt>
<trkpt lat="38.899133" lon="-120.040453"><ele>2080.4</ele><time>2025-05-21T01:18:15Z</time></trkpt>
<trkpt lat="38.899238" lon="-120.040370"><ele>2079.4</ele><time>2025-05-21T01:18:19Z</time></trkpt>
<trkpt lat="38.899288" lon="-120.040240"><ele>2078.8</ele><time>2025-05-21T01:18:22Z</time></trkpt>
<trkpt lat="38.899369" lon="-120.040204"><ele>2078.0</ele><time>2025-05-21T01:18:25Z</time></trkpt>
<trkpt lat="38.899511" lon="-120.040050"><ele>2077.2</ele><time>2025-05-21T01:18:32Z</time></trkpt>
<trkpt lat="38.899555" lon="-120.039911"><ele>2076.4</ele><time>2025-05-21T01:18:35Z</time></trkpt>
<trkpt lat="38.899853" lon="-120.039562"><ele>2072.6</ele><time>2025-05-21T01:18:45Z</time></trkpt>
<trkpt lat="38.899888" lon="-120.039482"><ele>2072.2</ele><time>2025-05-21T01:18:48Z</time></trkpt>
<trkpt lat="38.899956" lon="-120.039446"><ele>2071.4</ele><time>2025-05-21T01:18:51Z</time></trkpt>
<trkpt lat="38.899981" lon="-120.039303"><ele>2070.0</ele><time>2025-05-21T01:18:55Z</time></trkpt>
<trkpt lat="38.900071" lon="-120.039174"><ele>2069.2</ele><time>2025-05-21T01:18:59Z</time></trkpt>
<trkpt lat="38.900263" lon="-120.039009"><ele>2068.6</ele><time>2025-05-21T01:19:08Z</time></trkpt>
<trkpt lat="38.900460" lon="-120.038907"><ele>2069.0</ele><time>2025-05-21T01:19:23Z</time></trkpt>
<trkpt lat="38.900513" lon="-120.038886"><ele>2063.6</ele><time>2025-05-21T01:20:49Z</time></trkpt>
<trkpt lat="38.900682" lon="-120.038747"><ele>2061.0</ele><time>2025-05-21T01:20:55Z</time></trkpt>
<trkpt lat="38.900913" lon="-120.038774"><ele>2058.0</ele><time>2025-05-21T01:21:01Z</time></trkpt>
<trkpt lat="38.900995" lon="-120.038868"><ele>2056.8</ele><time>2025-05-21T01:21:05Z</time></trkpt>
<trkpt lat="38.901174" lon="-120.038910"><ele>2056.6</ele><time>2025-05-21T01:21:10Z</time></trkpt>
<trkpt lat="38.901442" lon="-120.038901"><ele>2054.2</ele><time>2025-05-21T01:21:17Z</time></trkpt>
<trkpt lat="38.901526" lon="-120.038827"><ele>2053.4</ele><time>2025-05-21T01:21:21Z</time></trkpt>
<trkpt lat="38.901673" lon="-120.038814"><ele>2053.2</ele><time>2025-05-21T01:21:25Z</time></trkpt>
<trkpt lat="38.901838" lon="-120.038737"><ele>2050.4</ele><time>2025-05-21T01:21:31Z</time></trkpt>
<trkpt lat="38.902137" lon="-120.038544"><ele>2050.4</ele><time>2025-05-21T01:21:42Z</time></trkpt>
<trkpt lat="38.902459" lon="-120.038479"><ele>2049.2</ele><time>2025-05-21T01:21:54Z</time></trkpt>
<trkpt lat="38.902540" lon="-120.038501"><ele>2049.2</ele><time>2025-05-21T01:21:58Z</time></trkpt>
<trkpt lat="38.902627" lon="-120.038460"><ele>2049.2</ele><time>2025-05-21T01:22:01Z</time></trkpt>
<trkpt lat="38.902762" lon="-120.038492"><ele>2049.8</ele><time>2025-05-21T01:22:06Z</time></trkpt>
<trkpt lat="38.902921" lon="-120.038467"><ele>2049.4</ele><time>2025-05-21T01:22:12Z</time></trkpt>
<trkpt lat="38.903146" lon="-120.038547"><ele>2048.4</ele><time>2025-05-21T01:22:20Z</time></trkpt>
<trkpt lat="38.903255" lon="-120.038467"><ele>2047.4</ele><time>2025-05-21T01:22:24Z</time></trkpt>
<trkpt lat="38.903340" lon="-120.038472"><ele>2046.6</ele><time>2025-05-21T01:22:26Z</time></trkpt>
<trkpt lat="38.903448" lon="-120.038397"><ele>2045.4</ele><time>2025-05-21T01:22:30Z</time></trkpt>
<trkpt lat="38.903494" lon="-120.038457"><ele>2044.4</ele><time>2025-05-21T01:22:33Z</time></trkpt>
<trkpt lat="38.903439" lon="-120.038535"><ele>2043.8</ele><time>2025-05-21T01:22:36Z</time></trkpt>
<trkpt lat="38.903472" lon="-120.038595"><ele>2043.2</ele><time>2025-05-21T01:22:39Z</time></trkpt>
<trkpt lat="38.903562" lon="-120.038530"><ele>2042.6</ele><time>2025-05-21T01:22:43Z</time></trkpt>
<trkpt lat="38.903583" lon="-120.038381"><ele>2043.0</ele><time>2025-05-21T01:22:50Z</time></trkpt>
<trkpt lat="38.903608" lon="-120.038396"><ele>2043.0</ele><time>2025-05-21T01:22:52Z</time></trkpt>
<trkpt lat="38.903624" lon="-120.038461"><ele>2038.8</ele><time>2025-05-21T01:24:13Z</time></trkpt>
<trkpt lat="38.903709" lon="-120.038473"><ele>2037.6</ele><time>2025-05-21T01:25:11Z</time></trkpt>
<trkpt lat="38.903963" lon="-120.038653"><ele>2034.8</ele><time>2025-05-21T01:25:18Z</time></trkpt>
<trkpt lat="38.904036" lon="-120.038804"><ele>2033.2</ele><time>2025-05-21T01:25:20Z</time></trkpt>
<trkpt lat="38.904076" lon="-120.039009"><ele>2030.8</ele><time>2025-05-21T01:25:22Z</time></trkpt>
<trkpt lat="38.904201" lon="-120.039809"><ele>2027.0</ele><time>2025-05-21T01:25:28Z</time></trkpt>
<trkpt lat="38.904406" lon="-120.040311"><ele>2025.8</ele><time>2025-05-21T01:25:32Z</time></trkpt>
<trkpt lat="38.904555" lon="-120.040879"><ele>2025.8</ele><time>2025-05-21T01:25:36Z</time></trkpt>
<trkpt lat="38.904595" lon="-120.041677"><ele>2025.0</ele><time>2025-05-21T01:25:42Z</time></trkpt>
<trkpt lat="38.904881" lon="-120.042169"><ele>2022.8</ele><time>2025-05-21T01:25:47Z</time></trkpt>
<trkpt lat="38.905098" lon="-120.042391"><ele>2021.2</ele><time>2025-05-21T01:25:50Z</time></trkpt>
<trkpt lat="38.905270" lon="-120.042706"><ele>2019.2</ele><time>2025-05-21T01:25:54Z</time></trkpt>
<trkpt lat="38.905456" lon="-120.042856"><ele>2016.8</ele><time>2025-05-21T01:25:58Z</time></trkpt>
<trkpt lat="38.905492" lon="-120.042908"><ele>2014.0</ele><time>2025-05-21T01:26:03Z</time></trkpt>
<trkpt lat="38.905587" lon="-120.042841"><ele>2010.2</ele><time>2025-05-21T01:26:34Z</time></trkpt>
<trkpt lat="38.905994" lon="-120.042780"><ele>2010.0</ele><time>2025-05-21T01:27:12Z</time></trkpt>
<trkpt lat="38.906648" lon="-120.042840"><ele>2006.6</ele><time>2025-05-21T01:27:26Z</time></trkpt>
<trkpt lat="38.906844" lon="-120.042895"><ele>2006.8</ele><time>2025-05-21T01:27:29Z</time></trkpt>
<trkpt lat="38.907177" lon="-120.042852"><ele>2005.4</ele><time>2025-05-21T01:27:35Z</time></trkpt>
<trkpt lat="38.907758" lon="-120.042903"><ele>2004.4</ele><time>2025-05-21T01:27:45Z</time></trkpt>
<trkpt lat="38.908184" lon="-120.042887"><ele>2002.4</ele><time>2025-05-21T01:27:52Z</time></trkpt>
<trkpt lat="38.908324" lon="-120.042924"><ele>2003.0</ele><time>2025-05-21T01:27:55Z</time></trkpt>
<trkpt lat="38.908667" lon="-120.043089"><ele>2001.0</ele><time>2025-05-21T01:28:02Z</time></trkpt>
<trkpt lat="38.908946" lon="-120.043178"><ele>1999.2</ele><time>2025-05-21T01:28:07Z</time></trkpt>
<trkpt lat="38.909300" lon="-120.043400"><ele>1996.6</ele><time>2025-05-21T01:28:13Z</time></trkpt>
<trkpt lat="38.909539" lon="-120.043477"><ele>1995.4</ele><time>2025-05-21T01:28:17Z</time></trkpt>
<trkpt lat="38.909609" lon="-120.043544"><ele>1995.2</ele><time>2025-05-21T01:28:19Z</time></trkpt>
<trkpt lat="38.910093" lon="-120.043787"><ele>1992.4</ele><time>2025-05-21T01:28:30Z</time></trkpt>
<trkpt lat="38.910393" lon="-120.043986"><ele>1991.2</ele><time>2025-05-21T01:28:36Z</time></trkpt>
<trkpt lat="38.910828" lon="-120.044194"><ele>1989.0</ele><time>2025-05-21T01:28:45Z</time></trkpt>
<trkpt lat="38.911120" lon="-120.044268"><ele>1988.2</ele><time>2025-05-21T01:28:51Z</time></trkpt>
<trkpt lat="38.911232" lon="-120.044363"><ele>1988.0</ele><time>2025-05-21T01:28:54Z</time></trkpt>
<trkpt lat="38.911395" lon="-120.044433"><ele>1987.2</ele><time>2025-05-21T01:28:58Z</time></trkpt>
<trkpt lat="38.911557" lon="-120.044488"><ele>1986.8</ele><time>2025-05-21T01:29:03Z</time></trkpt>
<trkpt lat="38.911623" lon="-120.044474"><ele>1986.6</ele><time>2025-05-21T01:29:06Z</time></trkpt>
<trkpt lat="38.911869" lon="-120.044691"><ele>1984.8</ele><time>2025-05-21T01:29:15Z</time></trkpt>
<trkpt lat="38.912313" lon="-120.044863"><ele>1983.8</ele><time>2025-05-21T01:29:28Z</time></trkpt>
<trkpt lat="38.912564" lon="-120.045025"><ele>1981.8</ele><time>2025-05-21T01:29:35Z</time></trkpt>
<trkpt lat="38.912829" lon="-120.045112"><ele>1979.2</ele><time>2025-05-21T01:29:42Z</time></trkpt>
<trkpt lat="38.912939" lon="-120.045102"><ele>1977.8</ele><time>2025-05-21T01:29:58Z</time></trkpt>
<trkpt lat="38.912998" lon="-120.045168"><ele>1976.8</ele><time>2025-05-21T01:30:01Z</time></trkpt>
<trkpt lat="38.913247" lon="-120.045041"><ele>1976.4</ele><time>2025-05-21T01:30:07Z</time></trkpt>
<trkpt lat="38.913355" lon="-120.045095"><ele>1976.6</ele><time>2025-05-21T01:30:10Z</time></trkpt>
<trkpt lat="38.913475" lon="-120.045037"><ele>1976.4</ele><time>2025-05-21T01:30:13Z</time></trkpt>
<trkpt lat="38.913604" lon="-120.045128"><ele>1976.2</ele><time>2025-05-21T01:30:17Z</time></trkpt>
<trkpt lat="38.913863" lon="-120.045024"><ele>1975.0</ele><time>2025-05-21T01:30:29Z</time></trkpt>
<trkpt lat="38.914108" lon="-120.045004"><ele>1973.8</ele><time>2025-05-21T01:30:34Z</time></trkpt>
<trkpt lat="38.914271" lon="-120.045035"><ele>1973.2</ele><time>2025-05-21T01:30:38Z</time></trkpt>
<trkpt lat="38.914403" lon="-120.045013"><ele>1973.0</ele><time>2025-05-21T01:30:41Z</time></trkpt>
<trkpt lat="38.914530" lon="-120.044938"><ele>1974.0</ele><time>2025-05-21T01:30:45Z</time></trkpt>
<trkpt lat="38.914579" lon="-120.044966"><ele>1973.8</ele><time>2025-05-21T01:30:47Z</time></trkpt>
<trkpt lat="38.914691" lon="-120.044951"><ele>1973.0</ele><time>2025-05-21T01:30:51Z</time></trkpt>
<trkpt lat="38.914802" lon="-120.045040"><ele>1971.4</ele><time>2025-05-21T01:30:55Z</time></trkpt>
<trkpt lat="38.914888" lon="-120.045057"><ele>1970.8</ele><time>2025-05-21T01:30:57Z</time></trkpt>
<trkpt lat="38.914982" lon="-120.044993"><ele>1971.2</ele><time>2025-05-21T01:31:00Z</time></trkpt>
<trkpt lat="38.915042" lon="-120.045016"><ele>1971.0</ele><time>2025-05-21T01:31:02Z</time></trkpt>
<trkpt lat="38.915248" lon="-120.044915"><ele>1970.0</ele><time>2025-05-21T01:31:08Z</time></trkpt>
<trkpt lat="38.915310" lon="-120.044943"><ele>1970.0</ele><time>2025-05-21T01:31:10Z</time></trkpt>
<trkpt lat="38.915380" lon="-120.044898"><ele>1970.0</ele><time>2025-05-21T01:31:13Z</time></trkpt>
<trkpt lat="38.915779" lon="-120.044913"><ele>1969.8</ele><time>2025-05-21T01:31:22Z</time></trkpt>
<trkpt lat="38.916235" lon="-120.044847"><ele>1970.0</ele><time>2025-05-21T01:31:33Z</time></trkpt>
<trkpt lat="38.916309" lon="-120.044883"><ele>1969.6</ele><time>2025-05-21T01:31:35Z</time></trkpt>
<trkpt lat="38.916385" lon="-120.045045"><ele>1968.4</ele><time>2025-05-21T01:31:39Z</time></trkpt>
<trkpt lat="38.916670" lon="-120.044947"><ele>1967.4</ele><time>2025-05-21T01:31:48Z</time></trkpt>
<trkpt lat="38.916813" lon="-120.045004"><ele>1967.8</ele><time>2025-05-21T01:31:53Z</time></trkpt>
<trkpt lat="38.916998" lon="-120.044948"><ele>1967.2</ele><time>2025-05-21T01:31:59Z</time></trkpt>
<trkpt lat="38.917122" lon="-120.045037"><ele>1967.0</ele><time>2025-05-21T01:32:03Z</time></trkpt>
<trkpt lat="38.917337" lon="-120.045106"><ele>1965.6</ele><time>2025-05-21T01:32:08Z</time></trkpt>
<trkpt lat="38.917532" lon="-120.045114"><ele>1966.0</ele><time>2025-05-21T01:32:13Z</time></trkpt>
<trkpt lat="38.917835" lon="-120.045183"><ele>1964.4</ele><time>2025-05-21T01:32:20Z</time></trkpt>
<trkpt lat="38.918218" lon="-120.045183"><ele>1964.8</ele><time>2025-05-21T01:32:28Z</time></trkpt>
<trkpt lat="38.918545" lon="-120.045281"><ele>1963.4</ele><time>2025-05-21T01:32:36Z</time></trkpt>
<trkpt lat="38.918712" lon="-120.045186"><ele>1963.2</ele><time>2025-05-21T01:32:41Z</time></trkpt>
<trkpt lat="38.918926" lon="-120.044979"><ele>1963.2</ele><time>2025-05-21T01:32:48Z</time></trkpt>
<trkpt lat="38.919003" lon="-120.044959"><ele>1963.0</ele><time>2025-05-21T01:32:50Z</time></trkpt>
<trkpt lat="38.919234" lon="-120.044996"><ele>1963.8</ele><time>2025-05-21T01:32:56Z</time></trkpt>
<trkpt lat="38.919320" lon="-120.044936"><ele>1963.8</ele><time>2025-05-21T01:32:59Z</time></trkpt>
<trkpt lat="38.919631" lon="-120.044936"><ele>1963.6</ele><time>2025-05-21T01:33:07Z</time></trkpt>
<trkpt lat="38.920017" lon="-120.045007"><ele>1961.6</ele><time>2025-05-21T01:33:16Z</time></trkpt>
<trkpt lat="38.920260" lon="-120.044923"><ele>1961.6</ele><time>2025-05-21T01:33:22Z</time></trkpt>
<trkpt lat="38.920367" lon="-120.044949"><ele>1961.2</ele><time>2025-05-21T01:33:25Z</time></trkpt>
<trkpt lat="38.920475" lon="-120.044920"><ele>1961.2</ele><time>2025-05-21T01:33:28Z</time></trkpt>
<trkpt lat="38.921104" lon="-120.044949"><ele>1963.4</ele><time>2025-05-21T01:33:44Z</time></trkpt>
<trkpt lat="38.921406" lon="-120.044867"><ele>1961.0</ele><time>2025-05-21T01:33:51Z</time></trkpt>
<trkpt lat="38.921570" lon="-120.044936"><ele>1959.6</ele><time>2025-05-21T01:33:55Z</time></trkpt>
<trkpt lat="38.922130" lon="-120.044954"><ele>1955.8</ele><time>2025-05-21T01:34:08Z</time></trkpt>
<trkpt lat="38.922315" lon="-120.045010"><ele>1954.2</ele><time>2025-05-21T01:34:12Z</time></trkpt>
<trkpt lat="38.922405" lon="-120.045111"><ele>1953.8</ele><time>2025-05-21T01:34:15Z</time></trkpt>
<trkpt lat="38.922507" lon="-120.045068"><ele>1953.8</ele><time>2025-05-21T01:34:18Z</time></trkpt>
<trkpt lat="38.922630" lon="-120.045098"><ele>1953.2</ele><time>2025-05-21T01:34:21Z</time></trkpt>
<trkpt lat="38.922665" lon="-120.045165"><ele>1953.2</ele><time>2025-05-21T01:34:23Z</time></trkpt>
<trkpt lat="38.922638" lon="-120.045371"><ele>1953.4</ele><time>2025-05-21T01:34:28Z</time></trkpt>
<trkpt lat="38.922668" lon="-120.045504"><ele>1953.8</ele><time>2025-05-21T01:34:33Z</time></trkpt>
<trkpt lat="38.922656" lon="-120.045827"><ele>1953.0</ele><time>2025-05-21T01:34:42Z</time></trkpt>
<trkpt lat="38.922581" lon="-120.045918"><ele>1953.2</ele><time>2025-05-21T01:34:45Z</time></trkpt>
<trkpt lat="38.922407" lon="-120.045957"><ele>1953.2</ele><time>2025-05-21T01:34:54Z</time></trkpt>
</trkseg></trk>
</gpx>
