<?xml version="1.0" encoding="UTF-8"?>
<gpx version="1.1" creator="Eric Sichak trip reports" xmlns="http://www.topografix.com/GPX/1/1">
<metadata><name>LTCC Sport Climbing – Day 1</name><time>2026-05-15T20:25:00Z</time></metadata>
<trk><name>LTCC Sport Climbing – Day 1</name><type>climb</type><trkseg>
<trkpt lat="38.842814" lon="-120.041384"><ele>2017.0</ele><time>2026-05-15T20:25:00Z</time></trkpt>
<trkpt lat="38.842838" lon="-120.041491"><ele>2017.4</ele><time>2026-05-15T20:26:28Z</time></trkpt>
<trkpt lat="38.842921" lon="-120.041440"><ele>2018.0</ele><time>2026-05-15T20:26:39Z</time></trkpt>
<trkpt lat="38.843118" lon="-120.041502"><ele>2017.2</ele><time>2026-05-15T20:27:03Z</time></trkpt>
<trkpt lat="38.843230" lon="-120.041751"><ele>2016.0</ele><time>2026-05-15T20:27:26Z</time></trkpt>
<trkpt lat="38.843563" lon="-120.042165"><ele>2011.4</ele><time>2026-05-15T20:28:13Z</time></trkpt>
<trkpt lat="38.843629" lon="-120.042558"><ele>2008.2</ele><time>2026-05-15T20:28:42Z</time></trkpt>
<trkpt lat="38.843559" lon="-120.042695"><ele>2008.6</ele><time>2026-05-15T20:28:54Z</time></trkpt>
<trkpt lat="38.843376" lon="-120.042833"><ele>2010.2</ele><time>2026-05-15T20:29:14Z</time></trkpt>
<trkpt lat="38.843315" lon="-120.042985"><ele>2010.8</ele><time>2026-05-15T20:29:26Z</time></trkpt>
<trkpt lat="38.843329" lon="-120.043051"><ele>2011.0</ele><time>2026-05-15T20:29:31Z</time></trkpt>
<trkpt lat="38.843591" lon="-120.043217"><ele>2009.8</ele><time>2026-05-15T20:29:57Z</time></trkpt>
<trkpt lat="38.843982" lon="-120.043801"><ele>2011.0</ele><time>2026-05-15T20:30:50Z</time></trkpt>
<trkpt lat="38.844286" lon="-120.043937"><ele>2010.4</ele><time>2026-05-15T20:31:18Z</time></trkpt>
<trkpt lat="38.844626" lon="-120.044192"><ele>2009.6</ele><time>2026-05-15T20:31:55Z</time></trkpt>
<trkpt lat="38.845126" lon="-120.044391"><ele>2013.4</ele><time>2026-05-15T20:32:44Z</time></trkpt>
<trkpt lat="38.845274" lon="-120.044426"><ele>2012.6</ele><time>2026-05-15T20:32:58Z</time></trkpt>
<trkpt lat="38.845369" lon="-120.044415"><ele>2012.6</ele><time>2026-05-15T20:33:09Z</time></trkpt>
<trkpt lat="38.845292" lon="-120.044393"><ele>2012.2</ele><time>2026-05-15T20:33:34Z</time></trkpt>
<trkpt lat="38.845409" lon="-120.044405"><ele>2010.0</ele><time>2026-05-15T20:33:46Z</time></trkpt>
<trkpt lat="38.845677" lon="-120.044512"><ele>2010.4</ele><time>2026-05-15T20:34:11Z</time></trkpt>
<trkpt lat="38.845923" lon="-120.044685"><ele>2012.6</ele><time>2026-05-15T20:34:37Z</time></trkpt>
<trkpt lat="38.846028" lon="-120.044818"><ele>2012.0</ele><time>2026-05-15T20:34:57Z</time></trkpt>
<trkpt lat="38.845986" lon="-120.044810"><ele>2012.6</ele><time>2026-05-15T20:35:13Z</time></trkpt>
<trkpt lat="38.845967" lon="-120.044857"><ele>2013.4</ele><time>2026-05-15T20:35:18Z</time></trkpt>
<trkpt lat="38.845964" lon="-120.045146"><ele>2014.0</ele><time>2026-05-15T20:35:45Z</time></trkpt>
<trkpt lat="38.845908" lon="-120.045333"><ele>2014.2</ele><time>2026-05-15T20:36:05Z</time></trkpt>
<trkpt lat="38.845872" lon="-120.045395"><ele>2015.0</ele><time>2026-05-15T20:36:15Z</time></trkpt>
<trkpt lat="38.845747" lon="-120.045452"><ele>2014.4</ele><time>2026-05-15T20:36:32Z</time></trkpt>
<trkpt lat="38.845689" lon="-120.045570"><ele>2015.4</ele><time>2026-05-15T20:36:48Z</time></trkpt>
<trkpt lat="38.845748" lon="-120.045714"><ele>2017.0</ele><time>2026-05-15T20:37:11Z</time></trkpt>
<trkpt lat="38.845721" lon="-120.045756"><ele>2018.6</ele><time>2026-05-15T20:37:19Z</time></trkpt>
<trkpt lat="38.845751" lon="-120.045900"><ele>2020.8</ele><time>2026-05-15T20:37:45Z</time></trkpt>
<trkpt lat="38.845773" lon="-120.046026"><ele>2025.4</ele><time>2026-05-15T20:38:16Z</time></trkpt>
<trkpt lat="38.845810" lon="-120.046066"><ele>2025.6</ele><time>2026-05-15T20:38:26Z</time></trkpt>
<trkpt lat="38.845794" lon="-120.046080"><ele>2027.8</ele><time>2026-05-15T20:38:37Z</time></trkpt>
<trkpt lat="38.845835" lon="-120.046164"><ele>2032.4</ele><time>2026-05-15T20:39:21Z</time></trkpt>
<trkpt lat="38.845866" lon="-120.046203"><ele>2029.0</ele><time>2026-05-15T20:41:25Z</time></trkpt>
<trkpt lat="38.845829" lon="-120.046173"><ele>2030.4</ele><time>2026-05-15T23:12:40Z</time></trkpt>
<trkpt lat="38.845801" lon="-120.046084"><ele>2028.2</ele><time>2026-05-15T23:13:45Z</time></trkpt>
<trkpt lat="38.845815" lon="-120.046044"><ele>2024.8</ele><time>2026-05-15T23:14:18Z</time></trkpt>
<trkpt lat="38.845774" lon="-120.046026"><ele>2024.2</ele><time>2026-05-15T23:14:25Z</time></trkpt>
<trkpt lat="38.845726" lon="-120.045820"><ele>2019.0</ele><time>2026-05-15T23:14:58Z</time></trkpt>
<trkpt lat="38.845752" lon="-120.045685"><ele>2015.0</ele><time>2026-05-15T23:15:26Z</time></trkpt>
<trkpt lat="38.845702" lon="-120.045593"><ele>2012.6</ele><time>2026-05-15T23:15:41Z</time></trkpt>
<trkpt lat="38.845715" lon="-120.045509"><ele>2011.6</ele><time>2026-05-15T23:15:51Z</time></trkpt>
<trkpt lat="38.845647" lon="-120.045410"><ele>2011.0</ele><time>2026-05-15T23:16:04Z</time></trkpt>
<trkpt lat="38.845672" lon="-120.045375"><ele>2010.6</ele><time>2026-05-15T23:16:13Z</time></trkpt>
<trkpt lat="38.845646" lon="-120.045330"><ele>2010.6</ele><time>2026-05-15T23:16:19Z</time></trkpt>
<trkpt lat="38.845661" lon="-120.045013"><ele>2009.8</ele><time>2026-05-15T23:16:51Z</time></trkpt>
<trkpt lat="38.845604" lon="-120.044838"><ele>2009.8</ele><time>2026-05-15T23:17:12Z</time></trkpt>
<trkpt lat="38.845718" lon="-120.044740"><ele>2009.8</ele><time>2026-05-15T23:18:04Z</time></trkpt>
<trkpt lat="38.845755" lon="-120.044528"><ele>2009.8</ele><time>2026-05-15T23:18:38Z</time></trkpt>
<trkpt lat="38.845642" lon="-120.044455"><ele>2009.6</ele><time>2026-05-15T23:18:48Z</time></trkpt>
<trkpt lat="38.845396" lon="-120.044377"><ele>2010.0</ele><time>2026-05-15T23:19:10Z</time></trkpt>
<trkpt lat="38.845186" lon="-120.044396"><ele>2010.4</ele><time>2026-05-15T23:19:32Z</time></trkpt>
<trkpt lat="38.844787" lon="-120.044241"><ele>2009.6</ele><time>2026-05-15T23:20:09Z</time></trkpt>
<trkpt lat="38.844480" lon="-120.044084"><ele>2009.8</ele><time>2026-05-15T23:20:41Z</time></trkpt>
<trkpt lat="38.844303" lon="-120.043930"><ele>2010.2</ele><time>2026-05-15T23:21:02Z</time></trkpt>
<trkpt lat="38.844104" lon="-120.043872"><ele>2011.0</ele><time>2026-05-15T23:21:27Z</time></trkpt>
<trkpt lat="38.843897" lon="-120.043713"><ele>2011.8</ele><time>2026-05-15T23:21:56Z</time></trkpt>
<trkpt lat="38.843566" lon="-120.043175"><ele>2012.0</ele><time>2026-05-15T23:22:44Z</time></trkpt>
<trkpt lat="38.843514" lon="-120.043128"><ele>2011.6</ele><time>2026-05-15T23:22:49Z</time></trkpt>
<trkpt lat="38.843355" lon="-120.043087"><ele>2011.8</ele><time>2026-05-15T23:23:05Z</time></trkpt>
<trkpt lat="38.843297" lon="-120.042990"><ele>2012.0</ele><time>2026-05-15T23:23:14Z</time></trkpt>
<trkpt lat="38.843361" lon="-120.042834"><ele>2012.4</ele><time>2026-05-15T23:23:26Z</time></trkpt>
<trkpt lat="38.843548" lon="-120.042691"><ele>2011.6</ele><time>2026-05-15T23:23:44Z</time></trkpt>
<trkpt lat="38.843585" lon="-120.042617"><ele>2011.4</ele><time>2026-05-15T23:23:50Z</time></trkpt>
<trkpt lat="38.843605" lon="-120.042498"><ele>2011.6</ele><time>2026-05-15T23:23:59Z</time></trkpt>
<trkpt lat="38.843555" lon="-120.042195"><ele>2014.0</ele><time>2026-05-15T23:24:25Z</time></trkpt>
<trkpt lat="38.843442" lon="-120.042013"><ele>2014.6</ele><time>2026-05-15T23:24:41Z</time></trkpt>
<trkpt lat="38.843194" lon="-120.041730"><ele>2019.2</ele><time>2026-05-15T23:25:13Z</time></trkpt>
<trkpt lat="38.843110" lon="-120.041501"><ele>2019.4</ele><time>2026-05-15T23:25:31Z</time></trkpt>
<trkpt lat="38.842933" lon="-120.041443"><ele>2019.8</ele><time>2026-05-15T23:26:11Z</time></trkpt>
</trkseg></trk>
</gpx>
