<?xml version="1.0" encoding="UTF-8"?>
<gpx version="1.1" creator="Eric Sichak trip reports" xmlns="http://www.topografix.com/GPX/1/1">
<metadata><name>Discovered my fork was locked out at the end of the descent</name><time>2021-07-15T00:29:51Z</time></metadata>
<trk><name>Discovered my fork was locked out at the end of the descent</name><type>mtb</type><trkseg>
<trkpt lat="37.220046" lon="-121.769089"><ele>66.1</ele><time>2021-07-15T00:29:51Z</time></trkpt>
<trkpt lat="37.220054" lon="-121.769062"><ele>66.1</ele><time>2021-07-15T00:29:56Z</time></trkpt>
<trkpt lat="37.219804" lon="-121.768953"><ele>66.1</ele><time>2021-07-15T00:30:06Z</time></trkpt>
<trkpt lat="37.219585" lon="-121.768704"><ele>66.4</ele><time>2021-07-15T00:30:13Z</time></trkpt>
<trkpt lat="37.219198" lon="-121.768371"><ele>66.7</ele><time>2021-07-15T00:30:23Z</time></trkpt>
<trkpt lat="37.219064" lon="-121.768323"><ele>66.8</ele><time>2021-07-15T00:30:26Z</time></trkpt>
<trkpt lat="37.218633" lon="-121.767948"><ele>67.2</ele><time>2021-07-15T00:30:38Z</time></trkpt>
<trkpt lat="37.218285" lon="-121.767702"><ele>67.9</ele><time>2021-07-15T00:30:48Z</time></trkpt>
<trkpt lat="37.218071" lon="-121.767811"><ele>69.0</ele><time>2021-07-15T00:30:58Z</time></trkpt>
<trkpt lat="37.217806" lon="-121.767651"><ele>70.7</ele><time>2021-07-15T00:31:08Z</time></trkpt>
<trkpt lat="37.217628" lon="-121.767690"><ele>73.5</ele><time>2021-07-15T00:31:18Z</time></trkpt>
<trkpt lat="37.217521" lon="-121.767762"><ele>76.0</ele><time>2021-07-15T00:31:29Z</time></trkpt>
<trkpt lat="37.217023" lon="-121.767923"><ele>81.4</ele><time>2021-07-15T00:31:58Z</time></trkpt>
<trkpt lat="37.216938" lon="-121.768035"><ele>81.8</ele><time>2021-07-15T00:32:05Z</time></trkpt>
<trkpt lat="37.216883" lon="-121.768403"><ele>83.1</ele><time>2021-07-15T00:32:32Z</time></trkpt>
<trkpt lat="37.216747" lon="-121.768268"><ele>83.8</ele><time>2021-07-15T00:32:39Z</time></trkpt>
<trkpt lat="37.216719" lon="-121.768196"><ele>84.2</ele><time>2021-07-15T00:32:41Z</time></trkpt>
<trkpt lat="37.216780" lon="-121.768220"><ele>84.7</ele><time>2021-07-15T00:32:42Z</time></trkpt>
<trkpt lat="37.216865" lon="-121.768388"><ele>86.0</ele><time>2021-07-15T00:32:43Z</time></trkpt>
<trkpt lat="37.216864" lon="-121.768262"><ele>86.8</ele><time>2021-07-15T00:32:49Z</time></trkpt>
<trkpt lat="37.216908" lon="-121.768127"><ele>87.9</ele><time>2021-07-15T00:32:57Z</time></trkpt>
<trkpt lat="37.216870" lon="-121.768533"><ele>90.3</ele><time>2021-07-15T00:33:33Z</time></trkpt>
<trkpt lat="37.216830" lon="-121.768593"><ele>90.8</ele><time>2021-07-15T00:34:00Z</time></trkpt>
<trkpt lat="37.216829" lon="-121.768682"><ele>91.3</ele><time>2021-07-15T00:34:03Z</time></trkpt>
<trkpt lat="37.216654" lon="-121.768854"><ele>92.5</ele><time>2021-07-15T00:34:14Z</time></trkpt>
<trkpt lat="37.216329" lon="-121.768840"><ele>93.8</ele><time>2021-07-15T00:34:29Z</time></trkpt>
<trkpt lat="37.216152" lon="-121.768928"><ele>94.3</ele><time>2021-07-15T00:34:39Z</time></trkpt>
<trkpt lat="37.216072" lon="-121.769321"><ele>95.1</ele><time>2021-07-15T00:34:53Z</time></trkpt>
<trkpt lat="37.215812" lon="-121.769497"><ele>97.2</ele><time>2021-07-15T00:35:05Z</time></trkpt>
<trkpt lat="37.215699" lon="-121.769975"><ele>100.0</ele><time>2021-07-15T00:35:24Z</time></trkpt>
<trkpt lat="37.215611" lon="-121.770071"><ele>100.3</ele><time>2021-07-15T00:35:31Z</time></trkpt>
<trkpt lat="37.215560" lon="-121.770214"><ele>100.4</ele><time>2021-07-15T00:35:38Z</time></trkpt>
<trkpt lat="37.214829" lon="-121.770513"><ele>102.0</ele><time>2021-07-15T00:35:57Z</time></trkpt>
<trkpt lat="37.214740" lon="-121.770515"><ele>102.3</ele><time>2021-07-15T00:36:01Z</time></trkpt>
<trkpt lat="37.214778" lon="-121.770594"><ele>102.6</ele><time>2021-07-15T00:36:06Z</time></trkpt>
<trkpt lat="37.214755" lon="-121.770631"><ele>102.7</ele><time>2021-07-15T00:36:12Z</time></trkpt>
<trkpt lat="37.214794" lon="-121.770507"><ele>103.0</ele><time>2021-07-15T00:36:24Z</time></trkpt>
<trkpt lat="37.214757" lon="-121.770612"><ele>103.3</ele><time>2021-07-15T00:36:27Z</time></trkpt>
<trkpt lat="37.214772" lon="-121.770645"><ele>103.3</ele><time>2021-07-15T00:36:28Z</time></trkpt>
<trkpt lat="37.214861" lon="-121.770611"><ele>103.5</ele><time>2021-07-15T00:36:30Z</time></trkpt>
<trkpt lat="37.214939" lon="-121.770665"><ele>103.5</ele><time>2021-07-15T00:36:34Z</time></trkpt>
<trkpt lat="37.215060" lon="-121.770671"><ele>103.3</ele><time>2021-07-15T00:36:39Z</time></trkpt>
<trkpt lat="37.215197" lon="-121.770919"><ele>103.2</ele><time>2021-07-15T00:36:45Z</time></trkpt>
<trkpt lat="37.215214" lon="-121.771014"><ele>103.5</ele><time>2021-07-15T00:36:48Z</time></trkpt>
<trkpt lat="37.215386" lon="-121.771224"><ele>104.8</ele><time>2021-07-15T00:36:49Z</time></trkpt>
<trkpt lat="37.215441" lon="-121.771459"><ele>105.8</ele><time>2021-07-15T00:36:55Z</time></trkpt>
<trkpt lat="37.215485" lon="-121.771534"><ele>106.2</ele><time>2021-07-15T00:36:57Z</time></trkpt>
<trkpt lat="37.215986" lon="-121.771716"><ele>106.5</ele><time>2021-07-15T00:37:12Z</time></trkpt>
<trkpt lat="37.216042" lon="-121.771782"><ele>106.8</ele><time>2021-07-15T00:37:14Z</time></trkpt>
<trkpt lat="37.216034" lon="-121.771815"><ele>107.0</ele><time>2021-07-15T00:37:15Z</time></trkpt>
<trkpt lat="37.216099" lon="-121.771851"><ele>107.5</ele><time>2021-07-15T00:37:18Z</time></trkpt>
<trkpt lat="37.216103" lon="-121.771929"><ele>108.3</ele><time>2021-07-15T00:37:36Z</time></trkpt>
<trkpt lat="37.216180" lon="-121.771893"><ele>108.6</ele><time>2021-07-15T00:37:40Z</time></trkpt>
<trkpt lat="37.216141" lon="-121.771984"><ele>108.7</ele><time>2021-07-15T00:37:43Z</time></trkpt>
<trkpt lat="37.216161" lon="-121.772037"><ele>108.4</ele><time>2021-07-15T00:37:44Z</time></trkpt>
<trkpt lat="37.216319" lon="-121.772247"><ele>107.3</ele><time>2021-07-15T00:37:49Z</time></trkpt>
<trkpt lat="37.216365" lon="-121.772284"><ele>107.0</ele><time>2021-07-15T00:37:50Z</time></trkpt>
<trkpt lat="37.216630" lon="-121.772313"><ele>105.2</ele><time>2021-07-15T00:37:54Z</time></trkpt>
<trkpt lat="37.216846" lon="-121.772492"><ele>102.9</ele><time>2021-07-15T00:37:57Z</time></trkpt>
<trkpt lat="37.217095" lon="-121.773079"><ele>96.7</ele><time>2021-07-15T00:38:02Z</time></trkpt>
<trkpt lat="37.217163" lon="-121.773303"><ele>95.1</ele><time>2021-07-15T00:38:04Z</time></trkpt>
<trkpt lat="37.217136" lon="-121.773413"><ele>94.7</ele><time>2021-07-15T00:38:06Z</time></trkpt>
<trkpt lat="37.217079" lon="-121.773415"><ele>94.7</ele><time>2021-07-15T00:38:14Z</time></trkpt>
<trkpt lat="37.216783" lon="-121.773746"><ele>97.9</ele><time>2021-07-15T00:38:35Z</time></trkpt>
<trkpt lat="37.216572" lon="-121.773808"><ele>99.7</ele><time>2021-07-15T00:38:48Z</time></trkpt>
<trkpt lat="37.216485" lon="-121.773913"><ele>100.7</ele><time>2021-07-15T00:38:53Z</time></trkpt>
<trkpt lat="37.216458" lon="-121.774096"><ele>102.0</ele><time>2021-07-15T00:39:00Z</time></trkpt>
<trkpt lat="37.216477" lon="-121.774374"><ele>102.6</ele><time>2021-07-15T00:40:03Z</time></trkpt>
<trkpt lat="37.216425" lon="-121.774503"><ele>102.7</ele><time>2021-07-15T00:40:06Z</time></trkpt>
<trkpt lat="37.216289" lon="-121.774617"><ele>103.4</ele><time>2021-07-15T00:40:10Z</time></trkpt>
<trkpt lat="37.216156" lon="-121.774592"><ele>104.8</ele><time>2021-07-15T00:40:15Z</time></trkpt>
<trkpt lat="37.216106" lon="-121.774532"><ele>105.8</ele><time>2021-07-15T00:40:20Z</time></trkpt>
<trkpt lat="37.216061" lon="-121.774533"><ele>106.3</ele><time>2021-07-15T00:40:24Z</time></trkpt>
<trkpt lat="37.216036" lon="-121.774414"><ele>107.6</ele><time>2021-07-15T00:40:30Z</time></trkpt>
<trkpt lat="37.216078" lon="-121.774121"><ele>110.8</ele><time>2021-07-15T00:40:45Z</time></trkpt>
<trkpt lat="37.216052" lon="-121.774020"><ele>112.0</ele><time>2021-07-15T00:40:51Z</time></trkpt>
<trkpt lat="37.215988" lon="-121.774010"><ele>113.4</ele><time>2021-07-15T00:40:59Z</time></trkpt>
<trkpt lat="37.215972" lon="-121.773976"><ele>113.9</ele><time>2021-07-15T00:41:01Z</time></trkpt>
<trkpt lat="37.215983" lon="-121.773910"><ele>114.6</ele><time>2021-07-15T00:41:05Z</time></trkpt>
<trkpt lat="37.215944" lon="-121.773918"><ele>115.2</ele><time>2021-07-15T00:41:07Z</time></trkpt>
<trkpt lat="37.215804" lon="-121.773819"><ele>118.0</ele><time>2021-07-15T00:41:21Z</time></trkpt>
<trkpt lat="37.215791" lon="-121.773746"><ele>119.1</ele><time>2021-07-15T00:41:25Z</time></trkpt>
<trkpt lat="37.215740" lon="-121.773723"><ele>120.3</ele><time>2021-07-15T00:41:29Z</time></trkpt>
<trkpt lat="37.215726" lon="-121.773646"><ele>121.5</ele><time>2021-07-15T00:41:33Z</time></trkpt>
<trkpt lat="37.215687" lon="-121.773668"><ele>122.4</ele><time>2021-07-15T00:41:37Z</time></trkpt>
<trkpt lat="37.215629" lon="-121.773575"><ele>124.4</ele><time>2021-07-15T00:41:45Z</time></trkpt>
<trkpt lat="37.215600" lon="-121.773593"><ele>124.9</ele><time>2021-07-15T00:41:50Z</time></trkpt>
<trkpt lat="37.215546" lon="-121.773551"><ele>126.1</ele><time>2021-07-15T00:41:56Z</time></trkpt>
<trkpt lat="37.215436" lon="-121.773543"><ele>127.6</ele><time>2021-07-15T00:42:08Z</time></trkpt>
<trkpt lat="37.215383" lon="-121.773454"><ele>129.0</ele><time>2021-07-15T00:42:18Z</time></trkpt>
<trkpt lat="37.215410" lon="-121.773408"><ele>129.5</ele><time>2021-07-15T00:42:21Z</time></trkpt>
<trkpt lat="37.215333" lon="-121.773519"><ele>130.6</ele><time>2021-07-15T00:42:27Z</time></trkpt>
<trkpt lat="37.215399" lon="-121.773427"><ele>131.6</ele><time>2021-07-15T00:42:33Z</time></trkpt>
<trkpt lat="37.215357" lon="-121.773434"><ele>131.9</ele><time>2021-07-15T00:42:36Z</time></trkpt>
<trkpt lat="37.215488" lon="-121.773365"><ele>132.8</ele><time>2021-07-15T00:42:46Z</time></trkpt>
<trkpt lat="37.215346" lon="-121.773438"><ele>134.3</ele><time>2021-07-15T00:42:57Z</time></trkpt>
<trkpt lat="37.215353" lon="-121.773294"><ele>135.4</ele><time>2021-07-15T00:43:07Z</time></trkpt>
<trkpt lat="37.215323" lon="-121.773284"><ele>135.7</ele><time>2021-07-15T00:43:08Z</time></trkpt>
<trkpt lat="37.215280" lon="-121.773181"><ele>136.7</ele><time>2021-07-15T00:43:14Z</time></trkpt>
<trkpt lat="37.215312" lon="-121.773109"><ele>137.5</ele><time>2021-07-15T00:43:16Z</time></trkpt>
<trkpt lat="37.215213" lon="-121.773062"><ele>138.8</ele><time>2021-07-15T00:43:22Z</time></trkpt>
<trkpt lat="37.215150" lon="-121.772976"><ele>140.0</ele><time>2021-07-15T00:43:31Z</time></trkpt>
<trkpt lat="37.215058" lon="-121.772981"><ele>141.3</ele><time>2021-07-15T00:43:39Z</time></trkpt>
<trkpt lat="37.215053" lon="-121.772944"><ele>141.7</ele><time>2021-07-15T00:43:40Z</time></trkpt>
<trkpt lat="37.214997" lon="-121.772923"><ele>142.4</ele><time>2021-07-15T00:43:45Z</time></trkpt>
<trkpt lat="37.214829" lon="-121.772900"><ele>144.9</ele><time>2021-07-15T00:43:58Z</time></trkpt>
<trkpt lat="37.214805" lon="-121.772944"><ele>145.6</ele><time>2021-07-15T00:44:01Z</time></trkpt>
<trkpt lat="37.214646" lon="-121.772979"><ele>148.7</ele><time>2021-07-15T00:44:18Z</time></trkpt>
<trkpt lat="37.214604" lon="-121.772942"><ele>149.7</ele><time>2021-07-15T00:44:21Z</time></trkpt>
<trkpt lat="37.214409" lon="-121.772948"><ele>153.1</ele><time>2021-07-15T00:44:44Z</time></trkpt>
<trkpt lat="37.214421" lon="-121.772975"><ele>153.5</ele><time>2021-07-15T00:44:46Z</time></trkpt>
<trkpt lat="37.214343" lon="-121.773025"><ele>155.2</ele><time>2021-07-15T00:44:55Z</time></trkpt>
<trkpt lat="37.214211" lon="-121.773065"><ele>158.3</ele><time>2021-07-15T00:45:02Z</time></trkpt>
<trkpt lat="37.214147" lon="-121.773159"><ele>160.5</ele><time>2021-07-15T00:46:37Z</time></trkpt>
<trkpt lat="37.214215" lon="-121.773124"><ele>161.5</ele><time>2021-07-15T00:46:44Z</time></trkpt>
<trkpt lat="37.214005" lon="-121.773212"><ele>163.9</ele><time>2021-07-15T00:47:12Z</time></trkpt>
<trkpt lat="37.213768" lon="-121.773417"><ele>167.3</ele><time>2021-07-15T00:47:32Z</time></trkpt>
<trkpt lat="37.213691" lon="-121.773497"><ele>168.8</ele><time>2021-07-15T00:47:40Z</time></trkpt>
<trkpt lat="37.213702" lon="-121.773621"><ele>171.0</ele><time>2021-07-15T00:47:51Z</time></trkpt>
<trkpt lat="37.213639" lon="-121.773698"><ele>173.0</ele><time>2021-07-15T00:48:01Z</time></trkpt>
<trkpt lat="37.213524" lon="-121.773692"><ele>175.4</ele><time>2021-07-15T00:48:07Z</time></trkpt>
<trkpt lat="37.213452" lon="-121.773609"><ele>177.9</ele><time>2021-07-15T00:48:22Z</time></trkpt>
<trkpt lat="37.213456" lon="-121.773527"><ele>179.5</ele><time>2021-07-15T00:48:30Z</time></trkpt>
<trkpt lat="37.213428" lon="-121.773503"><ele>180.9</ele><time>2021-07-15T00:48:38Z</time></trkpt>
<trkpt lat="37.213405" lon="-121.773365"><ele>183.2</ele><time>2021-07-15T00:48:53Z</time></trkpt>
<trkpt lat="37.213457" lon="-121.773306"><ele>184.5</ele><time>2021-07-15T00:49:01Z</time></trkpt>
<trkpt lat="37.213443" lon="-121.773222"><ele>185.5</ele><time>2021-07-15T00:49:18Z</time></trkpt>
<trkpt lat="37.213515" lon="-121.773137"><ele>186.7</ele><time>2021-07-15T00:49:28Z</time></trkpt>
<trkpt lat="37.213517" lon="-121.773011"><ele>187.8</ele><time>2021-07-15T00:49:34Z</time></trkpt>
<trkpt lat="37.213627" lon="-121.772791"><ele>189.6</ele><time>2021-07-15T00:49:47Z</time></trkpt>
<trkpt lat="37.213598" lon="-121.772626"><ele>191.0</ele><time>2021-07-15T00:49:57Z</time></trkpt>
<trkpt lat="37.220113" lon="-121.768717"><ele>66.1</ele><time>2021-07-15T00:50:09Z</time></trkpt>
<trkpt lat="37.219828" lon="-121.768838"><ele>66.2</ele><time>2021-07-15T00:50:10Z</time></trkpt>
<trkpt lat="37.213606" lon="-121.772677"><ele>191.7</ele><time>2021-07-15T00:50:13Z</time></trkpt>
<trkpt lat="37.213560" lon="-121.772632"><ele>192.5</ele><time>2021-07-15T00:50:45Z</time></trkpt>
<trkpt lat="37.213514" lon="-121.772680"><ele>193.4</ele><time>2021-07-15T00:50:47Z</time></trkpt>
<trkpt lat="37.213426" lon="-121.772678"><ele>194.9</ele><time>2021-07-15T00:50:54Z</time></trkpt>
<trkpt lat="37.213410" lon="-121.772747"><ele>196.0</ele><time>2021-07-15T00:50:58Z</time></trkpt>
<trkpt lat="37.213352" lon="-121.772762"><ele>197.3</ele><time>2021-07-15T00:51:06Z</time></trkpt>
<trkpt lat="37.213316" lon="-121.772855"><ele>199.4</ele><time>2021-07-15T00:51:16Z</time></trkpt>
<trkpt lat="37.213202" lon="-121.772954"><ele>202.9</ele><time>2021-07-15T00:51:36Z</time></trkpt>
<trkpt lat="37.213140" lon="-121.772969"><ele>205.0</ele><time>2021-07-15T00:51:47Z</time></trkpt>
<trkpt lat="37.213069" lon="-121.772959"><ele>207.0</ele><time>2021-07-15T00:52:01Z</time></trkpt>
<trkpt lat="37.213046" lon="-121.772864"><ele>209.1</ele><time>2021-07-15T00:52:31Z</time></trkpt>
<trkpt lat="37.212950" lon="-121.772763"><ele>211.1</ele><time>2021-07-15T00:52:45Z</time></trkpt>
<trkpt lat="37.212661" lon="-121.772618"><ele>216.0</ele><time>2021-07-15T00:53:07Z</time></trkpt>
<trkpt lat="37.212529" lon="-121.772501"><ele>217.5</ele><time>2021-07-15T00:53:19Z</time></trkpt>
<trkpt lat="37.212454" lon="-121.772305"><ele>217.9</ele><time>2021-07-15T00:53:30Z</time></trkpt>
<trkpt lat="37.212139" lon="-121.772031"><ele>218.3</ele><time>2021-07-15T00:53:44Z</time></trkpt>
<trkpt lat="37.212064" lon="-121.771905"><ele>218.5</ele><time>2021-07-15T00:53:47Z</time></trkpt>
<trkpt lat="37.211944" lon="-121.771849"><ele>219.1</ele><time>2021-07-15T00:53:51Z</time></trkpt>
<trkpt lat="37.211851" lon="-121.771737"><ele>220.0</ele><time>2021-07-15T00:53:56Z</time></trkpt>
<trkpt lat="37.211770" lon="-121.771175"><ele>222.4</ele><time>2021-07-15T00:54:12Z</time></trkpt>
<trkpt lat="37.211686" lon="-121.770948"><ele>223.5</ele><time>2021-07-15T00:54:20Z</time></trkpt>
<trkpt lat="37.211541" lon="-121.770742"><ele>224.5</ele><time>2021-07-15T00:54:29Z</time></trkpt>
<trkpt lat="37.211474" lon="-121.770574"><ele>225.2</ele><time>2021-07-15T00:54:37Z</time></trkpt>
<trkpt lat="37.211653" lon="-121.770023"><ele>226.5</ele><time>2021-07-15T00:54:48Z</time></trkpt>
<trkpt lat="37.211654" lon="-121.769829"><ele>226.1</ele><time>2021-07-15T00:54:56Z</time></trkpt>
<trkpt lat="37.211596" lon="-121.769836"><ele>226.2</ele><time>2021-07-15T00:55:00Z</time></trkpt>
<trkpt lat="37.211566" lon="-121.769919"><ele>226.6</ele><time>2021-07-15T00:55:04Z</time></trkpt>
<trkpt lat="37.211498" lon="-121.769939"><ele>227.4</ele><time>2021-07-15T00:55:08Z</time></trkpt>
<trkpt lat="37.211442" lon="-121.770027"><ele>229.6</ele><time>2021-07-15T00:55:22Z</time></trkpt>
<trkpt lat="37.211165" lon="-121.770164"><ele>235.0</ele><time>2021-07-15T00:56:25Z</time></trkpt>
<trkpt lat="37.211025" lon="-121.770320"><ele>237.6</ele><time>2021-07-15T00:56:39Z</time></trkpt>
<trkpt lat="37.210914" lon="-121.770488"><ele>239.8</ele><time>2021-07-15T00:56:53Z</time></trkpt>
<trkpt lat="37.210886" lon="-121.770617"><ele>241.7</ele><time>2021-07-15T00:57:04Z</time></trkpt>
<trkpt lat="37.210592" lon="-121.771038"><ele>250.4</ele><time>2021-07-15T00:58:33Z</time></trkpt>
<trkpt lat="37.210565" lon="-121.771203"><ele>253.6</ele><time>2021-07-15T00:58:56Z</time></trkpt>
<trkpt lat="37.210655" lon="-121.771435"><ele>258.6</ele><time>2021-07-15T00:59:23Z</time></trkpt>
<trkpt lat="37.210637" lon="-121.771487"><ele>259.8</ele><time>2021-07-15T00:59:33Z</time></trkpt>
<trkpt lat="37.210778" lon="-121.771445"><ele>263.0</ele><time>2021-07-15T01:00:13Z</time></trkpt>
<trkpt lat="37.210641" lon="-121.771511"><ele>266.4</ele><time>2021-07-15T01:00:14Z</time></trkpt>
<trkpt lat="37.210572" lon="-121.771480"><ele>268.1</ele><time>2021-07-15T01:00:50Z</time></trkpt>
<trkpt lat="37.210507" lon="-121.771536"><ele>269.8</ele><time>2021-07-15T01:00:56Z</time></trkpt>
<trkpt lat="37.210386" lon="-121.771483"><ele>272.6</ele><time>2021-07-15T01:01:04Z</time></trkpt>
<trkpt lat="37.210262" lon="-121.771509"><ele>275.2</ele><time>2021-07-15T01:01:13Z</time></trkpt>
<trkpt lat="37.210196" lon="-121.771561"><ele>276.7</ele><time>2021-07-15T01:01:18Z</time></trkpt>
<trkpt lat="37.210209" lon="-121.771627"><ele>277.8</ele><time>2021-07-15T01:01:21Z</time></trkpt>
<trkpt lat="37.210169" lon="-121.771725"><ele>279.7</ele><time>2021-07-15T01:01:28Z</time></trkpt>
<trkpt lat="37.209971" lon="-121.772006"><ele>286.3</ele><time>2021-07-15T01:01:53Z</time></trkpt>
<trkpt lat="37.209947" lon="-121.772192"><ele>288.5</ele><time>2021-07-15T01:02:02Z</time></trkpt>
<trkpt lat="37.209963" lon="-121.772329"><ele>289.9</ele><time>2021-07-15T01:02:09Z</time></trkpt>
<trkpt lat="37.210054" lon="-121.772541"><ele>291.4</ele><time>2021-07-15T01:02:23Z</time></trkpt>
<trkpt lat="37.210514" lon="-121.773090"><ele>297.2</ele><time>2021-07-15T01:03:02Z</time></trkpt>
<trkpt lat="37.210535" lon="-121.773213"><ele>298.0</ele><time>2021-07-15T01:03:07Z</time></trkpt>
<trkpt lat="37.210509" lon="-121.773294"><ele>298.5</ele><time>2021-07-15T01:03:12Z</time></trkpt>
<trkpt lat="37.210446" lon="-121.773266"><ele>299.1</ele><time>2021-07-15T01:03:17Z</time></trkpt>
<trkpt lat="37.210480" lon="-121.773279"><ele>299.5</ele><time>2021-07-15T01:03:21Z</time></trkpt>
<trkpt lat="37.210605" lon="-121.773216"><ele>301.0</ele><time>2021-07-15T01:03:56Z</time></trkpt>
<trkpt lat="37.210611" lon="-121.773175"><ele>301.3</ele><time>2021-07-15T01:03:57Z</time></trkpt>
<trkpt lat="37.210578" lon="-121.773173"><ele>301.7</ele><time>2021-07-15T01:03:58Z</time></trkpt>
<trkpt lat="37.210404" lon="-121.773373"><ele>304.3</ele><time>2021-07-15T01:04:04Z</time></trkpt>
<trkpt lat="37.210508" lon="-121.773287"><ele>306.0</ele><time>2021-07-15T01:04:05Z</time></trkpt>
<trkpt lat="37.210517" lon="-121.773323"><ele>306.4</ele><time>2021-07-15T01:04:14Z</time></trkpt>
<trkpt lat="37.210440" lon="-121.773436"><ele>308.4</ele><time>2021-07-15T01:04:20Z</time></trkpt>
<trkpt lat="37.210279" lon="-121.773500"><ele>312.2</ele><time>2021-07-15T01:04:33Z</time></trkpt>
<trkpt lat="37.210001" lon="-121.773355"><ele>319.3</ele><time>2021-07-15T01:05:37Z</time></trkpt>
<trkpt lat="37.209846" lon="-121.773350"><ele>322.0</ele><time>2021-07-15T01:06:06Z</time></trkpt>
<trkpt lat="37.209723" lon="-121.773287"><ele>323.6</ele><time>2021-07-15T01:06:15Z</time></trkpt>
<trkpt lat="37.209547" lon="-121.773306"><ele>325.1</ele><time>2021-07-15T01:06:26Z</time></trkpt>
<trkpt lat="37.209277" lon="-121.773536"><ele>329.8</ele><time>2021-07-15T01:06:59Z</time></trkpt>
<trkpt lat="37.209213" lon="-121.773653"><ele>332.0</ele><time>2021-07-15T01:07:56Z</time></trkpt>
<trkpt lat="37.209001" lon="-121.773870"><ele>337.0</ele><time>2021-07-15T01:08:15Z</time></trkpt>
<trkpt lat="37.208976" lon="-121.773984"><ele>338.9</ele><time>2021-07-15T01:08:24Z</time></trkpt>
<trkpt lat="37.208874" lon="-121.773859"><ele>341.5</ele><time>2021-07-15T01:09:08Z</time></trkpt>
<trkpt lat="37.208975" lon="-121.773976"><ele>343.2</ele><time>2021-07-15T01:09:09Z</time></trkpt>
<trkpt lat="37.209008" lon="-121.774161"><ele>343.6</ele><time>2021-07-15T01:09:29Z</time></trkpt>
<trkpt lat="37.208975" lon="-121.774767"><ele>337.8</ele><time>2021-07-15T01:09:35Z</time></trkpt>
<trkpt lat="37.208936" lon="-121.774881"><ele>336.7</ele><time>2021-07-15T01:09:36Z</time></trkpt>
<trkpt lat="37.208694" lon="-121.775121"><ele>335.2</ele><time>2021-07-15T01:09:40Z</time></trkpt>
<trkpt lat="37.208626" lon="-121.775226"><ele>335.3</ele><time>2021-07-15T01:09:42Z</time></trkpt>
<trkpt lat="37.208626" lon="-121.775288"><ele>335.6</ele><time>2021-07-15T01:09:45Z</time></trkpt>
<trkpt lat="37.208600" lon="-121.775282"><ele>335.7</ele><time>2021-07-15T01:09:47Z</time></trkpt>
<trkpt lat="37.208529" lon="-121.775417"><ele>336.8</ele><time>2021-07-15T01:09:57Z</time></trkpt>
<trkpt lat="37.208512" lon="-121.775505"><ele>337.7</ele><time>2021-07-15T01:10:02Z</time></trkpt>
<trkpt lat="37.208395" lon="-121.775646"><ele>340.0</ele><time>2021-07-15T01:10:13Z</time></trkpt>
<trkpt lat="37.208376" lon="-121.775631"><ele>340.5</ele><time>2021-07-15T01:10:20Z</time></trkpt>
<trkpt lat="37.208455" lon="-121.775675"><ele>341.7</ele><time>2021-07-15T01:10:32Z</time></trkpt>
<trkpt lat="37.208418" lon="-121.775648"><ele>342.0</ele><time>2021-07-15T01:10:36Z</time></trkpt>
<trkpt lat="37.208303" lon="-121.775688"><ele>341.9</ele><time>2021-07-15T01:10:49Z</time></trkpt>
<trkpt lat="37.207875" lon="-121.775591"><ele>336.2</ele><time>2021-07-15T01:10:55Z</time></trkpt>
<trkpt lat="37.207462" lon="-121.775567"><ele>330.8</ele><time>2021-07-15T01:11:00Z</time></trkpt>
<trkpt lat="37.206950" lon="-121.775660"><ele>321.2</ele><time>2021-07-15T01:11:05Z</time></trkpt>
<trkpt lat="37.206478" lon="-121.775963"><ele>316.9</ele><time>2021-07-15T01:11:10Z</time></trkpt>
<trkpt lat="37.206348" lon="-121.776059"><ele>318.5</ele><time>2021-07-15T01:11:12Z</time></trkpt>
<trkpt lat="37.206252" lon="-121.776179"><ele>320.9</ele><time>2021-07-15T01:11:16Z</time></trkpt>
<trkpt lat="37.206170" lon="-121.776350"><ele>322.9</ele><time>2021-07-15T01:11:26Z</time></trkpt>
<trkpt lat="37.206156" lon="-121.776544"><ele>324.0</ele><time>2021-07-15T01:11:35Z</time></trkpt>
<trkpt lat="37.206236" lon="-121.777037"><ele>327.6</ele><time>2021-07-15T01:11:59Z</time></trkpt>
<trkpt lat="37.206165" lon="-121.777202"><ele>328.7</ele><time>2021-07-15T01:12:08Z</time></trkpt>
<trkpt lat="37.205665" lon="-121.777606"><ele>321.5</ele><time>2021-07-15T01:12:18Z</time></trkpt>
<trkpt lat="37.205059" lon="-121.777982"><ele>315.2</ele><time>2021-07-15T01:12:24Z</time></trkpt>
<trkpt lat="37.204686" lon="-121.778192"><ele>317.8</ele><time>2021-07-15T01:12:33Z</time></trkpt>
<trkpt lat="37.204609" lon="-121.778282"><ele>319.4</ele><time>2021-07-15T01:12:38Z</time></trkpt>
<trkpt lat="37.204637" lon="-121.778287"><ele>319.9</ele><time>2021-07-15T01:12:39Z</time></trkpt>
<trkpt lat="37.204277" lon="-121.778536"><ele>327.8</ele><time>2021-07-15T01:13:07Z</time></trkpt>
<trkpt lat="37.204289" lon="-121.778680"><ele>328.3</ele><time>2021-07-15T01:13:16Z</time></trkpt>
<trkpt lat="37.204251" lon="-121.778688"><ele>328.3</ele><time>2021-07-15T01:13:23Z</time></trkpt>
<trkpt lat="37.204177" lon="-121.778818"><ele>327.8</ele><time>2021-07-15T01:15:02Z</time></trkpt>
<trkpt lat="37.204264" lon="-121.778670"><ele>326.5</ele><time>2021-07-15T01:15:16Z</time></trkpt>
<trkpt lat="37.204364" lon="-121.778717"><ele>325.4</ele><time>2021-07-15T01:16:58Z</time></trkpt>
<trkpt lat="37.204377" lon="-121.778766"><ele>325.0</ele><time>2021-07-15T01:17:01Z</time></trkpt>
<trkpt lat="37.204293" lon="-121.778563"><ele>323.5</ele><time>2021-07-15T01:18:18Z</time></trkpt>
<trkpt lat="37.204380" lon="-121.778776"><ele>322.5</ele><time>2021-07-15T01:18:34Z</time></trkpt>
<trkpt lat="37.204310" lon="-121.779011"><ele>321.5</ele><time>2021-07-15T01:18:44Z</time></trkpt>
<trkpt lat="37.204103" lon="-121.779329"><ele>319.4</ele><time>2021-07-15T01:18:48Z</time></trkpt>
<trkpt lat="37.204179" lon="-121.779650"><ele>317.4</ele><time>2021-07-15T01:18:52Z</time></trkpt>
<trkpt lat="37.203874" lon="-121.780016"><ele>314.2</ele><time>2021-07-15T01:18:59Z</time></trkpt>
<trkpt lat="37.203804" lon="-121.780206"><ele>313.2</ele><time>2021-07-15T01:19:01Z</time></trkpt>
<trkpt lat="37.203807" lon="-121.780422"><ele>311.7</ele><time>2021-07-15T01:19:03Z</time></trkpt>
<trkpt lat="37.203775" lon="-121.780493"><ele>311.1</ele><time>2021-07-15T01:19:04Z</time></trkpt>
<trkpt lat="37.203654" lon="-121.780549"><ele>309.8</ele><time>2021-07-15T01:19:06Z</time></trkpt>
<trkpt lat="37.203637" lon="-121.780587"><ele>309.5</ele><time>2021-07-15T01:19:07Z</time></trkpt>
<trkpt lat="37.203707" lon="-121.780857"><ele>307.7</ele><time>2021-07-15T01:19:11Z</time></trkpt>
<trkpt lat="37.203703" lon="-121.781330"><ele>305.8</ele><time>2021-07-15T01:19:16Z</time></trkpt>
<trkpt lat="37.203756" lon="-121.781557"><ele>305.1</ele><time>2021-07-15T01:19:19Z</time></trkpt>
<trkpt lat="37.203788" lon="-121.781593"><ele>304.9</ele><time>2021-07-15T01:19:20Z</time></trkpt>
<trkpt lat="37.203819" lon="-121.781842"><ele>303.9</ele><time>2021-07-15T01:19:24Z</time></trkpt>
<trkpt lat="37.203766" lon="-121.781964"><ele>302.9</ele><time>2021-07-15T01:19:27Z</time></trkpt>
<trkpt lat="37.203784" lon="-121.782266"><ele>300.8</ele><time>2021-07-15T01:19:32Z</time></trkpt>
<trkpt lat="37.203756" lon="-121.782439"><ele>299.7</ele><time>2021-07-15T01:19:34Z</time></trkpt>
<trkpt lat="37.203800" lon="-121.782709"><ele>297.9</ele><time>2021-07-15T01:19:37Z</time></trkpt>
<trkpt lat="37.203767" lon="-121.782978"><ele>296.2</ele><time>2021-07-15T01:19:40Z</time></trkpt>
<trkpt lat="37.203773" lon="-121.783338"><ele>294.1</ele><time>2021-07-15T01:19:44Z</time></trkpt>
<trkpt lat="37.203676" lon="-121.783789"><ele>292.9</ele><time>2021-07-15T01:19:50Z</time></trkpt>
<trkpt lat="37.203680" lon="-121.784050"><ele>292.2</ele><time>2021-07-15T01:19:55Z</time></trkpt>
<trkpt lat="37.203712" lon="-121.784219"><ele>291.5</ele><time>2021-07-15T01:19:58Z</time></trkpt>
<trkpt lat="37.203851" lon="-121.784581"><ele>290.0</ele><time>2021-07-15T01:20:04Z</time></trkpt>
<trkpt lat="37.203880" lon="-121.784855"><ele>289.2</ele><time>2021-07-15T01:20:08Z</time></trkpt>
<trkpt lat="37.203916" lon="-121.784894"><ele>289.0</ele><time>2021-07-15T01:20:09Z</time></trkpt>
<trkpt lat="37.203987" lon="-121.785202"><ele>287.4</ele><time>2021-07-15T01:20:13Z</time></trkpt>
<trkpt lat="37.204082" lon="-121.785444"><ele>286.0</ele><time>2021-07-15T01:20:16Z</time></trkpt>
<trkpt lat="37.204158" lon="-121.785785"><ele>284.6</ele><time>2021-07-15T01:20:20Z</time></trkpt>
<trkpt lat="37.204185" lon="-121.786286"><ele>281.9</ele><time>2021-07-15T01:20:26Z</time></trkpt>
<trkpt lat="37.204144" lon="-121.786640"><ele>280.2</ele><time>2021-07-15T01:20:30Z</time></trkpt>
<trkpt lat="37.204163" lon="-121.786821"><ele>279.4</ele><time>2021-07-15T01:20:32Z</time></trkpt>
<trkpt lat="37.204289" lon="-121.787232"><ele>277.6</ele><time>2021-07-15T01:20:37Z</time></trkpt>
<trkpt lat="37.204272" lon="-121.787493"><ele>276.7</ele><time>2021-07-15T01:20:41Z</time></trkpt>
<trkpt lat="37.204420" lon="-121.787786"><ele>275.0</ele><time>2021-07-15T01:20:46Z</time></trkpt>
<trkpt lat="37.204716" lon="-121.788794"><ele>270.1</ele><time>2021-07-15T01:21:04Z</time></trkpt>
<trkpt lat="37.204653" lon="-121.789073"><ele>269.0</ele><time>2021-07-15T01:21:09Z</time></trkpt>
<trkpt lat="37.204670" lon="-121.789302"><ele>268.3</ele><time>2021-07-15T01:21:13Z</time></trkpt>
<trkpt lat="37.204649" lon="-121.789534"><ele>267.2</ele><time>2021-07-15T01:21:18Z</time></trkpt>
<trkpt lat="37.204725" lon="-121.789796"><ele>265.7</ele><time>2021-07-15T01:21:23Z</time></trkpt>
<trkpt lat="37.204707" lon="-121.789935"><ele>265.0</ele><time>2021-07-15T01:21:26Z</time></trkpt>
<trkpt lat="37.204745" lon="-121.790598"><ele>260.3</ele><time>2021-07-15T01:21:40Z</time></trkpt>
<trkpt lat="37.204683" lon="-121.790881"><ele>258.1</ele><time>2021-07-15T01:21:45Z</time></trkpt>
<trkpt lat="37.204680" lon="-121.791205"><ele>255.3</ele><time>2021-07-15T01:21:54Z</time></trkpt>
<trkpt lat="37.204652" lon="-121.791210"><ele>254.7</ele><time>2021-07-15T01:21:59Z</time></trkpt>
<trkpt lat="37.204794" lon="-121.791241"><ele>253.1</ele><time>2021-07-15T01:22:22Z</time></trkpt>
<trkpt lat="37.204690" lon="-121.791286"><ele>251.7</ele><time>2021-07-15T01:22:23Z</time></trkpt>
<trkpt lat="37.204814" lon="-121.791442"><ele>249.2</ele><time>2021-07-15T01:22:48Z</time></trkpt>
<trkpt lat="37.205042" lon="-121.791546"><ele>246.3</ele><time>2021-07-15T01:22:53Z</time></trkpt>
<trkpt lat="37.205331" lon="-121.791817"><ele>243.2</ele><time>2021-07-15T01:22:59Z</time></trkpt>
<trkpt lat="37.205421" lon="-121.791947"><ele>242.4</ele><time>2021-07-15T01:23:01Z</time></trkpt>
<trkpt lat="37.205519" lon="-121.792011"><ele>241.8</ele><time>2021-07-15T01:23:03Z</time></trkpt>
<trkpt lat="37.205603" lon="-121.792143"><ele>241.2</ele><time>2021-07-15T01:23:06Z</time></trkpt>
<trkpt lat="37.205685" lon="-121.792148"><ele>240.6</ele><time>2021-07-15T01:23:12Z</time></trkpt>
<trkpt lat="37.205853" lon="-121.792579"><ele>237.6</ele><time>2021-07-15T01:23:23Z</time></trkpt>
<trkpt lat="37.205855" lon="-121.792710"><ele>237.0</ele><time>2021-07-15T01:23:26Z</time></trkpt>
<trkpt lat="37.206028" lon="-121.793210"><ele>233.6</ele><time>2021-07-15T01:23:45Z</time></trkpt>
<trkpt lat="37.205997" lon="-121.793298"><ele>233.0</ele><time>2021-07-15T01:23:48Z</time></trkpt>
<trkpt lat="37.206061" lon="-121.793416"><ele>232.0</ele><time>2021-07-15T01:23:53Z</time></trkpt>
<trkpt lat="37.206062" lon="-121.793560"><ele>230.9</ele><time>2021-07-15T01:23:57Z</time></trkpt>
<trkpt lat="37.206129" lon="-121.793632"><ele>229.9</ele><time>2021-07-15T01:24:00Z</time></trkpt>
<trkpt lat="37.206153" lon="-121.793752"><ele>228.4</ele><time>2021-07-15T01:24:05Z</time></trkpt>
<trkpt lat="37.206268" lon="-121.793641"><ele>226.2</ele><time>2021-07-15T01:24:10Z</time></trkpt>
<trkpt lat="37.206280" lon="-121.793541"><ele>225.4</ele><time>2021-07-15T01:24:12Z</time></trkpt>
<trkpt lat="37.206456" lon="-121.793263"><ele>222.3</ele><time>2021-07-15T01:24:22Z</time></trkpt>
<trkpt lat="37.206457" lon="-121.793195"><ele>221.6</ele><time>2021-07-15T01:24:25Z</time></trkpt>
<trkpt lat="37.206465" lon="-121.793285"><ele>220.4</ele><time>2021-07-15T01:24:57Z</time></trkpt>
<trkpt lat="37.206451" lon="-121.793068"><ele>218.1</ele><time>2021-07-15T01:25:41Z</time></trkpt>
<trkpt lat="37.206542" lon="-121.792734"><ele>215.2</ele><time>2021-07-15T01:26:11Z</time></trkpt>
<trkpt lat="37.206556" lon="-121.792360"><ele>213.0</ele><time>2021-07-15T01:26:27Z</time></trkpt>
<trkpt lat="37.206476" lon="-121.791871"><ele>210.9</ele><time>2021-07-15T01:26:40Z</time></trkpt>
<trkpt lat="37.206498" lon="-121.791686"><ele>210.4</ele><time>2021-07-15T01:26:44Z</time></trkpt>
<trkpt lat="37.206614" lon="-121.791302"><ele>208.8</ele><time>2021-07-15T01:27:00Z</time></trkpt>
<trkpt lat="37.206622" lon="-121.790978"><ele>207.3</ele><time>2021-07-15T01:27:05Z</time></trkpt>
<trkpt lat="37.206604" lon="-121.790723"><ele>207.0</ele><time>2021-07-15T01:27:09Z</time></trkpt>
<trkpt lat="37.206576" lon="-121.790700"><ele>206.9</ele><time>2021-07-15T01:27:11Z</time></trkpt>
<trkpt lat="37.206570" lon="-121.790079"><ele>207.8</ele><time>2021-07-15T01:27:33Z</time></trkpt>
<trkpt lat="37.206709" lon="-121.789819"><ele>206.7</ele><time>2021-07-15T01:28:24Z</time></trkpt>
<trkpt lat="37.206730" lon="-121.789514"><ele>204.4</ele><time>2021-07-15T01:28:33Z</time></trkpt>
<trkpt lat="37.206762" lon="-121.789423"><ele>203.6</ele><time>2021-07-15T01:28:36Z</time></trkpt>
<trkpt lat="37.206768" lon="-121.788490"><ele>198.8</ele><time>2021-07-15T01:28:52Z</time></trkpt>
<trkpt lat="37.206862" lon="-121.788187"><ele>197.1</ele><time>2021-07-15T01:28:56Z</time></trkpt>
<trkpt lat="37.206854" lon="-121.788034"><ele>196.4</ele><time>2021-07-15T01:28:58Z</time></trkpt>
<trkpt lat="37.206902" lon="-121.787929"><ele>195.9</ele><time>2021-07-15T01:29:00Z</time></trkpt>
<trkpt lat="37.206954" lon="-121.787925"><ele>195.7</ele><time>2021-07-15T01:29:01Z</time></trkpt>
<trkpt lat="37.206993" lon="-121.787780"><ele>195.2</ele><time>2021-07-15T01:29:04Z</time></trkpt>
<trkpt lat="37.206970" lon="-121.787561"><ele>194.7</ele><time>2021-07-15T01:29:08Z</time></trkpt>
<trkpt lat="37.206988" lon="-121.787343"><ele>193.7</ele><time>2021-07-15T01:29:12Z</time></trkpt>
<trkpt lat="37.207037" lon="-121.787341"><ele>193.2</ele><time>2021-07-15T01:29:13Z</time></trkpt>
<trkpt lat="37.207173" lon="-121.787579"><ele>190.5</ele><time>2021-07-15T01:29:17Z</time></trkpt>
<trkpt lat="37.207179" lon="-121.787799"><ele>188.7</ele><time>2021-07-15T01:29:21Z</time></trkpt>
<trkpt lat="37.207232" lon="-121.787891"><ele>187.7</ele><time>2021-07-15T01:29:23Z</time></trkpt>
<trkpt lat="37.207251" lon="-121.788112"><ele>185.6</ele><time>2021-07-15T01:29:26Z</time></trkpt>
<trkpt lat="37.207315" lon="-121.788272"><ele>183.7</ele><time>2021-07-15T01:29:29Z</time></trkpt>
<trkpt lat="37.207426" lon="-121.788438"><ele>181.2</ele><time>2021-07-15T01:29:32Z</time></trkpt>
<trkpt lat="37.207487" lon="-121.788812"><ele>178.2</ele><time>2021-07-15T01:29:36Z</time></trkpt>
<trkpt lat="37.207495" lon="-121.789080"><ele>176.9</ele><time>2021-07-15T01:29:39Z</time></trkpt>
<trkpt lat="37.207585" lon="-121.789288"><ele>176.1</ele><time>2021-07-15T01:29:42Z</time></trkpt>
<trkpt lat="37.207689" lon="-121.789391"><ele>175.6</ele><time>2021-07-15T01:29:44Z</time></trkpt>
<trkpt lat="37.207714" lon="-121.789457"><ele>175.4</ele><time>2021-07-15T01:29:45Z</time></trkpt>
<trkpt lat="37.207649" lon="-121.789623"><ele>174.5</ele><time>2021-07-15T01:29:48Z</time></trkpt>
<trkpt lat="37.207605" lon="-121.789954"><ele>172.9</ele><time>2021-07-15T01:29:52Z</time></trkpt>
<trkpt lat="37.207631" lon="-121.790028"><ele>172.5</ele><time>2021-07-15T01:29:53Z</time></trkpt>
<trkpt lat="37.207689" lon="-121.790084"><ele>172.1</ele><time>2021-07-15T01:29:54Z</time></trkpt>
<trkpt lat="37.207742" lon="-121.790261"><ele>171.3</ele><time>2021-07-15T01:29:57Z</time></trkpt>
<trkpt lat="37.207799" lon="-121.790225"><ele>170.8</ele><time>2021-07-15T01:29:59Z</time></trkpt>
<trkpt lat="37.207829" lon="-121.790120"><ele>169.9</ele><time>2021-07-15T01:30:01Z</time></trkpt>
<trkpt lat="37.208044" lon="-121.790088"><ele>168.9</ele><time>2021-07-15T01:30:10Z</time></trkpt>
<trkpt lat="37.208064" lon="-121.790119"><ele>168.6</ele><time>2021-07-15T01:30:11Z</time></trkpt>
<trkpt lat="37.208102" lon="-121.790496"><ele>165.5</ele><time>2021-07-15T01:30:16Z</time></trkpt>
<trkpt lat="37.208265" lon="-121.790996"><ele>162.4</ele><time>2021-07-15T01:30:21Z</time></trkpt>
<trkpt lat="37.208279" lon="-121.791505"><ele>160.6</ele><time>2021-07-15T01:30:26Z</time></trkpt>
<trkpt lat="37.208444" lon="-121.791826"><ele>159.4</ele><time>2021-07-15T01:30:30Z</time></trkpt>
<trkpt lat="37.208487" lon="-121.791990"><ele>158.8</ele><time>2021-07-15T01:30:32Z</time></trkpt>
<trkpt lat="37.208972" lon="-121.792654"><ele>154.3</ele><time>2021-07-15T01:30:42Z</time></trkpt>
<trkpt lat="37.209088" lon="-121.792721"><ele>153.5</ele><time>2021-07-15T01:30:44Z</time></trkpt>
<trkpt lat="37.209295" lon="-121.792708"><ele>152.9</ele><time>2021-07-15T01:30:47Z</time></trkpt>
<trkpt lat="37.209409" lon="-121.792658"><ele>153.0</ele><time>2021-07-15T01:30:49Z</time></trkpt>
<trkpt lat="37.209687" lon="-121.792362"><ele>155.4</ele><time>2021-07-15T01:31:03Z</time></trkpt>
<trkpt lat="37.209891" lon="-121.792220"><ele>157.4</ele><time>2021-07-15T01:31:15Z</time></trkpt>
<trkpt lat="37.209968" lon="-121.792064"><ele>158.8</ele><time>2021-07-15T01:31:22Z</time></trkpt>
<trkpt lat="37.210217" lon="-121.791942"><ele>160.9</ele><time>2021-07-15T01:31:34Z</time></trkpt>
<trkpt lat="37.210447" lon="-121.791698"><ele>162.8</ele><time>2021-07-15T01:31:51Z</time></trkpt>
<trkpt lat="37.210793" lon="-121.791524"><ele>163.6</ele><time>2021-07-15T01:32:03Z</time></trkpt>
<trkpt lat="37.210855" lon="-121.791440"><ele>163.8</ele><time>2021-07-15T01:32:05Z</time></trkpt>
<trkpt lat="37.211120" lon="-121.791264"><ele>164.7</ele><time>2021-07-15T01:32:16Z</time></trkpt>
<trkpt lat="37.211190" lon="-121.791136"><ele>165.2</ele><time>2021-07-15T01:32:21Z</time></trkpt>
<trkpt lat="37.211154" lon="-121.791117"><ele>165.4</ele><time>2021-07-15T01:32:23Z</time></trkpt>
<trkpt lat="37.211191" lon="-121.791120"><ele>165.5</ele><time>2021-07-15T01:32:24Z</time></trkpt>
<trkpt lat="37.211274" lon="-121.791001"><ele>166.1</ele><time>2021-07-15T01:32:27Z</time></trkpt>
<trkpt lat="37.211516" lon="-121.790415"><ele>168.7</ele><time>2021-07-15T01:32:54Z</time></trkpt>
<trkpt lat="37.211692" lon="-121.790096"><ele>170.5</ele><time>2021-07-15T01:33:10Z</time></trkpt>
<trkpt lat="37.211933" lon="-121.789988"><ele>171.2</ele><time>2021-07-15T01:33:22Z</time></trkpt>
<trkpt lat="37.212008" lon="-121.789817"><ele>171.4</ele><time>2021-07-15T01:33:28Z</time></trkpt>
<trkpt lat="37.212102" lon="-121.789259"><ele>172.2</ele><time>2021-07-15T01:33:44Z</time></trkpt>
<trkpt lat="37.212181" lon="-121.789190"><ele>172.4</ele><time>2021-07-15T01:33:47Z</time></trkpt>
<trkpt lat="37.212332" lon="-121.789207"><ele>171.8</ele><time>2021-07-15T01:33:53Z</time></trkpt>
<trkpt lat="37.212357" lon="-121.789156"><ele>171.6</ele><time>2021-07-15T01:33:55Z</time></trkpt>
<trkpt lat="37.212406" lon="-121.789153"><ele>171.5</ele><time>2021-07-15T01:33:56Z</time></trkpt>
<trkpt lat="37.212473" lon="-121.789014"><ele>171.1</ele><time>2021-07-15T01:34:00Z</time></trkpt>
<trkpt lat="37.212525" lon="-121.788314"><ele>173.2</ele><time>2021-07-15T01:34:20Z</time></trkpt>
<trkpt lat="37.212511" lon="-121.788172"><ele>174.0</ele><time>2021-07-15T01:34:26Z</time></trkpt>
<trkpt lat="37.212580" lon="-121.787902"><ele>175.5</ele><time>2021-07-15T01:34:36Z</time></trkpt>
<trkpt lat="37.212586" lon="-121.787767"><ele>176.1</ele><time>2021-07-15T01:34:41Z</time></trkpt>
<trkpt lat="37.212743" lon="-121.787392"><ele>176.7</ele><time>2021-07-15T01:34:56Z</time></trkpt>
<trkpt lat="37.212810" lon="-121.787328"><ele>176.7</ele><time>2021-07-15T01:34:58Z</time></trkpt>
<trkpt lat="37.213023" lon="-121.786819"><ele>177.2</ele><time>2021-07-15T01:35:12Z</time></trkpt>
<trkpt lat="37.213071" lon="-121.786445"><ele>177.9</ele><time>2021-07-15T01:35:23Z</time></trkpt>
<trkpt lat="37.213188" lon="-121.786030"><ele>178.9</ele><time>2021-07-15T01:35:33Z</time></trkpt>
<trkpt lat="37.213332" lon="-121.785833"><ele>179.1</ele><time>2021-07-15T01:35:42Z</time></trkpt>
<trkpt lat="37.213443" lon="-121.785748"><ele>179.1</ele><time>2021-07-15T01:35:45Z</time></trkpt>
<trkpt lat="37.213725" lon="-121.785624"><ele>179.0</ele><time>2021-07-15T01:35:56Z</time></trkpt>
<trkpt lat="37.213771" lon="-121.785566"><ele>179.0</ele><time>2021-07-15T01:35:59Z</time></trkpt>
<trkpt lat="37.214004" lon="-121.785542"><ele>178.4</ele><time>2021-07-15T01:36:05Z</time></trkpt>
<trkpt lat="37.214017" lon="-121.785460"><ele>178.2</ele><time>2021-07-15T01:36:07Z</time></trkpt>
<trkpt lat="37.213840" lon="-121.785089"><ele>176.7</ele><time>2021-07-15T01:36:14Z</time></trkpt>
<trkpt lat="37.213593" lon="-121.784888"><ele>177.4</ele><time>2021-07-15T01:36:19Z</time></trkpt>
<trkpt lat="37.213376" lon="-121.784545"><ele>179.4</ele><time>2021-07-15T01:36:38Z</time></trkpt>
<trkpt lat="37.213310" lon="-121.784375"><ele>180.3</ele><time>2021-07-15T01:36:45Z</time></trkpt>
<trkpt lat="37.213211" lon="-121.783865"><ele>182.6</ele><time>2021-07-15T01:37:07Z</time></trkpt>
<trkpt lat="37.213002" lon="-121.783512"><ele>182.3</ele><time>2021-07-15T01:37:14Z</time></trkpt>
<trkpt lat="37.212967" lon="-121.783359"><ele>182.4</ele><time>2021-07-15T01:37:17Z</time></trkpt>
<trkpt lat="37.212969" lon="-121.782841"><ele>184.6</ele><time>2021-07-15T01:37:34Z</time></trkpt>
<trkpt lat="37.212876" lon="-121.782564"><ele>188.8</ele><time>2021-07-15T01:37:53Z</time></trkpt>
<trkpt lat="37.212873" lon="-121.782469"><ele>190.5</ele><time>2021-07-15T01:37:58Z</time></trkpt>
<trkpt lat="37.212876" lon="-121.782442"><ele>197.1</ele><time>2021-07-15T01:37:59Z</time></trkpt>
<trkpt lat="37.212870" lon="-121.782384"><ele>197.1</ele><time>2021-07-15T01:38:03Z</time></trkpt>
<trkpt lat="37.212883" lon="-121.782327"><ele>197.2</ele><time>2021-07-15T01:38:07Z</time></trkpt>
<trkpt lat="37.212913" lon="-121.782324"><ele>198.4</ele><time>2021-07-15T01:38:08Z</time></trkpt>
<trkpt lat="37.213134" lon="-121.782506"><ele>199.9</ele><time>2021-07-15T01:38:23Z</time></trkpt>
<trkpt lat="37.213325" lon="-121.782526"><ele>202.7</ele><time>2021-07-15T01:38:32Z</time></trkpt>
<trkpt lat="37.213500" lon="-121.782478"><ele>205.3</ele><time>2021-07-15T01:38:44Z</time></trkpt>
<trkpt lat="37.213538" lon="-121.782382"><ele>206.5</ele><time>2021-07-15T01:38:52Z</time></trkpt>
<trkpt lat="37.213560" lon="-121.782185"><ele>208.9</ele><time>2021-07-15T01:39:06Z</time></trkpt>
<trkpt lat="37.213539" lon="-121.782237"><ele>209.8</ele><time>2021-07-15T01:39:46Z</time></trkpt>
<trkpt lat="37.213463" lon="-121.781979"><ele>214.4</ele><time>2021-07-15T01:40:06Z</time></trkpt>
<trkpt lat="37.213351" lon="-121.781859"><ele>216.8</ele><time>2021-07-15T01:40:16Z</time></trkpt>
<trkpt lat="37.213242" lon="-121.781635"><ele>218.7</ele><time>2021-07-15T01:40:31Z</time></trkpt>
<trkpt lat="37.213236" lon="-121.781359"><ele>218.0</ele><time>2021-07-15T01:40:53Z</time></trkpt>
<trkpt lat="37.213231" lon="-121.781400"><ele>217.6</ele><time>2021-07-15T01:41:01Z</time></trkpt>
<trkpt lat="37.213209" lon="-121.781281"><ele>216.8</ele><time>2021-07-15T01:41:57Z</time></trkpt>
<trkpt lat="37.213263" lon="-121.781105"><ele>215.3</ele><time>2021-07-15T01:42:01Z</time></trkpt>
<trkpt lat="37.213397" lon="-121.780852"><ele>211.5</ele><time>2021-07-15T01:42:05Z</time></trkpt>
<trkpt lat="37.213674" lon="-121.780502"><ele>205.1</ele><time>2021-07-15T01:42:10Z</time></trkpt>
<trkpt lat="37.213611" lon="-121.779839"><ele>198.7</ele><time>2021-07-15T01:42:17Z</time></trkpt>
<trkpt lat="37.213619" lon="-121.779480"><ele>196.1</ele><time>2021-07-15T01:42:20Z</time></trkpt>
<trkpt lat="37.213655" lon="-121.779353"><ele>195.3</ele><time>2021-07-15T01:42:21Z</time></trkpt>
<trkpt lat="37.213808" lon="-121.778997"><ele>195.4</ele><time>2021-07-15T01:42:24Z</time></trkpt>
<trkpt lat="37.214051" lon="-121.778816"><ele>198.3</ele><time>2021-07-15T01:42:28Z</time></trkpt>
<trkpt lat="37.214134" lon="-121.778644"><ele>199.5</ele><time>2021-07-15T01:42:33Z</time></trkpt>
<trkpt lat="37.214119" lon="-121.778520"><ele>199.9</ele><time>2021-07-15T01:42:37Z</time></trkpt>
<trkpt lat="37.213970" lon="-121.778290"><ele>199.8</ele><time>2021-07-15T01:42:47Z</time></trkpt>
<trkpt lat="37.213948" lon="-121.778176"><ele>199.1</ele><time>2021-07-15T01:42:49Z</time></trkpt>
<trkpt lat="37.214011" lon="-121.778052"><ele>197.8</ele><time>2021-07-15T01:42:52Z</time></trkpt>
<trkpt lat="37.213978" lon="-121.777981"><ele>196.9</ele><time>2021-07-15T01:42:54Z</time></trkpt>
<trkpt lat="37.214080" lon="-121.777815"><ele>194.0</ele><time>2021-07-15T01:42:57Z</time></trkpt>
<trkpt lat="37.214087" lon="-121.777699"><ele>192.4</ele><time>2021-07-15T01:42:58Z</time></trkpt>
<trkpt lat="37.214042" lon="-121.777496"><ele>190.1</ele><time>2021-07-15T01:43:00Z</time></trkpt>
<trkpt lat="37.214212" lon="-121.776925"><ele>190.6</ele><time>2021-07-15T01:43:08Z</time></trkpt>
<trkpt lat="37.214192" lon="-121.776752"><ele>191.4</ele><time>2021-07-15T01:43:13Z</time></trkpt>
<trkpt lat="37.214251" lon="-121.776457"><ele>194.3</ele><time>2021-07-15T01:44:06Z</time></trkpt>
<trkpt lat="37.214234" lon="-121.776515"><ele>194.8</ele><time>2021-07-15T01:44:10Z</time></trkpt>
<trkpt lat="37.214118" lon="-121.776067"><ele>193.6</ele><time>2021-07-15T01:44:24Z</time></trkpt>
<trkpt lat="37.214097" lon="-121.775825"><ele>190.3</ele><time>2021-07-15T01:44:27Z</time></trkpt>
<trkpt lat="37.214365" lon="-121.775067"><ele>174.1</ele><time>2021-07-15T01:44:36Z</time></trkpt>
<trkpt lat="37.214576" lon="-121.774269"><ele>166.4</ele><time>2021-07-15T01:44:43Z</time></trkpt>
<trkpt lat="37.214583" lon="-121.774198"><ele>165.8</ele><time>2021-07-15T01:44:44Z</time></trkpt>
<trkpt lat="37.214499" lon="-121.773919"><ele>161.9</ele><time>2021-07-15T01:44:49Z</time></trkpt>
<trkpt lat="37.214553" lon="-121.773857"><ele>160.2</ele><time>2021-07-15T01:44:50Z</time></trkpt>
<trkpt lat="37.214571" lon="-121.773747"><ele>158.0</ele><time>2021-07-15T01:44:52Z</time></trkpt>
<trkpt lat="37.214525" lon="-121.773524"><ele>154.7</ele><time>2021-07-15T01:44:56Z</time></trkpt>
<trkpt lat="37.214426" lon="-121.773565"><ele>154.2</ele><time>2021-07-15T01:45:00Z</time></trkpt>
<trkpt lat="37.214432" lon="-121.773592"><ele>154.2</ele><time>2021-07-15T01:45:01Z</time></trkpt>
<trkpt lat="37.214316" lon="-121.773687"><ele>155.2</ele><time>2021-07-15T01:45:07Z</time></trkpt>
<trkpt lat="37.214272" lon="-121.773780"><ele>156.2</ele><time>2021-07-15T01:45:15Z</time></trkpt>
<trkpt lat="37.214164" lon="-121.773806"><ele>157.7</ele><time>2021-07-15T01:45:20Z</time></trkpt>
<trkpt lat="37.214010" lon="-121.773690"><ele>159.1</ele><time>2021-07-15T01:45:29Z</time></trkpt>
<trkpt lat="37.213956" lon="-121.773604"><ele>159.3</ele><time>2021-07-15T01:45:34Z</time></trkpt>
<trkpt lat="37.213950" lon="-121.773374"><ele>158.9</ele><time>2021-07-15T01:45:39Z</time></trkpt>
<trkpt lat="37.214033" lon="-121.773241"><ele>158.6</ele><time>2021-07-15T01:45:42Z</time></trkpt>
<trkpt lat="37.214159" lon="-121.773132"><ele>158.5</ele><time>2021-07-15T01:45:46Z</time></trkpt>
<trkpt lat="37.214200" lon="-121.773131"><ele>158.5</ele><time>2021-07-15T01:45:54Z</time></trkpt>
<trkpt lat="37.214182" lon="-121.773078"><ele>158.3</ele><time>2021-07-15T01:46:05Z</time></trkpt>
<trkpt lat="37.214204" lon="-121.773079"><ele>158.2</ele><time>2021-07-15T01:46:07Z</time></trkpt>
<trkpt lat="37.214171" lon="-121.773078"><ele>157.9</ele><time>2021-07-15T01:46:09Z</time></trkpt>
<trkpt lat="37.214207" lon="-121.773004"><ele>157.2</ele><time>2021-07-15T01:46:12Z</time></trkpt>
<trkpt lat="37.214323" lon="-121.772889"><ele>155.1</ele><time>2021-07-15T01:46:14Z</time></trkpt>
<trkpt lat="37.214557" lon="-121.772776"><ele>149.4</ele><time>2021-07-15T01:46:17Z</time></trkpt>
<trkpt lat="37.214626" lon="-121.772761"><ele>147.7</ele><time>2021-07-15T01:46:18Z</time></trkpt>
<trkpt lat="37.214746" lon="-121.772823"><ele>144.8</ele><time>2021-07-15T01:46:19Z</time></trkpt>
<trkpt lat="37.215017" lon="-121.772837"><ele>139.9</ele><time>2021-07-15T01:46:22Z</time></trkpt>
<trkpt lat="37.215173" lon="-121.772892"><ele>137.2</ele><time>2021-07-15T01:46:24Z</time></trkpt>
<trkpt lat="37.215263" lon="-121.772957"><ele>135.6</ele><time>2021-07-15T01:46:25Z</time></trkpt>
<trkpt lat="37.215398" lon="-121.773425"><ele>131.4</ele><time>2021-07-15T01:46:29Z</time></trkpt>
<trkpt lat="37.215475" lon="-121.773533"><ele>130.0</ele><time>2021-07-15T01:46:31Z</time></trkpt>
<trkpt lat="37.215665" lon="-121.773498"><ele>127.1</ele><time>2021-07-15T01:46:34Z</time></trkpt>
<trkpt lat="37.215827" lon="-121.773643"><ele>122.8</ele><time>2021-07-15T01:46:37Z</time></trkpt>
<trkpt lat="37.216076" lon="-121.774091"><ele>112.9</ele><time>2021-07-15T01:46:41Z</time></trkpt>
<trkpt lat="37.216095" lon="-121.774164"><ele>111.8</ele><time>2021-07-15T01:46:42Z</time></trkpt>
<trkpt lat="37.216071" lon="-121.774533"><ele>106.3</ele><time>2021-07-15T01:46:47Z</time></trkpt>
<trkpt lat="37.216137" lon="-121.774611"><ele>104.0</ele><time>2021-07-15T01:46:49Z</time></trkpt>
<trkpt lat="37.216286" lon="-121.774622"><ele>103.1</ele><time>2021-07-15T01:46:51Z</time></trkpt>
<trkpt lat="37.216360" lon="-121.774558"><ele>102.8</ele><time>2021-07-15T01:46:52Z</time></trkpt>
<trkpt lat="37.216458" lon="-121.774277"><ele>102.6</ele><time>2021-07-15T01:46:56Z</time></trkpt>
<trkpt lat="37.216457" lon="-121.774213"><ele>102.5</ele><time>2021-07-15T01:46:57Z</time></trkpt>
<trkpt lat="37.216368" lon="-121.774007"><ele>101.5</ele><time>2021-07-15T01:47:02Z</time></trkpt>
<trkpt lat="37.216406" lon="-121.773893"><ele>100.6</ele><time>2021-07-15T01:47:04Z</time></trkpt>
<trkpt lat="37.216470" lon="-121.773801"><ele>99.8</ele><time>2021-07-15T01:47:05Z</time></trkpt>
<trkpt lat="37.216762" lon="-121.773681"><ele>97.3</ele><time>2021-07-15T01:47:09Z</time></trkpt>
<trkpt lat="37.216892" lon="-121.773581"><ele>95.8</ele><time>2021-07-15T01:47:11Z</time></trkpt>
<trkpt lat="37.217099" lon="-121.773371"><ele>94.7</ele><time>2021-07-15T01:47:14Z</time></trkpt>
<trkpt lat="37.217150" lon="-121.773277"><ele>95.0</ele><time>2021-07-15T01:47:16Z</time></trkpt>
<trkpt lat="37.216982" lon="-121.772747"><ele>99.3</ele><time>2021-07-15T01:47:41Z</time></trkpt>
<trkpt lat="37.216932" lon="-121.772686"><ele>100.2</ele><time>2021-07-15T01:47:46Z</time></trkpt>
<trkpt lat="37.216919" lon="-121.772581"><ele>101.2</ele><time>2021-07-15T01:47:51Z</time></trkpt>
<trkpt lat="37.216818" lon="-121.772438"><ele>102.8</ele><time>2021-07-15T01:48:01Z</time></trkpt>
<trkpt lat="37.216608" lon="-121.772319"><ele>104.9</ele><time>2021-07-15T01:48:17Z</time></trkpt>
<trkpt lat="37.216323" lon="-121.772343"><ele>106.9</ele><time>2021-07-15T01:48:35Z</time></trkpt>
<trkpt lat="37.216234" lon="-121.772238"><ele>107.5</ele><time>2021-07-15T01:48:39Z</time></trkpt>
<trkpt lat="37.216232" lon="-121.772161"><ele>107.9</ele><time>2021-07-15T01:48:44Z</time></trkpt>
<trkpt lat="37.216184" lon="-121.772089"><ele>108.2</ele><time>2021-07-15T01:48:48Z</time></trkpt>
<trkpt lat="37.216131" lon="-121.771888"><ele>108.4</ele><time>2021-07-15T01:48:59Z</time></trkpt>
<trkpt lat="37.215868" lon="-121.771691"><ele>106.5</ele><time>2021-07-15T01:49:04Z</time></trkpt>
<trkpt lat="37.215546" lon="-121.771576"><ele>106.4</ele><time>2021-07-15T01:49:11Z</time></trkpt>
<trkpt lat="37.215432" lon="-121.771486"><ele>105.6</ele><time>2021-07-15T01:49:13Z</time></trkpt>
<trkpt lat="37.215360" lon="-121.771239"><ele>104.2</ele><time>2021-07-15T01:49:16Z</time></trkpt>
<trkpt lat="37.215143" lon="-121.770831"><ele>103.3</ele><time>2021-07-15T01:49:21Z</time></trkpt>
<trkpt lat="37.214951" lon="-121.770687"><ele>103.3</ele><time>2021-07-15T01:49:26Z</time></trkpt>
<trkpt lat="37.214815" lon="-121.770682"><ele>102.9</ele><time>2021-07-15T01:49:28Z</time></trkpt>
<trkpt lat="37.214758" lon="-121.770630"><ele>102.7</ele><time>2021-07-15T01:49:29Z</time></trkpt>
<trkpt lat="37.214749" lon="-121.770490"><ele>102.2</ele><time>2021-07-15T01:49:33Z</time></trkpt>
<trkpt lat="37.215120" lon="-121.770259"><ele>100.7</ele><time>2021-07-15T01:49:43Z</time></trkpt>
<trkpt lat="37.215414" lon="-121.770260"><ele>100.3</ele><time>2021-07-15T01:49:47Z</time></trkpt>
<trkpt lat="37.215573" lon="-121.770156"><ele>99.9</ele><time>2021-07-15T01:49:51Z</time></trkpt>
<trkpt lat="37.215698" lon="-121.769903"><ele>97.7</ele><time>2021-07-15T01:49:56Z</time></trkpt>
<trkpt lat="37.215734" lon="-121.769489"><ele>94.8</ele><time>2021-07-15T01:50:01Z</time></trkpt>
<trkpt lat="37.215792" lon="-121.769436"><ele>94.6</ele><time>2021-07-15T01:50:02Z</time></trkpt>
<trkpt lat="37.215921" lon="-121.769411"><ele>94.3</ele><time>2021-07-15T01:50:04Z</time></trkpt>
<trkpt lat="37.216089" lon="-121.769280"><ele>93.6</ele><time>2021-07-15T01:50:08Z</time></trkpt>
<trkpt lat="37.216124" lon="-121.768960"><ele>92.3</ele><time>2021-07-15T01:50:13Z</time></trkpt>
<trkpt lat="37.216183" lon="-121.768856"><ele>91.6</ele><time>2021-07-15T01:50:15Z</time></trkpt>
<trkpt lat="37.216305" lon="-121.768815"><ele>90.5</ele><time>2021-07-15T01:50:17Z</time></trkpt>
<trkpt lat="37.216680" lon="-121.768848"><ele>86.9</ele><time>2021-07-15T01:50:22Z</time></trkpt>
<trkpt lat="37.216773" lon="-121.768737"><ele>85.6</ele><time>2021-07-15T01:50:24Z</time></trkpt>
<trkpt lat="37.216843" lon="-121.768582"><ele>84.2</ele><time>2021-07-15T01:50:26Z</time></trkpt>
<trkpt lat="37.216919" lon="-121.768004"><ele>81.7</ele><time>2021-07-15T01:50:33Z</time></trkpt>
<trkpt lat="37.217086" lon="-121.767859"><ele>80.9</ele><time>2021-07-15T01:50:39Z</time></trkpt>
<trkpt lat="37.217632" lon="-121.767649"><ele>73.3</ele><time>2021-07-15T01:50:48Z</time></trkpt>
<trkpt lat="37.217859" lon="-121.767632"><ele>70.1</ele><time>2021-07-15T01:50:51Z</time></trkpt>
<trkpt lat="37.218079" lon="-121.767802"><ele>69.1</ele><time>2021-07-15T01:50:54Z</time></trkpt>
<trkpt lat="37.218147" lon="-121.767806"><ele>68.6</ele><time>2021-07-15T01:50:55Z</time></trkpt>
<trkpt lat="37.218289" lon="-121.767717"><ele>67.8</ele><time>2021-07-15T01:50:57Z</time></trkpt>
<trkpt lat="37.218365" lon="-121.767713"><ele>67.4</ele><time>2021-07-15T01:50:58Z</time></trkpt>
<trkpt lat="37.218568" lon="-121.767784"><ele>67.2</ele><time>2021-07-15T01:51:01Z</time></trkpt>
<trkpt lat="37.218862" lon="-121.768037"><ele>67.0</ele><time>2021-07-15T01:51:06Z</time></trkpt>
<trkpt lat="37.219143" lon="-121.768208"><ele>66.8</ele><time>2021-07-15T01:51:10Z</time></trkpt>
<trkpt lat="37.219777" lon="-121.768889"><ele>66.2</ele><time>2021-07-15T01:51:22Z</time></trkpt>
<trkpt lat="37.219960" lon="-121.768937"><ele>66.2</ele><time>2021-07-15T01:51:25Z</time></trkpt>
<trkpt lat="37.220087" lon="-121.769012"><ele>66.1</ele><time>2021-07-15T01:51:29Z</time></trkpt>
<trkpt lat="37.220068" lon="-121.769004"><ele>66.0</ele><time>2021-07-15T01:51:35Z</time></trkpt>
</trkseg></trk>
</gpx>
