<?xml version="1.0" encoding="UTF-8"?>
<gpx version="1.1" creator="Eric Sichak trip reports" xmlns="http://www.topografix.com/GPX/1/1">
<metadata><name>Scoping out the emerald bay chutes</name><time>2025-02-22T17:24:54Z</time></metadata>
<trk><name>Scoping out the emerald bay chutes</name><type>ski</type><trkseg>
<trkpt lat="38.975395" lon="-120.100309"><ele>2088.6</ele><time>2025-02-22T17:24:54Z</time></trkpt>
<trkpt lat="38.975386" lon="-120.100338"><ele>2088.6</ele><time>2025-02-22T17:25:08Z</time></trkpt>
<trkpt lat="38.975433" lon="-120.100375"><ele>2088.0</ele><time>2025-02-22T17:25:14Z</time></trkpt>
<trkpt lat="38.975682" lon="-120.100537"><ele>2089.0</ele><time>2025-02-22T17:25:34Z</time></trkpt>
<trkpt lat="38.975811" lon="-120.100734"><ele>2087.4</ele><time>2025-02-22T17:26:49Z</time></trkpt>
<trkpt lat="38.976007" lon="-120.101415"><ele>2090.6</ele><time>2025-02-22T17:27:48Z</time></trkpt>
<trkpt lat="38.976006" lon="-120.101570"><ele>2092.8</ele><time>2025-02-22T17:28:11Z</time></trkpt>
<trkpt lat="38.975891" lon="-120.101773"><ele>2097.2</ele><time>2025-02-22T17:28:51Z</time></trkpt>
<trkpt lat="38.975777" lon="-120.101861"><ele>2100.4</ele><time>2025-02-22T17:29:15Z</time></trkpt>
<trkpt lat="38.975546" lon="-120.102374"><ele>2107.0</ele><time>2025-02-22T17:30:20Z</time></trkpt>
<trkpt lat="38.975399" lon="-120.102407"><ele>2107.8</ele><time>2025-02-22T17:30:39Z</time></trkpt>
<trkpt lat="38.975258" lon="-120.102522"><ele>2110.8</ele><time>2025-02-22T17:31:06Z</time></trkpt>
<trkpt lat="38.975108" lon="-120.102798"><ele>2112.4</ele><time>2025-02-22T17:31:45Z</time></trkpt>
<trkpt lat="38.975028" lon="-120.103184"><ele>2114.6</ele><time>2025-02-22T17:32:30Z</time></trkpt>
<trkpt lat="38.975001" lon="-120.103468"><ele>2119.4</ele><time>2025-02-22T17:33:17Z</time></trkpt>
<trkpt lat="38.974821" lon="-120.103757"><ele>2126.0</ele><time>2025-02-22T17:34:14Z</time></trkpt>
<trkpt lat="38.974720" lon="-120.103859"><ele>2127.0</ele><time>2025-02-22T17:34:34Z</time></trkpt>
<trkpt lat="38.974603" lon="-120.104339"><ele>2132.0</ele><time>2025-02-22T17:35:54Z</time></trkpt>
<trkpt lat="38.974603" lon="-120.104439"><ele>2131.4</ele><time>2025-02-22T17:36:56Z</time></trkpt>
<trkpt lat="38.974596" lon="-120.104375"><ele>2134.4</ele><time>2025-02-22T17:37:42Z</time></trkpt>
<trkpt lat="38.974617" lon="-120.104426"><ele>2134.4</ele><time>2025-02-22T17:37:56Z</time></trkpt>
<trkpt lat="38.974595" lon="-120.104336"><ele>2135.0</ele><time>2025-02-22T17:39:00Z</time></trkpt>
<trkpt lat="38.974640" lon="-120.104419"><ele>2137.4</ele><time>2025-02-22T17:39:34Z</time></trkpt>
<trkpt lat="38.974573" lon="-120.104592"><ele>2144.2</ele><time>2025-02-22T17:40:12Z</time></trkpt>
<trkpt lat="38.974610" lon="-120.104781"><ele>2151.4</ele><time>2025-02-22T17:41:00Z</time></trkpt>
<trkpt lat="38.974532" lon="-120.104811"><ele>2153.8</ele><time>2025-02-22T17:41:18Z</time></trkpt>
<trkpt lat="38.974543" lon="-120.104842"><ele>2155.0</ele><time>2025-02-22T17:41:25Z</time></trkpt>
<trkpt lat="38.974497" lon="-120.104939"><ele>2158.8</ele><time>2025-02-22T17:41:51Z</time></trkpt>
<trkpt lat="38.974572" lon="-120.105071"><ele>2163.0</ele><time>2025-02-22T17:42:18Z</time></trkpt>
<trkpt lat="38.974591" lon="-120.105138"><ele>2165.2</ele><time>2025-02-22T17:42:40Z</time></trkpt>
<trkpt lat="38.974584" lon="-120.105128"><ele>2161.4</ele><time>2025-02-22T17:43:11Z</time></trkpt>
<trkpt lat="38.974591" lon="-120.105218"><ele>2162.4</ele><time>2025-02-22T17:43:28Z</time></trkpt>
<trkpt lat="38.974710" lon="-120.105513"><ele>2171.0</ele><time>2025-02-22T17:44:24Z</time></trkpt>
<trkpt lat="38.974799" lon="-120.105582"><ele>2172.0</ele><time>2025-02-22T17:45:01Z</time></trkpt>
<trkpt lat="38.974852" lon="-120.105672"><ele>2173.4</ele><time>2025-02-22T17:45:16Z</time></trkpt>
<trkpt lat="38.974977" lon="-120.106064"><ele>2176.8</ele><time>2025-02-22T17:46:26Z</time></trkpt>
<trkpt lat="38.975005" lon="-120.106346"><ele>2182.2</ele><time>2025-02-22T17:47:19Z</time></trkpt>
<trkpt lat="38.974984" lon="-120.106526"><ele>2184.8</ele><time>2025-02-22T17:47:41Z</time></trkpt>
<trkpt lat="38.975074" lon="-120.106675"><ele>2188.8</ele><time>2025-02-22T17:48:30Z</time></trkpt>
<trkpt lat="38.975120" lon="-120.106692"><ele>2190.6</ele><time>2025-02-22T17:48:51Z</time></trkpt>
<trkpt lat="38.975209" lon="-120.106872"><ele>2192.8</ele><time>2025-02-22T17:49:31Z</time></trkpt>
<trkpt lat="38.975233" lon="-120.106989"><ele>2195.8</ele><time>2025-02-22T17:49:52Z</time></trkpt>
<trkpt lat="38.975270" lon="-120.107015"><ele>2196.2</ele><time>2025-02-22T17:50:05Z</time></trkpt>
<trkpt lat="38.975265" lon="-120.107099"><ele>2197.4</ele><time>2025-02-22T17:50:21Z</time></trkpt>
<trkpt lat="38.975307" lon="-120.107218"><ele>2200.0</ele><time>2025-02-22T17:50:40Z</time></trkpt>
<trkpt lat="38.975401" lon="-120.107348"><ele>2204.0</ele><time>2025-02-22T17:51:13Z</time></trkpt>
<trkpt lat="38.975399" lon="-120.107466"><ele>2206.8</ele><time>2025-02-22T17:51:38Z</time></trkpt>
<trkpt lat="38.975185" lon="-120.107433"><ele>2214.4</ele><time>2025-02-22T17:52:27Z</time></trkpt>
<trkpt lat="38.974965" lon="-120.107469"><ele>2223.6</ele><time>2025-02-22T17:53:29Z</time></trkpt>
<trkpt lat="38.974936" lon="-120.107586"><ele>2226.8</ele><time>2025-02-22T17:53:57Z</time></trkpt>
<trkpt lat="38.975000" lon="-120.107593"><ele>2226.4</ele><time>2025-02-22T17:54:29Z</time></trkpt>
<trkpt lat="38.974958" lon="-120.107611"><ele>2227.0</ele><time>2025-02-22T17:54:44Z</time></trkpt>
<trkpt lat="38.974988" lon="-120.107651"><ele>2228.2</ele><time>2025-02-22T17:55:03Z</time></trkpt>
<trkpt lat="38.974958" lon="-120.107706"><ele>2231.6</ele><time>2025-02-22T17:55:24Z</time></trkpt>
<trkpt lat="38.975000" lon="-120.107710"><ele>2231.6</ele><time>2025-02-22T17:56:48Z</time></trkpt>
<trkpt lat="38.974950" lon="-120.107709"><ele>2231.8</ele><time>2025-02-22T17:57:17Z</time></trkpt>
<trkpt lat="38.974971" lon="-120.107717"><ele>2232.4</ele><time>2025-02-22T17:58:09Z</time></trkpt>
<trkpt lat="38.974937" lon="-120.107724"><ele>2232.2</ele><time>2025-02-22T17:58:56Z</time></trkpt>
<trkpt lat="38.974980" lon="-120.107730"><ele>2233.8</ele><time>2025-02-22T18:00:43Z</time></trkpt>
<trkpt lat="38.974915" lon="-120.107753"><ele>2235.0</ele><time>2025-02-22T18:01:00Z</time></trkpt>
<trkpt lat="38.974501" lon="-120.107569"><ele>2245.0</ele><time>2025-02-22T18:02:20Z</time></trkpt>
<trkpt lat="38.974478" lon="-120.107627"><ele>2247.4</ele><time>2025-02-22T18:02:32Z</time></trkpt>
<trkpt lat="38.974515" lon="-120.107745"><ele>2253.8</ele><time>2025-02-22T18:03:08Z</time></trkpt>
<trkpt lat="38.974285" lon="-120.107721"><ele>2263.4</ele><time>2025-02-22T18:04:18Z</time></trkpt>
<trkpt lat="38.974325" lon="-120.107928"><ele>2269.0</ele><time>2025-02-22T18:05:11Z</time></trkpt>
<trkpt lat="38.974101" lon="-120.107828"><ele>2270.4</ele><time>2025-02-22T18:06:22Z</time></trkpt>
<trkpt lat="38.974020" lon="-120.107854"><ele>2272.8</ele><time>2025-02-22T18:06:44Z</time></trkpt>
<trkpt lat="38.973942" lon="-120.107793"><ele>2275.6</ele><time>2025-02-22T18:07:03Z</time></trkpt>
<trkpt lat="38.973796" lon="-120.107778"><ele>2279.8</ele><time>2025-02-22T18:07:32Z</time></trkpt>
<trkpt lat="38.973783" lon="-120.107830"><ele>2281.4</ele><time>2025-02-22T18:07:50Z</time></trkpt>
<trkpt lat="38.973822" lon="-120.107873"><ele>2281.8</ele><time>2025-02-22T18:08:02Z</time></trkpt>
<trkpt lat="38.973845" lon="-120.107995"><ele>2285.6</ele><time>2025-02-22T18:08:25Z</time></trkpt>
<trkpt lat="38.973766" lon="-120.108000"><ele>2288.2</ele><time>2025-02-22T18:09:05Z</time></trkpt>
<trkpt lat="38.973785" lon="-120.107992"><ele>2288.0</ele><time>2025-02-22T18:09:13Z</time></trkpt>
<trkpt lat="38.973713" lon="-120.107968"><ele>2286.6</ele><time>2025-02-22T18:09:35Z</time></trkpt>
<trkpt lat="38.973768" lon="-120.107993"><ele>2287.6</ele><time>2025-02-22T18:10:05Z</time></trkpt>
<trkpt lat="38.973794" lon="-120.107975"><ele>2286.4</ele><time>2025-02-22T18:10:41Z</time></trkpt>
<trkpt lat="38.973769" lon="-120.108002"><ele>2287.4</ele><time>2025-02-22T18:11:09Z</time></trkpt>
<trkpt lat="38.973788" lon="-120.108016"><ele>2287.2</ele><time>2025-02-22T18:11:23Z</time></trkpt>
<trkpt lat="38.973764" lon="-120.108009"><ele>2287.2</ele><time>2025-02-22T18:12:05Z</time></trkpt>
<trkpt lat="38.973782" lon="-120.108108"><ele>2291.0</ele><time>2025-02-22T18:12:38Z</time></trkpt>
<trkpt lat="38.973654" lon="-120.108117"><ele>2296.4</ele><time>2025-02-22T18:13:41Z</time></trkpt>
<trkpt lat="38.973744" lon="-120.108405"><ele>2304.6</ele><time>2025-02-22T18:14:32Z</time></trkpt>
<trkpt lat="38.973643" lon="-120.108349"><ele>2308.4</ele><time>2025-02-22T18:15:00Z</time></trkpt>
<trkpt lat="38.973401" lon="-120.108325"><ele>2317.6</ele><time>2025-02-22T18:15:53Z</time></trkpt>
<trkpt lat="38.973328" lon="-120.108355"><ele>2322.6</ele><time>2025-02-22T18:16:30Z</time></trkpt>
<trkpt lat="38.973115" lon="-120.108311"><ele>2330.4</ele><time>2025-02-22T18:17:32Z</time></trkpt>
<trkpt lat="38.973105" lon="-120.108408"><ele>2333.6</ele><time>2025-02-22T18:17:55Z</time></trkpt>
<trkpt lat="38.973172" lon="-120.108565"><ele>2337.0</ele><time>2025-02-22T18:18:27Z</time></trkpt>
<trkpt lat="38.973145" lon="-120.108652"><ele>2340.6</ele><time>2025-02-22T18:18:54Z</time></trkpt>
<trkpt lat="38.973213" lon="-120.108929"><ele>2346.0</ele><time>2025-02-22T18:19:41Z</time></trkpt>
<trkpt lat="38.973198" lon="-120.109016"><ele>2348.4</ele><time>2025-02-22T18:20:03Z</time></trkpt>
<trkpt lat="38.973278" lon="-120.109216"><ele>2351.8</ele><time>2025-02-22T18:20:47Z</time></trkpt>
<trkpt lat="38.973283" lon="-120.109539"><ele>2360.6</ele><time>2025-02-22T18:21:49Z</time></trkpt>
<trkpt lat="38.973171" lon="-120.109827"><ele>2369.4</ele><time>2025-02-22T18:22:56Z</time></trkpt>
<trkpt lat="38.973115" lon="-120.110042"><ele>2372.2</ele><time>2025-02-22T18:23:41Z</time></trkpt>
<trkpt lat="38.972922" lon="-120.110379"><ele>2382.2</ele><time>2025-02-22T18:25:05Z</time></trkpt>
<trkpt lat="38.972620" lon="-120.110781"><ele>2395.0</ele><time>2025-02-22T18:26:51Z</time></trkpt>
<trkpt lat="38.972400" lon="-120.110613"><ele>2397.4</ele><time>2025-02-22T18:27:22Z</time></trkpt>
<trkpt lat="38.972209" lon="-120.110310"><ele>2397.4</ele><time>2025-02-22T18:27:59Z</time></trkpt>
<trkpt lat="38.972080" lon="-120.110187"><ele>2402.2</ele><time>2025-02-22T18:28:33Z</time></trkpt>
<trkpt lat="38.972036" lon="-120.110184"><ele>2402.6</ele><time>2025-02-22T18:30:03Z</time></trkpt>
<trkpt lat="38.972043" lon="-120.110185"><ele>2399.8</ele><time>2025-02-22T18:35:05Z</time></trkpt>
<trkpt lat="38.972059" lon="-120.110176"><ele>2401.0</ele><time>2025-02-22T18:36:23Z</time></trkpt>
<trkpt lat="38.972036" lon="-120.110184"><ele>2401.0</ele><time>2025-02-22T18:36:27Z</time></trkpt>
<trkpt lat="38.972043" lon="-120.110175"><ele>2406.0</ele><time>2025-02-22T18:39:43Z</time></trkpt>
<trkpt lat="38.972022" lon="-120.110186"><ele>2407.8</ele><time>2025-02-22T18:40:10Z</time></trkpt>
<trkpt lat="38.972049" lon="-120.110165"><ele>2412.6</ele><time>2025-02-22T18:42:22Z</time></trkpt>
<trkpt lat="38.972029" lon="-120.110170"><ele>2415.6</ele><time>2025-02-22T18:44:23Z</time></trkpt>
<trkpt lat="38.972028" lon="-120.110205"><ele>2417.8</ele><time>2025-02-22T18:45:39Z</time></trkpt>
<trkpt lat="38.972249" lon="-120.110379"><ele>2411.8</ele><time>2025-02-22T18:47:08Z</time></trkpt>
<trkpt lat="38.972363" lon="-120.110616"><ele>2412.4</ele><time>2025-02-22T18:48:34Z</time></trkpt>
<trkpt lat="38.972355" lon="-120.110847"><ele>2416.4</ele><time>2025-02-22T18:48:56Z</time></trkpt>
<trkpt lat="38.972249" lon="-120.111161"><ele>2421.4</ele><time>2025-02-22T18:49:31Z</time></trkpt>
<trkpt lat="38.972095" lon="-120.111304"><ele>2427.2</ele><time>2025-02-22T18:50:06Z</time></trkpt>
<trkpt lat="38.971958" lon="-120.111512"><ele>2431.8</ele><time>2025-02-22T18:50:47Z</time></trkpt>
<trkpt lat="38.971884" lon="-120.111570"><ele>2433.4</ele><time>2025-02-22T18:51:05Z</time></trkpt>
<trkpt lat="38.971792" lon="-120.111786"><ele>2437.6</ele><time>2025-02-22T18:51:46Z</time></trkpt>
<trkpt lat="38.971700" lon="-120.111907"><ele>2440.6</ele><time>2025-02-22T18:52:13Z</time></trkpt>
<trkpt lat="38.971552" lon="-120.111995"><ele>2442.8</ele><time>2025-02-22T18:52:43Z</time></trkpt>
<trkpt lat="38.971413" lon="-120.112181"><ele>2444.6</ele><time>2025-02-22T18:53:25Z</time></trkpt>
<trkpt lat="38.971190" lon="-120.112226"><ele>2446.0</ele><time>2025-02-22T18:54:08Z</time></trkpt>
<trkpt lat="38.970829" lon="-120.112184"><ele>2450.0</ele><time>2025-02-22T18:55:15Z</time></trkpt>
<trkpt lat="38.970721" lon="-120.112263"><ele>2451.6</ele><time>2025-02-22T18:55:37Z</time></trkpt>
<trkpt lat="38.970688" lon="-120.112546"><ele>2456.8</ele><time>2025-02-22T18:56:31Z</time></trkpt>
<trkpt lat="38.970710" lon="-120.112621"><ele>2458.2</ele><time>2025-02-22T18:56:53Z</time></trkpt>
<trkpt lat="38.970682" lon="-120.112675"><ele>2460.0</ele><time>2025-02-22T18:57:24Z</time></trkpt>
<trkpt lat="38.970588" lon="-120.112704"><ele>2462.6</ele><time>2025-02-22T18:57:52Z</time></trkpt>
<trkpt lat="38.970512" lon="-120.112816"><ele>2468.2</ele><time>2025-02-22T18:58:43Z</time></trkpt>
<trkpt lat="38.970444" lon="-120.113180"><ele>2478.4</ele><time>2025-02-22T19:00:02Z</time></trkpt>
<trkpt lat="38.970438" lon="-120.113371"><ele>2484.0</ele><time>2025-02-22T19:00:46Z</time></trkpt>
<trkpt lat="38.970374" lon="-120.113399"><ele>2486.0</ele><time>2025-02-22T19:01:19Z</time></trkpt>
<trkpt lat="38.970283" lon="-120.113364"><ele>2489.6</ele><time>2025-02-22T19:01:46Z</time></trkpt>
<trkpt lat="38.969988" lon="-120.113407"><ele>2500.4</ele><time>2025-02-22T19:03:21Z</time></trkpt>
<trkpt lat="38.969765" lon="-120.113385"><ele>2509.2</ele><time>2025-02-22T19:04:24Z</time></trkpt>
<trkpt lat="38.969753" lon="-120.113534"><ele>2513.8</ele><time>2025-02-22T19:04:57Z</time></trkpt>
<trkpt lat="38.969788" lon="-120.113743"><ele>2519.0</ele><time>2025-02-22T19:05:47Z</time></trkpt>
<trkpt lat="38.969840" lon="-120.113882"><ele>2524.4</ele><time>2025-02-22T19:06:45Z</time></trkpt>
<trkpt lat="38.969822" lon="-120.114001"><ele>2526.4</ele><time>2025-02-22T19:07:09Z</time></trkpt>
<trkpt lat="38.969854" lon="-120.114097"><ele>2530.4</ele><time>2025-02-22T19:07:38Z</time></trkpt>
<trkpt lat="38.969832" lon="-120.114179"><ele>2532.8</ele><time>2025-02-22T19:07:56Z</time></trkpt>
<trkpt lat="38.969808" lon="-120.114184"><ele>2534.8</ele><time>2025-02-22T19:08:16Z</time></trkpt>
<trkpt lat="38.969617" lon="-120.114106"><ele>2542.0</ele><time>2025-02-22T19:09:12Z</time></trkpt>
<trkpt lat="38.969480" lon="-120.114119"><ele>2547.8</ele><time>2025-02-22T19:10:04Z</time></trkpt>
<trkpt lat="38.969541" lon="-120.114616"><ele>2563.2</ele><time>2025-02-22T19:12:02Z</time></trkpt>
<trkpt lat="38.969518" lon="-120.114676"><ele>2564.2</ele><time>2025-02-22T19:12:18Z</time></trkpt>
<trkpt lat="38.969557" lon="-120.114812"><ele>2569.2</ele><time>2025-02-22T19:12:54Z</time></trkpt>
<trkpt lat="38.969435" lon="-120.114819"><ele>2575.0</ele><time>2025-02-22T19:13:43Z</time></trkpt>
<trkpt lat="38.969314" lon="-120.114760"><ele>2579.2</ele><time>2025-02-22T19:14:31Z</time></trkpt>
<trkpt lat="38.969212" lon="-120.114756"><ele>2583.8</ele><time>2025-02-22T19:15:10Z</time></trkpt>
<trkpt lat="38.968998" lon="-120.114656"><ele>2588.0</ele><time>2025-02-22T19:15:59Z</time></trkpt>
<trkpt lat="38.968798" lon="-120.114607"><ele>2593.4</ele><time>2025-02-22T19:17:13Z</time></trkpt>
<trkpt lat="38.968854" lon="-120.114824"><ele>2599.4</ele><time>2025-02-22T19:17:55Z</time></trkpt>
<trkpt lat="38.968987" lon="-120.115015"><ele>2604.4</ele><time>2025-02-22T19:18:42Z</time></trkpt>
<trkpt lat="38.969022" lon="-120.115163"><ele>2608.0</ele><time>2025-02-22T19:19:08Z</time></trkpt>
<trkpt lat="38.968966" lon="-120.115177"><ele>2609.2</ele><time>2025-02-22T19:20:24Z</time></trkpt>
<trkpt lat="38.968827" lon="-120.115131"><ele>2616.0</ele><time>2025-02-22T19:21:21Z</time></trkpt>
<trkpt lat="38.968873" lon="-120.115395"><ele>2622.8</ele><time>2025-02-22T19:22:54Z</time></trkpt>
<trkpt lat="38.968732" lon="-120.115351"><ele>2628.2</ele><time>2025-02-22T19:23:35Z</time></trkpt>
<trkpt lat="38.968672" lon="-120.115302"><ele>2629.6</ele><time>2025-02-22T19:23:47Z</time></trkpt>
<trkpt lat="38.968685" lon="-120.115282"><ele>2630.6</ele><time>2025-02-22T19:24:03Z</time></trkpt>
<trkpt lat="38.968473" lon="-120.115257"><ele>2636.6</ele><time>2025-02-22T19:24:56Z</time></trkpt>
<trkpt lat="38.968547" lon="-120.115455"><ele>2641.4</ele><time>2025-02-22T19:25:34Z</time></trkpt>
<trkpt lat="38.968374" lon="-120.115442"><ele>2648.0</ele><time>2025-02-22T19:26:25Z</time></trkpt>
<trkpt lat="38.968419" lon="-120.115504"><ele>2649.0</ele><time>2025-02-22T19:26:38Z</time></trkpt>
<trkpt lat="38.968498" lon="-120.115712"><ele>2656.8</ele><time>2025-02-22T19:27:28Z</time></trkpt>
<trkpt lat="38.968208" lon="-120.115646"><ele>2665.6</ele><time>2025-02-22T19:28:38Z</time></trkpt>
<trkpt lat="38.968241" lon="-120.115751"><ele>2668.4</ele><time>2025-02-22T19:28:54Z</time></trkpt>
<trkpt lat="38.968406" lon="-120.116001"><ele>2672.0</ele><time>2025-02-22T19:29:41Z</time></trkpt>
<trkpt lat="38.968457" lon="-120.116243"><ele>2676.8</ele><time>2025-02-22T19:30:13Z</time></trkpt>
<trkpt lat="38.968444" lon="-120.116360"><ele>2678.0</ele><time>2025-02-22T19:30:35Z</time></trkpt>
<trkpt lat="38.968478" lon="-120.116497"><ele>2682.4</ele><time>2025-02-22T19:31:09Z</time></trkpt>
<trkpt lat="38.968311" lon="-120.116343"><ele>2688.0</ele><time>2025-02-22T19:31:53Z</time></trkpt>
<trkpt lat="38.968343" lon="-120.116707"><ele>2696.0</ele><time>2025-02-22T19:32:56Z</time></trkpt>
<trkpt lat="38.968249" lon="-120.116685"><ele>2699.2</ele><time>2025-02-22T19:33:42Z</time></trkpt>
<trkpt lat="38.968259" lon="-120.116915"><ele>2706.2</ele><time>2025-02-22T19:34:36Z</time></trkpt>
<trkpt lat="38.967857" lon="-120.116768"><ele>2721.4</ele><time>2025-02-22T19:36:50Z</time></trkpt>
<trkpt lat="38.967792" lon="-120.116696"><ele>2725.6</ele><time>2025-02-22T19:37:12Z</time></trkpt>
<trkpt lat="38.967643" lon="-120.116677"><ele>2732.8</ele><time>2025-02-22T19:37:58Z</time></trkpt>
<trkpt lat="38.967569" lon="-120.117193"><ele>2749.2</ele><time>2025-02-22T19:40:02Z</time></trkpt>
<trkpt lat="38.967477" lon="-120.117177"><ele>2753.8</ele><time>2025-02-22T19:40:43Z</time></trkpt>
<trkpt lat="38.967264" lon="-120.116967"><ele>2764.2</ele><time>2025-02-22T19:42:10Z</time></trkpt>
<trkpt lat="38.967142" lon="-120.116925"><ele>2768.6</ele><time>2025-02-22T19:42:37Z</time></trkpt>
<trkpt lat="38.966970" lon="-120.117141"><ele>2776.6</ele><time>2025-02-22T19:43:21Z</time></trkpt>
<trkpt lat="38.966909" lon="-120.117338"><ele>2783.0</ele><time>2025-02-22T19:44:06Z</time></trkpt>
<trkpt lat="38.966973" lon="-120.117330"><ele>2784.2</ele><time>2025-02-22T19:44:26Z</time></trkpt>
<trkpt lat="38.967038" lon="-120.117392"><ele>2785.8</ele><time>2025-02-22T19:45:32Z</time></trkpt>
<trkpt lat="38.966957" lon="-120.117424"><ele>2786.8</ele><time>2025-02-22T19:49:27Z</time></trkpt>
<trkpt lat="38.967030" lon="-120.117380"><ele>2785.8</ele><time>2025-02-22T19:50:10Z</time></trkpt>
<trkpt lat="38.967122" lon="-120.117463"><ele>2785.8</ele><time>2025-02-22T19:50:34Z</time></trkpt>
<trkpt lat="38.967248" lon="-120.117933"><ele>2789.2</ele><time>2025-02-22T19:51:29Z</time></trkpt>
<trkpt lat="38.967329" lon="-120.118093"><ele>2795.2</ele><time>2025-02-22T19:52:34Z</time></trkpt>
<trkpt lat="38.967232" lon="-120.117866"><ele>2790.6</ele><time>2025-02-22T19:53:46Z</time></trkpt>
<trkpt lat="38.967208" lon="-120.117724"><ele>2790.4</ele><time>2025-02-22T19:54:04Z</time></trkpt>
<trkpt lat="38.966954" lon="-120.117530"><ele>2791.4</ele><time>2025-02-22T19:54:58Z</time></trkpt>
<trkpt lat="38.966964" lon="-120.117423"><ele>2791.8</ele><time>2025-02-22T19:55:24Z</time></trkpt>
<trkpt lat="38.966958" lon="-120.117426"><ele>2788.8</ele><time>2025-02-22T20:02:50Z</time></trkpt>
<trkpt lat="38.966973" lon="-120.117426"><ele>2815.6</ele><time>2025-02-22T20:08:58Z</time></trkpt>
<trkpt lat="38.966972" lon="-120.117430"><ele>2813.4</ele><time>2025-02-22T20:09:29Z</time></trkpt>
<trkpt lat="38.966954" lon="-120.117429"><ele>2820.2</ele><time>2025-02-22T20:10:57Z</time></trkpt>
<trkpt lat="38.966954" lon="-120.117429"><ele>2813.4</ele><time>2025-02-22T20:12:04Z</time></trkpt>
<trkpt lat="38.966954" lon="-120.117429"><ele>2820.6</ele><time>2025-02-22T20:12:24Z</time></trkpt>
<trkpt lat="38.966954" lon="-120.117429"><ele>2813.8</ele><time>2025-02-22T20:13:35Z</time></trkpt>
<trkpt lat="38.966959" lon="-120.117445"><ele>2820.2</ele><time>2025-02-22T20:14:00Z</time></trkpt>
<trkpt lat="38.966924" lon="-120.117586"><ele>2819.4</ele><time>2025-02-22T20:14:20Z</time></trkpt>
<trkpt lat="38.966872" lon="-120.117644"><ele>2819.2</ele><time>2025-02-22T20:14:30Z</time></trkpt>
<trkpt lat="38.966798" lon="-120.117599"><ele>2819.6</ele><time>2025-02-22T20:14:41Z</time></trkpt>
<trkpt lat="38.966799" lon="-120.117506"><ele>2821.0</ele><time>2025-02-22T20:15:01Z</time></trkpt>
<trkpt lat="38.966756" lon="-120.117507"><ele>2817.0</ele><time>2025-02-22T20:15:14Z</time></trkpt>
<trkpt lat="38.966787" lon="-120.117442"><ele>2818.4</ele><time>2025-02-22T20:15:36Z</time></trkpt>
<trkpt lat="38.966788" lon="-120.117414"><ele>2816.2</ele><time>2025-02-22T20:15:53Z</time></trkpt>
<trkpt lat="38.966716" lon="-120.117429"><ele>2815.2</ele><time>2025-02-22T20:16:09Z</time></trkpt>
<trkpt lat="38.966660" lon="-120.117551"><ele>2814.8</ele><time>2025-02-22T20:16:27Z</time></trkpt>
<trkpt lat="38.966620" lon="-120.117603"><ele>2811.8</ele><time>2025-02-22T20:16:55Z</time></trkpt>
<trkpt lat="38.966610" lon="-120.117625"><ele>2814.4</ele><time>2025-02-22T20:17:09Z</time></trkpt>
<trkpt lat="38.966549" lon="-120.117751"><ele>2815.0</ele><time>2025-02-22T20:17:35Z</time></trkpt>
<trkpt lat="38.966496" lon="-120.117641"><ele>2812.8</ele><time>2025-02-22T20:17:43Z</time></trkpt>
<trkpt lat="38.966403" lon="-120.117562"><ele>2809.2</ele><time>2025-02-22T20:17:50Z</time></trkpt>
<trkpt lat="38.966410" lon="-120.117531"><ele>2808.6</ele><time>2025-02-22T20:17:56Z</time></trkpt>
<trkpt lat="38.966345" lon="-120.117439"><ele>2807.4</ele><time>2025-02-22T20:18:01Z</time></trkpt>
<trkpt lat="38.966235" lon="-120.117492"><ele>2807.6</ele><time>2025-02-22T20:18:14Z</time></trkpt>
<trkpt lat="38.966183" lon="-120.117482"><ele>2810.0</ele><time>2025-02-22T20:18:24Z</time></trkpt>
<trkpt lat="38.966143" lon="-120.117379"><ele>2812.2</ele><time>2025-02-22T20:18:36Z</time></trkpt>
<trkpt lat="38.966012" lon="-120.117348"><ele>2814.2</ele><time>2025-02-22T20:18:51Z</time></trkpt>
<trkpt lat="38.965974" lon="-120.117249"><ele>2815.8</ele><time>2025-02-22T20:19:03Z</time></trkpt>
<trkpt lat="38.965901" lon="-120.117341"><ele>2818.4</ele><time>2025-02-22T20:19:17Z</time></trkpt>
<trkpt lat="38.965815" lon="-120.117304"><ele>2816.4</ele><time>2025-02-22T20:19:32Z</time></trkpt>
<trkpt lat="38.965815" lon="-120.117304"><ele>2814.2</ele><time>2025-02-22T20:20:05Z</time></trkpt>
<trkpt lat="38.965850" lon="-120.117268"><ele>2814.6</ele><time>2025-02-22T20:20:24Z</time></trkpt>
<trkpt lat="38.965788" lon="-120.117269"><ele>2813.6</ele><time>2025-02-22T20:20:39Z</time></trkpt>
<trkpt lat="38.965780" lon="-120.117267"><ele>2809.6</ele><time>2025-02-22T20:20:50Z</time></trkpt>
<trkpt lat="38.965718" lon="-120.117338"><ele>2811.2</ele><time>2025-02-22T20:21:14Z</time></trkpt>
<trkpt lat="38.965717" lon="-120.117342"><ele>2805.4</ele><time>2025-02-22T20:21:25Z</time></trkpt>
<trkpt lat="38.965694" lon="-120.117375"><ele>2806.2</ele><time>2025-02-22T20:21:32Z</time></trkpt>
<trkpt lat="38.965684" lon="-120.117392"><ele>2813.4</ele><time>2025-02-22T20:21:49Z</time></trkpt>
<trkpt lat="38.965688" lon="-120.117417"><ele>2808.0</ele><time>2025-02-22T20:22:02Z</time></trkpt>
<trkpt lat="38.965632" lon="-120.117476"><ele>2808.0</ele><time>2025-02-22T20:22:35Z</time></trkpt>
<trkpt lat="38.965632" lon="-120.117476"><ele>2803.8</ele><time>2025-02-22T20:22:46Z</time></trkpt>
<trkpt lat="38.965626" lon="-120.117483"><ele>2807.2</ele><time>2025-02-22T20:23:09Z</time></trkpt>
<trkpt lat="38.965614" lon="-120.117462"><ele>2802.2</ele><time>2025-02-22T20:23:33Z</time></trkpt>
<trkpt lat="38.965596" lon="-120.117446"><ele>2802.0</ele><time>2025-02-22T20:23:35Z</time></trkpt>
<trkpt lat="38.965596" lon="-120.117446"><ele>2806.2</ele><time>2025-02-22T20:23:44Z</time></trkpt>
<trkpt lat="38.965596" lon="-120.117446"><ele>2797.6</ele><time>2025-02-22T20:24:08Z</time></trkpt>
<trkpt lat="38.965596" lon="-120.117446"><ele>2810.0</ele><time>2025-02-22T20:26:28Z</time></trkpt>
<trkpt lat="38.965596" lon="-120.117446"><ele>2805.2</ele><time>2025-02-22T20:27:39Z</time></trkpt>
<trkpt lat="38.965650" lon="-120.117466"><ele>2807.6</ele><time>2025-02-22T20:28:46Z</time></trkpt>
<trkpt lat="38.965655" lon="-120.117459"><ele>2811.6</ele><time>2025-02-22T20:28:52Z</time></trkpt>
<trkpt lat="38.965694" lon="-120.117412"><ele>2811.2</ele><time>2025-02-22T20:29:15Z</time></trkpt>
<trkpt lat="38.965694" lon="-120.117373"><ele>2812.8</ele><time>2025-02-22T20:29:35Z</time></trkpt>
<trkpt lat="38.965695" lon="-120.117360"><ele>2805.2</ele><time>2025-02-22T20:31:44Z</time></trkpt>
<trkpt lat="38.965706" lon="-120.117348"><ele>2811.8</ele><time>2025-02-22T20:32:10Z</time></trkpt>
<trkpt lat="38.965706" lon="-120.117348"><ele>2808.0</ele><time>2025-02-22T20:32:42Z</time></trkpt>
<trkpt lat="38.965719" lon="-120.117331"><ele>2812.8</ele><time>2025-02-22T20:33:09Z</time></trkpt>
<trkpt lat="38.965778" lon="-120.117264"><ele>2811.4</ele><time>2025-02-22T20:34:05Z</time></trkpt>
<trkpt lat="38.965778" lon="-120.117264"><ele>2807.8</ele><time>2025-02-22T20:34:30Z</time></trkpt>
<trkpt lat="38.965832" lon="-120.117283"><ele>2811.2</ele><time>2025-02-22T20:34:38Z</time></trkpt>
<trkpt lat="38.965876" lon="-120.117335"><ele>2811.2</ele><time>2025-02-22T20:35:03Z</time></trkpt>
<trkpt lat="38.966057" lon="-120.117375"><ele>2809.0</ele><time>2025-02-22T20:35:14Z</time></trkpt>
<trkpt lat="38.966163" lon="-120.117343"><ele>2806.8</ele><time>2025-02-22T20:35:18Z</time></trkpt>
<trkpt lat="38.966165" lon="-120.117396"><ele>2805.0</ele><time>2025-02-22T20:35:29Z</time></trkpt>
<trkpt lat="38.966241" lon="-120.117391"><ele>2804.6</ele><time>2025-02-22T20:35:32Z</time></trkpt>
<trkpt lat="38.966308" lon="-120.117326"><ele>2803.4</ele><time>2025-02-22T20:35:37Z</time></trkpt>
<trkpt lat="38.966373" lon="-120.117450"><ele>2803.0</ele><time>2025-02-22T20:35:49Z</time></trkpt>
<trkpt lat="38.966419" lon="-120.117453"><ele>2803.4</ele><time>2025-02-22T20:35:54Z</time></trkpt>
<trkpt lat="38.966545" lon="-120.117357"><ele>2801.4</ele><time>2025-02-22T20:36:17Z</time></trkpt>
<trkpt lat="38.966710" lon="-120.117280"><ele>2803.6</ele><time>2025-02-22T20:37:01Z</time></trkpt>
<trkpt lat="38.966831" lon="-120.117306"><ele>2806.4</ele><time>2025-02-22T20:37:36Z</time></trkpt>
<trkpt lat="38.966838" lon="-120.117309"><ele>2802.4</ele><time>2025-02-22T20:37:54Z</time></trkpt>
<trkpt lat="38.966899" lon="-120.117332"><ele>2804.8</ele><time>2025-02-22T20:38:16Z</time></trkpt>
<trkpt lat="38.966910" lon="-120.117334"><ele>2802.2</ele><time>2025-02-22T20:38:27Z</time></trkpt>
<trkpt lat="38.966969" lon="-120.117330"><ele>2803.6</ele><time>2025-02-22T20:38:39Z</time></trkpt>
<trkpt lat="38.966956" lon="-120.117500"><ele>2808.6</ele><time>2025-02-22T20:39:03Z</time></trkpt>
<trkpt lat="38.967189" lon="-120.117688"><ele>2806.4</ele><time>2025-02-22T20:39:38Z</time></trkpt>
<trkpt lat="38.967263" lon="-120.117948"><ele>2807.4</ele><time>2025-02-22T20:40:04Z</time></trkpt>
<trkpt lat="38.967327" lon="-120.118047"><ele>2807.6</ele><time>2025-02-22T20:40:37Z</time></trkpt>
<trkpt lat="38.967327" lon="-120.118047"><ele>2810.8</ele><time>2025-02-22T20:40:45Z</time></trkpt>
<trkpt lat="38.967327" lon="-120.118047"><ele>2804.6</ele><time>2025-02-22T20:41:41Z</time></trkpt>
<trkpt lat="38.967327" lon="-120.118047"><ele>2807.8</ele><time>2025-02-22T20:41:47Z</time></trkpt>
<trkpt lat="38.967327" lon="-120.118047"><ele>2804.8</ele><time>2025-02-22T20:42:24Z</time></trkpt>
<trkpt lat="38.967333" lon="-120.118089"><ele>2806.8</ele><time>2025-02-22T20:42:50Z</time></trkpt>
<trkpt lat="38.967344" lon="-120.118100"><ele>2804.6</ele><time>2025-02-22T20:43:06Z</time></trkpt>
<trkpt lat="38.967344" lon="-120.118100"><ele>2808.0</ele><time>2025-02-22T20:43:40Z</time></trkpt>
<trkpt lat="38.967344" lon="-120.118100"><ele>2802.6</ele><time>2025-02-22T20:44:37Z</time></trkpt>
<trkpt lat="38.967362" lon="-120.118110"><ele>2808.6</ele><time>2025-02-22T20:45:06Z</time></trkpt>
<trkpt lat="38.967362" lon="-120.118110"><ele>2801.6</ele><time>2025-02-22T20:45:56Z</time></trkpt>
<trkpt lat="38.967375" lon="-120.118164"><ele>2806.6</ele><time>2025-02-22T20:47:26Z</time></trkpt>
<trkpt lat="38.967375" lon="-120.118164"><ele>2803.6</ele><time>2025-02-22T20:48:02Z</time></trkpt>
<trkpt lat="38.967375" lon="-120.118164"><ele>2810.6</ele><time>2025-02-22T20:49:39Z</time></trkpt>
<trkpt lat="38.967361" lon="-120.118081"><ele>2810.8</ele><time>2025-02-22T20:50:02Z</time></trkpt>
<trkpt lat="38.967325" lon="-120.118049"><ele>2813.0</ele><time>2025-02-22T20:50:11Z</time></trkpt>
<trkpt lat="38.967276" lon="-120.118038"><ele>2811.4</ele><time>2025-02-22T20:50:17Z</time></trkpt>
<trkpt lat="38.967176" lon="-120.117666"><ele>2808.6</ele><time>2025-02-22T20:50:38Z</time></trkpt>
<trkpt lat="38.966934" lon="-120.117486"><ele>2808.0</ele><time>2025-02-22T20:51:16Z</time></trkpt>
<trkpt lat="38.966934" lon="-120.117486"><ele>2810.2</ele><time>2025-02-22T20:51:34Z</time></trkpt>
<trkpt lat="38.966929" lon="-120.117486"><ele>2795.2</ele><time>2025-02-22T21:05:33Z</time></trkpt>
<trkpt lat="38.966969" lon="-120.117396"><ele>2795.2</ele><time>2025-02-22T21:05:46Z</time></trkpt>
<trkpt lat="38.966868" lon="-120.117315"><ele>2794.8</ele><time>2025-02-22T21:05:50Z</time></trkpt>
<trkpt lat="38.966642" lon="-120.117236"><ele>2789.0</ele><time>2025-02-22T21:05:54Z</time></trkpt>
<trkpt lat="38.966641" lon="-120.117183"><ele>2787.4</ele><time>2025-02-22T21:05:55Z</time></trkpt>
<trkpt lat="38.966687" lon="-120.117112"><ele>2783.6</ele><time>2025-02-22T21:05:57Z</time></trkpt>
<trkpt lat="38.966280" lon="-120.116561"><ele>2774.2</ele><time>2025-02-22T21:06:11Z</time></trkpt>
<trkpt lat="38.966279" lon="-120.116580"><ele>2772.6</ele><time>2025-02-22T21:06:22Z</time></trkpt>
<trkpt lat="38.966285" lon="-120.116417"><ele>2772.2</ele><time>2025-02-22T21:06:25Z</time></trkpt>
<trkpt lat="38.966429" lon="-120.116329"><ele>2767.4</ele><time>2025-02-22T21:06:28Z</time></trkpt>
<trkpt lat="38.966566" lon="-120.116303"><ele>2761.0</ele><time>2025-02-22T21:06:30Z</time></trkpt>
<trkpt lat="38.966682" lon="-120.116050"><ele>2748.0</ele><time>2025-02-22T21:06:35Z</time></trkpt>
<trkpt lat="38.966790" lon="-120.116048"><ele>2742.2</ele><time>2025-02-22T21:06:37Z</time></trkpt>
<trkpt lat="38.966817" lon="-120.116006"><ele>2739.8</ele><time>2025-02-22T21:06:38Z</time></trkpt>
<trkpt lat="38.966702" lon="-120.115766"><ele>2730.4</ele><time>2025-02-22T21:06:43Z</time></trkpt>
<trkpt lat="38.966690" lon="-120.115751"><ele>2726.6</ele><time>2025-02-22T21:06:46Z</time></trkpt>
<trkpt lat="38.966718" lon="-120.115764"><ele>2724.4</ele><time>2025-02-22T21:07:05Z</time></trkpt>
<trkpt lat="38.966689" lon="-120.115710"><ele>2722.0</ele><time>2025-02-22T21:07:17Z</time></trkpt>
<trkpt lat="38.966621" lon="-120.115557"><ele>2721.2</ele><time>2025-02-22T21:07:21Z</time></trkpt>
<trkpt lat="38.966411" lon="-120.115220"><ele>2714.6</ele><time>2025-02-22T21:07:26Z</time></trkpt>
<trkpt lat="38.966278" lon="-120.115052"><ele>2708.2</ele><time>2025-02-22T21:07:32Z</time></trkpt>
<trkpt lat="38.966281" lon="-120.115029"><ele>2704.8</ele><time>2025-02-22T21:07:40Z</time></trkpt>
<trkpt lat="38.966214" lon="-120.114971"><ele>2700.6</ele><time>2025-02-22T21:08:18Z</time></trkpt>
<trkpt lat="38.966235" lon="-120.114979"><ele>2700.0</ele><time>2025-02-22T21:08:37Z</time></trkpt>
<trkpt lat="38.966065" lon="-120.114873"><ele>2698.4</ele><time>2025-02-22T21:08:43Z</time></trkpt>
<trkpt lat="38.965877" lon="-120.114687"><ele>2692.4</ele><time>2025-02-22T21:08:46Z</time></trkpt>
<trkpt lat="38.965916" lon="-120.114589"><ele>2684.4</ele><time>2025-02-22T21:08:48Z</time></trkpt>
<trkpt lat="38.965907" lon="-120.114528"><ele>2682.6</ele><time>2025-02-22T21:08:49Z</time></trkpt>
<trkpt lat="38.965797" lon="-120.114400"><ele>2673.8</ele><time>2025-02-22T21:08:51Z</time></trkpt>
<trkpt lat="38.965824" lon="-120.114218"><ele>2665.6</ele><time>2025-02-22T21:08:54Z</time></trkpt>
<trkpt lat="38.965880" lon="-120.114119"><ele>2656.2</ele><time>2025-02-22T21:08:56Z</time></trkpt>
<trkpt lat="38.965885" lon="-120.114046"><ele>2654.2</ele><time>2025-02-22T21:08:57Z</time></trkpt>
<trkpt lat="38.965869" lon="-120.114010"><ele>2651.0</ele><time>2025-02-22T21:08:58Z</time></trkpt>
<trkpt lat="38.965850" lon="-120.114019"><ele>2640.8</ele><time>2025-02-22T21:09:28Z</time></trkpt>
<trkpt lat="38.965885" lon="-120.114026"><ele>2639.4</ele><time>2025-02-22T21:09:45Z</time></trkpt>
<trkpt lat="38.965826" lon="-120.113905"><ele>2634.4</ele><time>2025-02-22T21:10:11Z</time></trkpt>
<trkpt lat="38.965761" lon="-120.113694"><ele>2631.8</ele><time>2025-02-22T21:10:24Z</time></trkpt>
<trkpt lat="38.965779" lon="-120.113508"><ele>2624.2</ele><time>2025-02-22T21:10:27Z</time></trkpt>
<trkpt lat="38.965890" lon="-120.113282"><ele>2609.0</ele><time>2025-02-22T21:10:31Z</time></trkpt>
<trkpt lat="38.965919" lon="-120.113138"><ele>2602.2</ele><time>2025-02-22T21:10:33Z</time></trkpt>
<trkpt lat="38.966033" lon="-120.113048"><ele>2593.4</ele><time>2025-02-22T21:10:35Z</time></trkpt>
<trkpt lat="38.966031" lon="-120.112944"><ele>2583.2</ele><time>2025-02-22T21:10:37Z</time></trkpt>
<trkpt lat="38.966013" lon="-120.112680"><ele>2574.0</ele><time>2025-02-22T21:10:40Z</time></trkpt>
<trkpt lat="38.966060" lon="-120.112647"><ele>2566.4</ele><time>2025-02-22T21:10:41Z</time></trkpt>
<trkpt lat="38.966109" lon="-120.112592"><ele>2564.4</ele><time>2025-02-22T21:10:42Z</time></trkpt>
<trkpt lat="38.966096" lon="-120.112528"><ele>2559.0</ele><time>2025-02-22T21:10:43Z</time></trkpt>
<trkpt lat="38.966017" lon="-120.112459"><ele>2549.4</ele><time>2025-02-22T21:10:45Z</time></trkpt>
<trkpt lat="38.966036" lon="-120.112424"><ele>2540.8</ele><time>2025-02-22T21:11:52Z</time></trkpt>
<trkpt lat="38.966080" lon="-120.112369"><ele>2540.6</ele><time>2025-02-22T21:12:06Z</time></trkpt>
<trkpt lat="38.966087" lon="-120.112302"><ele>2540.2</ele><time>2025-02-22T21:12:07Z</time></trkpt>
<trkpt lat="38.966053" lon="-120.112160"><ele>2535.4</ele><time>2025-02-22T21:12:09Z</time></trkpt>
<trkpt lat="38.966082" lon="-120.112119"><ele>2530.8</ele><time>2025-02-22T21:12:10Z</time></trkpt>
<trkpt lat="38.966090" lon="-120.112003"><ele>2526.6</ele><time>2025-02-22T21:12:12Z</time></trkpt>
<trkpt lat="38.966137" lon="-120.111901"><ele>2520.6</ele><time>2025-02-22T21:12:14Z</time></trkpt>
<trkpt lat="38.966135" lon="-120.111776"><ele>2515.2</ele><time>2025-02-22T21:12:16Z</time></trkpt>
<trkpt lat="38.966165" lon="-120.111726"><ele>2509.8</ele><time>2025-02-22T21:12:17Z</time></trkpt>
<trkpt lat="38.966121" lon="-120.111463"><ele>2499.4</ele><time>2025-02-22T21:12:20Z</time></trkpt>
<trkpt lat="38.966257" lon="-120.111373"><ele>2491.6</ele><time>2025-02-22T21:12:22Z</time></trkpt>
<trkpt lat="38.966316" lon="-120.111254"><ele>2484.4</ele><time>2025-02-22T21:12:24Z</time></trkpt>
<trkpt lat="38.966446" lon="-120.111173"><ele>2477.6</ele><time>2025-02-22T21:12:26Z</time></trkpt>
<trkpt lat="38.966445" lon="-120.111039"><ele>2471.4</ele><time>2025-02-22T21:12:28Z</time></trkpt>
<trkpt lat="38.966472" lon="-120.111005"><ele>2468.2</ele><time>2025-02-22T21:12:29Z</time></trkpt>
<trkpt lat="38.966502" lon="-120.111028"><ele>2455.0</ele><time>2025-02-22T21:14:11Z</time></trkpt>
<trkpt lat="38.966521" lon="-120.110874"><ele>2455.2</ele><time>2025-02-22T21:14:24Z</time></trkpt>
<trkpt lat="38.966452" lon="-120.110604"><ele>2451.8</ele><time>2025-02-22T21:14:26Z</time></trkpt>
<trkpt lat="38.966410" lon="-120.110490"><ele>2447.4</ele><time>2025-02-22T21:14:27Z</time></trkpt>
<trkpt lat="38.966409" lon="-120.110411"><ele>2441.4</ele><time>2025-02-22T21:14:28Z</time></trkpt>
<trkpt lat="38.966449" lon="-120.110357"><ele>2437.6</ele><time>2025-02-22T21:14:29Z</time></trkpt>
<trkpt lat="38.966444" lon="-120.110204"><ele>2433.8</ele><time>2025-02-22T21:14:31Z</time></trkpt>
<trkpt lat="38.966490" lon="-120.110062"><ele>2425.6</ele><time>2025-02-22T21:14:33Z</time></trkpt>
<trkpt lat="38.966492" lon="-120.109876"><ele>2419.6</ele><time>2025-02-22T21:14:35Z</time></trkpt>
<trkpt lat="38.966542" lon="-120.109837"><ele>2413.0</ele><time>2025-02-22T21:14:36Z</time></trkpt>
<trkpt lat="38.966585" lon="-120.109673"><ele>2408.4</ele><time>2025-02-22T21:14:38Z</time></trkpt>
<trkpt lat="38.966666" lon="-120.109576"><ele>2400.8</ele><time>2025-02-22T21:14:40Z</time></trkpt>
<trkpt lat="38.966695" lon="-120.109436"><ele>2394.6</ele><time>2025-02-22T21:14:42Z</time></trkpt>
<trkpt lat="38.966736" lon="-120.109381"><ele>2389.8</ele><time>2025-02-22T21:14:43Z</time></trkpt>
<trkpt lat="38.966745" lon="-120.109250"><ele>2385.0</ele><time>2025-02-22T21:14:45Z</time></trkpt>
<trkpt lat="38.966786" lon="-120.109224"><ele>2382.0</ele><time>2025-02-22T21:14:46Z</time></trkpt>
<trkpt lat="38.966866" lon="-120.109242"><ele>2376.8</ele><time>2025-02-22T21:14:48Z</time></trkpt>
<trkpt lat="38.966911" lon="-120.109203"><ele>2376.0</ele><time>2025-02-22T21:14:49Z</time></trkpt>
<trkpt lat="38.966923" lon="-120.109037"><ele>2372.8</ele><time>2025-02-22T21:14:51Z</time></trkpt>
<trkpt lat="38.967037" lon="-120.108865"><ele>2366.8</ele><time>2025-02-22T21:14:53Z</time></trkpt>
<trkpt lat="38.967056" lon="-120.108720"><ele>2360.8</ele><time>2025-02-22T21:14:55Z</time></trkpt>
<trkpt lat="38.967124" lon="-120.108693"><ele>2354.8</ele><time>2025-02-22T21:14:57Z</time></trkpt>
<trkpt lat="38.967156" lon="-120.108719"><ele>2346.6</ele><time>2025-02-22T21:15:39Z</time></trkpt>
<trkpt lat="38.967133" lon="-120.108703"><ele>2346.0</ele><time>2025-02-22T21:16:25Z</time></trkpt>
<trkpt lat="38.967223" lon="-120.108543"><ele>2345.4</ele><time>2025-02-22T21:16:33Z</time></trkpt>
<trkpt lat="38.967209" lon="-120.108201"><ele>2336.2</ele><time>2025-02-22T21:16:37Z</time></trkpt>
<trkpt lat="38.967303" lon="-120.108063"><ele>2327.8</ele><time>2025-02-22T21:16:40Z</time></trkpt>
<trkpt lat="38.967288" lon="-120.107977"><ele>2325.4</ele><time>2025-02-22T21:16:41Z</time></trkpt>
<trkpt lat="38.967299" lon="-120.107890"><ele>2324.0</ele><time>2025-02-22T21:16:42Z</time></trkpt>
<trkpt lat="38.967344" lon="-120.107822"><ele>2322.0</ele><time>2025-02-22T21:16:43Z</time></trkpt>
<trkpt lat="38.967338" lon="-120.107670"><ele>2316.8</ele><time>2025-02-22T21:16:45Z</time></trkpt>
<trkpt lat="38.967486" lon="-120.107336"><ele>2305.0</ele><time>2025-02-22T21:16:50Z</time></trkpt>
<trkpt lat="38.967507" lon="-120.107170"><ele>2301.2</ele><time>2025-02-22T21:16:52Z</time></trkpt>
<trkpt lat="38.967635" lon="-120.107036"><ele>2295.6</ele><time>2025-02-22T21:16:54Z</time></trkpt>
<trkpt lat="38.967736" lon="-120.106824"><ele>2288.4</ele><time>2025-02-22T21:16:57Z</time></trkpt>
<trkpt lat="38.967773" lon="-120.106654"><ele>2285.6</ele><time>2025-02-22T21:16:59Z</time></trkpt>
<trkpt lat="38.967937" lon="-120.106344"><ele>2276.8</ele><time>2025-02-22T21:17:03Z</time></trkpt>
<trkpt lat="38.967942" lon="-120.106173"><ele>2271.2</ele><time>2025-02-22T21:17:05Z</time></trkpt>
<trkpt lat="38.967982" lon="-120.106073"><ele>2268.2</ele><time>2025-02-22T21:17:06Z</time></trkpt>
<trkpt lat="38.968054" lon="-120.105993"><ele>2266.8</ele><time>2025-02-22T21:17:07Z</time></trkpt>
<trkpt lat="38.968109" lon="-120.105836"><ele>2264.0</ele><time>2025-02-22T21:17:09Z</time></trkpt>
<trkpt lat="38.968136" lon="-120.105793"><ele>2260.6</ele><time>2025-02-22T21:17:10Z</time></trkpt>
<trkpt lat="38.968191" lon="-120.105810"><ele>2256.6</ele><time>2025-02-22T21:17:13Z</time></trkpt>
<trkpt lat="38.968177" lon="-120.105800"><ele>2251.0</ele><time>2025-02-22T21:17:46Z</time></trkpt>
<trkpt lat="38.968156" lon="-120.105818"><ele>2251.0</ele><time>2025-02-22T21:17:52Z</time></trkpt>
<trkpt lat="38.968201" lon="-120.105800"><ele>2251.2</ele><time>2025-02-22T21:18:05Z</time></trkpt>
<trkpt lat="38.968344" lon="-120.105471"><ele>2248.8</ele><time>2025-02-22T21:18:10Z</time></trkpt>
<trkpt lat="38.968364" lon="-120.105368"><ele>2247.2</ele><time>2025-02-22T21:18:11Z</time></trkpt>
<trkpt lat="38.968347" lon="-120.105235"><ele>2239.4</ele><time>2025-02-22T21:18:13Z</time></trkpt>
<trkpt lat="38.968417" lon="-120.105042"><ele>2236.2</ele><time>2025-02-22T21:18:16Z</time></trkpt>
<trkpt lat="38.968464" lon="-120.104992"><ele>2233.6</ele><time>2025-02-22T21:18:17Z</time></trkpt>
<trkpt lat="38.968468" lon="-120.104808"><ele>2229.2</ele><time>2025-02-22T21:18:20Z</time></trkpt>
<trkpt lat="38.968543" lon="-120.104700"><ele>2225.6</ele><time>2025-02-22T21:18:22Z</time></trkpt>
<trkpt lat="38.968649" lon="-120.104640"><ele>2223.6</ele><time>2025-02-22T21:18:24Z</time></trkpt>
<trkpt lat="38.968668" lon="-120.104367"><ele>2217.4</ele><time>2025-02-22T21:18:28Z</time></trkpt>
<trkpt lat="38.968697" lon="-120.104337"><ele>2213.6</ele><time>2025-02-22T21:18:29Z</time></trkpt>
<trkpt lat="38.968801" lon="-120.104292"><ele>2211.4</ele><time>2025-02-22T21:18:31Z</time></trkpt>
<trkpt lat="38.968845" lon="-120.104211"><ele>2209.8</ele><time>2025-02-22T21:18:33Z</time></trkpt>
<trkpt lat="38.968865" lon="-120.104230"><ele>2206.0</ele><time>2025-02-22T21:18:36Z</time></trkpt>
<trkpt lat="38.968901" lon="-120.104134"><ele>2204.8</ele><time>2025-02-22T21:18:42Z</time></trkpt>
<trkpt lat="38.968954" lon="-120.104103"><ele>2204.4</ele><time>2025-02-22T21:18:43Z</time></trkpt>
<trkpt lat="38.969229" lon="-120.104086"><ele>2198.6</ele><time>2025-02-22T21:18:49Z</time></trkpt>
<trkpt lat="38.969429" lon="-120.104137"><ele>2196.6</ele><time>2025-02-22T21:18:53Z</time></trkpt>
<trkpt lat="38.969462" lon="-120.104098"><ele>2195.4</ele><time>2025-02-22T21:18:54Z</time></trkpt>
<trkpt lat="38.969461" lon="-120.103979"><ele>2190.6</ele><time>2025-02-22T21:18:56Z</time></trkpt>
<trkpt lat="38.969487" lon="-120.103950"><ele>2187.8</ele><time>2025-02-22T21:18:57Z</time></trkpt>
<trkpt lat="38.969696" lon="-120.103901"><ele>2181.0</ele><time>2025-02-22T21:19:01Z</time></trkpt>
<trkpt lat="38.969819" lon="-120.103764"><ele>2178.2</ele><time>2025-02-22T21:19:05Z</time></trkpt>
<trkpt lat="38.969869" lon="-120.103764"><ele>2175.4</ele><time>2025-02-22T21:19:13Z</time></trkpt>
<trkpt lat="38.969870" lon="-120.103698"><ele>2174.6</ele><time>2025-02-22T21:19:17Z</time></trkpt>
<trkpt lat="38.969868" lon="-120.103665"><ele>2170.6</ele><time>2025-02-22T21:19:35Z</time></trkpt>
<trkpt lat="38.969874" lon="-120.103541"><ele>2170.0</ele><time>2025-02-22T21:19:38Z</time></trkpt>
<trkpt lat="38.969965" lon="-120.103387"><ele>2168.0</ele><time>2025-02-22T21:19:41Z</time></trkpt>
<trkpt lat="38.970038" lon="-120.103413"><ele>2165.8</ele><time>2025-02-22T21:19:44Z</time></trkpt>
<trkpt lat="38.970173" lon="-120.103375"><ele>2163.8</ele><time>2025-02-22T21:19:48Z</time></trkpt>
<trkpt lat="38.970360" lon="-120.103242"><ele>2158.2</ele><time>2025-02-22T21:19:53Z</time></trkpt>
<trkpt lat="38.970400" lon="-120.103133"><ele>2156.0</ele><time>2025-02-22T21:19:58Z</time></trkpt>
<trkpt lat="38.970392" lon="-120.103126"><ele>2153.6</ele><time>2025-02-22T21:20:10Z</time></trkpt>
<trkpt lat="38.970426" lon="-120.103119"><ele>2152.8</ele><time>2025-02-22T21:20:25Z</time></trkpt>
<trkpt lat="38.970460" lon="-120.102967"><ele>2151.6</ele><time>2025-02-22T21:20:30Z</time></trkpt>
<trkpt lat="38.970545" lon="-120.102847"><ele>2147.2</ele><time>2025-02-22T21:20:42Z</time></trkpt>
<trkpt lat="38.970540" lon="-120.102650"><ele>2140.8</ele><time>2025-02-22T21:20:46Z</time></trkpt>
<trkpt lat="38.970659" lon="-120.102441"><ele>2133.6</ele><time>2025-02-22T21:20:50Z</time></trkpt>
<trkpt lat="38.970632" lon="-120.102321"><ele>2132.2</ele><time>2025-02-22T21:20:53Z</time></trkpt>
<trkpt lat="38.970679" lon="-120.102248"><ele>2130.0</ele><time>2025-02-22T21:21:03Z</time></trkpt>
<trkpt lat="38.970646" lon="-120.102178"><ele>2128.8</ele><time>2025-02-22T21:21:07Z</time></trkpt>
<trkpt lat="38.970646" lon="-120.102068"><ele>2126.8</ele><time>2025-02-22T21:21:10Z</time></trkpt>
<trkpt lat="38.970758" lon="-120.101898"><ele>2122.4</ele><time>2025-02-22T21:21:17Z</time></trkpt>
<trkpt lat="38.970712" lon="-120.101705"><ele>2120.2</ele><time>2025-02-22T21:21:21Z</time></trkpt>
<trkpt lat="38.970733" lon="-120.101401"><ele>2114.8</ele><time>2025-02-22T21:21:26Z</time></trkpt>
<trkpt lat="38.970805" lon="-120.101214"><ele>2111.0</ele><time>2025-02-22T21:21:29Z</time></trkpt>
<trkpt lat="38.970831" lon="-120.101214"><ele>2109.2</ele><time>2025-02-22T21:21:32Z</time></trkpt>
<trkpt lat="38.970801" lon="-120.101219"><ele>2107.8</ele><time>2025-02-22T21:21:46Z</time></trkpt>
<trkpt lat="38.970852" lon="-120.101232"><ele>2107.0</ele><time>2025-02-22T21:21:57Z</time></trkpt>
<trkpt lat="38.970884" lon="-120.100988"><ele>2104.6</ele><time>2025-02-22T21:22:06Z</time></trkpt>
<trkpt lat="38.970971" lon="-120.100737"><ele>2098.2</ele><time>2025-02-22T21:22:16Z</time></trkpt>
<trkpt lat="38.971054" lon="-120.100624"><ele>2097.0</ele><time>2025-02-22T21:22:28Z</time></trkpt>
<trkpt lat="38.970927" lon="-120.100495"><ele>2095.0</ele><time>2025-02-22T21:22:34Z</time></trkpt>
<trkpt lat="38.970905" lon="-120.100424"><ele>2093.6</ele><time>2025-02-22T21:22:43Z</time></trkpt>
<trkpt lat="38.971067" lon="-120.100089"><ele>2090.0</ele><time>2025-02-22T21:23:07Z</time></trkpt>
<trkpt lat="38.971065" lon="-120.100019"><ele>2089.4</ele><time>2025-02-22T21:23:24Z</time></trkpt>
<trkpt lat="38.971151" lon="-120.100063"><ele>2089.0</ele><time>2025-02-22T21:23:55Z</time></trkpt>
<trkpt lat="38.971333" lon="-120.099973"><ele>2088.4</ele><time>2025-02-22T21:24:17Z</time></trkpt>
<trkpt lat="38.971356" lon="-120.099821"><ele>2087.4</ele><time>2025-02-22T21:24:25Z</time></trkpt>
<trkpt lat="38.971313" lon="-120.099272"><ele>2084.8</ele><time>2025-02-22T21:24:59Z</time></trkpt>
<trkpt lat="38.971386" lon="-120.099201"><ele>2084.8</ele><time>2025-02-22T21:25:14Z</time></trkpt>
<trkpt lat="38.971485" lon="-120.099015"><ele>2084.2</ele><time>2025-02-22T21:25:24Z</time></trkpt>
<trkpt lat="38.971478" lon="-120.098835"><ele>2084.4</ele><time>2025-02-22T21:25:54Z</time></trkpt>
<trkpt lat="38.971535" lon="-120.098743"><ele>2084.0</ele><time>2025-02-22T21:25:59Z</time></trkpt>
<trkpt lat="38.971577" lon="-120.098746"><ele>2083.0</ele><time>2025-02-22T21:26:11Z</time></trkpt>
<trkpt lat="38.971628" lon="-120.098679"><ele>2082.0</ele><time>2025-02-22T21:26:20Z</time></trkpt>
<trkpt lat="38.971634" lon="-120.098450"><ele>2082.2</ele><time>2025-02-22T21:26:51Z</time></trkpt>
<trkpt lat="38.971727" lon="-120.098437"><ele>2085.0</ele><time>2025-02-22T21:27:28Z</time></trkpt>
<trkpt lat="38.971742" lon="-120.098460"><ele>2084.2</ele><time>2025-02-22T21:27:51Z</time></trkpt>
<trkpt lat="38.971769" lon="-120.098435"><ele>2084.4</ele><time>2025-02-22T21:28:22Z</time></trkpt>
<trkpt lat="38.971755" lon="-120.098403"><ele>2084.2</ele><time>2025-02-22T21:28:51Z</time></trkpt>
<trkpt lat="38.971781" lon="-120.098442"><ele>2083.8</ele><time>2025-02-22T21:29:13Z</time></trkpt>
<trkpt lat="38.971748" lon="-120.098432"><ele>2083.4</ele><time>2025-02-22T21:29:28Z</time></trkpt>
<trkpt lat="38.971821" lon="-120.098288"><ele>2084.2</ele><time>2025-02-22T21:30:15Z</time></trkpt>
<trkpt lat="38.973263" lon="-120.098614"><ele>2086.6</ele><time>2025-02-22T21:32:33Z</time></trkpt>
<trkpt lat="38.973519" lon="-120.098803"><ele>2085.6</ele><time>2025-02-22T21:32:57Z</time></trkpt>
<trkpt lat="38.973794" lon="-120.099107"><ele>2083.6</ele><time>2025-02-22T21:33:50Z</time></trkpt>
<trkpt lat="38.974231" lon="-120.099489"><ele>2083.6</ele><time>2025-02-22T21:34:47Z</time></trkpt>
<trkpt lat="38.975062" lon="-120.100096"><ele>2086.8</ele><time>2025-02-22T21:36:18Z</time></trkpt>
<trkpt lat="38.975403" lon="-120.100303"><ele>2090.4</ele><time>2025-02-22T21:37:01Z</time></trkpt>
</trkseg></trk>
</gpx>
