<?xml version="1.0" encoding="UTF-8"?>
<gpx version="1.1" creator="Eric Sichak trip reports" xmlns="http://www.topografix.com/GPX/1/1">
<metadata><name>Sketchy snowpack</name><time>2025-02-15T12:07:25Z</time></metadata>
<trk><name>Sketchy snowpack</name><type>ski</type><trkseg>
<trkpt lat="38.935660" lon="-119.939940"><ele>2021.2</ele><time>2025-02-15T12:07:25Z</time></trkpt>
<trkpt lat="38.935457" lon="-119.940135"><ele>2021.4</ele><time>2025-02-15T12:07:58Z</time></trkpt>
<trkpt lat="38.935137" lon="-119.939851"><ele>2029.8</ele><time>2025-02-15T12:09:38Z</time></trkpt>
<trkpt lat="38.934822" lon="-119.939978"><ele>2031.8</ele><time>2025-02-15T12:10:35Z</time></trkpt>
<trkpt lat="38.934463" lon="-119.940203"><ele>2033.4</ele><time>2025-02-15T12:11:09Z</time></trkpt>
<trkpt lat="38.933733" lon="-119.940702"><ele>2045.6</ele><time>2025-02-15T12:12:39Z</time></trkpt>
<trkpt lat="38.933206" lon="-119.941203"><ele>2055.0</ele><time>2025-02-15T12:13:56Z</time></trkpt>
<trkpt lat="38.932820" lon="-119.941663"><ele>2059.0</ele><time>2025-02-15T12:14:58Z</time></trkpt>
<trkpt lat="38.932442" lon="-119.942215"><ele>2063.2</ele><time>2025-02-15T12:16:04Z</time></trkpt>
<trkpt lat="38.932428" lon="-119.942229"><ele>2055.0</ele><time>2025-02-15T12:16:29Z</time></trkpt>
<trkpt lat="38.932449" lon="-119.942229"><ele>2051.2</ele><time>2025-02-15T12:17:00Z</time></trkpt>
<trkpt lat="38.932435" lon="-119.942205"><ele>2051.0</ele><time>2025-02-15T12:17:27Z</time></trkpt>
<trkpt lat="38.932422" lon="-119.942230"><ele>2054.2</ele><time>2025-02-15T12:18:21Z</time></trkpt>
<trkpt lat="38.932453" lon="-119.942235"><ele>2054.2</ele><time>2025-02-15T12:18:42Z</time></trkpt>
<trkpt lat="38.932142" lon="-119.942667"><ele>2061.8</ele><time>2025-02-15T12:19:32Z</time></trkpt>
<trkpt lat="38.931989" lon="-119.942934"><ele>2067.2</ele><time>2025-02-15T12:20:08Z</time></trkpt>
<trkpt lat="38.931863" lon="-119.942986"><ele>2069.8</ele><time>2025-02-15T12:20:26Z</time></trkpt>
<trkpt lat="38.931779" lon="-119.942932"><ele>2072.8</ele><time>2025-02-15T12:20:41Z</time></trkpt>
<trkpt lat="38.931678" lon="-119.942792"><ele>2075.0</ele><time>2025-02-15T12:21:06Z</time></trkpt>
<trkpt lat="38.931572" lon="-119.942398"><ele>2081.2</ele><time>2025-02-15T12:21:53Z</time></trkpt>
<trkpt lat="38.931507" lon="-119.942274"><ele>2083.4</ele><time>2025-02-15T12:22:11Z</time></trkpt>
<trkpt lat="38.931436" lon="-119.942231"><ele>2084.4</ele><time>2025-02-15T12:22:21Z</time></trkpt>
<trkpt lat="38.931299" lon="-119.942286"><ele>2086.8</ele><time>2025-02-15T12:22:43Z</time></trkpt>
<trkpt lat="38.931236" lon="-119.942228"><ele>2088.4</ele><time>2025-02-15T12:22:55Z</time></trkpt>
<trkpt lat="38.931164" lon="-119.941948"><ele>2092.4</ele><time>2025-02-15T12:23:39Z</time></trkpt>
<trkpt lat="38.931097" lon="-119.941772"><ele>2092.0</ele><time>2025-02-15T12:24:10Z</time></trkpt>
<trkpt lat="38.931091" lon="-119.941611"><ele>2095.4</ele><time>2025-02-15T12:24:33Z</time></trkpt>
<trkpt lat="38.931222" lon="-119.941342"><ele>2098.0</ele><time>2025-02-15T12:25:27Z</time></trkpt>
<trkpt lat="38.931251" lon="-119.940985"><ele>2101.6</ele><time>2025-02-15T12:26:24Z</time></trkpt>
<trkpt lat="38.931229" lon="-119.940796"><ele>2104.2</ele><time>2025-02-15T12:26:46Z</time></trkpt>
<trkpt lat="38.931271" lon="-119.940521"><ele>2107.4</ele><time>2025-02-15T12:27:18Z</time></trkpt>
<trkpt lat="38.931486" lon="-119.939860"><ele>2118.2</ele><time>2025-02-15T12:28:51Z</time></trkpt>
<trkpt lat="38.931515" lon="-119.939562"><ele>2123.0</ele><time>2025-02-15T12:29:31Z</time></trkpt>
<trkpt lat="38.931605" lon="-119.939255"><ele>2129.0</ele><time>2025-02-15T12:30:17Z</time></trkpt>
<trkpt lat="38.931858" lon="-119.938758"><ele>2139.8</ele><time>2025-02-15T12:31:38Z</time></trkpt>
<trkpt lat="38.932060" lon="-119.938513"><ele>2146.8</ele><time>2025-02-15T12:32:28Z</time></trkpt>
<trkpt lat="38.932164" lon="-119.938230"><ele>2152.6</ele><time>2025-02-15T12:33:11Z</time></trkpt>
<trkpt lat="38.932302" lon="-119.938098"><ele>2155.8</ele><time>2025-02-15T12:33:37Z</time></trkpt>
<trkpt lat="38.932454" lon="-119.937755"><ele>2160.4</ele><time>2025-02-15T12:34:20Z</time></trkpt>
<trkpt lat="38.932089" lon="-119.937909"><ele>2166.2</ele><time>2025-02-15T12:35:12Z</time></trkpt>
<trkpt lat="38.931461" lon="-119.938287"><ele>2172.2</ele><time>2025-02-15T12:36:26Z</time></trkpt>
<trkpt lat="38.931463" lon="-119.938315"><ele>2172.6</ele><time>2025-02-15T12:36:34Z</time></trkpt>
<trkpt lat="38.931357" lon="-119.938385"><ele>2173.6</ele><time>2025-02-15T12:36:45Z</time></trkpt>
<trkpt lat="38.930970" lon="-119.938565"><ele>2178.6</ele><time>2025-02-15T12:37:34Z</time></trkpt>
<trkpt lat="38.930342" lon="-119.938956"><ele>2188.4</ele><time>2025-02-15T12:39:01Z</time></trkpt>
<trkpt lat="38.929884" lon="-119.939382"><ele>2200.8</ele><time>2025-02-15T12:40:27Z</time></trkpt>
<trkpt lat="38.929751" lon="-119.939637"><ele>2206.6</ele><time>2025-02-15T12:41:08Z</time></trkpt>
<trkpt lat="38.929674" lon="-119.939909"><ele>2209.0</ele><time>2025-02-15T12:41:33Z</time></trkpt>
<trkpt lat="38.929624" lon="-119.939961"><ele>2209.8</ele><time>2025-02-15T12:41:41Z</time></trkpt>
<trkpt lat="38.929587" lon="-119.939837"><ele>2212.8</ele><time>2025-02-15T12:42:01Z</time></trkpt>
<trkpt lat="38.929582" lon="-119.939423"><ele>2217.6</ele><time>2025-02-15T12:42:48Z</time></trkpt>
<trkpt lat="38.929744" lon="-119.938786"><ele>2223.6</ele><time>2025-02-15T12:43:53Z</time></trkpt>
<trkpt lat="38.929979" lon="-119.938314"><ele>2228.0</ele><time>2025-02-15T12:44:46Z</time></trkpt>
<trkpt lat="38.930458" lon="-119.937786"><ele>2237.0</ele><time>2025-02-15T12:46:12Z</time></trkpt>
<trkpt lat="38.930867" lon="-119.937217"><ele>2247.6</ele><time>2025-02-15T12:47:31Z</time></trkpt>
<trkpt lat="38.931000" lon="-119.936984"><ele>2253.0</ele><time>2025-02-15T12:48:08Z</time></trkpt>
<trkpt lat="38.930996" lon="-119.936848"><ele>2255.6</ele><time>2025-02-15T12:48:27Z</time></trkpt>
<trkpt lat="38.930891" lon="-119.936878"><ele>2258.2</ele><time>2025-02-15T12:48:45Z</time></trkpt>
<trkpt lat="38.930771" lon="-119.936995"><ele>2260.2</ele><time>2025-02-15T12:49:05Z</time></trkpt>
<trkpt lat="38.930442" lon="-119.937193"><ele>2265.6</ele><time>2025-02-15T12:49:57Z</time></trkpt>
<trkpt lat="38.930281" lon="-119.937352"><ele>2265.6</ele><time>2025-02-15T12:50:28Z</time></trkpt>
<trkpt lat="38.930142" lon="-119.937430"><ele>2266.6</ele><time>2025-02-15T12:50:42Z</time></trkpt>
<trkpt lat="38.929951" lon="-119.937497"><ele>2268.6</ele><time>2025-02-15T12:51:06Z</time></trkpt>
<trkpt lat="38.929710" lon="-119.937488"><ele>2272.8</ele><time>2025-02-15T12:51:36Z</time></trkpt>
<trkpt lat="38.929433" lon="-119.937615"><ele>2277.4</ele><time>2025-02-15T12:52:07Z</time></trkpt>
<trkpt lat="38.929123" lon="-119.937862"><ele>2286.4</ele><time>2025-02-15T12:52:55Z</time></trkpt>
<trkpt lat="38.928943" lon="-119.938021"><ele>2295.2</ele><time>2025-02-15T12:53:23Z</time></trkpt>
<trkpt lat="38.928426" lon="-119.938503"><ele>2302.6</ele><time>2025-02-15T12:54:40Z</time></trkpt>
<trkpt lat="38.928148" lon="-119.938602"><ele>2309.0</ele><time>2025-02-15T12:55:17Z</time></trkpt>
<trkpt lat="38.927919" lon="-119.938467"><ele>2311.4</ele><time>2025-02-15T12:55:51Z</time></trkpt>
<trkpt lat="38.927198" lon="-119.937702"><ele>2321.8</ele><time>2025-02-15T12:57:52Z</time></trkpt>
<trkpt lat="38.926599" lon="-119.937233"><ele>2332.2</ele><time>2025-02-15T12:59:27Z</time></trkpt>
<trkpt lat="38.926316" lon="-119.937052"><ele>2334.2</ele><time>2025-02-15T13:00:12Z</time></trkpt>
<trkpt lat="38.926183" lon="-119.936965"><ele>2340.2</ele><time>2025-02-15T13:00:31Z</time></trkpt>
<trkpt lat="38.926054" lon="-119.936909"><ele>2339.0</ele><time>2025-02-15T13:00:50Z</time></trkpt>
<trkpt lat="38.925863" lon="-119.936778"><ele>2343.0</ele><time>2025-02-15T13:01:27Z</time></trkpt>
<trkpt lat="38.925824" lon="-119.936736"><ele>2345.6</ele><time>2025-02-15T13:01:34Z</time></trkpt>
<trkpt lat="38.925612" lon="-119.936487"><ele>2346.2</ele><time>2025-02-15T13:02:07Z</time></trkpt>
<trkpt lat="38.925403" lon="-119.936215"><ele>2353.4</ele><time>2025-02-15T13:02:46Z</time></trkpt>
<trkpt lat="38.925210" lon="-119.936031"><ele>2356.0</ele><time>2025-02-15T13:03:12Z</time></trkpt>
<trkpt lat="38.925087" lon="-119.935985"><ele>2356.2</ele><time>2025-02-15T13:03:23Z</time></trkpt>
<trkpt lat="38.924926" lon="-119.935991"><ele>2358.8</ele><time>2025-02-15T13:03:41Z</time></trkpt>
<trkpt lat="38.924669" lon="-119.935927"><ele>2362.4</ele><time>2025-02-15T13:04:13Z</time></trkpt>
<trkpt lat="38.924550" lon="-119.935941"><ele>2363.2</ele><time>2025-02-15T13:04:33Z</time></trkpt>
<trkpt lat="38.924513" lon="-119.935996"><ele>2363.0</ele><time>2025-02-15T13:04:38Z</time></trkpt>
<trkpt lat="38.924420" lon="-119.936447"><ele>2363.4</ele><time>2025-02-15T13:05:09Z</time></trkpt>
<trkpt lat="38.924159" lon="-119.936881"><ele>2366.8</ele><time>2025-02-15T13:05:54Z</time></trkpt>
<trkpt lat="38.924011" lon="-119.937222"><ele>2369.6</ele><time>2025-02-15T13:06:29Z</time></trkpt>
<trkpt lat="38.923904" lon="-119.937302"><ele>2372.4</ele><time>2025-02-15T13:06:48Z</time></trkpt>
<trkpt lat="38.923867" lon="-119.937247"><ele>2375.2</ele><time>2025-02-15T13:06:57Z</time></trkpt>
<trkpt lat="38.923893" lon="-119.937089"><ele>2375.2</ele><time>2025-02-15T13:07:10Z</time></trkpt>
<trkpt lat="38.924134" lon="-119.936640"><ele>2373.8</ele><time>2025-02-15T13:08:00Z</time></trkpt>
<trkpt lat="38.924292" lon="-119.936270"><ele>2375.6</ele><time>2025-02-15T13:08:35Z</time></trkpt>
<trkpt lat="38.924262" lon="-119.936022"><ele>2375.4</ele><time>2025-02-15T13:09:34Z</time></trkpt>
<trkpt lat="38.924153" lon="-119.935645"><ele>2380.6</ele><time>2025-02-15T13:10:12Z</time></trkpt>
<trkpt lat="38.924122" lon="-119.935618"><ele>2381.2</ele><time>2025-02-15T13:10:17Z</time></trkpt>
<trkpt lat="38.924096" lon="-119.935640"><ele>2381.0</ele><time>2025-02-15T13:10:22Z</time></trkpt>
<trkpt lat="38.924059" lon="-119.935731"><ele>2379.8</ele><time>2025-02-15T13:10:32Z</time></trkpt>
<trkpt lat="38.924082" lon="-119.935979"><ele>2379.8</ele><time>2025-02-15T13:10:55Z</time></trkpt>
<trkpt lat="38.924066" lon="-119.936225"><ele>2382.2</ele><time>2025-02-15T13:11:18Z</time></trkpt>
<trkpt lat="38.923894" lon="-119.936517"><ele>2390.0</ele><time>2025-02-15T13:11:59Z</time></trkpt>
<trkpt lat="38.923736" lon="-119.936637"><ele>2392.8</ele><time>2025-02-15T13:12:24Z</time></trkpt>
<trkpt lat="38.923456" lon="-119.936617"><ele>2395.6</ele><time>2025-02-15T13:12:55Z</time></trkpt>
<trkpt lat="38.923288" lon="-119.936566"><ele>2399.0</ele><time>2025-02-15T13:13:17Z</time></trkpt>
<trkpt lat="38.923171" lon="-119.936462"><ele>2401.2</ele><time>2025-02-15T13:13:43Z</time></trkpt>
<trkpt lat="38.923020" lon="-119.936251"><ele>2404.0</ele><time>2025-02-15T13:14:15Z</time></trkpt>
<trkpt lat="38.922760" lon="-119.936073"><ele>2409.2</ele><time>2025-02-15T13:14:59Z</time></trkpt>
<trkpt lat="38.922728" lon="-119.935897"><ele>2411.6</ele><time>2025-02-15T13:15:20Z</time></trkpt>
<trkpt lat="38.922775" lon="-119.935691"><ele>2412.6</ele><time>2025-02-15T13:15:41Z</time></trkpt>
<trkpt lat="38.923347" lon="-119.934905"><ele>2419.8</ele><time>2025-02-15T13:17:28Z</time></trkpt>
<trkpt lat="38.923462" lon="-119.934676"><ele>2423.0</ele><time>2025-02-15T13:17:52Z</time></trkpt>
<trkpt lat="38.923431" lon="-119.934634"><ele>2423.6</ele><time>2025-02-15T13:17:58Z</time></trkpt>
<trkpt lat="38.923377" lon="-119.934659"><ele>2424.2</ele><time>2025-02-15T13:18:06Z</time></trkpt>
<trkpt lat="38.923095" lon="-119.934869"><ele>2426.6</ele><time>2025-02-15T13:18:43Z</time></trkpt>
<trkpt lat="38.922879" lon="-119.934950"><ele>2429.4</ele><time>2025-02-15T13:19:10Z</time></trkpt>
<trkpt lat="38.922793" lon="-119.934928"><ele>2429.6</ele><time>2025-02-15T13:19:20Z</time></trkpt>
<trkpt lat="38.922699" lon="-119.934831"><ele>2433.4</ele><time>2025-02-15T13:19:38Z</time></trkpt>
<trkpt lat="38.922690" lon="-119.934651"><ele>2435.4</ele><time>2025-02-15T13:19:54Z</time></trkpt>
<trkpt lat="38.922784" lon="-119.934263"><ele>2438.2</ele><time>2025-02-15T13:20:27Z</time></trkpt>
<trkpt lat="38.922747" lon="-119.933813"><ele>2439.8</ele><time>2025-02-15T13:21:04Z</time></trkpt>
<trkpt lat="38.922650" lon="-119.933421"><ele>2441.0</ele><time>2025-02-15T13:21:36Z</time></trkpt>
<trkpt lat="38.922372" lon="-119.932775"><ele>2443.4</ele><time>2025-02-15T13:22:35Z</time></trkpt>
<trkpt lat="38.922358" lon="-119.932565"><ele>2444.2</ele><time>2025-02-15T13:22:51Z</time></trkpt>
<trkpt lat="38.922382" lon="-119.932404"><ele>2445.0</ele><time>2025-02-15T13:23:05Z</time></trkpt>
<trkpt lat="38.922594" lon="-119.932006"><ele>2446.6</ele><time>2025-02-15T13:23:44Z</time></trkpt>
<trkpt lat="38.922943" lon="-119.931716"><ele>2447.2</ele><time>2025-02-15T13:24:27Z</time></trkpt>
<trkpt lat="38.923249" lon="-119.931344"><ele>2447.6</ele><time>2025-02-15T13:25:12Z</time></trkpt>
<trkpt lat="38.923650" lon="-119.930964"><ele>2449.4</ele><time>2025-02-15T13:26:01Z</time></trkpt>
<trkpt lat="38.923774" lon="-119.930806"><ele>2449.0</ele><time>2025-02-15T13:26:19Z</time></trkpt>
<trkpt lat="38.924004" lon="-119.930626"><ele>2450.0</ele><time>2025-02-15T13:26:51Z</time></trkpt>
<trkpt lat="38.924121" lon="-119.930444"><ele>2450.4</ele><time>2025-02-15T13:27:09Z</time></trkpt>
<trkpt lat="38.924144" lon="-119.930301"><ele>2450.4</ele><time>2025-02-15T13:27:20Z</time></trkpt>
<trkpt lat="38.924093" lon="-119.929652"><ele>2453.2</ele><time>2025-02-15T13:28:09Z</time></trkpt>
<trkpt lat="38.924116" lon="-119.929499"><ele>2454.0</ele><time>2025-02-15T13:28:21Z</time></trkpt>
<trkpt lat="38.924208" lon="-119.929218"><ele>2456.0</ele><time>2025-02-15T13:28:46Z</time></trkpt>
<trkpt lat="38.924532" lon="-119.928918"><ele>2459.0</ele><time>2025-02-15T13:29:29Z</time></trkpt>
<trkpt lat="38.924669" lon="-119.928626"><ele>2459.0</ele><time>2025-02-15T13:29:54Z</time></trkpt>
<trkpt lat="38.924777" lon="-119.928139"><ele>2458.2</ele><time>2025-02-15T13:30:24Z</time></trkpt>
<trkpt lat="38.924745" lon="-119.927956"><ele>2458.4</ele><time>2025-02-15T13:30:38Z</time></trkpt>
<trkpt lat="38.924774" lon="-119.927717"><ele>2458.2</ele><time>2025-02-15T13:30:54Z</time></trkpt>
<trkpt lat="38.924927" lon="-119.927214"><ele>2459.0</ele><time>2025-02-15T13:31:30Z</time></trkpt>
<trkpt lat="38.925149" lon="-119.926121"><ele>2470.8</ele><time>2025-02-15T13:33:23Z</time></trkpt>
<trkpt lat="38.925116" lon="-119.925832"><ele>2475.2</ele><time>2025-02-15T13:34:11Z</time></trkpt>
<trkpt lat="38.925129" lon="-119.925623"><ele>2478.2</ele><time>2025-02-15T13:34:36Z</time></trkpt>
<trkpt lat="38.925369" lon="-119.924762"><ele>2486.2</ele><time>2025-02-15T13:36:10Z</time></trkpt>
<trkpt lat="38.925543" lon="-119.924370"><ele>2491.4</ele><time>2025-02-15T13:37:06Z</time></trkpt>
<trkpt lat="38.926075" lon="-119.923374"><ele>2514.2</ele><time>2025-02-15T13:40:00Z</time></trkpt>
<trkpt lat="38.926283" lon="-119.922850"><ele>2527.4</ele><time>2025-02-15T13:41:34Z</time></trkpt>
<trkpt lat="38.926550" lon="-119.922052"><ele>2544.6</ele><time>2025-02-15T13:44:09Z</time></trkpt>
<trkpt lat="38.926582" lon="-119.921909"><ele>2549.2</ele><time>2025-02-15T13:44:25Z</time></trkpt>
<trkpt lat="38.926767" lon="-119.921479"><ele>2556.8</ele><time>2025-02-15T13:45:28Z</time></trkpt>
<trkpt lat="38.926795" lon="-119.921357"><ele>2561.4</ele><time>2025-02-15T13:45:50Z</time></trkpt>
<trkpt lat="38.926794" lon="-119.921378"><ele>2560.2</ele><time>2025-02-15T13:45:58Z</time></trkpt>
<trkpt lat="38.926813" lon="-119.921353"><ele>2559.6</ele><time>2025-02-15T13:46:04Z</time></trkpt>
<trkpt lat="38.926878" lon="-119.920928"><ele>2568.6</ele><time>2025-02-15T13:46:56Z</time></trkpt>
<trkpt lat="38.926868" lon="-119.920621"><ele>2572.0</ele><time>2025-02-15T13:47:32Z</time></trkpt>
<trkpt lat="38.926780" lon="-119.920435"><ele>2579.2</ele><time>2025-02-15T13:48:02Z</time></trkpt>
<trkpt lat="38.926539" lon="-119.920029"><ele>2586.8</ele><time>2025-02-15T13:49:06Z</time></trkpt>
<trkpt lat="38.926022" lon="-119.919441"><ele>2598.4</ele><time>2025-02-15T13:50:34Z</time></trkpt>
<trkpt lat="38.925771" lon="-119.919157"><ele>2600.8</ele><time>2025-02-15T13:51:17Z</time></trkpt>
<trkpt lat="38.924600" lon="-119.918272"><ele>2616.8</ele><time>2025-02-15T13:54:14Z</time></trkpt>
<trkpt lat="38.924173" lon="-119.918127"><ele>2620.0</ele><time>2025-02-15T13:55:19Z</time></trkpt>
<trkpt lat="38.923717" lon="-119.918134"><ele>2625.4</ele><time>2025-02-15T13:56:17Z</time></trkpt>
<trkpt lat="38.923247" lon="-119.918212"><ele>2630.6</ele><time>2025-02-15T13:57:23Z</time></trkpt>
<trkpt lat="38.922610" lon="-119.918349"><ele>2638.4</ele><time>2025-02-15T13:58:47Z</time></trkpt>
<trkpt lat="38.922121" lon="-119.918526"><ele>2647.0</ele><time>2025-02-15T14:00:05Z</time></trkpt>
<trkpt lat="38.921570" lon="-119.918737"><ele>2649.8</ele><time>2025-02-15T14:01:57Z</time></trkpt>
<trkpt lat="38.921295" lon="-119.918825"><ele>2657.2</ele><time>2025-02-15T14:02:46Z</time></trkpt>
<trkpt lat="38.920841" lon="-119.918888"><ele>2672.4</ele><time>2025-02-15T14:04:12Z</time></trkpt>
<trkpt lat="38.920665" lon="-119.918851"><ele>2677.2</ele><time>2025-02-15T14:04:42Z</time></trkpt>
<trkpt lat="38.920414" lon="-119.918738"><ele>2683.2</ele><time>2025-02-15T14:05:24Z</time></trkpt>
<trkpt lat="38.920144" lon="-119.918592"><ele>2694.2</ele><time>2025-02-15T14:06:24Z</time></trkpt>
<trkpt lat="38.919921" lon="-119.918491"><ele>2697.4</ele><time>2025-02-15T14:07:15Z</time></trkpt>
<trkpt lat="38.919032" lon="-119.917877"><ele>2718.4</ele><time>2025-02-15T14:09:41Z</time></trkpt>
<trkpt lat="38.918441" lon="-119.917270"><ele>2725.8</ele><time>2025-02-15T14:11:17Z</time></trkpt>
<trkpt lat="38.918142" lon="-119.916796"><ele>2734.4</ele><time>2025-02-15T14:12:17Z</time></trkpt>
<trkpt lat="38.918076" lon="-119.916624"><ele>2735.8</ele><time>2025-02-15T14:12:36Z</time></trkpt>
<trkpt lat="38.918046" lon="-119.916153"><ele>2740.8</ele><time>2025-02-15T14:13:26Z</time></trkpt>
<trkpt lat="38.918221" lon="-119.915417"><ele>2754.2</ele><time>2025-02-15T14:15:15Z</time></trkpt>
<trkpt lat="38.918189" lon="-119.914977"><ele>2766.0</ele><time>2025-02-15T14:16:20Z</time></trkpt>
<trkpt lat="38.918259" lon="-119.914315"><ele>2780.2</ele><time>2025-02-15T14:18:11Z</time></trkpt>
<trkpt lat="38.918259" lon="-119.913982"><ele>2787.8</ele><time>2025-02-15T14:19:14Z</time></trkpt>
<trkpt lat="38.918170" lon="-119.913528"><ele>2796.6</ele><time>2025-02-15T14:20:58Z</time></trkpt>
<trkpt lat="38.918078" lon="-119.913281"><ele>2803.0</ele><time>2025-02-15T14:22:02Z</time></trkpt>
<trkpt lat="38.917880" lon="-119.912907"><ele>2812.4</ele><time>2025-02-15T14:23:11Z</time></trkpt>
<trkpt lat="38.917573" lon="-119.912555"><ele>2825.8</ele><time>2025-02-15T14:24:39Z</time></trkpt>
<trkpt lat="38.917401" lon="-119.912436"><ele>2831.0</ele><time>2025-02-15T14:25:22Z</time></trkpt>
<trkpt lat="38.917291" lon="-119.912304"><ele>2835.2</ele><time>2025-02-15T14:25:51Z</time></trkpt>
<trkpt lat="38.916928" lon="-119.912046"><ele>2851.8</ele><time>2025-02-15T14:27:26Z</time></trkpt>
<trkpt lat="38.916802" lon="-119.911965"><ele>2853.4</ele><time>2025-02-15T14:27:53Z</time></trkpt>
<trkpt lat="38.916598" lon="-119.911881"><ele>2860.8</ele><time>2025-02-15T14:28:38Z</time></trkpt>
<trkpt lat="38.916333" lon="-119.911737"><ele>2865.2</ele><time>2025-02-15T14:29:25Z</time></trkpt>
<trkpt lat="38.916190" lon="-119.911658"><ele>2870.8</ele><time>2025-02-15T14:29:47Z</time></trkpt>
<trkpt lat="38.916030" lon="-119.911559"><ele>2871.0</ele><time>2025-02-15T14:30:12Z</time></trkpt>
<trkpt lat="38.915880" lon="-119.911518"><ele>2876.4</ele><time>2025-02-15T14:30:44Z</time></trkpt>
<trkpt lat="38.915455" lon="-119.911333"><ele>2885.4</ele><time>2025-02-15T14:31:47Z</time></trkpt>
<trkpt lat="38.915074" lon="-119.911050"><ele>2891.8</ele><time>2025-02-15T14:32:54Z</time></trkpt>
<trkpt lat="38.914907" lon="-119.910849"><ele>2895.0</ele><time>2025-02-15T14:33:30Z</time></trkpt>
<trkpt lat="38.914626" lon="-119.910380"><ele>2903.8</ele><time>2025-02-15T14:34:42Z</time></trkpt>
<trkpt lat="38.914094" lon="-119.909846"><ele>2911.2</ele><time>2025-02-15T14:36:19Z</time></trkpt>
<trkpt lat="38.913887" lon="-119.909550"><ele>2917.0</ele><time>2025-02-15T14:36:55Z</time></trkpt>
<trkpt lat="38.913833" lon="-119.909342"><ele>2920.2</ele><time>2025-02-15T14:37:13Z</time></trkpt>
<trkpt lat="38.913711" lon="-119.909046"><ele>2922.4</ele><time>2025-02-15T14:37:44Z</time></trkpt>
<trkpt lat="38.913708" lon="-119.908832"><ele>2924.2</ele><time>2025-02-15T14:38:02Z</time></trkpt>
<trkpt lat="38.913949" lon="-119.908146"><ele>2931.8</ele><time>2025-02-15T14:39:17Z</time></trkpt>
<trkpt lat="38.914093" lon="-119.907556"><ele>2935.0</ele><time>2025-02-15T14:40:21Z</time></trkpt>
<trkpt lat="38.914238" lon="-119.906793"><ele>2946.4</ele><time>2025-02-15T14:41:51Z</time></trkpt>
<trkpt lat="38.914407" lon="-119.906258"><ele>2954.2</ele><time>2025-02-15T14:42:46Z</time></trkpt>
<trkpt lat="38.914449" lon="-119.906038"><ele>2955.4</ele><time>2025-02-15T14:43:10Z</time></trkpt>
<trkpt lat="38.914621" lon="-119.905460"><ele>2962.2</ele><time>2025-02-15T14:44:04Z</time></trkpt>
<trkpt lat="38.914654" lon="-119.905013"><ele>2966.4</ele><time>2025-02-15T14:44:46Z</time></trkpt>
<trkpt lat="38.914550" lon="-119.904341"><ele>2977.6</ele><time>2025-02-15T14:46:07Z</time></trkpt>
<trkpt lat="38.914640" lon="-119.903914"><ele>2984.2</ele><time>2025-02-15T14:46:57Z</time></trkpt>
<trkpt lat="38.914835" lon="-119.903575"><ele>2988.8</ele><time>2025-02-15T14:47:43Z</time></trkpt>
<trkpt lat="38.915127" lon="-119.903274"><ele>2994.2</ele><time>2025-02-15T14:48:30Z</time></trkpt>
<trkpt lat="38.915862" lon="-119.902829"><ele>3004.2</ele><time>2025-02-15T14:50:39Z</time></trkpt>
<trkpt lat="38.916237" lon="-119.902639"><ele>3015.8</ele><time>2025-02-15T14:52:04Z</time></trkpt>
<trkpt lat="38.916429" lon="-119.902398"><ele>3021.0</ele><time>2025-02-15T14:52:45Z</time></trkpt>
<trkpt lat="38.916596" lon="-119.902093"><ele>3026.8</ele><time>2025-02-15T14:53:37Z</time></trkpt>
<trkpt lat="38.916722" lon="-119.901996"><ele>3030.4</ele><time>2025-02-15T14:53:58Z</time></trkpt>
<trkpt lat="38.916831" lon="-119.901977"><ele>3033.8</ele><time>2025-02-15T14:54:12Z</time></trkpt>
<trkpt lat="38.916942" lon="-119.902018"><ele>3036.0</ele><time>2025-02-15T14:54:23Z</time></trkpt>
<trkpt lat="38.917291" lon="-119.902285"><ele>3042.2</ele><time>2025-02-15T14:55:02Z</time></trkpt>
<trkpt lat="38.917339" lon="-119.902290"><ele>3042.4</ele><time>2025-02-15T14:55:12Z</time></trkpt>
<trkpt lat="38.917337" lon="-119.902288"><ele>3045.0</ele><time>2025-02-15T14:56:27Z</time></trkpt>
<trkpt lat="38.917355" lon="-119.902295"><ele>3041.6</ele><time>2025-02-15T14:56:37Z</time></trkpt>
<trkpt lat="38.917330" lon="-119.902319"><ele>3045.0</ele><time>2025-02-15T14:57:15Z</time></trkpt>
<trkpt lat="38.917310" lon="-119.902356"><ele>3044.0</ele><time>2025-02-15T14:57:20Z</time></trkpt>
<trkpt lat="38.917325" lon="-119.902390"><ele>3044.6</ele><time>2025-02-15T14:57:26Z</time></trkpt>
<trkpt lat="38.917318" lon="-119.902388"><ele>3047.4</ele><time>2025-02-15T14:57:45Z</time></trkpt>
<trkpt lat="38.917340" lon="-119.902408"><ele>3045.6</ele><time>2025-02-15T14:58:09Z</time></trkpt>
<trkpt lat="38.917320" lon="-119.902417"><ele>3042.6</ele><time>2025-02-15T14:58:53Z</time></trkpt>
<trkpt lat="38.917327" lon="-119.902417"><ele>3045.2</ele><time>2025-02-15T14:59:27Z</time></trkpt>
<trkpt lat="38.917330" lon="-119.902305"><ele>3042.6</ele><time>2025-02-15T14:59:44Z</time></trkpt>
<trkpt lat="38.917326" lon="-119.902322"><ele>3045.2</ele><time>2025-02-15T14:59:49Z</time></trkpt>
<trkpt lat="38.917334" lon="-119.902289"><ele>3045.8</ele><time>2025-02-15T15:00:02Z</time></trkpt>
<trkpt lat="38.917334" lon="-119.902289"><ele>3042.4</ele><time>2025-02-15T15:00:18Z</time></trkpt>
<trkpt lat="38.917339" lon="-119.902295"><ele>3046.4</ele><time>2025-02-15T15:00:53Z</time></trkpt>
<trkpt lat="38.917336" lon="-119.902290"><ele>3042.0</ele><time>2025-02-15T15:03:09Z</time></trkpt>
<trkpt lat="38.917316" lon="-119.902289"><ele>3042.6</ele><time>2025-02-15T15:03:27Z</time></trkpt>
<trkpt lat="38.917337" lon="-119.902301"><ele>3043.6</ele><time>2025-02-15T15:03:51Z</time></trkpt>
<trkpt lat="38.917333" lon="-119.902285"><ele>3046.4</ele><time>2025-02-15T15:04:25Z</time></trkpt>
<trkpt lat="38.917346" lon="-119.902283"><ele>3042.4</ele><time>2025-02-15T15:05:33Z</time></trkpt>
<trkpt lat="38.917331" lon="-119.902300"><ele>3041.2</ele><time>2025-02-15T15:06:09Z</time></trkpt>
<trkpt lat="38.917292" lon="-119.902228"><ele>3043.0</ele><time>2025-02-15T15:06:20Z</time></trkpt>
<trkpt lat="38.917085" lon="-119.902059"><ele>3041.2</ele><time>2025-02-15T15:06:38Z</time></trkpt>
<trkpt lat="38.916801" lon="-119.902008"><ele>3037.6</ele><time>2025-02-15T15:06:58Z</time></trkpt>
<trkpt lat="38.916622" lon="-119.902067"><ele>3035.8</ele><time>2025-02-15T15:07:02Z</time></trkpt>
<trkpt lat="38.916566" lon="-119.902137"><ele>3034.6</ele><time>2025-02-15T15:07:03Z</time></trkpt>
<trkpt lat="38.916488" lon="-119.902438"><ele>3031.6</ele><time>2025-02-15T15:07:06Z</time></trkpt>
<trkpt lat="38.916404" lon="-119.902585"><ele>3029.8</ele><time>2025-02-15T15:07:08Z</time></trkpt>
<trkpt lat="38.916200" lon="-119.902718"><ele>3025.0</ele><time>2025-02-15T15:07:11Z</time></trkpt>
<trkpt lat="38.915618" lon="-119.902996"><ele>3011.4</ele><time>2025-02-15T15:07:17Z</time></trkpt>
<trkpt lat="38.915097" lon="-119.903339"><ele>3002.8</ele><time>2025-02-15T15:07:22Z</time></trkpt>
<trkpt lat="38.914829" lon="-119.903615"><ele>3000.0</ele><time>2025-02-15T15:07:25Z</time></trkpt>
<trkpt lat="38.914674" lon="-119.903843"><ele>2994.0</ele><time>2025-02-15T15:07:27Z</time></trkpt>
<trkpt lat="38.914623" lon="-119.903972"><ele>2993.0</ele><time>2025-02-15T15:07:28Z</time></trkpt>
<trkpt lat="38.914603" lon="-119.904361"><ele>2988.8</ele><time>2025-02-15T15:07:31Z</time></trkpt>
<trkpt lat="38.914746" lon="-119.904860"><ele>2980.8</ele><time>2025-02-15T15:07:35Z</time></trkpt>
<trkpt lat="38.914754" lon="-119.905003"><ele>2979.6</ele><time>2025-02-15T15:07:36Z</time></trkpt>
<trkpt lat="38.914736" lon="-119.905140"><ele>2975.0</ele><time>2025-02-15T15:07:37Z</time></trkpt>
<trkpt lat="38.914699" lon="-119.905270"><ele>2971.0</ele><time>2025-02-15T15:07:38Z</time></trkpt>
<trkpt lat="38.914494" lon="-119.905872"><ele>2966.8</ele><time>2025-02-15T15:07:43Z</time></trkpt>
<trkpt lat="38.914338" lon="-119.906485"><ele>2960.4</ele><time>2025-02-15T15:07:48Z</time></trkpt>
<trkpt lat="38.914116" lon="-119.907103"><ele>2954.0</ele><time>2025-02-15T15:07:53Z</time></trkpt>
<trkpt lat="38.913995" lon="-119.907787"><ele>2945.8</ele><time>2025-02-15T15:07:58Z</time></trkpt>
<trkpt lat="38.913975" lon="-119.908065"><ele>2943.2</ele><time>2025-02-15T15:08:00Z</time></trkpt>
<trkpt lat="38.913682" lon="-119.908770"><ele>2934.6</ele><time>2025-02-15T15:08:06Z</time></trkpt>
<trkpt lat="38.913666" lon="-119.909044"><ele>2933.2</ele><time>2025-02-15T15:08:08Z</time></trkpt>
<trkpt lat="38.913757" lon="-119.909390"><ele>2929.2</ele><time>2025-02-15T15:08:11Z</time></trkpt>
<trkpt lat="38.913766" lon="-119.909620"><ele>2928.0</ele><time>2025-02-15T15:08:13Z</time></trkpt>
<trkpt lat="38.913797" lon="-119.909722"><ele>2926.2</ele><time>2025-02-15T15:08:14Z</time></trkpt>
<trkpt lat="38.913886" lon="-119.909866"><ele>2924.4</ele><time>2025-02-15T15:08:16Z</time></trkpt>
<trkpt lat="38.914663" lon="-119.910571"><ele>2913.2</ele><time>2025-02-15T15:08:41Z</time></trkpt>
<trkpt lat="38.914921" lon="-119.911086"><ele>2908.0</ele><time>2025-02-15T15:08:47Z</time></trkpt>
<trkpt lat="38.915147" lon="-119.911308"><ele>2905.6</ele><time>2025-02-15T15:08:50Z</time></trkpt>
<trkpt lat="38.915417" lon="-119.911486"><ele>2900.8</ele><time>2025-02-15T15:08:53Z</time></trkpt>
<trkpt lat="38.915619" lon="-119.911538"><ele>2896.8</ele><time>2025-02-15T15:08:55Z</time></trkpt>
<trkpt lat="38.915811" lon="-119.911680"><ele>2893.8</ele><time>2025-02-15T15:08:57Z</time></trkpt>
<trkpt lat="38.916001" lon="-119.911725"><ele>2891.0</ele><time>2025-02-15T15:08:59Z</time></trkpt>
<trkpt lat="38.916167" lon="-119.911881"><ele>2887.4</ele><time>2025-02-15T15:09:01Z</time></trkpt>
<trkpt lat="38.916208" lon="-119.911879"><ele>2885.2</ele><time>2025-02-15T15:09:02Z</time></trkpt>
<trkpt lat="38.916236" lon="-119.911826"><ele>2878.4</ele><time>2025-02-15T15:09:04Z</time></trkpt>
<trkpt lat="38.916303" lon="-119.911793"><ele>2877.4</ele><time>2025-02-15T15:09:06Z</time></trkpt>
<trkpt lat="38.916406" lon="-119.911829"><ele>2875.8</ele><time>2025-02-15T15:09:08Z</time></trkpt>
<trkpt lat="38.916572" lon="-119.912024"><ele>2872.2</ele><time>2025-02-15T15:09:11Z</time></trkpt>
<trkpt lat="38.916729" lon="-119.912064"><ele>2870.8</ele><time>2025-02-15T15:09:13Z</time></trkpt>
<trkpt lat="38.916878" lon="-119.912180"><ele>2868.0</ele><time>2025-02-15T15:09:15Z</time></trkpt>
<trkpt lat="38.916961" lon="-119.912209"><ele>2865.0</ele><time>2025-02-15T15:09:16Z</time></trkpt>
<trkpt lat="38.917415" lon="-119.912661"><ele>2846.6</ele><time>2025-02-15T15:09:23Z</time></trkpt>
<trkpt lat="38.917494" lon="-119.912828"><ele>2841.4</ele><time>2025-02-15T15:09:25Z</time></trkpt>
<trkpt lat="38.917550" lon="-119.912880"><ele>2838.2</ele><time>2025-02-15T15:09:26Z</time></trkpt>
<trkpt lat="38.917630" lon="-119.913061"><ele>2834.6</ele><time>2025-02-15T15:09:28Z</time></trkpt>
<trkpt lat="38.917744" lon="-119.913171"><ele>2829.2</ele><time>2025-02-15T15:09:30Z</time></trkpt>
<trkpt lat="38.917769" lon="-119.913262"><ele>2828.0</ele><time>2025-02-15T15:09:31Z</time></trkpt>
<trkpt lat="38.917871" lon="-119.913396"><ele>2822.6</ele><time>2025-02-15T15:09:33Z</time></trkpt>
<trkpt lat="38.917899" lon="-119.913489"><ele>2822.0</ele><time>2025-02-15T15:09:34Z</time></trkpt>
<trkpt lat="38.917988" lon="-119.913637"><ele>2816.4</ele><time>2025-02-15T15:09:36Z</time></trkpt>
<trkpt lat="38.918047" lon="-119.913908"><ele>2810.2</ele><time>2025-02-15T15:09:39Z</time></trkpt>
<trkpt lat="38.918056" lon="-119.914475"><ele>2796.0</ele><time>2025-02-15T15:09:45Z</time></trkpt>
<trkpt lat="38.917989" lon="-119.914862"><ele>2786.2</ele><time>2025-02-15T15:09:49Z</time></trkpt>
<trkpt lat="38.917981" lon="-119.915440"><ele>2774.4</ele><time>2025-02-15T15:09:54Z</time></trkpt>
<trkpt lat="38.917991" lon="-119.915577"><ele>2769.4</ele><time>2025-02-15T15:09:55Z</time></trkpt>
<trkpt lat="38.917895" lon="-119.916168"><ele>2761.6</ele><time>2025-02-15T15:09:59Z</time></trkpt>
<trkpt lat="38.917906" lon="-119.916475"><ele>2758.8</ele><time>2025-02-15T15:10:01Z</time></trkpt>
<trkpt lat="38.918000" lon="-119.916726"><ele>2754.0</ele><time>2025-02-15T15:10:03Z</time></trkpt>
<trkpt lat="38.918241" lon="-119.917123"><ele>2748.8</ele><time>2025-02-15T15:10:07Z</time></trkpt>
<trkpt lat="38.918388" lon="-119.917257"><ele>2747.8</ele><time>2025-02-15T15:10:09Z</time></trkpt>
<trkpt lat="38.918510" lon="-119.917434"><ele>2744.2</ele><time>2025-02-15T15:10:11Z</time></trkpt>
<trkpt lat="38.918716" lon="-119.917642"><ele>2741.0</ele><time>2025-02-15T15:10:14Z</time></trkpt>
<trkpt lat="38.918860" lon="-119.917757"><ele>2737.2</ele><time>2025-02-15T15:10:16Z</time></trkpt>
<trkpt lat="38.919034" lon="-119.918003"><ele>2734.2</ele><time>2025-02-15T15:10:19Z</time></trkpt>
<trkpt lat="38.919259" lon="-119.918150"><ele>2731.6</ele><time>2025-02-15T15:10:22Z</time></trkpt>
<trkpt lat="38.919372" lon="-119.918352"><ele>2728.2</ele><time>2025-02-15T15:10:24Z</time></trkpt>
<trkpt lat="38.919532" lon="-119.918424"><ele>2726.4</ele><time>2025-02-15T15:10:26Z</time></trkpt>
<trkpt lat="38.919661" lon="-119.918599"><ele>2723.0</ele><time>2025-02-15T15:10:28Z</time></trkpt>
<trkpt lat="38.920202" lon="-119.918937"><ele>2709.2</ele><time>2025-02-15T15:10:34Z</time></trkpt>
<trkpt lat="38.920389" lon="-119.919020"><ele>2703.0</ele><time>2025-02-15T15:10:36Z</time></trkpt>
<trkpt lat="38.920678" lon="-119.919107"><ele>2695.6</ele><time>2025-02-15T15:10:39Z</time></trkpt>
<trkpt lat="38.920867" lon="-119.919107"><ele>2691.6</ele><time>2025-02-15T15:10:41Z</time></trkpt>
<trkpt lat="38.921053" lon="-119.919017"><ele>2686.8</ele><time>2025-02-15T15:10:43Z</time></trkpt>
<trkpt lat="38.921283" lon="-119.918972"><ele>2683.2</ele><time>2025-02-15T15:10:45Z</time></trkpt>
<trkpt lat="38.921522" lon="-119.918842"><ele>2677.4</ele><time>2025-02-15T15:10:47Z</time></trkpt>
<trkpt lat="38.921660" lon="-119.918832"><ele>2675.4</ele><time>2025-02-15T15:10:48Z</time></trkpt>
<trkpt lat="38.922003" lon="-119.918633"><ele>2666.2</ele><time>2025-02-15T15:10:51Z</time></trkpt>
<trkpt lat="38.922214" lon="-119.918607"><ele>2663.2</ele><time>2025-02-15T15:10:53Z</time></trkpt>
<trkpt lat="38.922405" lon="-119.918471"><ele>2659.6</ele><time>2025-02-15T15:10:55Z</time></trkpt>
<trkpt lat="38.922627" lon="-119.918479"><ele>2656.6</ele><time>2025-02-15T15:10:57Z</time></trkpt>
<trkpt lat="38.922825" lon="-119.918352"><ele>2653.2</ele><time>2025-02-15T15:10:59Z</time></trkpt>
<trkpt lat="38.923036" lon="-119.918337"><ele>2648.4</ele><time>2025-02-15T15:11:01Z</time></trkpt>
<trkpt lat="38.923078" lon="-119.918316"><ele>2647.2</ele><time>2025-02-15T15:11:02Z</time></trkpt>
<trkpt lat="38.923093" lon="-119.918282"><ele>2641.2</ele><time>2025-02-15T15:11:09Z</time></trkpt>
<trkpt lat="38.923138" lon="-119.918254"><ele>2640.4</ele><time>2025-02-15T15:11:13Z</time></trkpt>
<trkpt lat="38.923496" lon="-119.918195"><ele>2636.0</ele><time>2025-02-15T15:11:21Z</time></trkpt>
<trkpt lat="38.923735" lon="-119.918183"><ele>2632.0</ele><time>2025-02-15T15:11:24Z</time></trkpt>
<trkpt lat="38.924000" lon="-119.918212"><ele>2630.6</ele><time>2025-02-15T15:11:27Z</time></trkpt>
<trkpt lat="38.924182" lon="-119.918168"><ele>2628.2</ele><time>2025-02-15T15:11:29Z</time></trkpt>
<trkpt lat="38.924469" lon="-119.918278"><ele>2624.0</ele><time>2025-02-15T15:11:32Z</time></trkpt>
<trkpt lat="38.924651" lon="-119.918396"><ele>2622.0</ele><time>2025-02-15T15:11:34Z</time></trkpt>
<trkpt lat="38.924830" lon="-119.918519"><ele>2617.4</ele><time>2025-02-15T15:11:36Z</time></trkpt>
<trkpt lat="38.924990" lon="-119.918699"><ele>2616.6</ele><time>2025-02-15T15:11:38Z</time></trkpt>
<trkpt lat="38.925259" lon="-119.918891"><ele>2612.6</ele><time>2025-02-15T15:11:41Z</time></trkpt>
<trkpt lat="38.925451" lon="-119.918965"><ele>2609.6</ele><time>2025-02-15T15:11:43Z</time></trkpt>
<trkpt lat="38.925690" lon="-119.919157"><ele>2605.2</ele><time>2025-02-15T15:11:46Z</time></trkpt>
<trkpt lat="38.925841" lon="-119.919321"><ele>2603.8</ele><time>2025-02-15T15:11:48Z</time></trkpt>
<trkpt lat="38.925929" lon="-119.919366"><ele>2601.4</ele><time>2025-02-15T15:11:49Z</time></trkpt>
<trkpt lat="38.926401" lon="-119.919760"><ele>2594.4</ele><time>2025-02-15T15:11:55Z</time></trkpt>
<trkpt lat="38.926772" lon="-119.920186"><ele>2587.2</ele><time>2025-02-15T15:12:00Z</time></trkpt>
<trkpt lat="38.926898" lon="-119.920376"><ele>2582.6</ele><time>2025-02-15T15:12:02Z</time></trkpt>
<trkpt lat="38.926936" lon="-119.920492"><ele>2579.4</ele><time>2025-02-15T15:12:03Z</time></trkpt>
<trkpt lat="38.926955" lon="-119.920605"><ele>2577.8</ele><time>2025-02-15T15:12:04Z</time></trkpt>
<trkpt lat="38.926842" lon="-119.921195"><ele>2569.4</ele><time>2025-02-15T15:12:09Z</time></trkpt>
<trkpt lat="38.926665" lon="-119.921683"><ele>2562.2</ele><time>2025-02-15T15:12:13Z</time></trkpt>
<trkpt lat="38.926478" lon="-119.922280"><ele>2548.8</ele><time>2025-02-15T15:12:19Z</time></trkpt>
<trkpt lat="38.926416" lon="-119.922346"><ele>2547.8</ele><time>2025-02-15T15:12:20Z</time></trkpt>
<trkpt lat="38.926030" lon="-119.922566"><ele>2540.4</ele><time>2025-02-15T15:12:35Z</time></trkpt>
<trkpt lat="38.925935" lon="-119.922664"><ele>2539.4</ele><time>2025-02-15T15:12:40Z</time></trkpt>
<trkpt lat="38.925983" lon="-119.922755"><ele>2536.4</ele><time>2025-02-15T15:12:43Z</time></trkpt>
<trkpt lat="38.925976" lon="-119.922817"><ele>2535.6</ele><time>2025-02-15T15:12:44Z</time></trkpt>
<trkpt lat="38.925889" lon="-119.922920"><ele>2533.0</ele><time>2025-02-15T15:12:46Z</time></trkpt>
<trkpt lat="38.925883" lon="-119.922969"><ele>2530.8</ele><time>2025-02-15T15:12:47Z</time></trkpt>
<trkpt lat="38.925920" lon="-119.923036"><ele>2528.2</ele><time>2025-02-15T15:12:49Z</time></trkpt>
<trkpt lat="38.925842" lon="-119.923149"><ele>2524.2</ele><time>2025-02-15T15:12:52Z</time></trkpt>
<trkpt lat="38.925878" lon="-119.923222"><ele>2522.6</ele><time>2025-02-15T15:12:54Z</time></trkpt>
<trkpt lat="38.925992" lon="-119.923243"><ele>2518.4</ele><time>2025-02-15T15:12:59Z</time></trkpt>
<trkpt lat="38.926021" lon="-119.923362"><ele>2517.8</ele><time>2025-02-15T15:13:01Z</time></trkpt>
<trkpt lat="38.926000" lon="-119.923464"><ele>2517.0</ele><time>2025-02-15T15:13:02Z</time></trkpt>
<trkpt lat="38.925541" lon="-119.924253"><ele>2501.4</ele><time>2025-02-15T15:13:09Z</time></trkpt>
<trkpt lat="38.925353" lon="-119.924699"><ele>2495.4</ele><time>2025-02-15T15:13:12Z</time></trkpt>
<trkpt lat="38.925268" lon="-119.925014"><ele>2490.0</ele><time>2025-02-15T15:13:14Z</time></trkpt>
<trkpt lat="38.925147" lon="-119.925614"><ele>2482.2</ele><time>2025-02-15T15:13:18Z</time></trkpt>
<trkpt lat="38.925166" lon="-119.926218"><ele>2473.2</ele><time>2025-02-15T15:13:22Z</time></trkpt>
<trkpt lat="38.925147" lon="-119.926372"><ele>2467.6</ele><time>2025-02-15T15:13:23Z</time></trkpt>
<trkpt lat="38.925092" lon="-119.926675"><ele>2463.0</ele><time>2025-02-15T15:13:25Z</time></trkpt>
<trkpt lat="38.924801" lon="-119.927718"><ele>2453.8</ele><time>2025-02-15T15:13:33Z</time></trkpt>
<trkpt lat="38.924755" lon="-119.928236"><ele>2453.8</ele><time>2025-02-15T15:13:40Z</time></trkpt>
<trkpt lat="38.924655" lon="-119.928652"><ele>2454.2</ele><time>2025-02-15T15:13:57Z</time></trkpt>
<trkpt lat="38.924530" lon="-119.928863"><ele>2453.8</ele><time>2025-02-15T15:14:08Z</time></trkpt>
<trkpt lat="38.924247" lon="-119.929154"><ele>2451.0</ele><time>2025-02-15T15:14:25Z</time></trkpt>
<trkpt lat="38.924123" lon="-119.929485"><ele>2449.0</ele><time>2025-02-15T15:14:36Z</time></trkpt>
<trkpt lat="38.924101" lon="-119.929713"><ele>2447.8</ele><time>2025-02-15T15:14:41Z</time></trkpt>
<trkpt lat="38.924122" lon="-119.930275"><ele>2446.2</ele><time>2025-02-15T15:14:58Z</time></trkpt>
<trkpt lat="38.924057" lon="-119.930518"><ele>2444.8</ele><time>2025-02-15T15:15:05Z</time></trkpt>
<trkpt lat="38.923362" lon="-119.931212"><ele>2440.2</ele><time>2025-02-15T15:15:33Z</time></trkpt>
<trkpt lat="38.922921" lon="-119.931742"><ele>2438.2</ele><time>2025-02-15T15:15:55Z</time></trkpt>
<trkpt lat="38.922556" lon="-119.932053"><ele>2435.8</ele><time>2025-02-15T15:16:10Z</time></trkpt>
<trkpt lat="38.922374" lon="-119.932434"><ele>2433.6</ele><time>2025-02-15T15:16:21Z</time></trkpt>
<trkpt lat="38.922345" lon="-119.932692"><ele>2432.4</ele><time>2025-02-15T15:16:29Z</time></trkpt>
<trkpt lat="38.922424" lon="-119.932954"><ele>2431.6</ele><time>2025-02-15T15:16:39Z</time></trkpt>
<trkpt lat="38.922644" lon="-119.933410"><ele>2428.8</ele><time>2025-02-15T15:17:12Z</time></trkpt>
<trkpt lat="38.922720" lon="-119.933737"><ele>2427.8</ele><time>2025-02-15T15:17:30Z</time></trkpt>
<trkpt lat="38.922766" lon="-119.934122"><ele>2426.0</ele><time>2025-02-15T15:17:48Z</time></trkpt>
<trkpt lat="38.922759" lon="-119.934328"><ele>2424.8</ele><time>2025-02-15T15:17:54Z</time></trkpt>
<trkpt lat="38.922680" lon="-119.934698"><ele>2422.6</ele><time>2025-02-15T15:18:05Z</time></trkpt>
<trkpt lat="38.922709" lon="-119.934859"><ele>2421.4</ele><time>2025-02-15T15:18:08Z</time></trkpt>
<trkpt lat="38.922818" lon="-119.934939"><ele>2420.2</ele><time>2025-02-15T15:18:10Z</time></trkpt>
<trkpt lat="38.922953" lon="-119.934919"><ele>2418.2</ele><time>2025-02-15T15:18:12Z</time></trkpt>
<trkpt lat="38.923212" lon="-119.934769"><ele>2414.8</ele><time>2025-02-15T15:18:16Z</time></trkpt>
<trkpt lat="38.923385" lon="-119.934622"><ele>2414.0</ele><time>2025-02-15T15:18:19Z</time></trkpt>
<trkpt lat="38.923436" lon="-119.934621"><ele>2413.6</ele><time>2025-02-15T15:18:20Z</time></trkpt>
<trkpt lat="38.923452" lon="-119.934664"><ele>2413.2</ele><time>2025-02-15T15:18:21Z</time></trkpt>
<trkpt lat="38.923462" lon="-119.934733"><ele>2411.2</ele><time>2025-02-15T15:18:22Z</time></trkpt>
<trkpt lat="38.923407" lon="-119.934845"><ele>2409.8</ele><time>2025-02-15T15:18:24Z</time></trkpt>
<trkpt lat="38.923031" lon="-119.935353"><ele>2404.6</ele><time>2025-02-15T15:18:33Z</time></trkpt>
<trkpt lat="38.923154" lon="-119.935522"><ele>2401.8</ele><time>2025-02-15T15:18:37Z</time></trkpt>
<trkpt lat="38.923154" lon="-119.935680"><ele>2398.2</ele><time>2025-02-15T15:18:39Z</time></trkpt>
<trkpt lat="38.923054" lon="-119.936076"><ele>2392.0</ele><time>2025-02-15T15:18:44Z</time></trkpt>
<trkpt lat="38.923068" lon="-119.936243"><ele>2390.4</ele><time>2025-02-15T15:18:46Z</time></trkpt>
<trkpt lat="38.923131" lon="-119.936400"><ele>2388.2</ele><time>2025-02-15T15:18:48Z</time></trkpt>
<trkpt lat="38.923221" lon="-119.936541"><ele>2387.0</ele><time>2025-02-15T15:18:50Z</time></trkpt>
<trkpt lat="38.923350" lon="-119.936602"><ele>2385.2</ele><time>2025-02-15T15:18:52Z</time></trkpt>
<trkpt lat="38.923618" lon="-119.936643"><ele>2381.4</ele><time>2025-02-15T15:18:56Z</time></trkpt>
<trkpt lat="38.923801" lon="-119.936605"><ele>2378.6</ele><time>2025-02-15T15:19:03Z</time></trkpt>
<trkpt lat="38.923685" lon="-119.936795"><ele>2374.8</ele><time>2025-02-15T15:19:14Z</time></trkpt>
<trkpt lat="38.923762" lon="-119.936908"><ele>2371.8</ele><time>2025-02-15T15:19:18Z</time></trkpt>
<trkpt lat="38.923734" lon="-119.936999"><ele>2369.2</ele><time>2025-02-15T15:19:20Z</time></trkpt>
<trkpt lat="38.923769" lon="-119.937030"><ele>2367.0</ele><time>2025-02-15T15:19:22Z</time></trkpt>
<trkpt lat="38.923830" lon="-119.937242"><ele>2364.4</ele><time>2025-02-15T15:19:28Z</time></trkpt>
<trkpt lat="38.923890" lon="-119.937308"><ele>2363.2</ele><time>2025-02-15T15:19:29Z</time></trkpt>
<trkpt lat="38.923932" lon="-119.937299"><ele>2359.4</ele><time>2025-02-15T15:19:30Z</time></trkpt>
<trkpt lat="38.924353" lon="-119.936575"><ele>2352.2</ele><time>2025-02-15T15:19:41Z</time></trkpt>
<trkpt lat="38.924420" lon="-119.936380"><ele>2351.0</ele><time>2025-02-15T15:19:44Z</time></trkpt>
<trkpt lat="38.924468" lon="-119.936077"><ele>2349.8</ele><time>2025-02-15T15:19:49Z</time></trkpt>
<trkpt lat="38.924529" lon="-119.935967"><ele>2349.2</ele><time>2025-02-15T15:19:52Z</time></trkpt>
<trkpt lat="38.924712" lon="-119.935921"><ele>2348.0</ele><time>2025-02-15T15:19:56Z</time></trkpt>
<trkpt lat="38.925118" lon="-119.935991"><ele>2343.6</ele><time>2025-02-15T15:20:02Z</time></trkpt>
<trkpt lat="38.925312" lon="-119.936116"><ele>2341.8</ele><time>2025-02-15T15:20:05Z</time></trkpt>
<trkpt lat="38.925921" lon="-119.936826"><ele>2335.6</ele><time>2025-02-15T15:20:16Z</time></trkpt>
<trkpt lat="38.926276" lon="-119.937020"><ele>2329.2</ele><time>2025-02-15T15:20:20Z</time></trkpt>
<trkpt lat="38.926810" lon="-119.937387"><ele>2321.2</ele><time>2025-02-15T15:20:26Z</time></trkpt>
<trkpt lat="38.927252" lon="-119.937764"><ele>2314.0</ele><time>2025-02-15T15:20:31Z</time></trkpt>
<trkpt lat="38.927827" lon="-119.938406"><ele>2305.4</ele><time>2025-02-15T15:20:39Z</time></trkpt>
<trkpt lat="38.928071" lon="-119.938584"><ele>2302.0</ele><time>2025-02-15T15:20:42Z</time></trkpt>
<trkpt lat="38.928144" lon="-119.938605"><ele>2300.4</ele><time>2025-02-15T15:20:43Z</time></trkpt>
<trkpt lat="38.928286" lon="-119.938601"><ele>2298.8</ele><time>2025-02-15T15:20:45Z</time></trkpt>
<trkpt lat="38.928426" lon="-119.938514"><ele>2297.2</ele><time>2025-02-15T15:20:47Z</time></trkpt>
<trkpt lat="38.929134" lon="-119.937834"><ele>2286.2</ele><time>2025-02-15T15:20:57Z</time></trkpt>
<trkpt lat="38.929457" lon="-119.937590"><ele>2281.4</ele><time>2025-02-15T15:21:01Z</time></trkpt>
<trkpt lat="38.929627" lon="-119.937517"><ele>2279.4</ele><time>2025-02-15T15:21:03Z</time></trkpt>
<trkpt lat="38.929895" lon="-119.937498"><ele>2276.8</ele><time>2025-02-15T15:21:06Z</time></trkpt>
<trkpt lat="38.930159" lon="-119.937420"><ele>2273.4</ele><time>2025-02-15T15:21:09Z</time></trkpt>
<trkpt lat="38.930687" lon="-119.937025"><ele>2267.8</ele><time>2025-02-15T15:21:17Z</time></trkpt>
<trkpt lat="38.930937" lon="-119.936790"><ele>2265.2</ele><time>2025-02-15T15:21:21Z</time></trkpt>
<trkpt lat="38.930998" lon="-119.936795"><ele>2264.8</ele><time>2025-02-15T15:21:22Z</time></trkpt>
<trkpt lat="38.931025" lon="-119.936945"><ele>2262.2</ele><time>2025-02-15T15:21:24Z</time></trkpt>
<trkpt lat="38.930969" lon="-119.937116"><ele>2260.4</ele><time>2025-02-15T15:21:26Z</time></trkpt>
<trkpt lat="38.930651" lon="-119.937599"><ele>2251.8</ele><time>2025-02-15T15:21:31Z</time></trkpt>
<trkpt lat="38.929966" lon="-119.938313"><ele>2237.6</ele><time>2025-02-15T15:21:39Z</time></trkpt>
<trkpt lat="38.929714" lon="-119.938872"><ele>2231.8</ele><time>2025-02-15T15:21:44Z</time></trkpt>
<trkpt lat="38.929583" lon="-119.939430"><ele>2226.4</ele><time>2025-02-15T15:21:49Z</time></trkpt>
<trkpt lat="38.929589" lon="-119.939741"><ele>2223.0</ele><time>2025-02-15T15:21:52Z</time></trkpt>
<trkpt lat="38.929554" lon="-119.939923"><ele>2220.2</ele><time>2025-02-15T15:21:54Z</time></trkpt>
<trkpt lat="38.929596" lon="-119.940012"><ele>2217.8</ele><time>2025-02-15T15:21:56Z</time></trkpt>
<trkpt lat="38.929681" lon="-119.939905"><ele>2215.0</ele><time>2025-02-15T15:22:01Z</time></trkpt>
<trkpt lat="38.929761" lon="-119.939584"><ele>2212.2</ele><time>2025-02-15T15:22:09Z</time></trkpt>
<trkpt lat="38.929835" lon="-119.939447"><ele>2210.8</ele><time>2025-02-15T15:22:11Z</time></trkpt>
<trkpt lat="38.930105" lon="-119.939133"><ele>2204.8</ele><time>2025-02-15T15:22:15Z</time></trkpt>
<trkpt lat="38.930286" lon="-119.938976"><ele>2200.6</ele><time>2025-02-15T15:22:17Z</time></trkpt>
<trkpt lat="38.931656" lon="-119.938159"><ele>2181.4</ele><time>2025-02-15T15:22:32Z</time></trkpt>
<trkpt lat="38.932071" lon="-119.937881"><ele>2178.0</ele><time>2025-02-15T15:22:38Z</time></trkpt>
<trkpt lat="38.932545" lon="-119.937646"><ele>2172.8</ele><time>2025-02-15T15:22:44Z</time></trkpt>
<trkpt lat="38.933221" lon="-119.937123"><ele>2163.0</ele><time>2025-02-15T15:22:53Z</time></trkpt>
<trkpt lat="38.933554" lon="-119.936686"><ele>2160.2</ele><time>2025-02-15T15:23:01Z</time></trkpt>
<trkpt lat="38.933913" lon="-119.935901"><ele>2156.4</ele><time>2025-02-15T15:23:18Z</time></trkpt>
<trkpt lat="38.934007" lon="-119.935775"><ele>2155.6</ele><time>2025-02-15T15:23:22Z</time></trkpt>
<trkpt lat="38.934046" lon="-119.935855"><ele>2155.2</ele><time>2025-02-15T15:23:24Z</time></trkpt>
<trkpt lat="38.934145" lon="-119.935959"><ele>2151.2</ele><time>2025-02-15T15:23:27Z</time></trkpt>
<trkpt lat="38.934320" lon="-119.936073"><ele>2142.2</ele><time>2025-02-15T15:23:31Z</time></trkpt>
<trkpt lat="38.934855" lon="-119.936750"><ele>2110.6</ele><time>2025-02-15T15:23:42Z</time></trkpt>
<trkpt lat="38.935206" lon="-119.937136"><ele>2096.2</ele><time>2025-02-15T15:23:48Z</time></trkpt>
<trkpt lat="38.935272" lon="-119.937195"><ele>2091.2</ele><time>2025-02-15T15:23:49Z</time></trkpt>
<trkpt lat="38.935482" lon="-119.937477"><ele>2081.4</ele><time>2025-02-15T15:23:53Z</time></trkpt>
<trkpt lat="38.935609" lon="-119.937547"><ele>2075.0</ele><time>2025-02-15T15:23:55Z</time></trkpt>
<trkpt lat="38.935782" lon="-119.937728"><ele>2067.2</ele><time>2025-02-15T15:23:58Z</time></trkpt>
<trkpt lat="38.935985" lon="-119.938030"><ele>2056.2</ele><time>2025-02-15T15:24:02Z</time></trkpt>
<trkpt lat="38.936352" lon="-119.938481"><ele>2041.4</ele><time>2025-02-15T15:24:07Z</time></trkpt>
<trkpt lat="38.936401" lon="-119.938597"><ele>2039.0</ele><time>2025-02-15T15:24:08Z</time></trkpt>
<trkpt lat="38.936401" lon="-119.938817"><ele>2034.6</ele><time>2025-02-15T15:24:10Z</time></trkpt>
<trkpt lat="38.936336" lon="-119.938997"><ele>2033.2</ele><time>2025-02-15T15:24:12Z</time></trkpt>
<trkpt lat="38.936199" lon="-119.939250"><ele>2031.2</ele><time>2025-02-15T15:24:15Z</time></trkpt>
<trkpt lat="38.935935" lon="-119.939546"><ele>2028.8</ele><time>2025-02-15T15:24:20Z</time></trkpt>
<trkpt lat="38.935733" lon="-119.939689"><ele>2027.2</ele><time>2025-02-15T15:24:24Z</time></trkpt>
<trkpt lat="38.935215" lon="-119.939814"><ele>2025.6</ele><time>2025-02-15T15:24:39Z</time></trkpt>
<trkpt lat="38.935105" lon="-119.939910"><ele>2024.6</ele><time>2025-02-15T15:24:53Z</time></trkpt>
<trkpt lat="38.935273" lon="-119.939969"><ele>2021.8</ele><time>2025-02-15T15:25:29Z</time></trkpt>
<trkpt lat="38.935352" lon="-119.940080"><ele>2021.0</ele><time>2025-02-15T15:25:38Z</time></trkpt>
<trkpt lat="38.935467" lon="-119.940155"><ele>2019.2</ele><time>2025-02-15T15:25:58Z</time></trkpt>
<trkpt lat="38.935640" lon="-119.939976"><ele>2019.4</ele><time>2025-02-15T15:26:18Z</time></trkpt>
<trkpt lat="38.935659" lon="-119.939933"><ele>2019.6</ele><time>2025-02-15T15:26:27Z</time></trkpt>
<trkpt lat="38.935641" lon="-119.939917"><ele>2020.0</ele><time>2025-02-15T15:26:37Z</time></trkpt>
</trkseg></trk>
</gpx>
