<?xml version="1.0" encoding="UTF-8"?>
<gpx version="1.1" creator="Eric Sichak trip reports" xmlns="http://www.topografix.com/GPX/1/1">
<metadata><name>LTCC Intermediate Rafting – Day 2</name><time>2026-04-26T17:29:02Z</time></metadata>
<trk><name>LTCC Intermediate Rafting – Day 2</name><type>other</type><trkseg>
<trkpt lat="38.769770" lon="-119.714284"><ele>1582.8</ele><time>2026-04-26T17:29:02Z</time></trkpt>
<trkpt lat="38.769755" lon="-119.714288"><ele>1581.0</ele><time>2026-04-26T17:30:39Z</time></trkpt>
<trkpt lat="38.769648" lon="-119.714174"><ele>1581.0</ele><time>2026-04-26T17:31:01Z</time></trkpt>
<trkpt lat="38.769634" lon="-119.714001"><ele>1580.6</ele><time>2026-04-26T17:31:09Z</time></trkpt>
<trkpt lat="38.769672" lon="-119.713915"><ele>1580.4</ele><time>2026-04-26T17:31:14Z</time></trkpt>
<trkpt lat="38.770071" lon="-119.713494"><ele>1578.2</ele><time>2026-04-26T17:31:43Z</time></trkpt>
<trkpt lat="38.770384" lon="-119.713002"><ele>1578.0</ele><time>2026-04-26T17:32:16Z</time></trkpt>
<trkpt lat="38.770986" lon="-119.712397"><ele>1577.4</ele><time>2026-04-26T17:32:52Z</time></trkpt>
<trkpt lat="38.771667" lon="-119.711775"><ele>1576.6</ele><time>2026-04-26T17:33:34Z</time></trkpt>
<trkpt lat="38.772105" lon="-119.711270"><ele>1577.0</ele><time>2026-04-26T17:34:05Z</time></trkpt>
<trkpt lat="38.772351" lon="-119.710742"><ele>1576.8</ele><time>2026-04-26T17:34:28Z</time></trkpt>
<trkpt lat="38.772528" lon="-119.710164"><ele>1577.4</ele><time>2026-04-26T17:34:54Z</time></trkpt>
<trkpt lat="38.772656" lon="-119.709618"><ele>1577.6</ele><time>2026-04-26T17:35:24Z</time></trkpt>
<trkpt lat="38.772822" lon="-119.709184"><ele>1578.0</ele><time>2026-04-26T17:35:45Z</time></trkpt>
<trkpt lat="38.773039" lon="-119.708861"><ele>1577.8</ele><time>2026-04-26T17:36:00Z</time></trkpt>
<trkpt lat="38.773509" lon="-119.708353"><ele>1577.8</ele><time>2026-04-26T17:36:30Z</time></trkpt>
<trkpt lat="38.773995" lon="-119.707925"><ele>1577.8</ele><time>2026-04-26T17:37:00Z</time></trkpt>
<trkpt lat="38.774990" lon="-119.707365"><ele>1577.6</ele><time>2026-04-26T17:38:03Z</time></trkpt>
<trkpt lat="38.775710" lon="-119.706826"><ele>1577.4</ele><time>2026-04-26T17:38:44Z</time></trkpt>
<trkpt lat="38.776819" lon="-119.705844"><ele>1576.6</ele><time>2026-04-26T17:39:54Z</time></trkpt>
<trkpt lat="38.777719" lon="-119.705115"><ele>1576.6</ele><time>2026-04-26T17:41:04Z</time></trkpt>
<trkpt lat="38.778484" lon="-119.704767"><ele>1575.8</ele><time>2026-04-26T17:41:45Z</time></trkpt>
<trkpt lat="38.779061" lon="-119.704630"><ele>1575.4</ele><time>2026-04-26T17:42:12Z</time></trkpt>
<trkpt lat="38.779367" lon="-119.704511"><ele>1575.0</ele><time>2026-04-26T17:42:29Z</time></trkpt>
<trkpt lat="38.780088" lon="-119.704094"><ele>1574.8</ele><time>2026-04-26T17:43:05Z</time></trkpt>
<trkpt lat="38.780498" lon="-119.703709"><ele>1575.0</ele><time>2026-04-26T17:43:39Z</time></trkpt>
<trkpt lat="38.780667" lon="-119.703477"><ele>1574.8</ele><time>2026-04-26T17:43:51Z</time></trkpt>
<trkpt lat="38.780842" lon="-119.702577"><ele>1574.0</ele><time>2026-04-26T17:44:21Z</time></trkpt>
<trkpt lat="38.780787" lon="-119.701640"><ele>1574.2</ele><time>2026-04-26T17:45:01Z</time></trkpt>
<trkpt lat="38.780819" lon="-119.700776"><ele>1574.2</ele><time>2026-04-26T17:45:39Z</time></trkpt>
<trkpt lat="38.780787" lon="-119.700030"><ele>1573.6</ele><time>2026-04-26T17:46:05Z</time></trkpt>
<trkpt lat="38.780884" lon="-119.699663"><ele>1573.2</ele><time>2026-04-26T17:46:18Z</time></trkpt>
<trkpt lat="38.781036" lon="-119.699432"><ele>1573.2</ele><time>2026-04-26T17:46:29Z</time></trkpt>
<trkpt lat="38.781822" lon="-119.698765"><ele>1572.2</ele><time>2026-04-26T17:47:14Z</time></trkpt>
<trkpt lat="38.782287" lon="-119.698225"><ele>1571.8</ele><time>2026-04-26T17:47:50Z</time></trkpt>
<trkpt lat="38.782569" lon="-119.698060"><ele>1571.2</ele><time>2026-04-26T17:48:05Z</time></trkpt>
<trkpt lat="38.782790" lon="-119.697999"><ele>1571.2</ele><time>2026-04-26T17:48:14Z</time></trkpt>
<trkpt lat="38.782879" lon="-119.698046"><ele>1571.6</ele><time>2026-04-26T17:48:19Z</time></trkpt>
<trkpt lat="38.782929" lon="-119.698188"><ele>1571.0</ele><time>2026-04-26T17:48:25Z</time></trkpt>
<trkpt lat="38.782877" lon="-119.698581"><ele>1570.6</ele><time>2026-04-26T17:48:43Z</time></trkpt>
<trkpt lat="38.782915" lon="-119.698697"><ele>1570.6</ele><time>2026-04-26T17:48:53Z</time></trkpt>
<trkpt lat="38.783015" lon="-119.698673"><ele>1570.4</ele><time>2026-04-26T17:49:12Z</time></trkpt>
<trkpt lat="38.782978" lon="-119.698726"><ele>1570.8</ele><time>2026-04-26T17:49:27Z</time></trkpt>
<trkpt lat="38.782968" lon="-119.698818"><ele>1570.6</ele><time>2026-04-26T17:49:40Z</time></trkpt>
<trkpt lat="38.783020" lon="-119.698977"><ele>1571.0</ele><time>2026-04-26T17:49:51Z</time></trkpt>
<trkpt lat="38.783827" lon="-119.700104"><ele>1570.4</ele><time>2026-04-26T17:50:50Z</time></trkpt>
<trkpt lat="38.784035" lon="-119.700307"><ele>1570.0</ele><time>2026-04-26T17:51:03Z</time></trkpt>
<trkpt lat="38.784161" lon="-119.700351"><ele>1570.2</ele><time>2026-04-26T17:51:12Z</time></trkpt>
<trkpt lat="38.784626" lon="-119.700064"><ele>1570.0</ele><time>2026-04-26T17:51:48Z</time></trkpt>
<trkpt lat="38.784865" lon="-119.699724"><ele>1570.0</ele><time>2026-04-26T17:52:11Z</time></trkpt>
<trkpt lat="38.785219" lon="-119.699419"><ele>1569.0</ele><time>2026-04-26T17:52:31Z</time></trkpt>
<trkpt lat="38.785373" lon="-119.699399"><ele>1569.4</ele><time>2026-04-26T17:52:40Z</time></trkpt>
<trkpt lat="38.785633" lon="-119.699441"><ele>1568.4</ele><time>2026-04-26T17:52:53Z</time></trkpt>
<trkpt lat="38.786105" lon="-119.699438"><ele>1568.6</ele><time>2026-04-26T17:53:25Z</time></trkpt>
<trkpt lat="38.786540" lon="-119.699341"><ele>1568.4</ele><time>2026-04-26T17:54:03Z</time></trkpt>
<trkpt lat="38.787151" lon="-119.699261"><ele>1568.4</ele><time>2026-04-26T17:54:40Z</time></trkpt>
<trkpt lat="38.787461" lon="-119.699078"><ele>1567.8</ele><time>2026-04-26T17:54:56Z</time></trkpt>
<trkpt lat="38.788070" lon="-119.698550"><ele>1567.4</ele><time>2026-04-26T17:55:39Z</time></trkpt>
<trkpt lat="38.788294" lon="-119.698281"><ele>1567.2</ele><time>2026-04-26T17:55:56Z</time></trkpt>
<trkpt lat="38.788499" lon="-119.697937"><ele>1567.4</ele><time>2026-04-26T17:56:17Z</time></trkpt>
<trkpt lat="38.789164" lon="-119.696139"><ele>1566.2</ele><time>2026-04-26T17:58:01Z</time></trkpt>
<trkpt lat="38.789886" lon="-119.694810"><ele>1566.2</ele><time>2026-04-26T17:59:09Z</time></trkpt>
<trkpt lat="38.790202" lon="-119.694006"><ele>1566.0</ele><time>2026-04-26T17:59:54Z</time></trkpt>
<trkpt lat="38.790693" lon="-119.692975"><ele>1566.0</ele><time>2026-04-26T18:00:48Z</time></trkpt>
<trkpt lat="38.790963" lon="-119.692571"><ele>1565.4</ele><time>2026-04-26T18:01:09Z</time></trkpt>
<trkpt lat="38.791105" lon="-119.692441"><ele>1565.2</ele><time>2026-04-26T18:01:20Z</time></trkpt>
<trkpt lat="38.791630" lon="-119.692044"><ele>1565.4</ele><time>2026-04-26T18:01:58Z</time></trkpt>
<trkpt lat="38.791861" lon="-119.691939"><ele>1565.0</ele><time>2026-04-26T18:02:12Z</time></trkpt>
<trkpt lat="38.792157" lon="-119.691928"><ele>1564.4</ele><time>2026-04-26T18:02:28Z</time></trkpt>
<trkpt lat="38.792508" lon="-119.691984"><ele>1564.0</ele><time>2026-04-26T18:02:46Z</time></trkpt>
<trkpt lat="38.792963" lon="-119.692142"><ele>1563.6</ele><time>2026-04-26T18:03:09Z</time></trkpt>
<trkpt lat="38.793089" lon="-119.692262"><ele>1563.8</ele><time>2026-04-26T18:03:18Z</time></trkpt>
<trkpt lat="38.793163" lon="-119.692419"><ele>1563.4</ele><time>2026-04-26T18:03:27Z</time></trkpt>
<trkpt lat="38.793147" lon="-119.692515"><ele>1563.4</ele><time>2026-04-26T18:03:36Z</time></trkpt>
<trkpt lat="38.793063" lon="-119.692655"><ele>1563.0</ele><time>2026-04-26T18:03:51Z</time></trkpt>
<trkpt lat="38.793054" lon="-119.692879"><ele>1563.6</ele><time>2026-04-26T18:04:21Z</time></trkpt>
<trkpt lat="38.793224" lon="-119.693513"><ele>1563.2</ele><time>2026-04-26T18:05:08Z</time></trkpt>
<trkpt lat="38.793335" lon="-119.693825"><ele>1563.0</ele><time>2026-04-26T18:05:25Z</time></trkpt>
<trkpt lat="38.793525" lon="-119.694147"><ele>1562.8</ele><time>2026-04-26T18:05:43Z</time></trkpt>
<trkpt lat="38.793697" lon="-119.694299"><ele>1563.0</ele><time>2026-04-26T18:05:56Z</time></trkpt>
<trkpt lat="38.794225" lon="-119.694449"><ele>1562.4</ele><time>2026-04-26T18:06:22Z</time></trkpt>
<trkpt lat="38.794335" lon="-119.694553"><ele>1562.4</ele><time>2026-04-26T18:06:30Z</time></trkpt>
<trkpt lat="38.794718" lon="-119.694757"><ele>1562.8</ele><time>2026-04-26T18:06:54Z</time></trkpt>
<trkpt lat="38.795433" lon="-119.694894"><ele>1562.4</ele><time>2026-04-26T18:07:42Z</time></trkpt>
<trkpt lat="38.795793" lon="-119.694779"><ele>1562.6</ele><time>2026-04-26T18:08:12Z</time></trkpt>
<trkpt lat="38.796106" lon="-119.694497"><ele>1562.6</ele><time>2026-04-26T18:08:33Z</time></trkpt>
<trkpt lat="38.796394" lon="-119.694383"><ele>1562.2</ele><time>2026-04-26T18:08:50Z</time></trkpt>
<trkpt lat="38.796647" lon="-119.694503"><ele>1562.0</ele><time>2026-04-26T18:09:04Z</time></trkpt>
<trkpt lat="38.796726" lon="-119.694633"><ele>1561.8</ele><time>2026-04-26T18:09:13Z</time></trkpt>
<trkpt lat="38.796737" lon="-119.694764"><ele>1561.0</ele><time>2026-04-26T18:09:22Z</time></trkpt>
<trkpt lat="38.796593" lon="-119.694915"><ele>1561.8</ele><time>2026-04-26T18:09:39Z</time></trkpt>
<trkpt lat="38.796609" lon="-119.695101"><ele>1561.4</ele><time>2026-04-26T18:10:00Z</time></trkpt>
<trkpt lat="38.796647" lon="-119.695139"><ele>1561.2</ele><time>2026-04-26T18:10:14Z</time></trkpt>
<trkpt lat="38.796982" lon="-119.695183"><ele>1561.0</ele><time>2026-04-26T18:10:39Z</time></trkpt>
<trkpt lat="38.797383" lon="-119.695359"><ele>1560.6</ele><time>2026-04-26T18:11:01Z</time></trkpt>
<trkpt lat="38.797645" lon="-119.695283"><ele>1559.8</ele><time>2026-04-26T18:11:23Z</time></trkpt>
<trkpt lat="38.798022" lon="-119.695292"><ele>1561.2</ele><time>2026-04-26T18:12:03Z</time></trkpt>
<trkpt lat="38.798578" lon="-119.695167"><ele>1561.4</ele><time>2026-04-26T18:12:40Z</time></trkpt>
<trkpt lat="38.798993" lon="-119.695223"><ele>1561.0</ele><time>2026-04-26T18:13:06Z</time></trkpt>
<trkpt lat="38.799180" lon="-119.695299"><ele>1560.8</ele><time>2026-04-26T18:13:20Z</time></trkpt>
<trkpt lat="38.799888" lon="-119.695720"><ele>1561.0</ele><time>2026-04-26T18:13:56Z</time></trkpt>
<trkpt lat="38.800350" lon="-119.695954"><ele>1560.2</ele><time>2026-04-26T18:14:21Z</time></trkpt>
<trkpt lat="38.800891" lon="-119.696394"><ele>1560.6</ele><time>2026-04-26T18:14:53Z</time></trkpt>
<trkpt lat="38.801267" lon="-119.696822"><ele>1560.8</ele><time>2026-04-26T18:15:20Z</time></trkpt>
<trkpt lat="38.801642" lon="-119.697383"><ele>1560.0</ele><time>2026-04-26T18:15:47Z</time></trkpt>
<trkpt lat="38.802086" lon="-119.698305"><ele>1560.0</ele><time>2026-04-26T18:16:32Z</time></trkpt>
<trkpt lat="38.802294" lon="-119.698526"><ele>1560.0</ele><time>2026-04-26T18:16:46Z</time></trkpt>
<trkpt lat="38.802421" lon="-119.698590"><ele>1559.6</ele><time>2026-04-26T18:16:54Z</time></trkpt>
<trkpt lat="38.802454" lon="-119.698670"><ele>1560.0</ele><time>2026-04-26T18:17:02Z</time></trkpt>
<trkpt lat="38.802506" lon="-119.698620"><ele>1559.6</ele><time>2026-04-26T18:17:10Z</time></trkpt>
<trkpt lat="38.802596" lon="-119.698665"><ele>1560.0</ele><time>2026-04-26T18:17:17Z</time></trkpt>
<trkpt lat="38.802635" lon="-119.698761"><ele>1560.2</ele><time>2026-04-26T18:17:23Z</time></trkpt>
<trkpt lat="38.802927" lon="-119.698971"><ele>1559.4</ele><time>2026-04-26T18:17:43Z</time></trkpt>
<trkpt lat="38.803501" lon="-119.699163"><ele>1559.6</ele><time>2026-04-26T18:18:16Z</time></trkpt>
<trkpt lat="38.803906" lon="-119.699364"><ele>1559.6</ele><time>2026-04-26T18:18:41Z</time></trkpt>
<trkpt lat="38.805185" lon="-119.699652"><ele>1558.8</ele><time>2026-04-26T18:20:01Z</time></trkpt>
<trkpt lat="38.806518" lon="-119.699561"><ele>1557.4</ele><time>2026-04-26T18:21:15Z</time></trkpt>
<trkpt lat="38.807229" lon="-119.699614"><ele>1556.6</ele><time>2026-04-26T18:21:49Z</time></trkpt>
<trkpt lat="38.807660" lon="-119.699562"><ele>1556.0</ele><time>2026-04-26T18:22:11Z</time></trkpt>
<trkpt lat="38.808262" lon="-119.699548"><ele>1556.0</ele><time>2026-04-26T18:22:44Z</time></trkpt>
<trkpt lat="38.809002" lon="-119.699341"><ele>1555.2</ele><time>2026-04-26T18:23:27Z</time></trkpt>
<trkpt lat="38.809736" lon="-119.699254"><ele>1555.0</ele><time>2026-04-26T18:24:06Z</time></trkpt>
<trkpt lat="38.810193" lon="-119.699123"><ele>1555.0</ele><time>2026-04-26T18:24:33Z</time></trkpt>
<trkpt lat="38.810418" lon="-119.699013"><ele>1554.2</ele><time>2026-04-26T18:24:47Z</time></trkpt>
<trkpt lat="38.811355" lon="-119.698352"><ele>1553.0</ele><time>2026-04-26T18:25:45Z</time></trkpt>
<trkpt lat="38.811606" lon="-119.698219"><ele>1552.6</ele><time>2026-04-26T18:25:59Z</time></trkpt>
<trkpt lat="38.811929" lon="-119.698177"><ele>1552.2</ele><time>2026-04-26T18:26:17Z</time></trkpt>
<trkpt lat="38.812768" lon="-119.698304"><ele>1551.0</ele><time>2026-04-26T18:27:26Z</time></trkpt>
<trkpt lat="38.812940" lon="-119.698210"><ele>1549.8</ele><time>2026-04-26T18:27:39Z</time></trkpt>
<trkpt lat="38.813282" lon="-119.697920"><ele>1549.0</ele><time>2026-04-26T18:28:01Z</time></trkpt>
<trkpt lat="38.813439" lon="-119.697775"><ele>1549.0</ele><time>2026-04-26T18:28:10Z</time></trkpt>
<trkpt lat="38.813503" lon="-119.697634"><ele>1550.0</ele><time>2026-04-26T18:28:18Z</time></trkpt>
<trkpt lat="38.813506" lon="-119.696991"><ele>1550.6</ele><time>2026-04-26T18:28:51Z</time></trkpt>
<trkpt lat="38.813598" lon="-119.696321"><ele>1550.4</ele><time>2026-04-26T18:29:20Z</time></trkpt>
<trkpt lat="38.813674" lon="-119.695372"><ele>1550.0</ele><time>2026-04-26T18:30:05Z</time></trkpt>
<trkpt lat="38.813689" lon="-119.694079"><ele>1549.4</ele><time>2026-04-26T18:30:59Z</time></trkpt>
<trkpt lat="38.813654" lon="-119.693104"><ele>1550.0</ele><time>2026-04-26T18:31:39Z</time></trkpt>
<trkpt lat="38.813782" lon="-119.692435"><ele>1549.6</ele><time>2026-04-26T18:32:14Z</time></trkpt>
<trkpt lat="38.813870" lon="-119.692255"><ele>1549.4</ele><time>2026-04-26T18:32:24Z</time></trkpt>
<trkpt lat="38.814258" lon="-119.692401"><ele>1549.0</ele><time>2026-04-26T18:32:52Z</time></trkpt>
<trkpt lat="38.814453" lon="-119.692426"><ele>1549.4</ele><time>2026-04-26T18:33:06Z</time></trkpt>
<trkpt lat="38.814609" lon="-119.692379"><ele>1549.2</ele><time>2026-04-26T18:33:17Z</time></trkpt>
<trkpt lat="38.815009" lon="-119.692163"><ele>1548.4</ele><time>2026-04-26T18:33:43Z</time></trkpt>
<trkpt lat="38.815337" lon="-119.692208"><ele>1548.4</ele><time>2026-04-26T18:34:01Z</time></trkpt>
<trkpt lat="38.815759" lon="-119.692194"><ele>1547.4</ele><time>2026-04-26T18:34:24Z</time></trkpt>
<trkpt lat="38.816134" lon="-119.692281"><ele>1546.6</ele><time>2026-04-26T18:34:50Z</time></trkpt>
<trkpt lat="38.816819" lon="-119.692687"><ele>1547.2</ele><time>2026-04-26T18:35:29Z</time></trkpt>
<trkpt lat="38.817239" lon="-119.693151"><ele>1547.2</ele><time>2026-04-26T18:35:59Z</time></trkpt>
<trkpt lat="38.817369" lon="-119.693211"><ele>1547.4</ele><time>2026-04-26T18:36:08Z</time></trkpt>
<trkpt lat="38.817811" lon="-119.693533"><ele>1547.2</ele><time>2026-04-26T18:36:41Z</time></trkpt>
<trkpt lat="38.817941" lon="-119.693757"><ele>1547.2</ele><time>2026-04-26T18:37:02Z</time></trkpt>
<trkpt lat="38.817950" lon="-119.693720"><ele>1546.8</ele><time>2026-04-26T18:37:42Z</time></trkpt>
<trkpt lat="38.817987" lon="-119.693709"><ele>1548.6</ele><time>2026-04-26T18:39:15Z</time></trkpt>
<trkpt lat="38.818228" lon="-119.693749"><ele>1548.2</ele><time>2026-04-26T18:39:34Z</time></trkpt>
<trkpt lat="38.818646" lon="-119.693922"><ele>1549.2</ele><time>2026-04-26T18:40:06Z</time></trkpt>
<trkpt lat="38.819118" lon="-119.694055"><ele>1548.0</ele><time>2026-04-26T18:40:39Z</time></trkpt>
<trkpt lat="38.819349" lon="-119.694031"><ele>1548.8</ele><time>2026-04-26T18:40:51Z</time></trkpt>
<trkpt lat="38.819688" lon="-119.693924"><ele>1549.4</ele><time>2026-04-26T18:41:14Z</time></trkpt>
<trkpt lat="38.820031" lon="-119.693873"><ele>1548.4</ele><time>2026-04-26T18:41:33Z</time></trkpt>
<trkpt lat="38.820567" lon="-119.693652"><ele>1548.4</ele><time>2026-04-26T18:42:07Z</time></trkpt>
<trkpt lat="38.821368" lon="-119.693166"><ele>1546.6</ele><time>2026-04-26T18:43:06Z</time></trkpt>
<trkpt lat="38.821560" lon="-119.693010"><ele>1546.2</ele><time>2026-04-26T18:43:19Z</time></trkpt>
<trkpt lat="38.821638" lon="-119.692940"><ele>1546.0</ele><time>2026-04-26T18:43:26Z</time></trkpt>
<trkpt lat="38.821624" lon="-119.692904"><ele>1545.6</ele><time>2026-04-26T18:43:50Z</time></trkpt>
<trkpt lat="38.821678" lon="-119.692831"><ele>1545.0</ele><time>2026-04-26T18:46:28Z</time></trkpt>
<trkpt lat="38.821654" lon="-119.692806"><ele>1545.8</ele><time>2026-04-26T18:46:48Z</time></trkpt>
<trkpt lat="38.821697" lon="-119.692787"><ele>1545.2</ele><time>2026-04-26T18:47:07Z</time></trkpt>
<trkpt lat="38.821618" lon="-119.692740"><ele>1545.8</ele><time>2026-04-26T18:47:21Z</time></trkpt>
<trkpt lat="38.821665" lon="-119.692857"><ele>1546.2</ele><time>2026-04-26T18:50:07Z</time></trkpt>
<trkpt lat="38.821644" lon="-119.692817"><ele>1546.0</ele><time>2026-04-26T18:50:24Z</time></trkpt>
<trkpt lat="38.821661" lon="-119.692783"><ele>1546.0</ele><time>2026-04-26T18:50:30Z</time></trkpt>
<trkpt lat="38.821727" lon="-119.692735"><ele>1546.6</ele><time>2026-04-26T18:50:39Z</time></trkpt>
<trkpt lat="38.821812" lon="-119.692591"><ele>1545.8</ele><time>2026-04-26T18:53:35Z</time></trkpt>
<trkpt lat="38.821855" lon="-119.692599"><ele>1545.0</ele><time>2026-04-26T18:54:08Z</time></trkpt>
<trkpt lat="38.821806" lon="-119.692594"><ele>1545.4</ele><time>2026-04-26T18:54:14Z</time></trkpt>
<trkpt lat="38.821844" lon="-119.692546"><ele>1544.4</ele><time>2026-04-26T18:54:57Z</time></trkpt>
<trkpt lat="38.821776" lon="-119.692608"><ele>1543.8</ele><time>2026-04-26T18:59:40Z</time></trkpt>
<trkpt lat="38.821818" lon="-119.692570"><ele>1544.8</ele><time>2026-04-26T19:00:46Z</time></trkpt>
<trkpt lat="38.821805" lon="-119.692617"><ele>1544.8</ele><time>2026-04-26T19:01:29Z</time></trkpt>
<trkpt lat="38.821832" lon="-119.692556"><ele>1544.6</ele><time>2026-04-26T19:01:57Z</time></trkpt>
<trkpt lat="38.821812" lon="-119.692555"><ele>1545.2</ele><time>2026-04-26T19:02:04Z</time></trkpt>
<trkpt lat="38.821787" lon="-119.692590"><ele>1542.8</ele><time>2026-04-26T19:03:25Z</time></trkpt>
<trkpt lat="38.821800" lon="-119.692699"><ele>1543.4</ele><time>2026-04-26T19:05:10Z</time></trkpt>
<trkpt lat="38.821625" lon="-119.692857"><ele>1543.8</ele><time>2026-04-26T19:05:43Z</time></trkpt>
<trkpt lat="38.821569" lon="-119.692849"><ele>1543.8</ele><time>2026-04-26T19:05:55Z</time></trkpt>
<trkpt lat="38.821579" lon="-119.692872"><ele>1544.6</ele><time>2026-04-26T19:06:31Z</time></trkpt>
<trkpt lat="38.821537" lon="-119.692933"><ele>1542.2</ele><time>2026-04-26T19:09:34Z</time></trkpt>
<trkpt lat="38.821624" lon="-119.692898"><ele>1542.2</ele><time>2026-04-26T19:09:46Z</time></trkpt>
<trkpt lat="38.821538" lon="-119.692898"><ele>1543.4</ele><time>2026-04-26T19:10:39Z</time></trkpt>
<trkpt lat="38.821501" lon="-119.692969"><ele>1540.4</ele><time>2026-04-26T19:11:02Z</time></trkpt>
<trkpt lat="38.821420" lon="-119.693074"><ele>1542.6</ele><time>2026-04-26T19:13:17Z</time></trkpt>
<trkpt lat="38.821413" lon="-119.693147"><ele>1541.8</ele><time>2026-04-26T19:13:23Z</time></trkpt>
<trkpt lat="38.821447" lon="-119.693174"><ele>1541.4</ele><time>2026-04-26T19:13:25Z</time></trkpt>
<trkpt lat="38.821535" lon="-119.693144"><ele>1541.0</ele><time>2026-04-26T19:13:28Z</time></trkpt>
<trkpt lat="38.821717" lon="-119.693015"><ele>1537.6</ele><time>2026-04-26T19:13:35Z</time></trkpt>
<trkpt lat="38.821976" lon="-119.692837"><ele>1520.8</ele><time>2026-04-26T19:13:48Z</time></trkpt>
<trkpt lat="38.821979" lon="-119.692806"><ele>1517.4</ele><time>2026-04-26T19:13:51Z</time></trkpt>
<trkpt lat="38.821879" lon="-119.692785"><ele>1521.4</ele><time>2026-04-26T19:13:59Z</time></trkpt>
<trkpt lat="38.821860" lon="-119.692778"><ele>1533.8</ele><time>2026-04-26T19:14:11Z</time></trkpt>
<trkpt lat="38.821866" lon="-119.692745"><ele>1535.6</ele><time>2026-04-26T19:14:16Z</time></trkpt>
<trkpt lat="38.821849" lon="-119.692714"><ele>1531.4</ele><time>2026-04-26T19:14:22Z</time></trkpt>
<trkpt lat="38.821762" lon="-119.692743"><ele>1529.0</ele><time>2026-04-26T19:14:32Z</time></trkpt>
<trkpt lat="38.821648" lon="-119.692822"><ele>1529.4</ele><time>2026-04-26T19:14:46Z</time></trkpt>
<trkpt lat="38.821610" lon="-119.692892"><ele>1530.8</ele><time>2026-04-26T19:14:58Z</time></trkpt>
<trkpt lat="38.821750" lon="-119.692811"><ele>1530.2</ele><time>2026-04-26T19:15:28Z</time></trkpt>
<trkpt lat="38.821793" lon="-119.692820"><ele>1529.8</ele><time>2026-04-26T19:15:39Z</time></trkpt>
<trkpt lat="38.821738" lon="-119.692727"><ele>1530.6</ele><time>2026-04-26T19:15:52Z</time></trkpt>
<trkpt lat="38.821692" lon="-119.692762"><ele>1531.4</ele><time>2026-04-26T19:16:20Z</time></trkpt>
<trkpt lat="38.821715" lon="-119.692774"><ele>1531.8</ele><time>2026-04-26T19:17:07Z</time></trkpt>
<trkpt lat="38.821715" lon="-119.692738"><ele>1531.8</ele><time>2026-04-26T19:17:56Z</time></trkpt>
<trkpt lat="38.821703" lon="-119.692754"><ele>1533.8</ele><time>2026-04-26T19:19:13Z</time></trkpt>
<trkpt lat="38.821789" lon="-119.692743"><ele>1533.2</ele><time>2026-04-26T19:19:39Z</time></trkpt>
<trkpt lat="38.821772" lon="-119.692754"><ele>1533.2</ele><time>2026-04-26T19:20:15Z</time></trkpt>
<trkpt lat="38.821807" lon="-119.692718"><ele>1534.6</ele><time>2026-04-26T19:20:27Z</time></trkpt>
<trkpt lat="38.821708" lon="-119.692734"><ele>1534.6</ele><time>2026-04-26T19:20:47Z</time></trkpt>
<trkpt lat="38.821727" lon="-119.692708"><ele>1534.6</ele><time>2026-04-26T19:20:56Z</time></trkpt>
<trkpt lat="38.821819" lon="-119.692742"><ele>1533.8</ele><time>2026-04-26T19:21:08Z</time></trkpt>
<trkpt lat="38.821867" lon="-119.692723"><ele>1534.8</ele><time>2026-04-26T19:21:17Z</time></trkpt>
<trkpt lat="38.821744" lon="-119.692720"><ele>1534.0</ele><time>2026-04-26T19:21:51Z</time></trkpt>
<trkpt lat="38.821821" lon="-119.692768"><ele>1536.0</ele><time>2026-04-26T19:22:20Z</time></trkpt>
<trkpt lat="38.821848" lon="-119.692755"><ele>1535.4</ele><time>2026-04-26T19:22:52Z</time></trkpt>
<trkpt lat="38.821808" lon="-119.692789"><ele>1536.2</ele><time>2026-04-26T19:23:23Z</time></trkpt>
<trkpt lat="38.821824" lon="-119.692751"><ele>1537.0</ele><time>2026-04-26T19:24:38Z</time></trkpt>
<trkpt lat="38.821828" lon="-119.692790"><ele>1537.2</ele><time>2026-04-26T19:25:20Z</time></trkpt>
<trkpt lat="38.821830" lon="-119.692756"><ele>1538.0</ele><time>2026-04-26T19:25:37Z</time></trkpt>
<trkpt lat="38.821893" lon="-119.692767"><ele>1536.8</ele><time>2026-04-26T19:25:47Z</time></trkpt>
<trkpt lat="38.821828" lon="-119.692755"><ele>1538.0</ele><time>2026-04-26T19:25:55Z</time></trkpt>
<trkpt lat="38.821847" lon="-119.692726"><ele>1538.4</ele><time>2026-04-26T19:26:15Z</time></trkpt>
<trkpt lat="38.821811" lon="-119.692707"><ele>1539.8</ele><time>2026-04-26T19:28:18Z</time></trkpt>
<trkpt lat="38.821804" lon="-119.692788"><ele>1539.4</ele><time>2026-04-26T19:29:37Z</time></trkpt>
<trkpt lat="38.821728" lon="-119.692691"><ele>1540.0</ele><time>2026-04-26T19:30:04Z</time></trkpt>
<trkpt lat="38.821669" lon="-119.692774"><ele>1543.8</ele><time>2026-04-26T19:30:45Z</time></trkpt>
<trkpt lat="38.821678" lon="-119.692753"><ele>1540.0</ele><time>2026-04-26T19:30:57Z</time></trkpt>
<trkpt lat="38.821670" lon="-119.692719"><ele>1540.0</ele><time>2026-04-26T19:31:11Z</time></trkpt>
<trkpt lat="38.821691" lon="-119.692727"><ele>1541.4</ele><time>2026-04-26T19:31:56Z</time></trkpt>
<trkpt lat="38.821669" lon="-119.692743"><ele>1539.2</ele><time>2026-04-26T19:33:43Z</time></trkpt>
<trkpt lat="38.821697" lon="-119.692732"><ele>1540.6</ele><time>2026-04-26T19:36:10Z</time></trkpt>
<trkpt lat="38.821696" lon="-119.692775"><ele>1539.8</ele><time>2026-04-26T19:36:42Z</time></trkpt>
<trkpt lat="38.821730" lon="-119.692730"><ele>1539.2</ele><time>2026-04-26T19:36:54Z</time></trkpt>
<trkpt lat="38.821688" lon="-119.692719"><ele>1542.0</ele><time>2026-04-26T19:37:11Z</time></trkpt>
<trkpt lat="38.821688" lon="-119.692719"><ele>1539.6</ele><time>2026-04-26T19:37:39Z</time></trkpt>
<trkpt lat="38.821704" lon="-119.692737"><ele>1540.8</ele><time>2026-04-26T19:40:52Z</time></trkpt>
<trkpt lat="38.821688" lon="-119.692719"><ele>1540.4</ele><time>2026-04-26T19:40:59Z</time></trkpt>
<trkpt lat="38.821700" lon="-119.692723"><ele>1542.6</ele><time>2026-04-26T19:45:16Z</time></trkpt>
<trkpt lat="38.821736" lon="-119.692612"><ele>1541.4</ele><time>2026-04-26T19:46:06Z</time></trkpt>
<trkpt lat="38.821685" lon="-119.692519"><ele>1541.8</ele><time>2026-04-26T19:46:13Z</time></trkpt>
<trkpt lat="38.821557" lon="-119.692445"><ele>1543.4</ele><time>2026-04-26T19:46:30Z</time></trkpt>
<trkpt lat="38.821727" lon="-119.692625"><ele>1541.6</ele><time>2026-04-26T19:47:17Z</time></trkpt>
<trkpt lat="38.821690" lon="-119.692746"><ele>1541.6</ele><time>2026-04-26T19:47:46Z</time></trkpt>
<trkpt lat="38.821808" lon="-119.692806"><ele>1541.2</ele><time>2026-04-26T19:48:16Z</time></trkpt>
<trkpt lat="38.821767" lon="-119.692756"><ele>1542.8</ele><time>2026-04-26T19:50:21Z</time></trkpt>
<trkpt lat="38.821674" lon="-119.692724"><ele>1542.2</ele><time>2026-04-26T19:50:47Z</time></trkpt>
<trkpt lat="38.821760" lon="-119.692726"><ele>1543.0</ele><time>2026-04-26T19:51:54Z</time></trkpt>
<trkpt lat="38.821717" lon="-119.692758"><ele>1542.6</ele><time>2026-04-26T19:54:47Z</time></trkpt>
<trkpt lat="38.821741" lon="-119.692754"><ele>1543.6</ele><time>2026-04-26T20:00:12Z</time></trkpt>
<trkpt lat="38.821731" lon="-119.692742"><ele>1540.6</ele><time>2026-04-26T20:04:21Z</time></trkpt>
<trkpt lat="38.821731" lon="-119.692742"><ele>1542.8</ele><time>2026-04-26T20:04:32Z</time></trkpt>
<trkpt lat="38.821881" lon="-119.692847"><ele>1541.4</ele><time>2026-04-26T20:06:52Z</time></trkpt>
<trkpt lat="38.822399" lon="-119.692622"><ele>1542.0</ele><time>2026-04-26T20:07:40Z</time></trkpt>
<trkpt lat="38.822468" lon="-119.692570"><ele>1541.8</ele><time>2026-04-26T20:07:47Z</time></trkpt>
<trkpt lat="38.822863" lon="-119.692053"><ele>1541.8</ele><time>2026-04-26T20:08:18Z</time></trkpt>
<trkpt lat="38.822979" lon="-119.691976"><ele>1541.4</ele><time>2026-04-26T20:08:24Z</time></trkpt>
<trkpt lat="38.823267" lon="-119.691886"><ele>1541.0</ele><time>2026-04-26T20:08:37Z</time></trkpt>
<trkpt lat="38.823528" lon="-119.691915"><ele>1541.0</ele><time>2026-04-26T20:08:55Z</time></trkpt>
<trkpt lat="38.823805" lon="-119.691792"><ele>1541.2</ele><time>2026-04-26T20:09:22Z</time></trkpt>
<trkpt lat="38.824284" lon="-119.691919"><ele>1540.8</ele><time>2026-04-26T20:09:52Z</time></trkpt>
<trkpt lat="38.824575" lon="-119.691939"><ele>1540.4</ele><time>2026-04-26T20:10:07Z</time></trkpt>
<trkpt lat="38.825140" lon="-119.691901"><ele>1540.2</ele><time>2026-04-26T20:10:33Z</time></trkpt>
<trkpt lat="38.825511" lon="-119.691945"><ele>1539.8</ele><time>2026-04-26T20:10:54Z</time></trkpt>
<trkpt lat="38.825725" lon="-119.692059"><ele>1540.4</ele><time>2026-04-26T20:11:08Z</time></trkpt>
<trkpt lat="38.825973" lon="-119.692288"><ele>1539.6</ele><time>2026-04-26T20:11:34Z</time></trkpt>
<trkpt lat="38.826087" lon="-119.692576"><ele>1539.8</ele><time>2026-04-26T20:11:53Z</time></trkpt>
<trkpt lat="38.826125" lon="-119.692785"><ele>1539.2</ele><time>2026-04-26T20:12:05Z</time></trkpt>
<trkpt lat="38.826346" lon="-119.693202"><ele>1538.6</ele><time>2026-04-26T20:12:24Z</time></trkpt>
<trkpt lat="38.826635" lon="-119.693740"><ele>1538.8</ele><time>2026-04-26T20:12:52Z</time></trkpt>
<trkpt lat="38.826948" lon="-119.694113"><ele>1538.4</ele><time>2026-04-26T20:13:19Z</time></trkpt>
<trkpt lat="38.827057" lon="-119.694354"><ele>1538.2</ele><time>2026-04-26T20:13:31Z</time></trkpt>
<trkpt lat="38.827480" lon="-119.695702"><ele>1537.4</ele><time>2026-04-26T20:14:21Z</time></trkpt>
<trkpt lat="38.827755" lon="-119.696302"><ele>1537.8</ele><time>2026-04-26T20:14:52Z</time></trkpt>
<trkpt lat="38.827897" lon="-119.696852"><ele>1536.2</ele><time>2026-04-26T20:15:19Z</time></trkpt>
<trkpt lat="38.828036" lon="-119.697130"><ele>1535.0</ele><time>2026-04-26T20:15:48Z</time></trkpt>
<trkpt lat="38.828241" lon="-119.697693"><ele>1535.8</ele><time>2026-04-26T20:16:17Z</time></trkpt>
<trkpt lat="38.828647" lon="-119.698226"><ele>1535.8</ele><time>2026-04-26T20:16:48Z</time></trkpt>
<trkpt lat="38.828805" lon="-119.698389"><ele>1536.2</ele><time>2026-04-26T20:16:59Z</time></trkpt>
<trkpt lat="38.829776" lon="-119.698809"><ele>1536.0</ele><time>2026-04-26T20:17:54Z</time></trkpt>
<trkpt lat="38.830614" lon="-119.699000"><ele>1535.8</ele><time>2026-04-26T20:18:45Z</time></trkpt>
<trkpt lat="38.830910" lon="-119.699090"><ele>1536.0</ele><time>2026-04-26T20:19:01Z</time></trkpt>
<trkpt lat="38.831133" lon="-119.699214"><ele>1535.4</ele><time>2026-04-26T20:19:10Z</time></trkpt>
<trkpt lat="38.831327" lon="-119.699209"><ele>1535.2</ele><time>2026-04-26T20:19:19Z</time></trkpt>
<trkpt lat="38.831574" lon="-119.698771"><ele>1535.0</ele><time>2026-04-26T20:19:47Z</time></trkpt>
<trkpt lat="38.831762" lon="-119.698592"><ele>1535.4</ele><time>2026-04-26T20:20:02Z</time></trkpt>
<trkpt lat="38.832182" lon="-119.698427"><ele>1535.0</ele><time>2026-04-26T20:20:22Z</time></trkpt>
<trkpt lat="38.832445" lon="-119.698263"><ele>1534.6</ele><time>2026-04-26T20:20:37Z</time></trkpt>
<trkpt lat="38.832713" lon="-119.698025"><ele>1534.2</ele><time>2026-04-26T20:20:52Z</time></trkpt>
<trkpt lat="38.832930" lon="-119.697902"><ele>1534.0</ele><time>2026-04-26T20:21:03Z</time></trkpt>
<trkpt lat="38.833306" lon="-119.697748"><ele>1533.8</ele><time>2026-04-26T20:21:21Z</time></trkpt>
<trkpt lat="38.834125" lon="-119.697501"><ele>1533.0</ele><time>2026-04-26T20:22:01Z</time></trkpt>
<trkpt lat="38.834357" lon="-119.697370"><ele>1532.8</ele><time>2026-04-26T20:22:14Z</time></trkpt>
<trkpt lat="38.834546" lon="-119.697191"><ele>1532.8</ele><time>2026-04-26T20:22:25Z</time></trkpt>
<trkpt lat="38.834603" lon="-119.697095"><ele>1532.6</ele><time>2026-04-26T20:22:29Z</time></trkpt>
<trkpt lat="38.834816" lon="-119.696542"><ele>1532.4</ele><time>2026-04-26T20:22:50Z</time></trkpt>
<trkpt lat="38.835174" lon="-119.695949"><ele>1532.0</ele><time>2026-04-26T20:23:21Z</time></trkpt>
<trkpt lat="38.835373" lon="-119.695734"><ele>1531.8</ele><time>2026-04-26T20:23:33Z</time></trkpt>
<trkpt lat="38.835530" lon="-119.695663"><ele>1531.6</ele><time>2026-04-26T20:23:41Z</time></trkpt>
<trkpt lat="38.835686" lon="-119.695693"><ele>1531.6</ele><time>2026-04-26T20:23:48Z</time></trkpt>
<trkpt lat="38.835896" lon="-119.695918"><ele>1531.6</ele><time>2026-04-26T20:24:04Z</time></trkpt>
<trkpt lat="38.836127" lon="-119.695971"><ele>1531.8</ele><time>2026-04-26T20:24:26Z</time></trkpt>
<trkpt lat="38.836422" lon="-119.696111"><ele>1532.0</ele><time>2026-04-26T20:24:46Z</time></trkpt>
<trkpt lat="38.836546" lon="-119.696129"><ele>1532.2</ele><time>2026-04-26T20:25:00Z</time></trkpt>
<trkpt lat="38.836874" lon="-119.696090"><ele>1532.8</ele><time>2026-04-26T20:25:54Z</time></trkpt>
<trkpt lat="38.837880" lon="-119.696257"><ele>1531.8</ele><time>2026-04-26T20:26:51Z</time></trkpt>
<trkpt lat="38.838035" lon="-119.696336"><ele>1531.6</ele><time>2026-04-26T20:27:01Z</time></trkpt>
<trkpt lat="38.838318" lon="-119.696554"><ele>1531.0</ele><time>2026-04-26T20:27:17Z</time></trkpt>
<trkpt lat="38.838425" lon="-119.696684"><ele>1530.6</ele><time>2026-04-26T20:27:24Z</time></trkpt>
<trkpt lat="38.838593" lon="-119.697063"><ele>1531.0</ele><time>2026-04-26T20:27:38Z</time></trkpt>
<trkpt lat="38.838815" lon="-119.697734"><ele>1532.8</ele><time>2026-04-26T20:28:01Z</time></trkpt>
<trkpt lat="38.838902" lon="-119.698430"><ele>1534.6</ele><time>2026-04-26T20:28:29Z</time></trkpt>
<trkpt lat="38.838964" lon="-119.698623"><ele>1534.8</ele><time>2026-04-26T20:28:39Z</time></trkpt>
<trkpt lat="38.839020" lon="-119.698949"><ele>1531.8</ele><time>2026-04-26T20:28:57Z</time></trkpt>
<trkpt lat="38.839008" lon="-119.699092"><ele>1532.6</ele><time>2026-04-26T20:29:17Z</time></trkpt>
<trkpt lat="38.839012" lon="-119.699012"><ele>1534.4</ele><time>2026-04-26T20:30:39Z</time></trkpt>
<trkpt lat="38.839078" lon="-119.699124"><ele>1535.0</ele><time>2026-04-26T20:30:56Z</time></trkpt>
<trkpt lat="38.839280" lon="-119.699700"><ele>1534.4</ele><time>2026-04-26T20:31:32Z</time></trkpt>
<trkpt lat="38.839777" lon="-119.700520"><ele>1534.4</ele><time>2026-04-26T20:32:20Z</time></trkpt>
<trkpt lat="38.839854" lon="-119.700705"><ele>1534.0</ele><time>2026-04-26T20:32:28Z</time></trkpt>
<trkpt lat="38.839922" lon="-119.701102"><ele>1533.8</ele><time>2026-04-26T20:32:44Z</time></trkpt>
<trkpt lat="38.840094" lon="-119.701583"><ele>1534.4</ele><time>2026-04-26T20:33:05Z</time></trkpt>
<trkpt lat="38.840243" lon="-119.702285"><ele>1534.6</ele><time>2026-04-26T20:33:34Z</time></trkpt>
<trkpt lat="38.840475" lon="-119.703002"><ele>1534.6</ele><time>2026-04-26T20:34:05Z</time></trkpt>
<trkpt lat="38.840576" lon="-119.703189"><ele>1534.8</ele><time>2026-04-26T20:34:14Z</time></trkpt>
<trkpt lat="38.840668" lon="-119.703260"><ele>1534.8</ele><time>2026-04-26T20:34:21Z</time></trkpt>
<trkpt lat="38.840821" lon="-119.703293"><ele>1534.8</ele><time>2026-04-26T20:34:32Z</time></trkpt>
<trkpt lat="38.841254" lon="-119.703282"><ele>1534.4</ele><time>2026-04-26T20:35:04Z</time></trkpt>
<trkpt lat="38.841735" lon="-119.703185"><ele>1534.0</ele><time>2026-04-26T20:35:30Z</time></trkpt>
<trkpt lat="38.842115" lon="-119.703245"><ele>1533.2</ele><time>2026-04-26T20:35:46Z</time></trkpt>
<trkpt lat="38.842376" lon="-119.703346"><ele>1532.6</ele><time>2026-04-26T20:35:59Z</time></trkpt>
<trkpt lat="38.842561" lon="-119.703468"><ele>1533.0</ele><time>2026-04-26T20:36:10Z</time></trkpt>
<trkpt lat="38.842754" lon="-119.703713"><ele>1532.4</ele><time>2026-04-26T20:36:24Z</time></trkpt>
<trkpt lat="38.842816" lon="-119.703878"><ele>1532.0</ele><time>2026-04-26T20:36:31Z</time></trkpt>
<trkpt lat="38.842871" lon="-119.704178"><ele>1532.0</ele><time>2026-04-26T20:36:43Z</time></trkpt>
<trkpt lat="38.842850" lon="-119.704388"><ele>1532.4</ele><time>2026-04-26T20:36:52Z</time></trkpt>
<trkpt lat="38.842686" lon="-119.704612"><ele>1532.4</ele><time>2026-04-26T20:37:07Z</time></trkpt>
<trkpt lat="38.842553" lon="-119.704918"><ele>1532.8</ele><time>2026-04-26T20:37:24Z</time></trkpt>
<trkpt lat="38.842375" lon="-119.705062"><ele>1533.0</ele><time>2026-04-26T20:37:40Z</time></trkpt>
<trkpt lat="38.842311" lon="-119.705161"><ele>1532.6</ele><time>2026-04-26T20:37:46Z</time></trkpt>
<trkpt lat="38.842304" lon="-119.705340"><ele>1531.4</ele><time>2026-04-26T20:37:58Z</time></trkpt>
<trkpt lat="38.842078" lon="-119.706108"><ele>1530.6</ele><time>2026-04-26T20:38:36Z</time></trkpt>
<trkpt lat="38.841691" lon="-119.707108"><ele>1528.8</ele><time>2026-04-26T20:39:23Z</time></trkpt>
<trkpt lat="38.841502" lon="-119.707503"><ele>1529.2</ele><time>2026-04-26T20:39:43Z</time></trkpt>
<trkpt lat="38.841439" lon="-119.707741"><ele>1525.8</ele><time>2026-04-26T20:39:53Z</time></trkpt>
<trkpt lat="38.841393" lon="-119.707977"><ele>1526.2</ele><time>2026-04-26T20:40:05Z</time></trkpt>
<trkpt lat="38.841332" lon="-119.708238"><ele>1537.8</ele><time>2026-04-26T20:40:21Z</time></trkpt>
<trkpt lat="38.841296" lon="-119.708407"><ele>1541.4</ele><time>2026-04-26T20:40:30Z</time></trkpt>
<trkpt lat="38.841346" lon="-119.708691"><ele>1541.6</ele><time>2026-04-26T20:40:44Z</time></trkpt>
<trkpt lat="38.841462" lon="-119.708835"><ele>1542.0</ele><time>2026-04-26T20:40:52Z</time></trkpt>
<trkpt lat="38.841690" lon="-119.708823"><ele>1540.8</ele><time>2026-04-26T20:41:04Z</time></trkpt>
<trkpt lat="38.841910" lon="-119.708748"><ele>1540.2</ele><time>2026-04-26T20:41:15Z</time></trkpt>
<trkpt lat="38.842041" lon="-119.708755"><ele>1539.6</ele><time>2026-04-26T20:41:26Z</time></trkpt>
<trkpt lat="38.842458" lon="-119.709115"><ele>1536.8</ele><time>2026-04-26T20:42:07Z</time></trkpt>
<trkpt lat="38.842768" lon="-119.709318"><ele>1535.2</ele><time>2026-04-26T20:42:26Z</time></trkpt>
<trkpt lat="38.842956" lon="-119.709479"><ele>1536.0</ele><time>2026-04-26T20:42:38Z</time></trkpt>
<trkpt lat="38.843242" lon="-119.709593"><ele>1535.6</ele><time>2026-04-26T20:42:52Z</time></trkpt>
<trkpt lat="38.843439" lon="-119.709719"><ele>1535.0</ele><time>2026-04-26T20:43:03Z</time></trkpt>
<trkpt lat="38.843961" lon="-119.709844"><ele>1534.4</ele><time>2026-04-26T20:43:36Z</time></trkpt>
<trkpt lat="38.844391" lon="-119.709798"><ele>1534.4</ele><time>2026-04-26T20:43:58Z</time></trkpt>
<trkpt lat="38.844806" lon="-119.709606"><ele>1533.4</ele><time>2026-04-26T20:44:19Z</time></trkpt>
<trkpt lat="38.845248" lon="-119.709492"><ele>1532.6</ele><time>2026-04-26T20:44:38Z</time></trkpt>
<trkpt lat="38.845452" lon="-119.709379"><ele>1531.8</ele><time>2026-04-26T20:44:49Z</time></trkpt>
<trkpt lat="38.845613" lon="-119.709145"><ele>1533.4</ele><time>2026-04-26T20:45:03Z</time></trkpt>
<trkpt lat="38.846030" lon="-119.708669"><ele>1533.6</ele><time>2026-04-26T20:45:40Z</time></trkpt>
<trkpt lat="38.846190" lon="-119.708441"><ele>1533.8</ele><time>2026-04-26T20:45:55Z</time></trkpt>
<trkpt lat="38.846385" lon="-119.708066"><ele>1533.6</ele><time>2026-04-26T20:46:29Z</time></trkpt>
<trkpt lat="38.846412" lon="-119.707739"><ele>1534.4</ele><time>2026-04-26T20:46:53Z</time></trkpt>
<trkpt lat="38.846444" lon="-119.707663"><ele>1531.0</ele><time>2026-04-26T20:47:33Z</time></trkpt>
<trkpt lat="38.846444" lon="-119.707663"><ele>1534.2</ele><time>2026-04-26T20:48:30Z</time></trkpt>
<trkpt lat="38.846398" lon="-119.707454"><ele>1533.2</ele><time>2026-04-26T20:49:54Z</time></trkpt>
<trkpt lat="38.846411" lon="-119.707452"><ele>1530.6</ele><time>2026-04-26T20:50:03Z</time></trkpt>
<trkpt lat="38.846392" lon="-119.707306"><ele>1533.2</ele><time>2026-04-26T20:50:39Z</time></trkpt>
<trkpt lat="38.846247" lon="-119.707134"><ele>1532.8</ele><time>2026-04-26T20:51:04Z</time></trkpt>
<trkpt lat="38.845903" lon="-119.706989"><ele>1532.2</ele><time>2026-04-26T20:51:46Z</time></trkpt>
<trkpt lat="38.845713" lon="-119.706766"><ele>1532.8</ele><time>2026-04-26T20:52:03Z</time></trkpt>
<trkpt lat="38.845452" lon="-119.706569"><ele>1532.8</ele><time>2026-04-26T20:52:31Z</time></trkpt>
<trkpt lat="38.845105" lon="-119.706406"><ele>1532.2</ele><time>2026-04-26T20:53:05Z</time></trkpt>
<trkpt lat="38.844990" lon="-119.706313"><ele>1532.0</ele><time>2026-04-26T20:53:17Z</time></trkpt>
<trkpt lat="38.844594" lon="-119.706183"><ele>1532.6</ele><time>2026-04-26T20:53:42Z</time></trkpt>
<trkpt lat="38.844287" lon="-119.705981"><ele>1532.0</ele><time>2026-04-26T20:53:59Z</time></trkpt>
<trkpt lat="38.844189" lon="-119.705778"><ele>1532.0</ele><time>2026-04-26T20:54:06Z</time></trkpt>
<trkpt lat="38.844140" lon="-119.705489"><ele>1530.8</ele><time>2026-04-26T20:54:16Z</time></trkpt>
<trkpt lat="38.844198" lon="-119.704918"><ele>1530.0</ele><time>2026-04-26T20:54:36Z</time></trkpt>
<trkpt lat="38.844253" lon="-119.704747"><ele>1529.8</ele><time>2026-04-26T20:54:43Z</time></trkpt>
<trkpt lat="38.844338" lon="-119.704580"><ele>1530.4</ele><time>2026-04-26T20:54:51Z</time></trkpt>
<trkpt lat="38.844757" lon="-119.704056"><ele>1530.8</ele><time>2026-04-26T20:55:20Z</time></trkpt>
<trkpt lat="38.845022" lon="-119.703810"><ele>1531.0</ele><time>2026-04-26T20:55:40Z</time></trkpt>
<trkpt lat="38.845425" lon="-119.703544"><ele>1528.2</ele><time>2026-04-26T20:56:03Z</time></trkpt>
<trkpt lat="38.845599" lon="-119.703319"><ele>1529.4</ele><time>2026-04-26T20:56:13Z</time></trkpt>
<trkpt lat="38.845762" lon="-119.702971"><ele>1529.2</ele><time>2026-04-26T20:56:33Z</time></trkpt>
<trkpt lat="38.845844" lon="-119.702964"><ele>1530.6</ele><time>2026-04-26T20:56:44Z</time></trkpt>
<trkpt lat="38.846090" lon="-119.702777"><ele>1529.0</ele><time>2026-04-26T20:57:03Z</time></trkpt>
<trkpt lat="38.846448" lon="-119.702361"><ele>1529.4</ele><time>2026-04-26T20:57:31Z</time></trkpt>
<trkpt lat="38.846661" lon="-119.702193"><ele>1528.6</ele><time>2026-04-26T20:57:44Z</time></trkpt>
<trkpt lat="38.846870" lon="-119.701917"><ele>1528.8</ele><time>2026-04-26T20:57:59Z</time></trkpt>
<trkpt lat="38.847051" lon="-119.701577"><ele>1529.6</ele><time>2026-04-26T20:58:21Z</time></trkpt>
<trkpt lat="38.847270" lon="-119.701290"><ele>1528.6</ele><time>2026-04-26T20:58:51Z</time></trkpt>
<trkpt lat="38.847469" lon="-119.700920"><ele>1529.2</ele><time>2026-04-26T20:59:09Z</time></trkpt>
<trkpt lat="38.847634" lon="-119.700505"><ele>1528.8</ele><time>2026-04-26T20:59:26Z</time></trkpt>
<trkpt lat="38.847842" lon="-119.700174"><ele>1528.0</ele><time>2026-04-26T20:59:44Z</time></trkpt>
<trkpt lat="38.848064" lon="-119.699698"><ele>1527.0</ele><time>2026-04-26T21:00:06Z</time></trkpt>
<trkpt lat="38.848195" lon="-119.699214"><ele>1526.0</ele><time>2026-04-26T21:00:26Z</time></trkpt>
<trkpt lat="38.848411" lon="-119.698816"><ele>1525.4</ele><time>2026-04-26T21:00:45Z</time></trkpt>
<trkpt lat="38.848463" lon="-119.698632"><ele>1525.4</ele><time>2026-04-26T21:00:52Z</time></trkpt>
<trkpt lat="38.848540" lon="-119.698002"><ele>1525.0</ele><time>2026-04-26T21:01:13Z</time></trkpt>
<trkpt lat="38.848547" lon="-119.697745"><ele>1525.2</ele><time>2026-04-26T21:01:24Z</time></trkpt>
<trkpt lat="38.848494" lon="-119.697511"><ele>1525.2</ele><time>2026-04-26T21:01:36Z</time></trkpt>
<trkpt lat="38.848404" lon="-119.697415"><ele>1525.2</ele><time>2026-04-26T21:01:43Z</time></trkpt>
<trkpt lat="38.848235" lon="-119.697354"><ele>1525.4</ele><time>2026-04-26T21:01:51Z</time></trkpt>
<trkpt lat="38.848084" lon="-119.697420"><ele>1525.0</ele><time>2026-04-26T21:01:57Z</time></trkpt>
<trkpt lat="38.847884" lon="-119.697584"><ele>1525.2</ele><time>2026-04-26T21:02:08Z</time></trkpt>
<trkpt lat="38.847728" lon="-119.697642"><ele>1524.6</ele><time>2026-04-26T21:02:19Z</time></trkpt>
<trkpt lat="38.847415" lon="-119.697622"><ele>1525.2</ele><time>2026-04-26T21:02:40Z</time></trkpt>
<trkpt lat="38.847308" lon="-119.697530"><ele>1525.2</ele><time>2026-04-26T21:02:48Z</time></trkpt>
<trkpt lat="38.846861" lon="-119.696979"><ele>1525.0</ele><time>2026-04-26T21:03:27Z</time></trkpt>
<trkpt lat="38.846743" lon="-119.696730"><ele>1525.8</ele><time>2026-04-26T21:03:40Z</time></trkpt>
<trkpt lat="38.846560" lon="-119.695876"><ele>1525.2</ele><time>2026-04-26T21:04:27Z</time></trkpt>
<trkpt lat="38.846594" lon="-119.695594"><ele>1524.8</ele><time>2026-04-26T21:04:44Z</time></trkpt>
<trkpt lat="38.846642" lon="-119.695435"><ele>1524.8</ele><time>2026-04-26T21:04:52Z</time></trkpt>
<trkpt lat="38.846831" lon="-119.695082"><ele>1523.8</ele><time>2026-04-26T21:05:08Z</time></trkpt>
<trkpt lat="38.846859" lon="-119.694875"><ele>1523.2</ele><time>2026-04-26T21:05:18Z</time></trkpt>
<trkpt lat="38.846958" lon="-119.694728"><ele>1523.8</ele><time>2026-04-26T21:05:33Z</time></trkpt>
<trkpt lat="38.847077" lon="-119.694707"><ele>1523.8</ele><time>2026-04-26T21:05:45Z</time></trkpt>
<trkpt lat="38.847216" lon="-119.694623"><ele>1523.6</ele><time>2026-04-26T21:05:53Z</time></trkpt>
<trkpt lat="38.847260" lon="-119.694536"><ele>1524.0</ele><time>2026-04-26T21:05:59Z</time></trkpt>
<trkpt lat="38.847470" lon="-119.694470"><ele>1523.4</ele><time>2026-04-26T21:06:18Z</time></trkpt>
<trkpt lat="38.847566" lon="-119.694387"><ele>1523.2</ele><time>2026-04-26T21:06:24Z</time></trkpt>
<trkpt lat="38.847990" lon="-119.693812"><ele>1522.4</ele><time>2026-04-26T21:07:13Z</time></trkpt>
<trkpt lat="38.848141" lon="-119.693867"><ele>1523.0</ele><time>2026-04-26T21:07:31Z</time></trkpt>
<trkpt lat="38.848255" lon="-119.693839"><ele>1523.0</ele><time>2026-04-26T21:07:39Z</time></trkpt>
<trkpt lat="38.848473" lon="-119.693685"><ele>1522.2</ele><time>2026-04-26T21:07:56Z</time></trkpt>
<trkpt lat="38.848610" lon="-119.693660"><ele>1522.0</ele><time>2026-04-26T21:08:07Z</time></trkpt>
<trkpt lat="38.848728" lon="-119.693543"><ele>1522.2</ele><time>2026-04-26T21:08:15Z</time></trkpt>
<trkpt lat="38.848907" lon="-119.693436"><ele>1522.0</ele><time>2026-04-26T21:08:26Z</time></trkpt>
<trkpt lat="38.849147" lon="-119.693039"><ele>1520.8</ele><time>2026-04-26T21:08:49Z</time></trkpt>
<trkpt lat="38.849482" lon="-119.692663"><ele>1519.6</ele><time>2026-04-26T21:09:12Z</time></trkpt>
<trkpt lat="38.849765" lon="-119.692588"><ele>1520.0</ele><time>2026-04-26T21:09:28Z</time></trkpt>
<trkpt lat="38.850099" lon="-119.692618"><ele>1519.8</ele><time>2026-04-26T21:09:44Z</time></trkpt>
<trkpt lat="38.850383" lon="-119.692765"><ele>1519.6</ele><time>2026-04-26T21:10:02Z</time></trkpt>
<trkpt lat="38.850853" lon="-119.692922"><ele>1519.6</ele><time>2026-04-26T21:10:29Z</time></trkpt>
<trkpt lat="38.851028" lon="-119.693029"><ele>1519.8</ele><time>2026-04-26T21:10:39Z</time></trkpt>
<trkpt lat="38.851357" lon="-119.693277"><ele>1519.8</ele><time>2026-04-26T21:10:58Z</time></trkpt>
<trkpt lat="38.851619" lon="-119.693654"><ele>1521.0</ele><time>2026-04-26T21:11:22Z</time></trkpt>
<trkpt lat="38.851808" lon="-119.693839"><ele>1521.0</ele><time>2026-04-26T21:11:37Z</time></trkpt>
<trkpt lat="38.852057" lon="-119.694188"><ele>1520.6</ele><time>2026-04-26T21:11:59Z</time></trkpt>
<trkpt lat="38.852204" lon="-119.694315"><ele>1520.4</ele><time>2026-04-26T21:12:08Z</time></trkpt>
<trkpt lat="38.852335" lon="-119.694488"><ele>1520.4</ele><time>2026-04-26T21:12:18Z</time></trkpt>
<trkpt lat="38.852683" lon="-119.695348"><ele>1520.8</ele><time>2026-04-26T21:13:14Z</time></trkpt>
<trkpt lat="38.852747" lon="-119.695679"><ele>1520.8</ele><time>2026-04-26T21:13:32Z</time></trkpt>
<trkpt lat="38.852799" lon="-119.696478"><ele>1520.4</ele><time>2026-04-26T21:14:14Z</time></trkpt>
<trkpt lat="38.852730" lon="-119.696835"><ele>1519.6</ele><time>2026-04-26T21:14:28Z</time></trkpt>
<trkpt lat="38.852690" lon="-119.697320"><ele>1520.8</ele><time>2026-04-26T21:14:57Z</time></trkpt>
<trkpt lat="38.852700" lon="-119.697401"><ele>1520.6</ele><time>2026-04-26T21:15:06Z</time></trkpt>
<trkpt lat="38.852741" lon="-119.697419"><ele>1520.6</ele><time>2026-04-26T21:15:20Z</time></trkpt>
<trkpt lat="38.852758" lon="-119.697495"><ele>1520.0</ele><time>2026-04-26T21:15:24Z</time></trkpt>
<trkpt lat="38.852764" lon="-119.697747"><ele>1519.4</ele><time>2026-04-26T21:15:35Z</time></trkpt>
<trkpt lat="38.852942" lon="-119.698119"><ele>1520.2</ele><time>2026-04-26T21:15:53Z</time></trkpt>
<trkpt lat="38.853038" lon="-119.698169"><ele>1519.8</ele><time>2026-04-26T21:16:00Z</time></trkpt>
<trkpt lat="38.853204" lon="-119.698122"><ele>1519.2</ele><time>2026-04-26T21:16:14Z</time></trkpt>
<trkpt lat="38.853643" lon="-119.698156"><ele>1519.4</ele><time>2026-04-26T21:16:56Z</time></trkpt>
<trkpt lat="38.853912" lon="-119.698074"><ele>1519.2</ele><time>2026-04-26T21:17:14Z</time></trkpt>
<trkpt lat="38.854407" lon="-119.698264"><ele>1519.0</ele><time>2026-04-26T21:17:52Z</time></trkpt>
<trkpt lat="38.854540" lon="-119.698247"><ele>1519.2</ele><time>2026-04-26T21:18:01Z</time></trkpt>
<trkpt lat="38.855347" lon="-119.698343"><ele>1520.0</ele><time>2026-04-26T21:18:50Z</time></trkpt>
<trkpt lat="38.855998" lon="-119.698359"><ele>1520.0</ele><time>2026-04-26T21:19:20Z</time></trkpt>
<trkpt lat="38.856225" lon="-119.698324"><ele>1519.6</ele><time>2026-04-26T21:19:31Z</time></trkpt>
<trkpt lat="38.856799" lon="-119.698355"><ele>1518.2</ele><time>2026-04-26T21:19:55Z</time></trkpt>
<trkpt lat="38.857081" lon="-119.698239"><ele>1517.8</ele><time>2026-04-26T21:20:06Z</time></trkpt>
<trkpt lat="38.857368" lon="-119.698197"><ele>1517.6</ele><time>2026-04-26T21:20:17Z</time></trkpt>
<trkpt lat="38.857795" lon="-119.698032"><ele>1517.6</ele><time>2026-04-26T21:20:38Z</time></trkpt>
<trkpt lat="38.858895" lon="-119.697880"><ele>1518.2</ele><time>2026-04-26T21:21:32Z</time></trkpt>
<trkpt lat="38.859368" lon="-119.697701"><ele>1517.6</ele><time>2026-04-26T21:22:00Z</time></trkpt>
<trkpt lat="38.859813" lon="-119.697436"><ele>1516.8</ele><time>2026-04-26T21:22:23Z</time></trkpt>
<trkpt lat="38.859965" lon="-119.697278"><ele>1516.2</ele><time>2026-04-26T21:22:30Z</time></trkpt>
<trkpt lat="38.860065" lon="-119.697059"><ele>1515.8</ele><time>2026-04-26T21:22:38Z</time></trkpt>
<trkpt lat="38.860141" lon="-119.696623"><ele>1516.8</ele><time>2026-04-26T21:22:58Z</time></trkpt>
<trkpt lat="38.860104" lon="-119.696261"><ele>1516.4</ele><time>2026-04-26T21:23:15Z</time></trkpt>
<trkpt lat="38.860107" lon="-119.695407"><ele>1517.0</ele><time>2026-04-26T21:23:51Z</time></trkpt>
<trkpt lat="38.860208" lon="-119.695162"><ele>1516.8</ele><time>2026-04-26T21:24:04Z</time></trkpt>
<trkpt lat="38.860487" lon="-119.694834"><ele>1516.6</ele><time>2026-04-26T21:24:23Z</time></trkpt>
<trkpt lat="38.860617" lon="-119.694818"><ele>1515.8</ele><time>2026-04-26T21:24:44Z</time></trkpt>
<trkpt lat="38.860847" lon="-119.694652"><ele>1514.8</ele><time>2026-04-26T21:24:59Z</time></trkpt>
<trkpt lat="38.861764" lon="-119.694153"><ele>1515.4</ele><time>2026-04-26T21:25:52Z</time></trkpt>
<trkpt lat="38.862332" lon="-119.693993"><ele>1513.8</ele><time>2026-04-26T21:26:18Z</time></trkpt>
<trkpt lat="38.862811" lon="-119.694001"><ele>1515.8</ele><time>2026-04-26T21:26:43Z</time></trkpt>
<trkpt lat="38.863114" lon="-119.694089"><ele>1517.8</ele><time>2026-04-26T21:27:01Z</time></trkpt>
<trkpt lat="38.863270" lon="-119.694175"><ele>1515.8</ele><time>2026-04-26T21:27:10Z</time></trkpt>
<trkpt lat="38.864150" lon="-119.694266"><ele>1515.4</ele><time>2026-04-26T21:28:00Z</time></trkpt>
<trkpt lat="38.864416" lon="-119.694244"><ele>1515.2</ele><time>2026-04-26T21:28:11Z</time></trkpt>
<trkpt lat="38.864605" lon="-119.694142"><ele>1515.4</ele><time>2026-04-26T21:28:19Z</time></trkpt>
<trkpt lat="38.864821" lon="-119.693931"><ele>1516.0</ele><time>2026-04-26T21:28:34Z</time></trkpt>
<trkpt lat="38.865080" lon="-119.693494"><ele>1516.2</ele><time>2026-04-26T21:29:01Z</time></trkpt>
<trkpt lat="38.865255" lon="-119.693366"><ele>1515.6</ele><time>2026-04-26T21:29:15Z</time></trkpt>
<trkpt lat="38.865646" lon="-119.692622"><ele>1515.0</ele><time>2026-04-26T21:29:53Z</time></trkpt>
<trkpt lat="38.866422" lon="-119.691548"><ele>1513.0</ele><time>2026-04-26T21:30:51Z</time></trkpt>
<trkpt lat="38.866575" lon="-119.691266"><ele>1512.8</ele><time>2026-04-26T21:31:03Z</time></trkpt>
<trkpt lat="38.866708" lon="-119.691172"><ele>1512.6</ele><time>2026-04-26T21:31:11Z</time></trkpt>
<trkpt lat="38.866953" lon="-119.691077"><ele>1512.2</ele><time>2026-04-26T21:31:25Z</time></trkpt>
<trkpt lat="38.867209" lon="-119.691033"><ele>1512.0</ele><time>2026-04-26T21:31:37Z</time></trkpt>
<trkpt lat="38.867533" lon="-119.691291"><ele>1511.4</ele><time>2026-04-26T21:32:06Z</time></trkpt>
<trkpt lat="38.867646" lon="-119.691457"><ele>1512.4</ele><time>2026-04-26T21:32:22Z</time></trkpt>
<trkpt lat="38.867692" lon="-119.691747"><ele>1512.4</ele><time>2026-04-26T21:32:37Z</time></trkpt>
<trkpt lat="38.868068" lon="-119.692600"><ele>1512.6</ele><time>2026-04-26T21:33:28Z</time></trkpt>
<trkpt lat="38.868531" lon="-119.693038"><ele>1513.0</ele><time>2026-04-26T21:33:56Z</time></trkpt>
<trkpt lat="38.868684" lon="-119.693063"><ele>1513.4</ele><time>2026-04-26T21:34:03Z</time></trkpt>
<trkpt lat="38.868860" lon="-119.693015"><ele>1511.2</ele><time>2026-04-26T21:34:17Z</time></trkpt>
<trkpt lat="38.868832" lon="-119.693030"><ele>1512.4</ele><time>2026-04-26T21:34:39Z</time></trkpt>
<trkpt lat="38.868781" lon="-119.692910"><ele>1513.2</ele><time>2026-04-26T21:35:40Z</time></trkpt>
<trkpt lat="38.868788" lon="-119.692847"><ele>1513.0</ele><time>2026-04-26T21:35:47Z</time></trkpt>
<trkpt lat="38.868748" lon="-119.692969"><ele>1514.6</ele><time>2026-04-26T21:36:03Z</time></trkpt>
<trkpt lat="38.868710" lon="-119.692936"><ele>1513.0</ele><time>2026-04-26T21:36:51Z</time></trkpt>
<trkpt lat="38.868766" lon="-119.692898"><ele>1514.8</ele><time>2026-04-26T21:37:24Z</time></trkpt>
<trkpt lat="38.868779" lon="-119.692852"><ele>1513.4</ele><time>2026-04-26T21:37:30Z</time></trkpt>
<trkpt lat="38.868736" lon="-119.692902"><ele>1513.0</ele><time>2026-04-26T21:37:59Z</time></trkpt>
<trkpt lat="38.868711" lon="-119.692880"><ele>1511.8</ele><time>2026-04-26T21:38:08Z</time></trkpt>
<trkpt lat="38.868662" lon="-119.692942"><ele>1515.8</ele><time>2026-04-26T21:38:33Z</time></trkpt>
<trkpt lat="38.868662" lon="-119.692942"><ele>1512.4</ele><time>2026-04-26T21:38:41Z</time></trkpt>
<trkpt lat="38.868676" lon="-119.692888"><ele>1514.6</ele><time>2026-04-26T21:39:07Z</time></trkpt>
<trkpt lat="38.868735" lon="-119.692955"><ele>1515.0</ele><time>2026-04-26T21:39:21Z</time></trkpt>
<trkpt lat="38.868701" lon="-119.692916"><ele>1515.4</ele><time>2026-04-26T21:39:27Z</time></trkpt>
<trkpt lat="38.868678" lon="-119.692947"><ele>1514.0</ele><time>2026-04-26T21:39:34Z</time></trkpt>
<trkpt lat="38.868678" lon="-119.692947"><ele>1510.8</ele><time>2026-04-26T21:39:46Z</time></trkpt>
<trkpt lat="38.868713" lon="-119.692855"><ele>1514.4</ele><time>2026-04-26T21:39:56Z</time></trkpt>
<trkpt lat="38.868662" lon="-119.692912"><ele>1512.4</ele><time>2026-04-26T21:40:37Z</time></trkpt>
<trkpt lat="38.868654" lon="-119.692921"><ele>1516.6</ele><time>2026-04-26T21:40:50Z</time></trkpt>
<trkpt lat="38.868662" lon="-119.692937"><ele>1512.4</ele><time>2026-04-26T21:41:08Z</time></trkpt>
<trkpt lat="38.868732" lon="-119.692992"><ele>1513.4</ele><time>2026-04-26T21:42:22Z</time></trkpt>
<trkpt lat="38.868640" lon="-119.692891"><ele>1511.8</ele><time>2026-04-26T21:42:43Z</time></trkpt>
<trkpt lat="38.868655" lon="-119.692950"><ele>1513.0</ele><time>2026-04-26T21:43:13Z</time></trkpt>
<trkpt lat="38.868629" lon="-119.692928"><ele>1510.6</ele><time>2026-04-26T21:43:36Z</time></trkpt>
<trkpt lat="38.868652" lon="-119.692934"><ele>1512.8</ele><time>2026-04-26T21:43:46Z</time></trkpt>
<trkpt lat="38.868676" lon="-119.692887"><ele>1513.2</ele><time>2026-04-26T21:43:52Z</time></trkpt>
<trkpt lat="38.868708" lon="-119.692903"><ele>1512.0</ele><time>2026-04-26T21:44:01Z</time></trkpt>
<trkpt lat="38.868699" lon="-119.692864"><ele>1514.0</ele><time>2026-04-26T21:44:21Z</time></trkpt>
<trkpt lat="38.868630" lon="-119.692887"><ele>1512.4</ele><time>2026-04-26T21:44:33Z</time></trkpt>
<trkpt lat="38.868644" lon="-119.692860"><ele>1514.0</ele><time>2026-04-26T21:44:42Z</time></trkpt>
<trkpt lat="38.868618" lon="-119.692890"><ele>1512.6</ele><time>2026-04-26T21:44:49Z</time></trkpt>
<trkpt lat="38.868645" lon="-119.692918"><ele>1511.6</ele><time>2026-04-26T21:45:02Z</time></trkpt>
<trkpt lat="38.868618" lon="-119.692918"><ele>1511.6</ele><time>2026-04-26T21:46:48Z</time></trkpt>
<trkpt lat="38.868652" lon="-119.692899"><ele>1512.0</ele><time>2026-04-26T21:47:06Z</time></trkpt>
<trkpt lat="38.868702" lon="-119.692990"><ele>1511.4</ele><time>2026-04-26T21:47:19Z</time></trkpt>
<trkpt lat="38.868632" lon="-119.692870"><ele>1512.0</ele><time>2026-04-26T21:47:54Z</time></trkpt>
<trkpt lat="38.868692" lon="-119.692841"><ele>1512.8</ele><time>2026-04-26T21:48:31Z</time></trkpt>
<trkpt lat="38.868712" lon="-119.692865"><ele>1511.8</ele><time>2026-04-26T21:49:38Z</time></trkpt>
<trkpt lat="38.868682" lon="-119.692840"><ele>1511.0</ele><time>2026-04-26T21:49:56Z</time></trkpt>
<trkpt lat="38.868710" lon="-119.692825"><ele>1510.4</ele><time>2026-04-26T21:50:51Z</time></trkpt>
<trkpt lat="38.868699" lon="-119.692849"><ele>1511.4</ele><time>2026-04-26T21:51:29Z</time></trkpt>
<trkpt lat="38.868749" lon="-119.692851"><ele>1511.8</ele><time>2026-04-26T21:52:28Z</time></trkpt>
<trkpt lat="38.868726" lon="-119.692845"><ele>1511.4</ele><time>2026-04-26T21:52:37Z</time></trkpt>
<trkpt lat="38.868740" lon="-119.692811"><ele>1511.4</ele><time>2026-04-26T21:52:45Z</time></trkpt>
<trkpt lat="38.868706" lon="-119.692798"><ele>1512.0</ele><time>2026-04-26T21:53:00Z</time></trkpt>
<trkpt lat="38.868668" lon="-119.692834"><ele>1511.6</ele><time>2026-04-26T21:54:55Z</time></trkpt>
<trkpt lat="38.868745" lon="-119.692910"><ele>1511.2</ele><time>2026-04-26T21:55:36Z</time></trkpt>
<trkpt lat="38.868728" lon="-119.692868"><ele>1510.4</ele><time>2026-04-26T21:55:42Z</time></trkpt>
<trkpt lat="38.868693" lon="-119.692918"><ele>1510.8</ele><time>2026-04-26T21:56:06Z</time></trkpt>
<trkpt lat="38.868707" lon="-119.692961"><ele>1510.6</ele><time>2026-04-26T21:56:11Z</time></trkpt>
<trkpt lat="38.868737" lon="-119.692965"><ele>1512.4</ele><time>2026-04-26T21:58:00Z</time></trkpt>
<trkpt lat="38.868707" lon="-119.692949"><ele>1511.2</ele><time>2026-04-26T21:58:58Z</time></trkpt>
<trkpt lat="38.868725" lon="-119.692967"><ele>1511.8</ele><time>2026-04-26T21:59:49Z</time></trkpt>
<trkpt lat="38.868708" lon="-119.692948"><ele>1510.8</ele><time>2026-04-26T22:02:31Z</time></trkpt>
<trkpt lat="38.868734" lon="-119.692914"><ele>1509.6</ele><time>2026-04-26T22:03:31Z</time></trkpt>
<trkpt lat="38.868695" lon="-119.692960"><ele>1510.4</ele><time>2026-04-26T22:03:57Z</time></trkpt>
<trkpt lat="38.868707" lon="-119.692917"><ele>1510.0</ele><time>2026-04-26T22:04:16Z</time></trkpt>
<trkpt lat="38.868652" lon="-119.692888"><ele>1509.8</ele><time>2026-04-26T22:05:43Z</time></trkpt>
<trkpt lat="38.868718" lon="-119.692883"><ele>1510.6</ele><time>2026-04-26T22:06:37Z</time></trkpt>
</trkseg></trk>
</gpx>
