<?xml version="1.0" encoding="UTF-8"?>
<gpx version="1.1" creator="Eric Sichak trip reports" xmlns="http://www.topografix.com/GPX/1/1">
<metadata><name>Slow Tallac lap after work</name><time>2026-08-26T22:01:35Z</time></metadata>
<trk><name>Slow Tallac lap after work</name><type>hike</type><trkseg>
<trkpt lat="38.921371" lon="-120.068161"><ele>1969.6</ele><time>2026-08-26T22:01:35Z</time></trkpt>
<trkpt lat="38.920800" lon="-120.068213"><ele>1973.4</ele><time>2026-08-26T22:02:14Z</time></trkpt>
<trkpt lat="38.920610" lon="-120.068256"><ele>1975.2</ele><time>2026-08-26T22:02:28Z</time></trkpt>
<trkpt lat="38.920559" lon="-120.068311"><ele>1975.8</ele><time>2026-08-26T22:02:32Z</time></trkpt>
<trkpt lat="38.920524" lon="-120.068409"><ele>1976.2</ele><time>2026-08-26T22:02:38Z</time></trkpt>
<trkpt lat="38.920527" lon="-120.068624"><ele>1978.4</ele><time>2026-08-26T22:02:53Z</time></trkpt>
<trkpt lat="38.920494" lon="-120.068817"><ele>1978.6</ele><time>2026-08-26T22:03:05Z</time></trkpt>
<trkpt lat="38.920411" lon="-120.068994"><ele>1979.8</ele><time>2026-08-26T22:03:18Z</time></trkpt>
<trkpt lat="38.920420" lon="-120.069153"><ele>1981.8</ele><time>2026-08-26T22:03:29Z</time></trkpt>
<trkpt lat="38.920309" lon="-120.069468"><ele>1985.4</ele><time>2026-08-26T22:03:57Z</time></trkpt>
<trkpt lat="38.920323" lon="-120.069580"><ele>1986.4</ele><time>2026-08-26T22:04:05Z</time></trkpt>
<trkpt lat="38.920475" lon="-120.069908"><ele>1989.2</ele><time>2026-08-26T22:04:35Z</time></trkpt>
<trkpt lat="38.920443" lon="-120.070001"><ele>1990.2</ele><time>2026-08-26T22:04:43Z</time></trkpt>
<trkpt lat="38.920378" lon="-120.070034"><ele>1991.0</ele><time>2026-08-26T22:04:50Z</time></trkpt>
<trkpt lat="38.920299" lon="-120.070020"><ele>1991.4</ele><time>2026-08-26T22:04:57Z</time></trkpt>
<trkpt lat="38.920228" lon="-120.070101"><ele>1992.8</ele><time>2026-08-26T22:05:09Z</time></trkpt>
<trkpt lat="38.920218" lon="-120.070220"><ele>1993.6</ele><time>2026-08-26T22:05:18Z</time></trkpt>
<trkpt lat="38.920153" lon="-120.070375"><ele>1994.2</ele><time>2026-08-26T22:05:30Z</time></trkpt>
<trkpt lat="38.919931" lon="-120.070701"><ele>1996.8</ele><time>2026-08-26T22:05:56Z</time></trkpt>
<trkpt lat="38.919742" lon="-120.070738"><ele>1999.2</ele><time>2026-08-26T22:06:14Z</time></trkpt>
<trkpt lat="38.919385" lon="-120.070672"><ele>2004.4</ele><time>2026-08-26T22:06:46Z</time></trkpt>
<trkpt lat="38.919236" lon="-120.070696"><ele>2004.8</ele><time>2026-08-26T22:06:58Z</time></trkpt>
<trkpt lat="38.918782" lon="-120.070641"><ele>2008.0</ele><time>2026-08-26T22:07:35Z</time></trkpt>
<trkpt lat="38.918528" lon="-120.070705"><ele>2010.2</ele><time>2026-08-26T22:08:01Z</time></trkpt>
<trkpt lat="38.918368" lon="-120.070627"><ele>2013.0</ele><time>2026-08-26T22:08:20Z</time></trkpt>
<trkpt lat="38.918257" lon="-120.070702"><ele>2015.8</ele><time>2026-08-26T22:08:35Z</time></trkpt>
<trkpt lat="38.918199" lon="-120.070653"><ele>2017.4</ele><time>2026-08-26T22:08:44Z</time></trkpt>
<trkpt lat="38.918145" lon="-120.070655"><ele>2018.6</ele><time>2026-08-26T22:08:50Z</time></trkpt>
<trkpt lat="38.917926" lon="-120.070808"><ele>2023.2</ele><time>2026-08-26T22:09:14Z</time></trkpt>
<trkpt lat="38.917620" lon="-120.070792"><ele>2027.0</ele><time>2026-08-26T22:09:43Z</time></trkpt>
<trkpt lat="38.917557" lon="-120.070817"><ele>2028.6</ele><time>2026-08-26T22:09:50Z</time></trkpt>
<trkpt lat="38.917496" lon="-120.070880"><ele>2031.0</ele><time>2026-08-26T22:09:59Z</time></trkpt>
<trkpt lat="38.917449" lon="-120.070999"><ele>2032.2</ele><time>2026-08-26T22:10:14Z</time></trkpt>
<trkpt lat="38.917294" lon="-120.071054"><ele>2035.4</ele><time>2026-08-26T22:10:32Z</time></trkpt>
<trkpt lat="38.917162" lon="-120.071210"><ele>2038.0</ele><time>2026-08-26T22:10:50Z</time></trkpt>
<trkpt lat="38.916566" lon="-120.071395"><ele>2046.8</ele><time>2026-08-26T22:11:54Z</time></trkpt>
<trkpt lat="38.916475" lon="-120.071374"><ele>2049.2</ele><time>2026-08-26T22:12:03Z</time></trkpt>
<trkpt lat="38.916322" lon="-120.071417"><ele>2052.4</ele><time>2026-08-26T22:12:19Z</time></trkpt>
<trkpt lat="38.916193" lon="-120.071388"><ele>2055.2</ele><time>2026-08-26T22:12:32Z</time></trkpt>
<trkpt lat="38.916073" lon="-120.071482"><ele>2056.8</ele><time>2026-08-26T22:12:47Z</time></trkpt>
<trkpt lat="38.915865" lon="-120.071572"><ele>2059.8</ele><time>2026-08-26T22:13:05Z</time></trkpt>
<trkpt lat="38.915612" lon="-120.071590"><ele>2062.4</ele><time>2026-08-26T22:13:27Z</time></trkpt>
<trkpt lat="38.915166" lon="-120.071725"><ele>2066.2</ele><time>2026-08-26T22:14:03Z</time></trkpt>
<trkpt lat="38.914809" lon="-120.071798"><ele>2065.8</ele><time>2026-08-26T22:14:30Z</time></trkpt>
<trkpt lat="38.914148" lon="-120.071760"><ele>2071.2</ele><time>2026-08-26T22:15:26Z</time></trkpt>
<trkpt lat="38.913973" lon="-120.071704"><ele>2073.4</ele><time>2026-08-26T22:15:41Z</time></trkpt>
<trkpt lat="38.913845" lon="-120.071705"><ele>2075.2</ele><time>2026-08-26T22:15:51Z</time></trkpt>
<trkpt lat="38.913636" lon="-120.071738"><ele>2080.2</ele><time>2026-08-26T22:16:19Z</time></trkpt>
<trkpt lat="38.913633" lon="-120.071924"><ele>2083.4</ele><time>2026-08-26T22:16:39Z</time></trkpt>
<trkpt lat="38.913596" lon="-120.071964"><ele>2084.4</ele><time>2026-08-26T22:16:46Z</time></trkpt>
<trkpt lat="38.913376" lon="-120.071901"><ele>2087.8</ele><time>2026-08-26T22:17:20Z</time></trkpt>
<trkpt lat="38.913235" lon="-120.071938"><ele>2091.0</ele><time>2026-08-26T22:17:38Z</time></trkpt>
<trkpt lat="38.913191" lon="-120.071912"><ele>2092.2</ele><time>2026-08-26T22:17:44Z</time></trkpt>
<trkpt lat="38.913027" lon="-120.071982"><ele>2094.2</ele><time>2026-08-26T22:18:01Z</time></trkpt>
<trkpt lat="38.912820" lon="-120.071938"><ele>2097.0</ele><time>2026-08-26T22:18:22Z</time></trkpt>
<trkpt lat="38.912361" lon="-120.072033"><ele>2101.8</ele><time>2026-08-26T22:19:06Z</time></trkpt>
<trkpt lat="38.912140" lon="-120.072127"><ele>2106.2</ele><time>2026-08-26T22:19:27Z</time></trkpt>
<trkpt lat="38.911717" lon="-120.072149"><ele>2108.4</ele><time>2026-08-26T22:20:02Z</time></trkpt>
<trkpt lat="38.911217" lon="-120.072302"><ele>2111.2</ele><time>2026-08-26T22:20:51Z</time></trkpt>
<trkpt lat="38.911140" lon="-120.072281"><ele>2112.6</ele><time>2026-08-26T22:21:05Z</time></trkpt>
<trkpt lat="38.910849" lon="-120.072348"><ele>2113.2</ele><time>2026-08-26T22:21:30Z</time></trkpt>
<trkpt lat="38.910676" lon="-120.072428"><ele>2115.2</ele><time>2026-08-26T22:21:45Z</time></trkpt>
<trkpt lat="38.909871" lon="-120.072615"><ele>2118.4</ele><time>2026-08-26T22:22:54Z</time></trkpt>
<trkpt lat="38.909702" lon="-120.072694"><ele>2119.2</ele><time>2026-08-26T22:23:09Z</time></trkpt>
<trkpt lat="38.909595" lon="-120.072692"><ele>2120.2</ele><time>2026-08-26T22:23:19Z</time></trkpt>
<trkpt lat="38.909241" lon="-120.072817"><ele>2122.4</ele><time>2026-08-26T22:23:49Z</time></trkpt>
<trkpt lat="38.908813" lon="-120.072897"><ele>2124.4</ele><time>2026-08-26T22:24:26Z</time></trkpt>
<trkpt lat="38.908619" lon="-120.072956"><ele>2125.6</ele><time>2026-08-26T22:24:41Z</time></trkpt>
<trkpt lat="38.908508" lon="-120.073047"><ele>2126.6</ele><time>2026-08-26T22:24:53Z</time></trkpt>
<trkpt lat="38.907818" lon="-120.073154"><ele>2124.8</ele><time>2026-08-26T22:25:47Z</time></trkpt>
<trkpt lat="38.907763" lon="-120.073216"><ele>2125.4</ele><time>2026-08-26T22:25:54Z</time></trkpt>
<trkpt lat="38.907551" lon="-120.073253"><ele>2127.0</ele><time>2026-08-26T22:26:12Z</time></trkpt>
<trkpt lat="38.906961" lon="-120.073449"><ele>2129.2</ele><time>2026-08-26T22:27:05Z</time></trkpt>
<trkpt lat="38.906816" lon="-120.073572"><ele>2128.6</ele><time>2026-08-26T22:27:23Z</time></trkpt>
<trkpt lat="38.906644" lon="-120.073666"><ele>2129.8</ele><time>2026-08-26T22:27:40Z</time></trkpt>
<trkpt lat="38.905622" lon="-120.073867"><ele>2135.0</ele><time>2026-08-26T22:29:12Z</time></trkpt>
<trkpt lat="38.905565" lon="-120.073922"><ele>2135.8</ele><time>2026-08-26T22:29:18Z</time></trkpt>
<trkpt lat="38.905489" lon="-120.074161"><ele>2137.6</ele><time>2026-08-26T22:29:36Z</time></trkpt>
<trkpt lat="38.905177" lon="-120.074578"><ele>2140.8</ele><time>2026-08-26T22:30:12Z</time></trkpt>
<trkpt lat="38.905162" lon="-120.074639"><ele>2141.4</ele><time>2026-08-26T22:30:16Z</time></trkpt>
<trkpt lat="38.905201" lon="-120.074905"><ele>2141.8</ele><time>2026-08-26T22:30:34Z</time></trkpt>
<trkpt lat="38.905225" lon="-120.074952"><ele>2141.8</ele><time>2026-08-26T22:30:42Z</time></trkpt>
<trkpt lat="38.905414" lon="-120.075024"><ele>2144.0</ele><time>2026-08-26T22:30:58Z</time></trkpt>
<trkpt lat="38.905763" lon="-120.075088"><ele>2146.2</ele><time>2026-08-26T22:31:27Z</time></trkpt>
<trkpt lat="38.905808" lon="-120.075114"><ele>2146.4</ele><time>2026-08-26T22:31:30Z</time></trkpt>
<trkpt lat="38.905828" lon="-120.075180"><ele>2146.4</ele><time>2026-08-26T22:31:36Z</time></trkpt>
<trkpt lat="38.905207" lon="-120.075602"><ele>2156.8</ele><time>2026-08-26T22:32:40Z</time></trkpt>
<trkpt lat="38.905093" lon="-120.075726"><ele>2158.0</ele><time>2026-08-26T22:32:53Z</time></trkpt>
<trkpt lat="38.905052" lon="-120.075818"><ele>2158.6</ele><time>2026-08-26T22:33:00Z</time></trkpt>
<trkpt lat="38.905036" lon="-120.076043"><ele>2158.2</ele><time>2026-08-26T22:33:17Z</time></trkpt>
<trkpt lat="38.904907" lon="-120.076331"><ele>2158.4</ele><time>2026-08-26T22:33:39Z</time></trkpt>
<trkpt lat="38.904881" lon="-120.076735"><ele>2161.2</ele><time>2026-08-26T22:34:07Z</time></trkpt>
<trkpt lat="38.904912" lon="-120.076900"><ele>2160.0</ele><time>2026-08-26T22:34:18Z</time></trkpt>
<trkpt lat="38.904812" lon="-120.077181"><ele>2159.2</ele><time>2026-08-26T22:34:38Z</time></trkpt>
<trkpt lat="38.904831" lon="-120.077241"><ele>2158.8</ele><time>2026-08-26T22:34:43Z</time></trkpt>
<trkpt lat="38.904810" lon="-120.077352"><ele>2158.0</ele><time>2026-08-26T22:34:48Z</time></trkpt>
<trkpt lat="38.904737" lon="-120.077547"><ele>2158.8</ele><time>2026-08-26T22:35:01Z</time></trkpt>
<trkpt lat="38.904546" lon="-120.077771"><ele>2160.2</ele><time>2026-08-26T22:35:25Z</time></trkpt>
<trkpt lat="38.904531" lon="-120.078030"><ele>2163.6</ele><time>2026-08-26T22:35:48Z</time></trkpt>
<trkpt lat="38.904480" lon="-120.078227"><ele>2166.4</ele><time>2026-08-26T22:36:06Z</time></trkpt>
<trkpt lat="38.904400" lon="-120.078227"><ele>2167.4</ele><time>2026-08-26T22:36:16Z</time></trkpt>
<trkpt lat="38.904337" lon="-120.078150"><ele>2168.0</ele><time>2026-08-26T22:36:22Z</time></trkpt>
<trkpt lat="38.904311" lon="-120.078209"><ele>2168.6</ele><time>2026-08-26T22:36:28Z</time></trkpt>
<trkpt lat="38.904261" lon="-120.078216"><ele>2169.6</ele><time>2026-08-26T22:36:33Z</time></trkpt>
<trkpt lat="38.904103" lon="-120.077928"><ele>2174.0</ele><time>2026-08-26T22:37:03Z</time></trkpt>
<trkpt lat="38.904056" lon="-120.078207"><ele>2178.6</ele><time>2026-08-26T22:37:27Z</time></trkpt>
<trkpt lat="38.903977" lon="-120.078283"><ele>2180.8</ele><time>2026-08-26T22:37:39Z</time></trkpt>
<trkpt lat="38.903929" lon="-120.078218"><ele>2183.8</ele><time>2026-08-26T22:37:55Z</time></trkpt>
<trkpt lat="38.903779" lon="-120.078312"><ele>2188.6</ele><time>2026-08-26T22:38:20Z</time></trkpt>
<trkpt lat="38.903738" lon="-120.078216"><ele>2190.8</ele><time>2026-08-26T22:38:32Z</time></trkpt>
<trkpt lat="38.903497" lon="-120.078236"><ele>2194.0</ele><time>2026-08-26T22:38:55Z</time></trkpt>
<trkpt lat="38.903423" lon="-120.078149"><ele>2195.0</ele><time>2026-08-26T22:39:05Z</time></trkpt>
<trkpt lat="38.903333" lon="-120.078303"><ele>2198.4</ele><time>2026-08-26T22:39:20Z</time></trkpt>
<trkpt lat="38.903159" lon="-120.078411"><ele>2200.6</ele><time>2026-08-26T22:39:39Z</time></trkpt>
<trkpt lat="38.903141" lon="-120.078512"><ele>2201.8</ele><time>2026-08-26T22:39:49Z</time></trkpt>
<trkpt lat="38.903081" lon="-120.078556"><ele>2202.8</ele><time>2026-08-26T22:39:56Z</time></trkpt>
<trkpt lat="38.903018" lon="-120.078494"><ele>2205.0</ele><time>2026-08-26T22:40:04Z</time></trkpt>
<trkpt lat="38.902864" lon="-120.078526"><ele>2208.4</ele><time>2026-08-26T22:40:20Z</time></trkpt>
<trkpt lat="38.902831" lon="-120.078488"><ele>2208.0</ele><time>2026-08-26T22:40:25Z</time></trkpt>
<trkpt lat="38.902802" lon="-120.078288"><ele>2208.2</ele><time>2026-08-26T22:40:39Z</time></trkpt>
<trkpt lat="38.902678" lon="-120.078181"><ele>2208.8</ele><time>2026-08-26T22:40:53Z</time></trkpt>
<trkpt lat="38.902551" lon="-120.078194"><ele>2208.2</ele><time>2026-08-26T22:41:24Z</time></trkpt>
<trkpt lat="38.902549" lon="-120.078248"><ele>2208.6</ele><time>2026-08-26T22:41:47Z</time></trkpt>
<trkpt lat="38.902469" lon="-120.078252"><ele>2208.8</ele><time>2026-08-26T22:42:02Z</time></trkpt>
<trkpt lat="38.902398" lon="-120.078323"><ele>2210.4</ele><time>2026-08-26T22:42:11Z</time></trkpt>
<trkpt lat="38.902244" lon="-120.078325"><ele>2210.2</ele><time>2026-08-26T22:42:22Z</time></trkpt>
<trkpt lat="38.901840" lon="-120.078192"><ele>2209.8</ele><time>2026-08-26T22:42:58Z</time></trkpt>
<trkpt lat="38.901665" lon="-120.078070"><ele>2213.2</ele><time>2026-08-26T22:43:14Z</time></trkpt>
<trkpt lat="38.901424" lon="-120.077998"><ele>2214.2</ele><time>2026-08-26T22:43:34Z</time></trkpt>
<trkpt lat="38.901158" lon="-120.078065"><ele>2213.0</ele><time>2026-08-26T22:43:54Z</time></trkpt>
<trkpt lat="38.900947" lon="-120.078243"><ele>2216.2</ele><time>2026-08-26T22:44:21Z</time></trkpt>
<trkpt lat="38.900724" lon="-120.078317"><ele>2218.8</ele><time>2026-08-26T22:44:47Z</time></trkpt>
<trkpt lat="38.900677" lon="-120.078533"><ele>2220.4</ele><time>2026-08-26T22:45:07Z</time></trkpt>
<trkpt lat="38.900566" lon="-120.078607"><ele>2222.0</ele><time>2026-08-26T22:45:18Z</time></trkpt>
<trkpt lat="38.900424" lon="-120.078932"><ele>2223.2</ele><time>2026-08-26T22:45:45Z</time></trkpt>
<trkpt lat="38.900326" lon="-120.078980"><ele>2225.6</ele><time>2026-08-26T22:45:59Z</time></trkpt>
<trkpt lat="38.900369" lon="-120.079037"><ele>2227.6</ele><time>2026-08-26T22:46:09Z</time></trkpt>
<trkpt lat="38.900269" lon="-120.079070"><ele>2227.8</ele><time>2026-08-26T22:46:20Z</time></trkpt>
<trkpt lat="38.900237" lon="-120.079195"><ele>2229.2</ele><time>2026-08-26T22:46:33Z</time></trkpt>
<trkpt lat="38.900181" lon="-120.079245"><ele>2231.0</ele><time>2026-08-26T22:46:45Z</time></trkpt>
<trkpt lat="38.900234" lon="-120.079390"><ele>2233.0</ele><time>2026-08-26T22:46:59Z</time></trkpt>
<trkpt lat="38.900185" lon="-120.079538"><ele>2234.0</ele><time>2026-08-26T22:47:13Z</time></trkpt>
<trkpt lat="38.900103" lon="-120.079624"><ele>2234.0</ele><time>2026-08-26T22:47:26Z</time></trkpt>
<trkpt lat="38.899895" lon="-120.079708"><ele>2236.0</ele><time>2026-08-26T22:47:45Z</time></trkpt>
<trkpt lat="38.899798" lon="-120.079825"><ele>2235.4</ele><time>2026-08-26T22:47:57Z</time></trkpt>
<trkpt lat="38.899829" lon="-120.080062"><ele>2236.2</ele><time>2026-08-26T22:48:11Z</time></trkpt>
<trkpt lat="38.899807" lon="-120.080265"><ele>2239.2</ele><time>2026-08-26T22:48:25Z</time></trkpt>
<trkpt lat="38.899762" lon="-120.080332"><ele>2240.2</ele><time>2026-08-26T22:48:32Z</time></trkpt>
<trkpt lat="38.899695" lon="-120.080352"><ele>2241.0</ele><time>2026-08-26T22:48:39Z</time></trkpt>
<trkpt lat="38.899820" lon="-120.080534"><ele>2242.4</ele><time>2026-08-26T22:48:55Z</time></trkpt>
<trkpt lat="38.899775" lon="-120.080628"><ele>2243.6</ele><time>2026-08-26T22:49:04Z</time></trkpt>
<trkpt lat="38.899786" lon="-120.080777"><ele>2246.0</ele><time>2026-08-26T22:49:14Z</time></trkpt>
<trkpt lat="38.899741" lon="-120.080892"><ele>2247.0</ele><time>2026-08-26T22:49:23Z</time></trkpt>
<trkpt lat="38.899660" lon="-120.080951"><ele>2247.2</ele><time>2026-08-26T22:49:31Z</time></trkpt>
<trkpt lat="38.899609" lon="-120.081159"><ele>2249.2</ele><time>2026-08-26T22:49:46Z</time></trkpt>
<trkpt lat="38.899439" lon="-120.081446"><ele>2254.8</ele><time>2026-08-26T22:50:19Z</time></trkpt>
<trkpt lat="38.899385" lon="-120.081713"><ele>2259.0</ele><time>2026-08-26T22:50:43Z</time></trkpt>
<trkpt lat="38.899063" lon="-120.082095"><ele>2265.0</ele><time>2026-08-26T22:51:39Z</time></trkpt>
<trkpt lat="38.898857" lon="-120.082125"><ele>2269.4</ele><time>2026-08-26T22:52:08Z</time></trkpt>
<trkpt lat="38.898644" lon="-120.082104"><ele>2271.4</ele><time>2026-08-26T22:52:35Z</time></trkpt>
<trkpt lat="38.898517" lon="-120.082039"><ele>2274.2</ele><time>2026-08-26T22:52:48Z</time></trkpt>
<trkpt lat="38.898319" lon="-120.082110"><ele>2276.8</ele><time>2026-08-26T22:53:09Z</time></trkpt>
<trkpt lat="38.898147" lon="-120.082060"><ele>2278.6</ele><time>2026-08-26T22:53:29Z</time></trkpt>
<trkpt lat="38.898060" lon="-120.082163"><ele>2281.8</ele><time>2026-08-26T22:53:42Z</time></trkpt>
<trkpt lat="38.898031" lon="-120.082272"><ele>2283.4</ele><time>2026-08-26T22:53:51Z</time></trkpt>
<trkpt lat="38.897801" lon="-120.082561"><ele>2287.2</ele><time>2026-08-26T22:54:38Z</time></trkpt>
<trkpt lat="38.897601" lon="-120.082409"><ele>2292.2</ele><time>2026-08-26T22:55:10Z</time></trkpt>
<trkpt lat="38.897520" lon="-120.082264"><ele>2293.6</ele><time>2026-08-26T22:55:23Z</time></trkpt>
<trkpt lat="38.897428" lon="-120.082128"><ele>2291.2</ele><time>2026-08-26T22:55:36Z</time></trkpt>
<trkpt lat="38.897367" lon="-120.082090"><ele>2290.6</ele><time>2026-08-26T22:55:41Z</time></trkpt>
<trkpt lat="38.897201" lon="-120.081781"><ele>2288.8</ele><time>2026-08-26T22:56:05Z</time></trkpt>
<trkpt lat="38.897126" lon="-120.081687"><ele>2287.8</ele><time>2026-08-26T22:56:12Z</time></trkpt>
<trkpt lat="38.897025" lon="-120.081678"><ele>2287.2</ele><time>2026-08-26T22:56:19Z</time></trkpt>
<trkpt lat="38.896938" lon="-120.081448"><ele>2291.0</ele><time>2026-08-26T22:56:41Z</time></trkpt>
<trkpt lat="38.896904" lon="-120.081530"><ele>2292.4</ele><time>2026-08-26T22:56:52Z</time></trkpt>
<trkpt lat="38.896789" lon="-120.081641"><ele>2295.6</ele><time>2026-08-26T22:57:08Z</time></trkpt>
<trkpt lat="38.896617" lon="-120.081637"><ele>2296.6</ele><time>2026-08-26T22:57:25Z</time></trkpt>
<trkpt lat="38.896345" lon="-120.081555"><ele>2299.8</ele><time>2026-08-26T22:57:53Z</time></trkpt>
<trkpt lat="38.896243" lon="-120.081577"><ele>2300.8</ele><time>2026-08-26T22:58:06Z</time></trkpt>
<trkpt lat="38.896070" lon="-120.081545"><ele>2304.2</ele><time>2026-08-26T22:58:25Z</time></trkpt>
<trkpt lat="38.895961" lon="-120.081606"><ele>2306.4</ele><time>2026-08-26T22:58:38Z</time></trkpt>
<trkpt lat="38.895803" lon="-120.081643"><ele>2312.0</ele><time>2026-08-26T22:59:04Z</time></trkpt>
<trkpt lat="38.895648" lon="-120.081742"><ele>2313.4</ele><time>2026-08-26T22:59:28Z</time></trkpt>
<trkpt lat="38.895484" lon="-120.081779"><ele>2316.6</ele><time>2026-08-26T22:59:46Z</time></trkpt>
<trkpt lat="38.895422" lon="-120.081728"><ele>2319.0</ele><time>2026-08-26T22:59:56Z</time></trkpt>
<trkpt lat="38.895188" lon="-120.081724"><ele>2323.8</ele><time>2026-08-26T23:00:23Z</time></trkpt>
<trkpt lat="38.894979" lon="-120.081814"><ele>2325.0</ele><time>2026-08-26T23:00:44Z</time></trkpt>
<trkpt lat="38.894808" lon="-120.081748"><ele>2325.8</ele><time>2026-08-26T23:01:02Z</time></trkpt>
<trkpt lat="38.894678" lon="-120.081899"><ele>2327.0</ele><time>2026-08-26T23:01:18Z</time></trkpt>
<trkpt lat="38.894498" lon="-120.081970"><ele>2328.0</ele><time>2026-08-26T23:01:37Z</time></trkpt>
<trkpt lat="38.894401" lon="-120.082105"><ele>2328.4</ele><time>2026-08-26T23:01:51Z</time></trkpt>
<trkpt lat="38.894290" lon="-120.082144"><ele>2328.0</ele><time>2026-08-26T23:02:02Z</time></trkpt>
<trkpt lat="38.894262" lon="-120.082138"><ele>2336.0</ele><time>2026-08-26T23:09:26Z</time></trkpt>
<trkpt lat="38.894326" lon="-120.082150"><ele>2336.0</ele><time>2026-08-26T23:09:33Z</time></trkpt>
<trkpt lat="38.894362" lon="-120.082211"><ele>2336.6</ele><time>2026-08-26T23:09:39Z</time></trkpt>
<trkpt lat="38.894296" lon="-120.082332"><ele>2336.8</ele><time>2026-08-26T23:09:50Z</time></trkpt>
<trkpt lat="38.894163" lon="-120.082487"><ele>2340.4</ele><time>2026-08-26T23:10:18Z</time></trkpt>
<trkpt lat="38.894124" lon="-120.082607"><ele>2342.2</ele><time>2026-08-26T23:10:33Z</time></trkpt>
<trkpt lat="38.894280" lon="-120.082698"><ele>2347.0</ele><time>2026-08-26T23:11:02Z</time></trkpt>
<trkpt lat="38.894156" lon="-120.083042"><ele>2352.2</ele><time>2026-08-26T23:11:49Z</time></trkpt>
<trkpt lat="38.894187" lon="-120.083099"><ele>2353.4</ele><time>2026-08-26T23:12:00Z</time></trkpt>
<trkpt lat="38.894180" lon="-120.083227"><ele>2355.4</ele><time>2026-08-26T23:12:19Z</time></trkpt>
<trkpt lat="38.894279" lon="-120.083361"><ele>2359.2</ele><time>2026-08-26T23:12:48Z</time></trkpt>
<trkpt lat="38.894310" lon="-120.083397"><ele>2363.4</ele><time>2026-08-26T23:12:55Z</time></trkpt>
<trkpt lat="38.894304" lon="-120.083436"><ele>2363.8</ele><time>2026-08-26T23:13:00Z</time></trkpt>
<trkpt lat="38.894042" lon="-120.083422"><ele>2366.0</ele><time>2026-08-26T23:13:28Z</time></trkpt>
<trkpt lat="38.893960" lon="-120.083434"><ele>2367.6</ele><time>2026-08-26T23:13:40Z</time></trkpt>
<trkpt lat="38.893906" lon="-120.083481"><ele>2368.0</ele><time>2026-08-26T23:13:47Z</time></trkpt>
<trkpt lat="38.893896" lon="-120.083623"><ele>2370.0</ele><time>2026-08-26T23:14:01Z</time></trkpt>
<trkpt lat="38.893844" lon="-120.083700"><ele>2371.0</ele><time>2026-08-26T23:14:11Z</time></trkpt>
<trkpt lat="38.893759" lon="-120.083967"><ele>2374.0</ele><time>2026-08-26T23:14:41Z</time></trkpt>
<trkpt lat="38.893844" lon="-120.084079"><ele>2376.0</ele><time>2026-08-26T23:15:00Z</time></trkpt>
<trkpt lat="38.893965" lon="-120.084084"><ele>2377.6</ele><time>2026-08-26T23:15:14Z</time></trkpt>
<trkpt lat="38.894000" lon="-120.084156"><ele>2377.6</ele><time>2026-08-26T23:15:23Z</time></trkpt>
<trkpt lat="38.893864" lon="-120.084245"><ele>2379.2</ele><time>2026-08-26T23:15:41Z</time></trkpt>
<trkpt lat="38.893642" lon="-120.084284"><ele>2383.4</ele><time>2026-08-26T23:16:07Z</time></trkpt>
<trkpt lat="38.893747" lon="-120.084408"><ele>2386.4</ele><time>2026-08-26T23:16:26Z</time></trkpt>
<trkpt lat="38.893639" lon="-120.084422"><ele>2389.6</ele><time>2026-08-26T23:16:48Z</time></trkpt>
<trkpt lat="38.893643" lon="-120.084448"><ele>2391.0</ele><time>2026-08-26T23:16:52Z</time></trkpt>
<trkpt lat="38.893677" lon="-120.084490"><ele>2392.0</ele><time>2026-08-26T23:17:00Z</time></trkpt>
<trkpt lat="38.893780" lon="-120.084508"><ele>2392.8</ele><time>2026-08-26T23:17:12Z</time></trkpt>
<trkpt lat="38.893846" lon="-120.084587"><ele>2397.6</ele><time>2026-08-26T23:17:29Z</time></trkpt>
<trkpt lat="38.893776" lon="-120.084630"><ele>2401.4</ele><time>2026-08-26T23:17:37Z</time></trkpt>
<trkpt lat="38.893716" lon="-120.084713"><ele>2403.0</ele><time>2026-08-26T23:17:50Z</time></trkpt>
<trkpt lat="38.893689" lon="-120.084837"><ele>2406.0</ele><time>2026-08-26T23:18:00Z</time></trkpt>
<trkpt lat="38.893699" lon="-120.084976"><ele>2404.6</ele><time>2026-08-26T23:18:10Z</time></trkpt>
<trkpt lat="38.893643" lon="-120.084986"><ele>2405.2</ele><time>2026-08-26T23:18:18Z</time></trkpt>
<trkpt lat="38.893555" lon="-120.085182"><ele>2410.0</ele><time>2026-08-26T23:18:40Z</time></trkpt>
<trkpt lat="38.893536" lon="-120.085477"><ele>2411.0</ele><time>2026-08-26T23:19:03Z</time></trkpt>
<trkpt lat="38.893559" lon="-120.085538"><ele>2413.0</ele><time>2026-08-26T23:19:08Z</time></trkpt>
<trkpt lat="38.893704" lon="-120.085626"><ele>2413.4</ele><time>2026-08-26T23:19:24Z</time></trkpt>
<trkpt lat="38.893961" lon="-120.085981"><ele>2415.8</ele><time>2026-08-26T23:20:01Z</time></trkpt>
<trkpt lat="38.893972" lon="-120.086115"><ele>2417.8</ele><time>2026-08-26T23:20:15Z</time></trkpt>
<trkpt lat="38.894125" lon="-120.086345"><ele>2423.8</ele><time>2026-08-26T23:20:41Z</time></trkpt>
<trkpt lat="38.894227" lon="-120.086348"><ele>2424.6</ele><time>2026-08-26T23:20:50Z</time></trkpt>
<trkpt lat="38.894321" lon="-120.086516"><ele>2428.4</ele><time>2026-08-26T23:21:11Z</time></trkpt>
<trkpt lat="38.894384" lon="-120.086526"><ele>2431.2</ele><time>2026-08-26T23:21:24Z</time></trkpt>
<trkpt lat="38.894488" lon="-120.086592"><ele>2432.6</ele><time>2026-08-26T23:21:58Z</time></trkpt>
<trkpt lat="38.894414" lon="-120.086716"><ele>2437.4</ele><time>2026-08-26T23:22:18Z</time></trkpt>
<trkpt lat="38.894413" lon="-120.086811"><ele>2440.4</ele><time>2026-08-26T23:22:33Z</time></trkpt>
<trkpt lat="38.894283" lon="-120.086977"><ele>2446.2</ele><time>2026-08-26T23:23:04Z</time></trkpt>
<trkpt lat="38.894299" lon="-120.087020"><ele>2446.4</ele><time>2026-08-26T23:23:12Z</time></trkpt>
<trkpt lat="38.894362" lon="-120.087013"><ele>2447.4</ele><time>2026-08-26T23:23:19Z</time></trkpt>
<trkpt lat="38.894488" lon="-120.087109"><ele>2451.8</ele><time>2026-08-26T23:23:40Z</time></trkpt>
<trkpt lat="38.894294" lon="-120.087633"><ele>2465.2</ele><time>2026-08-26T23:25:00Z</time></trkpt>
<trkpt lat="38.894224" lon="-120.087741"><ele>2467.8</ele><time>2026-08-26T23:25:16Z</time></trkpt>
<trkpt lat="38.894111" lon="-120.088384"><ele>2481.0</ele><time>2026-08-26T23:26:33Z</time></trkpt>
<trkpt lat="38.894120" lon="-120.088604"><ele>2483.4</ele><time>2026-08-26T23:26:52Z</time></trkpt>
<trkpt lat="38.894050" lon="-120.088660"><ele>2487.0</ele><time>2026-08-26T23:27:02Z</time></trkpt>
<trkpt lat="38.894035" lon="-120.088676"><ele>2483.8</ele><time>2026-08-26T23:27:34Z</time></trkpt>
<trkpt lat="38.894019" lon="-120.088739"><ele>2483.8</ele><time>2026-08-26T23:27:49Z</time></trkpt>
<trkpt lat="38.893929" lon="-120.088808"><ele>2486.0</ele><time>2026-08-26T23:28:00Z</time></trkpt>
<trkpt lat="38.893754" lon="-120.089101"><ele>2491.4</ele><time>2026-08-26T23:29:01Z</time></trkpt>
<trkpt lat="38.893739" lon="-120.089177"><ele>2491.2</ele><time>2026-08-26T23:29:19Z</time></trkpt>
<trkpt lat="38.893789" lon="-120.089315"><ele>2492.0</ele><time>2026-08-26T23:29:32Z</time></trkpt>
<trkpt lat="38.893959" lon="-120.089461"><ele>2497.0</ele><time>2026-08-26T23:29:59Z</time></trkpt>
<trkpt lat="38.894034" lon="-120.089573"><ele>2498.0</ele><time>2026-08-26T23:30:15Z</time></trkpt>
<trkpt lat="38.894252" lon="-120.089684"><ele>2502.8</ele><time>2026-08-26T23:30:43Z</time></trkpt>
<trkpt lat="38.894560" lon="-120.089588"><ele>2506.4</ele><time>2026-08-26T23:31:25Z</time></trkpt>
<trkpt lat="38.894638" lon="-120.089397"><ele>2509.0</ele><time>2026-08-26T23:31:43Z</time></trkpt>
<trkpt lat="38.894820" lon="-120.089265"><ele>2510.4</ele><time>2026-08-26T23:32:10Z</time></trkpt>
<trkpt lat="38.894812" lon="-120.089467"><ele>2513.6</ele><time>2026-08-26T23:32:31Z</time></trkpt>
<trkpt lat="38.894841" lon="-120.089636"><ele>2515.6</ele><time>2026-08-26T23:32:53Z</time></trkpt>
<trkpt lat="38.894853" lon="-120.089702"><ele>2519.6</ele><time>2026-08-26T23:33:01Z</time></trkpt>
<trkpt lat="38.894850" lon="-120.090130"><ele>2523.4</ele><time>2026-08-26T23:33:50Z</time></trkpt>
<trkpt lat="38.894738" lon="-120.090404"><ele>2526.0</ele><time>2026-08-26T23:34:22Z</time></trkpt>
<trkpt lat="38.894616" lon="-120.090595"><ele>2530.2</ele><time>2026-08-26T23:34:54Z</time></trkpt>
<trkpt lat="38.894577" lon="-120.090892"><ele>2535.0</ele><time>2026-08-26T23:35:31Z</time></trkpt>
<trkpt lat="38.894563" lon="-120.090953"><ele>2540.4</ele><time>2026-08-26T23:35:49Z</time></trkpt>
<trkpt lat="38.894523" lon="-120.091028"><ele>2542.4</ele><time>2026-08-26T23:35:58Z</time></trkpt>
<trkpt lat="38.894592" lon="-120.091022"><ele>2546.2</ele><time>2026-08-26T23:36:10Z</time></trkpt>
<trkpt lat="38.894805" lon="-120.090889"><ele>2549.0</ele><time>2026-08-26T23:37:10Z</time></trkpt>
<trkpt lat="38.894907" lon="-120.090837"><ele>2558.0</ele><time>2026-08-26T23:37:26Z</time></trkpt>
<trkpt lat="38.895062" lon="-120.090752"><ele>2560.8</ele><time>2026-08-26T23:37:48Z</time></trkpt>
<trkpt lat="38.895116" lon="-120.090754"><ele>2559.0</ele><time>2026-08-26T23:37:55Z</time></trkpt>
<trkpt lat="38.895289" lon="-120.090732"><ele>2562.2</ele><time>2026-08-26T23:38:18Z</time></trkpt>
<trkpt lat="38.895473" lon="-120.090826"><ele>2566.4</ele><time>2026-08-26T23:38:41Z</time></trkpt>
<trkpt lat="38.895573" lon="-120.090821"><ele>2566.8</ele><time>2026-08-26T23:38:53Z</time></trkpt>
<trkpt lat="38.895881" lon="-120.090922"><ele>2573.2</ele><time>2026-08-26T23:39:38Z</time></trkpt>
<trkpt lat="38.895662" lon="-120.091076"><ele>2578.8</ele><time>2026-08-26T23:41:24Z</time></trkpt>
<trkpt lat="38.895561" lon="-120.091105"><ele>2581.4</ele><time>2026-08-26T23:41:36Z</time></trkpt>
<trkpt lat="38.895494" lon="-120.091194"><ele>2584.4</ele><time>2026-08-26T23:41:57Z</time></trkpt>
<trkpt lat="38.895297" lon="-120.091319"><ele>2587.0</ele><time>2026-08-26T23:42:25Z</time></trkpt>
<trkpt lat="38.894992" lon="-120.091859"><ele>2601.8</ele><time>2026-08-26T23:43:49Z</time></trkpt>
<trkpt lat="38.894821" lon="-120.092014"><ele>2603.8</ele><time>2026-08-26T23:44:12Z</time></trkpt>
<trkpt lat="38.894615" lon="-120.092345"><ele>2612.4</ele><time>2026-08-26T23:44:53Z</time></trkpt>
<trkpt lat="38.894390" lon="-120.092632"><ele>2622.8</ele><time>2026-08-26T23:45:51Z</time></trkpt>
<trkpt lat="38.894179" lon="-120.092821"><ele>2628.8</ele><time>2026-08-26T23:46:38Z</time></trkpt>
<trkpt lat="38.894100" lon="-120.092831"><ele>2630.8</ele><time>2026-08-26T23:46:45Z</time></trkpt>
<trkpt lat="38.894073" lon="-120.092883"><ele>2631.6</ele><time>2026-08-26T23:46:52Z</time></trkpt>
<trkpt lat="38.893855" lon="-120.092907"><ele>2632.6</ele><time>2026-08-26T23:47:11Z</time></trkpt>
<trkpt lat="38.893842" lon="-120.092935"><ele>2633.6</ele><time>2026-08-26T23:47:16Z</time></trkpt>
<trkpt lat="38.893892" lon="-120.092979"><ele>2636.2</ele><time>2026-08-26T23:47:24Z</time></trkpt>
<trkpt lat="38.894102" lon="-120.093093"><ele>2638.2</ele><time>2026-08-26T23:47:54Z</time></trkpt>
<trkpt lat="38.894179" lon="-120.093167"><ele>2641.8</ele><time>2026-08-26T23:48:07Z</time></trkpt>
<trkpt lat="38.894172" lon="-120.093203"><ele>2644.4</ele><time>2026-08-26T23:48:13Z</time></trkpt>
<trkpt lat="38.893940" lon="-120.093369"><ele>2647.8</ele><time>2026-08-26T23:48:53Z</time></trkpt>
<trkpt lat="38.893648" lon="-120.093408"><ele>2656.6</ele><time>2026-08-26T23:49:36Z</time></trkpt>
<trkpt lat="38.893577" lon="-120.093470"><ele>2662.0</ele><time>2026-08-26T23:49:49Z</time></trkpt>
<trkpt lat="38.893591" lon="-120.093514"><ele>2660.0</ele><time>2026-08-26T23:49:54Z</time></trkpt>
<trkpt lat="38.893604" lon="-120.093565"><ele>2666.0</ele><time>2026-08-26T23:50:38Z</time></trkpt>
<trkpt lat="38.893615" lon="-120.093567"><ele>2664.2</ele><time>2026-08-26T23:50:55Z</time></trkpt>
<trkpt lat="38.893605" lon="-120.093555"><ele>2667.0</ele><time>2026-08-26T23:51:06Z</time></trkpt>
<trkpt lat="38.893662" lon="-120.093603"><ele>2662.4</ele><time>2026-08-26T23:51:22Z</time></trkpt>
<trkpt lat="38.893755" lon="-120.093724"><ele>2666.0</ele><time>2026-08-26T23:51:39Z</time></trkpt>
<trkpt lat="38.893934" lon="-120.093971"><ele>2666.2</ele><time>2026-08-26T23:52:12Z</time></trkpt>
<trkpt lat="38.894115" lon="-120.094136"><ele>2666.0</ele><time>2026-08-26T23:52:33Z</time></trkpt>
<trkpt lat="38.894331" lon="-120.094908"><ele>2667.0</ele><time>2026-08-26T23:54:30Z</time></trkpt>
<trkpt lat="38.894366" lon="-120.095372"><ele>2671.0</ele><time>2026-08-26T23:55:04Z</time></trkpt>
<trkpt lat="38.894453" lon="-120.095447"><ele>2673.8</ele><time>2026-08-26T23:55:22Z</time></trkpt>
<trkpt lat="38.894473" lon="-120.095521"><ele>2675.0</ele><time>2026-08-26T23:55:31Z</time></trkpt>
<trkpt lat="38.894626" lon="-120.095696"><ele>2679.4</ele><time>2026-08-26T23:55:59Z</time></trkpt>
<trkpt lat="38.894639" lon="-120.095782"><ele>2681.0</ele><time>2026-08-26T23:56:17Z</time></trkpt>
<trkpt lat="38.894741" lon="-120.095953"><ele>2683.6</ele><time>2026-08-26T23:56:37Z</time></trkpt>
<trkpt lat="38.894777" lon="-120.096134"><ele>2684.4</ele><time>2026-08-26T23:57:04Z</time></trkpt>
<trkpt lat="38.894853" lon="-120.096290"><ele>2688.2</ele><time>2026-08-26T23:57:23Z</time></trkpt>
<trkpt lat="38.894866" lon="-120.096262"><ele>2688.8</ele><time>2026-08-26T23:57:28Z</time></trkpt>
<trkpt lat="38.894910" lon="-120.096276"><ele>2689.0</ele><time>2026-08-26T23:57:35Z</time></trkpt>
<trkpt lat="38.894950" lon="-120.096411"><ele>2694.2</ele><time>2026-08-26T23:57:52Z</time></trkpt>
<trkpt lat="38.894973" lon="-120.096437"><ele>2694.8</ele><time>2026-08-26T23:57:55Z</time></trkpt>
<trkpt lat="38.895067" lon="-120.096426"><ele>2695.6</ele><time>2026-08-26T23:58:07Z</time></trkpt>
<trkpt lat="38.895095" lon="-120.096479"><ele>2696.6</ele><time>2026-08-26T23:58:13Z</time></trkpt>
<trkpt lat="38.895219" lon="-120.096403"><ele>2699.2</ele><time>2026-08-26T23:58:35Z</time></trkpt>
<trkpt lat="38.895319" lon="-120.096483"><ele>2699.8</ele><time>2026-08-26T23:58:48Z</time></trkpt>
<trkpt lat="38.895427" lon="-120.096511"><ele>2702.0</ele><time>2026-08-26T23:58:59Z</time></trkpt>
<trkpt lat="38.895546" lon="-120.096473"><ele>2704.2</ele><time>2026-08-26T23:59:12Z</time></trkpt>
<trkpt lat="38.895623" lon="-120.096537"><ele>2706.4</ele><time>2026-08-26T23:59:23Z</time></trkpt>
<trkpt lat="38.895691" lon="-120.096494"><ele>2708.0</ele><time>2026-08-26T23:59:32Z</time></trkpt>
<trkpt lat="38.896002" lon="-120.096565"><ele>2716.2</ele><time>2026-08-27T00:00:30Z</time></trkpt>
<trkpt lat="38.896152" lon="-120.096725"><ele>2721.0</ele><time>2026-08-27T00:01:02Z</time></trkpt>
<trkpt lat="38.896201" lon="-120.096745"><ele>2723.6</ele><time>2026-08-27T00:01:10Z</time></trkpt>
<trkpt lat="38.896250" lon="-120.096704"><ele>2725.0</ele><time>2026-08-27T00:01:20Z</time></trkpt>
<trkpt lat="38.896537" lon="-120.097075"><ele>2735.0</ele><time>2026-08-27T00:02:24Z</time></trkpt>
<trkpt lat="38.896708" lon="-120.097138"><ele>2739.2</ele><time>2026-08-27T00:02:58Z</time></trkpt>
<trkpt lat="38.896744" lon="-120.097122"><ele>2740.0</ele><time>2026-08-27T00:03:04Z</time></trkpt>
<trkpt lat="38.896922" lon="-120.097284"><ele>2746.2</ele><time>2026-08-27T00:03:32Z</time></trkpt>
<trkpt lat="38.897016" lon="-120.097306"><ele>2747.6</ele><time>2026-08-27T00:03:41Z</time></trkpt>
<trkpt lat="38.897095" lon="-120.097399"><ele>2750.6</ele><time>2026-08-27T00:04:07Z</time></trkpt>
<trkpt lat="38.897231" lon="-120.097311"><ele>2753.2</ele><time>2026-08-27T00:04:22Z</time></trkpt>
<trkpt lat="38.897332" lon="-120.097507"><ele>2756.2</ele><time>2026-08-27T00:04:42Z</time></trkpt>
<trkpt lat="38.897433" lon="-120.097586"><ele>2760.0</ele><time>2026-08-27T00:05:06Z</time></trkpt>
<trkpt lat="38.897602" lon="-120.097634"><ele>2763.0</ele><time>2026-08-27T00:05:28Z</time></trkpt>
<trkpt lat="38.897668" lon="-120.097714"><ele>2765.8</ele><time>2026-08-27T00:05:36Z</time></trkpt>
<trkpt lat="38.897726" lon="-120.097737"><ele>2766.8</ele><time>2026-08-27T00:05:47Z</time></trkpt>
<trkpt lat="38.897810" lon="-120.097702"><ele>2769.6</ele><time>2026-08-27T00:05:59Z</time></trkpt>
<trkpt lat="38.897895" lon="-120.097730"><ele>2771.2</ele><time>2026-08-27T00:06:08Z</time></trkpt>
<trkpt lat="38.897954" lon="-120.097706"><ele>2772.2</ele><time>2026-08-27T00:06:15Z</time></trkpt>
<trkpt lat="38.898136" lon="-120.097749"><ele>2774.4</ele><time>2026-08-27T00:06:31Z</time></trkpt>
<trkpt lat="38.898236" lon="-120.097841"><ele>2776.2</ele><time>2026-08-27T00:06:42Z</time></trkpt>
<trkpt lat="38.898300" lon="-120.097848"><ele>2777.0</ele><time>2026-08-27T00:06:48Z</time></trkpt>
<trkpt lat="38.898546" lon="-120.098092"><ele>2781.4</ele><time>2026-08-27T00:07:13Z</time></trkpt>
<trkpt lat="38.898774" lon="-120.098248"><ele>2785.8</ele><time>2026-08-27T00:07:35Z</time></trkpt>
<trkpt lat="38.898987" lon="-120.098333"><ele>2787.0</ele><time>2026-08-27T00:07:56Z</time></trkpt>
<trkpt lat="38.899083" lon="-120.098409"><ele>2790.6</ele><time>2026-08-27T00:08:11Z</time></trkpt>
<trkpt lat="38.899800" lon="-120.098880"><ele>2796.0</ele><time>2026-08-27T00:09:38Z</time></trkpt>
<trkpt lat="38.900633" lon="-120.099290"><ele>2803.4</ele><time>2026-08-27T00:10:50Z</time></trkpt>
<trkpt lat="38.901242" lon="-120.099505"><ele>2817.0</ele><time>2026-08-27T00:12:00Z</time></trkpt>
<trkpt lat="38.901439" lon="-120.099670"><ele>2821.8</ele><time>2026-08-27T00:12:27Z</time></trkpt>
<trkpt lat="38.901804" lon="-120.099867"><ele>2831.0</ele><time>2026-08-27T00:13:04Z</time></trkpt>
<trkpt lat="38.901884" lon="-120.100031"><ele>2832.6</ele><time>2026-08-27T00:13:17Z</time></trkpt>
<trkpt lat="38.902127" lon="-120.100205"><ele>2834.4</ele><time>2026-08-27T00:13:42Z</time></trkpt>
<trkpt lat="38.902186" lon="-120.100364"><ele>2836.4</ele><time>2026-08-27T00:13:53Z</time></trkpt>
<trkpt lat="38.902280" lon="-120.100461"><ele>2837.2</ele><time>2026-08-27T00:14:03Z</time></trkpt>
<trkpt lat="38.902295" lon="-120.100543"><ele>2836.6</ele><time>2026-08-27T00:14:08Z</time></trkpt>
<trkpt lat="38.902363" lon="-120.100597"><ele>2837.2</ele><time>2026-08-27T00:14:14Z</time></trkpt>
<trkpt lat="38.902452" lon="-120.100791"><ele>2837.6</ele><time>2026-08-27T00:14:29Z</time></trkpt>
<trkpt lat="38.902824" lon="-120.101183"><ele>2841.2</ele><time>2026-08-27T00:15:17Z</time></trkpt>
<trkpt lat="38.902870" lon="-120.101177"><ele>2843.4</ele><time>2026-08-27T00:15:37Z</time></trkpt>
<trkpt lat="38.902920" lon="-120.101191"><ele>2841.4</ele><time>2026-08-27T00:15:46Z</time></trkpt>
<trkpt lat="38.903018" lon="-120.101177"><ele>2846.2</ele><time>2026-08-27T00:15:55Z</time></trkpt>
<trkpt lat="38.903071" lon="-120.101228"><ele>2846.8</ele><time>2026-08-27T00:16:03Z</time></trkpt>
<trkpt lat="38.903144" lon="-120.101141"><ele>2850.8</ele><time>2026-08-27T00:16:15Z</time></trkpt>
<trkpt lat="38.903284" lon="-120.101194"><ele>2854.2</ele><time>2026-08-27T00:16:33Z</time></trkpt>
<trkpt lat="38.903372" lon="-120.101185"><ele>2855.8</ele><time>2026-08-27T00:16:42Z</time></trkpt>
<trkpt lat="38.903609" lon="-120.101091"><ele>2859.0</ele><time>2026-08-27T00:17:18Z</time></trkpt>
<trkpt lat="38.903768" lon="-120.100882"><ele>2865.8</ele><time>2026-08-27T00:18:00Z</time></trkpt>
<trkpt lat="38.903814" lon="-120.100676"><ele>2870.0</ele><time>2026-08-27T00:18:22Z</time></trkpt>
<trkpt lat="38.903777" lon="-120.100490"><ele>2873.2</ele><time>2026-08-27T00:18:41Z</time></trkpt>
<trkpt lat="38.903716" lon="-120.100362"><ele>2875.4</ele><time>2026-08-27T00:18:54Z</time></trkpt>
<trkpt lat="38.903718" lon="-120.100298"><ele>2875.2</ele><time>2026-08-27T00:19:00Z</time></trkpt>
<trkpt lat="38.903804" lon="-120.100226"><ele>2876.8</ele><time>2026-08-27T00:19:23Z</time></trkpt>
<trkpt lat="38.903878" lon="-120.099974"><ele>2882.2</ele><time>2026-08-27T00:19:48Z</time></trkpt>
<trkpt lat="38.903923" lon="-120.099931"><ele>2884.4</ele><time>2026-08-27T00:19:55Z</time></trkpt>
<trkpt lat="38.904166" lon="-120.099872"><ele>2890.8</ele><time>2026-08-27T00:20:35Z</time></trkpt>
<trkpt lat="38.904259" lon="-120.099807"><ele>2895.6</ele><time>2026-08-27T00:21:39Z</time></trkpt>
<trkpt lat="38.904237" lon="-120.099779"><ele>2897.2</ele><time>2026-08-27T00:21:57Z</time></trkpt>
<trkpt lat="38.904249" lon="-120.099784"><ele>2899.2</ele><time>2026-08-27T00:22:04Z</time></trkpt>
<trkpt lat="38.904231" lon="-120.099765"><ele>2898.2</ele><time>2026-08-27T00:22:42Z</time></trkpt>
<trkpt lat="38.904270" lon="-120.099290"><ele>2905.4</ele><time>2026-08-27T00:24:10Z</time></trkpt>
<trkpt lat="38.904211" lon="-120.099211"><ele>2906.0</ele><time>2026-08-27T00:24:15Z</time></trkpt>
<trkpt lat="38.904190" lon="-120.099099"><ele>2906.4</ele><time>2026-08-27T00:24:19Z</time></trkpt>
<trkpt lat="38.904064" lon="-120.098848"><ele>2908.8</ele><time>2026-08-27T00:24:29Z</time></trkpt>
<trkpt lat="38.904026" lon="-120.098577"><ele>2911.0</ele><time>2026-08-27T00:24:42Z</time></trkpt>
<trkpt lat="38.904082" lon="-120.098501"><ele>2912.2</ele><time>2026-08-27T00:24:47Z</time></trkpt>
<trkpt lat="38.904325" lon="-120.098503"><ele>2916.4</ele><time>2026-08-27T00:25:06Z</time></trkpt>
<trkpt lat="38.904527" lon="-120.098463"><ele>2921.8</ele><time>2026-08-27T00:25:25Z</time></trkpt>
<trkpt lat="38.904527" lon="-120.098327"><ele>2923.2</ele><time>2026-08-27T00:25:33Z</time></trkpt>
<trkpt lat="38.904564" lon="-120.098235"><ele>2923.4</ele><time>2026-08-27T00:25:37Z</time></trkpt>
<trkpt lat="38.904666" lon="-120.098149"><ele>2923.8</ele><time>2026-08-27T00:25:43Z</time></trkpt>
<trkpt lat="38.904834" lon="-120.098105"><ele>2927.4</ele><time>2026-08-27T00:25:59Z</time></trkpt>
<trkpt lat="38.905126" lon="-120.098268"><ele>2935.4</ele><time>2026-08-27T00:26:22Z</time></trkpt>
<trkpt lat="38.905170" lon="-120.098413"><ele>2940.6</ele><time>2026-08-27T00:26:36Z</time></trkpt>
<trkpt lat="38.905319" lon="-120.098489"><ele>2946.8</ele><time>2026-08-27T00:26:56Z</time></trkpt>
<trkpt lat="38.905410" lon="-120.098676"><ele>2953.2</ele><time>2026-08-27T00:27:16Z</time></trkpt>
<trkpt lat="38.905536" lon="-120.098759"><ele>2955.2</ele><time>2026-08-27T00:27:26Z</time></trkpt>
<trkpt lat="38.905688" lon="-120.098772"><ele>2955.4</ele><time>2026-08-27T00:27:36Z</time></trkpt>
<trkpt lat="38.905769" lon="-120.098903"><ele>2958.2</ele><time>2026-08-27T00:27:50Z</time></trkpt>
<trkpt lat="38.905874" lon="-120.098909"><ele>2958.6</ele><time>2026-08-27T00:28:06Z</time></trkpt>
<trkpt lat="38.905993" lon="-120.098994"><ele>2961.2</ele><time>2026-08-27T00:28:44Z</time></trkpt>
<trkpt lat="38.905994" lon="-120.099001"><ele>2963.8</ele><time>2026-08-27T00:29:03Z</time></trkpt>
<trkpt lat="38.906004" lon="-120.098995"><ele>2958.2</ele><time>2026-08-27T00:31:31Z</time></trkpt>
<trkpt lat="38.906008" lon="-120.099009"><ele>2961.8</ele><time>2026-08-27T00:32:15Z</time></trkpt>
<trkpt lat="38.905967" lon="-120.098952"><ele>2961.2</ele><time>2026-08-27T00:33:32Z</time></trkpt>
<trkpt lat="38.905891" lon="-120.098947"><ele>2961.0</ele><time>2026-08-27T00:33:43Z</time></trkpt>
<trkpt lat="38.905861" lon="-120.098886"><ele>2959.8</ele><time>2026-08-27T00:33:53Z</time></trkpt>
<trkpt lat="38.905774" lon="-120.098900"><ele>2958.6</ele><time>2026-08-27T00:34:06Z</time></trkpt>
<trkpt lat="38.905687" lon="-120.098759"><ele>2955.2</ele><time>2026-08-27T00:34:29Z</time></trkpt>
<trkpt lat="38.905613" lon="-120.098740"><ele>2954.0</ele><time>2026-08-27T00:34:35Z</time></trkpt>
<trkpt lat="38.905567" lon="-120.098765"><ele>2954.4</ele><time>2026-08-27T00:34:40Z</time></trkpt>
<trkpt lat="38.905484" lon="-120.098732"><ele>2951.4</ele><time>2026-08-27T00:34:51Z</time></trkpt>
<trkpt lat="38.905458" lon="-120.098643"><ele>2952.6</ele><time>2026-08-27T00:35:02Z</time></trkpt>
<trkpt lat="38.905337" lon="-120.098553"><ele>2948.8</ele><time>2026-08-27T00:35:26Z</time></trkpt>
<trkpt lat="38.905312" lon="-120.098484"><ele>2946.6</ele><time>2026-08-27T00:35:43Z</time></trkpt>
<trkpt lat="38.905245" lon="-120.098423"><ele>2943.8</ele><time>2026-08-27T00:35:55Z</time></trkpt>
<trkpt lat="38.905163" lon="-120.098411"><ele>2942.0</ele><time>2026-08-27T00:36:09Z</time></trkpt>
<trkpt lat="38.905135" lon="-120.098279"><ele>2937.0</ele><time>2026-08-27T00:36:29Z</time></trkpt>
<trkpt lat="38.904827" lon="-120.098100"><ele>2928.8</ele><time>2026-08-27T00:37:00Z</time></trkpt>
<trkpt lat="38.904670" lon="-120.098139"><ele>2926.6</ele><time>2026-08-27T00:37:16Z</time></trkpt>
<trkpt lat="38.904577" lon="-120.098224"><ele>2925.0</ele><time>2026-08-27T00:37:25Z</time></trkpt>
<trkpt lat="38.904530" lon="-120.098314"><ele>2924.4</ele><time>2026-08-27T00:37:32Z</time></trkpt>
<trkpt lat="38.904507" lon="-120.098486"><ele>2924.4</ele><time>2026-08-27T00:37:44Z</time></trkpt>
<trkpt lat="38.904448" lon="-120.098455"><ele>2922.2</ele><time>2026-08-27T00:37:52Z</time></trkpt>
<trkpt lat="38.904316" lon="-120.098497"><ele>2917.2</ele><time>2026-08-27T00:38:05Z</time></trkpt>
<trkpt lat="38.904077" lon="-120.098481"><ele>2910.4</ele><time>2026-08-27T00:38:29Z</time></trkpt>
<trkpt lat="38.904019" lon="-120.098613"><ele>2909.8</ele><time>2026-08-27T00:38:38Z</time></trkpt>
<trkpt lat="38.904053" lon="-120.098682"><ele>2910.6</ele><time>2026-08-27T00:38:48Z</time></trkpt>
<trkpt lat="38.904060" lon="-120.098835"><ele>2908.8</ele><time>2026-08-27T00:39:00Z</time></trkpt>
<trkpt lat="38.904255" lon="-120.099319"><ele>2905.8</ele><time>2026-08-27T00:39:35Z</time></trkpt>
<trkpt lat="38.904229" lon="-120.099514"><ele>2902.4</ele><time>2026-08-27T00:39:50Z</time></trkpt>
<trkpt lat="38.904236" lon="-120.099786"><ele>2897.8</ele><time>2026-08-27T00:40:08Z</time></trkpt>
<trkpt lat="38.904146" lon="-120.099869"><ele>2897.6</ele><time>2026-08-27T00:40:19Z</time></trkpt>
<trkpt lat="38.904027" lon="-120.099881"><ele>2893.2</ele><time>2026-08-27T00:40:32Z</time></trkpt>
<trkpt lat="38.903869" lon="-120.099962"><ele>2887.8</ele><time>2026-08-27T00:40:50Z</time></trkpt>
<trkpt lat="38.903822" lon="-120.100152"><ele>2883.0</ele><time>2026-08-27T00:41:07Z</time></trkpt>
<trkpt lat="38.903701" lon="-120.100312"><ele>2880.8</ele><time>2026-08-27T00:41:21Z</time></trkpt>
<trkpt lat="38.903785" lon="-120.100521"><ele>2879.2</ele><time>2026-08-27T00:41:37Z</time></trkpt>
<trkpt lat="38.903777" lon="-120.100584"><ele>2878.6</ele><time>2026-08-27T00:41:41Z</time></trkpt>
<trkpt lat="38.903814" lon="-120.100688"><ele>2876.2</ele><time>2026-08-27T00:41:50Z</time></trkpt>
<trkpt lat="38.903802" lon="-120.100809"><ele>2872.2</ele><time>2026-08-27T00:42:01Z</time></trkpt>
<trkpt lat="38.903753" lon="-120.100888"><ele>2871.0</ele><time>2026-08-27T00:42:07Z</time></trkpt>
<trkpt lat="38.903671" lon="-120.100953"><ele>2865.8</ele><time>2026-08-27T00:42:18Z</time></trkpt>
<trkpt lat="38.903601" lon="-120.101095"><ele>2862.8</ele><time>2026-08-27T00:42:29Z</time></trkpt>
<trkpt lat="38.903446" lon="-120.101150"><ele>2858.2</ele><time>2026-08-27T00:42:42Z</time></trkpt>
<trkpt lat="38.903283" lon="-120.101185"><ele>2856.0</ele><time>2026-08-27T00:42:55Z</time></trkpt>
<trkpt lat="38.903120" lon="-120.101146"><ele>2853.4</ele><time>2026-08-27T00:43:10Z</time></trkpt>
<trkpt lat="38.903066" lon="-120.101229"><ele>2851.0</ele><time>2026-08-27T00:43:19Z</time></trkpt>
<trkpt lat="38.903000" lon="-120.101171"><ele>2848.2</ele><time>2026-08-27T00:43:28Z</time></trkpt>
<trkpt lat="38.902789" lon="-120.101166"><ele>2843.0</ele><time>2026-08-27T00:43:48Z</time></trkpt>
<trkpt lat="38.902665" lon="-120.100970"><ele>2839.8</ele><time>2026-08-27T00:44:06Z</time></trkpt>
<trkpt lat="38.902535" lon="-120.100876"><ele>2840.0</ele><time>2026-08-27T00:44:19Z</time></trkpt>
<trkpt lat="38.902367" lon="-120.100605"><ele>2837.6</ele><time>2026-08-27T00:44:41Z</time></trkpt>
<trkpt lat="38.902282" lon="-120.100542"><ele>2838.8</ele><time>2026-08-27T00:44:48Z</time></trkpt>
<trkpt lat="38.902118" lon="-120.100195"><ele>2837.4</ele><time>2026-08-27T00:45:14Z</time></trkpt>
<trkpt lat="38.901866" lon="-120.099997"><ele>2835.2</ele><time>2026-08-27T00:45:35Z</time></trkpt>
<trkpt lat="38.901823" lon="-120.099903"><ele>2834.2</ele><time>2026-08-27T00:45:41Z</time></trkpt>
<trkpt lat="38.901748" lon="-120.099836"><ele>2833.2</ele><time>2026-08-27T00:45:47Z</time></trkpt>
<trkpt lat="38.901648" lon="-120.099775"><ele>2833.8</ele><time>2026-08-27T00:45:55Z</time></trkpt>
<trkpt lat="38.901443" lon="-120.099658"><ele>2830.0</ele><time>2026-08-27T00:46:11Z</time></trkpt>
<trkpt lat="38.901237" lon="-120.099484"><ele>2823.0</ele><time>2026-08-27T00:46:30Z</time></trkpt>
<trkpt lat="38.900638" lon="-120.099277"><ele>2807.6</ele><time>2026-08-27T00:47:19Z</time></trkpt>
<trkpt lat="38.899790" lon="-120.098875"><ele>2802.8</ele><time>2026-08-27T00:48:01Z</time></trkpt>
<trkpt lat="38.899197" lon="-120.098463"><ele>2794.8</ele><time>2026-08-27T00:48:31Z</time></trkpt>
<trkpt lat="38.898845" lon="-120.098248"><ele>2790.4</ele><time>2026-08-27T00:48:56Z</time></trkpt>
<trkpt lat="38.898711" lon="-120.098204"><ele>2788.4</ele><time>2026-08-27T00:49:07Z</time></trkpt>
<trkpt lat="38.898285" lon="-120.097831"><ele>2780.4</ele><time>2026-08-27T00:49:43Z</time></trkpt>
<trkpt lat="38.897994" lon="-120.097695"><ele>2777.2</ele><time>2026-08-27T00:50:07Z</time></trkpt>
<trkpt lat="38.897648" lon="-120.097664"><ele>2772.4</ele><time>2026-08-27T00:50:36Z</time></trkpt>
<trkpt lat="38.897512" lon="-120.097561"><ele>2767.8</ele><time>2026-08-27T00:50:54Z</time></trkpt>
<trkpt lat="38.897318" lon="-120.097491"><ele>2763.2</ele><time>2026-08-27T00:51:13Z</time></trkpt>
<trkpt lat="38.897322" lon="-120.097425"><ele>2761.8</ele><time>2026-08-27T00:51:18Z</time></trkpt>
<trkpt lat="38.897228" lon="-120.097301"><ele>2759.6</ele><time>2026-08-27T00:51:31Z</time></trkpt>
<trkpt lat="38.897087" lon="-120.097369"><ele>2757.4</ele><time>2026-08-27T00:51:43Z</time></trkpt>
<trkpt lat="38.897018" lon="-120.097271"><ele>2754.4</ele><time>2026-08-27T00:51:52Z</time></trkpt>
<trkpt lat="38.896908" lon="-120.097242"><ele>2753.0</ele><time>2026-08-27T00:52:00Z</time></trkpt>
<trkpt lat="38.896860" lon="-120.097139"><ele>2750.6</ele><time>2026-08-27T00:52:16Z</time></trkpt>
<trkpt lat="38.896535" lon="-120.097059"><ele>2742.8</ele><time>2026-08-27T00:52:47Z</time></trkpt>
<trkpt lat="38.896317" lon="-120.096748"><ele>2734.6</ele><time>2026-08-27T00:53:16Z</time></trkpt>
<trkpt lat="38.896229" lon="-120.096682"><ele>2732.2</ele><time>2026-08-27T00:53:27Z</time></trkpt>
<trkpt lat="38.896129" lon="-120.096706"><ele>2727.8</ele><time>2026-08-27T00:53:54Z</time></trkpt>
<trkpt lat="38.896008" lon="-120.096529"><ele>2724.2</ele><time>2026-08-27T00:54:14Z</time></trkpt>
<trkpt lat="38.895936" lon="-120.096542"><ele>2723.0</ele><time>2026-08-27T00:54:26Z</time></trkpt>
<trkpt lat="38.895810" lon="-120.096487"><ele>2719.8</ele><time>2026-08-27T00:54:38Z</time></trkpt>
<trkpt lat="38.895768" lon="-120.096560"><ele>2719.0</ele><time>2026-08-27T00:54:43Z</time></trkpt>
<trkpt lat="38.895706" lon="-120.096491"><ele>2716.6</ele><time>2026-08-27T00:54:53Z</time></trkpt>
<trkpt lat="38.895661" lon="-120.096521"><ele>2715.2</ele><time>2026-08-27T00:54:58Z</time></trkpt>
<trkpt lat="38.895542" lon="-120.096469"><ele>2712.8</ele><time>2026-08-27T00:55:07Z</time></trkpt>
<trkpt lat="38.895408" lon="-120.096478"><ele>2710.6</ele><time>2026-08-27T00:55:18Z</time></trkpt>
<trkpt lat="38.895194" lon="-120.096388"><ele>2707.8</ele><time>2026-08-27T00:55:36Z</time></trkpt>
<trkpt lat="38.895114" lon="-120.096462"><ele>2706.8</ele><time>2026-08-27T00:55:42Z</time></trkpt>
<trkpt lat="38.895072" lon="-120.096414"><ele>2705.0</ele><time>2026-08-27T00:55:48Z</time></trkpt>
<trkpt lat="38.894983" lon="-120.096425"><ele>2703.0</ele><time>2026-08-27T00:55:56Z</time></trkpt>
<trkpt lat="38.894918" lon="-120.096247"><ele>2698.4</ele><time>2026-08-27T00:56:12Z</time></trkpt>
<trkpt lat="38.894830" lon="-120.096218"><ele>2695.6</ele><time>2026-08-27T00:56:22Z</time></trkpt>
<trkpt lat="38.894635" lon="-120.095684"><ele>2685.6</ele><time>2026-08-27T00:57:04Z</time></trkpt>
<trkpt lat="38.894372" lon="-120.095341"><ele>2674.6</ele><time>2026-08-27T00:57:48Z</time></trkpt>
<trkpt lat="38.894309" lon="-120.094752"><ele>2668.8</ele><time>2026-08-27T00:58:32Z</time></trkpt>
<trkpt lat="38.894178" lon="-120.094392"><ele>2666.2</ele><time>2026-08-27T00:59:00Z</time></trkpt>
<trkpt lat="38.894110" lon="-120.094125"><ele>2666.4</ele><time>2026-08-27T00:59:20Z</time></trkpt>
<trkpt lat="38.893925" lon="-120.093948"><ele>2665.8</ele><time>2026-08-27T00:59:40Z</time></trkpt>
<trkpt lat="38.893881" lon="-120.093849"><ele>2665.4</ele><time>2026-08-27T00:59:47Z</time></trkpt>
<trkpt lat="38.893690" lon="-120.093632"><ele>2669.0</ele><time>2026-08-27T01:00:09Z</time></trkpt>
<trkpt lat="38.893603" lon="-120.093544"><ele>2666.8</ele><time>2026-08-27T01:00:19Z</time></trkpt>
<trkpt lat="38.893585" lon="-120.093464"><ele>2664.2</ele><time>2026-08-27T01:00:26Z</time></trkpt>
<trkpt lat="38.893641" lon="-120.093406"><ele>2662.0</ele><time>2026-08-27T01:00:34Z</time></trkpt>
<trkpt lat="38.893746" lon="-120.093429"><ele>2659.4</ele><time>2026-08-27T01:01:39Z</time></trkpt>
<trkpt lat="38.893897" lon="-120.093405"><ele>2654.6</ele><time>2026-08-27T01:01:55Z</time></trkpt>
<trkpt lat="38.894143" lon="-120.093237"><ele>2649.0</ele><time>2026-08-27T01:02:20Z</time></trkpt>
<trkpt lat="38.894189" lon="-120.093164"><ele>2648.0</ele><time>2026-08-27T01:02:28Z</time></trkpt>
<trkpt lat="38.894141" lon="-120.093093"><ele>2645.4</ele><time>2026-08-27T01:02:36Z</time></trkpt>
<trkpt lat="38.893862" lon="-120.092917"><ele>2637.6</ele><time>2026-08-27T01:03:06Z</time></trkpt>
<trkpt lat="38.894067" lon="-120.092888"><ele>2636.2</ele><time>2026-08-27T01:03:25Z</time></trkpt>
<trkpt lat="38.894124" lon="-120.092808"><ele>2633.8</ele><time>2026-08-27T01:03:32Z</time></trkpt>
<trkpt lat="38.894222" lon="-120.092790"><ele>2632.8</ele><time>2026-08-27T01:03:42Z</time></trkpt>
<trkpt lat="38.894392" lon="-120.092645"><ele>2630.2</ele><time>2026-08-27T01:04:01Z</time></trkpt>
<trkpt lat="38.894675" lon="-120.092230"><ele>2619.0</ele><time>2026-08-27T01:04:44Z</time></trkpt>
<trkpt lat="38.894797" lon="-120.092118"><ele>2616.0</ele><time>2026-08-27T01:04:57Z</time></trkpt>
<trkpt lat="38.894849" lon="-120.091988"><ele>2612.6</ele><time>2026-08-27T01:05:10Z</time></trkpt>
<trkpt lat="38.895039" lon="-120.091803"><ele>2608.6</ele><time>2026-08-27T01:05:36Z</time></trkpt>
<trkpt lat="38.895307" lon="-120.091307"><ele>2596.4</ele><time>2026-08-27T01:06:30Z</time></trkpt>
<trkpt lat="38.895524" lon="-120.091178"><ele>2593.4</ele><time>2026-08-27T01:06:57Z</time></trkpt>
<trkpt lat="38.895573" lon="-120.091103"><ele>2591.4</ele><time>2026-08-27T01:07:03Z</time></trkpt>
<trkpt lat="38.895749" lon="-120.091039"><ele>2586.0</ele><time>2026-08-27T01:07:25Z</time></trkpt>
<trkpt lat="38.895893" lon="-120.090917"><ele>2582.6</ele><time>2026-08-27T01:07:40Z</time></trkpt>
<trkpt lat="38.895494" lon="-120.090811"><ele>2576.8</ele><time>2026-08-27T01:08:25Z</time></trkpt>
<trkpt lat="38.895270" lon="-120.090705"><ele>2572.6</ele><time>2026-08-27T01:08:49Z</time></trkpt>
<trkpt lat="38.895149" lon="-120.090748"><ele>2572.4</ele><time>2026-08-27T01:09:00Z</time></trkpt>
<trkpt lat="38.895001" lon="-120.090764"><ele>2567.4</ele><time>2026-08-27T01:09:13Z</time></trkpt>
<trkpt lat="38.894542" lon="-120.091046"><ele>2552.6</ele><time>2026-08-27T01:10:15Z</time></trkpt>
<trkpt lat="38.894587" lon="-120.090920"><ele>2551.6</ele><time>2026-08-27T01:10:28Z</time></trkpt>
<trkpt lat="38.894614" lon="-120.090788"><ele>2545.8</ele><time>2026-08-27T01:10:40Z</time></trkpt>
<trkpt lat="38.894637" lon="-120.090594"><ele>2542.4</ele><time>2026-08-27T01:10:56Z</time></trkpt>
<trkpt lat="38.894705" lon="-120.090450"><ele>2539.6</ele><time>2026-08-27T01:11:11Z</time></trkpt>
<trkpt lat="38.894756" lon="-120.090392"><ele>2540.4</ele><time>2026-08-27T01:11:17Z</time></trkpt>
<trkpt lat="38.894862" lon="-120.090111"><ele>2534.0</ele><time>2026-08-27T01:11:43Z</time></trkpt>
<trkpt lat="38.894868" lon="-120.090007"><ele>2531.6</ele><time>2026-08-27T01:11:53Z</time></trkpt>
<trkpt lat="38.894853" lon="-120.089900"><ele>2532.8</ele><time>2026-08-27T01:12:03Z</time></trkpt>
<trkpt lat="38.894886" lon="-120.089749"><ele>2529.2</ele><time>2026-08-27T01:12:15Z</time></trkpt>
<trkpt lat="38.894830" lon="-120.089407"><ele>2524.8</ele><time>2026-08-27T01:12:45Z</time></trkpt>
<trkpt lat="38.894859" lon="-120.089282"><ele>2521.0</ele><time>2026-08-27T01:12:57Z</time></trkpt>
<trkpt lat="38.894838" lon="-120.089266"><ele>2519.8</ele><time>2026-08-27T01:13:02Z</time></trkpt>
<trkpt lat="38.894654" lon="-120.089388"><ele>2518.2</ele><time>2026-08-27T01:13:20Z</time></trkpt>
<trkpt lat="38.894562" lon="-120.089601"><ele>2516.2</ele><time>2026-08-27T01:13:36Z</time></trkpt>
<trkpt lat="38.894417" lon="-120.089601"><ele>2513.4</ele><time>2026-08-27T01:13:46Z</time></trkpt>
<trkpt lat="38.894298" lon="-120.089687"><ele>2510.8</ele><time>2026-08-27T01:14:01Z</time></trkpt>
<trkpt lat="38.894035" lon="-120.089539"><ele>2503.6</ele><time>2026-08-27T01:14:31Z</time></trkpt>
<trkpt lat="38.894012" lon="-120.089478"><ele>2502.0</ele><time>2026-08-27T01:14:37Z</time></trkpt>
<trkpt lat="38.893856" lon="-120.089354"><ele>2497.8</ele><time>2026-08-27T01:14:53Z</time></trkpt>
<trkpt lat="38.893773" lon="-120.089231"><ele>2494.4</ele><time>2026-08-27T01:15:06Z</time></trkpt>
<trkpt lat="38.893762" lon="-120.089158"><ele>2493.4</ele><time>2026-08-27T01:15:11Z</time></trkpt>
<trkpt lat="38.893844" lon="-120.088971"><ele>2491.2</ele><time>2026-08-27T01:15:23Z</time></trkpt>
<trkpt lat="38.894142" lon="-120.088619"><ele>2483.2</ele><time>2026-08-27T01:15:57Z</time></trkpt>
<trkpt lat="38.894142" lon="-120.088431"><ele>2480.2</ele><time>2026-08-27T01:16:09Z</time></trkpt>
<trkpt lat="38.894267" lon="-120.087739"><ele>2469.6</ele><time>2026-08-27T01:16:59Z</time></trkpt>
<trkpt lat="38.894445" lon="-120.087383"><ele>2460.4</ele><time>2026-08-27T01:17:32Z</time></trkpt>
<trkpt lat="38.894446" lon="-120.087278"><ele>2458.0</ele><time>2026-08-27T01:17:42Z</time></trkpt>
<trkpt lat="38.894502" lon="-120.087128"><ele>2453.4</ele><time>2026-08-27T01:17:58Z</time></trkpt>
<trkpt lat="38.894396" lon="-120.087005"><ele>2448.8</ele><time>2026-08-27T01:18:16Z</time></trkpt>
<trkpt lat="38.894301" lon="-120.086974"><ele>2446.8</ele><time>2026-08-27T01:18:26Z</time></trkpt>
<trkpt lat="38.894432" lon="-120.086841"><ele>2442.4</ele><time>2026-08-27T01:18:42Z</time></trkpt>
<trkpt lat="38.894449" lon="-120.086708"><ele>2438.6</ele><time>2026-08-27T01:18:56Z</time></trkpt>
<trkpt lat="38.894520" lon="-120.086591"><ele>2434.6</ele><time>2026-08-27T01:19:14Z</time></trkpt>
<trkpt lat="38.894345" lon="-120.086477"><ele>2430.0</ele><time>2026-08-27T01:19:34Z</time></trkpt>
<trkpt lat="38.894255" lon="-120.086347"><ele>2426.8</ele><time>2026-08-27T01:19:47Z</time></trkpt>
<trkpt lat="38.894194" lon="-120.086341"><ele>2425.6</ele><time>2026-08-27T01:19:53Z</time></trkpt>
<trkpt lat="38.894016" lon="-120.086132"><ele>2421.2</ele><time>2026-08-27T01:20:14Z</time></trkpt>
<trkpt lat="38.893986" lon="-120.085979"><ele>2419.0</ele><time>2026-08-27T01:20:28Z</time></trkpt>
<trkpt lat="38.893917" lon="-120.085865"><ele>2417.0</ele><time>2026-08-27T01:20:39Z</time></trkpt>
<trkpt lat="38.893705" lon="-120.085592"><ele>2416.0</ele><time>2026-08-27T01:21:07Z</time></trkpt>
<trkpt lat="38.893581" lon="-120.085533"><ele>2415.8</ele><time>2026-08-27T01:21:20Z</time></trkpt>
<trkpt lat="38.893548" lon="-120.085443"><ele>2416.2</ele><time>2026-08-27T01:21:26Z</time></trkpt>
<trkpt lat="38.893584" lon="-120.085180"><ele>2415.6</ele><time>2026-08-27T01:21:47Z</time></trkpt>
<trkpt lat="38.893662" lon="-120.085058"><ele>2411.6</ele><time>2026-08-27T01:22:05Z</time></trkpt>
<trkpt lat="38.893666" lon="-120.084981"><ele>2410.2</ele><time>2026-08-27T01:22:10Z</time></trkpt>
<trkpt lat="38.893713" lon="-120.085000"><ele>2408.6</ele><time>2026-08-27T01:22:14Z</time></trkpt>
<trkpt lat="38.893710" lon="-120.084823"><ele>2408.4</ele><time>2026-08-27T01:22:25Z</time></trkpt>
<trkpt lat="38.893754" lon="-120.084774"><ele>2408.4</ele><time>2026-08-27T01:22:30Z</time></trkpt>
<trkpt lat="38.893748" lon="-120.084693"><ele>2407.6</ele><time>2026-08-27T01:22:39Z</time></trkpt>
<trkpt lat="38.893867" lon="-120.084572"><ele>2404.2</ele><time>2026-08-27T01:23:03Z</time></trkpt>
<trkpt lat="38.893760" lon="-120.084471"><ele>2401.6</ele><time>2026-08-27T01:23:15Z</time></trkpt>
<trkpt lat="38.893652" lon="-120.084426"><ele>2401.2</ele><time>2026-08-27T01:23:26Z</time></trkpt>
<trkpt lat="38.893752" lon="-120.084416"><ele>2397.4</ele><time>2026-08-27T01:23:38Z</time></trkpt>
<trkpt lat="38.893665" lon="-120.084267"><ele>2392.8</ele><time>2026-08-27T01:23:53Z</time></trkpt>
<trkpt lat="38.893798" lon="-120.084277"><ele>2390.6</ele><time>2026-08-27T01:24:06Z</time></trkpt>
<trkpt lat="38.894028" lon="-120.084129"><ele>2387.2</ele><time>2026-08-27T01:24:27Z</time></trkpt>
<trkpt lat="38.893969" lon="-120.084051"><ele>2385.8</ele><time>2026-08-27T01:24:34Z</time></trkpt>
<trkpt lat="38.893838" lon="-120.084054"><ele>2384.4</ele><time>2026-08-27T01:24:44Z</time></trkpt>
<trkpt lat="38.893788" lon="-120.083965"><ele>2382.2</ele><time>2026-08-27T01:24:53Z</time></trkpt>
<trkpt lat="38.893865" lon="-120.083680"><ele>2375.0</ele><time>2026-08-27T01:25:15Z</time></trkpt>
<trkpt lat="38.893914" lon="-120.083603"><ele>2372.6</ele><time>2026-08-27T01:25:23Z</time></trkpt>
<trkpt lat="38.893932" lon="-120.083470"><ele>2370.2</ele><time>2026-08-27T01:25:32Z</time></trkpt>
<trkpt lat="38.894052" lon="-120.083431"><ele>2369.6</ele><time>2026-08-27T01:25:43Z</time></trkpt>
<trkpt lat="38.894275" lon="-120.083454"><ele>2366.2</ele><time>2026-08-27T01:26:01Z</time></trkpt>
<trkpt lat="38.894337" lon="-120.083414"><ele>2364.6</ele><time>2026-08-27T01:26:08Z</time></trkpt>
<trkpt lat="38.894261" lon="-120.083334"><ele>2363.0</ele><time>2026-08-27T01:26:16Z</time></trkpt>
<trkpt lat="38.894210" lon="-120.083230"><ele>2359.2</ele><time>2026-08-27T01:26:28Z</time></trkpt>
<trkpt lat="38.894170" lon="-120.083040"><ele>2353.4</ele><time>2026-08-27T01:26:48Z</time></trkpt>
<trkpt lat="38.894172" lon="-120.082986"><ele>2352.2</ele><time>2026-08-27T01:26:52Z</time></trkpt>
<trkpt lat="38.894299" lon="-120.082749"><ele>2346.6</ele><time>2026-08-27T01:27:15Z</time></trkpt>
<trkpt lat="38.894288" lon="-120.082668"><ele>2345.2</ele><time>2026-08-27T01:27:22Z</time></trkpt>
<trkpt lat="38.894146" lon="-120.082594"><ele>2339.0</ele><time>2026-08-27T01:27:42Z</time></trkpt>
<trkpt lat="38.894274" lon="-120.082399"><ele>2333.4</ele><time>2026-08-27T01:28:02Z</time></trkpt>
<trkpt lat="38.894208" lon="-120.082276"><ele>2330.4</ele><time>2026-08-27T01:28:14Z</time></trkpt>
<trkpt lat="38.894293" lon="-120.082143"><ele>2332.0</ele><time>2026-08-27T01:30:34Z</time></trkpt>
<trkpt lat="38.894362" lon="-120.082161"><ele>2331.4</ele><time>2026-08-27T01:30:41Z</time></trkpt>
<trkpt lat="38.894518" lon="-120.081987"><ele>2332.4</ele><time>2026-08-27T01:30:54Z</time></trkpt>
<trkpt lat="38.894680" lon="-120.081928"><ele>2332.4</ele><time>2026-08-27T01:31:09Z</time></trkpt>
<trkpt lat="38.894857" lon="-120.081760"><ele>2332.0</ele><time>2026-08-27T01:31:26Z</time></trkpt>
<trkpt lat="38.894951" lon="-120.081827"><ele>2329.8</ele><time>2026-08-27T01:31:34Z</time></trkpt>
<trkpt lat="38.895036" lon="-120.081837"><ele>2329.4</ele><time>2026-08-27T01:31:40Z</time></trkpt>
<trkpt lat="38.895197" lon="-120.081758"><ele>2329.2</ele><time>2026-08-27T01:31:53Z</time></trkpt>
<trkpt lat="38.895421" lon="-120.081770"><ele>2323.6</ele><time>2026-08-27T01:32:12Z</time></trkpt>
<trkpt lat="38.895483" lon="-120.081814"><ele>2321.4</ele><time>2026-08-27T01:32:18Z</time></trkpt>
<trkpt lat="38.896069" lon="-120.081602"><ele>2310.4</ele><time>2026-08-27T01:33:05Z</time></trkpt>
<trkpt lat="38.896222" lon="-120.081621"><ele>2306.6</ele><time>2026-08-27T01:33:19Z</time></trkpt>
<trkpt lat="38.896307" lon="-120.081593"><ele>2304.8</ele><time>2026-08-27T01:33:27Z</time></trkpt>
<trkpt lat="38.896742" lon="-120.081685"><ele>2301.2</ele><time>2026-08-27T01:34:02Z</time></trkpt>
<trkpt lat="38.896883" lon="-120.081594"><ele>2299.4</ele><time>2026-08-27T01:34:15Z</time></trkpt>
<trkpt lat="38.896946" lon="-120.081474"><ele>2296.8</ele><time>2026-08-27T01:34:27Z</time></trkpt>
<trkpt lat="38.897005" lon="-120.081678"><ele>2293.8</ele><time>2026-08-27T01:34:42Z</time></trkpt>
<trkpt lat="38.897090" lon="-120.081698"><ele>2292.4</ele><time>2026-08-27T01:34:49Z</time></trkpt>
<trkpt lat="38.897146" lon="-120.081760"><ele>2293.4</ele><time>2026-08-27T01:34:54Z</time></trkpt>
<trkpt lat="38.897226" lon="-120.081930"><ele>2295.6</ele><time>2026-08-27T01:35:05Z</time></trkpt>
<trkpt lat="38.897631" lon="-120.082448"><ele>2300.6</ele><time>2026-08-27T01:35:53Z</time></trkpt>
<trkpt lat="38.897794" lon="-120.082573"><ele>2295.2</ele><time>2026-08-27T01:36:11Z</time></trkpt>
<trkpt lat="38.897822" lon="-120.082577"><ele>2294.2</ele><time>2026-08-27T01:36:15Z</time></trkpt>
<trkpt lat="38.897958" lon="-120.082411"><ele>2289.4</ele><time>2026-08-27T01:36:33Z</time></trkpt>
<trkpt lat="38.898144" lon="-120.082092"><ele>2283.2</ele><time>2026-08-27T01:36:57Z</time></trkpt>
<trkpt lat="38.898407" lon="-120.082121"><ele>2280.4</ele><time>2026-08-27T01:37:19Z</time></trkpt>
<trkpt lat="38.898547" lon="-120.082068"><ele>2278.2</ele><time>2026-08-27T01:37:30Z</time></trkpt>
<trkpt lat="38.898792" lon="-120.082142"><ele>2273.4</ele><time>2026-08-27T01:37:53Z</time></trkpt>
<trkpt lat="38.899071" lon="-120.082104"><ele>2268.0</ele><time>2026-08-27T01:38:18Z</time></trkpt>
<trkpt lat="38.899326" lon="-120.081837"><ele>2260.6</ele><time>2026-08-27T01:38:49Z</time></trkpt>
<trkpt lat="38.899405" lon="-120.081708"><ele>2257.8</ele><time>2026-08-27T01:38:59Z</time></trkpt>
<trkpt lat="38.899482" lon="-120.081411"><ele>2253.0</ele><time>2026-08-27T01:39:18Z</time></trkpt>
<trkpt lat="38.899614" lon="-120.081197"><ele>2248.2</ele><time>2026-08-27T01:39:34Z</time></trkpt>
<trkpt lat="38.899692" lon="-120.080954"><ele>2246.2</ele><time>2026-08-27T01:39:50Z</time></trkpt>
<trkpt lat="38.899754" lon="-120.080918"><ele>2245.8</ele><time>2026-08-27T01:39:56Z</time></trkpt>
<trkpt lat="38.899793" lon="-120.080787"><ele>2246.0</ele><time>2026-08-27T01:40:04Z</time></trkpt>
<trkpt lat="38.899791" lon="-120.080660"><ele>2245.8</ele><time>2026-08-27T01:40:09Z</time></trkpt>
<trkpt lat="38.899840" lon="-120.080572"><ele>2245.0</ele><time>2026-08-27T01:40:14Z</time></trkpt>
<trkpt lat="38.899821" lon="-120.080511"><ele>2243.8</ele><time>2026-08-27T01:40:17Z</time></trkpt>
<trkpt lat="38.899710" lon="-120.080370"><ele>2244.4</ele><time>2026-08-27T01:40:23Z</time></trkpt>
<trkpt lat="38.899800" lon="-120.080362"><ele>2243.8</ele><time>2026-08-27T01:40:29Z</time></trkpt>
<trkpt lat="38.899828" lon="-120.080320"><ele>2242.8</ele><time>2026-08-27T01:40:31Z</time></trkpt>
<trkpt lat="38.899850" lon="-120.080111"><ele>2241.8</ele><time>2026-08-27T01:40:37Z</time></trkpt>
<trkpt lat="38.899799" lon="-120.079860"><ele>2241.2</ele><time>2026-08-27T01:40:45Z</time></trkpt>
<trkpt lat="38.899883" lon="-120.079735"><ele>2241.0</ele><time>2026-08-27T01:40:50Z</time></trkpt>
<trkpt lat="38.900116" lon="-120.079633"><ele>2241.0</ele><time>2026-08-27T01:41:07Z</time></trkpt>
<trkpt lat="38.900231" lon="-120.079509"><ele>2241.0</ele><time>2026-08-27T01:41:19Z</time></trkpt>
<trkpt lat="38.900255" lon="-120.079420"><ele>2240.6</ele><time>2026-08-27T01:41:25Z</time></trkpt>
<trkpt lat="38.900217" lon="-120.079232"><ele>2238.4</ele><time>2026-08-27T01:41:39Z</time></trkpt>
<trkpt lat="38.900250" lon="-120.079214"><ele>2237.2</ele><time>2026-08-27T01:41:42Z</time></trkpt>
<trkpt lat="38.900276" lon="-120.079092"><ele>2234.4</ele><time>2026-08-27T01:41:50Z</time></trkpt>
<trkpt lat="38.900291" lon="-120.079063"><ele>2233.2</ele><time>2026-08-27T01:41:52Z</time></trkpt>
<trkpt lat="38.900377" lon="-120.079065"><ele>2231.2</ele><time>2026-08-27T01:41:59Z</time></trkpt>
<trkpt lat="38.900353" lon="-120.078995"><ele>2230.0</ele><time>2026-08-27T01:42:07Z</time></trkpt>
<trkpt lat="38.900407" lon="-120.078987"><ele>2228.6</ele><time>2026-08-27T01:42:11Z</time></trkpt>
<trkpt lat="38.900575" lon="-120.078628"><ele>2226.4</ele><time>2026-08-27T01:42:31Z</time></trkpt>
<trkpt lat="38.900675" lon="-120.078566"><ele>2226.4</ele><time>2026-08-27T01:42:40Z</time></trkpt>
<trkpt lat="38.900695" lon="-120.078401"><ele>2225.4</ele><time>2026-08-27T01:42:50Z</time></trkpt>
<trkpt lat="38.900737" lon="-120.078336"><ele>2224.6</ele><time>2026-08-27T01:42:53Z</time></trkpt>
<trkpt lat="38.900944" lon="-120.078290"><ele>2221.8</ele><time>2026-08-27T01:43:02Z</time></trkpt>
<trkpt lat="38.901183" lon="-120.078090"><ele>2218.2</ele><time>2026-08-27T01:43:21Z</time></trkpt>
<trkpt lat="38.901452" lon="-120.078030"><ele>2219.0</ele><time>2026-08-27T01:43:40Z</time></trkpt>
<trkpt lat="38.901639" lon="-120.078076"><ele>2218.8</ele><time>2026-08-27T01:43:53Z</time></trkpt>
<trkpt lat="38.901910" lon="-120.078256"><ele>2215.0</ele><time>2026-08-27T01:44:17Z</time></trkpt>
<trkpt lat="38.902360" lon="-120.078345"><ele>2214.8</ele><time>2026-08-27T01:44:49Z</time></trkpt>
<trkpt lat="38.902443" lon="-120.078314"><ele>2215.0</ele><time>2026-08-27T01:44:55Z</time></trkpt>
<trkpt lat="38.902595" lon="-120.078182"><ele>2215.4</ele><time>2026-08-27T01:45:08Z</time></trkpt>
<trkpt lat="38.902664" lon="-120.078193"><ele>2215.4</ele><time>2026-08-27T01:45:14Z</time></trkpt>
<trkpt lat="38.902773" lon="-120.078280"><ele>2214.4</ele><time>2026-08-27T01:45:23Z</time></trkpt>
<trkpt lat="38.902844" lon="-120.078539"><ele>2213.4</ele><time>2026-08-27T01:45:38Z</time></trkpt>
<trkpt lat="38.902908" lon="-120.078551"><ele>2213.6</ele><time>2026-08-27T01:45:44Z</time></trkpt>
<trkpt lat="38.903007" lon="-120.078513"><ele>2212.2</ele><time>2026-08-27T01:45:51Z</time></trkpt>
<trkpt lat="38.903084" lon="-120.078572"><ele>2210.6</ele><time>2026-08-27T01:45:57Z</time></trkpt>
<trkpt lat="38.903147" lon="-120.078516"><ele>2209.4</ele><time>2026-08-27T01:46:02Z</time></trkpt>
<trkpt lat="38.903194" lon="-120.078397"><ele>2207.6</ele><time>2026-08-27T01:46:08Z</time></trkpt>
<trkpt lat="38.903273" lon="-120.078393"><ele>2206.6</ele><time>2026-08-27T01:46:13Z</time></trkpt>
<trkpt lat="38.903324" lon="-120.078349"><ele>2206.2</ele><time>2026-08-27T01:46:17Z</time></trkpt>
<trkpt lat="38.903414" lon="-120.078169"><ele>2204.0</ele><time>2026-08-27T01:46:28Z</time></trkpt>
<trkpt lat="38.903450" lon="-120.078168"><ele>2203.4</ele><time>2026-08-27T01:46:31Z</time></trkpt>
<trkpt lat="38.903517" lon="-120.078244"><ele>2202.0</ele><time>2026-08-27T01:46:38Z</time></trkpt>
<trkpt lat="38.903657" lon="-120.078207"><ele>2200.8</ele><time>2026-08-27T01:46:48Z</time></trkpt>
<trkpt lat="38.903821" lon="-120.078286"><ele>2198.4</ele><time>2026-08-27T01:47:03Z</time></trkpt>
<trkpt lat="38.903956" lon="-120.078232"><ele>2194.0</ele><time>2026-08-27T01:47:16Z</time></trkpt>
<trkpt lat="38.903990" lon="-120.078302"><ele>2192.2</ele><time>2026-08-27T01:47:23Z</time></trkpt>
<trkpt lat="38.904048" lon="-120.078209"><ele>2189.6</ele><time>2026-08-27T01:47:33Z</time></trkpt>
<trkpt lat="38.904125" lon="-120.077908"><ele>2186.6</ele><time>2026-08-27T01:47:51Z</time></trkpt>
<trkpt lat="38.904261" lon="-120.078200"><ele>2182.8</ele><time>2026-08-27T01:48:10Z</time></trkpt>
<trkpt lat="38.904298" lon="-120.078206"><ele>2182.4</ele><time>2026-08-27T01:48:13Z</time></trkpt>
<trkpt lat="38.904331" lon="-120.078152"><ele>2181.8</ele><time>2026-08-27T01:48:18Z</time></trkpt>
<trkpt lat="38.904479" lon="-120.078228"><ele>2181.4</ele><time>2026-08-27T01:48:29Z</time></trkpt>
<trkpt lat="38.904539" lon="-120.078152"><ele>2180.4</ele><time>2026-08-27T01:48:36Z</time></trkpt>
<trkpt lat="38.904570" lon="-120.077787"><ele>2174.4</ele><time>2026-08-27T01:48:59Z</time></trkpt>
<trkpt lat="38.904775" lon="-120.077496"><ele>2173.4</ele><time>2026-08-27T01:49:24Z</time></trkpt>
<trkpt lat="38.904828" lon="-120.077359"><ele>2172.8</ele><time>2026-08-27T01:49:31Z</time></trkpt>
<trkpt lat="38.904835" lon="-120.077179"><ele>2173.0</ele><time>2026-08-27T01:49:43Z</time></trkpt>
<trkpt lat="38.904917" lon="-120.076993"><ele>2172.8</ele><time>2026-08-27T01:49:55Z</time></trkpt>
<trkpt lat="38.904929" lon="-120.076899"><ele>2172.8</ele><time>2026-08-27T01:50:01Z</time></trkpt>
<trkpt lat="38.904894" lon="-120.076646"><ele>2174.0</ele><time>2026-08-27T01:50:17Z</time></trkpt>
<trkpt lat="38.904894" lon="-120.076447"><ele>2172.8</ele><time>2026-08-27T01:50:29Z</time></trkpt>
<trkpt lat="38.905035" lon="-120.076086"><ele>2170.8</ele><time>2026-08-27T01:50:45Z</time></trkpt>
<trkpt lat="38.905081" lon="-120.075766"><ele>2170.6</ele><time>2026-08-27T01:51:05Z</time></trkpt>
<trkpt lat="38.905235" lon="-120.075602"><ele>2169.2</ele><time>2026-08-27T01:51:20Z</time></trkpt>
<trkpt lat="38.905334" lon="-120.075564"><ele>2167.6</ele><time>2026-08-27T01:51:27Z</time></trkpt>
<trkpt lat="38.905566" lon="-120.075373"><ele>2163.2</ele><time>2026-08-27T01:51:49Z</time></trkpt>
<trkpt lat="38.905665" lon="-120.075341"><ele>2161.0</ele><time>2026-08-27T01:51:58Z</time></trkpt>
<trkpt lat="38.905856" lon="-120.075170"><ele>2158.6</ele><time>2026-08-27T01:52:14Z</time></trkpt>
<trkpt lat="38.905855" lon="-120.075112"><ele>2158.6</ele><time>2026-08-27T01:52:17Z</time></trkpt>
<trkpt lat="38.905795" lon="-120.075069"><ele>2158.0</ele><time>2026-08-27T01:52:22Z</time></trkpt>
<trkpt lat="38.905423" lon="-120.075004"><ele>2156.6</ele><time>2026-08-27T01:52:51Z</time></trkpt>
<trkpt lat="38.905245" lon="-120.074943"><ele>2154.2</ele><time>2026-08-27T01:53:05Z</time></trkpt>
<trkpt lat="38.905199" lon="-120.074764"><ele>2153.4</ele><time>2026-08-27T01:53:17Z</time></trkpt>
<trkpt lat="38.905210" lon="-120.074565"><ele>2151.6</ele><time>2026-08-27T01:53:29Z</time></trkpt>
<trkpt lat="38.905499" lon="-120.074165"><ele>2147.6</ele><time>2026-08-27T01:54:01Z</time></trkpt>
<trkpt lat="38.905567" lon="-120.073961"><ele>2145.8</ele><time>2026-08-27T01:54:15Z</time></trkpt>
<trkpt lat="38.905631" lon="-120.073884"><ele>2145.4</ele><time>2026-08-27T01:54:21Z</time></trkpt>
<trkpt lat="38.905783" lon="-120.073859"><ele>2145.2</ele><time>2026-08-27T01:54:34Z</time></trkpt>
<trkpt lat="38.905813" lon="-120.073824"><ele>2144.8</ele><time>2026-08-27T01:54:37Z</time></trkpt>
<trkpt lat="38.906055" lon="-120.073819"><ele>2143.8</ele><time>2026-08-27T01:54:57Z</time></trkpt>
<trkpt lat="38.906401" lon="-120.073709"><ele>2140.8</ele><time>2026-08-27T01:55:25Z</time></trkpt>
<trkpt lat="38.906701" lon="-120.073678"><ele>2139.4</ele><time>2026-08-27T01:55:52Z</time></trkpt>
<trkpt lat="38.906986" lon="-120.073466"><ele>2138.8</ele><time>2026-08-27T01:56:17Z</time></trkpt>
<trkpt lat="38.907581" lon="-120.073260"><ele>2135.6</ele><time>2026-08-27T01:57:06Z</time></trkpt>
<trkpt lat="38.907763" lon="-120.073238"><ele>2135.2</ele><time>2026-08-27T01:57:21Z</time></trkpt>
<trkpt lat="38.907837" lon="-120.073166"><ele>2134.6</ele><time>2026-08-27T01:57:28Z</time></trkpt>
<trkpt lat="38.908359" lon="-120.073073"><ele>2133.2</ele><time>2026-08-27T01:58:10Z</time></trkpt>
<trkpt lat="38.908458" lon="-120.073096"><ele>2132.8</ele><time>2026-08-27T01:58:17Z</time></trkpt>
<trkpt lat="38.908569" lon="-120.073014"><ele>2132.6</ele><time>2026-08-27T01:58:29Z</time></trkpt>
<trkpt lat="38.908771" lon="-120.072943"><ele>2131.6</ele><time>2026-08-27T01:58:45Z</time></trkpt>
<trkpt lat="38.909247" lon="-120.072846"><ele>2129.8</ele><time>2026-08-27T01:59:33Z</time></trkpt>
<trkpt lat="38.909623" lon="-120.072701"><ele>2128.8</ele><time>2026-08-27T02:00:02Z</time></trkpt>
<trkpt lat="38.909753" lon="-120.072701"><ele>2128.4</ele><time>2026-08-27T02:00:13Z</time></trkpt>
<trkpt lat="38.909841" lon="-120.072648"><ele>2127.8</ele><time>2026-08-27T02:00:20Z</time></trkpt>
<trkpt lat="38.910702" lon="-120.072434"><ele>2121.6</ele><time>2026-08-27T02:01:25Z</time></trkpt>
<trkpt lat="38.910788" lon="-120.072381"><ele>2120.6</ele><time>2026-08-27T02:01:33Z</time></trkpt>
<trkpt lat="38.911255" lon="-120.072304"><ele>2117.2</ele><time>2026-08-27T02:02:09Z</time></trkpt>
<trkpt lat="38.911737" lon="-120.072162"><ele>2114.0</ele><time>2026-08-27T02:02:47Z</time></trkpt>
<trkpt lat="38.912165" lon="-120.072139"><ele>2110.4</ele><time>2026-08-27T02:03:22Z</time></trkpt>
<trkpt lat="38.912337" lon="-120.072057"><ele>2108.4</ele><time>2026-08-27T02:03:36Z</time></trkpt>
<trkpt lat="38.912830" lon="-120.071937"><ele>2101.8</ele><time>2026-08-27T02:04:13Z</time></trkpt>
<trkpt lat="38.912978" lon="-120.071982"><ele>2099.6</ele><time>2026-08-27T02:04:25Z</time></trkpt>
<trkpt lat="38.913248" lon="-120.071911"><ele>2095.2</ele><time>2026-08-27T02:04:47Z</time></trkpt>
<trkpt lat="38.913377" lon="-120.071913"><ele>2091.8</ele><time>2026-08-27T02:04:59Z</time></trkpt>
<trkpt lat="38.913617" lon="-120.071979"><ele>2085.4</ele><time>2026-08-27T02:05:21Z</time></trkpt>
<trkpt lat="38.913652" lon="-120.071757"><ele>2080.2</ele><time>2026-08-27T02:05:38Z</time></trkpt>
<trkpt lat="38.913759" lon="-120.071764"><ele>2077.8</ele><time>2026-08-27T02:05:47Z</time></trkpt>
<trkpt lat="38.913893" lon="-120.071719"><ele>2075.2</ele><time>2026-08-27T02:05:57Z</time></trkpt>
<trkpt lat="38.914246" lon="-120.071790"><ele>2070.2</ele><time>2026-08-27T02:06:22Z</time></trkpt>
<trkpt lat="38.914717" lon="-120.071822"><ele>2067.8</ele><time>2026-08-27T02:06:44Z</time></trkpt>
<trkpt lat="38.914990" lon="-120.071794"><ele>2068.2</ele><time>2026-08-27T02:06:54Z</time></trkpt>
<trkpt lat="38.915507" lon="-120.071639"><ele>2067.8</ele><time>2026-08-27T02:07:16Z</time></trkpt>
<trkpt lat="38.915881" lon="-120.071592"><ele>2063.0</ele><time>2026-08-27T02:07:41Z</time></trkpt>
<trkpt lat="38.915964" lon="-120.071567"><ele>2061.8</ele><time>2026-08-27T02:07:48Z</time></trkpt>
<trkpt lat="38.916210" lon="-120.071388"><ele>2060.4</ele><time>2026-08-27T02:08:07Z</time></trkpt>
<trkpt lat="38.916448" lon="-120.071409"><ele>2056.0</ele><time>2026-08-27T02:08:24Z</time></trkpt>
<trkpt lat="38.916808" lon="-120.071329"><ele>2048.8</ele><time>2026-08-27T02:08:51Z</time></trkpt>
<trkpt lat="38.917138" lon="-120.071223"><ele>2046.0</ele><time>2026-08-27T02:09:16Z</time></trkpt>
<trkpt lat="38.917253" lon="-120.071092"><ele>2044.2</ele><time>2026-08-27T02:09:28Z</time></trkpt>
<trkpt lat="38.917458" lon="-120.070996"><ele>2040.0</ele><time>2026-08-27T02:09:42Z</time></trkpt>
<trkpt lat="38.917506" lon="-120.070884"><ele>2036.6</ele><time>2026-08-27T02:09:53Z</time></trkpt>
<trkpt lat="38.917603" lon="-120.070797"><ele>2034.2</ele><time>2026-08-27T02:10:02Z</time></trkpt>
<trkpt lat="38.917925" lon="-120.070833"><ele>2028.6</ele><time>2026-08-27T02:10:25Z</time></trkpt>
<trkpt lat="38.918138" lon="-120.070663"><ele>2026.4</ele><time>2026-08-27T02:10:44Z</time></trkpt>
<trkpt lat="38.918262" lon="-120.070700"><ele>2023.2</ele><time>2026-08-27T02:10:54Z</time></trkpt>
<trkpt lat="38.918376" lon="-120.070639"><ele>2019.6</ele><time>2026-08-27T02:11:05Z</time></trkpt>
<trkpt lat="38.918663" lon="-120.070720"><ele>2015.2</ele><time>2026-08-27T02:11:27Z</time></trkpt>
<trkpt lat="38.918853" lon="-120.070660"><ele>2012.8</ele><time>2026-08-27T02:11:41Z</time></trkpt>
<trkpt lat="38.919515" lon="-120.070683"><ele>2008.2</ele><time>2026-08-27T02:12:31Z</time></trkpt>
<trkpt lat="38.919752" lon="-120.070747"><ele>2005.2</ele><time>2026-08-27T02:12:50Z</time></trkpt>
<trkpt lat="38.919944" lon="-120.070707"><ele>2003.6</ele><time>2026-08-27T02:13:05Z</time></trkpt>
<trkpt lat="38.920150" lon="-120.070399"><ele>2002.6</ele><time>2026-08-27T02:13:29Z</time></trkpt>
<trkpt lat="38.920244" lon="-120.070180"><ele>2002.0</ele><time>2026-08-27T02:13:44Z</time></trkpt>
<trkpt lat="38.920251" lon="-120.070094"><ele>2000.8</ele><time>2026-08-27T02:13:49Z</time></trkpt>
<trkpt lat="38.920301" lon="-120.070037"><ele>1998.8</ele><time>2026-08-27T02:13:58Z</time></trkpt>
<trkpt lat="38.920428" lon="-120.070047"><ele>1996.0</ele><time>2026-08-27T02:14:08Z</time></trkpt>
<trkpt lat="38.920511" lon="-120.069941"><ele>1994.6</ele><time>2026-08-27T02:14:16Z</time></trkpt>
<trkpt lat="38.920523" lon="-120.069873"><ele>1994.2</ele><time>2026-08-27T02:14:20Z</time></trkpt>
<trkpt lat="38.920408" lon="-120.069637"><ele>1992.8</ele><time>2026-08-27T02:14:36Z</time></trkpt>
<trkpt lat="38.920336" lon="-120.069560"><ele>1990.6</ele><time>2026-08-27T02:14:45Z</time></trkpt>
<trkpt lat="38.920316" lon="-120.069471"><ele>1989.0</ele><time>2026-08-27T02:14:51Z</time></trkpt>
<trkpt lat="38.920437" lon="-120.069226"><ele>1985.2</ele><time>2026-08-27T02:15:10Z</time></trkpt>
<trkpt lat="38.920451" lon="-120.068929"><ele>1980.2</ele><time>2026-08-27T02:15:29Z</time></trkpt>
<trkpt lat="38.920525" lon="-120.068659"><ele>1978.6</ele><time>2026-08-27T02:15:44Z</time></trkpt>
<trkpt lat="38.920519" lon="-120.068509"><ele>1978.0</ele><time>2026-08-27T02:15:52Z</time></trkpt>
<trkpt lat="38.920550" lon="-120.068354"><ele>1976.6</ele><time>2026-08-27T02:16:00Z</time></trkpt>
<trkpt lat="38.920593" lon="-120.068294"><ele>1976.0</ele><time>2026-08-27T02:16:04Z</time></trkpt>
<trkpt lat="38.920726" lon="-120.068244"><ele>1974.8</ele><time>2026-08-27T02:16:13Z</time></trkpt>
<trkpt lat="38.921082" lon="-120.068187"><ele>1972.2</ele><time>2026-08-27T02:16:38Z</time></trkpt>
<trkpt lat="38.921366" lon="-120.068193"><ele>1970.4</ele><time>2026-08-27T02:16:58Z</time></trkpt>
</trkseg></trk>
</gpx>
