<?xml version="1.0" encoding="UTF-8"?>
<gpx version="1.1" creator="Eric Sichak trip reports" xmlns="http://www.topografix.com/GPX/1/1">
<metadata><name>Morning Stroll</name><time>2021-08-30T13:10:14Z</time></metadata>
<trk><name>Morning Stroll</name><type>hike</type><trkseg>
<trkpt lat="37.280448" lon="-121.759942"><ele>155.3</ele><time>2021-08-30T13:10:14Z</time></trkpt>
<trkpt lat="37.280495" lon="-121.759943"><ele>155.3</ele><time>2021-08-30T13:10:18Z</time></trkpt>
<trkpt lat="37.280520" lon="-121.759995"><ele>155.4</ele><time>2021-08-30T13:10:22Z</time></trkpt>
<trkpt lat="37.280446" lon="-121.760208"><ele>155.6</ele><time>2021-08-30T13:10:37Z</time></trkpt>
<trkpt lat="37.280407" lon="-121.760462"><ele>155.9</ele><time>2021-08-30T13:10:52Z</time></trkpt>
<trkpt lat="37.280408" lon="-121.760676"><ele>156.0</ele><time>2021-08-30T13:11:04Z</time></trkpt>
<trkpt lat="37.280370" lon="-121.760777"><ele>156.1</ele><time>2021-08-30T13:11:10Z</time></trkpt>
<trkpt lat="37.280452" lon="-121.761692"><ele>156.4</ele><time>2021-08-30T13:11:59Z</time></trkpt>
<trkpt lat="37.280065" lon="-121.762106"><ele>155.9</ele><time>2021-08-30T13:12:37Z</time></trkpt>
<trkpt lat="37.280001" lon="-121.762129"><ele>155.9</ele><time>2021-08-30T13:12:41Z</time></trkpt>
<trkpt lat="37.279828" lon="-121.761904"><ele>156.8</ele><time>2021-08-30T13:12:56Z</time></trkpt>
<trkpt lat="37.279581" lon="-121.761685"><ele>158.0</ele><time>2021-08-30T13:13:21Z</time></trkpt>
<trkpt lat="37.279381" lon="-121.761450"><ele>159.3</ele><time>2021-08-30T13:13:39Z</time></trkpt>
<trkpt lat="37.279250" lon="-121.761380"><ele>159.9</ele><time>2021-08-30T13:13:50Z</time></trkpt>
<trkpt lat="37.279044" lon="-121.761184"><ele>160.9</ele><time>2021-08-30T13:14:08Z</time></trkpt>
<trkpt lat="37.278685" lon="-121.760961"><ele>162.1</ele><time>2021-08-30T13:14:38Z</time></trkpt>
<trkpt lat="37.278550" lon="-121.760830"><ele>162.8</ele><time>2021-08-30T13:14:50Z</time></trkpt>
<trkpt lat="37.278402" lon="-121.760657"><ele>163.6</ele><time>2021-08-30T13:15:02Z</time></trkpt>
<trkpt lat="37.278328" lon="-121.760491"><ele>164.3</ele><time>2021-08-30T13:15:12Z</time></trkpt>
<trkpt lat="37.278175" lon="-121.760313"><ele>165.2</ele><time>2021-08-30T13:15:27Z</time></trkpt>
<trkpt lat="37.277855" lon="-121.759827"><ele>171.2</ele><time>2021-08-30T13:16:05Z</time></trkpt>
<trkpt lat="37.277508" lon="-121.759549"><ele>173.6</ele><time>2021-08-30T13:16:35Z</time></trkpt>
<trkpt lat="37.277094" lon="-121.759041"><ele>179.1</ele><time>2021-08-30T13:17:16Z</time></trkpt>
<trkpt lat="37.276976" lon="-121.758919"><ele>179.2</ele><time>2021-08-30T13:17:27Z</time></trkpt>
<trkpt lat="37.276825" lon="-121.758830"><ele>178.9</ele><time>2021-08-30T13:17:39Z</time></trkpt>
<trkpt lat="37.276483" lon="-121.758447"><ele>177.2</ele><time>2021-08-30T13:18:15Z</time></trkpt>
<trkpt lat="37.276344" lon="-121.758348"><ele>176.4</ele><time>2021-08-30T13:18:26Z</time></trkpt>
<trkpt lat="37.276288" lon="-121.758363"><ele>176.0</ele><time>2021-08-30T13:18:30Z</time></trkpt>
<trkpt lat="37.276168" lon="-121.758288"><ele>174.8</ele><time>2021-08-30T13:18:41Z</time></trkpt>
<trkpt lat="37.276126" lon="-121.758203"><ele>173.7</ele><time>2021-08-30T13:18:47Z</time></trkpt>
<trkpt lat="37.275921" lon="-121.758224"><ele>170.5</ele><time>2021-08-30T13:18:56Z</time></trkpt>
<trkpt lat="37.275880" lon="-121.758211"><ele>169.9</ele><time>2021-08-30T13:18:59Z</time></trkpt>
<trkpt lat="37.275900" lon="-121.758190"><ele>169.5</ele><time>2021-08-30T13:19:01Z</time></trkpt>
<trkpt lat="37.275771" lon="-121.758186"><ele>168.1</ele><time>2021-08-30T13:19:06Z</time></trkpt>
<trkpt lat="37.275036" lon="-121.757824"><ele>169.8</ele><time>2021-08-30T13:19:57Z</time></trkpt>
<trkpt lat="37.274616" lon="-121.757719"><ele>169.0</ele><time>2021-08-30T13:20:26Z</time></trkpt>
<trkpt lat="37.274431" lon="-121.757746"><ele>167.1</ele><time>2021-08-30T13:20:38Z</time></trkpt>
<trkpt lat="37.274304" lon="-121.757811"><ele>165.5</ele><time>2021-08-30T13:20:48Z</time></trkpt>
<trkpt lat="37.274121" lon="-121.757795"><ele>163.3</ele><time>2021-08-30T13:21:00Z</time></trkpt>
<trkpt lat="37.273838" lon="-121.757836"><ele>160.1</ele><time>2021-08-30T13:21:19Z</time></trkpt>
<trkpt lat="37.273835" lon="-121.757876"><ele>159.7</ele><time>2021-08-30T13:21:20Z</time></trkpt>
<trkpt lat="37.273864" lon="-121.757887"><ele>159.3</ele><time>2021-08-30T13:21:21Z</time></trkpt>
<trkpt lat="37.273766" lon="-121.757895"><ele>158.1</ele><time>2021-08-30T13:21:26Z</time></trkpt>
<trkpt lat="37.273576" lon="-121.757986"><ele>155.4</ele><time>2021-08-30T13:21:38Z</time></trkpt>
<trkpt lat="37.273255" lon="-121.758240"><ele>151.9</ele><time>2021-08-30T13:22:07Z</time></trkpt>
<trkpt lat="37.273097" lon="-121.758496"><ele>150.3</ele><time>2021-08-30T13:22:26Z</time></trkpt>
<trkpt lat="37.273033" lon="-121.758656"><ele>150.0</ele><time>2021-08-30T13:22:36Z</time></trkpt>
<trkpt lat="37.272946" lon="-121.759028"><ele>150.0</ele><time>2021-08-30T13:22:59Z</time></trkpt>
<trkpt lat="37.272946" lon="-121.759138"><ele>150.3</ele><time>2021-08-30T13:23:05Z</time></trkpt>
<trkpt lat="37.272987" lon="-121.759418"><ele>151.3</ele><time>2021-08-30T13:23:21Z</time></trkpt>
<trkpt lat="37.273241" lon="-121.760326"><ele>159.1</ele><time>2021-08-30T13:24:15Z</time></trkpt>
<trkpt lat="37.273228" lon="-121.760423"><ele>160.1</ele><time>2021-08-30T13:24:22Z</time></trkpt>
<trkpt lat="37.273487" lon="-121.761239"><ele>167.2</ele><time>2021-08-30T13:25:14Z</time></trkpt>
<trkpt lat="37.273548" lon="-121.761693"><ele>171.3</ele><time>2021-08-30T13:25:41Z</time></trkpt>
<trkpt lat="37.273519" lon="-121.761978"><ele>174.2</ele><time>2021-08-30T13:25:58Z</time></trkpt>
<trkpt lat="37.273420" lon="-121.762250"><ele>177.5</ele><time>2021-08-30T13:26:16Z</time></trkpt>
<trkpt lat="37.273453" lon="-121.762252"><ele>177.9</ele><time>2021-08-30T13:26:17Z</time></trkpt>
<trkpt lat="37.273430" lon="-121.762297"><ele>178.4</ele><time>2021-08-30T13:26:19Z</time></trkpt>
<trkpt lat="37.273292" lon="-121.762439"><ele>180.5</ele><time>2021-08-30T13:26:33Z</time></trkpt>
<trkpt lat="37.273051" lon="-121.762827"><ele>184.2</ele><time>2021-08-30T13:27:07Z</time></trkpt>
<trkpt lat="37.272966" lon="-121.763161"><ele>187.5</ele><time>2021-08-30T13:27:29Z</time></trkpt>
<trkpt lat="37.272916" lon="-121.763916"><ele>194.6</ele><time>2021-08-30T13:28:16Z</time></trkpt>
<trkpt lat="37.272812" lon="-121.764435"><ele>199.2</ele><time>2021-08-30T13:28:49Z</time></trkpt>
<trkpt lat="37.272511" lon="-121.765301"><ele>205.4</ele><time>2021-08-30T13:29:44Z</time></trkpt>
<trkpt lat="37.272248" lon="-121.765858"><ele>208.7</ele><time>2021-08-30T13:30:21Z</time></trkpt>
<trkpt lat="37.272141" lon="-121.766204"><ele>211.5</ele><time>2021-08-30T13:30:43Z</time></trkpt>
<trkpt lat="37.272166" lon="-121.766241"><ele>211.9</ele><time>2021-08-30T13:30:45Z</time></trkpt>
<trkpt lat="37.272118" lon="-121.766285"><ele>212.4</ele><time>2021-08-30T13:30:48Z</time></trkpt>
<trkpt lat="37.271920" lon="-121.766908"><ele>216.7</ele><time>2021-08-30T13:31:27Z</time></trkpt>
<trkpt lat="37.271796" lon="-121.767315"><ele>218.8</ele><time>2021-08-30T13:31:50Z</time></trkpt>
<trkpt lat="37.271790" lon="-121.767429"><ele>219.4</ele><time>2021-08-30T13:31:57Z</time></trkpt>
<trkpt lat="37.271627" lon="-121.767784"><ele>221.2</ele><time>2021-08-30T13:32:19Z</time></trkpt>
<trkpt lat="37.271634" lon="-121.767858"><ele>221.4</ele><time>2021-08-30T13:32:23Z</time></trkpt>
<trkpt lat="37.271546" lon="-121.768140"><ele>222.6</ele><time>2021-08-30T13:32:41Z</time></trkpt>
<trkpt lat="37.271521" lon="-121.768144"><ele>222.7</ele><time>2021-08-30T13:32:42Z</time></trkpt>
<trkpt lat="37.271259" lon="-121.769247"><ele>223.9</ele><time>2021-08-30T13:33:46Z</time></trkpt>
<trkpt lat="37.271150" lon="-121.769867"><ele>222.9</ele><time>2021-08-30T13:34:21Z</time></trkpt>
<trkpt lat="37.271009" lon="-121.770215"><ele>220.9</ele><time>2021-08-30T13:34:42Z</time></trkpt>
<trkpt lat="37.270931" lon="-121.770613"><ele>218.2</ele><time>2021-08-30T13:35:04Z</time></trkpt>
<trkpt lat="37.270819" lon="-121.770865"><ele>216.6</ele><time>2021-08-30T13:35:19Z</time></trkpt>
<trkpt lat="37.270738" lon="-121.771306"><ele>214.2</ele><time>2021-08-30T13:35:44Z</time></trkpt>
<trkpt lat="37.270789" lon="-121.771747"><ele>212.2</ele><time>2021-08-30T13:36:08Z</time></trkpt>
<trkpt lat="37.270842" lon="-121.771790"><ele>211.8</ele><time>2021-08-30T13:36:12Z</time></trkpt>
<trkpt lat="37.271045" lon="-121.772204"><ele>209.9</ele><time>2021-08-30T13:36:39Z</time></trkpt>
<trkpt lat="37.271364" lon="-121.772466"><ele>208.0</ele><time>2021-08-30T13:37:06Z</time></trkpt>
<trkpt lat="37.271568" lon="-121.772552"><ele>206.9</ele><time>2021-08-30T13:37:20Z</time></trkpt>
<trkpt lat="37.271809" lon="-121.772649"><ele>205.7</ele><time>2021-08-30T13:37:37Z</time></trkpt>
<trkpt lat="37.272185" lon="-121.772670"><ele>204.4</ele><time>2021-08-30T13:38:03Z</time></trkpt>
<trkpt lat="37.272313" lon="-121.772719"><ele>203.6</ele><time>2021-08-30T13:38:13Z</time></trkpt>
<trkpt lat="37.272756" lon="-121.772661"><ele>200.4</ele><time>2021-08-30T13:38:44Z</time></trkpt>
<trkpt lat="37.272989" lon="-121.772578"><ele>198.6</ele><time>2021-08-30T13:39:01Z</time></trkpt>
<trkpt lat="37.273163" lon="-121.772558"><ele>197.3</ele><time>2021-08-30T13:39:13Z</time></trkpt>
<trkpt lat="37.273214" lon="-121.772498"><ele>196.7</ele><time>2021-08-30T13:39:17Z</time></trkpt>
<trkpt lat="37.273256" lon="-121.772521"><ele>196.4</ele><time>2021-08-30T13:39:20Z</time></trkpt>
<trkpt lat="37.273263" lon="-121.772497"><ele>196.3</ele><time>2021-08-30T13:39:21Z</time></trkpt>
<trkpt lat="37.273610" lon="-121.772460"><ele>193.6</ele><time>2021-08-30T13:39:46Z</time></trkpt>
<trkpt lat="37.273931" lon="-121.772338"><ele>191.2</ele><time>2021-08-30T13:40:08Z</time></trkpt>
<trkpt lat="37.274458" lon="-121.772335"><ele>187.6</ele><time>2021-08-30T13:40:45Z</time></trkpt>
<trkpt lat="37.274766" lon="-121.772390"><ele>186.4</ele><time>2021-08-30T13:41:07Z</time></trkpt>
<trkpt lat="37.275492" lon="-121.772885"><ele>185.8</ele><time>2021-08-30T13:42:07Z</time></trkpt>
<trkpt lat="37.275681" lon="-121.773083"><ele>185.5</ele><time>2021-08-30T13:42:24Z</time></trkpt>
<trkpt lat="37.275909" lon="-121.773499"><ele>185.1</ele><time>2021-08-30T13:42:52Z</time></trkpt>
<trkpt lat="37.275954" lon="-121.773670"><ele>184.9</ele><time>2021-08-30T13:43:02Z</time></trkpt>
<trkpt lat="37.276005" lon="-121.773746"><ele>184.8</ele><time>2021-08-30T13:43:09Z</time></trkpt>
<trkpt lat="37.276083" lon="-121.774076"><ele>184.5</ele><time>2021-08-30T13:43:27Z</time></trkpt>
<trkpt lat="37.276251" lon="-121.774248"><ele>184.3</ele><time>2021-08-30T13:43:43Z</time></trkpt>
<trkpt lat="37.276518" lon="-121.774392"><ele>184.0</ele><time>2021-08-30T13:44:04Z</time></trkpt>
<trkpt lat="37.276975" lon="-121.774517"><ele>183.3</ele><time>2021-08-30T13:44:36Z</time></trkpt>
<trkpt lat="37.277273" lon="-121.774645"><ele>182.0</ele><time>2021-08-30T13:44:58Z</time></trkpt>
<trkpt lat="37.277486" lon="-121.774812"><ele>179.9</ele><time>2021-08-30T13:45:15Z</time></trkpt>
<trkpt lat="37.277682" lon="-121.775121"><ele>177.1</ele><time>2021-08-30T13:45:36Z</time></trkpt>
<trkpt lat="37.277740" lon="-121.775075"><ele>177.4</ele><time>2021-08-30T13:45:41Z</time></trkpt>
<trkpt lat="37.277832" lon="-121.775068"><ele>178.8</ele><time>2021-08-30T13:45:47Z</time></trkpt>
<trkpt lat="37.277980" lon="-121.775181"><ele>178.0</ele><time>2021-08-30T13:46:00Z</time></trkpt>
<trkpt lat="37.278031" lon="-121.775357"><ele>176.7</ele><time>2021-08-30T13:46:09Z</time></trkpt>
<trkpt lat="37.278343" lon="-121.775514"><ele>173.4</ele><time>2021-08-30T13:46:32Z</time></trkpt>
<trkpt lat="37.278486" lon="-121.775638"><ele>171.6</ele><time>2021-08-30T13:46:44Z</time></trkpt>
<trkpt lat="37.278530" lon="-121.775626"><ele>171.2</ele><time>2021-08-30T13:46:47Z</time></trkpt>
<trkpt lat="37.278797" lon="-121.775073"><ele>167.3</ele><time>2021-08-30T13:47:23Z</time></trkpt>
<trkpt lat="37.279146" lon="-121.774608"><ele>162.3</ele><time>2021-08-30T13:47:58Z</time></trkpt>
<trkpt lat="37.279532" lon="-121.774223"><ele>157.7</ele><time>2021-08-30T13:48:33Z</time></trkpt>
<trkpt lat="37.280003" lon="-121.773875"><ele>152.8</ele><time>2021-08-30T13:49:11Z</time></trkpt>
<trkpt lat="37.280214" lon="-121.773761"><ele>150.7</ele><time>2021-08-30T13:49:27Z</time></trkpt>
<trkpt lat="37.280329" lon="-121.773571"><ele>149.2</ele><time>2021-08-30T13:49:41Z</time></trkpt>
<trkpt lat="37.280310" lon="-121.773467"><ele>148.7</ele><time>2021-08-30T13:49:47Z</time></trkpt>
<trkpt lat="37.280402" lon="-121.773284"><ele>148.0</ele><time>2021-08-30T13:49:59Z</time></trkpt>
<trkpt lat="37.280452" lon="-121.773226"><ele>147.7</ele><time>2021-08-30T13:50:04Z</time></trkpt>
<trkpt lat="37.280636" lon="-121.773151"><ele>146.3</ele><time>2021-08-30T13:50:18Z</time></trkpt>
<trkpt lat="37.281102" lon="-121.773143"><ele>141.3</ele><time>2021-08-30T13:50:53Z</time></trkpt>
<trkpt lat="37.281212" lon="-121.773065"><ele>140.0</ele><time>2021-08-30T13:50:57Z</time></trkpt>
<trkpt lat="37.281177" lon="-121.773115"><ele>139.5</ele><time>2021-08-30T13:50:59Z</time></trkpt>
<trkpt lat="37.282015" lon="-121.772957"><ele>131.5</ele><time>2021-08-30T13:51:58Z</time></trkpt>
<trkpt lat="37.282247" lon="-121.772947"><ele>129.5</ele><time>2021-08-30T13:52:14Z</time></trkpt>
<trkpt lat="37.282299" lon="-121.772986"><ele>131.2</ele><time>2021-08-30T13:52:17Z</time></trkpt>
<trkpt lat="37.282302" lon="-121.772949"><ele>132.1</ele><time>2021-08-30T13:52:18Z</time></trkpt>
<trkpt lat="37.282393" lon="-121.772935"><ele>132.8</ele><time>2021-08-30T13:52:23Z</time></trkpt>
<trkpt lat="37.282711" lon="-121.772947"><ele>127.1</ele><time>2021-08-30T13:52:44Z</time></trkpt>
<trkpt lat="37.282874" lon="-121.773011"><ele>124.1</ele><time>2021-08-30T13:52:55Z</time></trkpt>
<trkpt lat="37.282879" lon="-121.773049"><ele>123.6</ele><time>2021-08-30T13:52:57Z</time></trkpt>
<trkpt lat="37.283219" lon="-121.773110"><ele>119.7</ele><time>2021-08-30T13:53:18Z</time></trkpt>
<trkpt lat="37.283439" lon="-121.773204"><ele>118.9</ele><time>2021-08-30T13:53:34Z</time></trkpt>
<trkpt lat="37.283641" lon="-121.773240"><ele>118.4</ele><time>2021-08-30T13:53:48Z</time></trkpt>
<trkpt lat="37.284059" lon="-121.773496"><ele>118.4</ele><time>2021-08-30T13:54:22Z</time></trkpt>
<trkpt lat="37.284185" lon="-121.773653"><ele>118.9</ele><time>2021-08-30T13:54:35Z</time></trkpt>
<trkpt lat="37.284250" lon="-121.773642"><ele>118.9</ele><time>2021-08-30T13:54:39Z</time></trkpt>
<trkpt lat="37.284302" lon="-121.773675"><ele>119.3</ele><time>2021-08-30T13:54:42Z</time></trkpt>
<trkpt lat="37.284727" lon="-121.773226"><ele>125.7</ele><time>2021-08-30T13:55:12Z</time></trkpt>
<trkpt lat="37.284866" lon="-121.773173"><ele>126.8</ele><time>2021-08-30T13:55:22Z</time></trkpt>
<trkpt lat="37.285044" lon="-121.773221"><ele>127.6</ele><time>2021-08-30T13:55:35Z</time></trkpt>
<trkpt lat="37.285137" lon="-121.773157"><ele>128.0</ele><time>2021-08-30T13:55:43Z</time></trkpt>
<trkpt lat="37.285341" lon="-121.772697"><ele>133.1</ele><time>2021-08-30T13:56:15Z</time></trkpt>
<trkpt lat="37.285479" lon="-121.771752"><ele>144.7</ele><time>2021-08-30T13:57:18Z</time></trkpt>
<trkpt lat="37.285536" lon="-121.771545"><ele>146.0</ele><time>2021-08-30T13:57:31Z</time></trkpt>
<trkpt lat="37.285559" lon="-121.771152"><ele>147.8</ele><time>2021-08-30T13:57:52Z</time></trkpt>
<trkpt lat="37.285650" lon="-121.770817"><ele>148.3</ele><time>2021-08-30T13:58:12Z</time></trkpt>
<trkpt lat="37.285704" lon="-121.770318"><ele>147.8</ele><time>2021-08-30T13:58:41Z</time></trkpt>
<trkpt lat="37.285675" lon="-121.770245"><ele>148.0</ele><time>2021-08-30T13:58:46Z</time></trkpt>
<trkpt lat="37.285509" lon="-121.770164"><ele>148.6</ele><time>2021-08-30T13:58:58Z</time></trkpt>
<trkpt lat="37.285439" lon="-121.770078"><ele>149.0</ele><time>2021-08-30T13:59:03Z</time></trkpt>
<trkpt lat="37.285338" lon="-121.769780"><ele>150.4</ele><time>2021-08-30T13:59:21Z</time></trkpt>
<trkpt lat="37.285284" lon="-121.769731"><ele>150.8</ele><time>2021-08-30T13:59:23Z</time></trkpt>
<trkpt lat="37.285309" lon="-121.769703"><ele>151.0</ele><time>2021-08-30T13:59:24Z</time></trkpt>
<trkpt lat="37.285115" lon="-121.768967"><ele>157.4</ele><time>2021-08-30T13:59:50Z</time></trkpt>
<trkpt lat="37.285104" lon="-121.768760"><ele>158.9</ele><time>2021-08-30T13:59:59Z</time></trkpt>
<trkpt lat="37.285001" lon="-121.768475"><ele>159.5</ele><time>2021-08-30T14:00:17Z</time></trkpt>
<trkpt lat="37.284838" lon="-121.768222"><ele>159.2</ele><time>2021-08-30T14:00:35Z</time></trkpt>
<trkpt lat="37.284656" lon="-121.768075"><ele>158.9</ele><time>2021-08-30T14:00:51Z</time></trkpt>
<trkpt lat="37.284487" lon="-121.767696"><ele>159.1</ele><time>2021-08-30T14:01:14Z</time></trkpt>
<trkpt lat="37.284401" lon="-121.767002"><ele>162.1</ele><time>2021-08-30T14:01:54Z</time></trkpt>
<trkpt lat="37.284222" lon="-121.766317"><ele>163.2</ele><time>2021-08-30T14:02:34Z</time></trkpt>
<trkpt lat="37.284247" lon="-121.765785"><ele>166.4</ele><time>2021-08-30T14:03:03Z</time></trkpt>
<trkpt lat="37.284137" lon="-121.765404"><ele>168.4</ele><time>2021-08-30T14:03:23Z</time></trkpt>
<trkpt lat="37.284050" lon="-121.765250"><ele>168.4</ele><time>2021-08-30T14:03:33Z</time></trkpt>
<trkpt lat="37.283791" lon="-121.765078"><ele>166.5</ele><time>2021-08-30T14:03:52Z</time></trkpt>
<trkpt lat="37.283757" lon="-121.765088"><ele>166.2</ele><time>2021-08-30T14:03:54Z</time></trkpt>
<trkpt lat="37.283712" lon="-121.765018"><ele>165.6</ele><time>2021-08-30T14:03:58Z</time></trkpt>
<trkpt lat="37.283625" lon="-121.764991"><ele>164.9</ele><time>2021-08-30T14:04:04Z</time></trkpt>
<trkpt lat="37.283454" lon="-121.764774"><ele>163.4</ele><time>2021-08-30T14:04:19Z</time></trkpt>
<trkpt lat="37.283367" lon="-121.764728"><ele>163.2</ele><time>2021-08-30T14:04:25Z</time></trkpt>
<trkpt lat="37.282723" lon="-121.763853"><ele>167.8</ele><time>2021-08-30T14:05:32Z</time></trkpt>
<trkpt lat="37.282561" lon="-121.763718"><ele>166.8</ele><time>2021-08-30T14:05:45Z</time></trkpt>
<trkpt lat="37.282196" lon="-121.763539"><ele>162.3</ele><time>2021-08-30T14:06:11Z</time></trkpt>
<trkpt lat="37.282022" lon="-121.763375"><ele>160.7</ele><time>2021-08-30T14:06:25Z</time></trkpt>
<trkpt lat="37.281901" lon="-121.763142"><ele>160.7</ele><time>2021-08-30T14:06:41Z</time></trkpt>
<trkpt lat="37.281844" lon="-121.762934"><ele>161.8</ele><time>2021-08-30T14:06:54Z</time></trkpt>
<trkpt lat="37.281670" lon="-121.762713"><ele>163.6</ele><time>2021-08-30T14:07:14Z</time></trkpt>
<trkpt lat="37.281431" lon="-121.762532"><ele>164.1</ele><time>2021-08-30T14:07:32Z</time></trkpt>
<trkpt lat="37.281247" lon="-121.762288"><ele>164.1</ele><time>2021-08-30T14:07:53Z</time></trkpt>
<trkpt lat="37.281021" lon="-121.762181"><ele>163.9</ele><time>2021-08-30T14:08:09Z</time></trkpt>
<trkpt lat="37.280857" lon="-121.762002"><ele>162.6</ele><time>2021-08-30T14:08:24Z</time></trkpt>
<trkpt lat="37.280823" lon="-121.762011"><ele>162.3</ele><time>2021-08-30T14:08:27Z</time></trkpt>
<trkpt lat="37.280634" lon="-121.761368"><ele>161.1</ele><time>2021-08-30T14:09:05Z</time></trkpt>
<trkpt lat="37.280608" lon="-121.761166"><ele>160.9</ele><time>2021-08-30T14:09:16Z</time></trkpt>
<trkpt lat="37.280622" lon="-121.760973"><ele>160.7</ele><time>2021-08-30T14:09:27Z</time></trkpt>
<trkpt lat="37.280743" lon="-121.760554"><ele>161.6</ele><time>2021-08-30T14:09:54Z</time></trkpt>
<trkpt lat="37.280769" lon="-121.760153"><ele>163.0</ele><time>2021-08-30T14:10:25Z</time></trkpt>
<trkpt lat="37.280842" lon="-121.759785"><ele>161.4</ele><time>2021-08-30T14:10:48Z</time></trkpt>
<trkpt lat="37.280878" lon="-121.759665"><ele>160.3</ele><time>2021-08-30T14:10:55Z</time></trkpt>
<trkpt lat="37.281057" lon="-121.759377"><ele>156.3</ele><time>2021-08-30T14:11:16Z</time></trkpt>
<trkpt lat="37.280940" lon="-121.759328"><ele>154.5</ele><time>2021-08-30T14:11:24Z</time></trkpt>
<trkpt lat="37.280755" lon="-121.759488"><ele>154.7</ele><time>2021-08-30T14:11:39Z</time></trkpt>
<trkpt lat="37.280630" lon="-121.759498"><ele>155.5</ele><time>2021-08-30T14:11:50Z</time></trkpt>
<trkpt lat="37.280612" lon="-121.759556"><ele>155.8</ele><time>2021-08-30T14:11:54Z</time></trkpt>
<trkpt lat="37.280643" lon="-121.759547"><ele>156.3</ele><time>2021-08-30T14:12:06Z</time></trkpt>
</trkseg></trk>
</gpx>
