<?xml version="1.0" encoding="UTF-8"?>
<gpx version="1.1" creator="Eric Sichak trip reports" xmlns="http://www.topografix.com/GPX/1/1">
<metadata><name>Post Ski SUP on Lake Tahoe</name><time>2023-06-17T20:22:34Z</time></metadata>
<trk><name>Post Ski SUP on Lake Tahoe</name><type>other</type><trkseg>
<trkpt lat="39.120816" lon="-120.161316"><time>2023-06-17T20:22:34Z</time></trkpt>
<trkpt lat="39.120984" lon="-120.161246"><time>2023-06-17T20:22:36Z</time></trkpt>
<trkpt lat="39.121042" lon="-120.161128"><time>2023-06-17T20:23:27Z</time></trkpt>
<trkpt lat="39.121005" lon="-120.160972"><time>2023-06-17T20:24:22Z</time></trkpt>
<trkpt lat="39.120756" lon="-120.160764"><time>2023-06-17T20:25:18Z</time></trkpt>
<trkpt lat="39.120658" lon="-120.160610"><time>2023-06-17T20:25:41Z</time></trkpt>
<trkpt lat="39.120460" lon="-120.160615"><time>2023-06-17T20:26:26Z</time></trkpt>
<trkpt lat="39.120337" lon="-120.160483"><time>2023-06-17T20:26:43Z</time></trkpt>
<trkpt lat="39.120099" lon="-120.160090"><time>2023-06-17T20:27:36Z</time></trkpt>
<trkpt lat="39.120216" lon="-120.160112"><time>2023-06-17T20:27:54Z</time></trkpt>
<trkpt lat="39.120210" lon="-120.160061"><time>2023-06-17T20:28:03Z</time></trkpt>
<trkpt lat="39.120082" lon="-120.159913"><time>2023-06-17T20:28:29Z</time></trkpt>
<trkpt lat="39.119984" lon="-120.159673"><time>2023-06-17T20:29:01Z</time></trkpt>
<trkpt lat="39.119989" lon="-120.159592"><time>2023-06-17T20:29:10Z</time></trkpt>
<trkpt lat="39.119919" lon="-120.159457"><time>2023-06-17T20:29:27Z</time></trkpt>
<trkpt lat="39.119932" lon="-120.159328"><time>2023-06-17T20:30:01Z</time></trkpt>
<trkpt lat="39.119901" lon="-120.159309"><time>2023-06-17T20:30:14Z</time></trkpt>
<trkpt lat="39.119899" lon="-120.159233"><time>2023-06-17T20:30:36Z</time></trkpt>
<trkpt lat="39.119601" lon="-120.158732"><time>2023-06-17T20:32:03Z</time></trkpt>
<trkpt lat="39.119511" lon="-120.158691"><time>2023-06-17T20:32:17Z</time></trkpt>
<trkpt lat="39.119483" lon="-120.158596"><time>2023-06-17T20:32:44Z</time></trkpt>
<trkpt lat="39.119498" lon="-120.158556"><time>2023-06-17T20:32:55Z</time></trkpt>
<trkpt lat="39.119590" lon="-120.158521"><time>2023-06-17T20:33:25Z</time></trkpt>
<trkpt lat="39.119587" lon="-120.158495"><time>2023-06-17T20:33:30Z</time></trkpt>
<trkpt lat="39.119455" lon="-120.158395"><time>2023-06-17T20:33:56Z</time></trkpt>
<trkpt lat="39.119471" lon="-120.158354"><time>2023-06-17T20:34:06Z</time></trkpt>
<trkpt lat="39.119409" lon="-120.158246"><time>2023-06-17T20:34:39Z</time></trkpt>
<trkpt lat="39.119422" lon="-120.158123"><time>2023-06-17T20:35:03Z</time></trkpt>
<trkpt lat="39.119114" lon="-120.157829"><time>2023-06-17T20:36:36Z</time></trkpt>
<trkpt lat="39.119050" lon="-120.157802"><time>2023-06-17T20:36:52Z</time></trkpt>
<trkpt lat="39.119032" lon="-120.157712"><time>2023-06-17T20:37:17Z</time></trkpt>
<trkpt lat="39.118868" lon="-120.157543"><time>2023-06-17T20:37:54Z</time></trkpt>
<trkpt lat="39.118808" lon="-120.157355"><time>2023-06-17T20:38:30Z</time></trkpt>
<trkpt lat="39.118667" lon="-120.157365"><time>2023-06-17T20:39:11Z</time></trkpt>
<trkpt lat="39.118570" lon="-120.157270"><time>2023-06-17T20:39:30Z</time></trkpt>
<trkpt lat="39.118557" lon="-120.157101"><time>2023-06-17T20:39:50Z</time></trkpt>
<trkpt lat="39.118434" lon="-120.156768"><time>2023-06-17T20:40:28Z</time></trkpt>
<trkpt lat="39.118420" lon="-120.156587"><time>2023-06-17T20:40:48Z</time></trkpt>
<trkpt lat="39.118443" lon="-120.156422"><time>2023-06-17T20:41:16Z</time></trkpt>
<trkpt lat="39.118521" lon="-120.156357"><time>2023-06-17T20:41:35Z</time></trkpt>
<trkpt lat="39.118557" lon="-120.156206"><time>2023-06-17T20:41:56Z</time></trkpt>
<trkpt lat="39.118550" lon="-120.156103"><time>2023-06-17T20:42:05Z</time></trkpt>
<trkpt lat="39.118464" lon="-120.155918"><time>2023-06-17T20:42:31Z</time></trkpt>
<trkpt lat="39.118507" lon="-120.155814"><time>2023-06-17T20:42:46Z</time></trkpt>
<trkpt lat="39.118510" lon="-120.155661"><time>2023-06-17T20:43:08Z</time></trkpt>
<trkpt lat="39.118569" lon="-120.155622"><time>2023-06-17T20:43:28Z</time></trkpt>
<trkpt lat="39.118592" lon="-120.155664"><time>2023-06-17T20:43:37Z</time></trkpt>
<trkpt lat="39.118870" lon="-120.155433"><time>2023-06-17T20:44:54Z</time></trkpt>
<trkpt lat="39.118899" lon="-120.155266"><time>2023-06-17T20:45:20Z</time></trkpt>
<trkpt lat="39.118929" lon="-120.155256"><time>2023-06-17T20:45:29Z</time></trkpt>
<trkpt lat="39.118908" lon="-120.155280"><time>2023-06-17T20:45:48Z</time></trkpt>
<trkpt lat="39.118946" lon="-120.155353"><time>2023-06-17T20:46:08Z</time></trkpt>
<trkpt lat="39.119013" lon="-120.155345"><time>2023-06-17T20:46:23Z</time></trkpt>
<trkpt lat="39.119044" lon="-120.155270"><time>2023-06-17T20:47:06Z</time></trkpt>
<trkpt lat="39.119024" lon="-120.155182"><time>2023-06-17T20:47:29Z</time></trkpt>
<trkpt lat="39.119088" lon="-120.155143"><time>2023-06-17T20:48:09Z</time></trkpt>
<trkpt lat="39.119084" lon="-120.155587"><time>2023-06-17T20:50:13Z</time></trkpt>
<trkpt lat="39.119140" lon="-120.155610"><time>2023-06-17T20:50:40Z</time></trkpt>
<trkpt lat="39.119173" lon="-120.155561"><time>2023-06-17T20:51:06Z</time></trkpt>
<trkpt lat="39.119183" lon="-120.155593"><time>2023-06-17T20:51:36Z</time></trkpt>
<trkpt lat="39.119228" lon="-120.155578"><time>2023-06-17T20:51:55Z</time></trkpt>
<trkpt lat="39.119228" lon="-120.155634"><time>2023-06-17T20:52:03Z</time></trkpt>
<trkpt lat="39.119152" lon="-120.155693"><time>2023-06-17T20:52:29Z</time></trkpt>
<trkpt lat="39.118901" lon="-120.155737"><time>2023-06-17T20:53:56Z</time></trkpt>
<trkpt lat="39.118881" lon="-120.155721"><time>2023-06-17T20:53:59Z</time></trkpt>
<trkpt lat="39.118965" lon="-120.155679"><time>2023-06-17T20:54:29Z</time></trkpt>
<trkpt lat="39.118913" lon="-120.155626"><time>2023-06-17T20:54:50Z</time></trkpt>
<trkpt lat="39.118941" lon="-120.155587"><time>2023-06-17T20:55:21Z</time></trkpt>
<trkpt lat="39.118872" lon="-120.155668"><time>2023-06-17T20:55:53Z</time></trkpt>
<trkpt lat="39.118833" lon="-120.155627"><time>2023-06-17T20:56:22Z</time></trkpt>
<trkpt lat="39.118700" lon="-120.155612"><time>2023-06-17T20:56:59Z</time></trkpt>
<trkpt lat="39.118507" lon="-120.155378"><time>2023-06-17T20:58:01Z</time></trkpt>
<trkpt lat="39.118332" lon="-120.155441"><time>2023-06-17T20:58:29Z</time></trkpt>
<trkpt lat="39.118282" lon="-120.155502"><time>2023-06-17T20:58:43Z</time></trkpt>
<trkpt lat="39.118242" lon="-120.155553"><time>2023-06-17T20:58:55Z</time></trkpt>
<trkpt lat="39.118236" lon="-120.155660"><time>2023-06-17T20:59:16Z</time></trkpt>
<trkpt lat="39.118048" lon="-120.155838"><time>2023-06-17T21:00:19Z</time></trkpt>
<trkpt lat="39.118064" lon="-120.155920"><time>2023-06-17T21:00:48Z</time></trkpt>
<trkpt lat="39.118034" lon="-120.155966"><time>2023-06-17T21:01:06Z</time></trkpt>
<trkpt lat="39.117917" lon="-120.155953"><time>2023-06-17T21:01:49Z</time></trkpt>
<trkpt lat="39.117843" lon="-120.156075"><time>2023-06-17T21:02:14Z</time></trkpt>
<trkpt lat="39.117862" lon="-120.156085"><time>2023-06-17T21:02:20Z</time></trkpt>
<trkpt lat="39.117827" lon="-120.156075"><time>2023-06-17T21:02:29Z</time></trkpt>
<trkpt lat="39.117790" lon="-120.156116"><time>2023-06-17T21:02:46Z</time></trkpt>
<trkpt lat="39.117737" lon="-120.156084"><time>2023-06-17T21:02:55Z</time></trkpt>
<trkpt lat="39.117665" lon="-120.156104"><time>2023-06-17T21:03:07Z</time></trkpt>
<trkpt lat="39.117568" lon="-120.156190"><time>2023-06-17T21:03:26Z</time></trkpt>
<trkpt lat="39.117503" lon="-120.156189"><time>2023-06-17T21:03:38Z</time></trkpt>
<trkpt lat="39.117348" lon="-120.156398"><time>2023-06-17T21:04:44Z</time></trkpt>
<trkpt lat="39.117403" lon="-120.156411"><time>2023-06-17T21:05:09Z</time></trkpt>
<trkpt lat="39.117465" lon="-120.156372"><time>2023-06-17T21:05:29Z</time></trkpt>
<trkpt lat="39.117420" lon="-120.156372"><time>2023-06-17T21:05:52Z</time></trkpt>
<trkpt lat="39.117360" lon="-120.156305"><time>2023-06-17T21:06:03Z</time></trkpt>
<trkpt lat="39.117269" lon="-120.156292"><time>2023-06-17T21:06:38Z</time></trkpt>
<trkpt lat="39.117341" lon="-120.156305"><time>2023-06-17T21:06:56Z</time></trkpt>
<trkpt lat="39.117446" lon="-120.156461"><time>2023-06-17T21:07:16Z</time></trkpt>
<trkpt lat="39.117496" lon="-120.156487"><time>2023-06-17T21:07:20Z</time></trkpt>
<trkpt lat="39.117567" lon="-120.156627"><time>2023-06-17T21:07:34Z</time></trkpt>
<trkpt lat="39.117697" lon="-120.156724"><time>2023-06-17T21:07:47Z</time></trkpt>
<trkpt lat="39.117796" lon="-120.156875"><time>2023-06-17T21:08:03Z</time></trkpt>
<trkpt lat="39.117961" lon="-120.156921"><time>2023-06-17T21:08:25Z</time></trkpt>
<trkpt lat="39.118034" lon="-120.157152"><time>2023-06-17T21:08:45Z</time></trkpt>
<trkpt lat="39.118307" lon="-120.157510"><time>2023-06-17T21:09:29Z</time></trkpt>
<trkpt lat="39.118714" lon="-120.157842"><time>2023-06-17T21:10:25Z</time></trkpt>
<trkpt lat="39.119050" lon="-120.158057"><time>2023-06-17T21:11:00Z</time></trkpt>
<trkpt lat="39.119272" lon="-120.158338"><time>2023-06-17T21:11:46Z</time></trkpt>
<trkpt lat="39.119302" lon="-120.158458"><time>2023-06-17T21:12:00Z</time></trkpt>
<trkpt lat="39.119415" lon="-120.158583"><time>2023-06-17T21:12:16Z</time></trkpt>
<trkpt lat="39.119532" lon="-120.158895"><time>2023-06-17T21:12:47Z</time></trkpt>
<trkpt lat="39.119656" lon="-120.159034"><time>2023-06-17T21:13:03Z</time></trkpt>
<trkpt lat="39.119735" lon="-120.159063"><time>2023-06-17T21:13:20Z</time></trkpt>
<trkpt lat="39.119786" lon="-120.159170"><time>2023-06-17T21:13:43Z</time></trkpt>
<trkpt lat="39.119974" lon="-120.159273"><time>2023-06-17T21:14:13Z</time></trkpt>
<trkpt lat="39.120154" lon="-120.159442"><time>2023-06-17T21:14:43Z</time></trkpt>
<trkpt lat="39.120299" lon="-120.159477"><time>2023-06-17T21:15:08Z</time></trkpt>
<trkpt lat="39.120717" lon="-120.159685"><time>2023-06-17T21:16:25Z</time></trkpt>
<trkpt lat="39.120835" lon="-120.159830"><time>2023-06-17T21:16:50Z</time></trkpt>
<trkpt lat="39.120969" lon="-120.159875"><time>2023-06-17T21:17:40Z</time></trkpt>
<trkpt lat="39.121031" lon="-120.160021"><time>2023-06-17T21:18:20Z</time></trkpt>
<trkpt lat="39.121155" lon="-120.160124"><time>2023-06-17T21:19:13Z</time></trkpt>
<trkpt lat="39.121195" lon="-120.160246"><time>2023-06-17T21:19:30Z</time></trkpt>
<trkpt lat="39.121190" lon="-120.160328"><time>2023-06-17T21:19:40Z</time></trkpt>
<trkpt lat="39.121096" lon="-120.160485"><time>2023-06-17T21:20:06Z</time></trkpt>
<trkpt lat="39.121096" lon="-120.160654"><time>2023-06-17T21:20:28Z</time></trkpt>
<trkpt lat="39.121049" lon="-120.160783"><time>2023-06-17T21:20:53Z</time></trkpt>
<trkpt lat="39.121050" lon="-120.160879"><time>2023-06-17T21:21:11Z</time></trkpt>
<trkpt lat="39.121018" lon="-120.160906"><time>2023-06-17T21:21:17Z</time></trkpt>
<trkpt lat="39.121007" lon="-120.161077"><time>2023-06-17T21:21:52Z</time></trkpt>
<trkpt lat="39.120979" lon="-120.161096"><time>2023-06-17T21:22:09Z</time></trkpt>
<trkpt lat="39.120984" lon="-120.161273"><time>2023-06-17T21:23:18Z</time></trkpt>
<trkpt lat="39.121078" lon="-120.161363"><time>2023-06-17T21:23:45Z</time></trkpt>
<trkpt lat="39.120953" lon="-120.161377"><time>2023-06-17T21:24:05Z</time></trkpt>
<trkpt lat="39.120990" lon="-120.161344"><time>2023-06-17T21:24:16Z</time></trkpt>
<trkpt lat="39.120948" lon="-120.161406"><time>2023-06-17T21:24:32Z</time></trkpt>
<trkpt lat="39.120967" lon="-120.161421"><time>2023-06-17T21:24:34Z</time></trkpt>
<trkpt lat="39.120963" lon="-120.161373"><time>2023-06-17T21:24:43Z</time></trkpt>
<trkpt lat="39.120983" lon="-120.161419"><time>2023-06-17T21:24:51Z</time></trkpt>
<trkpt lat="39.120972" lon="-120.161373"><time>2023-06-17T21:24:54Z</time></trkpt>
<trkpt lat="39.120998" lon="-120.161354"><time>2023-06-17T21:25:03Z</time></trkpt>
<trkpt lat="39.121012" lon="-120.161400"><time>2023-06-17T21:25:24Z</time></trkpt>
<trkpt lat="39.121075" lon="-120.161361"><time>2023-06-17T21:25:54Z</time></trkpt>
<trkpt lat="39.121049" lon="-120.161387"><time>2023-06-17T21:26:10Z</time></trkpt>
<trkpt lat="39.121064" lon="-120.161405"><time>2023-06-17T21:26:20Z</time></trkpt>
<trkpt lat="39.121047" lon="-120.161390"><time>2023-06-17T21:26:26Z</time></trkpt>
</trkseg></trk>
</gpx>
