<?xml version="1.0" encoding="UTF-8"?>
<gpx version="1.1" creator="Eric Sichak trip reports" xmlns="http://www.topografix.com/GPX/1/1">
<metadata><name>Checking out corral</name><time>2025-05-08T00:12:45Z</time></metadata>
<trk><name>Checking out corral</name><type>mtb</type><trkseg>
<trkpt lat="38.864810" lon="-119.995222"><ele>1965.0</ele><time>2025-05-08T00:12:45Z</time></trkpt>
<trkpt lat="38.864723" lon="-119.995116"><ele>1965.0</ele><time>2025-05-08T00:13:00Z</time></trkpt>
<trkpt lat="38.864732" lon="-119.994496"><ele>1965.4</ele><time>2025-05-08T00:13:12Z</time></trkpt>
<trkpt lat="38.864926" lon="-119.994103"><ele>1965.4</ele><time>2025-05-08T00:13:20Z</time></trkpt>
<trkpt lat="38.865408" lon="-119.993489"><ele>1966.2</ele><time>2025-05-08T00:13:33Z</time></trkpt>
<trkpt lat="38.865691" lon="-119.993248"><ele>1965.8</ele><time>2025-05-08T00:13:39Z</time></trkpt>
<trkpt lat="38.866095" lon="-119.993105"><ele>1965.4</ele><time>2025-05-08T00:13:46Z</time></trkpt>
<trkpt lat="38.866201" lon="-119.993029"><ele>1965.4</ele><time>2025-05-08T00:13:48Z</time></trkpt>
<trkpt lat="38.866423" lon="-119.992770"><ele>1965.4</ele><time>2025-05-08T00:13:53Z</time></trkpt>
<trkpt lat="38.866737" lon="-119.992172"><ele>1965.8</ele><time>2025-05-08T00:14:03Z</time></trkpt>
<trkpt lat="38.866888" lon="-119.991816"><ele>1966.2</ele><time>2025-05-08T00:14:09Z</time></trkpt>
<trkpt lat="38.867269" lon="-119.991187"><ele>1967.4</ele><time>2025-05-08T00:14:21Z</time></trkpt>
<trkpt lat="38.867867" lon="-119.990538"><ele>1968.8</ele><time>2025-05-08T00:14:38Z</time></trkpt>
<trkpt lat="38.868146" lon="-119.990294"><ele>1969.0</ele><time>2025-05-08T00:14:45Z</time></trkpt>
<trkpt lat="38.868433" lon="-119.989831"><ele>1968.8</ele><time>2025-05-08T00:14:54Z</time></trkpt>
<trkpt lat="38.868607" lon="-119.989634"><ele>1968.0</ele><time>2025-05-08T00:14:58Z</time></trkpt>
<trkpt lat="38.868783" lon="-119.989308"><ele>1967.6</ele><time>2025-05-08T00:15:03Z</time></trkpt>
<trkpt lat="38.869087" lon="-119.988322"><ele>1965.6</ele><time>2025-05-08T00:15:15Z</time></trkpt>
<trkpt lat="38.869166" lon="-119.987326"><ele>1966.2</ele><time>2025-05-08T00:15:27Z</time></trkpt>
<trkpt lat="38.869507" lon="-119.986432"><ele>1966.0</ele><time>2025-05-08T00:15:40Z</time></trkpt>
<trkpt lat="38.869753" lon="-119.985656"><ele>1963.6</ele><time>2025-05-08T00:15:49Z</time></trkpt>
<trkpt lat="38.869830" lon="-119.985371"><ele>1962.2</ele><time>2025-05-08T00:15:52Z</time></trkpt>
<trkpt lat="38.869872" lon="-119.984915"><ele>1960.8</ele><time>2025-05-08T00:15:56Z</time></trkpt>
<trkpt lat="38.869966" lon="-119.984579"><ele>1958.0</ele><time>2025-05-08T00:15:59Z</time></trkpt>
<trkpt lat="38.870055" lon="-119.984367"><ele>1957.4</ele><time>2025-05-08T00:16:01Z</time></trkpt>
<trkpt lat="38.870193" lon="-119.984200"><ele>1957.2</ele><time>2025-05-08T00:16:03Z</time></trkpt>
<trkpt lat="38.870369" lon="-119.984066"><ele>1957.2</ele><time>2025-05-08T00:16:05Z</time></trkpt>
<trkpt lat="38.870674" lon="-119.983879"><ele>1955.6</ele><time>2025-05-08T00:16:08Z</time></trkpt>
<trkpt lat="38.870902" lon="-119.983707"><ele>1950.8</ele><time>2025-05-08T00:16:10Z</time></trkpt>
<trkpt lat="38.871232" lon="-119.983400"><ele>1945.4</ele><time>2025-05-08T00:16:13Z</time></trkpt>
<trkpt lat="38.871663" lon="-119.983102"><ele>1943.8</ele><time>2025-05-08T00:16:17Z</time></trkpt>
<trkpt lat="38.871934" lon="-119.982850"><ele>1942.6</ele><time>2025-05-08T00:16:20Z</time></trkpt>
<trkpt lat="38.872205" lon="-119.982387"><ele>1942.8</ele><time>2025-05-08T00:16:25Z</time></trkpt>
<trkpt lat="38.872311" lon="-119.982073"><ele>1946.2</ele><time>2025-05-08T00:16:30Z</time></trkpt>
<trkpt lat="38.872384" lon="-119.982028"><ele>1947.6</ele><time>2025-05-08T00:16:35Z</time></trkpt>
<trkpt lat="38.872368" lon="-119.982105"><ele>1946.4</ele><time>2025-05-08T00:17:01Z</time></trkpt>
<trkpt lat="38.872323" lon="-119.982100"><ele>1946.4</ele><time>2025-05-08T00:17:03Z</time></trkpt>
<trkpt lat="38.872306" lon="-119.982043"><ele>1945.8</ele><time>2025-05-08T00:17:05Z</time></trkpt>
<trkpt lat="38.872366" lon="-119.981828"><ele>1946.2</ele><time>2025-05-08T00:17:11Z</time></trkpt>
<trkpt lat="38.872404" lon="-119.981405"><ele>1946.8</ele><time>2025-05-08T00:17:20Z</time></trkpt>
<trkpt lat="38.872499" lon="-119.980996"><ele>1947.8</ele><time>2025-05-08T00:17:29Z</time></trkpt>
<trkpt lat="38.872467" lon="-119.980304"><ele>1951.8</ele><time>2025-05-08T00:17:50Z</time></trkpt>
<trkpt lat="38.872315" lon="-119.979473"><ele>1959.4</ele><time>2025-05-08T00:18:25Z</time></trkpt>
<trkpt lat="38.872067" lon="-119.978686"><ele>1963.8</ele><time>2025-05-08T00:18:56Z</time></trkpt>
<trkpt lat="38.871940" lon="-119.977960"><ele>1966.0</ele><time>2025-05-08T00:19:18Z</time></trkpt>
<trkpt lat="38.871932" lon="-119.977749"><ele>1967.0</ele><time>2025-05-08T00:19:24Z</time></trkpt>
<trkpt lat="38.871957" lon="-119.977375"><ele>1968.0</ele><time>2025-05-08T00:19:35Z</time></trkpt>
<trkpt lat="38.872067" lon="-119.976593"><ele>1971.4</ele><time>2025-05-08T00:19:58Z</time></trkpt>
<trkpt lat="38.871999" lon="-119.975799"><ele>1975.8</ele><time>2025-05-08T00:20:24Z</time></trkpt>
<trkpt lat="38.871995" lon="-119.975401"><ele>1977.2</ele><time>2025-05-08T00:20:37Z</time></trkpt>
<trkpt lat="38.872029" lon="-119.975165"><ele>1978.6</ele><time>2025-05-08T00:20:44Z</time></trkpt>
<trkpt lat="38.872275" lon="-119.974656"><ele>1981.8</ele><time>2025-05-08T00:21:06Z</time></trkpt>
<trkpt lat="38.872307" lon="-119.974417"><ele>1983.2</ele><time>2025-05-08T00:21:15Z</time></trkpt>
<trkpt lat="38.872243" lon="-119.973890"><ele>1986.0</ele><time>2025-05-08T00:21:35Z</time></trkpt>
<trkpt lat="38.872246" lon="-119.973022"><ele>1992.2</ele><time>2025-05-08T00:22:10Z</time></trkpt>
<trkpt lat="38.872165" lon="-119.972421"><ele>1997.0</ele><time>2025-05-08T00:22:42Z</time></trkpt>
<trkpt lat="38.872188" lon="-119.972237"><ele>1997.4</ele><time>2025-05-08T00:22:50Z</time></trkpt>
<trkpt lat="38.872180" lon="-119.971969"><ele>1999.8</ele><time>2025-05-08T00:23:02Z</time></trkpt>
<trkpt lat="38.872141" lon="-119.971855"><ele>2004.6</ele><time>2025-05-08T00:23:10Z</time></trkpt>
<trkpt lat="38.872003" lon="-119.971674"><ele>2006.6</ele><time>2025-05-08T00:23:25Z</time></trkpt>
<trkpt lat="38.871609" lon="-119.971540"><ele>2006.4</ele><time>2025-05-08T00:23:52Z</time></trkpt>
<trkpt lat="38.871247" lon="-119.971189"><ele>2011.2</ele><time>2025-05-08T00:24:20Z</time></trkpt>
<trkpt lat="38.871077" lon="-119.970921"><ele>2013.4</ele><time>2025-05-08T00:24:35Z</time></trkpt>
<trkpt lat="38.870952" lon="-119.970795"><ele>2015.0</ele><time>2025-05-08T00:24:45Z</time></trkpt>
<trkpt lat="38.870472" lon="-119.970540"><ele>2018.8</ele><time>2025-05-08T00:25:13Z</time></trkpt>
<trkpt lat="38.870172" lon="-119.970488"><ele>2020.6</ele><time>2025-05-08T00:25:29Z</time></trkpt>
<trkpt lat="38.869925" lon="-119.970335"><ele>2025.8</ele><time>2025-05-08T00:25:46Z</time></trkpt>
<trkpt lat="38.869522" lon="-119.970166"><ele>2028.6</ele><time>2025-05-08T00:26:12Z</time></trkpt>
<trkpt lat="38.869204" lon="-119.969773"><ele>2033.2</ele><time>2025-05-08T00:26:46Z</time></trkpt>
<trkpt lat="38.869200" lon="-119.969710"><ele>2033.8</ele><time>2025-05-08T00:26:49Z</time></trkpt>
<trkpt lat="38.868910" lon="-119.969218"><ele>2040.2</ele><time>2025-05-08T00:27:28Z</time></trkpt>
<trkpt lat="38.868302" lon="-119.968562"><ele>2050.0</ele><time>2025-05-08T00:28:25Z</time></trkpt>
<trkpt lat="38.867899" lon="-119.968339"><ele>2054.2</ele><time>2025-05-08T00:28:50Z</time></trkpt>
<trkpt lat="38.867708" lon="-119.968130"><ele>2056.8</ele><time>2025-05-08T00:29:05Z</time></trkpt>
<trkpt lat="38.867643" lon="-119.967942"><ele>2058.4</ele><time>2025-05-08T00:29:16Z</time></trkpt>
<trkpt lat="38.867610" lon="-119.967717"><ele>2060.2</ele><time>2025-05-08T00:29:29Z</time></trkpt>
<trkpt lat="38.867612" lon="-119.967317"><ele>2064.4</ele><time>2025-05-08T00:29:51Z</time></trkpt>
<trkpt lat="38.867655" lon="-119.966856"><ele>2066.4</ele><time>2025-05-08T00:30:10Z</time></trkpt>
<trkpt lat="38.867800" lon="-119.966250"><ele>2067.2</ele><time>2025-05-08T00:30:22Z</time></trkpt>
<trkpt lat="38.867906" lon="-119.965815"><ele>2073.6</ele><time>2025-05-08T00:30:40Z</time></trkpt>
<trkpt lat="38.868068" lon="-119.965468"><ele>2077.8</ele><time>2025-05-08T00:30:58Z</time></trkpt>
<trkpt lat="38.868124" lon="-119.965189"><ele>2079.6</ele><time>2025-05-08T00:31:11Z</time></trkpt>
<trkpt lat="38.868102" lon="-119.964983"><ele>2080.8</ele><time>2025-05-08T00:31:21Z</time></trkpt>
<trkpt lat="38.867946" lon="-119.964739"><ele>2083.0</ele><time>2025-05-08T00:31:35Z</time></trkpt>
<trkpt lat="38.867635" lon="-119.964514"><ele>2085.2</ele><time>2025-05-08T00:31:53Z</time></trkpt>
<trkpt lat="38.867349" lon="-119.964379"><ele>2086.6</ele><time>2025-05-08T00:32:04Z</time></trkpt>
<trkpt lat="38.867131" lon="-119.964225"><ele>2089.0</ele><time>2025-05-08T00:32:17Z</time></trkpt>
<trkpt lat="38.866948" lon="-119.964035"><ele>2090.8</ele><time>2025-05-08T00:32:32Z</time></trkpt>
<trkpt lat="38.866805" lon="-119.963726"><ele>2093.4</ele><time>2025-05-08T00:32:51Z</time></trkpt>
<trkpt lat="38.866587" lon="-119.963513"><ele>2096.0</ele><time>2025-05-08T00:33:11Z</time></trkpt>
<trkpt lat="38.866475" lon="-119.963475"><ele>2096.2</ele><time>2025-05-08T00:33:19Z</time></trkpt>
<trkpt lat="38.866024" lon="-119.963386"><ele>2102.2</ele><time>2025-05-08T00:33:53Z</time></trkpt>
<trkpt lat="38.865512" lon="-119.963382"><ele>2110.0</ele><time>2025-05-08T00:34:31Z</time></trkpt>
<trkpt lat="38.865304" lon="-119.963439"><ele>2112.4</ele><time>2025-05-08T00:34:45Z</time></trkpt>
<trkpt lat="38.865229" lon="-119.963506"><ele>2112.2</ele><time>2025-05-08T00:34:51Z</time></trkpt>
<trkpt lat="38.865199" lon="-119.963591"><ele>2112.4</ele><time>2025-05-08T00:34:55Z</time></trkpt>
<trkpt lat="38.865147" lon="-119.963981"><ele>2116.4</ele><time>2025-05-08T00:35:10Z</time></trkpt>
<trkpt lat="38.865067" lon="-119.964110"><ele>2117.4</ele><time>2025-05-08T00:35:18Z</time></trkpt>
<trkpt lat="38.864920" lon="-119.964202"><ele>2119.4</ele><time>2025-05-08T00:35:29Z</time></trkpt>
<trkpt lat="38.864727" lon="-119.964145"><ele>2120.4</ele><time>2025-05-08T00:35:43Z</time></trkpt>
<trkpt lat="38.864417" lon="-119.963938"><ele>2124.2</ele><time>2025-05-08T00:36:08Z</time></trkpt>
<trkpt lat="38.864366" lon="-119.963869"><ele>2124.6</ele><time>2025-05-08T00:36:12Z</time></trkpt>
<trkpt lat="38.864340" lon="-119.963764"><ele>2124.6</ele><time>2025-05-08T00:36:15Z</time></trkpt>
<trkpt lat="38.864347" lon="-119.963394"><ele>2126.2</ele><time>2025-05-08T00:36:27Z</time></trkpt>
<trkpt lat="38.864277" lon="-119.963086"><ele>2126.8</ele><time>2025-05-08T00:36:37Z</time></trkpt>
<trkpt lat="38.864283" lon="-119.962748"><ele>2128.2</ele><time>2025-05-08T00:36:48Z</time></trkpt>
<trkpt lat="38.864311" lon="-119.962611"><ele>2129.2</ele><time>2025-05-08T00:36:54Z</time></trkpt>
<trkpt lat="38.864472" lon="-119.962395"><ele>2131.6</ele><time>2025-05-08T00:37:07Z</time></trkpt>
<trkpt lat="38.864557" lon="-119.962148"><ele>2133.0</ele><time>2025-05-08T00:37:18Z</time></trkpt>
<trkpt lat="38.864522" lon="-119.961619"><ele>2134.0</ele><time>2025-05-08T00:37:36Z</time></trkpt>
<trkpt lat="38.864553" lon="-119.961131"><ele>2132.2</ele><time>2025-05-08T00:37:43Z</time></trkpt>
<trkpt lat="38.864461" lon="-119.960676"><ele>2131.4</ele><time>2025-05-08T00:37:48Z</time></trkpt>
<trkpt lat="38.864342" lon="-119.960430"><ele>2132.0</ele><time>2025-05-08T00:37:51Z</time></trkpt>
<trkpt lat="38.863933" lon="-119.960011"><ele>2135.4</ele><time>2025-05-08T00:37:58Z</time></trkpt>
<trkpt lat="38.863835" lon="-119.959753"><ele>2135.6</ele><time>2025-05-08T00:38:01Z</time></trkpt>
<trkpt lat="38.863765" lon="-119.959409"><ele>2134.6</ele><time>2025-05-08T00:38:05Z</time></trkpt>
<trkpt lat="38.863659" lon="-119.959172"><ele>2135.0</ele><time>2025-05-08T00:38:08Z</time></trkpt>
<trkpt lat="38.863553" lon="-119.959026"><ele>2135.4</ele><time>2025-05-08T00:38:10Z</time></trkpt>
<trkpt lat="38.862971" lon="-119.958442"><ele>2135.4</ele><time>2025-05-08T00:38:21Z</time></trkpt>
<trkpt lat="38.862939" lon="-119.958315"><ele>2135.6</ele><time>2025-05-08T00:38:23Z</time></trkpt>
<trkpt lat="38.862969" lon="-119.958133"><ele>2135.6</ele><time>2025-05-08T00:38:26Z</time></trkpt>
<trkpt lat="38.863044" lon="-119.957968"><ele>2134.4</ele><time>2025-05-08T00:38:29Z</time></trkpt>
<trkpt lat="38.863194" lon="-119.957869"><ele>2134.2</ele><time>2025-05-08T00:38:33Z</time></trkpt>
<trkpt lat="38.863622" lon="-119.957892"><ele>2138.6</ele><time>2025-05-08T00:38:57Z</time></trkpt>
<trkpt lat="38.864041" lon="-119.957784"><ele>2142.8</ele><time>2025-05-08T00:39:27Z</time></trkpt>
<trkpt lat="38.864260" lon="-119.957623"><ele>2144.2</ele><time>2025-05-08T00:39:45Z</time></trkpt>
<trkpt lat="38.864815" lon="-119.957330"><ele>2144.4</ele><time>2025-05-08T00:40:07Z</time></trkpt>
<trkpt lat="38.864990" lon="-119.957181"><ele>2145.0</ele><time>2025-05-08T00:40:14Z</time></trkpt>
<trkpt lat="38.865281" lon="-119.956820"><ele>2145.6</ele><time>2025-05-08T00:40:27Z</time></trkpt>
<trkpt lat="38.865718" lon="-119.956530"><ele>2147.2</ele><time>2025-05-08T00:40:40Z</time></trkpt>
<trkpt lat="38.866302" lon="-119.956534"><ele>2147.8</ele><time>2025-05-08T00:40:57Z</time></trkpt>
<trkpt lat="38.866780" lon="-119.956376"><ele>2152.0</ele><time>2025-05-08T00:41:22Z</time></trkpt>
<trkpt lat="38.866929" lon="-119.956201"><ele>2154.0</ele><time>2025-05-08T00:41:36Z</time></trkpt>
<trkpt lat="38.866901" lon="-119.955955"><ele>2157.4</ele><time>2025-05-08T00:41:49Z</time></trkpt>
<trkpt lat="38.866855" lon="-119.955872"><ele>2159.8</ele><time>2025-05-08T00:41:55Z</time></trkpt>
<trkpt lat="38.866663" lon="-119.955793"><ele>2163.8</ele><time>2025-05-08T00:42:09Z</time></trkpt>
<trkpt lat="38.866292" lon="-119.955818"><ele>2169.2</ele><time>2025-05-08T00:42:32Z</time></trkpt>
<trkpt lat="38.866105" lon="-119.955884"><ele>2171.8</ele><time>2025-05-08T00:42:43Z</time></trkpt>
<trkpt lat="38.865861" lon="-119.955850"><ele>2172.6</ele><time>2025-05-08T00:42:50Z</time></trkpt>
<trkpt lat="38.865712" lon="-119.955751"><ele>2173.8</ele><time>2025-05-08T00:42:56Z</time></trkpt>
<trkpt lat="38.865353" lon="-119.955241"><ele>2176.4</ele><time>2025-05-08T00:43:34Z</time></trkpt>
<trkpt lat="38.865182" lon="-119.955104"><ele>2179.4</ele><time>2025-05-08T00:43:48Z</time></trkpt>
<trkpt lat="38.864859" lon="-119.955166"><ele>2181.6</ele><time>2025-05-08T00:44:11Z</time></trkpt>
<trkpt lat="38.864354" lon="-119.955114"><ele>2183.8</ele><time>2025-05-08T00:44:35Z</time></trkpt>
<trkpt lat="38.864198" lon="-119.955057"><ele>2185.6</ele><time>2025-05-08T00:44:45Z</time></trkpt>
<trkpt lat="38.863971" lon="-119.955098"><ele>2189.0</ele><time>2025-05-08T00:44:57Z</time></trkpt>
<trkpt lat="38.863795" lon="-119.955080"><ele>2189.0</ele><time>2025-05-08T00:45:04Z</time></trkpt>
<trkpt lat="38.862885" lon="-119.954803"><ele>2196.2</ele><time>2025-05-08T00:45:53Z</time></trkpt>
<trkpt lat="38.862555" lon="-119.954627"><ele>2197.8</ele><time>2025-05-08T00:46:14Z</time></trkpt>
<trkpt lat="38.862081" lon="-119.954511"><ele>2200.4</ele><time>2025-05-08T00:46:42Z</time></trkpt>
<trkpt lat="38.861332" lon="-119.954058"><ele>2208.0</ele><time>2025-05-08T00:47:35Z</time></trkpt>
<trkpt lat="38.860936" lon="-119.953686"><ele>2216.6</ele><time>2025-05-08T00:48:08Z</time></trkpt>
<trkpt lat="38.860620" lon="-119.953502"><ele>2221.2</ele><time>2025-05-08T00:48:34Z</time></trkpt>
<trkpt lat="38.860375" lon="-119.953272"><ele>2225.0</ele><time>2025-05-08T00:48:59Z</time></trkpt>
<trkpt lat="38.860159" lon="-119.953006"><ele>2229.4</ele><time>2025-05-08T00:49:22Z</time></trkpt>
<trkpt lat="38.860048" lon="-119.952774"><ele>2232.4</ele><time>2025-05-08T00:49:38Z</time></trkpt>
<trkpt lat="38.859620" lon="-119.952128"><ele>2246.4</ele><time>2025-05-08T00:50:34Z</time></trkpt>
<trkpt lat="38.859447" lon="-119.951740"><ele>2251.4</ele><time>2025-05-08T00:51:04Z</time></trkpt>
<trkpt lat="38.859289" lon="-119.951527"><ele>2260.2</ele><time>2025-05-08T00:51:22Z</time></trkpt>
<trkpt lat="38.859210" lon="-119.951377"><ele>2261.6</ele><time>2025-05-08T00:51:34Z</time></trkpt>
<trkpt lat="38.859225" lon="-119.951333"><ele>2262.0</ele><time>2025-05-08T00:51:37Z</time></trkpt>
<trkpt lat="38.859168" lon="-119.951167"><ele>2263.2</ele><time>2025-05-08T00:51:49Z</time></trkpt>
<trkpt lat="38.858993" lon="-119.950775"><ele>2267.4</ele><time>2025-05-08T00:52:20Z</time></trkpt>
<trkpt lat="38.858929" lon="-119.950537"><ele>2264.4</ele><time>2025-05-08T00:55:17Z</time></trkpt>
<trkpt lat="38.858844" lon="-119.950343"><ele>2267.8</ele><time>2025-05-08T00:55:30Z</time></trkpt>
<trkpt lat="38.858702" lon="-119.950138"><ele>2272.4</ele><time>2025-05-08T00:55:46Z</time></trkpt>
<trkpt lat="38.858620" lon="-119.949854"><ele>2280.2</ele><time>2025-05-08T00:56:05Z</time></trkpt>
<trkpt lat="38.858551" lon="-119.949735"><ele>2283.4</ele><time>2025-05-08T00:56:14Z</time></trkpt>
<trkpt lat="38.858404" lon="-119.949313"><ele>2291.4</ele><time>2025-05-08T00:56:42Z</time></trkpt>
<trkpt lat="38.858323" lon="-119.949170"><ele>2292.6</ele><time>2025-05-08T00:56:53Z</time></trkpt>
<trkpt lat="38.857979" lon="-119.948759"><ele>2298.6</ele><time>2025-05-08T00:57:28Z</time></trkpt>
<trkpt lat="38.857703" lon="-119.948143"><ele>2303.2</ele><time>2025-05-08T00:58:02Z</time></trkpt>
<trkpt lat="38.857578" lon="-119.947622"><ele>2302.8</ele><time>2025-05-08T00:58:14Z</time></trkpt>
<trkpt lat="38.857508" lon="-119.947061"><ele>2305.4</ele><time>2025-05-08T00:58:34Z</time></trkpt>
<trkpt lat="38.857535" lon="-119.946580"><ele>2310.4</ele><time>2025-05-08T00:58:59Z</time></trkpt>
<trkpt lat="38.857558" lon="-119.946463"><ele>2312.2</ele><time>2025-05-08T00:59:07Z</time></trkpt>
<trkpt lat="38.857822" lon="-119.945867"><ele>2320.6</ele><time>2025-05-08T00:59:49Z</time></trkpt>
<trkpt lat="38.857860" lon="-119.945590"><ele>2321.4</ele><time>2025-05-08T01:00:01Z</time></trkpt>
<trkpt lat="38.857737" lon="-119.944992"><ele>2324.8</ele><time>2025-05-08T01:00:26Z</time></trkpt>
<trkpt lat="38.857645" lon="-119.944417"><ele>2325.2</ele><time>2025-05-08T01:00:45Z</time></trkpt>
<trkpt lat="38.857645" lon="-119.944047"><ele>2326.0</ele><time>2025-05-08T01:00:55Z</time></trkpt>
<trkpt lat="38.857574" lon="-119.943749"><ele>2326.4</ele><time>2025-05-08T01:01:03Z</time></trkpt>
<trkpt lat="38.857468" lon="-119.943002"><ele>2330.2</ele><time>2025-05-08T01:01:27Z</time></trkpt>
<trkpt lat="38.857272" lon="-119.942500"><ele>2331.4</ele><time>2025-05-08T01:01:43Z</time></trkpt>
<trkpt lat="38.857265" lon="-119.942330"><ele>2332.6</ele><time>2025-05-08T01:01:48Z</time></trkpt>
<trkpt lat="38.857302" lon="-119.942091"><ele>2334.8</ele><time>2025-05-08T01:01:57Z</time></trkpt>
<trkpt lat="38.857179" lon="-119.941544"><ele>2338.4</ele><time>2025-05-08T01:02:16Z</time></trkpt>
<trkpt lat="38.856885" lon="-119.940986"><ele>2341.6</ele><time>2025-05-08T01:02:39Z</time></trkpt>
<trkpt lat="38.856664" lon="-119.940638"><ele>2343.8</ele><time>2025-05-08T01:03:00Z</time></trkpt>
<trkpt lat="38.856481" lon="-119.940414"><ele>2341.8</ele><time>2025-05-08T01:05:15Z</time></trkpt>
<trkpt lat="38.856415" lon="-119.940395"><ele>2342.0</ele><time>2025-05-08T01:05:19Z</time></trkpt>
<trkpt lat="38.856417" lon="-119.940363"><ele>2342.2</ele><time>2025-05-08T01:05:22Z</time></trkpt>
<trkpt lat="38.856610" lon="-119.940585"><ele>2341.8</ele><time>2025-05-08T01:05:32Z</time></trkpt>
<trkpt lat="38.857114" lon="-119.940889"><ele>2342.6</ele><time>2025-05-08T01:05:48Z</time></trkpt>
<trkpt lat="38.857486" lon="-119.941317"><ele>2344.0</ele><time>2025-05-08T01:05:59Z</time></trkpt>
<trkpt lat="38.857537" lon="-119.941436"><ele>2344.0</ele><time>2025-05-08T01:06:01Z</time></trkpt>
<trkpt lat="38.857818" lon="-119.941712"><ele>2344.2</ele><time>2025-05-08T01:06:07Z</time></trkpt>
<trkpt lat="38.858043" lon="-119.941810"><ele>2344.8</ele><time>2025-05-08T01:06:11Z</time></trkpt>
<trkpt lat="38.858060" lon="-119.941938"><ele>2345.0</ele><time>2025-05-08T01:06:13Z</time></trkpt>
<trkpt lat="38.858188" lon="-119.942024"><ele>2345.6</ele><time>2025-05-08T01:06:16Z</time></trkpt>
<trkpt lat="38.858218" lon="-119.942273"><ele>2346.2</ele><time>2025-05-08T01:06:20Z</time></trkpt>
<trkpt lat="38.858362" lon="-119.942511"><ele>2346.8</ele><time>2025-05-08T01:06:24Z</time></trkpt>
<trkpt lat="38.858387" lon="-119.942729"><ele>2347.4</ele><time>2025-05-08T01:06:27Z</time></trkpt>
<trkpt lat="38.858470" lon="-119.942829"><ele>2347.4</ele><time>2025-05-08T01:06:29Z</time></trkpt>
<trkpt lat="38.858503" lon="-119.942967"><ele>2347.4</ele><time>2025-05-08T01:06:31Z</time></trkpt>
<trkpt lat="38.858611" lon="-119.943041"><ele>2347.2</ele><time>2025-05-08T01:06:34Z</time></trkpt>
<trkpt lat="38.858593" lon="-119.943485"><ele>2347.0</ele><time>2025-05-08T01:06:40Z</time></trkpt>
<trkpt lat="38.858669" lon="-119.943681"><ele>2347.2</ele><time>2025-05-08T01:06:43Z</time></trkpt>
<trkpt lat="38.858643" lon="-119.943913"><ele>2347.2</ele><time>2025-05-08T01:06:46Z</time></trkpt>
<trkpt lat="38.858742" lon="-119.944057"><ele>2347.0</ele><time>2025-05-08T01:06:49Z</time></trkpt>
<trkpt lat="38.858651" lon="-119.944188"><ele>2346.8</ele><time>2025-05-08T01:06:52Z</time></trkpt>
<trkpt lat="38.858629" lon="-119.944315"><ele>2346.8</ele><time>2025-05-08T01:06:54Z</time></trkpt>
<trkpt lat="38.858652" lon="-119.944366"><ele>2346.6</ele><time>2025-05-08T01:06:55Z</time></trkpt>
<trkpt lat="38.858763" lon="-119.944359"><ele>2346.4</ele><time>2025-05-08T01:06:58Z</time></trkpt>
<trkpt lat="38.858866" lon="-119.944441"><ele>2346.2</ele><time>2025-05-08T01:07:01Z</time></trkpt>
<trkpt lat="38.858918" lon="-119.944548"><ele>2346.2</ele><time>2025-05-08T01:07:03Z</time></trkpt>
<trkpt lat="38.858938" lon="-119.944763"><ele>2346.0</ele><time>2025-05-08T01:07:07Z</time></trkpt>
<trkpt lat="38.859023" lon="-119.944813"><ele>2346.0</ele><time>2025-05-08T01:07:10Z</time></trkpt>
<trkpt lat="38.859090" lon="-119.944789"><ele>2346.0</ele><time>2025-05-08T01:07:12Z</time></trkpt>
<trkpt lat="38.859167" lon="-119.944818"><ele>2346.2</ele><time>2025-05-08T01:07:15Z</time></trkpt>
<trkpt lat="38.859155" lon="-119.945019"><ele>2346.2</ele><time>2025-05-08T01:07:20Z</time></trkpt>
<trkpt lat="38.859117" lon="-119.945118"><ele>2346.2</ele><time>2025-05-08T01:07:22Z</time></trkpt>
<trkpt lat="38.859165" lon="-119.945395"><ele>2347.8</ele><time>2025-05-08T01:07:27Z</time></trkpt>
<trkpt lat="38.859070" lon="-119.945639"><ele>2348.6</ele><time>2025-05-08T01:07:31Z</time></trkpt>
<trkpt lat="38.858651" lon="-119.945961"><ele>2349.0</ele><time>2025-05-08T01:07:39Z</time></trkpt>
<trkpt lat="38.858483" lon="-119.946287"><ele>2348.0</ele><time>2025-05-08T01:07:44Z</time></trkpt>
<trkpt lat="38.858462" lon="-119.946611"><ele>2347.8</ele><time>2025-05-08T01:07:49Z</time></trkpt>
<trkpt lat="38.858401" lon="-119.946807"><ele>2346.6</ele><time>2025-05-08T01:07:52Z</time></trkpt>
<trkpt lat="38.858421" lon="-119.946883"><ele>2346.4</ele><time>2025-05-08T01:07:53Z</time></trkpt>
<trkpt lat="38.858380" lon="-119.947319"><ele>2344.2</ele><time>2025-05-08T01:08:00Z</time></trkpt>
<trkpt lat="38.858452" lon="-119.947667"><ele>2342.0</ele><time>2025-05-08T01:08:05Z</time></trkpt>
<trkpt lat="38.858539" lon="-119.947754"><ele>2341.2</ele><time>2025-05-08T01:08:08Z</time></trkpt>
<trkpt lat="38.858570" lon="-119.947851"><ele>2340.8</ele><time>2025-05-08T01:08:10Z</time></trkpt>
<trkpt lat="38.858669" lon="-119.947898"><ele>2339.2</ele><time>2025-05-08T01:08:13Z</time></trkpt>
<trkpt lat="38.858863" lon="-119.948093"><ele>2337.4</ele><time>2025-05-08T01:08:20Z</time></trkpt>
<trkpt lat="38.859347" lon="-119.948899"><ele>2334.2</ele><time>2025-05-08T01:08:34Z</time></trkpt>
<trkpt lat="38.859467" lon="-119.949001"><ele>2332.8</ele><time>2025-05-08T01:08:36Z</time></trkpt>
<trkpt lat="38.859514" lon="-119.949135"><ele>2331.8</ele><time>2025-05-08T01:08:38Z</time></trkpt>
<trkpt lat="38.859570" lon="-119.949183"><ele>2331.8</ele><time>2025-05-08T01:08:39Z</time></trkpt>
<trkpt lat="38.859629" lon="-119.949580"><ele>2327.6</ele><time>2025-05-08T01:08:46Z</time></trkpt>
<trkpt lat="38.859546" lon="-119.949532"><ele>2324.6</ele><time>2025-05-08T01:09:08Z</time></trkpt>
<trkpt lat="38.859430" lon="-119.949362"><ele>2323.0</ele><time>2025-05-08T01:09:12Z</time></trkpt>
<trkpt lat="38.859236" lon="-119.949178"><ele>2319.8</ele><time>2025-05-08T01:09:16Z</time></trkpt>
<trkpt lat="38.859180" lon="-119.949193"><ele>2319.8</ele><time>2025-05-08T01:09:18Z</time></trkpt>
<trkpt lat="38.859369" lon="-119.949552"><ele>2316.6</ele><time>2025-05-08T01:09:25Z</time></trkpt>
<trkpt lat="38.859380" lon="-119.949703"><ele>2314.8</ele><time>2025-05-08T01:09:28Z</time></trkpt>
<trkpt lat="38.859430" lon="-119.949833"><ele>2314.0</ele><time>2025-05-08T01:09:30Z</time></trkpt>
<trkpt lat="38.859428" lon="-119.949980"><ele>2313.2</ele><time>2025-05-08T01:09:32Z</time></trkpt>
<trkpt lat="38.859567" lon="-119.950304"><ele>2311.0</ele><time>2025-05-08T01:09:37Z</time></trkpt>
<trkpt lat="38.859675" lon="-119.950417"><ele>2309.8</ele><time>2025-05-08T01:09:40Z</time></trkpt>
<trkpt lat="38.859824" lon="-119.950700"><ele>2307.4</ele><time>2025-05-08T01:09:45Z</time></trkpt>
<trkpt lat="38.860162" lon="-119.951117"><ele>2302.6</ele><time>2025-05-08T01:10:07Z</time></trkpt>
<trkpt lat="38.860687" lon="-119.951625"><ele>2298.2</ele><time>2025-05-08T01:10:21Z</time></trkpt>
<trkpt lat="38.860890" lon="-119.951907"><ele>2296.6</ele><time>2025-05-08T01:10:27Z</time></trkpt>
<trkpt lat="38.861397" lon="-119.952334"><ele>2288.8</ele><time>2025-05-08T01:10:37Z</time></trkpt>
<trkpt lat="38.861648" lon="-119.952476"><ele>2285.6</ele><time>2025-05-08T01:10:42Z</time></trkpt>
<trkpt lat="38.861954" lon="-119.952560"><ele>2281.2</ele><time>2025-05-08T01:10:49Z</time></trkpt>
<trkpt lat="38.862106" lon="-119.952546"><ele>2281.0</ele><time>2025-05-08T01:10:59Z</time></trkpt>
<trkpt lat="38.862132" lon="-119.952606"><ele>2280.4</ele><time>2025-05-08T01:11:05Z</time></trkpt>
<trkpt lat="38.862177" lon="-119.952579"><ele>2278.6</ele><time>2025-05-08T01:11:40Z</time></trkpt>
<trkpt lat="38.862605" lon="-119.952766"><ele>2275.6</ele><time>2025-05-08T01:11:56Z</time></trkpt>
<trkpt lat="38.862886" lon="-119.953004"><ele>2272.2</ele><time>2025-05-08T01:12:02Z</time></trkpt>
<trkpt lat="38.863025" lon="-119.953162"><ele>2270.4</ele><time>2025-05-08T01:12:06Z</time></trkpt>
<trkpt lat="38.863058" lon="-119.953242"><ele>2268.8</ele><time>2025-05-08T01:12:08Z</time></trkpt>
<trkpt lat="38.863163" lon="-119.953328"><ele>2265.4</ele><time>2025-05-08T01:12:12Z</time></trkpt>
<trkpt lat="38.863410" lon="-119.953372"><ele>2261.4</ele><time>2025-05-08T01:12:19Z</time></trkpt>
<trkpt lat="38.863616" lon="-119.953451"><ele>2258.6</ele><time>2025-05-08T01:12:23Z</time></trkpt>
<trkpt lat="38.863711" lon="-119.953405"><ele>2255.2</ele><time>2025-05-08T01:12:25Z</time></trkpt>
<trkpt lat="38.863808" lon="-119.953434"><ele>2254.0</ele><time>2025-05-08T01:12:27Z</time></trkpt>
<trkpt lat="38.863908" lon="-119.953415"><ele>2254.0</ele><time>2025-05-08T01:12:30Z</time></trkpt>
<trkpt lat="38.864016" lon="-119.953457"><ele>2253.8</ele><time>2025-05-08T01:12:33Z</time></trkpt>
<trkpt lat="38.864114" lon="-119.953417"><ele>2250.8</ele><time>2025-05-08T01:12:37Z</time></trkpt>
<trkpt lat="38.864325" lon="-119.953397"><ele>2249.8</ele><time>2025-05-08T01:12:41Z</time></trkpt>
<trkpt lat="38.864552" lon="-119.953441"><ele>2245.8</ele><time>2025-05-08T01:12:45Z</time></trkpt>
<trkpt lat="38.865245" lon="-119.953443"><ele>2241.0</ele><time>2025-05-08T01:12:58Z</time></trkpt>
<trkpt lat="38.865495" lon="-119.953512"><ele>2238.0</ele><time>2025-05-08T01:13:03Z</time></trkpt>
<trkpt lat="38.865744" lon="-119.953668"><ele>2235.2</ele><time>2025-05-08T01:13:08Z</time></trkpt>
<trkpt lat="38.865916" lon="-119.953711"><ele>2233.4</ele><time>2025-05-08T01:13:12Z</time></trkpt>
<trkpt lat="38.866067" lon="-119.953611"><ele>2232.0</ele><time>2025-05-08T01:13:16Z</time></trkpt>
<trkpt lat="38.866108" lon="-119.953628"><ele>2231.8</ele><time>2025-05-08T01:13:17Z</time></trkpt>
<trkpt lat="38.866391" lon="-119.953955"><ele>2229.2</ele><time>2025-05-08T01:13:24Z</time></trkpt>
<trkpt lat="38.866585" lon="-119.953919"><ele>2228.8</ele><time>2025-05-08T01:13:28Z</time></trkpt>
<trkpt lat="38.866857" lon="-119.953961"><ele>2227.4</ele><time>2025-05-08T01:13:34Z</time></trkpt>
<trkpt lat="38.867076" lon="-119.953927"><ele>2226.8</ele><time>2025-05-08T01:13:40Z</time></trkpt>
<trkpt lat="38.867070" lon="-119.953993"><ele>2225.0</ele><time>2025-05-08T01:13:42Z</time></trkpt>
<trkpt lat="38.867035" lon="-119.954025"><ele>2224.4</ele><time>2025-05-08T01:13:43Z</time></trkpt>
<trkpt lat="38.866937" lon="-119.954103"><ele>2222.6</ele><time>2025-05-08T01:13:46Z</time></trkpt>
<trkpt lat="38.866814" lon="-119.954151"><ele>2222.6</ele><time>2025-05-08T01:13:49Z</time></trkpt>
<trkpt lat="38.866701" lon="-119.954361"><ele>2221.6</ele><time>2025-05-08T01:13:52Z</time></trkpt>
<trkpt lat="38.866601" lon="-119.954402"><ele>2219.8</ele><time>2025-05-08T01:13:54Z</time></trkpt>
<trkpt lat="38.866512" lon="-119.954404"><ele>2221.6</ele><time>2025-05-08T01:13:59Z</time></trkpt>
<trkpt lat="38.866561" lon="-119.954386"><ele>2218.8</ele><time>2025-05-08T01:14:20Z</time></trkpt>
<trkpt lat="38.866612" lon="-119.954456"><ele>2218.4</ele><time>2025-05-08T01:14:23Z</time></trkpt>
<trkpt lat="38.866578" lon="-119.954542"><ele>2216.2</ele><time>2025-05-08T01:14:25Z</time></trkpt>
<trkpt lat="38.866489" lon="-119.954621"><ele>2212.8</ele><time>2025-05-08T01:14:29Z</time></trkpt>
<trkpt lat="38.866545" lon="-119.954694"><ele>2212.0</ele><time>2025-05-08T01:14:33Z</time></trkpt>
<trkpt lat="38.866643" lon="-119.954656"><ele>2210.8</ele><time>2025-05-08T01:14:36Z</time></trkpt>
<trkpt lat="38.866796" lon="-119.954507"><ele>2210.2</ele><time>2025-05-08T01:14:40Z</time></trkpt>
<trkpt lat="38.867249" lon="-119.954428"><ele>2207.0</ele><time>2025-05-08T01:14:47Z</time></trkpt>
<trkpt lat="38.867330" lon="-119.954455"><ele>2206.6</ele><time>2025-05-08T01:14:48Z</time></trkpt>
<trkpt lat="38.867660" lon="-119.954408"><ele>2206.2</ele><time>2025-05-08T01:14:53Z</time></trkpt>
<trkpt lat="38.867718" lon="-119.954446"><ele>2206.0</ele><time>2025-05-08T01:14:54Z</time></trkpt>
<trkpt lat="38.867815" lon="-119.954662"><ele>2205.4</ele><time>2025-05-08T01:14:58Z</time></trkpt>
<trkpt lat="38.867916" lon="-119.954704"><ele>2201.8</ele><time>2025-05-08T01:15:21Z</time></trkpt>
<trkpt lat="38.868099" lon="-119.954589"><ele>2199.2</ele><time>2025-05-08T01:15:26Z</time></trkpt>
<trkpt lat="38.868232" lon="-119.954624"><ele>2198.2</ele><time>2025-05-08T01:15:30Z</time></trkpt>
<trkpt lat="38.868360" lon="-119.954518"><ele>2197.2</ele><time>2025-05-08T01:15:33Z</time></trkpt>
<trkpt lat="38.868497" lon="-119.954533"><ele>2195.8</ele><time>2025-05-08T01:15:36Z</time></trkpt>
<trkpt lat="38.868615" lon="-119.954439"><ele>2194.4</ele><time>2025-05-08T01:15:39Z</time></trkpt>
<trkpt lat="38.869004" lon="-119.954411"><ele>2193.4</ele><time>2025-05-08T01:15:45Z</time></trkpt>
<trkpt lat="38.869181" lon="-119.954512"><ele>2193.6</ele><time>2025-05-08T01:15:48Z</time></trkpt>
<trkpt lat="38.869186" lon="-119.954634"><ele>2193.6</ele><time>2025-05-08T01:15:50Z</time></trkpt>
<trkpt lat="38.869097" lon="-119.954749"><ele>2193.6</ele><time>2025-05-08T01:15:52Z</time></trkpt>
<trkpt lat="38.869028" lon="-119.954745"><ele>2193.4</ele><time>2025-05-08T01:15:53Z</time></trkpt>
<trkpt lat="38.868943" lon="-119.954634"><ele>2192.2</ele><time>2025-05-08T01:15:55Z</time></trkpt>
<trkpt lat="38.868892" lon="-119.954617"><ele>2192.2</ele><time>2025-05-08T01:15:56Z</time></trkpt>
<trkpt lat="38.868795" lon="-119.954678"><ele>2192.2</ele><time>2025-05-08T01:15:58Z</time></trkpt>
<trkpt lat="38.868784" lon="-119.954809"><ele>2192.4</ele><time>2025-05-08T01:16:00Z</time></trkpt>
<trkpt lat="38.868913" lon="-119.954903"><ele>2191.2</ele><time>2025-05-08T01:16:03Z</time></trkpt>
<trkpt lat="38.868858" lon="-119.954989"><ele>2190.0</ele><time>2025-05-08T01:16:05Z</time></trkpt>
<trkpt lat="38.868758" lon="-119.954971"><ele>2188.4</ele><time>2025-05-08T01:16:07Z</time></trkpt>
<trkpt lat="38.868658" lon="-119.955007"><ele>2186.8</ele><time>2025-05-08T01:16:09Z</time></trkpt>
<trkpt lat="38.868453" lon="-119.954983"><ele>2185.8</ele><time>2025-05-08T01:16:13Z</time></trkpt>
<trkpt lat="38.868184" lon="-119.955085"><ele>2185.2</ele><time>2025-05-08T01:16:18Z</time></trkpt>
<trkpt lat="38.868141" lon="-119.955133"><ele>2185.2</ele><time>2025-05-08T01:16:19Z</time></trkpt>
<trkpt lat="38.868136" lon="-119.955203"><ele>2184.8</ele><time>2025-05-08T01:16:20Z</time></trkpt>
<trkpt lat="38.868171" lon="-119.955267"><ele>2184.2</ele><time>2025-05-08T01:16:21Z</time></trkpt>
<trkpt lat="38.868416" lon="-119.955322"><ele>2182.8</ele><time>2025-05-08T01:16:25Z</time></trkpt>
<trkpt lat="38.868444" lon="-119.955401"><ele>2182.4</ele><time>2025-05-08T01:16:26Z</time></trkpt>
<trkpt lat="38.868425" lon="-119.955490"><ele>2182.2</ele><time>2025-05-08T01:16:27Z</time></trkpt>
<trkpt lat="38.868302" lon="-119.955536"><ele>2180.8</ele><time>2025-05-08T01:16:29Z</time></trkpt>
<trkpt lat="38.868237" lon="-119.955494"><ele>2178.8</ele><time>2025-05-08T01:16:30Z</time></trkpt>
<trkpt lat="38.868048" lon="-119.955588"><ele>2177.0</ele><time>2025-05-08T01:16:34Z</time></trkpt>
<trkpt lat="38.867675" lon="-119.955524"><ele>2176.6</ele><time>2025-05-08T01:16:42Z</time></trkpt>
<trkpt lat="38.867532" lon="-119.955551"><ele>2176.4</ele><time>2025-05-08T01:16:45Z</time></trkpt>
<trkpt lat="38.867515" lon="-119.955687"><ele>2175.4</ele><time>2025-05-08T01:16:47Z</time></trkpt>
<trkpt lat="38.867556" lon="-119.955717"><ele>2175.0</ele><time>2025-05-08T01:16:48Z</time></trkpt>
<trkpt lat="38.867677" lon="-119.955691"><ele>2173.8</ele><time>2025-05-08T01:16:50Z</time></trkpt>
<trkpt lat="38.867732" lon="-119.955721"><ele>2173.4</ele><time>2025-05-08T01:16:51Z</time></trkpt>
<trkpt lat="38.867746" lon="-119.955789"><ele>2173.0</ele><time>2025-05-08T01:16:52Z</time></trkpt>
<trkpt lat="38.867715" lon="-119.955854"><ele>2172.8</ele><time>2025-05-08T01:16:53Z</time></trkpt>
<trkpt lat="38.867613" lon="-119.955958"><ele>2171.2</ele><time>2025-05-08T01:16:55Z</time></trkpt>
<trkpt lat="38.867491" lon="-119.956008"><ele>2169.0</ele><time>2025-05-08T01:16:57Z</time></trkpt>
<trkpt lat="38.867239" lon="-119.956315"><ele>2167.2</ele><time>2025-05-08T01:17:04Z</time></trkpt>
<trkpt lat="38.867201" lon="-119.956329"><ele>2166.6</ele><time>2025-05-08T01:17:05Z</time></trkpt>
<trkpt lat="38.866995" lon="-119.956240"><ele>2165.0</ele><time>2025-05-08T01:17:10Z</time></trkpt>
<trkpt lat="38.866762" lon="-119.956384"><ele>2163.4</ele><time>2025-05-08T01:17:16Z</time></trkpt>
<trkpt lat="38.866719" lon="-119.956449"><ele>2162.6</ele><time>2025-05-08T01:17:20Z</time></trkpt>
<trkpt lat="38.866790" lon="-119.956474"><ele>2155.0</ele><time>2025-05-08T01:19:45Z</time></trkpt>
<trkpt lat="38.866748" lon="-119.956851"><ele>2152.4</ele><time>2025-05-08T01:19:51Z</time></trkpt>
<trkpt lat="38.866631" lon="-119.957028"><ele>2151.6</ele><time>2025-05-08T01:19:54Z</time></trkpt>
<trkpt lat="38.866406" lon="-119.957171"><ele>2151.4</ele><time>2025-05-08T01:19:58Z</time></trkpt>
<trkpt lat="38.866354" lon="-119.957367"><ele>2151.2</ele><time>2025-05-08T01:20:01Z</time></trkpt>
<trkpt lat="38.866369" lon="-119.957560"><ele>2153.8</ele><time>2025-05-08T01:20:05Z</time></trkpt>
<trkpt lat="38.866285" lon="-119.957741"><ele>2155.4</ele><time>2025-05-08T01:20:08Z</time></trkpt>
<trkpt lat="38.866280" lon="-119.957811"><ele>2155.4</ele><time>2025-05-08T01:20:09Z</time></trkpt>
<trkpt lat="38.866328" lon="-119.957867"><ele>2155.8</ele><time>2025-05-08T01:20:11Z</time></trkpt>
<trkpt lat="38.866370" lon="-119.957991"><ele>2158.8</ele><time>2025-05-08T01:20:16Z</time></trkpt>
<trkpt lat="38.866523" lon="-119.958171"><ele>2157.4</ele><time>2025-05-08T01:20:22Z</time></trkpt>
<trkpt lat="38.866502" lon="-119.958295"><ele>2156.0</ele><time>2025-05-08T01:20:24Z</time></trkpt>
<trkpt lat="38.866528" lon="-119.958352"><ele>2155.4</ele><time>2025-05-08T01:20:25Z</time></trkpt>
<trkpt lat="38.866726" lon="-119.958370"><ele>2154.2</ele><time>2025-05-08T01:20:29Z</time></trkpt>
<trkpt lat="38.866790" lon="-119.958493"><ele>2154.0</ele><time>2025-05-08T01:20:32Z</time></trkpt>
<trkpt lat="38.866893" lon="-119.958529"><ele>2153.0</ele><time>2025-05-08T01:20:34Z</time></trkpt>
<trkpt lat="38.866927" lon="-119.958579"><ele>2152.6</ele><time>2025-05-08T01:20:35Z</time></trkpt>
<trkpt lat="38.866947" lon="-119.958741"><ele>2151.8</ele><time>2025-05-08T01:20:37Z</time></trkpt>
<trkpt lat="38.867099" lon="-119.958900"><ele>2149.0</ele><time>2025-05-08T01:20:40Z</time></trkpt>
<trkpt lat="38.867079" lon="-119.959031"><ele>2148.0</ele><time>2025-05-08T01:20:42Z</time></trkpt>
<trkpt lat="38.866918" lon="-119.959236"><ele>2146.2</ele><time>2025-05-08T01:20:46Z</time></trkpt>
<trkpt lat="38.866887" lon="-119.959453"><ele>2145.4</ele><time>2025-05-08T01:20:49Z</time></trkpt>
<trkpt lat="38.866833" lon="-119.959566"><ele>2144.6</ele><time>2025-05-08T01:20:51Z</time></trkpt>
<trkpt lat="38.866893" lon="-119.959712"><ele>2143.0</ele><time>2025-05-08T01:20:55Z</time></trkpt>
<trkpt lat="38.866991" lon="-119.959794"><ele>2142.2</ele><time>2025-05-08T01:20:58Z</time></trkpt>
<trkpt lat="38.867091" lon="-119.959776"><ele>2141.8</ele><time>2025-05-08T01:21:00Z</time></trkpt>
<trkpt lat="38.867266" lon="-119.959888"><ele>2139.8</ele><time>2025-05-08T01:21:04Z</time></trkpt>
<trkpt lat="38.867486" lon="-119.959910"><ele>2138.8</ele><time>2025-05-08T01:21:08Z</time></trkpt>
<trkpt lat="38.867700" lon="-119.960108"><ele>2139.4</ele><time>2025-05-08T01:21:13Z</time></trkpt>
<trkpt lat="38.867947" lon="-119.960168"><ele>2140.6</ele><time>2025-05-08T01:21:19Z</time></trkpt>
<trkpt lat="38.868017" lon="-119.960335"><ele>2140.6</ele><time>2025-05-08T01:21:22Z</time></trkpt>
<trkpt lat="38.868170" lon="-119.960534"><ele>2138.2</ele><time>2025-05-08T01:21:27Z</time></trkpt>
<trkpt lat="38.868201" lon="-119.960754"><ele>2136.4</ele><time>2025-05-08T01:21:30Z</time></trkpt>
<trkpt lat="38.868184" lon="-119.960791"><ele>2135.6</ele><time>2025-05-08T01:21:31Z</time></trkpt>
<trkpt lat="38.868031" lon="-119.960702"><ele>2133.6</ele><time>2025-05-08T01:21:35Z</time></trkpt>
<trkpt lat="38.867988" lon="-119.960725"><ele>2133.6</ele><time>2025-05-08T01:21:36Z</time></trkpt>
<trkpt lat="38.867998" lon="-119.960855"><ele>2133.2</ele><time>2025-05-08T01:21:38Z</time></trkpt>
<trkpt lat="38.868055" lon="-119.961004"><ele>2132.0</ele><time>2025-05-08T01:21:41Z</time></trkpt>
<trkpt lat="38.868014" lon="-119.961012"><ele>2131.8</ele><time>2025-05-08T01:21:42Z</time></trkpt>
<trkpt lat="38.867945" lon="-119.960926"><ele>2130.2</ele><time>2025-05-08T01:21:44Z</time></trkpt>
<trkpt lat="38.867843" lon="-119.960869"><ele>2128.8</ele><time>2025-05-08T01:21:46Z</time></trkpt>
<trkpt lat="38.867680" lon="-119.960913"><ele>2128.0</ele><time>2025-05-08T01:21:49Z</time></trkpt>
<trkpt lat="38.867649" lon="-119.960963"><ele>2127.8</ele><time>2025-05-08T01:21:50Z</time></trkpt>
<trkpt lat="38.867655" lon="-119.961013"><ele>2127.8</ele><time>2025-05-08T01:21:51Z</time></trkpt>
<trkpt lat="38.867841" lon="-119.961099"><ele>2127.0</ele><time>2025-05-08T01:21:55Z</time></trkpt>
<trkpt lat="38.867808" lon="-119.961277"><ele>2124.4</ele><time>2025-05-08T01:21:59Z</time></trkpt>
<trkpt lat="38.867640" lon="-119.961254"><ele>2121.4</ele><time>2025-05-08T01:22:03Z</time></trkpt>
<trkpt lat="38.867550" lon="-119.961193"><ele>2121.2</ele><time>2025-05-08T01:22:05Z</time></trkpt>
<trkpt lat="38.867497" lon="-119.961232"><ele>2121.4</ele><time>2025-05-08T01:22:07Z</time></trkpt>
<trkpt lat="38.867728" lon="-119.961496"><ele>2120.4</ele><time>2025-05-08T01:22:14Z</time></trkpt>
<trkpt lat="38.867705" lon="-119.961594"><ele>2119.8</ele><time>2025-05-08T01:22:16Z</time></trkpt>
<trkpt lat="38.867618" lon="-119.961513"><ele>2117.4</ele><time>2025-05-08T01:22:19Z</time></trkpt>
<trkpt lat="38.867581" lon="-119.961523"><ele>2117.4</ele><time>2025-05-08T01:22:20Z</time></trkpt>
<trkpt lat="38.867540" lon="-119.961612"><ele>2117.0</ele><time>2025-05-08T01:22:22Z</time></trkpt>
<trkpt lat="38.867542" lon="-119.961828"><ele>2115.0</ele><time>2025-05-08T01:22:26Z</time></trkpt>
<trkpt lat="38.867679" lon="-119.962235"><ele>2108.0</ele><time>2025-05-08T01:22:35Z</time></trkpt>
<trkpt lat="38.867790" lon="-119.962250"><ele>2104.8</ele><time>2025-05-08T01:22:38Z</time></trkpt>
<trkpt lat="38.867877" lon="-119.962392"><ele>2104.0</ele><time>2025-05-08T01:22:41Z</time></trkpt>
<trkpt lat="38.867858" lon="-119.962571"><ele>2102.0</ele><time>2025-05-08T01:22:44Z</time></trkpt>
<trkpt lat="38.867802" lon="-119.962637"><ele>2100.8</ele><time>2025-05-08T01:22:46Z</time></trkpt>
<trkpt lat="38.867812" lon="-119.962691"><ele>2099.2</ele><time>2025-05-08T01:22:48Z</time></trkpt>
<trkpt lat="38.867998" lon="-119.962900"><ele>2096.2</ele><time>2025-05-08T01:22:53Z</time></trkpt>
<trkpt lat="38.868240" lon="-119.962966"><ele>2094.4</ele><time>2025-05-08T01:22:57Z</time></trkpt>
<trkpt lat="38.868492" lon="-119.962959"><ele>2093.8</ele><time>2025-05-08T01:23:01Z</time></trkpt>
<trkpt lat="38.868592" lon="-119.963024"><ele>2092.6</ele><time>2025-05-08T01:23:03Z</time></trkpt>
<trkpt lat="38.868852" lon="-119.962909"><ele>2091.4</ele><time>2025-05-08T01:23:10Z</time></trkpt>
<trkpt lat="38.868928" lon="-119.962941"><ele>2091.4</ele><time>2025-05-08T01:23:12Z</time></trkpt>
<trkpt lat="38.869004" lon="-119.962894"><ele>2090.6</ele><time>2025-05-08T01:23:14Z</time></trkpt>
<trkpt lat="38.869102" lon="-119.962979"><ele>2089.0</ele><time>2025-05-08T01:23:16Z</time></trkpt>
<trkpt lat="38.869149" lon="-119.962954"><ele>2088.6</ele><time>2025-05-08T01:23:17Z</time></trkpt>
<trkpt lat="38.869192" lon="-119.962839"><ele>2087.4</ele><time>2025-05-08T01:23:19Z</time></trkpt>
<trkpt lat="38.869243" lon="-119.962893"><ele>2087.2</ele><time>2025-05-08T01:23:21Z</time></trkpt>
<trkpt lat="38.869192" lon="-119.962973"><ele>2085.8</ele><time>2025-05-08T01:23:23Z</time></trkpt>
<trkpt lat="38.869201" lon="-119.963025"><ele>2085.8</ele><time>2025-05-08T01:23:24Z</time></trkpt>
<trkpt lat="38.869339" lon="-119.963088"><ele>2085.4</ele><time>2025-05-08T01:23:27Z</time></trkpt>
<trkpt lat="38.869607" lon="-119.962840"><ele>2082.0</ele><time>2025-05-08T01:23:34Z</time></trkpt>
<trkpt lat="38.869841" lon="-119.962832"><ele>2081.8</ele><time>2025-05-08T01:23:39Z</time></trkpt>
<trkpt lat="38.869970" lon="-119.962891"><ele>2081.8</ele><time>2025-05-08T01:23:41Z</time></trkpt>
<trkpt lat="38.870100" lon="-119.963022"><ele>2080.8</ele><time>2025-05-08T01:23:43Z</time></trkpt>
<trkpt lat="38.870130" lon="-119.963106"><ele>2079.8</ele><time>2025-05-08T01:23:44Z</time></trkpt>
<trkpt lat="38.870086" lon="-119.963240"><ele>2076.8</ele><time>2025-05-08T01:23:46Z</time></trkpt>
<trkpt lat="38.870111" lon="-119.963330"><ele>2076.6</ele><time>2025-05-08T01:23:48Z</time></trkpt>
<trkpt lat="38.870196" lon="-119.963370"><ele>2076.4</ele><time>2025-05-08T01:23:50Z</time></trkpt>
<trkpt lat="38.870301" lon="-119.963306"><ele>2075.4</ele><time>2025-05-08T01:23:53Z</time></trkpt>
<trkpt lat="38.870325" lon="-119.963330"><ele>2074.6</ele><time>2025-05-08T01:23:54Z</time></trkpt>
<trkpt lat="38.870347" lon="-119.963499"><ele>2073.2</ele><time>2025-05-08T01:23:57Z</time></trkpt>
<trkpt lat="38.870431" lon="-119.963488"><ele>2072.4</ele><time>2025-05-08T01:23:59Z</time></trkpt>
<trkpt lat="38.870468" lon="-119.963318"><ele>2071.6</ele><time>2025-05-08T01:24:02Z</time></trkpt>
<trkpt lat="38.870529" lon="-119.963267"><ele>2071.2</ele><time>2025-05-08T01:24:04Z</time></trkpt>
<trkpt lat="38.870558" lon="-119.963289"><ele>2071.0</ele><time>2025-05-08T01:24:05Z</time></trkpt>
<trkpt lat="38.870498" lon="-119.963549"><ele>2069.6</ele><time>2025-05-08T01:24:10Z</time></trkpt>
<trkpt lat="38.870374" lon="-119.963667"><ele>2068.8</ele><time>2025-05-08T01:24:13Z</time></trkpt>
<trkpt lat="38.870370" lon="-119.963720"><ele>2068.6</ele><time>2025-05-08T01:24:14Z</time></trkpt>
<trkpt lat="38.870442" lon="-119.963789"><ele>2068.4</ele><time>2025-05-08T01:24:16Z</time></trkpt>
<trkpt lat="38.870472" lon="-119.963970"><ele>2066.6</ele><time>2025-05-08T01:24:20Z</time></trkpt>
<trkpt lat="38.870615" lon="-119.964087"><ele>2065.0</ele><time>2025-05-08T01:24:24Z</time></trkpt>
<trkpt lat="38.870667" lon="-119.964082"><ele>2063.8</ele><time>2025-05-08T01:24:25Z</time></trkpt>
<trkpt lat="38.870747" lon="-119.963997"><ele>2062.4</ele><time>2025-05-08T01:24:27Z</time></trkpt>
<trkpt lat="38.870726" lon="-119.963832"><ele>2062.0</ele><time>2025-05-08T01:24:30Z</time></trkpt>
<trkpt lat="38.870804" lon="-119.963753"><ele>2061.6</ele><time>2025-05-08T01:24:32Z</time></trkpt>
<trkpt lat="38.870885" lon="-119.963539"><ele>2059.2</ele><time>2025-05-08T01:24:35Z</time></trkpt>
<trkpt lat="38.870864" lon="-119.963316"><ele>2057.2</ele><time>2025-05-08T01:24:38Z</time></trkpt>
<trkpt lat="38.870889" lon="-119.963271"><ele>2057.0</ele><time>2025-05-08T01:24:39Z</time></trkpt>
<trkpt lat="38.870945" lon="-119.963257"><ele>2056.8</ele><time>2025-05-08T01:24:40Z</time></trkpt>
<trkpt lat="38.871018" lon="-119.963144"><ele>2055.6</ele><time>2025-05-08T01:24:42Z</time></trkpt>
<trkpt lat="38.871078" lon="-119.962882"><ele>2054.8</ele><time>2025-05-08T01:24:46Z</time></trkpt>
<trkpt lat="38.871364" lon="-119.962696"><ele>2055.6</ele><time>2025-05-08T01:25:01Z</time></trkpt>
<trkpt lat="38.871431" lon="-119.962787"><ele>2057.4</ele><time>2025-05-08T01:25:07Z</time></trkpt>
<trkpt lat="38.871456" lon="-119.962863"><ele>2053.2</ele><time>2025-05-08T01:27:06Z</time></trkpt>
<trkpt lat="38.871529" lon="-119.963087"><ele>2052.6</ele><time>2025-05-08T01:27:12Z</time></trkpt>
<trkpt lat="38.871792" lon="-119.963546"><ele>2054.8</ele><time>2025-05-08T01:27:21Z</time></trkpt>
<trkpt lat="38.872355" lon="-119.963960"><ele>2057.0</ele><time>2025-05-08T01:27:33Z</time></trkpt>
<trkpt lat="38.872493" lon="-119.964145"><ele>2057.2</ele><time>2025-05-08T01:27:37Z</time></trkpt>
<trkpt lat="38.872687" lon="-119.964250"><ele>2055.8</ele><time>2025-05-08T01:27:40Z</time></trkpt>
<trkpt lat="38.872934" lon="-119.964454"><ele>2053.0</ele><time>2025-05-08T01:27:44Z</time></trkpt>
<trkpt lat="38.873193" lon="-119.964584"><ele>2054.2</ele><time>2025-05-08T01:27:51Z</time></trkpt>
<trkpt lat="38.873318" lon="-119.964709"><ele>2055.6</ele><time>2025-05-08T01:27:55Z</time></trkpt>
<trkpt lat="38.873566" lon="-119.964771"><ele>2056.4</ele><time>2025-05-08T01:28:02Z</time></trkpt>
<trkpt lat="38.873734" lon="-119.964938"><ele>2057.6</ele><time>2025-05-08T01:28:10Z</time></trkpt>
<trkpt lat="38.873862" lon="-119.964964"><ele>2057.6</ele><time>2025-05-08T01:28:15Z</time></trkpt>
<trkpt lat="38.874191" lon="-119.965119"><ele>2058.8</ele><time>2025-05-08T01:28:27Z</time></trkpt>
<trkpt lat="38.874433" lon="-119.965312"><ele>2059.8</ele><time>2025-05-08T01:28:36Z</time></trkpt>
<trkpt lat="38.874654" lon="-119.965330"><ele>2060.8</ele><time>2025-05-08T01:28:42Z</time></trkpt>
<trkpt lat="38.874738" lon="-119.965388"><ele>2060.6</ele><time>2025-05-08T01:28:44Z</time></trkpt>
<trkpt lat="38.875243" lon="-119.966258"><ele>2057.4</ele><time>2025-05-08T01:28:58Z</time></trkpt>
<trkpt lat="38.875509" lon="-119.966634"><ele>2053.0</ele><time>2025-05-08T01:29:03Z</time></trkpt>
<trkpt lat="38.875773" lon="-119.966898"><ele>2050.8</ele><time>2025-05-08T01:29:08Z</time></trkpt>
<trkpt lat="38.875856" lon="-119.967039"><ele>2049.8</ele><time>2025-05-08T01:29:10Z</time></trkpt>
<trkpt lat="38.875931" lon="-119.967299"><ele>2048.2</ele><time>2025-05-08T01:29:13Z</time></trkpt>
<trkpt lat="38.876060" lon="-119.967368"><ele>2047.6</ele><time>2025-05-08T01:29:15Z</time></trkpt>
<trkpt lat="38.876096" lon="-119.967444"><ele>2047.2</ele><time>2025-05-08T01:29:16Z</time></trkpt>
<trkpt lat="38.876019" lon="-119.967601"><ele>2046.2</ele><time>2025-05-08T01:29:19Z</time></trkpt>
<trkpt lat="38.876047" lon="-119.967648"><ele>2046.0</ele><time>2025-05-08T01:29:20Z</time></trkpt>
<trkpt lat="38.876180" lon="-119.967606"><ele>2045.6</ele><time>2025-05-08T01:29:23Z</time></trkpt>
<trkpt lat="38.876208" lon="-119.967652"><ele>2045.4</ele><time>2025-05-08T01:29:24Z</time></trkpt>
<trkpt lat="38.876153" lon="-119.967817"><ele>2044.0</ele><time>2025-05-08T01:29:27Z</time></trkpt>
<trkpt lat="38.876285" lon="-119.968034"><ele>2043.0</ele><time>2025-05-08T01:29:31Z</time></trkpt>
<trkpt lat="38.876178" lon="-119.968229"><ele>2041.2</ele><time>2025-05-08T01:29:34Z</time></trkpt>
<trkpt lat="38.876202" lon="-119.968410"><ele>2040.6</ele><time>2025-05-08T01:29:36Z</time></trkpt>
<trkpt lat="38.876389" lon="-119.968547"><ele>2040.0</ele><time>2025-05-08T01:29:39Z</time></trkpt>
<trkpt lat="38.876401" lon="-119.968625"><ele>2039.6</ele><time>2025-05-08T01:29:40Z</time></trkpt>
<trkpt lat="38.876303" lon="-119.968807"><ele>2038.2</ele><time>2025-05-08T01:29:43Z</time></trkpt>
<trkpt lat="38.876491" lon="-119.968961"><ele>2036.0</ele><time>2025-05-08T01:29:47Z</time></trkpt>
<trkpt lat="38.876593" lon="-119.969180"><ele>2034.8</ele><time>2025-05-08T01:29:50Z</time></trkpt>
<trkpt lat="38.876654" lon="-119.969225"><ele>2034.0</ele><time>2025-05-08T01:29:51Z</time></trkpt>
<trkpt lat="38.876747" lon="-119.969382"><ele>2032.6</ele><time>2025-05-08T01:29:53Z</time></trkpt>
<trkpt lat="38.876894" lon="-119.969467"><ele>2030.8</ele><time>2025-05-08T01:29:55Z</time></trkpt>
<trkpt lat="38.876958" lon="-119.969447"><ele>2030.4</ele><time>2025-05-08T01:29:56Z</time></trkpt>
<trkpt lat="38.877013" lon="-119.969484"><ele>2030.0</ele><time>2025-05-08T01:29:57Z</time></trkpt>
<trkpt lat="38.877057" lon="-119.969653"><ele>2028.4</ele><time>2025-05-08T01:29:59Z</time></trkpt>
<trkpt lat="38.877110" lon="-119.969713"><ele>2028.2</ele><time>2025-05-08T01:30:00Z</time></trkpt>
<trkpt lat="38.877313" lon="-119.969731"><ele>2027.0</ele><time>2025-05-08T01:30:03Z</time></trkpt>
<trkpt lat="38.877454" lon="-119.970001"><ele>2024.8</ele><time>2025-05-08T01:30:07Z</time></trkpt>
<trkpt lat="38.877578" lon="-119.970002"><ele>2024.6</ele><time>2025-05-08T01:30:09Z</time></trkpt>
<trkpt lat="38.877610" lon="-119.970156"><ele>2024.4</ele><time>2025-05-08T01:30:11Z</time></trkpt>
<trkpt lat="38.877797" lon="-119.970253"><ele>2022.4</ele><time>2025-05-08T01:30:14Z</time></trkpt>
<trkpt lat="38.877910" lon="-119.970430"><ele>2020.8</ele><time>2025-05-08T01:30:16Z</time></trkpt>
<trkpt lat="38.878048" lon="-119.970570"><ele>2018.0</ele><time>2025-05-08T01:30:18Z</time></trkpt>
<trkpt lat="38.878193" lon="-119.970631"><ele>2016.4</ele><time>2025-05-08T01:30:20Z</time></trkpt>
<trkpt lat="38.878214" lon="-119.970706"><ele>2015.6</ele><time>2025-05-08T01:30:21Z</time></trkpt>
<trkpt lat="38.878192" lon="-119.970780"><ele>2013.6</ele><time>2025-05-08T01:30:22Z</time></trkpt>
<trkpt lat="38.877991" lon="-119.970998"><ele>2011.8</ele><time>2025-05-08T01:30:26Z</time></trkpt>
<trkpt lat="38.877968" lon="-119.971091"><ele>2011.8</ele><time>2025-05-08T01:30:27Z</time></trkpt>
<trkpt lat="38.878103" lon="-119.971243"><ele>2010.6</ele><time>2025-05-08T01:30:30Z</time></trkpt>
<trkpt lat="38.878208" lon="-119.971297"><ele>2008.8</ele><time>2025-05-08T01:30:32Z</time></trkpt>
<trkpt lat="38.878388" lon="-119.971304"><ele>2007.6</ele><time>2025-05-08T01:30:35Z</time></trkpt>
<trkpt lat="38.878409" lon="-119.971350"><ele>2007.4</ele><time>2025-05-08T01:30:36Z</time></trkpt>
<trkpt lat="38.878411" lon="-119.971414"><ele>2007.2</ele><time>2025-05-08T01:30:37Z</time></trkpt>
<trkpt lat="38.878357" lon="-119.971538"><ele>2005.8</ele><time>2025-05-08T01:30:39Z</time></trkpt>
<trkpt lat="38.878170" lon="-119.971723"><ele>2003.6</ele><time>2025-05-08T01:30:43Z</time></trkpt>
<trkpt lat="38.878147" lon="-119.971800"><ele>2003.2</ele><time>2025-05-08T01:30:44Z</time></trkpt>
<trkpt lat="38.878162" lon="-119.971879"><ele>2002.8</ele><time>2025-05-08T01:30:45Z</time></trkpt>
<trkpt lat="38.878344" lon="-119.972171"><ele>2000.4</ele><time>2025-05-08T01:30:49Z</time></trkpt>
<trkpt lat="38.878350" lon="-119.972256"><ele>1999.2</ele><time>2025-05-08T01:30:50Z</time></trkpt>
<trkpt lat="38.878212" lon="-119.972591"><ele>1996.4</ele><time>2025-05-08T01:30:54Z</time></trkpt>
<trkpt lat="38.877955" lon="-119.972774"><ele>1991.6</ele><time>2025-05-08T01:30:58Z</time></trkpt>
<trkpt lat="38.877828" lon="-119.972911"><ele>1991.2</ele><time>2025-05-08T01:31:00Z</time></trkpt>
<trkpt lat="38.877789" lon="-119.972999"><ele>1990.8</ele><time>2025-05-08T01:31:01Z</time></trkpt>
<trkpt lat="38.877809" lon="-119.973162"><ele>1988.8</ele><time>2025-05-08T01:31:03Z</time></trkpt>
<trkpt lat="38.877905" lon="-119.973295"><ele>1986.8</ele><time>2025-05-08T01:31:05Z</time></trkpt>
<trkpt lat="38.878101" lon="-119.973420"><ele>1985.8</ele><time>2025-05-08T01:31:08Z</time></trkpt>
<trkpt lat="38.878130" lon="-119.973577"><ele>1985.2</ele><time>2025-05-08T01:31:10Z</time></trkpt>
<trkpt lat="38.878361" lon="-119.973773"><ele>1983.2</ele><time>2025-05-08T01:31:14Z</time></trkpt>
<trkpt lat="38.878508" lon="-119.974040"><ele>1980.8</ele><time>2025-05-08T01:31:17Z</time></trkpt>
<trkpt lat="38.878579" lon="-119.974064"><ele>1979.8</ele><time>2025-05-08T01:31:18Z</time></trkpt>
<trkpt lat="38.878714" lon="-119.974021"><ele>1979.2</ele><time>2025-05-08T01:31:20Z</time></trkpt>
<trkpt lat="38.878770" lon="-119.974035"><ele>1978.6</ele><time>2025-05-08T01:31:21Z</time></trkpt>
<trkpt lat="38.878815" lon="-119.974098"><ele>1978.2</ele><time>2025-05-08T01:31:22Z</time></trkpt>
<trkpt lat="38.878855" lon="-119.974640"><ele>1974.6</ele><time>2025-05-08T01:31:28Z</time></trkpt>
<trkpt lat="38.879014" lon="-119.974868"><ele>1973.2</ele><time>2025-05-08T01:31:31Z</time></trkpt>
<trkpt lat="38.879139" lon="-119.975222"><ele>1971.4</ele><time>2025-05-08T01:31:35Z</time></trkpt>
<trkpt lat="38.879261" lon="-119.975297"><ele>1971.2</ele><time>2025-05-08T01:31:37Z</time></trkpt>
<trkpt lat="38.879463" lon="-119.975293"><ele>1971.2</ele><time>2025-05-08T01:31:40Z</time></trkpt>
<trkpt lat="38.879626" lon="-119.975415"><ele>1970.2</ele><time>2025-05-08T01:31:43Z</time></trkpt>
<trkpt lat="38.879866" lon="-119.975462"><ele>1969.8</ele><time>2025-05-08T01:31:47Z</time></trkpt>
<trkpt lat="38.880071" lon="-119.975616"><ele>1968.8</ele><time>2025-05-08T01:31:51Z</time></trkpt>
<trkpt lat="38.880283" lon="-119.975897"><ele>1967.4</ele><time>2025-05-08T01:31:56Z</time></trkpt>
<trkpt lat="38.880350" lon="-119.976037"><ele>1967.2</ele><time>2025-05-08T01:31:58Z</time></trkpt>
<trkpt lat="38.880413" lon="-119.976438"><ele>1966.6</ele><time>2025-05-08T01:32:03Z</time></trkpt>
<trkpt lat="38.880607" lon="-119.976866"><ele>1965.6</ele><time>2025-05-08T01:32:10Z</time></trkpt>
<trkpt lat="38.880937" lon="-119.977145"><ele>1965.0</ele><time>2025-05-08T01:32:19Z</time></trkpt>
<trkpt lat="38.881127" lon="-119.977391"><ele>1962.2</ele><time>2025-05-08T01:32:26Z</time></trkpt>
<trkpt lat="38.881319" lon="-119.977418"><ele>1961.4</ele><time>2025-05-08T01:32:32Z</time></trkpt>
<trkpt lat="38.881341" lon="-119.977481"><ele>1961.0</ele><time>2025-05-08T01:32:34Z</time></trkpt>
<trkpt lat="38.881185" lon="-119.977849"><ele>1959.6</ele><time>2025-05-08T01:32:42Z</time></trkpt>
<trkpt lat="38.880897" lon="-119.978264"><ele>1953.6</ele><time>2025-05-08T01:32:47Z</time></trkpt>
<trkpt lat="38.880662" lon="-119.978891"><ele>1947.0</ele><time>2025-05-08T01:32:52Z</time></trkpt>
<trkpt lat="38.880386" lon="-119.979370"><ele>1946.6</ele><time>2025-05-08T01:32:57Z</time></trkpt>
<trkpt lat="38.880152" lon="-119.979711"><ele>1943.6</ele><time>2025-05-08T01:33:01Z</time></trkpt>
<trkpt lat="38.879942" lon="-119.980327"><ele>1939.6</ele><time>2025-05-08T01:33:07Z</time></trkpt>
<trkpt lat="38.879729" lon="-119.980597"><ele>1941.4</ele><time>2025-05-08T01:33:12Z</time></trkpt>
<trkpt lat="38.879629" lon="-119.980794"><ele>1942.2</ele><time>2025-05-08T01:33:16Z</time></trkpt>
<trkpt lat="38.879500" lon="-119.981205"><ele>1941.6</ele><time>2025-05-08T01:33:25Z</time></trkpt>
<trkpt lat="38.879275" lon="-119.981593"><ele>1943.2</ele><time>2025-05-08T01:33:39Z</time></trkpt>
<trkpt lat="38.879165" lon="-119.981883"><ele>1943.4</ele><time>2025-05-08T01:33:48Z</time></trkpt>
<trkpt lat="38.879074" lon="-119.981975"><ele>1943.2</ele><time>2025-05-08T01:33:53Z</time></trkpt>
<trkpt lat="38.878851" lon="-119.982076"><ele>1943.8</ele><time>2025-05-08T01:34:02Z</time></trkpt>
<trkpt lat="38.878504" lon="-119.982551"><ele>1945.8</ele><time>2025-05-08T01:34:18Z</time></trkpt>
<trkpt lat="38.878355" lon="-119.982683"><ele>1944.4</ele><time>2025-05-08T01:34:24Z</time></trkpt>
<trkpt lat="38.878112" lon="-119.982734"><ele>1944.8</ele><time>2025-05-08T01:34:32Z</time></trkpt>
<trkpt lat="38.877854" lon="-119.982706"><ele>1944.6</ele><time>2025-05-08T01:34:39Z</time></trkpt>
<trkpt lat="38.877551" lon="-119.982613"><ele>1945.2</ele><time>2025-05-08T01:34:47Z</time></trkpt>
<trkpt lat="38.877332" lon="-119.982500"><ele>1946.2</ele><time>2025-05-08T01:34:53Z</time></trkpt>
<trkpt lat="38.876981" lon="-119.982445"><ele>1946.4</ele><time>2025-05-08T01:35:02Z</time></trkpt>
<trkpt lat="38.876398" lon="-119.982226"><ele>1946.0</ele><time>2025-05-08T01:35:17Z</time></trkpt>
<trkpt lat="38.876105" lon="-119.982213"><ele>1945.8</ele><time>2025-05-08T01:35:25Z</time></trkpt>
<trkpt lat="38.875951" lon="-119.982115"><ele>1945.6</ele><time>2025-05-08T01:35:30Z</time></trkpt>
<trkpt lat="38.875785" lon="-119.981908"><ele>1945.8</ele><time>2025-05-08T01:35:36Z</time></trkpt>
<trkpt lat="38.875587" lon="-119.981798"><ele>1946.6</ele><time>2025-05-08T01:35:42Z</time></trkpt>
<trkpt lat="38.875290" lon="-119.981856"><ele>1945.4</ele><time>2025-05-08T01:35:50Z</time></trkpt>
<trkpt lat="38.874851" lon="-119.981781"><ele>1947.6</ele><time>2025-05-08T01:36:01Z</time></trkpt>
<trkpt lat="38.874590" lon="-119.981831"><ele>1947.8</ele><time>2025-05-08T01:36:08Z</time></trkpt>
<trkpt lat="38.874346" lon="-119.981787"><ele>1947.2</ele><time>2025-05-08T01:36:15Z</time></trkpt>
<trkpt lat="38.873467" lon="-119.981896"><ele>1949.4</ele><time>2025-05-08T01:36:39Z</time></trkpt>
<trkpt lat="38.873369" lon="-119.981923"><ele>1949.4</ele><time>2025-05-08T01:36:42Z</time></trkpt>
<trkpt lat="38.873134" lon="-119.982123"><ele>1949.6</ele><time>2025-05-08T01:36:50Z</time></trkpt>
<trkpt lat="38.872948" lon="-119.982174"><ele>1949.4</ele><time>2025-05-08T01:36:56Z</time></trkpt>
<trkpt lat="38.872881" lon="-119.982249"><ele>1949.4</ele><time>2025-05-08T01:36:59Z</time></trkpt>
<trkpt lat="38.872285" lon="-119.982330"><ele>1948.0</ele><time>2025-05-08T01:37:15Z</time></trkpt>
<trkpt lat="38.872209" lon="-119.982411"><ele>1947.8</ele><time>2025-05-08T01:37:17Z</time></trkpt>
<trkpt lat="38.872065" lon="-119.982696"><ele>1946.4</ele><time>2025-05-08T01:37:21Z</time></trkpt>
<trkpt lat="38.871722" lon="-119.983065"><ele>1945.8</ele><time>2025-05-08T01:37:27Z</time></trkpt>
<trkpt lat="38.871403" lon="-119.983274"><ele>1946.4</ele><time>2025-05-08T01:37:33Z</time></trkpt>
<trkpt lat="38.871105" lon="-119.983560"><ele>1944.8</ele><time>2025-05-08T01:37:41Z</time></trkpt>
<trkpt lat="38.870951" lon="-119.983698"><ele>1947.0</ele><time>2025-05-08T01:37:47Z</time></trkpt>
<trkpt lat="38.870755" lon="-119.983808"><ele>1948.4</ele><time>2025-05-08T01:37:58Z</time></trkpt>
<trkpt lat="38.870650" lon="-119.983920"><ele>1949.2</ele><time>2025-05-08T01:38:06Z</time></trkpt>
<trkpt lat="38.870225" lon="-119.984154"><ele>1955.4</ele><time>2025-05-08T01:38:33Z</time></trkpt>
<trkpt lat="38.870149" lon="-119.984234"><ele>1955.8</ele><time>2025-05-08T01:38:38Z</time></trkpt>
<trkpt lat="38.869916" lon="-119.984703"><ele>1959.2</ele><time>2025-05-08T01:38:58Z</time></trkpt>
<trkpt lat="38.869869" lon="-119.984971"><ele>1959.0</ele><time>2025-05-08T01:39:07Z</time></trkpt>
<trkpt lat="38.869876" lon="-119.985119"><ele>1959.6</ele><time>2025-05-08T01:39:12Z</time></trkpt>
<trkpt lat="38.869773" lon="-119.985578"><ele>1962.2</ele><time>2025-05-08T01:39:29Z</time></trkpt>
<trkpt lat="38.869676" lon="-119.985835"><ele>1963.6</ele><time>2025-05-08T01:39:39Z</time></trkpt>
<trkpt lat="38.869441" lon="-119.986690"><ele>1966.0</ele><time>2025-05-08T01:40:10Z</time></trkpt>
<trkpt lat="38.869213" lon="-119.987113"><ele>1967.4</ele><time>2025-05-08T01:40:25Z</time></trkpt>
<trkpt lat="38.869153" lon="-119.987494"><ele>1966.2</ele><time>2025-05-08T01:40:33Z</time></trkpt>
<trkpt lat="38.869093" lon="-119.988349"><ele>1969.2</ele><time>2025-05-08T01:40:48Z</time></trkpt>
<trkpt lat="38.868841" lon="-119.989197"><ele>1969.2</ele><time>2025-05-08T01:41:02Z</time></trkpt>
<trkpt lat="38.868737" lon="-119.989471"><ele>1972.2</ele><time>2025-05-08T01:41:07Z</time></trkpt>
<trkpt lat="38.868385" lon="-119.989880"><ele>1973.2</ele><time>2025-05-08T01:41:19Z</time></trkpt>
<trkpt lat="38.868139" lon="-119.990295"><ele>1973.8</ele><time>2025-05-08T01:41:29Z</time></trkpt>
<trkpt lat="38.867688" lon="-119.990688"><ele>1974.4</ele><time>2025-05-08T01:41:41Z</time></trkpt>
<trkpt lat="38.867411" lon="-119.991008"><ele>1974.0</ele><time>2025-05-08T01:41:48Z</time></trkpt>
<trkpt lat="38.866925" lon="-119.991740"><ele>1972.4</ele><time>2025-05-08T01:42:02Z</time></trkpt>
<trkpt lat="38.866507" lon="-119.992636"><ele>1973.0</ele><time>2025-05-08T01:42:18Z</time></trkpt>
<trkpt lat="38.866254" lon="-119.993003"><ele>1972.2</ele><time>2025-05-08T01:42:25Z</time></trkpt>
<trkpt lat="38.866078" lon="-119.993137"><ele>1971.4</ele><time>2025-05-08T01:42:29Z</time></trkpt>
<trkpt lat="38.865683" lon="-119.993256"><ele>1969.4</ele><time>2025-05-08T01:42:37Z</time></trkpt>
<trkpt lat="38.865421" lon="-119.993479"><ele>1973.0</ele><time>2025-05-08T01:42:44Z</time></trkpt>
<trkpt lat="38.864950" lon="-119.994068"><ele>1972.4</ele><time>2025-05-08T01:42:58Z</time></trkpt>
<trkpt lat="38.864823" lon="-119.994347"><ele>1971.4</ele><time>2025-05-08T01:43:05Z</time></trkpt>
<trkpt lat="38.864748" lon="-119.994417"><ele>1971.0</ele><time>2025-05-08T01:43:08Z</time></trkpt>
<trkpt lat="38.864724" lon="-119.994754"><ele>1969.4</ele><time>2025-05-08T01:43:17Z</time></trkpt>
<trkpt lat="38.864737" lon="-119.995033"><ele>1968.8</ele><time>2025-05-08T01:43:24Z</time></trkpt>
</trkseg></trk>
</gpx>
