<?xml version="1.0" encoding="UTF-8"?>
<gpx version="1.1" creator="Eric Sichak trip reports" xmlns="http://www.topografix.com/GPX/1/1">
<metadata><name>Kirkwood Sidecountry: Cali Chute &amp; Far Corner</name><time>2026-04-04T16:50:14Z</time></metadata>
<trk><name>Kirkwood Sidecountry: Cali Chute &amp; Far Corner</name><type>ski</type><trkseg>
<trkpt lat="38.661024" lon="-120.057546"><ele>2877.0</ele><time>2026-04-04T16:50:14Z</time></trkpt>
<trkpt lat="38.660918" lon="-120.057033"><ele>2874.2</ele><time>2026-04-04T16:51:00Z</time></trkpt>
<trkpt lat="38.660704" lon="-120.056390"><ele>2866.0</ele><time>2026-04-04T16:51:06Z</time></trkpt>
<trkpt lat="38.660670" lon="-120.056151"><ele>2864.2</ele><time>2026-04-04T16:51:08Z</time></trkpt>
<trkpt lat="38.660567" lon="-120.055751"><ele>2857.6</ele><time>2026-04-04T16:51:11Z</time></trkpt>
<trkpt lat="38.660231" lon="-120.054911"><ele>2842.2</ele><time>2026-04-04T16:51:17Z</time></trkpt>
<trkpt lat="38.659855" lon="-120.054012"><ele>2830.0</ele><time>2026-04-04T16:51:24Z</time></trkpt>
<trkpt lat="38.659688" lon="-120.053602"><ele>2827.2</ele><time>2026-04-04T16:51:29Z</time></trkpt>
<trkpt lat="38.659614" lon="-120.053359"><ele>2828.0</ele><time>2026-04-04T16:51:36Z</time></trkpt>
<trkpt lat="38.659532" lon="-120.053201"><ele>2828.6</ele><time>2026-04-04T16:51:48Z</time></trkpt>
<trkpt lat="38.659491" lon="-120.053053"><ele>2830.0</ele><time>2026-04-04T16:52:03Z</time></trkpt>
<trkpt lat="38.659493" lon="-120.052964"><ele>2829.2</ele><time>2026-04-04T16:52:21Z</time></trkpt>
<trkpt lat="38.659448" lon="-120.052891"><ele>2830.2</ele><time>2026-04-04T16:52:45Z</time></trkpt>
<trkpt lat="38.659418" lon="-120.052358"><ele>2831.4</ele><time>2026-04-04T16:53:37Z</time></trkpt>
<trkpt lat="38.659605" lon="-120.052042"><ele>2831.2</ele><time>2026-04-04T16:53:54Z</time></trkpt>
<trkpt lat="38.659668" lon="-120.051867"><ele>2829.6</ele><time>2026-04-04T16:54:06Z</time></trkpt>
<trkpt lat="38.659622" lon="-120.051755"><ele>2830.4</ele><time>2026-04-04T16:54:33Z</time></trkpt>
<trkpt lat="38.659627" lon="-120.051593"><ele>2831.8</ele><time>2026-04-04T16:54:46Z</time></trkpt>
<trkpt lat="38.659496" lon="-120.051293"><ele>2833.8</ele><time>2026-04-04T16:55:49Z</time></trkpt>
<trkpt lat="38.659398" lon="-120.050923"><ele>2832.4</ele><time>2026-04-04T16:57:17Z</time></trkpt>
<trkpt lat="38.659401" lon="-120.050933"><ele>2834.6</ele><time>2026-04-04T16:57:43Z</time></trkpt>
<trkpt lat="38.659352" lon="-120.050810"><ele>2835.6</ele><time>2026-04-04T16:58:37Z</time></trkpt>
<trkpt lat="38.659264" lon="-120.049413"><ele>2823.0</ele><time>2026-04-04T16:59:12Z</time></trkpt>
<trkpt lat="38.659208" lon="-120.048784"><ele>2821.4</ele><time>2026-04-04T16:59:27Z</time></trkpt>
<trkpt lat="38.659238" lon="-120.048594"><ele>2819.2</ele><time>2026-04-04T16:59:33Z</time></trkpt>
<trkpt lat="38.659316" lon="-120.048379"><ele>2819.8</ele><time>2026-04-04T17:00:34Z</time></trkpt>
<trkpt lat="38.659388" lon="-120.048292"><ele>2819.4</ele><time>2026-04-04T17:01:12Z</time></trkpt>
<trkpt lat="38.659454" lon="-120.048007"><ele>2818.2</ele><time>2026-04-04T17:01:25Z</time></trkpt>
<trkpt lat="38.659420" lon="-120.047672"><ele>2816.6</ele><time>2026-04-04T17:02:37Z</time></trkpt>
<trkpt lat="38.659407" lon="-120.047676"><ele>2814.6</ele><time>2026-04-04T17:03:37Z</time></trkpt>
<trkpt lat="38.659427" lon="-120.047654"><ele>2814.2</ele><time>2026-04-04T17:04:46Z</time></trkpt>
<trkpt lat="38.659406" lon="-120.047670"><ele>2813.4</ele><time>2026-04-04T17:05:15Z</time></trkpt>
<trkpt lat="38.659415" lon="-120.047576"><ele>2813.8</ele><time>2026-04-04T17:05:41Z</time></trkpt>
<trkpt lat="38.659361" lon="-120.047477"><ele>2813.2</ele><time>2026-04-04T17:06:55Z</time></trkpt>
<trkpt lat="38.659376" lon="-120.047185"><ele>2811.4</ele><time>2026-04-04T17:07:00Z</time></trkpt>
<trkpt lat="38.659309" lon="-120.046968"><ele>2805.8</ele><time>2026-04-04T17:07:04Z</time></trkpt>
<trkpt lat="38.659311" lon="-120.046777"><ele>2804.4</ele><time>2026-04-04T17:07:08Z</time></trkpt>
<trkpt lat="38.659353" lon="-120.046641"><ele>2802.2</ele><time>2026-04-04T17:07:11Z</time></trkpt>
<trkpt lat="38.659347" lon="-120.046560"><ele>2801.0</ele><time>2026-04-04T17:07:14Z</time></trkpt>
<trkpt lat="38.659444" lon="-120.046518"><ele>2800.0</ele><time>2026-04-04T17:07:18Z</time></trkpt>
<trkpt lat="38.659457" lon="-120.046483"><ele>2799.0</ele><time>2026-04-04T17:07:19Z</time></trkpt>
<trkpt lat="38.659456" lon="-120.046268"><ele>2796.4</ele><time>2026-04-04T17:07:25Z</time></trkpt>
<trkpt lat="38.659538" lon="-120.046036"><ele>2795.0</ele><time>2026-04-04T17:07:31Z</time></trkpt>
<trkpt lat="38.659609" lon="-120.045009"><ele>2786.0</ele><time>2026-04-04T17:07:48Z</time></trkpt>
<trkpt lat="38.659730" lon="-120.044615"><ele>2782.6</ele><time>2026-04-04T17:07:55Z</time></trkpt>
<trkpt lat="38.659884" lon="-120.044363"><ele>2780.8</ele><time>2026-04-04T17:08:00Z</time></trkpt>
<trkpt lat="38.659916" lon="-120.044298"><ele>2775.8</ele><time>2026-04-04T17:08:01Z</time></trkpt>
<trkpt lat="38.660017" lon="-120.044142"><ele>2773.2</ele><time>2026-04-04T17:08:04Z</time></trkpt>
<trkpt lat="38.660021" lon="-120.044120"><ele>2768.6</ele><time>2026-04-04T17:08:19Z</time></trkpt>
<trkpt lat="38.660017" lon="-120.044118"><ele>2771.0</ele><time>2026-04-04T17:08:32Z</time></trkpt>
<trkpt lat="38.660017" lon="-120.044118"><ele>2768.2</ele><time>2026-04-04T17:08:37Z</time></trkpt>
<trkpt lat="38.660018" lon="-120.044099"><ele>2770.6</ele><time>2026-04-04T17:09:21Z</time></trkpt>
<trkpt lat="38.660018" lon="-120.044099"><ele>2768.4</ele><time>2026-04-04T17:09:36Z</time></trkpt>
<trkpt lat="38.660068" lon="-120.043837"><ele>2769.4</ele><time>2026-04-04T17:09:52Z</time></trkpt>
<trkpt lat="38.660158" lon="-120.043688"><ele>2766.4</ele><time>2026-04-04T17:09:54Z</time></trkpt>
<trkpt lat="38.660192" lon="-120.043569"><ele>2765.2</ele><time>2026-04-04T17:09:56Z</time></trkpt>
<trkpt lat="38.660264" lon="-120.043319"><ele>2757.8</ele><time>2026-04-04T17:10:01Z</time></trkpt>
<trkpt lat="38.660314" lon="-120.043303"><ele>2751.0</ele><time>2026-04-04T17:10:12Z</time></trkpt>
<trkpt lat="38.660356" lon="-120.043261"><ele>2750.2</ele><time>2026-04-04T17:10:20Z</time></trkpt>
<trkpt lat="38.660331" lon="-120.043178"><ele>2748.4</ele><time>2026-04-04T17:10:24Z</time></trkpt>
<trkpt lat="38.660395" lon="-120.043107"><ele>2744.2</ele><time>2026-04-04T17:10:26Z</time></trkpt>
<trkpt lat="38.660397" lon="-120.043067"><ele>2740.6</ele><time>2026-04-04T17:10:28Z</time></trkpt>
<trkpt lat="38.660395" lon="-120.043080"><ele>2736.2</ele><time>2026-04-04T17:10:32Z</time></trkpt>
<trkpt lat="38.660411" lon="-120.042944"><ele>2734.8</ele><time>2026-04-04T17:10:38Z</time></trkpt>
<trkpt lat="38.660395" lon="-120.042925"><ele>2729.6</ele><time>2026-04-04T17:10:41Z</time></trkpt>
<trkpt lat="38.660499" lon="-120.042803"><ele>2723.0</ele><time>2026-04-04T17:10:46Z</time></trkpt>
<trkpt lat="38.660477" lon="-120.042699"><ele>2718.8</ele><time>2026-04-04T17:10:49Z</time></trkpt>
<trkpt lat="38.660382" lon="-120.042650"><ele>2710.8</ele><time>2026-04-04T17:10:53Z</time></trkpt>
<trkpt lat="38.660445" lon="-120.042533"><ele>2707.2</ele><time>2026-04-04T17:10:56Z</time></trkpt>
<trkpt lat="38.660413" lon="-120.042456"><ele>2702.8</ele><time>2026-04-04T17:10:58Z</time></trkpt>
<trkpt lat="38.660534" lon="-120.042437"><ele>2694.2</ele><time>2026-04-04T17:11:52Z</time></trkpt>
<trkpt lat="38.660518" lon="-120.042480"><ele>2695.2</ele><time>2026-04-04T17:12:09Z</time></trkpt>
<trkpt lat="38.660512" lon="-120.042441"><ele>2696.0</ele><time>2026-04-04T17:12:16Z</time></trkpt>
<trkpt lat="38.660524" lon="-120.042453"><ele>2693.0</ele><time>2026-04-04T17:12:26Z</time></trkpt>
<trkpt lat="38.660506" lon="-120.042403"><ele>2697.0</ele><time>2026-04-04T17:12:53Z</time></trkpt>
<trkpt lat="38.660494" lon="-120.042438"><ele>2694.0</ele><time>2026-04-04T17:13:11Z</time></trkpt>
<trkpt lat="38.660508" lon="-120.042420"><ele>2692.4</ele><time>2026-04-04T17:13:55Z</time></trkpt>
<trkpt lat="38.660502" lon="-120.042429"><ele>2694.6</ele><time>2026-04-04T17:14:14Z</time></trkpt>
<trkpt lat="38.660516" lon="-120.042353"><ele>2694.6</ele><time>2026-04-04T17:14:17Z</time></trkpt>
<trkpt lat="38.660519" lon="-120.042282"><ele>2691.2</ele><time>2026-04-04T17:14:18Z</time></trkpt>
<trkpt lat="38.660460" lon="-120.042201"><ele>2684.2</ele><time>2026-04-04T17:14:20Z</time></trkpt>
<trkpt lat="38.660446" lon="-120.042054"><ele>2677.4</ele><time>2026-04-04T17:14:22Z</time></trkpt>
<trkpt lat="38.660467" lon="-120.041970"><ele>2674.0</ele><time>2026-04-04T17:14:23Z</time></trkpt>
<trkpt lat="38.660400" lon="-120.041891"><ele>2667.8</ele><time>2026-04-04T17:14:27Z</time></trkpt>
<trkpt lat="38.660421" lon="-120.041816"><ele>2663.2</ele><time>2026-04-04T17:14:30Z</time></trkpt>
<trkpt lat="38.660447" lon="-120.041859"><ele>2659.6</ele><time>2026-04-04T17:14:48Z</time></trkpt>
<trkpt lat="38.660447" lon="-120.041820"><ele>2659.2</ele><time>2026-04-04T17:15:10Z</time></trkpt>
<trkpt lat="38.660392" lon="-120.041785"><ele>2658.6</ele><time>2026-04-04T17:15:13Z</time></trkpt>
<trkpt lat="38.660400" lon="-120.041757"><ele>2655.6</ele><time>2026-04-04T17:15:22Z</time></trkpt>
<trkpt lat="38.660367" lon="-120.041646"><ele>2653.4</ele><time>2026-04-04T17:15:26Z</time></trkpt>
<trkpt lat="38.660426" lon="-120.041490"><ele>2646.6</ele><time>2026-04-04T17:15:31Z</time></trkpt>
<trkpt lat="38.660211" lon="-120.041290"><ele>2641.0</ele><time>2026-04-04T17:15:36Z</time></trkpt>
<trkpt lat="38.660149" lon="-120.041079"><ele>2637.0</ele><time>2026-04-04T17:15:38Z</time></trkpt>
<trkpt lat="38.660174" lon="-120.040952"><ele>2634.8</ele><time>2026-04-04T17:15:39Z</time></trkpt>
<trkpt lat="38.660103" lon="-120.040555"><ele>2629.2</ele><time>2026-04-04T17:15:43Z</time></trkpt>
<trkpt lat="38.660161" lon="-120.040355"><ele>2626.6</ele><time>2026-04-04T17:15:45Z</time></trkpt>
<trkpt lat="38.660279" lon="-120.040164"><ele>2623.8</ele><time>2026-04-04T17:15:47Z</time></trkpt>
<trkpt lat="38.660340" lon="-120.040115"><ele>2622.8</ele><time>2026-04-04T17:15:48Z</time></trkpt>
<trkpt lat="38.660451" lon="-120.040125"><ele>2622.0</ele><time>2026-04-04T17:15:50Z</time></trkpt>
<trkpt lat="38.660773" lon="-120.039858"><ele>2620.6</ele><time>2026-04-04T17:15:58Z</time></trkpt>
<trkpt lat="38.661131" lon="-120.039702"><ele>2620.4</ele><time>2026-04-04T17:16:09Z</time></trkpt>
<trkpt lat="38.661155" lon="-120.039707"><ele>2619.0</ele><time>2026-04-04T17:16:31Z</time></trkpt>
<trkpt lat="38.661139" lon="-120.039728"><ele>2620.0</ele><time>2026-04-04T17:16:47Z</time></trkpt>
<trkpt lat="38.661157" lon="-120.039762"><ele>2618.4</ele><time>2026-04-04T17:17:22Z</time></trkpt>
<trkpt lat="38.661131" lon="-120.039726"><ele>2618.8</ele><time>2026-04-04T17:17:50Z</time></trkpt>
<trkpt lat="38.661239" lon="-120.039695"><ele>2618.0</ele><time>2026-04-04T17:18:42Z</time></trkpt>
<trkpt lat="38.661220" lon="-120.039676"><ele>2618.2</ele><time>2026-04-04T17:18:49Z</time></trkpt>
<trkpt lat="38.661338" lon="-120.039568"><ele>2618.4</ele><time>2026-04-04T17:19:23Z</time></trkpt>
<trkpt lat="38.661319" lon="-120.039586"><ele>2619.0</ele><time>2026-04-04T17:19:27Z</time></trkpt>
<trkpt lat="38.661666" lon="-120.039540"><ele>2618.8</ele><time>2026-04-04T17:20:08Z</time></trkpt>
<trkpt lat="38.661940" lon="-120.039649"><ele>2617.4</ele><time>2026-04-04T17:21:23Z</time></trkpt>
<trkpt lat="38.661995" lon="-120.039639"><ele>2618.0</ele><time>2026-04-04T17:21:43Z</time></trkpt>
<trkpt lat="38.662104" lon="-120.039755"><ele>2618.8</ele><time>2026-04-04T17:22:34Z</time></trkpt>
<trkpt lat="38.662298" lon="-120.039860"><ele>2619.4</ele><time>2026-04-04T17:23:11Z</time></trkpt>
<trkpt lat="38.662342" lon="-120.039922"><ele>2619.4</ele><time>2026-04-04T17:23:22Z</time></trkpt>
<trkpt lat="38.662400" lon="-120.039916"><ele>2619.2</ele><time>2026-04-04T17:23:51Z</time></trkpt>
<trkpt lat="38.662701" lon="-120.040180"><ele>2619.0</ele><time>2026-04-04T17:24:58Z</time></trkpt>
<trkpt lat="38.662789" lon="-120.040184"><ele>2619.4</ele><time>2026-04-04T17:25:05Z</time></trkpt>
<trkpt lat="38.663026" lon="-120.040307"><ele>2618.0</ele><time>2026-04-04T17:25:21Z</time></trkpt>
<trkpt lat="38.663100" lon="-120.040289"><ele>2618.2</ele><time>2026-04-04T17:25:26Z</time></trkpt>
<trkpt lat="38.663165" lon="-120.040340"><ele>2618.8</ele><time>2026-04-04T17:26:09Z</time></trkpt>
<trkpt lat="38.663131" lon="-120.040346"><ele>2619.8</ele><time>2026-04-04T17:27:20Z</time></trkpt>
<trkpt lat="38.663157" lon="-120.040317"><ele>2618.8</ele><time>2026-04-04T17:27:40Z</time></trkpt>
<trkpt lat="38.663136" lon="-120.040332"><ele>2618.2</ele><time>2026-04-04T17:28:19Z</time></trkpt>
<trkpt lat="38.663152" lon="-120.040334"><ele>2619.2</ele><time>2026-04-04T17:28:51Z</time></trkpt>
<trkpt lat="38.663146" lon="-120.040395"><ele>2618.0</ele><time>2026-04-04T17:29:58Z</time></trkpt>
<trkpt lat="38.663146" lon="-120.040351"><ele>2617.0</ele><time>2026-04-04T17:30:08Z</time></trkpt>
<trkpt lat="38.663291" lon="-120.040624"><ele>2616.4</ele><time>2026-04-04T17:30:54Z</time></trkpt>
<trkpt lat="38.663435" lon="-120.040739"><ele>2617.0</ele><time>2026-04-04T17:31:04Z</time></trkpt>
<trkpt lat="38.663592" lon="-120.040932"><ele>2618.0</ele><time>2026-04-04T17:31:25Z</time></trkpt>
<trkpt lat="38.663703" lon="-120.040962"><ele>2618.8</ele><time>2026-04-04T17:31:35Z</time></trkpt>
<trkpt lat="38.664098" lon="-120.040971"><ele>2618.2</ele><time>2026-04-04T17:32:11Z</time></trkpt>
<trkpt lat="38.664365" lon="-120.041140"><ele>2618.2</ele><time>2026-04-04T17:32:45Z</time></trkpt>
<trkpt lat="38.664432" lon="-120.041123"><ele>2619.2</ele><time>2026-04-04T17:32:59Z</time></trkpt>
<trkpt lat="38.664620" lon="-120.041174"><ele>2618.8</ele><time>2026-04-04T17:33:10Z</time></trkpt>
<trkpt lat="38.664699" lon="-120.041142"><ele>2619.6</ele><time>2026-04-04T17:33:20Z</time></trkpt>
<trkpt lat="38.664788" lon="-120.041287"><ele>2621.2</ele><time>2026-04-04T17:33:47Z</time></trkpt>
<trkpt lat="38.664786" lon="-120.041410"><ele>2622.4</ele><time>2026-04-04T17:34:07Z</time></trkpt>
<trkpt lat="38.664990" lon="-120.041485"><ele>2623.6</ele><time>2026-04-04T17:34:36Z</time></trkpt>
<trkpt lat="38.665015" lon="-120.041557"><ele>2622.8</ele><time>2026-04-04T17:34:43Z</time></trkpt>
<trkpt lat="38.665116" lon="-120.041629"><ele>2623.4</ele><time>2026-04-04T17:34:56Z</time></trkpt>
<trkpt lat="38.665231" lon="-120.041661"><ele>2623.4</ele><time>2026-04-04T17:35:07Z</time></trkpt>
<trkpt lat="38.665520" lon="-120.041658"><ele>2621.8</ele><time>2026-04-04T17:35:21Z</time></trkpt>
<trkpt lat="38.665828" lon="-120.041744"><ele>2618.6</ele><time>2026-04-04T17:35:32Z</time></trkpt>
<trkpt lat="38.665917" lon="-120.041806"><ele>2618.6</ele><time>2026-04-04T17:35:41Z</time></trkpt>
<trkpt lat="38.665901" lon="-120.041798"><ele>2617.2</ele><time>2026-04-04T17:35:59Z</time></trkpt>
<trkpt lat="38.665935" lon="-120.041837"><ele>2614.4</ele><time>2026-04-04T17:36:24Z</time></trkpt>
<trkpt lat="38.665928" lon="-120.041811"><ele>2610.2</ele><time>2026-04-04T17:37:22Z</time></trkpt>
<trkpt lat="38.665899" lon="-120.041827"><ele>2608.4</ele><time>2026-04-04T17:37:53Z</time></trkpt>
<trkpt lat="38.665936" lon="-120.041787"><ele>2608.2</ele><time>2026-04-04T17:38:09Z</time></trkpt>
<trkpt lat="38.665936" lon="-120.041847"><ele>2607.6</ele><time>2026-04-04T17:38:19Z</time></trkpt>
<trkpt lat="38.665904" lon="-120.041820"><ele>2607.2</ele><time>2026-04-04T17:38:51Z</time></trkpt>
<trkpt lat="38.665918" lon="-120.041795"><ele>2607.8</ele><time>2026-04-04T17:38:56Z</time></trkpt>
<trkpt lat="38.666259" lon="-120.041713"><ele>2605.4</ele><time>2026-04-04T17:39:04Z</time></trkpt>
<trkpt lat="38.666379" lon="-120.041775"><ele>2606.4</ele><time>2026-04-04T17:39:10Z</time></trkpt>
<trkpt lat="38.666576" lon="-120.041753"><ele>2604.8</ele><time>2026-04-04T17:39:18Z</time></trkpt>
<trkpt lat="38.666665" lon="-120.041794"><ele>2605.4</ele><time>2026-04-04T17:39:27Z</time></trkpt>
<trkpt lat="38.666850" lon="-120.041770"><ele>2606.8</ele><time>2026-04-04T17:39:52Z</time></trkpt>
<trkpt lat="38.667001" lon="-120.041671"><ele>2607.0</ele><time>2026-04-04T17:40:13Z</time></trkpt>
<trkpt lat="38.667095" lon="-120.041744"><ele>2607.4</ele><time>2026-04-04T17:40:20Z</time></trkpt>
<trkpt lat="38.667216" lon="-120.041777"><ele>2608.0</ele><time>2026-04-04T17:40:31Z</time></trkpt>
<trkpt lat="38.667422" lon="-120.041639"><ele>2608.2</ele><time>2026-04-04T17:40:52Z</time></trkpt>
<trkpt lat="38.667549" lon="-120.041597"><ele>2608.8</ele><time>2026-04-04T17:41:12Z</time></trkpt>
<trkpt lat="38.668003" lon="-120.041752"><ele>2607.2</ele><time>2026-04-04T17:42:12Z</time></trkpt>
<trkpt lat="38.668063" lon="-120.041811"><ele>2606.8</ele><time>2026-04-04T17:42:16Z</time></trkpt>
<trkpt lat="38.668063" lon="-120.041843"><ele>2608.2</ele><time>2026-04-04T17:42:38Z</time></trkpt>
<trkpt lat="38.668057" lon="-120.041823"><ele>2611.2</ele><time>2026-04-04T17:43:26Z</time></trkpt>
<trkpt lat="38.668080" lon="-120.041811"><ele>2608.4</ele><time>2026-04-04T17:44:07Z</time></trkpt>
<trkpt lat="38.668046" lon="-120.041825"><ele>2607.0</ele><time>2026-04-04T17:45:27Z</time></trkpt>
<trkpt lat="38.668068" lon="-120.041807"><ele>2607.4</ele><time>2026-04-04T17:45:54Z</time></trkpt>
<trkpt lat="38.668067" lon="-120.041835"><ele>2607.2</ele><time>2026-04-04T17:46:03Z</time></trkpt>
<trkpt lat="38.668055" lon="-120.041792"><ele>2606.4</ele><time>2026-04-04T17:46:21Z</time></trkpt>
<trkpt lat="38.668074" lon="-120.041819"><ele>2607.4</ele><time>2026-04-04T17:46:39Z</time></trkpt>
<trkpt lat="38.668052" lon="-120.041837"><ele>2607.0</ele><time>2026-04-04T17:48:14Z</time></trkpt>
<trkpt lat="38.668098" lon="-120.041790"><ele>2605.6</ele><time>2026-04-04T17:48:25Z</time></trkpt>
<trkpt lat="38.668172" lon="-120.041802"><ele>2604.0</ele><time>2026-04-04T17:48:27Z</time></trkpt>
<trkpt lat="38.668363" lon="-120.041852"><ele>2600.2</ele><time>2026-04-04T17:48:30Z</time></trkpt>
<trkpt lat="38.668477" lon="-120.041943"><ele>2597.8</ele><time>2026-04-04T17:48:32Z</time></trkpt>
<trkpt lat="38.668536" lon="-120.041915"><ele>2596.2</ele><time>2026-04-04T17:48:35Z</time></trkpt>
<trkpt lat="38.668527" lon="-120.041771"><ele>2591.8</ele><time>2026-04-04T17:48:38Z</time></trkpt>
<trkpt lat="38.668566" lon="-120.041727"><ele>2590.4</ele><time>2026-04-04T17:48:39Z</time></trkpt>
<trkpt lat="38.668672" lon="-120.041719"><ele>2587.8</ele><time>2026-04-04T17:48:41Z</time></trkpt>
<trkpt lat="38.668746" lon="-120.041757"><ele>2586.8</ele><time>2026-04-04T17:48:43Z</time></trkpt>
<trkpt lat="38.668792" lon="-120.041829"><ele>2586.8</ele><time>2026-04-04T17:48:47Z</time></trkpt>
<trkpt lat="38.668851" lon="-120.041822"><ele>2586.2</ele><time>2026-04-04T17:48:51Z</time></trkpt>
<trkpt lat="38.668969" lon="-120.041909"><ele>2583.6</ele><time>2026-04-04T17:48:55Z</time></trkpt>
<trkpt lat="38.668966" lon="-120.041887"><ele>2582.6</ele><time>2026-04-04T17:48:58Z</time></trkpt>
<trkpt lat="38.668994" lon="-120.042025"><ele>2580.8</ele><time>2026-04-04T17:49:02Z</time></trkpt>
<trkpt lat="38.669087" lon="-120.042086"><ele>2578.0</ele><time>2026-04-04T17:49:07Z</time></trkpt>
<trkpt lat="38.669109" lon="-120.042191"><ele>2577.0</ele><time>2026-04-04T17:49:32Z</time></trkpt>
<trkpt lat="38.669181" lon="-120.042317"><ele>2575.8</ele><time>2026-04-04T17:49:35Z</time></trkpt>
<trkpt lat="38.669347" lon="-120.042398"><ele>2573.0</ele><time>2026-04-04T17:49:39Z</time></trkpt>
<trkpt lat="38.669589" lon="-120.042645"><ele>2569.0</ele><time>2026-04-04T17:50:24Z</time></trkpt>
<trkpt lat="38.669636" lon="-120.042655"><ele>2568.2</ele><time>2026-04-04T17:50:25Z</time></trkpt>
<trkpt lat="38.669661" lon="-120.042635"><ele>2565.2</ele><time>2026-04-04T17:50:39Z</time></trkpt>
<trkpt lat="38.669642" lon="-120.042673"><ele>2564.8</ele><time>2026-04-04T17:50:49Z</time></trkpt>
<trkpt lat="38.669638" lon="-120.042633"><ele>2564.8</ele><time>2026-04-04T17:51:14Z</time></trkpt>
<trkpt lat="38.669693" lon="-120.042624"><ele>2563.2</ele><time>2026-04-04T17:51:44Z</time></trkpt>
<trkpt lat="38.669755" lon="-120.042699"><ele>2560.6</ele><time>2026-04-04T17:51:51Z</time></trkpt>
<trkpt lat="38.669688" lon="-120.042506"><ele>2556.2</ele><time>2026-04-04T17:52:08Z</time></trkpt>
<trkpt lat="38.669787" lon="-120.042430"><ele>2555.2</ele><time>2026-04-04T17:52:14Z</time></trkpt>
<trkpt lat="38.670005" lon="-120.042508"><ele>2551.6</ele><time>2026-04-04T17:52:33Z</time></trkpt>
<trkpt lat="38.670029" lon="-120.042583"><ele>2549.8</ele><time>2026-04-04T17:53:16Z</time></trkpt>
<trkpt lat="38.670052" lon="-120.042559"><ele>2548.0</ele><time>2026-04-04T17:53:52Z</time></trkpt>
<trkpt lat="38.670055" lon="-120.042582"><ele>2548.2</ele><time>2026-04-04T17:53:56Z</time></trkpt>
<trkpt lat="38.670024" lon="-120.042547"><ele>2548.0</ele><time>2026-04-04T17:54:09Z</time></trkpt>
<trkpt lat="38.670026" lon="-120.042624"><ele>2545.8</ele><time>2026-04-04T17:54:52Z</time></trkpt>
<trkpt lat="38.669972" lon="-120.042796"><ele>2544.6</ele><time>2026-04-04T17:54:55Z</time></trkpt>
<trkpt lat="38.670007" lon="-120.042775"><ele>2543.4</ele><time>2026-04-04T17:54:58Z</time></trkpt>
<trkpt lat="38.670060" lon="-120.042838"><ele>2542.6</ele><time>2026-04-04T17:55:00Z</time></trkpt>
<trkpt lat="38.670209" lon="-120.042837"><ele>2535.8</ele><time>2026-04-04T17:55:10Z</time></trkpt>
<trkpt lat="38.670222" lon="-120.042865"><ele>2535.6</ele><time>2026-04-04T17:55:20Z</time></trkpt>
<trkpt lat="38.670414" lon="-120.042772"><ele>2533.0</ele><time>2026-04-04T17:55:27Z</time></trkpt>
<trkpt lat="38.670372" lon="-120.043020"><ele>2530.2</ele><time>2026-04-04T17:55:33Z</time></trkpt>
<trkpt lat="38.670375" lon="-120.043124"><ele>2526.2</ele><time>2026-04-04T17:55:42Z</time></trkpt>
<trkpt lat="38.670420" lon="-120.043102"><ele>2525.2</ele><time>2026-04-04T17:56:06Z</time></trkpt>
<trkpt lat="38.670392" lon="-120.043062"><ele>2525.2</ele><time>2026-04-04T17:56:24Z</time></trkpt>
<trkpt lat="38.670364" lon="-120.043074"><ele>2524.6</ele><time>2026-04-04T17:56:35Z</time></trkpt>
<trkpt lat="38.670537" lon="-120.043233"><ele>2523.0</ele><time>2026-04-04T17:56:47Z</time></trkpt>
<trkpt lat="38.670532" lon="-120.043395"><ele>2522.6</ele><time>2026-04-04T17:56:53Z</time></trkpt>
<trkpt lat="38.670608" lon="-120.043822"><ele>2522.6</ele><time>2026-04-04T17:57:14Z</time></trkpt>
<trkpt lat="38.670755" lon="-120.044171"><ele>2522.0</ele><time>2026-04-04T17:57:37Z</time></trkpt>
<trkpt lat="38.670737" lon="-120.044309"><ele>2523.8</ele><time>2026-04-04T17:58:04Z</time></trkpt>
<trkpt lat="38.670756" lon="-120.044368"><ele>2524.2</ele><time>2026-04-04T17:58:26Z</time></trkpt>
<trkpt lat="38.670734" lon="-120.044367"><ele>2523.8</ele><time>2026-04-04T17:58:34Z</time></trkpt>
<trkpt lat="38.670753" lon="-120.044325"><ele>2523.0</ele><time>2026-04-04T17:58:50Z</time></trkpt>
<trkpt lat="38.670776" lon="-120.044417"><ele>2522.6</ele><time>2026-04-04T17:59:04Z</time></trkpt>
<trkpt lat="38.670631" lon="-120.044571"><ele>2525.2</ele><time>2026-04-04T18:00:04Z</time></trkpt>
<trkpt lat="38.670614" lon="-120.044662"><ele>2525.6</ele><time>2026-04-04T18:00:09Z</time></trkpt>
<trkpt lat="38.670675" lon="-120.044929"><ele>2529.2</ele><time>2026-04-04T18:00:44Z</time></trkpt>
<trkpt lat="38.670637" lon="-120.044948"><ele>2529.0</ele><time>2026-04-04T18:00:54Z</time></trkpt>
<trkpt lat="38.670605" lon="-120.044857"><ele>2529.0</ele><time>2026-04-04T18:01:38Z</time></trkpt>
<trkpt lat="38.670563" lon="-120.044838"><ele>2528.4</ele><time>2026-04-04T18:01:50Z</time></trkpt>
<trkpt lat="38.670581" lon="-120.044813"><ele>2526.8</ele><time>2026-04-04T18:02:19Z</time></trkpt>
<trkpt lat="38.670559" lon="-120.044825"><ele>2526.4</ele><time>2026-04-04T18:02:35Z</time></trkpt>
<trkpt lat="38.661046" lon="-120.057611"><ele>2880.4</ele><time>2026-04-04T18:19:42Z</time></trkpt>
<trkpt lat="38.661034" lon="-120.057613"><ele>2882.8</ele><time>2026-04-04T18:19:50Z</time></trkpt>
<trkpt lat="38.661061" lon="-120.057599"><ele>2881.6</ele><time>2026-04-04T18:20:09Z</time></trkpt>
<trkpt lat="38.661043" lon="-120.057498"><ele>2881.6</ele><time>2026-04-04T18:20:14Z</time></trkpt>
<trkpt lat="38.660918" lon="-120.057123"><ele>2876.2</ele><time>2026-04-04T18:20:19Z</time></trkpt>
<trkpt lat="38.660729" lon="-120.056250"><ele>2869.8</ele><time>2026-04-04T18:20:27Z</time></trkpt>
<trkpt lat="38.660515" lon="-120.055645"><ele>2844.8</ele><time>2026-04-04T18:20:32Z</time></trkpt>
<trkpt lat="38.660341" lon="-120.055238"><ele>2835.6</ele><time>2026-04-04T18:20:35Z</time></trkpt>
<trkpt lat="38.659803" lon="-120.053926"><ele>2828.6</ele><time>2026-04-04T18:20:45Z</time></trkpt>
<trkpt lat="38.659473" lon="-120.053009"><ele>2834.8</ele><time>2026-04-04T18:22:04Z</time></trkpt>
<trkpt lat="38.659410" lon="-120.052384"><ele>2837.6</ele><time>2026-04-04T18:22:54Z</time></trkpt>
<trkpt lat="38.659560" lon="-120.051956"><ele>2838.2</ele><time>2026-04-04T18:23:29Z</time></trkpt>
<trkpt lat="38.659588" lon="-120.051574"><ele>2838.4</ele><time>2026-04-04T18:23:45Z</time></trkpt>
<trkpt lat="38.659537" lon="-120.051279"><ele>2838.4</ele><time>2026-04-04T18:24:07Z</time></trkpt>
<trkpt lat="38.659420" lon="-120.050932"><ele>2838.8</ele><time>2026-04-04T18:25:04Z</time></trkpt>
<trkpt lat="38.659428" lon="-120.050648"><ele>2837.0</ele><time>2026-04-04T18:25:09Z</time></trkpt>
<trkpt lat="38.659415" lon="-120.050466"><ele>2830.8</ele><time>2026-04-04T18:25:11Z</time></trkpt>
<trkpt lat="38.659379" lon="-120.049969"><ele>2827.2</ele><time>2026-04-04T18:25:19Z</time></trkpt>
<trkpt lat="38.659373" lon="-120.049794"><ele>2823.2</ele><time>2026-04-04T18:25:22Z</time></trkpt>
<trkpt lat="38.659366" lon="-120.049094"><ele>2820.6</ele><time>2026-04-04T18:25:36Z</time></trkpt>
<trkpt lat="38.659375" lon="-120.048865"><ele>2822.6</ele><time>2026-04-04T18:25:59Z</time></trkpt>
<trkpt lat="38.659367" lon="-120.048837"><ele>2820.4</ele><time>2026-04-04T18:26:48Z</time></trkpt>
<trkpt lat="38.659385" lon="-120.048852"><ele>2821.6</ele><time>2026-04-04T18:28:52Z</time></trkpt>
<trkpt lat="38.659367" lon="-120.048830"><ele>2820.2</ele><time>2026-04-04T18:29:14Z</time></trkpt>
<trkpt lat="38.659361" lon="-120.048856"><ele>2820.8</ele><time>2026-04-04T18:29:34Z</time></trkpt>
<trkpt lat="38.659379" lon="-120.048848"><ele>2820.0</ele><time>2026-04-04T18:30:14Z</time></trkpt>
<trkpt lat="38.659333" lon="-120.048771"><ele>2820.8</ele><time>2026-04-04T18:31:48Z</time></trkpt>
<trkpt lat="38.659333" lon="-120.048771"><ele>2823.0</ele><time>2026-04-04T18:32:10Z</time></trkpt>
<trkpt lat="38.659410" lon="-120.048619"><ele>2822.8</ele><time>2026-04-04T18:33:54Z</time></trkpt>
<trkpt lat="38.659361" lon="-120.048599"><ele>2823.4</ele><time>2026-04-04T18:34:37Z</time></trkpt>
<trkpt lat="38.659363" lon="-120.048622"><ele>2822.2</ele><time>2026-04-04T18:36:05Z</time></trkpt>
<trkpt lat="38.659261" lon="-120.048530"><ele>2821.8</ele><time>2026-04-04T18:36:30Z</time></trkpt>
<trkpt lat="38.659118" lon="-120.048252"><ele>2826.0</ele><time>2026-04-04T18:37:19Z</time></trkpt>
<trkpt lat="38.658952" lon="-120.048011"><ele>2831.0</ele><time>2026-04-04T18:37:53Z</time></trkpt>
<trkpt lat="38.658802" lon="-120.047855"><ele>2836.0</ele><time>2026-04-04T18:38:24Z</time></trkpt>
<trkpt lat="38.657978" lon="-120.046656"><ele>2859.4</ele><time>2026-04-04T18:41:19Z</time></trkpt>
<trkpt lat="38.657880" lon="-120.046402"><ele>2859.4</ele><time>2026-04-04T18:41:38Z</time></trkpt>
<trkpt lat="38.657795" lon="-120.046360"><ele>2858.0</ele><time>2026-04-04T18:41:45Z</time></trkpt>
<trkpt lat="38.657717" lon="-120.046207"><ele>2857.4</ele><time>2026-04-04T18:41:55Z</time></trkpt>
<trkpt lat="38.657574" lon="-120.046052"><ele>2856.4</ele><time>2026-04-04T18:42:10Z</time></trkpt>
<trkpt lat="38.657317" lon="-120.045668"><ele>2860.2</ele><time>2026-04-04T18:42:52Z</time></trkpt>
<trkpt lat="38.657260" lon="-120.045497"><ele>2862.0</ele><time>2026-04-04T18:43:07Z</time></trkpt>
<trkpt lat="38.657150" lon="-120.045309"><ele>2863.8</ele><time>2026-04-04T18:43:25Z</time></trkpt>
<trkpt lat="38.657087" lon="-120.045259"><ele>2862.4</ele><time>2026-04-04T18:43:45Z</time></trkpt>
<trkpt lat="38.656963" lon="-120.045109"><ele>2866.6</ele><time>2026-04-04T18:44:07Z</time></trkpt>
<trkpt lat="38.656666" lon="-120.044675"><ele>2868.6</ele><time>2026-04-04T18:44:56Z</time></trkpt>
<trkpt lat="38.656486" lon="-120.044503"><ele>2868.6</ele><time>2026-04-04T18:45:40Z</time></trkpt>
<trkpt lat="38.656206" lon="-120.044284"><ele>2873.8</ele><time>2026-04-04T18:46:21Z</time></trkpt>
<trkpt lat="38.655739" lon="-120.043729"><ele>2872.4</ele><time>2026-04-04T18:47:17Z</time></trkpt>
<trkpt lat="38.655285" lon="-120.043154"><ele>2884.6</ele><time>2026-04-04T18:48:44Z</time></trkpt>
<trkpt lat="38.655253" lon="-120.043114"><ele>2882.6</ele><time>2026-04-04T18:49:00Z</time></trkpt>
<trkpt lat="38.655251" lon="-120.043131"><ele>2876.0</ele><time>2026-04-04T18:49:33Z</time></trkpt>
<trkpt lat="38.655254" lon="-120.043135"><ele>2881.2</ele><time>2026-04-04T18:49:41Z</time></trkpt>
<trkpt lat="38.655251" lon="-120.043116"><ele>2883.8</ele><time>2026-04-04T18:50:31Z</time></trkpt>
<trkpt lat="38.655240" lon="-120.043093"><ele>2882.4</ele><time>2026-04-04T18:50:47Z</time></trkpt>
<trkpt lat="38.655254" lon="-120.043106"><ele>2885.8</ele><time>2026-04-04T18:51:01Z</time></trkpt>
<trkpt lat="38.655254" lon="-120.043106"><ele>2881.6</ele><time>2026-04-04T18:51:24Z</time></trkpt>
<trkpt lat="38.655254" lon="-120.043106"><ele>2886.8</ele><time>2026-04-04T18:51:41Z</time></trkpt>
<trkpt lat="38.655254" lon="-120.043106"><ele>2881.8</ele><time>2026-04-04T18:52:28Z</time></trkpt>
<trkpt lat="38.655217" lon="-120.043071"><ele>2885.4</ele><time>2026-04-04T18:52:54Z</time></trkpt>
<trkpt lat="38.654899" lon="-120.042684"><ele>2890.2</ele><time>2026-04-04T18:53:39Z</time></trkpt>
<trkpt lat="38.654786" lon="-120.042554"><ele>2888.0</ele><time>2026-04-04T18:53:57Z</time></trkpt>
<trkpt lat="38.654505" lon="-120.042189"><ele>2892.2</ele><time>2026-04-04T18:54:37Z</time></trkpt>
<trkpt lat="38.654349" lon="-120.042117"><ele>2895.6</ele><time>2026-04-04T18:55:00Z</time></trkpt>
<trkpt lat="38.654185" lon="-120.041968"><ele>2900.8</ele><time>2026-04-04T18:55:30Z</time></trkpt>
<trkpt lat="38.654126" lon="-120.041756"><ele>2903.8</ele><time>2026-04-04T18:55:54Z</time></trkpt>
<trkpt lat="38.654029" lon="-120.041610"><ele>2905.4</ele><time>2026-04-04T18:56:11Z</time></trkpt>
<trkpt lat="38.653866" lon="-120.041443"><ele>2908.2</ele><time>2026-04-04T18:56:38Z</time></trkpt>
<trkpt lat="38.653716" lon="-120.041242"><ele>2913.8</ele><time>2026-04-04T18:57:22Z</time></trkpt>
<trkpt lat="38.653648" lon="-120.041252"><ele>2916.2</ele><time>2026-04-04T18:57:33Z</time></trkpt>
<trkpt lat="38.653439" lon="-120.040897"><ele>2925.0</ele><time>2026-04-04T18:58:42Z</time></trkpt>
<trkpt lat="38.653260" lon="-120.040724"><ele>2930.6</ele><time>2026-04-04T18:59:21Z</time></trkpt>
<trkpt lat="38.653105" lon="-120.040656"><ele>2935.2</ele><time>2026-04-04T18:59:48Z</time></trkpt>
<trkpt lat="38.653008" lon="-120.040544"><ele>2937.4</ele><time>2026-04-04T19:00:52Z</time></trkpt>
<trkpt lat="38.652986" lon="-120.040565"><ele>2938.0</ele><time>2026-04-04T19:00:59Z</time></trkpt>
<trkpt lat="38.652960" lon="-120.040463"><ele>2938.6</ele><time>2026-04-04T19:01:13Z</time></trkpt>
<trkpt lat="38.652776" lon="-120.040103"><ele>2951.0</ele><time>2026-04-04T19:02:17Z</time></trkpt>
<trkpt lat="38.652710" lon="-120.039910"><ele>2955.4</ele><time>2026-04-04T19:02:59Z</time></trkpt>
<trkpt lat="38.652685" lon="-120.039899"><ele>2956.2</ele><time>2026-04-04T19:03:06Z</time></trkpt>
<trkpt lat="38.652637" lon="-120.040029"><ele>2959.0</ele><time>2026-04-04T19:03:25Z</time></trkpt>
<trkpt lat="38.652542" lon="-120.039897"><ele>2964.4</ele><time>2026-04-04T19:04:11Z</time></trkpt>
<trkpt lat="38.652540" lon="-120.039891"><ele>2962.2</ele><time>2026-04-04T19:04:28Z</time></trkpt>
<trkpt lat="38.652525" lon="-120.039811"><ele>2964.8</ele><time>2026-04-04T19:04:54Z</time></trkpt>
<trkpt lat="38.652460" lon="-120.039704"><ele>2966.0</ele><time>2026-04-04T19:05:24Z</time></trkpt>
<trkpt lat="38.652387" lon="-120.039635"><ele>2970.0</ele><time>2026-04-04T19:06:02Z</time></trkpt>
<trkpt lat="38.652349" lon="-120.039535"><ele>2969.8</ele><time>2026-04-04T19:07:13Z</time></trkpt>
<trkpt lat="38.652318" lon="-120.039470"><ele>2975.8</ele><time>2026-04-04T19:07:34Z</time></trkpt>
<trkpt lat="38.652302" lon="-120.039373"><ele>2977.0</ele><time>2026-04-04T19:07:43Z</time></trkpt>
<trkpt lat="38.652295" lon="-120.039377"><ele>2972.4</ele><time>2026-04-04T19:08:28Z</time></trkpt>
<trkpt lat="38.652272" lon="-120.039387"><ele>2972.8</ele><time>2026-04-04T19:09:03Z</time></trkpt>
<trkpt lat="38.652296" lon="-120.039359"><ele>2973.2</ele><time>2026-04-04T19:09:49Z</time></trkpt>
<trkpt lat="38.652281" lon="-120.039385"><ele>2972.8</ele><time>2026-04-04T19:10:14Z</time></trkpt>
<trkpt lat="38.652305" lon="-120.039374"><ele>2971.2</ele><time>2026-04-04T19:11:54Z</time></trkpt>
<trkpt lat="38.652188" lon="-120.039173"><ele>2972.8</ele><time>2026-04-04T19:12:39Z</time></trkpt>
<trkpt lat="38.652111" lon="-120.038654"><ele>2964.6</ele><time>2026-04-04T19:12:58Z</time></trkpt>
<trkpt lat="38.652106" lon="-120.038022"><ele>2954.4</ele><time>2026-04-04T19:13:08Z</time></trkpt>
<trkpt lat="38.652181" lon="-120.037679"><ele>2949.4</ele><time>2026-04-04T19:13:19Z</time></trkpt>
<trkpt lat="38.652300" lon="-120.036927"><ele>2948.6</ele><time>2026-04-04T19:17:33Z</time></trkpt>
<trkpt lat="38.652378" lon="-120.036824"><ele>2947.6</ele><time>2026-04-04T19:17:44Z</time></trkpt>
<trkpt lat="38.652457" lon="-120.036641"><ele>2949.8</ele><time>2026-04-04T19:18:02Z</time></trkpt>
<trkpt lat="38.652512" lon="-120.036391"><ele>2950.8</ele><time>2026-04-04T19:18:23Z</time></trkpt>
<trkpt lat="38.652618" lon="-120.036099"><ele>2952.0</ele><time>2026-04-04T19:18:51Z</time></trkpt>
<trkpt lat="38.652743" lon="-120.035884"><ele>2955.0</ele><time>2026-04-04T19:19:16Z</time></trkpt>
<trkpt lat="38.652875" lon="-120.035723"><ele>2959.4</ele><time>2026-04-04T19:19:40Z</time></trkpt>
<trkpt lat="38.652919" lon="-120.035538"><ele>2960.4</ele><time>2026-04-04T19:19:58Z</time></trkpt>
<trkpt lat="38.653062" lon="-120.035250"><ele>2967.0</ele><time>2026-04-04T19:20:40Z</time></trkpt>
<trkpt lat="38.653041" lon="-120.034886"><ele>2972.8</ele><time>2026-04-04T19:21:24Z</time></trkpt>
<trkpt lat="38.653071" lon="-120.034717"><ele>2977.4</ele><time>2026-04-04T19:22:31Z</time></trkpt>
<trkpt lat="38.653019" lon="-120.034651"><ele>2978.0</ele><time>2026-04-04T19:22:35Z</time></trkpt>
<trkpt lat="38.652971" lon="-120.034625"><ele>2974.2</ele><time>2026-04-04T19:22:40Z</time></trkpt>
<trkpt lat="38.652921" lon="-120.034663"><ele>2975.2</ele><time>2026-04-04T19:22:51Z</time></trkpt>
<trkpt lat="38.653166" lon="-120.034733"><ele>2977.2</ele><time>2026-04-04T19:23:21Z</time></trkpt>
<trkpt lat="38.653301" lon="-120.034618"><ele>2980.8</ele><time>2026-04-04T19:23:46Z</time></trkpt>
<trkpt lat="38.653600" lon="-120.034635"><ele>2983.6</ele><time>2026-04-04T19:24:28Z</time></trkpt>
<trkpt lat="38.653780" lon="-120.034725"><ele>2984.0</ele><time>2026-04-04T19:25:04Z</time></trkpt>
<trkpt lat="38.653847" lon="-120.034554"><ele>2983.2</ele><time>2026-04-04T19:25:22Z</time></trkpt>
<trkpt lat="38.654009" lon="-120.034483"><ele>2981.0</ele><time>2026-04-04T19:25:34Z</time></trkpt>
<trkpt lat="38.654091" lon="-120.034406"><ele>2981.6</ele><time>2026-04-04T19:25:40Z</time></trkpt>
<trkpt lat="38.654224" lon="-120.034425"><ele>2981.2</ele><time>2026-04-04T19:25:52Z</time></trkpt>
<trkpt lat="38.654278" lon="-120.034531"><ele>2984.2</ele><time>2026-04-04T19:26:11Z</time></trkpt>
<trkpt lat="38.654274" lon="-120.034564"><ele>2980.6</ele><time>2026-04-04T19:27:35Z</time></trkpt>
<trkpt lat="38.654274" lon="-120.034501"><ele>2982.6</ele><time>2026-04-04T19:29:02Z</time></trkpt>
<trkpt lat="38.654282" lon="-120.034501"><ele>2985.6</ele><time>2026-04-04T19:30:15Z</time></trkpt>
<trkpt lat="38.654279" lon="-120.034573"><ele>2982.8</ele><time>2026-04-04T19:33:10Z</time></trkpt>
<trkpt lat="38.654282" lon="-120.034573"><ele>2985.0</ele><time>2026-04-04T19:33:19Z</time></trkpt>
<trkpt lat="38.654266" lon="-120.034575"><ele>2982.6</ele><time>2026-04-04T19:33:45Z</time></trkpt>
<trkpt lat="38.654276" lon="-120.034581"><ele>2985.2</ele><time>2026-04-04T19:34:10Z</time></trkpt>
<trkpt lat="38.654279" lon="-120.034561"><ele>2982.8</ele><time>2026-04-04T19:34:17Z</time></trkpt>
<trkpt lat="38.654264" lon="-120.034590"><ele>2982.4</ele><time>2026-04-04T19:37:10Z</time></trkpt>
<trkpt lat="38.654279" lon="-120.034440"><ele>2984.2</ele><time>2026-04-04T19:37:48Z</time></trkpt>
<trkpt lat="38.654344" lon="-120.034435"><ele>2983.8</ele><time>2026-04-04T19:38:15Z</time></trkpt>
<trkpt lat="38.654344" lon="-120.034384"><ele>2986.2</ele><time>2026-04-04T19:39:25Z</time></trkpt>
<trkpt lat="38.654326" lon="-120.034430"><ele>2984.4</ele><time>2026-04-04T19:39:47Z</time></trkpt>
<trkpt lat="38.654306" lon="-120.034405"><ele>2985.0</ele><time>2026-04-04T19:40:06Z</time></trkpt>
<trkpt lat="38.654286" lon="-120.034431"><ele>2984.4</ele><time>2026-04-04T19:40:20Z</time></trkpt>
<trkpt lat="38.654273" lon="-120.034577"><ele>2984.4</ele><time>2026-04-04T19:41:40Z</time></trkpt>
<trkpt lat="38.654275" lon="-120.034454"><ele>2982.6</ele><time>2026-04-04T19:42:56Z</time></trkpt>
<trkpt lat="38.654324" lon="-120.034540"><ele>2980.8</ele><time>2026-04-04T19:43:36Z</time></trkpt>
<trkpt lat="38.654355" lon="-120.034511"><ele>2978.4</ele><time>2026-04-04T19:43:39Z</time></trkpt>
<trkpt lat="38.654393" lon="-120.034634"><ele>2973.2</ele><time>2026-04-04T19:43:44Z</time></trkpt>
<trkpt lat="38.654422" lon="-120.034606"><ele>2967.2</ele><time>2026-04-04T19:43:49Z</time></trkpt>
<trkpt lat="38.654463" lon="-120.034683"><ele>2964.6</ele><time>2026-04-04T19:43:52Z</time></trkpt>
<trkpt lat="38.654503" lon="-120.034639"><ele>2962.4</ele><time>2026-04-04T19:43:54Z</time></trkpt>
<trkpt lat="38.654513" lon="-120.034764"><ele>2955.4</ele><time>2026-04-04T19:43:57Z</time></trkpt>
<trkpt lat="38.654539" lon="-120.034773"><ele>2954.0</ele><time>2026-04-04T19:43:58Z</time></trkpt>
<trkpt lat="38.654636" lon="-120.034644"><ele>2950.0</ele><time>2026-04-04T19:44:01Z</time></trkpt>
<trkpt lat="38.654671" lon="-120.034647"><ele>2948.0</ele><time>2026-04-04T19:44:03Z</time></trkpt>
<trkpt lat="38.654658" lon="-120.034715"><ele>2946.4</ele><time>2026-04-04T19:44:05Z</time></trkpt>
<trkpt lat="38.654644" lon="-120.034725"><ele>2943.2</ele><time>2026-04-04T19:44:09Z</time></trkpt>
<trkpt lat="38.654640" lon="-120.034805"><ele>2942.8</ele><time>2026-04-04T19:44:13Z</time></trkpt>
<trkpt lat="38.654666" lon="-120.034864"><ele>2940.6</ele><time>2026-04-04T19:44:15Z</time></trkpt>
<trkpt lat="38.654723" lon="-120.034828"><ele>2937.4</ele><time>2026-04-04T19:44:17Z</time></trkpt>
<trkpt lat="38.654749" lon="-120.034910"><ele>2933.8</ele><time>2026-04-04T19:44:19Z</time></trkpt>
<trkpt lat="38.654836" lon="-120.034995"><ele>2925.0</ele><time>2026-04-04T19:44:23Z</time></trkpt>
<trkpt lat="38.654940" lon="-120.034936"><ele>2920.0</ele><time>2026-04-04T19:44:26Z</time></trkpt>
<trkpt lat="38.654921" lon="-120.035032"><ele>2918.2</ele><time>2026-04-04T19:44:30Z</time></trkpt>
<trkpt lat="38.654903" lon="-120.035046"><ele>2915.6</ele><time>2026-04-04T19:44:33Z</time></trkpt>
<trkpt lat="38.654931" lon="-120.034996"><ele>2915.2</ele><time>2026-04-04T19:44:52Z</time></trkpt>
<trkpt lat="38.654902" lon="-120.035004"><ele>2915.0</ele><time>2026-04-04T19:45:05Z</time></trkpt>
<trkpt lat="38.654909" lon="-120.034979"><ele>2915.2</ele><time>2026-04-04T19:45:11Z</time></trkpt>
<trkpt lat="38.654894" lon="-120.035028"><ele>2915.0</ele><time>2026-04-04T19:45:22Z</time></trkpt>
<trkpt lat="38.654903" lon="-120.034977"><ele>2914.8</ele><time>2026-04-04T19:45:38Z</time></trkpt>
<trkpt lat="38.654879" lon="-120.035000"><ele>2914.6</ele><time>2026-04-04T19:45:53Z</time></trkpt>
<trkpt lat="38.654909" lon="-120.035041"><ele>2914.4</ele><time>2026-04-04T19:46:04Z</time></trkpt>
<trkpt lat="38.654891" lon="-120.035004"><ele>2914.0</ele><time>2026-04-04T19:46:14Z</time></trkpt>
<trkpt lat="38.654927" lon="-120.035025"><ele>2913.8</ele><time>2026-04-04T19:46:46Z</time></trkpt>
<trkpt lat="38.654926" lon="-120.034982"><ele>2913.4</ele><time>2026-04-04T19:47:02Z</time></trkpt>
<trkpt lat="38.654851" lon="-120.034990"><ele>2912.6</ele><time>2026-04-04T19:47:32Z</time></trkpt>
<trkpt lat="38.654907" lon="-120.034992"><ele>2912.6</ele><time>2026-04-04T19:47:50Z</time></trkpt>
<trkpt lat="38.654828" lon="-120.035097"><ele>2911.6</ele><time>2026-04-04T19:48:05Z</time></trkpt>
<trkpt lat="38.654854" lon="-120.035104"><ele>2910.8</ele><time>2026-04-04T19:48:37Z</time></trkpt>
<trkpt lat="38.654868" lon="-120.035036"><ele>2910.8</ele><time>2026-04-04T19:48:45Z</time></trkpt>
<trkpt lat="38.654810" lon="-120.035206"><ele>2909.2</ele><time>2026-04-04T19:49:20Z</time></trkpt>
<trkpt lat="38.654908" lon="-120.035257"><ele>2903.8</ele><time>2026-04-04T19:49:24Z</time></trkpt>
<trkpt lat="38.654820" lon="-120.035417"><ele>2895.0</ele><time>2026-04-04T19:49:29Z</time></trkpt>
<trkpt lat="38.654893" lon="-120.035391"><ele>2892.8</ele><time>2026-04-04T19:49:32Z</time></trkpt>
<trkpt lat="38.654962" lon="-120.035404"><ele>2887.8</ele><time>2026-04-04T19:49:38Z</time></trkpt>
<trkpt lat="38.654889" lon="-120.035552"><ele>2884.0</ele><time>2026-04-04T19:49:43Z</time></trkpt>
<trkpt lat="38.654964" lon="-120.035568"><ele>2880.2</ele><time>2026-04-04T19:49:46Z</time></trkpt>
<trkpt lat="38.654886" lon="-120.035646"><ele>2877.0</ele><time>2026-04-04T19:49:52Z</time></trkpt>
<trkpt lat="38.654841" lon="-120.035622"><ele>2874.0</ele><time>2026-04-04T19:50:12Z</time></trkpt>
<trkpt lat="38.654869" lon="-120.035614"><ele>2874.0</ele><time>2026-04-04T19:50:28Z</time></trkpt>
<trkpt lat="38.654832" lon="-120.035655"><ele>2873.8</ele><time>2026-04-04T19:50:36Z</time></trkpt>
<trkpt lat="38.654884" lon="-120.035691"><ele>2872.4</ele><time>2026-04-04T19:50:39Z</time></trkpt>
<trkpt lat="38.654861" lon="-120.035736"><ele>2867.8</ele><time>2026-04-04T19:50:41Z</time></trkpt>
<trkpt lat="38.654779" lon="-120.035749"><ele>2866.8</ele><time>2026-04-04T19:50:44Z</time></trkpt>
<trkpt lat="38.654763" lon="-120.035784"><ele>2866.4</ele><time>2026-04-04T19:50:45Z</time></trkpt>
<trkpt lat="38.654802" lon="-120.035814"><ele>2863.0</ele><time>2026-04-04T19:50:48Z</time></trkpt>
<trkpt lat="38.654794" lon="-120.035845"><ele>2861.6</ele><time>2026-04-04T19:50:49Z</time></trkpt>
<trkpt lat="38.654689" lon="-120.035864"><ele>2857.8</ele><time>2026-04-04T19:50:55Z</time></trkpt>
<trkpt lat="38.654344" lon="-120.036159"><ele>2849.4</ele><time>2026-04-04T19:51:03Z</time></trkpt>
<trkpt lat="38.654267" lon="-120.036319"><ele>2846.2</ele><time>2026-04-04T19:51:06Z</time></trkpt>
<trkpt lat="38.654311" lon="-120.036327"><ele>2843.6</ele><time>2026-04-04T19:51:08Z</time></trkpt>
<trkpt lat="38.654290" lon="-120.036312"><ele>2841.2</ele><time>2026-04-04T19:51:17Z</time></trkpt>
<trkpt lat="38.654297" lon="-120.036476"><ele>2839.4</ele><time>2026-04-04T19:51:22Z</time></trkpt>
<trkpt lat="38.654462" lon="-120.036477"><ele>2834.4</ele><time>2026-04-04T19:51:25Z</time></trkpt>
<trkpt lat="38.654534" lon="-120.036426"><ele>2829.8</ele><time>2026-04-04T19:51:34Z</time></trkpt>
<trkpt lat="38.654812" lon="-120.036438"><ele>2824.2</ele><time>2026-04-04T19:51:42Z</time></trkpt>
<trkpt lat="38.654842" lon="-120.036636"><ele>2819.2</ele><time>2026-04-04T19:51:46Z</time></trkpt>
<trkpt lat="38.654894" lon="-120.036648"><ele>2816.6</ele><time>2026-04-04T19:51:47Z</time></trkpt>
<trkpt lat="38.654960" lon="-120.036840"><ele>2810.2</ele><time>2026-04-04T19:51:50Z</time></trkpt>
<trkpt lat="38.655062" lon="-120.036884"><ele>2805.4</ele><time>2026-04-04T19:51:52Z</time></trkpt>
<trkpt lat="38.655036" lon="-120.037139"><ele>2800.0</ele><time>2026-04-04T19:51:55Z</time></trkpt>
<trkpt lat="38.655181" lon="-120.037364"><ele>2793.4</ele><time>2026-04-04T19:51:59Z</time></trkpt>
<trkpt lat="38.655258" lon="-120.037291"><ele>2788.8</ele><time>2026-04-04T19:52:46Z</time></trkpt>
<trkpt lat="38.655277" lon="-120.037349"><ele>2789.2</ele><time>2026-04-04T19:53:35Z</time></trkpt>
<trkpt lat="38.655259" lon="-120.037323"><ele>2788.6</ele><time>2026-04-04T19:54:04Z</time></trkpt>
<trkpt lat="38.655271" lon="-120.037341"><ele>2792.8</ele><time>2026-04-04T19:54:46Z</time></trkpt>
<trkpt lat="38.655432" lon="-120.037538"><ele>2787.8</ele><time>2026-04-04T19:55:09Z</time></trkpt>
<trkpt lat="38.655461" lon="-120.037620"><ele>2784.2</ele><time>2026-04-04T19:55:21Z</time></trkpt>
<trkpt lat="38.655429" lon="-120.037605"><ele>2782.0</ele><time>2026-04-04T19:56:53Z</time></trkpt>
<trkpt lat="38.655461" lon="-120.037639"><ele>2782.0</ele><time>2026-04-04T19:57:01Z</time></trkpt>
<trkpt lat="38.655466" lon="-120.037616"><ele>2782.2</ele><time>2026-04-04T19:57:10Z</time></trkpt>
<trkpt lat="38.655456" lon="-120.037639"><ele>2781.8</ele><time>2026-04-04T19:57:17Z</time></trkpt>
<trkpt lat="38.655665" lon="-120.037625"><ele>2774.6</ele><time>2026-04-04T19:57:24Z</time></trkpt>
<trkpt lat="38.655754" lon="-120.037576"><ele>2769.8</ele><time>2026-04-04T19:57:26Z</time></trkpt>
<trkpt lat="38.655895" lon="-120.037578"><ele>2762.2</ele><time>2026-04-04T19:57:29Z</time></trkpt>
<trkpt lat="38.655954" lon="-120.037649"><ele>2758.2</ele><time>2026-04-04T19:57:31Z</time></trkpt>
<trkpt lat="38.656045" lon="-120.037593"><ele>2754.4</ele><time>2026-04-04T19:57:33Z</time></trkpt>
<trkpt lat="38.656141" lon="-120.037449"><ele>2750.4</ele><time>2026-04-04T19:57:36Z</time></trkpt>
<trkpt lat="38.656198" lon="-120.037577"><ele>2747.2</ele><time>2026-04-04T19:57:39Z</time></trkpt>
<trkpt lat="38.656351" lon="-120.037475"><ele>2742.8</ele><time>2026-04-04T19:57:42Z</time></trkpt>
<trkpt lat="38.656486" lon="-120.037573"><ele>2737.8</ele><time>2026-04-04T19:57:45Z</time></trkpt>
<trkpt lat="38.656682" lon="-120.037421"><ele>2730.8</ele><time>2026-04-04T19:57:49Z</time></trkpt>
<trkpt lat="38.656714" lon="-120.037509"><ele>2727.8</ele><time>2026-04-04T19:57:52Z</time></trkpt>
<trkpt lat="38.656686" lon="-120.037539"><ele>2725.4</ele><time>2026-04-04T19:57:58Z</time></trkpt>
<trkpt lat="38.656696" lon="-120.037631"><ele>2725.0</ele><time>2026-04-04T19:58:19Z</time></trkpt>
<trkpt lat="38.656860" lon="-120.037568"><ele>2721.2</ele><time>2026-04-04T19:58:23Z</time></trkpt>
<trkpt lat="38.657011" lon="-120.037632"><ele>2715.2</ele><time>2026-04-04T19:58:28Z</time></trkpt>
<trkpt lat="38.657015" lon="-120.037730"><ele>2712.8</ele><time>2026-04-04T19:58:30Z</time></trkpt>
<trkpt lat="38.657194" lon="-120.037707"><ele>2705.0</ele><time>2026-04-04T19:58:41Z</time></trkpt>
<trkpt lat="38.657294" lon="-120.037623"><ele>2701.6</ele><time>2026-04-04T19:59:12Z</time></trkpt>
<trkpt lat="38.657265" lon="-120.037642"><ele>2701.0</ele><time>2026-04-04T19:59:23Z</time></trkpt>
<trkpt lat="38.657809" lon="-120.037113"><ele>2693.4</ele><time>2026-04-04T19:59:56Z</time></trkpt>
<trkpt lat="38.657979" lon="-120.036900"><ele>2689.6</ele><time>2026-04-04T20:00:05Z</time></trkpt>
<trkpt lat="38.657954" lon="-120.036923"><ele>2689.6</ele><time>2026-04-04T20:00:14Z</time></trkpt>
<trkpt lat="38.658014" lon="-120.036895"><ele>2689.2</ele><time>2026-04-04T20:00:27Z</time></trkpt>
<trkpt lat="38.658007" lon="-120.036939"><ele>2686.4</ele><time>2026-04-04T20:00:32Z</time></trkpt>
<trkpt lat="38.658111" lon="-120.036948"><ele>2684.6</ele><time>2026-04-04T20:00:36Z</time></trkpt>
<trkpt lat="38.658138" lon="-120.037002"><ele>2682.4</ele><time>2026-04-04T20:00:37Z</time></trkpt>
<trkpt lat="38.658242" lon="-120.037003"><ele>2676.6</ele><time>2026-04-04T20:00:39Z</time></trkpt>
<trkpt lat="38.658314" lon="-120.037107"><ele>2674.8</ele><time>2026-04-04T20:00:41Z</time></trkpt>
<trkpt lat="38.658435" lon="-120.037118"><ele>2667.8</ele><time>2026-04-04T20:00:43Z</time></trkpt>
<trkpt lat="38.658497" lon="-120.037159"><ele>2664.2</ele><time>2026-04-04T20:00:44Z</time></trkpt>
<trkpt lat="38.658527" lon="-120.037240"><ele>2660.2</ele><time>2026-04-04T20:00:45Z</time></trkpt>
<trkpt lat="38.658659" lon="-120.037331"><ele>2654.8</ele><time>2026-04-04T20:00:47Z</time></trkpt>
<trkpt lat="38.658704" lon="-120.037295"><ele>2649.6</ele><time>2026-04-04T20:00:48Z</time></trkpt>
<trkpt lat="38.658853" lon="-120.037176"><ele>2644.8</ele><time>2026-04-04T20:00:50Z</time></trkpt>
<trkpt lat="38.659098" lon="-120.036993"><ele>2643.6</ele><time>2026-04-04T20:00:54Z</time></trkpt>
<trkpt lat="38.659479" lon="-120.036873"><ele>2639.8</ele><time>2026-04-04T20:01:02Z</time></trkpt>
<trkpt lat="38.659587" lon="-120.036748"><ele>2636.8</ele><time>2026-04-04T20:01:06Z</time></trkpt>
<trkpt lat="38.659578" lon="-120.036780"><ele>2636.6</ele><time>2026-04-04T20:01:11Z</time></trkpt>
<trkpt lat="38.659764" lon="-120.036875"><ele>2630.8</ele><time>2026-04-04T20:01:26Z</time></trkpt>
<trkpt lat="38.660192" lon="-120.036788"><ele>2621.4</ele><time>2026-04-04T20:01:31Z</time></trkpt>
<trkpt lat="38.660229" lon="-120.036800"><ele>2621.2</ele><time>2026-04-04T20:01:32Z</time></trkpt>
<trkpt lat="38.660223" lon="-120.036848"><ele>2620.8</ele><time>2026-04-04T20:01:33Z</time></trkpt>
<trkpt lat="38.660256" lon="-120.036884"><ele>2619.8</ele><time>2026-04-04T20:01:34Z</time></trkpt>
<trkpt lat="38.660574" lon="-120.036926"><ele>2615.8</ele><time>2026-04-04T20:01:44Z</time></trkpt>
<trkpt lat="38.660793" lon="-120.037036"><ele>2615.4</ele><time>2026-04-04T20:01:58Z</time></trkpt>
<trkpt lat="38.661171" lon="-120.037140"><ele>2614.6</ele><time>2026-04-04T20:02:18Z</time></trkpt>
<trkpt lat="38.661436" lon="-120.037140"><ele>2613.0</ele><time>2026-04-04T20:02:40Z</time></trkpt>
<trkpt lat="38.661456" lon="-120.037202"><ele>2611.6</ele><time>2026-04-04T20:03:03Z</time></trkpt>
<trkpt lat="38.661657" lon="-120.037439"><ele>2611.8</ele><time>2026-04-04T20:03:30Z</time></trkpt>
<trkpt lat="38.661904" lon="-120.037564"><ele>2612.0</ele><time>2026-04-04T20:03:51Z</time></trkpt>
<trkpt lat="38.662035" lon="-120.037671"><ele>2613.0</ele><time>2026-04-04T20:03:59Z</time></trkpt>
<trkpt lat="38.662337" lon="-120.038275"><ele>2613.2</ele><time>2026-04-04T20:04:23Z</time></trkpt>
<trkpt lat="38.662427" lon="-120.038290"><ele>2613.2</ele><time>2026-04-04T20:04:28Z</time></trkpt>
<trkpt lat="38.662410" lon="-120.038285"><ele>2612.2</ele><time>2026-04-04T20:04:38Z</time></trkpt>
<trkpt lat="38.662442" lon="-120.038278"><ele>2610.4</ele><time>2026-04-04T20:05:05Z</time></trkpt>
<trkpt lat="38.662416" lon="-120.038278"><ele>2610.4</ele><time>2026-04-04T20:05:18Z</time></trkpt>
<trkpt lat="38.662440" lon="-120.038277"><ele>2611.2</ele><time>2026-04-04T20:06:08Z</time></trkpt>
<trkpt lat="38.662434" lon="-120.038252"><ele>2610.0</ele><time>2026-04-04T20:06:21Z</time></trkpt>
<trkpt lat="38.662407" lon="-120.038297"><ele>2612.2</ele><time>2026-04-04T20:07:50Z</time></trkpt>
<trkpt lat="38.662439" lon="-120.038293"><ele>2614.8</ele><time>2026-04-04T20:08:11Z</time></trkpt>
<trkpt lat="38.662419" lon="-120.038266"><ele>2615.0</ele><time>2026-04-04T20:08:40Z</time></trkpt>
<trkpt lat="38.662443" lon="-120.038253"><ele>2617.6</ele><time>2026-04-04T20:09:13Z</time></trkpt>
<trkpt lat="38.662399" lon="-120.038289"><ele>2616.6</ele><time>2026-04-04T20:09:26Z</time></trkpt>
<trkpt lat="38.662444" lon="-120.038261"><ele>2618.2</ele><time>2026-04-04T20:09:53Z</time></trkpt>
<trkpt lat="38.662405" lon="-120.038270"><ele>2619.0</ele><time>2026-04-04T20:10:55Z</time></trkpt>
<trkpt lat="38.662442" lon="-120.038257"><ele>2618.8</ele><time>2026-04-04T20:12:32Z</time></trkpt>
<trkpt lat="38.662423" lon="-120.038284"><ele>2619.8</ele><time>2026-04-04T20:13:10Z</time></trkpt>
<trkpt lat="38.662414" lon="-120.038182"><ele>2621.2</ele><time>2026-04-04T20:14:03Z</time></trkpt>
<trkpt lat="38.662461" lon="-120.038094"><ele>2623.2</ele><time>2026-04-04T20:14:24Z</time></trkpt>
<trkpt lat="38.662488" lon="-120.037920"><ele>2625.6</ele><time>2026-04-04T20:14:46Z</time></trkpt>
<trkpt lat="38.662525" lon="-120.037875"><ele>2626.4</ele><time>2026-04-04T20:14:57Z</time></trkpt>
<trkpt lat="38.662627" lon="-120.037881"><ele>2628.8</ele><time>2026-04-04T20:15:11Z</time></trkpt>
<trkpt lat="38.662629" lon="-120.037761"><ele>2631.4</ele><time>2026-04-04T20:15:21Z</time></trkpt>
<trkpt lat="38.662582" lon="-120.037524"><ele>2632.6</ele><time>2026-04-04T20:16:22Z</time></trkpt>
<trkpt lat="38.662791" lon="-120.037418"><ele>2637.2</ele><time>2026-04-04T20:17:18Z</time></trkpt>
<trkpt lat="38.662757" lon="-120.037191"><ele>2640.2</ele><time>2026-04-04T20:17:43Z</time></trkpt>
<trkpt lat="38.662695" lon="-120.037068"><ele>2641.6</ele><time>2026-04-04T20:17:54Z</time></trkpt>
<trkpt lat="38.662543" lon="-120.036436"><ele>2651.6</ele><time>2026-04-04T20:19:11Z</time></trkpt>
<trkpt lat="38.662440" lon="-120.036163"><ele>2656.6</ele><time>2026-04-04T20:19:43Z</time></trkpt>
<trkpt lat="38.662667" lon="-120.036111"><ele>2663.2</ele><time>2026-04-04T20:20:21Z</time></trkpt>
<trkpt lat="38.662567" lon="-120.035878"><ele>2668.0</ele><time>2026-04-04T20:20:53Z</time></trkpt>
<trkpt lat="38.662754" lon="-120.035858"><ele>2671.6</ele><time>2026-04-04T20:21:19Z</time></trkpt>
<trkpt lat="38.662676" lon="-120.035628"><ele>2676.2</ele><time>2026-04-04T20:21:44Z</time></trkpt>
<trkpt lat="38.662693" lon="-120.035581"><ele>2677.6</ele><time>2026-04-04T20:21:54Z</time></trkpt>
<trkpt lat="38.662856" lon="-120.035506"><ele>2681.2</ele><time>2026-04-04T20:22:40Z</time></trkpt>
<trkpt lat="38.662833" lon="-120.035407"><ele>2681.6</ele><time>2026-04-04T20:23:05Z</time></trkpt>
<trkpt lat="38.662846" lon="-120.035179"><ele>2682.6</ele><time>2026-04-04T20:23:21Z</time></trkpt>
<trkpt lat="38.662820" lon="-120.035006"><ele>2686.2</ele><time>2026-04-04T20:23:48Z</time></trkpt>
<trkpt lat="38.662842" lon="-120.034965"><ele>2686.8</ele><time>2026-04-04T20:24:16Z</time></trkpt>
<trkpt lat="38.662624" lon="-120.034676"><ele>2692.8</ele><time>2026-04-04T20:24:54Z</time></trkpt>
<trkpt lat="38.662423" lon="-120.034608"><ele>2697.4</ele><time>2026-04-04T20:25:24Z</time></trkpt>
<trkpt lat="38.662474" lon="-120.034419"><ele>2701.8</ele><time>2026-04-04T20:25:49Z</time></trkpt>
<trkpt lat="38.662253" lon="-120.034339"><ele>2707.6</ele><time>2026-04-04T20:26:21Z</time></trkpt>
<trkpt lat="38.662324" lon="-120.034193"><ele>2711.0</ele><time>2026-04-04T20:26:45Z</time></trkpt>
<trkpt lat="38.662058" lon="-120.034143"><ele>2719.0</ele><time>2026-04-04T20:27:36Z</time></trkpt>
<trkpt lat="38.662168" lon="-120.033946"><ele>2728.6</ele><time>2026-04-04T20:28:16Z</time></trkpt>
<trkpt lat="38.662006" lon="-120.033921"><ele>2731.6</ele><time>2026-04-04T20:28:42Z</time></trkpt>
<trkpt lat="38.662017" lon="-120.033923"><ele>2733.2</ele><time>2026-04-04T20:28:48Z</time></trkpt>
<trkpt lat="38.661970" lon="-120.033888"><ele>2732.6</ele><time>2026-04-04T20:29:26Z</time></trkpt>
<trkpt lat="38.662073" lon="-120.033657"><ele>2736.0</ele><time>2026-04-04T20:29:56Z</time></trkpt>
<trkpt lat="38.662171" lon="-120.033516"><ele>2739.0</ele><time>2026-04-04T20:30:16Z</time></trkpt>
<trkpt lat="38.662220" lon="-120.033346"><ele>2744.2</ele><time>2026-04-04T20:30:38Z</time></trkpt>
<trkpt lat="38.661839" lon="-120.033241"><ele>2755.4</ele><time>2026-04-04T20:32:01Z</time></trkpt>
<trkpt lat="38.661833" lon="-120.033149"><ele>2757.0</ele><time>2026-04-04T20:32:12Z</time></trkpt>
<trkpt lat="38.661880" lon="-120.032992"><ele>2759.2</ele><time>2026-04-04T20:32:32Z</time></trkpt>
<trkpt lat="38.661907" lon="-120.032756"><ele>2766.4</ele><time>2026-04-04T20:33:28Z</time></trkpt>
<trkpt lat="38.661722" lon="-120.032742"><ele>2770.4</ele><time>2026-04-04T20:33:55Z</time></trkpt>
<trkpt lat="38.661365" lon="-120.032887"><ele>2779.2</ele><time>2026-04-04T20:34:51Z</time></trkpt>
<trkpt lat="38.661373" lon="-120.032553"><ele>2783.4</ele><time>2026-04-04T20:35:25Z</time></trkpt>
<trkpt lat="38.661357" lon="-120.032448"><ele>2787.2</ele><time>2026-04-04T20:35:44Z</time></trkpt>
<trkpt lat="38.661279" lon="-120.032426"><ele>2787.8</ele><time>2026-04-04T20:36:05Z</time></trkpt>
<trkpt lat="38.661255" lon="-120.032364"><ele>2789.8</ele><time>2026-04-04T20:36:15Z</time></trkpt>
<trkpt lat="38.660914" lon="-120.032631"><ele>2799.0</ele><time>2026-04-04T20:37:12Z</time></trkpt>
<trkpt lat="38.660872" lon="-120.032640"><ele>2799.6</ele><time>2026-04-04T20:37:17Z</time></trkpt>
<trkpt lat="38.660839" lon="-120.032579"><ele>2801.6</ele><time>2026-04-04T20:37:29Z</time></trkpt>
<trkpt lat="38.660604" lon="-120.032658"><ele>2806.8</ele><time>2026-04-04T20:38:03Z</time></trkpt>
<trkpt lat="38.660595" lon="-120.032586"><ele>2809.4</ele><time>2026-04-04T20:38:35Z</time></trkpt>
<trkpt lat="38.660381" lon="-120.032636"><ele>2816.8</ele><time>2026-04-04T20:39:11Z</time></trkpt>
<trkpt lat="38.660286" lon="-120.032530"><ele>2821.6</ele><time>2026-04-04T20:39:35Z</time></trkpt>
<trkpt lat="38.660049" lon="-120.032636"><ele>2826.4</ele><time>2026-04-04T20:40:03Z</time></trkpt>
<trkpt lat="38.659511" lon="-120.032761"><ele>2836.0</ele><time>2026-04-04T20:41:34Z</time></trkpt>
<trkpt lat="38.659288" lon="-120.032623"><ele>2844.2</ele><time>2026-04-04T20:42:10Z</time></trkpt>
<trkpt lat="38.659160" lon="-120.032574"><ele>2846.4</ele><time>2026-04-04T20:42:35Z</time></trkpt>
<trkpt lat="38.658965" lon="-120.032622"><ele>2851.4</ele><time>2026-04-04T20:43:07Z</time></trkpt>
<trkpt lat="38.658929" lon="-120.032576"><ele>2853.0</ele><time>2026-04-04T20:43:16Z</time></trkpt>
<trkpt lat="38.658910" lon="-120.032455"><ele>2855.6</ele><time>2026-04-04T20:43:34Z</time></trkpt>
<trkpt lat="38.658833" lon="-120.032330"><ele>2859.0</ele><time>2026-04-04T20:43:53Z</time></trkpt>
<trkpt lat="38.658770" lon="-120.032117"><ele>2862.4</ele><time>2026-04-04T20:44:16Z</time></trkpt>
<trkpt lat="38.658660" lon="-120.031987"><ele>2866.0</ele><time>2026-04-04T20:44:38Z</time></trkpt>
<trkpt lat="38.658595" lon="-120.032006"><ele>2867.8</ele><time>2026-04-04T20:44:48Z</time></trkpt>
<trkpt lat="38.658461" lon="-120.032203"><ele>2872.8</ele><time>2026-04-04T20:45:23Z</time></trkpt>
<trkpt lat="38.658153" lon="-120.032041"><ele>2879.6</ele><time>2026-04-04T20:46:30Z</time></trkpt>
<trkpt lat="38.658126" lon="-120.032051"><ele>2880.0</ele><time>2026-04-04T20:46:34Z</time></trkpt>
<trkpt lat="38.658018" lon="-120.032413"><ele>2887.2</ele><time>2026-04-04T20:47:22Z</time></trkpt>
<trkpt lat="38.657841" lon="-120.032584"><ele>2891.8</ele><time>2026-04-04T20:47:52Z</time></trkpt>
<trkpt lat="38.657521" lon="-120.032768"><ele>2896.8</ele><time>2026-04-04T20:48:37Z</time></trkpt>
<trkpt lat="38.657487" lon="-120.032871"><ele>2897.6</ele><time>2026-04-04T20:49:04Z</time></trkpt>
<trkpt lat="38.657473" lon="-120.032871"><ele>2895.4</ele><time>2026-04-04T20:52:10Z</time></trkpt>
<trkpt lat="38.657472" lon="-120.032841"><ele>2897.2</ele><time>2026-04-04T20:52:33Z</time></trkpt>
<trkpt lat="38.657473" lon="-120.032871"><ele>2897.6</ele><time>2026-04-04T20:53:21Z</time></trkpt>
<trkpt lat="38.657480" lon="-120.032845"><ele>2896.8</ele><time>2026-04-04T20:54:04Z</time></trkpt>
<trkpt lat="38.657461" lon="-120.032855"><ele>2896.4</ele><time>2026-04-04T20:54:39Z</time></trkpt>
<trkpt lat="38.657527" lon="-120.032782"><ele>2898.0</ele><time>2026-04-04T20:54:54Z</time></trkpt>
<trkpt lat="38.657477" lon="-120.032866"><ele>2899.2</ele><time>2026-04-04T20:56:24Z</time></trkpt>
<trkpt lat="38.657366" lon="-120.032899"><ele>2905.0</ele><time>2026-04-04T20:57:40Z</time></trkpt>
<trkpt lat="38.657475" lon="-120.032860"><ele>2905.8</ele><time>2026-04-04T20:59:35Z</time></trkpt>
<trkpt lat="38.657468" lon="-120.032853"><ele>2903.6</ele><time>2026-04-04T21:00:09Z</time></trkpt>
<trkpt lat="38.657482" lon="-120.032852"><ele>2906.0</ele><time>2026-04-04T21:00:32Z</time></trkpt>
<trkpt lat="38.657377" lon="-120.032877"><ele>2907.2</ele><time>2026-04-04T21:00:54Z</time></trkpt>
<trkpt lat="38.657380" lon="-120.032884"><ele>2905.0</ele><time>2026-04-04T21:01:12Z</time></trkpt>
<trkpt lat="38.657356" lon="-120.033017"><ele>2905.2</ele><time>2026-04-04T21:01:45Z</time></trkpt>
<trkpt lat="38.657435" lon="-120.033010"><ele>2900.2</ele><time>2026-04-04T21:01:48Z</time></trkpt>
<trkpt lat="38.657442" lon="-120.033114"><ele>2896.6</ele><time>2026-04-04T21:01:50Z</time></trkpt>
<trkpt lat="38.657468" lon="-120.033103"><ele>2894.8</ele><time>2026-04-04T21:01:51Z</time></trkpt>
<trkpt lat="38.657542" lon="-120.033276"><ele>2888.0</ele><time>2026-04-04T21:01:54Z</time></trkpt>
<trkpt lat="38.657617" lon="-120.033292"><ele>2879.8</ele><time>2026-04-04T21:01:56Z</time></trkpt>
<trkpt lat="38.657655" lon="-120.033403"><ele>2875.0</ele><time>2026-04-04T21:01:58Z</time></trkpt>
<trkpt lat="38.657731" lon="-120.033466"><ele>2871.0</ele><time>2026-04-04T21:02:00Z</time></trkpt>
<trkpt lat="38.657725" lon="-120.033654"><ele>2862.4</ele><time>2026-04-04T21:02:02Z</time></trkpt>
<trkpt lat="38.657794" lon="-120.033773"><ele>2858.0</ele><time>2026-04-04T21:02:04Z</time></trkpt>
<trkpt lat="38.657784" lon="-120.033963"><ele>2850.2</ele><time>2026-04-04T21:02:06Z</time></trkpt>
<trkpt lat="38.657716" lon="-120.034104"><ele>2845.0</ele><time>2026-04-04T21:02:08Z</time></trkpt>
<trkpt lat="38.657612" lon="-120.034350"><ele>2842.0</ele><time>2026-04-04T21:02:13Z</time></trkpt>
<trkpt lat="38.657580" lon="-120.034370"><ele>2838.6</ele><time>2026-04-04T21:02:56Z</time></trkpt>
<trkpt lat="38.657633" lon="-120.034435"><ele>2837.0</ele><time>2026-04-04T21:02:59Z</time></trkpt>
<trkpt lat="38.657682" lon="-120.034437"><ele>2835.6</ele><time>2026-04-04T21:03:00Z</time></trkpt>
<trkpt lat="38.657665" lon="-120.034665"><ele>2829.2</ele><time>2026-04-04T21:03:03Z</time></trkpt>
<trkpt lat="38.657688" lon="-120.034711"><ele>2826.4</ele><time>2026-04-04T21:03:04Z</time></trkpt>
<trkpt lat="38.657791" lon="-120.034699"><ele>2820.4</ele><time>2026-04-04T21:03:06Z</time></trkpt>
<trkpt lat="38.657796" lon="-120.034757"><ele>2817.0</ele><time>2026-04-04T21:03:07Z</time></trkpt>
<trkpt lat="38.657835" lon="-120.034795"><ele>2814.8</ele><time>2026-04-04T21:03:08Z</time></trkpt>
<trkpt lat="38.657939" lon="-120.034844"><ele>2804.2</ele><time>2026-04-04T21:03:11Z</time></trkpt>
<trkpt lat="38.657955" lon="-120.034933"><ele>2800.8</ele><time>2026-04-04T21:03:12Z</time></trkpt>
<trkpt lat="38.658091" lon="-120.034885"><ele>2791.0</ele><time>2026-04-04T21:03:15Z</time></trkpt>
<trkpt lat="38.658106" lon="-120.035101"><ele>2783.0</ele><time>2026-04-04T21:03:18Z</time></trkpt>
<trkpt lat="38.658197" lon="-120.035091"><ele>2777.0</ele><time>2026-04-04T21:03:20Z</time></trkpt>
<trkpt lat="38.658244" lon="-120.035238"><ele>2768.6</ele><time>2026-04-04T21:03:23Z</time></trkpt>
<trkpt lat="38.658301" lon="-120.035202"><ele>2762.6</ele><time>2026-04-04T21:03:26Z</time></trkpt>
<trkpt lat="38.658295" lon="-120.035225"><ele>2760.6</ele><time>2026-04-04T21:03:32Z</time></trkpt>
<trkpt lat="38.658337" lon="-120.035234"><ele>2759.4</ele><time>2026-04-04T21:03:54Z</time></trkpt>
<trkpt lat="38.658319" lon="-120.035228"><ele>2758.4</ele><time>2026-04-04T21:04:02Z</time></trkpt>
<trkpt lat="38.658336" lon="-120.035246"><ele>2757.4</ele><time>2026-04-04T21:04:14Z</time></trkpt>
<trkpt lat="38.658286" lon="-120.035213"><ele>2758.8</ele><time>2026-04-04T21:04:33Z</time></trkpt>
<trkpt lat="38.658300" lon="-120.035260"><ele>2755.6</ele><time>2026-04-04T21:04:43Z</time></trkpt>
<trkpt lat="38.658259" lon="-120.035407"><ele>2753.8</ele><time>2026-04-04T21:04:50Z</time></trkpt>
<trkpt lat="38.658287" lon="-120.035443"><ele>2752.8</ele><time>2026-04-04T21:04:51Z</time></trkpt>
<trkpt lat="38.658358" lon="-120.035448"><ele>2749.6</ele><time>2026-04-04T21:04:53Z</time></trkpt>
<trkpt lat="38.658343" lon="-120.035506"><ele>2747.6</ele><time>2026-04-04T21:04:54Z</time></trkpt>
<trkpt lat="38.658376" lon="-120.035537"><ele>2745.2</ele><time>2026-04-04T21:04:55Z</time></trkpt>
<trkpt lat="38.658456" lon="-120.035542"><ele>2739.4</ele><time>2026-04-04T21:04:58Z</time></trkpt>
<trkpt lat="38.658436" lon="-120.035596"><ele>2738.0</ele><time>2026-04-04T21:04:59Z</time></trkpt>
<trkpt lat="38.658453" lon="-120.035646"><ele>2736.6</ele><time>2026-04-04T21:05:00Z</time></trkpt>
<trkpt lat="38.658618" lon="-120.035618"><ele>2730.0</ele><time>2026-04-04T21:05:04Z</time></trkpt>
<trkpt lat="38.658595" lon="-120.035695"><ele>2725.4</ele><time>2026-04-04T21:05:10Z</time></trkpt>
<trkpt lat="38.658341" lon="-120.035965"><ele>2723.2</ele><time>2026-04-04T21:05:20Z</time></trkpt>
<trkpt lat="38.658304" lon="-120.036084"><ele>2721.8</ele><time>2026-04-04T21:05:23Z</time></trkpt>
<trkpt lat="38.658329" lon="-120.036136"><ele>2720.6</ele><time>2026-04-04T21:05:24Z</time></trkpt>
<trkpt lat="38.658371" lon="-120.036124"><ele>2719.2</ele><time>2026-04-04T21:05:25Z</time></trkpt>
<trkpt lat="38.658398" lon="-120.036186"><ele>2715.2</ele><time>2026-04-04T21:05:27Z</time></trkpt>
<trkpt lat="38.658376" lon="-120.036262"><ele>2712.4</ele><time>2026-04-04T21:05:28Z</time></trkpt>
<trkpt lat="38.658404" lon="-120.036318"><ele>2709.6</ele><time>2026-04-04T21:05:29Z</time></trkpt>
<trkpt lat="38.658518" lon="-120.036335"><ele>2705.0</ele><time>2026-04-04T21:05:31Z</time></trkpt>
<trkpt lat="38.658479" lon="-120.036487"><ele>2700.4</ele><time>2026-04-04T21:05:33Z</time></trkpt>
<trkpt lat="38.658533" lon="-120.036553"><ele>2695.4</ele><time>2026-04-04T21:05:35Z</time></trkpt>
<trkpt lat="38.658491" lon="-120.036742"><ele>2688.4</ele><time>2026-04-04T21:05:38Z</time></trkpt>
<trkpt lat="38.658329" lon="-120.037205"><ele>2680.4</ele><time>2026-04-04T21:05:43Z</time></trkpt>
<trkpt lat="38.658328" lon="-120.037294"><ele>2679.2</ele><time>2026-04-04T21:05:44Z</time></trkpt>
<trkpt lat="38.658353" lon="-120.037263"><ele>2678.0</ele><time>2026-04-04T21:05:45Z</time></trkpt>
<trkpt lat="38.658409" lon="-120.037270"><ele>2676.8</ele><time>2026-04-04T21:05:46Z</time></trkpt>
<trkpt lat="38.658476" lon="-120.037448"><ele>2673.0</ele><time>2026-04-04T21:05:48Z</time></trkpt>
<trkpt lat="38.658394" lon="-120.038254"><ele>2663.0</ele><time>2026-04-04T21:05:55Z</time></trkpt>
<trkpt lat="38.658425" lon="-120.038295"><ele>2661.6</ele><time>2026-04-04T21:05:56Z</time></trkpt>
<trkpt lat="38.658507" lon="-120.038264"><ele>2659.6</ele><time>2026-04-04T21:05:58Z</time></trkpt>
<trkpt lat="38.658531" lon="-120.038383"><ele>2656.2</ele><time>2026-04-04T21:06:00Z</time></trkpt>
<trkpt lat="38.658529" lon="-120.038638"><ele>2652.0</ele><time>2026-04-04T21:06:03Z</time></trkpt>
<trkpt lat="38.658613" lon="-120.039801"><ele>2641.0</ele><time>2026-04-04T21:06:14Z</time></trkpt>
<trkpt lat="38.658725" lon="-120.040038"><ele>2637.8</ele><time>2026-04-04T21:06:17Z</time></trkpt>
<trkpt lat="38.659111" lon="-120.040260"><ele>2635.2</ele><time>2026-04-04T21:06:24Z</time></trkpt>
<trkpt lat="38.659314" lon="-120.040325"><ele>2635.2</ele><time>2026-04-04T21:06:31Z</time></trkpt>
<trkpt lat="38.659309" lon="-120.040277"><ele>2633.0</ele><time>2026-04-04T21:06:41Z</time></trkpt>
<trkpt lat="38.659461" lon="-120.040150"><ele>2631.6</ele><time>2026-04-04T21:06:48Z</time></trkpt>
<trkpt lat="38.660271" lon="-120.039885"><ele>2629.2</ele><time>2026-04-04T21:07:47Z</time></trkpt>
<trkpt lat="38.661215" lon="-120.039757"><ele>2625.2</ele><time>2026-04-04T21:08:47Z</time></trkpt>
<trkpt lat="38.661689" lon="-120.039590"><ele>2623.8</ele><time>2026-04-04T21:09:57Z</time></trkpt>
<trkpt lat="38.661980" lon="-120.039660"><ele>2624.2</ele><time>2026-04-04T21:10:43Z</time></trkpt>
<trkpt lat="38.661950" lon="-120.039631"><ele>2624.2</ele><time>2026-04-04T21:10:51Z</time></trkpt>
<trkpt lat="38.662083" lon="-120.039701"><ele>2626.0</ele><time>2026-04-04T21:11:27Z</time></trkpt>
<trkpt lat="38.662182" lon="-120.039831"><ele>2626.8</ele><time>2026-04-04T21:11:48Z</time></trkpt>
<trkpt lat="38.662433" lon="-120.040010"><ele>2632.2</ele><time>2026-04-04T21:12:21Z</time></trkpt>
<trkpt lat="38.662611" lon="-120.040145"><ele>2631.2</ele><time>2026-04-04T21:12:32Z</time></trkpt>
<trkpt lat="38.662956" lon="-120.040294"><ele>2629.2</ele><time>2026-04-04T21:12:54Z</time></trkpt>
<trkpt lat="38.663137" lon="-120.040326"><ele>2628.4</ele><time>2026-04-04T21:13:03Z</time></trkpt>
<trkpt lat="38.663313" lon="-120.040673"><ele>2627.2</ele><time>2026-04-04T21:13:25Z</time></trkpt>
<trkpt lat="38.663602" lon="-120.040934"><ele>2627.2</ele><time>2026-04-04T21:14:11Z</time></trkpt>
<trkpt lat="38.663683" lon="-120.040974"><ele>2627.4</ele><time>2026-04-04T21:14:25Z</time></trkpt>
<trkpt lat="38.663864" lon="-120.040955"><ele>2626.8</ele><time>2026-04-04T21:14:37Z</time></trkpt>
<trkpt lat="38.664093" lon="-120.040992"><ele>2626.0</ele><time>2026-04-04T21:14:53Z</time></trkpt>
<trkpt lat="38.664381" lon="-120.041084"><ele>2626.2</ele><time>2026-04-04T21:15:27Z</time></trkpt>
<trkpt lat="38.664536" lon="-120.041174"><ele>2626.2</ele><time>2026-04-04T21:15:41Z</time></trkpt>
<trkpt lat="38.664637" lon="-120.041173"><ele>2625.8</ele><time>2026-04-04T21:15:46Z</time></trkpt>
<trkpt lat="38.664682" lon="-120.041134"><ele>2626.6</ele><time>2026-04-04T21:15:59Z</time></trkpt>
<trkpt lat="38.664735" lon="-120.041194"><ele>2626.6</ele><time>2026-04-04T21:16:18Z</time></trkpt>
<trkpt lat="38.665054" lon="-120.041211"><ele>2626.2</ele><time>2026-04-04T21:16:51Z</time></trkpt>
<trkpt lat="38.665185" lon="-120.041288"><ele>2627.4</ele><time>2026-04-04T21:17:21Z</time></trkpt>
<trkpt lat="38.665291" lon="-120.041454"><ele>2626.8</ele><time>2026-04-04T21:17:33Z</time></trkpt>
<trkpt lat="38.665489" lon="-120.041627"><ele>2625.8</ele><time>2026-04-04T21:17:41Z</time></trkpt>
<trkpt lat="38.665915" lon="-120.041809"><ele>2624.6</ele><time>2026-04-04T21:18:14Z</time></trkpt>
<trkpt lat="38.666278" lon="-120.041722"><ele>2621.4</ele><time>2026-04-04T21:18:28Z</time></trkpt>
<trkpt lat="38.666604" lon="-120.041768"><ele>2619.0</ele><time>2026-04-04T21:18:45Z</time></trkpt>
<trkpt lat="38.666763" lon="-120.041826"><ele>2619.2</ele><time>2026-04-04T21:19:07Z</time></trkpt>
<trkpt lat="38.666981" lon="-120.041722"><ele>2619.4</ele><time>2026-04-04T21:19:29Z</time></trkpt>
<trkpt lat="38.667225" lon="-120.041779"><ele>2620.4</ele><time>2026-04-04T21:19:47Z</time></trkpt>
<trkpt lat="38.667544" lon="-120.041606"><ele>2620.2</ele><time>2026-04-04T21:20:22Z</time></trkpt>
<trkpt lat="38.668007" lon="-120.041760"><ele>2620.2</ele><time>2026-04-04T21:20:57Z</time></trkpt>
<trkpt lat="38.668081" lon="-120.041848"><ele>2618.6</ele><time>2026-04-04T21:21:06Z</time></trkpt>
<trkpt lat="38.668587" lon="-120.042205"><ele>2613.0</ele><time>2026-04-04T21:21:49Z</time></trkpt>
<trkpt lat="38.668567" lon="-120.042221"><ele>2615.0</ele><time>2026-04-04T21:22:11Z</time></trkpt>
<trkpt lat="38.668606" lon="-120.042268"><ele>2614.8</ele><time>2026-04-04T21:22:20Z</time></trkpt>
<trkpt lat="38.668612" lon="-120.042339"><ele>2615.4</ele><time>2026-04-04T21:22:27Z</time></trkpt>
<trkpt lat="38.668707" lon="-120.042547"><ele>2611.6</ele><time>2026-04-04T21:23:01Z</time></trkpt>
<trkpt lat="38.668906" lon="-120.043295"><ele>2602.0</ele><time>2026-04-04T21:23:23Z</time></trkpt>
<trkpt lat="38.668889" lon="-120.043574"><ele>2598.2</ele><time>2026-04-04T21:23:31Z</time></trkpt>
<trkpt lat="38.668889" lon="-120.043586"><ele>2594.8</ele><time>2026-04-04T21:24:00Z</time></trkpt>
<trkpt lat="38.668919" lon="-120.043690"><ele>2594.2</ele><time>2026-04-04T21:24:03Z</time></trkpt>
<trkpt lat="38.669041" lon="-120.043710"><ele>2590.4</ele><time>2026-04-04T21:24:13Z</time></trkpt>
<trkpt lat="38.669028" lon="-120.043999"><ele>2586.0</ele><time>2026-04-04T21:24:19Z</time></trkpt>
<trkpt lat="38.669049" lon="-120.044089"><ele>2584.6</ele><time>2026-04-04T21:24:30Z</time></trkpt>
<trkpt lat="38.669110" lon="-120.044192"><ele>2582.0</ele><time>2026-04-04T21:24:34Z</time></trkpt>
<trkpt lat="38.669125" lon="-120.044359"><ele>2576.8</ele><time>2026-04-04T21:24:39Z</time></trkpt>
<trkpt lat="38.669305" lon="-120.044466"><ele>2571.2</ele><time>2026-04-04T21:24:44Z</time></trkpt>
<trkpt lat="38.669303" lon="-120.044455"><ele>2568.8</ele><time>2026-04-04T21:24:49Z</time></trkpt>
<trkpt lat="38.669318" lon="-120.044515"><ele>2568.0</ele><time>2026-04-04T21:24:53Z</time></trkpt>
<trkpt lat="38.669280" lon="-120.044592"><ele>2565.4</ele><time>2026-04-04T21:24:57Z</time></trkpt>
<trkpt lat="38.669468" lon="-120.044726"><ele>2560.0</ele><time>2026-04-04T21:25:05Z</time></trkpt>
<trkpt lat="38.669472" lon="-120.044723"><ele>2557.0</ele><time>2026-04-04T21:25:10Z</time></trkpt>
<trkpt lat="38.669452" lon="-120.044757"><ele>2555.6</ele><time>2026-04-04T21:25:17Z</time></trkpt>
<trkpt lat="38.669646" lon="-120.044805"><ele>2551.2</ele><time>2026-04-04T21:25:23Z</time></trkpt>
<trkpt lat="38.669821" lon="-120.044800"><ele>2545.8</ele><time>2026-04-04T21:25:29Z</time></trkpt>
<trkpt lat="38.670249" lon="-120.044814"><ele>2541.6</ele><time>2026-04-04T21:25:42Z</time></trkpt>
<trkpt lat="38.670426" lon="-120.044774"><ele>2538.6</ele><time>2026-04-04T21:26:04Z</time></trkpt>
<trkpt lat="38.661332" lon="-120.057831"><ele>2887.8</ele><time>2026-04-04T21:39:04Z</time></trkpt>
<trkpt lat="38.661531" lon="-120.057775"><ele>2887.6</ele><time>2026-04-04T21:39:22Z</time></trkpt>
<trkpt lat="38.661727" lon="-120.057807"><ele>2885.8</ele><time>2026-04-04T21:39:58Z</time></trkpt>
<trkpt lat="38.661823" lon="-120.057800"><ele>2887.4</ele><time>2026-04-04T21:41:33Z</time></trkpt>
<trkpt lat="38.662005" lon="-120.057880"><ele>2887.4</ele><time>2026-04-04T21:41:41Z</time></trkpt>
<trkpt lat="38.662480" lon="-120.058199"><ele>2884.8</ele><time>2026-04-04T21:41:59Z</time></trkpt>
<trkpt lat="38.663150" lon="-120.058339"><ele>2878.8</ele><time>2026-04-04T21:42:12Z</time></trkpt>
<trkpt lat="38.663829" lon="-120.058717"><ele>2872.8</ele><time>2026-04-04T21:42:25Z</time></trkpt>
<trkpt lat="38.664012" lon="-120.058705"><ele>2871.4</ele><time>2026-04-04T21:42:29Z</time></trkpt>
<trkpt lat="38.664074" lon="-120.058638"><ele>2870.4</ele><time>2026-04-04T21:42:31Z</time></trkpt>
<trkpt lat="38.664055" lon="-120.058549"><ele>2868.8</ele><time>2026-04-04T21:42:33Z</time></trkpt>
<trkpt lat="38.664174" lon="-120.058430"><ele>2864.6</ele><time>2026-04-04T21:42:36Z</time></trkpt>
<trkpt lat="38.664151" lon="-120.058363"><ele>2861.6</ele><time>2026-04-04T21:42:38Z</time></trkpt>
<trkpt lat="38.664208" lon="-120.058293"><ele>2858.6</ele><time>2026-04-04T21:42:40Z</time></trkpt>
<trkpt lat="38.664176" lon="-120.058156"><ele>2852.6</ele><time>2026-04-04T21:42:44Z</time></trkpt>
<trkpt lat="38.664203" lon="-120.058102"><ele>2851.2</ele><time>2026-04-04T21:42:45Z</time></trkpt>
<trkpt lat="38.664625" lon="-120.057908"><ele>2843.0</ele><time>2026-04-04T21:42:54Z</time></trkpt>
<trkpt lat="38.664984" lon="-120.057924"><ele>2836.2</ele><time>2026-04-04T21:43:02Z</time></trkpt>
<trkpt lat="38.665028" lon="-120.057892"><ele>2835.2</ele><time>2026-04-04T21:43:03Z</time></trkpt>
<trkpt lat="38.664974" lon="-120.057771"><ele>2831.8</ele><time>2026-04-04T21:43:06Z</time></trkpt>
<trkpt lat="38.664983" lon="-120.057736"><ele>2830.6</ele><time>2026-04-04T21:43:07Z</time></trkpt>
<trkpt lat="38.665062" lon="-120.057768"><ele>2827.2</ele><time>2026-04-04T21:43:10Z</time></trkpt>
<trkpt lat="38.665267" lon="-120.057768"><ele>2824.2</ele><time>2026-04-04T21:43:14Z</time></trkpt>
<trkpt lat="38.665530" lon="-120.057697"><ele>2820.4</ele><time>2026-04-04T21:43:19Z</time></trkpt>
<trkpt lat="38.665555" lon="-120.057612"><ele>2818.2</ele><time>2026-04-04T21:43:21Z</time></trkpt>
<trkpt lat="38.665682" lon="-120.057561"><ele>2814.2</ele><time>2026-04-04T21:43:24Z</time></trkpt>
<trkpt lat="38.665678" lon="-120.057477"><ele>2811.4</ele><time>2026-04-04T21:43:26Z</time></trkpt>
<trkpt lat="38.665800" lon="-120.057359"><ele>2805.8</ele><time>2026-04-04T21:43:31Z</time></trkpt>
<trkpt lat="38.665828" lon="-120.057167"><ele>2800.8</ele><time>2026-04-04T21:43:35Z</time></trkpt>
<trkpt lat="38.665930" lon="-120.057121"><ele>2797.8</ele><time>2026-04-04T21:43:37Z</time></trkpt>
<trkpt lat="38.666084" lon="-120.057142"><ele>2794.8</ele><time>2026-04-04T21:43:40Z</time></trkpt>
<trkpt lat="38.666144" lon="-120.057098"><ele>2793.6</ele><time>2026-04-04T21:43:42Z</time></trkpt>
<trkpt lat="38.666173" lon="-120.057127"><ele>2791.4</ele><time>2026-04-04T21:43:49Z</time></trkpt>
<trkpt lat="38.666213" lon="-120.057039"><ele>2790.6</ele><time>2026-04-04T21:43:54Z</time></trkpt>
<trkpt lat="38.666218" lon="-120.056848"><ele>2789.0</ele><time>2026-04-04T21:43:57Z</time></trkpt>
<trkpt lat="38.666324" lon="-120.056743"><ele>2785.4</ele><time>2026-04-04T21:44:01Z</time></trkpt>
<trkpt lat="38.666359" lon="-120.056789"><ele>2783.2</ele><time>2026-04-04T21:44:06Z</time></trkpt>
<trkpt lat="38.666383" lon="-120.056660"><ele>2781.4</ele><time>2026-04-04T21:44:15Z</time></trkpt>
<trkpt lat="38.666341" lon="-120.056509"><ele>2779.4</ele><time>2026-04-04T21:44:17Z</time></trkpt>
<trkpt lat="38.666218" lon="-120.056389"><ele>2776.4</ele><time>2026-04-04T21:44:21Z</time></trkpt>
<trkpt lat="38.666309" lon="-120.056351"><ele>2774.2</ele><time>2026-04-04T21:44:30Z</time></trkpt>
<trkpt lat="38.666331" lon="-120.056206"><ele>2769.6</ele><time>2026-04-04T21:44:37Z</time></trkpt>
<trkpt lat="38.666274" lon="-120.056045"><ele>2764.4</ele><time>2026-04-04T21:44:51Z</time></trkpt>
<trkpt lat="38.666209" lon="-120.055956"><ele>2764.0</ele><time>2026-04-04T21:44:55Z</time></trkpt>
<trkpt lat="38.666213" lon="-120.055915"><ele>2763.6</ele><time>2026-04-04T21:44:56Z</time></trkpt>
<trkpt lat="38.666333" lon="-120.055805"><ele>2760.4</ele><time>2026-04-04T21:45:00Z</time></trkpt>
<trkpt lat="38.666335" lon="-120.055629"><ele>2758.0</ele><time>2026-04-04T21:45:03Z</time></trkpt>
<trkpt lat="38.666562" lon="-120.055499"><ele>2752.4</ele><time>2026-04-04T21:45:09Z</time></trkpt>
<trkpt lat="38.666639" lon="-120.055538"><ele>2751.2</ele><time>2026-04-04T21:45:13Z</time></trkpt>
<trkpt lat="38.666669" lon="-120.055641"><ele>2750.4</ele><time>2026-04-04T21:45:17Z</time></trkpt>
<trkpt lat="38.666635" lon="-120.055952"><ele>2745.0</ele><time>2026-04-04T21:45:37Z</time></trkpt>
<trkpt lat="38.666652" lon="-120.056003"><ele>2744.2</ele><time>2026-04-04T21:45:38Z</time></trkpt>
<trkpt lat="38.666691" lon="-120.055979"><ele>2742.0</ele><time>2026-04-04T21:45:40Z</time></trkpt>
<trkpt lat="38.666735" lon="-120.056004"><ele>2739.6</ele><time>2026-04-04T21:45:42Z</time></trkpt>
<trkpt lat="38.666820" lon="-120.056544"><ele>2728.8</ele><time>2026-04-04T21:45:54Z</time></trkpt>
<trkpt lat="38.666853" lon="-120.056667"><ele>2725.2</ele><time>2026-04-04T21:45:59Z</time></trkpt>
<trkpt lat="38.666896" lon="-120.056707"><ele>2724.0</ele><time>2026-04-04T21:46:01Z</time></trkpt>
<trkpt lat="38.666935" lon="-120.056826"><ele>2723.0</ele><time>2026-04-04T21:46:04Z</time></trkpt>
<trkpt lat="38.666938" lon="-120.057056"><ele>2720.8</ele><time>2026-04-04T21:46:11Z</time></trkpt>
<trkpt lat="38.666968" lon="-120.057060"><ele>2720.0</ele><time>2026-04-04T21:46:12Z</time></trkpt>
<trkpt lat="38.667010" lon="-120.056942"><ele>2716.8</ele><time>2026-04-04T21:46:15Z</time></trkpt>
<trkpt lat="38.667072" lon="-120.057001"><ele>2714.4</ele><time>2026-04-04T21:46:17Z</time></trkpt>
<trkpt lat="38.667129" lon="-120.056963"><ele>2711.4</ele><time>2026-04-04T21:46:19Z</time></trkpt>
<trkpt lat="38.667177" lon="-120.056980"><ele>2709.6</ele><time>2026-04-04T21:46:20Z</time></trkpt>
<trkpt lat="38.667254" lon="-120.056921"><ele>2706.2</ele><time>2026-04-04T21:46:22Z</time></trkpt>
<trkpt lat="38.667335" lon="-120.057012"><ele>2701.2</ele><time>2026-04-04T21:46:25Z</time></trkpt>
<trkpt lat="38.667377" lon="-120.056917"><ele>2697.2</ele><time>2026-04-04T21:46:28Z</time></trkpt>
<trkpt lat="38.667334" lon="-120.056902"><ele>2695.0</ele><time>2026-04-04T21:46:38Z</time></trkpt>
<trkpt lat="38.667395" lon="-120.056861"><ele>2694.0</ele><time>2026-04-04T21:46:43Z</time></trkpt>
<trkpt lat="38.667439" lon="-120.056952"><ele>2693.0</ele><time>2026-04-04T21:46:45Z</time></trkpt>
<trkpt lat="38.667522" lon="-120.056958"><ele>2689.2</ele><time>2026-04-04T21:46:48Z</time></trkpt>
<trkpt lat="38.667593" lon="-120.057030"><ele>2685.2</ele><time>2026-04-04T21:46:51Z</time></trkpt>
<trkpt lat="38.667609" lon="-120.057121"><ele>2682.2</ele><time>2026-04-04T21:46:54Z</time></trkpt>
<trkpt lat="38.667638" lon="-120.057106"><ele>2677.2</ele><time>2026-04-04T21:47:11Z</time></trkpt>
<trkpt lat="38.667612" lon="-120.057121"><ele>2675.8</ele><time>2026-04-04T21:47:19Z</time></trkpt>
<trkpt lat="38.667645" lon="-120.057154"><ele>2673.8</ele><time>2026-04-04T21:47:39Z</time></trkpt>
<trkpt lat="38.667623" lon="-120.057223"><ele>2670.6</ele><time>2026-04-04T21:47:55Z</time></trkpt>
<trkpt lat="38.667715" lon="-120.057381"><ele>2668.0</ele><time>2026-04-04T21:48:00Z</time></trkpt>
<trkpt lat="38.667768" lon="-120.057403"><ele>2666.4</ele><time>2026-04-04T21:48:02Z</time></trkpt>
<trkpt lat="38.667800" lon="-120.057279"><ele>2659.8</ele><time>2026-04-04T21:48:18Z</time></trkpt>
<trkpt lat="38.667843" lon="-120.057283"><ele>2659.4</ele><time>2026-04-04T21:48:21Z</time></trkpt>
<trkpt lat="38.667862" lon="-120.057337"><ele>2657.2</ele><time>2026-04-04T21:48:27Z</time></trkpt>
<trkpt lat="38.667922" lon="-120.057251"><ele>2656.0</ele><time>2026-04-04T21:48:33Z</time></trkpt>
<trkpt lat="38.667977" lon="-120.057319"><ele>2654.8</ele><time>2026-04-04T21:48:35Z</time></trkpt>
<trkpt lat="38.668265" lon="-120.057928"><ele>2652.6</ele><time>2026-04-04T21:48:49Z</time></trkpt>
<trkpt lat="38.668282" lon="-120.058064"><ele>2651.4</ele><time>2026-04-04T21:48:52Z</time></trkpt>
<trkpt lat="38.668258" lon="-120.058330"><ele>2648.6</ele><time>2026-04-04T21:48:59Z</time></trkpt>
<trkpt lat="38.668316" lon="-120.058386"><ele>2648.0</ele><time>2026-04-04T21:49:02Z</time></trkpt>
<trkpt lat="38.668420" lon="-120.058411"><ele>2645.0</ele><time>2026-04-04T21:49:05Z</time></trkpt>
<trkpt lat="38.668438" lon="-120.058356"><ele>2642.2</ele><time>2026-04-04T21:49:07Z</time></trkpt>
<trkpt lat="38.668565" lon="-120.058326"><ele>2638.0</ele><time>2026-04-04T21:49:10Z</time></trkpt>
<trkpt lat="38.668600" lon="-120.058439"><ele>2635.2</ele><time>2026-04-04T21:49:12Z</time></trkpt>
<trkpt lat="38.668673" lon="-120.058412"><ele>2632.4</ele><time>2026-04-04T21:49:14Z</time></trkpt>
<trkpt lat="38.668712" lon="-120.058508"><ele>2630.0</ele><time>2026-04-04T21:49:16Z</time></trkpt>
<trkpt lat="38.668746" lon="-120.058514"><ele>2628.6</ele><time>2026-04-04T21:49:17Z</time></trkpt>
<trkpt lat="38.668794" lon="-120.058435"><ele>2624.8</ele><time>2026-04-04T21:49:20Z</time></trkpt>
<trkpt lat="38.668888" lon="-120.058395"><ele>2623.4</ele><time>2026-04-04T21:49:22Z</time></trkpt>
<trkpt lat="38.668899" lon="-120.058581"><ele>2621.2</ele><time>2026-04-04T21:49:25Z</time></trkpt>
<trkpt lat="38.668949" lon="-120.058558"><ele>2618.6</ele><time>2026-04-04T21:49:27Z</time></trkpt>
<trkpt lat="38.668981" lon="-120.058662"><ele>2614.8</ele><time>2026-04-04T21:49:31Z</time></trkpt>
<trkpt lat="38.669045" lon="-120.058725"><ele>2613.6</ele><time>2026-04-04T21:49:34Z</time></trkpt>
<trkpt lat="38.669082" lon="-120.058639"><ele>2611.8</ele><time>2026-04-04T21:49:36Z</time></trkpt>
<trkpt lat="38.669152" lon="-120.058672"><ele>2609.4</ele><time>2026-04-04T21:49:38Z</time></trkpt>
<trkpt lat="38.669204" lon="-120.058615"><ele>2606.4</ele><time>2026-04-04T21:49:40Z</time></trkpt>
<trkpt lat="38.669465" lon="-120.058725"><ele>2595.6</ele><time>2026-04-04T21:49:49Z</time></trkpt>
<trkpt lat="38.669501" lon="-120.058684"><ele>2592.2</ele><time>2026-04-04T21:49:53Z</time></trkpt>
<trkpt lat="38.669496" lon="-120.058613"><ele>2590.6</ele><time>2026-04-04T21:49:55Z</time></trkpt>
<trkpt lat="38.669587" lon="-120.058608"><ele>2587.6</ele><time>2026-04-04T21:49:58Z</time></trkpt>
<trkpt lat="38.669624" lon="-120.058523"><ele>2585.4</ele><time>2026-04-04T21:50:00Z</time></trkpt>
<trkpt lat="38.669720" lon="-120.058547"><ele>2582.6</ele><time>2026-04-04T21:50:02Z</time></trkpt>
<trkpt lat="38.669764" lon="-120.058476"><ele>2580.2</ele><time>2026-04-04T21:50:04Z</time></trkpt>
<trkpt lat="38.669880" lon="-120.058529"><ele>2576.6</ele><time>2026-04-04T21:50:07Z</time></trkpt>
<trkpt lat="38.669926" lon="-120.058418"><ele>2572.4</ele><time>2026-04-04T21:50:12Z</time></trkpt>
<trkpt lat="38.669898" lon="-120.058426"><ele>2570.2</ele><time>2026-04-04T21:50:24Z</time></trkpt>
<trkpt lat="38.670845" lon="-120.058526"><ele>2556.4</ele><time>2026-04-04T21:50:36Z</time></trkpt>
<trkpt lat="38.670973" lon="-120.058562"><ele>2556.0</ele><time>2026-04-04T21:50:37Z</time></trkpt>
<trkpt lat="38.671209" lon="-120.058568"><ele>2548.0</ele><time>2026-04-04T21:50:39Z</time></trkpt>
<trkpt lat="38.671592" lon="-120.058478"><ele>2540.2</ele><time>2026-04-04T21:50:42Z</time></trkpt>
<trkpt lat="38.672377" lon="-120.058340"><ele>2530.6</ele><time>2026-04-04T21:50:48Z</time></trkpt>
<trkpt lat="38.672613" lon="-120.058328"><ele>2526.2</ele><time>2026-04-04T21:50:50Z</time></trkpt>
<trkpt lat="38.673202" lon="-120.058109"><ele>2520.6</ele><time>2026-04-04T21:50:56Z</time></trkpt>
<trkpt lat="38.673765" lon="-120.057801"><ele>2515.4</ele><time>2026-04-04T21:51:03Z</time></trkpt>
<trkpt lat="38.674362" lon="-120.057561"><ele>2507.2</ele><time>2026-04-04T21:51:11Z</time></trkpt>
<trkpt lat="38.674621" lon="-120.057480"><ele>2504.4</ele><time>2026-04-04T21:51:15Z</time></trkpt>
<trkpt lat="38.674950" lon="-120.057499"><ele>2502.0</ele><time>2026-04-04T21:51:20Z</time></trkpt>
<trkpt lat="38.675313" lon="-120.057648"><ele>2499.4</ele><time>2026-04-04T21:51:27Z</time></trkpt>
<trkpt lat="38.675866" lon="-120.058019"><ele>2494.8</ele><time>2026-04-04T21:51:41Z</time></trkpt>
<trkpt lat="38.676428" lon="-120.058632"><ele>2490.4</ele><time>2026-04-04T21:51:54Z</time></trkpt>
<trkpt lat="38.676577" lon="-120.058842"><ele>2489.6</ele><time>2026-04-04T21:52:01Z</time></trkpt>
<trkpt lat="38.676758" lon="-120.059589"><ele>2485.4</ele><time>2026-04-04T21:52:30Z</time></trkpt>
<trkpt lat="38.676791" lon="-120.059862"><ele>2485.4</ele><time>2026-04-04T21:52:38Z</time></trkpt>
<trkpt lat="38.676866" lon="-120.060148"><ele>2484.2</ele><time>2026-04-04T21:52:47Z</time></trkpt>
<trkpt lat="38.677310" lon="-120.061270"><ele>2479.0</ele><time>2026-04-04T21:53:24Z</time></trkpt>
<trkpt lat="38.677777" lon="-120.062283"><ele>2471.2</ele><time>2026-04-04T21:53:43Z</time></trkpt>
<trkpt lat="38.678168" lon="-120.062933"><ele>2466.2</ele><time>2026-04-04T21:53:55Z</time></trkpt>
<trkpt lat="38.678199" lon="-120.063126"><ele>2465.0</ele><time>2026-04-04T21:54:04Z</time></trkpt>
<trkpt lat="38.678473" lon="-120.063838"><ele>2458.2</ele><time>2026-04-04T21:54:20Z</time></trkpt>
<trkpt lat="38.678557" lon="-120.064138"><ele>2455.6</ele><time>2026-04-04T21:54:24Z</time></trkpt>
<trkpt lat="38.678761" lon="-120.064567"><ele>2451.8</ele><time>2026-04-04T21:54:30Z</time></trkpt>
<trkpt lat="38.679031" lon="-120.065005"><ele>2448.6</ele><time>2026-04-04T21:54:38Z</time></trkpt>
<trkpt lat="38.679348" lon="-120.065350"><ele>2444.2</ele><time>2026-04-04T21:54:47Z</time></trkpt>
<trkpt lat="38.679759" lon="-120.065639"><ele>2438.8</ele><time>2026-04-04T21:55:10Z</time></trkpt>
<trkpt lat="38.679747" lon="-120.065602"><ele>2437.0</ele><time>2026-04-04T21:55:28Z</time></trkpt>
<trkpt lat="38.680342" lon="-120.065700"><ele>2432.8</ele><time>2026-04-04T21:55:45Z</time></trkpt>
<trkpt lat="38.680808" lon="-120.065577"><ele>2427.8</ele><time>2026-04-04T21:55:52Z</time></trkpt>
<trkpt lat="38.681217" lon="-120.065518"><ele>2424.0</ele><time>2026-04-04T21:55:59Z</time></trkpt>
<trkpt lat="38.681503" lon="-120.065794"><ele>2420.6</ele><time>2026-04-04T21:56:05Z</time></trkpt>
<trkpt lat="38.681940" lon="-120.065805"><ele>2416.2</ele><time>2026-04-04T21:56:11Z</time></trkpt>
<trkpt lat="38.682105" lon="-120.065765"><ele>2414.8</ele><time>2026-04-04T21:56:13Z</time></trkpt>
<trkpt lat="38.682231" lon="-120.065675"><ele>2412.6</ele><time>2026-04-04T21:56:15Z</time></trkpt>
<trkpt lat="38.682575" lon="-120.065600"><ele>2407.4</ele><time>2026-04-04T21:56:20Z</time></trkpt>
<trkpt lat="38.683396" lon="-120.065550"><ele>2401.0</ele><time>2026-04-04T21:56:32Z</time></trkpt>
<trkpt lat="38.683832" lon="-120.065282"><ele>2397.2</ele><time>2026-04-04T21:56:42Z</time></trkpt>
<trkpt lat="38.684245" lon="-120.065253"><ele>2395.2</ele><time>2026-04-04T21:57:08Z</time></trkpt>
<trkpt lat="38.684305" lon="-120.065281"><ele>2394.6</ele><time>2026-04-04T21:57:11Z</time></trkpt>
<trkpt lat="38.684378" lon="-120.065451"><ele>2392.8</ele><time>2026-04-04T21:57:19Z</time></trkpt>
<trkpt lat="38.684782" lon="-120.065969"><ele>2388.4</ele><time>2026-04-04T21:58:31Z</time></trkpt>
</trkseg></trk>
</gpx>
