<?xml version="1.0" encoding="UTF-8"?>
<gpx version="1.1" creator="Eric Sichak trip reports" xmlns="http://www.topografix.com/GPX/1/1">
<metadata><name>Gran Paradiso Haute Route – Day 2</name><time>2024-03-19T07:14:02Z</time></metadata>
<trk><name>Gran Paradiso Haute Route – Day 2</name><type>ski</type><trkseg>
<trkpt lat="45.515690" lon="7.084370"><ele>2298.6</ele><time>2024-03-19T07:14:02Z</time></trkpt>
<trkpt lat="45.515697" lon="7.084345"><ele>2298.6</ele><time>2024-03-19T07:14:15Z</time></trkpt>
<trkpt lat="45.515671" lon="7.084425"><ele>2299.2</ele><time>2024-03-19T07:14:50Z</time></trkpt>
<trkpt lat="45.515653" lon="7.084411"><ele>2299.2</ele><time>2024-03-19T07:14:55Z</time></trkpt>
<trkpt lat="45.515694" lon="7.084442"><ele>2298.2</ele><time>2024-03-19T07:16:16Z</time></trkpt>
<trkpt lat="45.515674" lon="7.084415"><ele>2298.2</ele><time>2024-03-19T07:16:53Z</time></trkpt>
<trkpt lat="45.515597" lon="7.084445"><ele>2296.6</ele><time>2024-03-19T07:18:06Z</time></trkpt>
<trkpt lat="45.515548" lon="7.084363"><ele>2299.0</ele><time>2024-03-19T07:19:39Z</time></trkpt>
<trkpt lat="45.515444" lon="7.084458"><ele>2297.6</ele><time>2024-03-19T07:20:56Z</time></trkpt>
<trkpt lat="45.515337" lon="7.084439"><ele>2296.8</ele><time>2024-03-19T07:22:50Z</time></trkpt>
<trkpt lat="45.515300" lon="7.084436"><ele>2299.8</ele><time>2024-03-19T07:23:05Z</time></trkpt>
<trkpt lat="45.515089" lon="7.084498"><ele>2300.4</ele><time>2024-03-19T07:24:15Z</time></trkpt>
<trkpt lat="45.514720" lon="7.084520"><ele>2297.8</ele><time>2024-03-19T07:24:51Z</time></trkpt>
<trkpt lat="45.514471" lon="7.084453"><ele>2297.4</ele><time>2024-03-19T07:25:23Z</time></trkpt>
<trkpt lat="45.514195" lon="7.084457"><ele>2299.6</ele><time>2024-03-19T07:25:59Z</time></trkpt>
<trkpt lat="45.514002" lon="7.084541"><ele>2301.4</ele><time>2024-03-19T07:26:21Z</time></trkpt>
<trkpt lat="45.513785" lon="7.084698"><ele>2299.4</ele><time>2024-03-19T07:26:40Z</time></trkpt>
<trkpt lat="45.513628" lon="7.084734"><ele>2297.2</ele><time>2024-03-19T07:27:00Z</time></trkpt>
<trkpt lat="45.513460" lon="7.084728"><ele>2297.0</ele><time>2024-03-19T07:27:16Z</time></trkpt>
<trkpt lat="45.513279" lon="7.084667"><ele>2297.0</ele><time>2024-03-19T07:27:40Z</time></trkpt>
<trkpt lat="45.513117" lon="7.084463"><ele>2298.2</ele><time>2024-03-19T07:28:40Z</time></trkpt>
<trkpt lat="45.513034" lon="7.084454"><ele>2299.2</ele><time>2024-03-19T07:30:00Z</time></trkpt>
<trkpt lat="45.512891" lon="7.084325"><ele>2299.6</ele><time>2024-03-19T07:30:28Z</time></trkpt>
<trkpt lat="45.512716" lon="7.084198"><ele>2303.8</ele><time>2024-03-19T07:30:56Z</time></trkpt>
<trkpt lat="45.512623" lon="7.084193"><ele>2307.0</ele><time>2024-03-19T07:31:08Z</time></trkpt>
<trkpt lat="45.512526" lon="7.084136"><ele>2307.0</ele><time>2024-03-19T07:31:19Z</time></trkpt>
<trkpt lat="45.512378" lon="7.084018"><ele>2310.2</ele><time>2024-03-19T07:31:41Z</time></trkpt>
<trkpt lat="45.512283" lon="7.083863"><ele>2312.6</ele><time>2024-03-19T07:32:02Z</time></trkpt>
<trkpt lat="45.511983" lon="7.083803"><ele>2318.4</ele><time>2024-03-19T07:32:46Z</time></trkpt>
<trkpt lat="45.511711" lon="7.083683"><ele>2322.0</ele><time>2024-03-19T07:33:23Z</time></trkpt>
<trkpt lat="45.511420" lon="7.083738"><ele>2323.8</ele><time>2024-03-19T07:33:55Z</time></trkpt>
<trkpt lat="45.510825" lon="7.084201"><ele>2325.4</ele><time>2024-03-19T07:34:59Z</time></trkpt>
<trkpt lat="45.510025" lon="7.085149"><ele>2329.2</ele><time>2024-03-19T07:36:50Z</time></trkpt>
<trkpt lat="45.509800" lon="7.085473"><ele>2326.8</ele><time>2024-03-19T07:37:24Z</time></trkpt>
<trkpt lat="45.509594" lon="7.085792"><ele>2329.8</ele><time>2024-03-19T07:37:58Z</time></trkpt>
<trkpt lat="45.509279" lon="7.086470"><ele>2333.0</ele><time>2024-03-19T07:39:14Z</time></trkpt>
<trkpt lat="45.509134" lon="7.086675"><ele>2338.0</ele><time>2024-03-19T07:39:44Z</time></trkpt>
<trkpt lat="45.508946" lon="7.086959"><ele>2339.6</ele><time>2024-03-19T07:40:16Z</time></trkpt>
<trkpt lat="45.508694" lon="7.087061"><ele>2340.8</ele><time>2024-03-19T07:40:48Z</time></trkpt>
<trkpt lat="45.508474" lon="7.087268"><ele>2345.0</ele><time>2024-03-19T07:41:31Z</time></trkpt>
<trkpt lat="45.508289" lon="7.087338"><ele>2347.0</ele><time>2024-03-19T07:41:57Z</time></trkpt>
<trkpt lat="45.508039" lon="7.087374"><ele>2353.4</ele><time>2024-03-19T07:42:49Z</time></trkpt>
<trkpt lat="45.508020" lon="7.087255"><ele>2355.4</ele><time>2024-03-19T07:43:35Z</time></trkpt>
<trkpt lat="45.507862" lon="7.087536"><ele>2361.2</ele><time>2024-03-19T07:44:41Z</time></trkpt>
<trkpt lat="45.507778" lon="7.087565"><ele>2362.8</ele><time>2024-03-19T07:45:00Z</time></trkpt>
<trkpt lat="45.507561" lon="7.087738"><ele>2371.2</ele><time>2024-03-19T07:45:44Z</time></trkpt>
<trkpt lat="45.507320" lon="7.087986"><ele>2376.6</ele><time>2024-03-19T07:46:24Z</time></trkpt>
<trkpt lat="45.507059" lon="7.088136"><ele>2381.8</ele><time>2024-03-19T07:47:06Z</time></trkpt>
<trkpt lat="45.506938" lon="7.088265"><ele>2385.6</ele><time>2024-03-19T07:47:27Z</time></trkpt>
<trkpt lat="45.506730" lon="7.088320"><ele>2392.0</ele><time>2024-03-19T07:48:14Z</time></trkpt>
<trkpt lat="45.506727" lon="7.088394"><ele>2394.2</ele><time>2024-03-19T07:48:31Z</time></trkpt>
<trkpt lat="45.506647" lon="7.088487"><ele>2397.4</ele><time>2024-03-19T07:48:49Z</time></trkpt>
<trkpt lat="45.506455" lon="7.088653"><ele>2399.2</ele><time>2024-03-19T07:49:14Z</time></trkpt>
<trkpt lat="45.506349" lon="7.088969"><ele>2403.0</ele><time>2024-03-19T07:49:49Z</time></trkpt>
<trkpt lat="45.506262" lon="7.089090"><ele>2406.2</ele><time>2024-03-19T07:50:13Z</time></trkpt>
<trkpt lat="45.505666" lon="7.089371"><ele>2416.2</ele><time>2024-03-19T07:51:52Z</time></trkpt>
<trkpt lat="45.505667" lon="7.089354"><ele>2423.2</ele><time>2024-03-19T07:52:44Z</time></trkpt>
<trkpt lat="45.505627" lon="7.089317"><ele>2425.0</ele><time>2024-03-19T07:54:09Z</time></trkpt>
<trkpt lat="45.505543" lon="7.089365"><ele>2427.0</ele><time>2024-03-19T07:54:20Z</time></trkpt>
<trkpt lat="45.505433" lon="7.089542"><ele>2427.2</ele><time>2024-03-19T07:57:15Z</time></trkpt>
<trkpt lat="45.505219" lon="7.089584"><ele>2429.8</ele><time>2024-03-19T07:58:56Z</time></trkpt>
<trkpt lat="45.504800" lon="7.089758"><ele>2436.6</ele><time>2024-03-19T07:59:56Z</time></trkpt>
<trkpt lat="45.504382" lon="7.090142"><ele>2444.6</ele><time>2024-03-19T08:01:08Z</time></trkpt>
<trkpt lat="45.504024" lon="7.090275"><ele>2451.8</ele><time>2024-03-19T08:02:19Z</time></trkpt>
<trkpt lat="45.503941" lon="7.090283"><ele>2453.0</ele><time>2024-03-19T08:02:35Z</time></trkpt>
<trkpt lat="45.503828" lon="7.090059"><ele>2452.4</ele><time>2024-03-19T08:03:12Z</time></trkpt>
<trkpt lat="45.503840" lon="7.090027"><ele>2448.6</ele><time>2024-03-19T08:03:46Z</time></trkpt>
<trkpt lat="45.503531" lon="7.089517"><ele>2455.6</ele><time>2024-03-19T08:04:51Z</time></trkpt>
<trkpt lat="45.503360" lon="7.089178"><ele>2458.6</ele><time>2024-03-19T08:05:30Z</time></trkpt>
<trkpt lat="45.503114" lon="7.088764"><ele>2459.2</ele><time>2024-03-19T08:06:38Z</time></trkpt>
<trkpt lat="45.502898" lon="7.088526"><ele>2460.0</ele><time>2024-03-19T08:07:06Z</time></trkpt>
<trkpt lat="45.502813" lon="7.088339"><ele>2461.2</ele><time>2024-03-19T08:07:22Z</time></trkpt>
<trkpt lat="45.502476" lon="7.087841"><ele>2461.0</ele><time>2024-03-19T08:08:10Z</time></trkpt>
<trkpt lat="45.502275" lon="7.087619"><ele>2460.6</ele><time>2024-03-19T08:08:35Z</time></trkpt>
<trkpt lat="45.501920" lon="7.087394"><ele>2460.6</ele><time>2024-03-19T08:09:17Z</time></trkpt>
<trkpt lat="45.501176" lon="7.087541"><ele>2466.6</ele><time>2024-03-19T08:10:42Z</time></trkpt>
<trkpt lat="45.500291" lon="7.087606"><ele>2473.6</ele><time>2024-03-19T08:12:20Z</time></trkpt>
<trkpt lat="45.499863" lon="7.087682"><ele>2476.6</ele><time>2024-03-19T08:13:06Z</time></trkpt>
<trkpt lat="45.499570" lon="7.087707"><ele>2478.0</ele><time>2024-03-19T08:13:41Z</time></trkpt>
<trkpt lat="45.499185" lon="7.087664"><ele>2479.8</ele><time>2024-03-19T08:14:27Z</time></trkpt>
<trkpt lat="45.499050" lon="7.087717"><ele>2480.8</ele><time>2024-03-19T08:14:43Z</time></trkpt>
<trkpt lat="45.498771" lon="7.087944"><ele>2484.4</ele><time>2024-03-19T08:15:20Z</time></trkpt>
<trkpt lat="45.498522" lon="7.088058"><ele>2488.0</ele><time>2024-03-19T08:15:52Z</time></trkpt>
<trkpt lat="45.498458" lon="7.088066"><ele>2488.8</ele><time>2024-03-19T08:16:02Z</time></trkpt>
<trkpt lat="45.498218" lon="7.087954"><ele>2493.0</ele><time>2024-03-19T08:16:44Z</time></trkpt>
<trkpt lat="45.497962" lon="7.087695"><ele>2497.6</ele><time>2024-03-19T08:17:54Z</time></trkpt>
<trkpt lat="45.497860" lon="7.087567"><ele>2501.0</ele><time>2024-03-19T08:18:27Z</time></trkpt>
<trkpt lat="45.497796" lon="7.087430"><ele>2505.8</ele><time>2024-03-19T08:18:54Z</time></trkpt>
<trkpt lat="45.497763" lon="7.087244"><ele>2507.4</ele><time>2024-03-19T08:19:12Z</time></trkpt>
<trkpt lat="45.497755" lon="7.087026"><ele>2505.8</ele><time>2024-03-19T08:19:48Z</time></trkpt>
<trkpt lat="45.497723" lon="7.086793"><ele>2509.0</ele><time>2024-03-19T08:20:14Z</time></trkpt>
<trkpt lat="45.497750" lon="7.086591"><ele>2511.0</ele><time>2024-03-19T08:20:33Z</time></trkpt>
<trkpt lat="45.498060" lon="7.085909"><ele>2513.6</ele><time>2024-03-19T08:21:31Z</time></trkpt>
<trkpt lat="45.498439" lon="7.085332"><ele>2516.6</ele><time>2024-03-19T08:22:33Z</time></trkpt>
<trkpt lat="45.498486" lon="7.085182"><ele>2518.4</ele><time>2024-03-19T08:22:47Z</time></trkpt>
<trkpt lat="45.498623" lon="7.084951"><ele>2520.6</ele><time>2024-03-19T08:23:09Z</time></trkpt>
<trkpt lat="45.498753" lon="7.084795"><ele>2523.4</ele><time>2024-03-19T08:23:28Z</time></trkpt>
<trkpt lat="45.499096" lon="7.084554"><ele>2525.8</ele><time>2024-03-19T08:24:04Z</time></trkpt>
<trkpt lat="45.499476" lon="7.084159"><ele>2527.6</ele><time>2024-03-19T08:24:54Z</time></trkpt>
<trkpt lat="45.500009" lon="7.083891"><ele>2533.2</ele><time>2024-03-19T08:25:52Z</time></trkpt>
<trkpt lat="45.500322" lon="7.083539"><ele>2536.2</ele><time>2024-03-19T08:26:38Z</time></trkpt>
<trkpt lat="45.500642" lon="7.083341"><ele>2538.0</ele><time>2024-03-19T08:27:15Z</time></trkpt>
<trkpt lat="45.500758" lon="7.083231"><ele>2537.6</ele><time>2024-03-19T08:27:29Z</time></trkpt>
<trkpt lat="45.501129" lon="7.082724"><ele>2536.6</ele><time>2024-03-19T08:28:22Z</time></trkpt>
<trkpt lat="45.501287" lon="7.082424"><ele>2537.8</ele><time>2024-03-19T08:28:52Z</time></trkpt>
<trkpt lat="45.501416" lon="7.082134"><ele>2540.6</ele><time>2024-03-19T08:29:29Z</time></trkpt>
<trkpt lat="45.501601" lon="7.081548"><ele>2545.0</ele><time>2024-03-19T08:30:23Z</time></trkpt>
<trkpt lat="45.501598" lon="7.081348"><ele>2546.6</ele><time>2024-03-19T08:31:09Z</time></trkpt>
<trkpt lat="45.501673" lon="7.081364"><ele>2548.0</ele><time>2024-03-19T08:32:31Z</time></trkpt>
<trkpt lat="45.501662" lon="7.081280"><ele>2548.2</ele><time>2024-03-19T08:33:50Z</time></trkpt>
<trkpt lat="45.501722" lon="7.081114"><ele>2550.4</ele><time>2024-03-19T08:34:22Z</time></trkpt>
<trkpt lat="45.501679" lon="7.081129"><ele>2551.2</ele><time>2024-03-19T08:35:33Z</time></trkpt>
<trkpt lat="45.501717" lon="7.081125"><ele>2552.8</ele><time>2024-03-19T08:37:27Z</time></trkpt>
<trkpt lat="45.501709" lon="7.080952"><ele>2555.0</ele><time>2024-03-19T08:37:49Z</time></trkpt>
<trkpt lat="45.501683" lon="7.080880"><ele>2556.4</ele><time>2024-03-19T08:37:57Z</time></trkpt>
<trkpt lat="45.501631" lon="7.080854"><ele>2558.4</ele><time>2024-03-19T08:38:10Z</time></trkpt>
<trkpt lat="45.501673" lon="7.080782"><ele>2559.2</ele><time>2024-03-19T08:38:35Z</time></trkpt>
<trkpt lat="45.501646" lon="7.080790"><ele>2560.0</ele><time>2024-03-19T08:38:59Z</time></trkpt>
<trkpt lat="45.501678" lon="7.080628"><ele>2564.0</ele><time>2024-03-19T08:39:44Z</time></trkpt>
<trkpt lat="45.501702" lon="7.080009"><ele>2569.8</ele><time>2024-03-19T08:40:40Z</time></trkpt>
<trkpt lat="45.501671" lon="7.079743"><ele>2572.6</ele><time>2024-03-19T08:41:12Z</time></trkpt>
<trkpt lat="45.501560" lon="7.079458"><ele>2579.6</ele><time>2024-03-19T08:41:56Z</time></trkpt>
<trkpt lat="45.501574" lon="7.078571"><ele>2592.8</ele><time>2024-03-19T08:43:35Z</time></trkpt>
<trkpt lat="45.501546" lon="7.078351"><ele>2595.8</ele><time>2024-03-19T08:44:01Z</time></trkpt>
<trkpt lat="45.501421" lon="7.078040"><ele>2599.0</ele><time>2024-03-19T08:44:40Z</time></trkpt>
<trkpt lat="45.501319" lon="7.077875"><ele>2599.6</ele><time>2024-03-19T08:45:13Z</time></trkpt>
<trkpt lat="45.501281" lon="7.077757"><ele>2606.0</ele><time>2024-03-19T08:45:39Z</time></trkpt>
<trkpt lat="45.501416" lon="7.077761"><ele>2604.8</ele><time>2024-03-19T08:45:57Z</time></trkpt>
<trkpt lat="45.501635" lon="7.077775"><ele>2608.8</ele><time>2024-03-19T08:46:35Z</time></trkpt>
<trkpt lat="45.501578" lon="7.077609"><ele>2615.6</ele><time>2024-03-19T08:46:55Z</time></trkpt>
<trkpt lat="45.501541" lon="7.077384"><ele>2619.6</ele><time>2024-03-19T08:47:21Z</time></trkpt>
<trkpt lat="45.501456" lon="7.077242"><ele>2621.6</ele><time>2024-03-19T08:47:47Z</time></trkpt>
<trkpt lat="45.501607" lon="7.077001"><ele>2624.0</ele><time>2024-03-19T08:48:35Z</time></trkpt>
<trkpt lat="45.501669" lon="7.076962"><ele>2624.8</ele><time>2024-03-19T08:48:58Z</time></trkpt>
<trkpt lat="45.501482" lon="7.076813"><ele>2630.2</ele><time>2024-03-19T08:49:29Z</time></trkpt>
<trkpt lat="45.501333" lon="7.076753"><ele>2635.6</ele><time>2024-03-19T08:50:01Z</time></trkpt>
<trkpt lat="45.501391" lon="7.076646"><ele>2636.8</ele><time>2024-03-19T08:50:13Z</time></trkpt>
<trkpt lat="45.501501" lon="7.076551"><ele>2637.0</ele><time>2024-03-19T08:50:49Z</time></trkpt>
<trkpt lat="45.501371" lon="7.076482"><ele>2641.4</ele><time>2024-03-19T08:51:20Z</time></trkpt>
<trkpt lat="45.501253" lon="7.076479"><ele>2647.8</ele><time>2024-03-19T08:51:51Z</time></trkpt>
<trkpt lat="45.501321" lon="7.076321"><ele>2648.4</ele><time>2024-03-19T08:52:16Z</time></trkpt>
<trkpt lat="45.501457" lon="7.076228"><ele>2651.8</ele><time>2024-03-19T08:52:46Z</time></trkpt>
<trkpt lat="45.501273" lon="7.076125"><ele>2660.6</ele><time>2024-03-19T08:53:33Z</time></trkpt>
<trkpt lat="45.501508" lon="7.075907"><ele>2663.6</ele><time>2024-03-19T08:54:19Z</time></trkpt>
<trkpt lat="45.501312" lon="7.075693"><ele>2668.2</ele><time>2024-03-19T08:54:54Z</time></trkpt>
<trkpt lat="45.501180" lon="7.075474"><ele>2674.2</ele><time>2024-03-19T08:55:36Z</time></trkpt>
<trkpt lat="45.500960" lon="7.075622"><ele>2679.8</ele><time>2024-03-19T08:56:16Z</time></trkpt>
<trkpt lat="45.500857" lon="7.075638"><ele>2684.2</ele><time>2024-03-19T08:56:31Z</time></trkpt>
<trkpt lat="45.500705" lon="7.075611"><ele>2686.2</ele><time>2024-03-19T08:56:49Z</time></trkpt>
<trkpt lat="45.500108" lon="7.075305"><ele>2689.2</ele><time>2024-03-19T08:58:01Z</time></trkpt>
<trkpt lat="45.499812" lon="7.075161"><ele>2699.2</ele><time>2024-03-19T08:58:50Z</time></trkpt>
<trkpt lat="45.499627" lon="7.075176"><ele>2700.8</ele><time>2024-03-19T08:59:13Z</time></trkpt>
<trkpt lat="45.499496" lon="7.075257"><ele>2702.4</ele><time>2024-03-19T08:59:34Z</time></trkpt>
<trkpt lat="45.499009" lon="7.075207"><ele>2709.6</ele><time>2024-03-19T09:00:45Z</time></trkpt>
<trkpt lat="45.498789" lon="7.075336"><ele>2714.0</ele><time>2024-03-19T09:01:21Z</time></trkpt>
<trkpt lat="45.498638" lon="7.075312"><ele>2715.0</ele><time>2024-03-19T09:01:53Z</time></trkpt>
<trkpt lat="45.498457" lon="7.075149"><ele>2714.2</ele><time>2024-03-19T09:02:29Z</time></trkpt>
<trkpt lat="45.498268" lon="7.074808"><ele>2710.8</ele><time>2024-03-19T09:02:54Z</time></trkpt>
<trkpt lat="45.498075" lon="7.074530"><ele>2711.4</ele><time>2024-03-19T09:03:04Z</time></trkpt>
<trkpt lat="45.497854" lon="7.074143"><ele>2704.2</ele><time>2024-03-19T09:03:35Z</time></trkpt>
<trkpt lat="45.497580" lon="7.073823"><ele>2702.4</ele><time>2024-03-19T09:04:14Z</time></trkpt>
<trkpt lat="45.497420" lon="7.073587"><ele>2703.2</ele><time>2024-03-19T09:04:40Z</time></trkpt>
<trkpt lat="45.497000" lon="7.073170"><ele>2705.6</ele><time>2024-03-19T09:05:43Z</time></trkpt>
<trkpt lat="45.496220" lon="7.072606"><ele>2721.0</ele><time>2024-03-19T09:07:52Z</time></trkpt>
<trkpt lat="45.496036" lon="7.072154"><ele>2726.4</ele><time>2024-03-19T09:08:46Z</time></trkpt>
<trkpt lat="45.495932" lon="7.072037"><ele>2728.2</ele><time>2024-03-19T09:09:05Z</time></trkpt>
<trkpt lat="45.495681" lon="7.071894"><ele>2731.6</ele><time>2024-03-19T09:09:41Z</time></trkpt>
<trkpt lat="45.495459" lon="7.071813"><ele>2734.8</ele><time>2024-03-19T09:10:16Z</time></trkpt>
<trkpt lat="45.495067" lon="7.071800"><ele>2736.4</ele><time>2024-03-19T09:11:03Z</time></trkpt>
<trkpt lat="45.494271" lon="7.071873"><ele>2745.8</ele><time>2024-03-19T09:12:48Z</time></trkpt>
<trkpt lat="45.493707" lon="7.071845"><ele>2749.8</ele><time>2024-03-19T09:13:56Z</time></trkpt>
<trkpt lat="45.493202" lon="7.072065"><ele>2750.0</ele><time>2024-03-19T09:14:55Z</time></trkpt>
<trkpt lat="45.492895" lon="7.071882"><ele>2758.8</ele><time>2024-03-19T09:15:53Z</time></trkpt>
<trkpt lat="45.492763" lon="7.071758"><ele>2762.0</ele><time>2024-03-19T09:16:16Z</time></trkpt>
<trkpt lat="45.492039" lon="7.071590"><ele>2773.2</ele><time>2024-03-19T09:18:10Z</time></trkpt>
<trkpt lat="45.491576" lon="7.071340"><ele>2779.4</ele><time>2024-03-19T09:19:11Z</time></trkpt>
<trkpt lat="45.490977" lon="7.071146"><ele>2787.4</ele><time>2024-03-19T09:20:55Z</time></trkpt>
<trkpt lat="45.490357" lon="7.070445"><ele>2799.0</ele><time>2024-03-19T09:23:13Z</time></trkpt>
<trkpt lat="45.489912" lon="7.069834"><ele>2817.4</ele><time>2024-03-19T09:25:11Z</time></trkpt>
<trkpt lat="45.489750" lon="7.069527"><ele>2825.8</ele><time>2024-03-19T09:26:05Z</time></trkpt>
<trkpt lat="45.489130" lon="7.068806"><ele>2840.8</ele><time>2024-03-19T09:28:17Z</time></trkpt>
<trkpt lat="45.488785" lon="7.068204"><ele>2851.2</ele><time>2024-03-19T09:29:53Z</time></trkpt>
<trkpt lat="45.488719" lon="7.068040"><ele>2852.0</ele><time>2024-03-19T09:30:33Z</time></trkpt>
<trkpt lat="45.488718" lon="7.068083"><ele>2852.2</ele><time>2024-03-19T09:30:41Z</time></trkpt>
<trkpt lat="45.488697" lon="7.068070"><ele>2851.6</ele><time>2024-03-19T09:30:47Z</time></trkpt>
<trkpt lat="45.488583" lon="7.067787"><ele>2857.0</ele><time>2024-03-19T09:31:24Z</time></trkpt>
<trkpt lat="45.488446" lon="7.067593"><ele>2861.4</ele><time>2024-03-19T09:32:17Z</time></trkpt>
<trkpt lat="45.488358" lon="7.067369"><ele>2866.8</ele><time>2024-03-19T09:32:58Z</time></trkpt>
<trkpt lat="45.488342" lon="7.067382"><ele>2866.8</ele><time>2024-03-19T09:33:03Z</time></trkpt>
<trkpt lat="45.488373" lon="7.067430"><ele>2867.8</ele><time>2024-03-19T09:33:23Z</time></trkpt>
<trkpt lat="45.488125" lon="7.067021"><ele>2876.0</ele><time>2024-03-19T09:36:17Z</time></trkpt>
<trkpt lat="45.487809" lon="7.066574"><ele>2885.2</ele><time>2024-03-19T09:38:55Z</time></trkpt>
<trkpt lat="45.487814" lon="7.066600"><ele>2884.8</ele><time>2024-03-19T09:39:04Z</time></trkpt>
<trkpt lat="45.487781" lon="7.066589"><ele>2885.6</ele><time>2024-03-19T09:40:34Z</time></trkpt>
<trkpt lat="45.487794" lon="7.066567"><ele>2884.8</ele><time>2024-03-19T09:40:59Z</time></trkpt>
<trkpt lat="45.487789" lon="7.066562"><ele>2890.6</ele><time>2024-03-19T09:48:51Z</time></trkpt>
<trkpt lat="45.487797" lon="7.066589"><ele>2891.2</ele><time>2024-03-19T09:49:06Z</time></trkpt>
<trkpt lat="45.487798" lon="7.066552"><ele>2892.2</ele><time>2024-03-19T09:49:35Z</time></trkpt>
<trkpt lat="45.487786" lon="7.066600"><ele>2890.6</ele><time>2024-03-19T09:50:12Z</time></trkpt>
<trkpt lat="45.487778" lon="7.066528"><ele>2891.4</ele><time>2024-03-19T09:53:28Z</time></trkpt>
<trkpt lat="45.487795" lon="7.066516"><ele>2893.0</ele><time>2024-03-19T09:55:11Z</time></trkpt>
<trkpt lat="45.487740" lon="7.066538"><ele>2893.6</ele><time>2024-03-19T09:56:27Z</time></trkpt>
<trkpt lat="45.487782" lon="7.066554"><ele>2892.2</ele><time>2024-03-19T09:57:46Z</time></trkpt>
<trkpt lat="45.487730" lon="7.066247"><ele>2895.6</ele><time>2024-03-19T09:58:51Z</time></trkpt>
<trkpt lat="45.487576" lon="7.065906"><ele>2900.4</ele><time>2024-03-19T09:59:29Z</time></trkpt>
<trkpt lat="45.487496" lon="7.065804"><ele>2900.2</ele><time>2024-03-19T10:01:16Z</time></trkpt>
<trkpt lat="45.487410" lon="7.065341"><ele>2903.8</ele><time>2024-03-19T10:02:20Z</time></trkpt>
<trkpt lat="45.487003" lon="7.064676"><ele>2906.6</ele><time>2024-03-19T10:04:05Z</time></trkpt>
<trkpt lat="45.486605" lon="7.064199"><ele>2914.2</ele><time>2024-03-19T10:05:39Z</time></trkpt>
<trkpt lat="45.486024" lon="7.063722"><ele>2926.4</ele><time>2024-03-19T10:07:54Z</time></trkpt>
<trkpt lat="45.485668" lon="7.063412"><ele>2938.0</ele><time>2024-03-19T10:09:32Z</time></trkpt>
<trkpt lat="45.485550" lon="7.063260"><ele>2943.2</ele><time>2024-03-19T10:10:08Z</time></trkpt>
<trkpt lat="45.485238" lon="7.062559"><ele>2961.8</ele><time>2024-03-19T10:12:19Z</time></trkpt>
<trkpt lat="45.485126" lon="7.062117"><ele>2970.8</ele><time>2024-03-19T10:13:18Z</time></trkpt>
<trkpt lat="45.485133" lon="7.062060"><ele>2972.6</ele><time>2024-03-19T10:17:44Z</time></trkpt>
<trkpt lat="45.484803" lon="7.061414"><ele>2983.4</ele><time>2024-03-19T10:19:17Z</time></trkpt>
<trkpt lat="45.484123" lon="7.060343"><ele>2998.4</ele><time>2024-03-19T10:21:18Z</time></trkpt>
<trkpt lat="45.483801" lon="7.059892"><ele>3010.6</ele><time>2024-03-19T10:22:36Z</time></trkpt>
<trkpt lat="45.483097" lon="7.058807"><ele>3026.8</ele><time>2024-03-19T10:24:45Z</time></trkpt>
<trkpt lat="45.483003" lon="7.058545"><ele>3034.0</ele><time>2024-03-19T10:25:30Z</time></trkpt>
<trkpt lat="45.482910" lon="7.058155"><ele>3040.6</ele><time>2024-03-19T10:26:25Z</time></trkpt>
<trkpt lat="45.482881" lon="7.057988"><ele>3048.6</ele><time>2024-03-19T10:26:43Z</time></trkpt>
<trkpt lat="45.482882" lon="7.057956"><ele>3046.0</ele><time>2024-03-19T10:27:00Z</time></trkpt>
<trkpt lat="45.482821" lon="7.057626"><ele>3052.8</ele><time>2024-03-19T10:27:44Z</time></trkpt>
<trkpt lat="45.482764" lon="7.057284"><ele>3063.4</ele><time>2024-03-19T10:28:35Z</time></trkpt>
<trkpt lat="45.482667" lon="7.057192"><ele>3063.4</ele><time>2024-03-19T10:29:05Z</time></trkpt>
<trkpt lat="45.482470" lon="7.057121"><ele>3067.6</ele><time>2024-03-19T10:29:47Z</time></trkpt>
<trkpt lat="45.482244" lon="7.057130"><ele>3071.2</ele><time>2024-03-19T10:31:17Z</time></trkpt>
<trkpt lat="45.481800" lon="7.057302"><ele>3085.0</ele><time>2024-03-19T10:32:54Z</time></trkpt>
<trkpt lat="45.481544" lon="7.057292"><ele>3092.6</ele><time>2024-03-19T10:33:38Z</time></trkpt>
<trkpt lat="45.480914" lon="7.056906"><ele>3108.0</ele><time>2024-03-19T10:35:45Z</time></trkpt>
<trkpt lat="45.479966" lon="7.056507"><ele>3128.8</ele><time>2024-03-19T10:38:55Z</time></trkpt>
<trkpt lat="45.479379" lon="7.056279"><ele>3145.2</ele><time>2024-03-19T10:41:21Z</time></trkpt>
<trkpt lat="45.479362" lon="7.056236"><ele>3145.0</ele><time>2024-03-19T10:41:46Z</time></trkpt>
<trkpt lat="45.479371" lon="7.056282"><ele>3144.2</ele><time>2024-03-19T10:42:28Z</time></trkpt>
<trkpt lat="45.479216" lon="7.056263"><ele>3148.2</ele><time>2024-03-19T10:42:59Z</time></trkpt>
<trkpt lat="45.478929" lon="7.056300"><ele>3154.0</ele><time>2024-03-19T10:43:47Z</time></trkpt>
<trkpt lat="45.478263" lon="7.056254"><ele>3167.0</ele><time>2024-03-19T10:45:56Z</time></trkpt>
<trkpt lat="45.477606" lon="7.056014"><ele>3182.2</ele><time>2024-03-19T10:48:03Z</time></trkpt>
<trkpt lat="45.476945" lon="7.055904"><ele>3196.6</ele><time>2024-03-19T10:50:09Z</time></trkpt>
<trkpt lat="45.476314" lon="7.055638"><ele>3214.2</ele><time>2024-03-19T10:52:50Z</time></trkpt>
<trkpt lat="45.476169" lon="7.055630"><ele>3217.8</ele><time>2024-03-19T10:53:14Z</time></trkpt>
<trkpt lat="45.476116" lon="7.055733"><ele>3220.4</ele><time>2024-03-19T10:53:31Z</time></trkpt>
<trkpt lat="45.476079" lon="7.056067"><ele>3226.0</ele><time>2024-03-19T10:54:13Z</time></trkpt>
<trkpt lat="45.475821" lon="7.056047"><ele>3235.0</ele><time>2024-03-19T10:55:09Z</time></trkpt>
<trkpt lat="45.475774" lon="7.056068"><ele>3236.8</ele><time>2024-03-19T10:55:23Z</time></trkpt>
<trkpt lat="45.475776" lon="7.056123"><ele>3237.6</ele><time>2024-03-19T10:55:30Z</time></trkpt>
<trkpt lat="45.475661" lon="7.056160"><ele>3242.6</ele><time>2024-03-19T10:55:59Z</time></trkpt>
<trkpt lat="45.475472" lon="7.056131"><ele>3246.4</ele><time>2024-03-19T10:56:29Z</time></trkpt>
<trkpt lat="45.475490" lon="7.056410"><ele>3250.6</ele><time>2024-03-19T10:57:02Z</time></trkpt>
<trkpt lat="45.475227" lon="7.056327"><ele>3256.4</ele><time>2024-03-19T10:57:47Z</time></trkpt>
<trkpt lat="45.475252" lon="7.056608"><ele>3260.8</ele><time>2024-03-19T10:58:31Z</time></trkpt>
<trkpt lat="45.475176" lon="7.057239"><ele>3272.6</ele><time>2024-03-19T11:00:06Z</time></trkpt>
<trkpt lat="45.474515" lon="7.057092"><ele>3291.2</ele><time>2024-03-19T11:02:30Z</time></trkpt>
<trkpt lat="45.474442" lon="7.057579"><ele>3301.0</ele><time>2024-03-19T11:04:23Z</time></trkpt>
<trkpt lat="45.474462" lon="7.057580"><ele>3302.0</ele><time>2024-03-19T11:05:05Z</time></trkpt>
<trkpt lat="45.474409" lon="7.057608"><ele>3303.0</ele><time>2024-03-19T11:06:14Z</time></trkpt>
<trkpt lat="45.474051" lon="7.058214"><ele>3318.4</ele><time>2024-03-19T11:07:58Z</time></trkpt>
<trkpt lat="45.473395" lon="7.058815"><ele>3341.2</ele><time>2024-03-19T11:11:09Z</time></trkpt>
<trkpt lat="45.472646" lon="7.059588"><ele>3370.6</ele><time>2024-03-19T11:14:39Z</time></trkpt>
<trkpt lat="45.472442" lon="7.059651"><ele>3378.0</ele><time>2024-03-19T11:15:31Z</time></trkpt>
<trkpt lat="45.472420" lon="7.060653"><ele>3395.0</ele><time>2024-03-19T11:17:43Z</time></trkpt>
<trkpt lat="45.472367" lon="7.060858"><ele>3398.2</ele><time>2024-03-19T11:18:02Z</time></trkpt>
<trkpt lat="45.472259" lon="7.061038"><ele>3402.6</ele><time>2024-03-19T11:18:39Z</time></trkpt>
<trkpt lat="45.471988" lon="7.060885"><ele>3409.8</ele><time>2024-03-19T11:19:27Z</time></trkpt>
<trkpt lat="45.471805" lon="7.060707"><ele>3416.2</ele><time>2024-03-19T11:20:16Z</time></trkpt>
<trkpt lat="45.471546" lon="7.060376"><ele>3425.8</ele><time>2024-03-19T11:21:16Z</time></trkpt>
<trkpt lat="45.471476" lon="7.060354"><ele>3428.2</ele><time>2024-03-19T11:21:43Z</time></trkpt>
<trkpt lat="45.471437" lon="7.060638"><ele>3433.4</ele><time>2024-03-19T11:22:38Z</time></trkpt>
<trkpt lat="45.471406" lon="7.060667"><ele>3434.8</ele><time>2024-03-19T11:22:47Z</time></trkpt>
<trkpt lat="45.471168" lon="7.060430"><ele>3443.0</ele><time>2024-03-19T11:23:40Z</time></trkpt>
<trkpt lat="45.470911" lon="7.060503"><ele>3447.2</ele><time>2024-03-19T11:25:27Z</time></trkpt>
<trkpt lat="45.470854" lon="7.060477"><ele>3448.0</ele><time>2024-03-19T11:26:52Z</time></trkpt>
<trkpt lat="45.470843" lon="7.060386"><ele>3447.6</ele><time>2024-03-19T11:28:34Z</time></trkpt>
<trkpt lat="45.470853" lon="7.060435"><ele>3446.0</ele><time>2024-03-19T11:30:22Z</time></trkpt>
<trkpt lat="45.470833" lon="7.060394"><ele>3445.4</ele><time>2024-03-19T11:31:25Z</time></trkpt>
<trkpt lat="45.470865" lon="7.060471"><ele>3446.0</ele><time>2024-03-19T11:32:20Z</time></trkpt>
<trkpt lat="45.470835" lon="7.060393"><ele>3446.8</ele><time>2024-03-19T11:35:18Z</time></trkpt>
<trkpt lat="45.470853" lon="7.060469"><ele>3446.6</ele><time>2024-03-19T11:36:03Z</time></trkpt>
<trkpt lat="45.470853" lon="7.060461"><ele>3461.6</ele><time>2024-03-19T11:41:46Z</time></trkpt>
<trkpt lat="45.470879" lon="7.060443"><ele>3459.2</ele><time>2024-03-19T11:43:54Z</time></trkpt>
<trkpt lat="45.470855" lon="7.060415"><ele>3460.0</ele><time>2024-03-19T11:45:10Z</time></trkpt>
<trkpt lat="45.470873" lon="7.060447"><ele>3460.4</ele><time>2024-03-19T11:45:29Z</time></trkpt>
<trkpt lat="45.470870" lon="7.060421"><ele>3458.0</ele><time>2024-03-19T11:51:08Z</time></trkpt>
<trkpt lat="45.470853" lon="7.060446"><ele>3457.4</ele><time>2024-03-19T11:53:46Z</time></trkpt>
<trkpt lat="45.470863" lon="7.060416"><ele>3458.4</ele><time>2024-03-19T11:55:03Z</time></trkpt>
<trkpt lat="45.470869" lon="7.060432"><ele>3456.0</ele><time>2024-03-19T11:56:52Z</time></trkpt>
<trkpt lat="45.470834" lon="7.060431"><ele>3454.6</ele><time>2024-03-19T11:59:59Z</time></trkpt>
<trkpt lat="45.470844" lon="7.060412"><ele>3457.6</ele><time>2024-03-19T12:01:16Z</time></trkpt>
<trkpt lat="45.470829" lon="7.060386"><ele>3457.2</ele><time>2024-03-19T12:01:30Z</time></trkpt>
<trkpt lat="45.470882" lon="7.060435"><ele>3456.2</ele><time>2024-03-19T12:03:06Z</time></trkpt>
<trkpt lat="45.470882" lon="7.060472"><ele>3456.4</ele><time>2024-03-19T12:03:10Z</time></trkpt>
<trkpt lat="45.470846" lon="7.060466"><ele>3456.8</ele><time>2024-03-19T12:04:51Z</time></trkpt>
<trkpt lat="45.470900" lon="7.060499"><ele>3455.8</ele><time>2024-03-19T12:11:16Z</time></trkpt>
<trkpt lat="45.470888" lon="7.060473"><ele>3453.8</ele><time>2024-03-19T12:13:58Z</time></trkpt>
<trkpt lat="45.470893" lon="7.060503"><ele>3454.8</ele><time>2024-03-19T12:15:18Z</time></trkpt>
<trkpt lat="45.470896" lon="7.060475"><ele>3452.2</ele><time>2024-03-19T12:21:44Z</time></trkpt>
<trkpt lat="45.470965" lon="7.060487"><ele>3452.4</ele><time>2024-03-19T12:23:06Z</time></trkpt>
<trkpt lat="45.471052" lon="7.060398"><ele>3450.2</ele><time>2024-03-19T12:24:56Z</time></trkpt>
<trkpt lat="45.471250" lon="7.060399"><ele>3447.4</ele><time>2024-03-19T12:26:50Z</time></trkpt>
<trkpt lat="45.471359" lon="7.060467"><ele>3445.0</ele><time>2024-03-19T12:26:52Z</time></trkpt>
<trkpt lat="45.471446" lon="7.060577"><ele>3443.2</ele><time>2024-03-19T12:26:54Z</time></trkpt>
<trkpt lat="45.471469" lon="7.060574"><ele>3439.6</ele><time>2024-03-19T12:26:55Z</time></trkpt>
<trkpt lat="45.471521" lon="7.060312"><ele>3435.8</ele><time>2024-03-19T12:27:00Z</time></trkpt>
<trkpt lat="45.471614" lon="7.060370"><ele>3433.0</ele><time>2024-03-19T12:27:02Z</time></trkpt>
<trkpt lat="45.471713" lon="7.060618"><ele>3427.4</ele><time>2024-03-19T12:27:06Z</time></trkpt>
<trkpt lat="45.471753" lon="7.060645"><ele>3426.2</ele><time>2024-03-19T12:27:07Z</time></trkpt>
<trkpt lat="45.471867" lon="7.060530"><ele>3424.4</ele><time>2024-03-19T12:27:10Z</time></trkpt>
<trkpt lat="45.471919" lon="7.060546"><ele>3423.0</ele><time>2024-03-19T12:27:11Z</time></trkpt>
<trkpt lat="45.471980" lon="7.060518"><ele>3417.4</ele><time>2024-03-19T12:27:12Z</time></trkpt>
<trkpt lat="45.472044" lon="7.060482"><ele>3417.0</ele><time>2024-03-19T12:27:13Z</time></trkpt>
<trkpt lat="45.472117" lon="7.060496"><ele>3416.2</ele><time>2024-03-19T12:27:14Z</time></trkpt>
<trkpt lat="45.472330" lon="7.060670"><ele>3406.8</ele><time>2024-03-19T12:27:17Z</time></trkpt>
<trkpt lat="45.472411" lon="7.060692"><ele>3406.0</ele><time>2024-03-19T12:27:18Z</time></trkpt>
<trkpt lat="45.472557" lon="7.060614"><ele>3404.6</ele><time>2024-03-19T12:27:20Z</time></trkpt>
<trkpt lat="45.472678" lon="7.060641"><ele>3400.8</ele><time>2024-03-19T12:27:22Z</time></trkpt>
<trkpt lat="45.472709" lon="7.060600"><ele>3397.8</ele><time>2024-03-19T12:27:23Z</time></trkpt>
<trkpt lat="45.472707" lon="7.060410"><ele>3396.8</ele><time>2024-03-19T12:27:26Z</time></trkpt>
<trkpt lat="45.472697" lon="7.060399"><ele>3391.2</ele><time>2024-03-19T12:28:53Z</time></trkpt>
<trkpt lat="45.472731" lon="7.060406"><ele>3391.2</ele><time>2024-03-19T12:28:59Z</time></trkpt>
<trkpt lat="45.472854" lon="7.060085"><ele>3387.8</ele><time>2024-03-19T12:29:04Z</time></trkpt>
<trkpt lat="45.473103" lon="7.059712"><ele>3371.8</ele><time>2024-03-19T12:29:10Z</time></trkpt>
<trkpt lat="45.473797" lon="7.059255"><ele>3345.8</ele><time>2024-03-19T12:29:21Z</time></trkpt>
<trkpt lat="45.474212" lon="7.058943"><ele>3335.0</ele><time>2024-03-19T12:29:27Z</time></trkpt>
<trkpt lat="45.474269" lon="7.058949"><ele>3330.4</ele><time>2024-03-19T12:29:29Z</time></trkpt>
<trkpt lat="45.474251" lon="7.058926"><ele>3326.2</ele><time>2024-03-19T12:30:39Z</time></trkpt>
<trkpt lat="45.474334" lon="7.058896"><ele>3325.8</ele><time>2024-03-19T12:30:48Z</time></trkpt>
<trkpt lat="45.474397" lon="7.058795"><ele>3325.2</ele><time>2024-03-19T12:30:50Z</time></trkpt>
<trkpt lat="45.474515" lon="7.058425"><ele>3320.8</ele><time>2024-03-19T12:30:54Z</time></trkpt>
<trkpt lat="45.474561" lon="7.058346"><ele>3318.4</ele><time>2024-03-19T12:30:55Z</time></trkpt>
<trkpt lat="45.474825" lon="7.058049"><ele>3309.8</ele><time>2024-03-19T12:31:00Z</time></trkpt>
<trkpt lat="45.474957" lon="7.057826"><ele>3303.0</ele><time>2024-03-19T12:31:03Z</time></trkpt>
<trkpt lat="45.475480" lon="7.057326"><ele>3278.8</ele><time>2024-03-19T12:31:13Z</time></trkpt>
<trkpt lat="45.475689" lon="7.057036"><ele>3271.0</ele><time>2024-03-19T12:31:17Z</time></trkpt>
<trkpt lat="45.475958" lon="7.056889"><ele>3258.6</ele><time>2024-03-19T12:31:21Z</time></trkpt>
<trkpt lat="45.476107" lon="7.056853"><ele>3254.0</ele><time>2024-03-19T12:31:23Z</time></trkpt>
<trkpt lat="45.476177" lon="7.056787"><ele>3248.8</ele><time>2024-03-19T12:31:24Z</time></trkpt>
<trkpt lat="45.476317" lon="7.056774"><ele>3245.4</ele><time>2024-03-19T12:31:26Z</time></trkpt>
<trkpt lat="45.476396" lon="7.056736"><ele>3239.2</ele><time>2024-03-19T12:31:27Z</time></trkpt>
<trkpt lat="45.476539" lon="7.056717"><ele>3237.0</ele><time>2024-03-19T12:31:29Z</time></trkpt>
<trkpt lat="45.476606" lon="7.056674"><ele>3230.6</ele><time>2024-03-19T12:31:30Z</time></trkpt>
<trkpt lat="45.476754" lon="7.056683"><ele>3226.4</ele><time>2024-03-19T12:31:32Z</time></trkpt>
<trkpt lat="45.476809" lon="7.056634"><ele>3222.0</ele><time>2024-03-19T12:31:33Z</time></trkpt>
<trkpt lat="45.476934" lon="7.056605"><ele>3220.2</ele><time>2024-03-19T12:31:35Z</time></trkpt>
<trkpt lat="45.476953" lon="7.056544"><ele>3214.6</ele><time>2024-03-19T12:31:36Z</time></trkpt>
<trkpt lat="45.476940" lon="7.056547"><ele>3209.6</ele><time>2024-03-19T12:32:34Z</time></trkpt>
<trkpt lat="45.477229" lon="7.056459"><ele>3206.4</ele><time>2024-03-19T12:32:50Z</time></trkpt>
<trkpt lat="45.477445" lon="7.056461"><ele>3203.2</ele><time>2024-03-19T12:32:53Z</time></trkpt>
<trkpt lat="45.477445" lon="7.056523"><ele>3197.4</ele><time>2024-03-19T12:33:00Z</time></trkpt>
<trkpt lat="45.477731" lon="7.056646"><ele>3194.0</ele><time>2024-03-19T12:33:37Z</time></trkpt>
<trkpt lat="45.478035" lon="7.056702"><ele>3188.4</ele><time>2024-03-19T12:33:41Z</time></trkpt>
<trkpt lat="45.478438" lon="7.056858"><ele>3176.8</ele><time>2024-03-19T12:33:47Z</time></trkpt>
<trkpt lat="45.478835" lon="7.056951"><ele>3167.8</ele><time>2024-03-19T12:33:53Z</time></trkpt>
<trkpt lat="45.479169" lon="7.057205"><ele>3157.4</ele><time>2024-03-19T12:33:59Z</time></trkpt>
<trkpt lat="45.479358" lon="7.057258"><ele>3152.2</ele><time>2024-03-19T12:34:02Z</time></trkpt>
<trkpt lat="45.479462" lon="7.057363"><ele>3148.6</ele><time>2024-03-19T12:34:04Z</time></trkpt>
<trkpt lat="45.479528" lon="7.057380"><ele>3143.6</ele><time>2024-03-19T12:34:05Z</time></trkpt>
<trkpt lat="45.479718" lon="7.057441"><ele>3139.4</ele><time>2024-03-19T12:34:08Z</time></trkpt>
<trkpt lat="45.479870" lon="7.057608"><ele>3129.4</ele><time>2024-03-19T12:34:11Z</time></trkpt>
<trkpt lat="45.480093" lon="7.057735"><ele>3125.4</ele><time>2024-03-19T12:34:14Z</time></trkpt>
<trkpt lat="45.480159" lon="7.057830"><ele>3118.6</ele><time>2024-03-19T12:34:15Z</time></trkpt>
<trkpt lat="45.480249" lon="7.057889"><ele>3118.2</ele><time>2024-03-19T12:34:16Z</time></trkpt>
<trkpt lat="45.480430" lon="7.057861"><ele>3115.4</ele><time>2024-03-19T12:34:18Z</time></trkpt>
<trkpt lat="45.480504" lon="7.057896"><ele>3113.2</ele><time>2024-03-19T12:34:19Z</time></trkpt>
<trkpt lat="45.480594" lon="7.058061"><ele>3103.6</ele><time>2024-03-19T12:34:21Z</time></trkpt>
<trkpt lat="45.480663" lon="7.058109"><ele>3103.0</ele><time>2024-03-19T12:34:22Z</time></trkpt>
<trkpt lat="45.480901" lon="7.058116"><ele>3101.4</ele><time>2024-03-19T12:34:25Z</time></trkpt>
<trkpt lat="45.481762" lon="7.058018"><ele>3086.8</ele><time>2024-03-19T12:34:38Z</time></trkpt>
<trkpt lat="45.482038" lon="7.058064"><ele>3079.0</ele><time>2024-03-19T12:34:42Z</time></trkpt>
<trkpt lat="45.482138" lon="7.058242"><ele>3076.4</ele><time>2024-03-19T12:34:44Z</time></trkpt>
<trkpt lat="45.482227" lon="7.058292"><ele>3068.6</ele><time>2024-03-19T12:34:45Z</time></trkpt>
<trkpt lat="45.482476" lon="7.058549"><ele>3063.6</ele><time>2024-03-19T12:34:48Z</time></trkpt>
<trkpt lat="45.482586" lon="7.058629"><ele>3055.0</ele><time>2024-03-19T12:34:49Z</time></trkpt>
<trkpt lat="45.482913" lon="7.058915"><ele>3051.2</ele><time>2024-03-19T12:34:52Z</time></trkpt>
<trkpt lat="45.483010" lon="7.059048"><ele>3042.4</ele><time>2024-03-19T12:34:53Z</time></trkpt>
<trkpt lat="45.483611" lon="7.059716"><ele>3028.0</ele><time>2024-03-19T12:34:59Z</time></trkpt>
<trkpt lat="45.483744" lon="7.059984"><ele>3022.0</ele><time>2024-03-19T12:35:01Z</time></trkpt>
<trkpt lat="45.484078" lon="7.060412"><ele>3017.2</ele><time>2024-03-19T12:35:05Z</time></trkpt>
<trkpt lat="45.484422" lon="7.060684"><ele>3011.8</ele><time>2024-03-19T12:35:09Z</time></trkpt>
<trkpt lat="45.484561" lon="7.060982"><ele>3003.2</ele><time>2024-03-19T12:35:12Z</time></trkpt>
<trkpt lat="45.484648" lon="7.061203"><ele>3002.0</ele><time>2024-03-19T12:35:14Z</time></trkpt>
<trkpt lat="45.484792" lon="7.061357"><ele>3001.2</ele><time>2024-03-19T12:35:16Z</time></trkpt>
<trkpt lat="45.484837" lon="7.061613"><ele>2995.2</ele><time>2024-03-19T12:35:19Z</time></trkpt>
<trkpt lat="45.484951" lon="7.061719"><ele>2993.8</ele><time>2024-03-19T12:35:21Z</time></trkpt>
<trkpt lat="45.484964" lon="7.061790"><ele>2991.2</ele><time>2024-03-19T12:35:23Z</time></trkpt>
<trkpt lat="45.484943" lon="7.061799"><ele>2987.4</ele><time>2024-03-19T12:36:47Z</time></trkpt>
<trkpt lat="45.484955" lon="7.061786"><ele>2989.4</ele><time>2024-03-19T12:37:31Z</time></trkpt>
<trkpt lat="45.484972" lon="7.061801"><ele>2985.6</ele><time>2024-03-19T12:41:33Z</time></trkpt>
<trkpt lat="45.485016" lon="7.061845"><ele>2985.6</ele><time>2024-03-19T12:41:46Z</time></trkpt>
<trkpt lat="45.485076" lon="7.061842"><ele>2983.6</ele><time>2024-03-19T12:41:51Z</time></trkpt>
<trkpt lat="45.485225" lon="7.062160"><ele>2981.8</ele><time>2024-03-19T12:41:56Z</time></trkpt>
<trkpt lat="45.485344" lon="7.062259"><ele>2979.8</ele><time>2024-03-19T12:41:58Z</time></trkpt>
<trkpt lat="45.485387" lon="7.062342"><ele>2979.4</ele><time>2024-03-19T12:41:59Z</time></trkpt>
<trkpt lat="45.485457" lon="7.062646"><ele>2973.4</ele><time>2024-03-19T12:42:02Z</time></trkpt>
<trkpt lat="45.485673" lon="7.062758"><ele>2968.2</ele><time>2024-03-19T12:42:05Z</time></trkpt>
<trkpt lat="45.485773" lon="7.063069"><ele>2960.2</ele><time>2024-03-19T12:42:08Z</time></trkpt>
<trkpt lat="45.486033" lon="7.063133"><ele>2954.0</ele><time>2024-03-19T12:42:11Z</time></trkpt>
<trkpt lat="45.486096" lon="7.063209"><ele>2951.8</ele><time>2024-03-19T12:42:12Z</time></trkpt>
<trkpt lat="45.486148" lon="7.063296"><ele>2948.6</ele><time>2024-03-19T12:42:13Z</time></trkpt>
<trkpt lat="45.486232" lon="7.063605"><ele>2942.8</ele><time>2024-03-19T12:42:15Z</time></trkpt>
<trkpt lat="45.486414" lon="7.063875"><ele>2936.4</ele><time>2024-03-19T12:42:17Z</time></trkpt>
<trkpt lat="45.486520" lon="7.064192"><ele>2930.0</ele><time>2024-03-19T12:42:19Z</time></trkpt>
<trkpt lat="45.486595" lon="7.064317"><ele>2924.6</ele><time>2024-03-19T12:42:20Z</time></trkpt>
<trkpt lat="45.486798" lon="7.064392"><ele>2920.8</ele><time>2024-03-19T12:42:22Z</time></trkpt>
<trkpt lat="45.486967" lon="7.064525"><ele>2917.4</ele><time>2024-03-19T12:42:24Z</time></trkpt>
<trkpt lat="45.487020" lon="7.064624"><ele>2915.4</ele><time>2024-03-19T12:42:25Z</time></trkpt>
<trkpt lat="45.487071" lon="7.064917"><ele>2910.8</ele><time>2024-03-19T12:42:27Z</time></trkpt>
<trkpt lat="45.487155" lon="7.065164"><ele>2909.6</ele><time>2024-03-19T12:42:29Z</time></trkpt>
<trkpt lat="45.487332" lon="7.065312"><ele>2908.2</ele><time>2024-03-19T12:42:31Z</time></trkpt>
<trkpt lat="45.487458" lon="7.065485"><ele>2903.8</ele><time>2024-03-19T12:42:33Z</time></trkpt>
<trkpt lat="45.487472" lon="7.065620"><ele>2900.0</ele><time>2024-03-19T12:42:34Z</time></trkpt>
<trkpt lat="45.487520" lon="7.065844"><ele>2898.4</ele><time>2024-03-19T12:42:36Z</time></trkpt>
<trkpt lat="45.487720" lon="7.066244"><ele>2896.6</ele><time>2024-03-19T12:42:41Z</time></trkpt>
<trkpt lat="45.487777" lon="7.066534"><ele>2891.6</ele><time>2024-03-19T12:42:45Z</time></trkpt>
<trkpt lat="45.487799" lon="7.066510"><ele>2888.8</ele><time>2024-03-19T12:44:22Z</time></trkpt>
<trkpt lat="45.487794" lon="7.066525"><ele>2890.6</ele><time>2024-03-19T12:45:51Z</time></trkpt>
<trkpt lat="45.487832" lon="7.066531"><ele>2888.2</ele><time>2024-03-19T12:47:53Z</time></trkpt>
<trkpt lat="45.488375" lon="7.067218"><ele>2881.8</ele><time>2024-03-19T12:48:06Z</time></trkpt>
<trkpt lat="45.488990" lon="7.067947"><ele>2869.0</ele><time>2024-03-19T12:48:17Z</time></trkpt>
<trkpt lat="45.489327" lon="7.068260"><ele>2865.2</ele><time>2024-03-19T12:48:24Z</time></trkpt>
<trkpt lat="45.489928" lon="7.068546"><ele>2858.2</ele><time>2024-03-19T12:48:36Z</time></trkpt>
<trkpt lat="45.490354" lon="7.068689"><ele>2852.2</ele><time>2024-03-19T12:48:44Z</time></trkpt>
<trkpt lat="45.490910" lon="7.069045"><ele>2848.6</ele><time>2024-03-19T12:48:55Z</time></trkpt>
<trkpt lat="45.491609" lon="7.069219"><ele>2841.6</ele><time>2024-03-19T12:49:08Z</time></trkpt>
<trkpt lat="45.491838" lon="7.069341"><ele>2839.0</ele><time>2024-03-19T12:49:13Z</time></trkpt>
<trkpt lat="45.492061" lon="7.069388"><ele>2836.8</ele><time>2024-03-19T12:49:20Z</time></trkpt>
<trkpt lat="45.492200" lon="7.069373"><ele>2835.2</ele><time>2024-03-19T12:49:24Z</time></trkpt>
<trkpt lat="45.492305" lon="7.069421"><ele>2834.4</ele><time>2024-03-19T12:49:26Z</time></trkpt>
<trkpt lat="45.492415" lon="7.069616"><ele>2829.6</ele><time>2024-03-19T12:49:28Z</time></trkpt>
<trkpt lat="45.492568" lon="7.069741"><ele>2825.0</ele><time>2024-03-19T12:49:30Z</time></trkpt>
<trkpt lat="45.492819" lon="7.069816"><ele>2821.8</ele><time>2024-03-19T12:49:33Z</time></trkpt>
<trkpt lat="45.493234" lon="7.069834"><ele>2816.4</ele><time>2024-03-19T12:49:40Z</time></trkpt>
<trkpt lat="45.493885" lon="7.069624"><ele>2808.2</ele><time>2024-03-19T12:49:53Z</time></trkpt>
<trkpt lat="45.494503" lon="7.069699"><ele>2798.8</ele><time>2024-03-19T12:50:03Z</time></trkpt>
<trkpt lat="45.494747" lon="7.069899"><ele>2794.6</ele><time>2024-03-19T12:50:06Z</time></trkpt>
<trkpt lat="45.495005" lon="7.070169"><ele>2786.6</ele><time>2024-03-19T12:50:10Z</time></trkpt>
<trkpt lat="45.495490" lon="7.070725"><ele>2780.4</ele><time>2024-03-19T12:50:21Z</time></trkpt>
<trkpt lat="45.495864" lon="7.070822"><ele>2774.0</ele><time>2024-03-19T12:50:26Z</time></trkpt>
<trkpt lat="45.496295" lon="7.070802"><ele>2767.6</ele><time>2024-03-19T12:50:35Z</time></trkpt>
<trkpt lat="45.497792" lon="7.070847"><ele>2750.6</ele><time>2024-03-19T12:51:19Z</time></trkpt>
<trkpt lat="45.498083" lon="7.070789"><ele>2747.6</ele><time>2024-03-19T12:51:27Z</time></trkpt>
<trkpt lat="45.498317" lon="7.070669"><ele>2742.2</ele><time>2024-03-19T12:51:33Z</time></trkpt>
<trkpt lat="45.498585" lon="7.070628"><ele>2739.4</ele><time>2024-03-19T12:51:40Z</time></trkpt>
<trkpt lat="45.498736" lon="7.070642"><ele>2738.0</ele><time>2024-03-19T12:51:45Z</time></trkpt>
<trkpt lat="45.499043" lon="7.070773"><ele>2734.6</ele><time>2024-03-19T12:52:01Z</time></trkpt>
<trkpt lat="45.499525" lon="7.070438"><ele>2729.8</ele><time>2024-03-19T12:52:45Z</time></trkpt>
<trkpt lat="45.499962" lon="7.070297"><ele>2723.4</ele><time>2024-03-19T12:53:02Z</time></trkpt>
<trkpt lat="45.500727" lon="7.070442"><ele>2714.4</ele><time>2024-03-19T12:53:37Z</time></trkpt>
<trkpt lat="45.501131" lon="7.070425"><ele>2709.6</ele><time>2024-03-19T12:53:53Z</time></trkpt>
<trkpt lat="45.501372" lon="7.070373"><ele>2706.4</ele><time>2024-03-19T12:54:00Z</time></trkpt>
<trkpt lat="45.501509" lon="7.070414"><ele>2704.8</ele><time>2024-03-19T12:54:08Z</time></trkpt>
<trkpt lat="45.501940" lon="7.070363"><ele>2699.8</ele><time>2024-03-19T12:54:26Z</time></trkpt>
<trkpt lat="45.502515" lon="7.070568"><ele>2692.8</ele><time>2024-03-19T12:54:41Z</time></trkpt>
<trkpt lat="45.502827" lon="7.070729"><ele>2689.2</ele><time>2024-03-19T12:54:50Z</time></trkpt>
<trkpt lat="45.502913" lon="7.070789"><ele>2688.0</ele><time>2024-03-19T12:54:54Z</time></trkpt>
<trkpt lat="45.502892" lon="7.070817"><ele>2685.8</ele><time>2024-03-19T12:56:20Z</time></trkpt>
<trkpt lat="45.503001" lon="7.070893"><ele>2685.0</ele><time>2024-03-19T12:56:26Z</time></trkpt>
<trkpt lat="45.503293" lon="7.070887"><ele>2681.6</ele><time>2024-03-19T12:56:31Z</time></trkpt>
<trkpt lat="45.503571" lon="7.070648"><ele>2675.6</ele><time>2024-03-19T12:56:37Z</time></trkpt>
<trkpt lat="45.503628" lon="7.070647"><ele>2674.8</ele><time>2024-03-19T12:56:38Z</time></trkpt>
<trkpt lat="45.503777" lon="7.070774"><ele>2671.0</ele><time>2024-03-19T12:56:41Z</time></trkpt>
<trkpt lat="45.503852" lon="7.070786"><ele>2667.8</ele><time>2024-03-19T12:56:43Z</time></trkpt>
<trkpt lat="45.504041" lon="7.070513"><ele>2664.4</ele><time>2024-03-19T12:56:51Z</time></trkpt>
<trkpt lat="45.504202" lon="7.070386"><ele>2661.8</ele><time>2024-03-19T12:56:54Z</time></trkpt>
<trkpt lat="45.504425" lon="7.070409"><ele>2657.0</ele><time>2024-03-19T12:56:58Z</time></trkpt>
<trkpt lat="45.504695" lon="7.070590"><ele>2655.0</ele><time>2024-03-19T12:57:04Z</time></trkpt>
<trkpt lat="45.505105" lon="7.070935"><ele>2649.8</ele><time>2024-03-19T12:57:13Z</time></trkpt>
<trkpt lat="45.505498" lon="7.071409"><ele>2644.6</ele><time>2024-03-19T12:57:23Z</time></trkpt>
<trkpt lat="45.505721" lon="7.071840"><ele>2640.6</ele><time>2024-03-19T12:57:30Z</time></trkpt>
<trkpt lat="45.505952" lon="7.072424"><ele>2635.2</ele><time>2024-03-19T12:57:39Z</time></trkpt>
<trkpt lat="45.506383" lon="7.073308"><ele>2627.0</ele><time>2024-03-19T12:57:53Z</time></trkpt>
<trkpt lat="45.506641" lon="7.073689"><ele>2622.4</ele><time>2024-03-19T12:58:00Z</time></trkpt>
<trkpt lat="45.506738" lon="7.073756"><ele>2621.0</ele><time>2024-03-19T12:58:46Z</time></trkpt>
<trkpt lat="45.506717" lon="7.073885"><ele>2620.4</ele><time>2024-03-19T12:58:49Z</time></trkpt>
<trkpt lat="45.506676" lon="7.073920"><ele>2619.2</ele><time>2024-03-19T12:58:50Z</time></trkpt>
<trkpt lat="45.506597" lon="7.074200"><ele>2613.8</ele><time>2024-03-19T12:58:53Z</time></trkpt>
<trkpt lat="45.506580" lon="7.074481"><ele>2605.8</ele><time>2024-03-19T12:58:55Z</time></trkpt>
<trkpt lat="45.506636" lon="7.075115"><ele>2597.2</ele><time>2024-03-19T12:58:59Z</time></trkpt>
<trkpt lat="45.506592" lon="7.075307"><ele>2594.2</ele><time>2024-03-19T12:59:01Z</time></trkpt>
<trkpt lat="45.506628" lon="7.075421"><ele>2591.0</ele><time>2024-03-19T12:59:03Z</time></trkpt>
<trkpt lat="45.506662" lon="7.075450"><ele>2590.6</ele><time>2024-03-19T12:59:04Z</time></trkpt>
<trkpt lat="45.506683" lon="7.075429"><ele>2588.0</ele><time>2024-03-19T13:01:06Z</time></trkpt>
<trkpt lat="45.506887" lon="7.075619"><ele>2586.6</ele><time>2024-03-19T13:02:26Z</time></trkpt>
<trkpt lat="45.507219" lon="7.075642"><ele>2580.4</ele><time>2024-03-19T13:02:31Z</time></trkpt>
<trkpt lat="45.507395" lon="7.075569"><ele>2577.0</ele><time>2024-03-19T13:02:34Z</time></trkpt>
<trkpt lat="45.507462" lon="7.075665"><ele>2575.8</ele><time>2024-03-19T13:02:37Z</time></trkpt>
<trkpt lat="45.507535" lon="7.075676"><ele>2574.6</ele><time>2024-03-19T13:02:39Z</time></trkpt>
<trkpt lat="45.507528" lon="7.075701"><ele>2571.0</ele><time>2024-03-19T13:02:57Z</time></trkpt>
<trkpt lat="45.507577" lon="7.075742"><ele>2570.8</ele><time>2024-03-19T13:03:03Z</time></trkpt>
<trkpt lat="45.507739" lon="7.075681"><ele>2569.2</ele><time>2024-03-19T13:03:07Z</time></trkpt>
<trkpt lat="45.507975" lon="7.075668"><ele>2567.0</ele><time>2024-03-19T13:03:14Z</time></trkpt>
<trkpt lat="45.508285" lon="7.075687"><ele>2562.0</ele><time>2024-03-19T13:03:19Z</time></trkpt>
<trkpt lat="45.508652" lon="7.075773"><ele>2556.2</ele><time>2024-03-19T13:03:27Z</time></trkpt>
<trkpt lat="45.508789" lon="7.075836"><ele>2553.0</ele><time>2024-03-19T13:03:30Z</time></trkpt>
<trkpt lat="45.508783" lon="7.075889"><ele>2544.8</ele><time>2024-03-19T13:03:35Z</time></trkpt>
<trkpt lat="45.508722" lon="7.075937"><ele>2544.2</ele><time>2024-03-19T13:03:38Z</time></trkpt>
<trkpt lat="45.508726" lon="7.076017"><ele>2542.0</ele><time>2024-03-19T13:03:42Z</time></trkpt>
<trkpt lat="45.508988" lon="7.076072"><ele>2536.8</ele><time>2024-03-19T13:03:46Z</time></trkpt>
<trkpt lat="45.509104" lon="7.076180"><ele>2530.6</ele><time>2024-03-19T13:03:50Z</time></trkpt>
<trkpt lat="45.509069" lon="7.076195"><ele>2528.4</ele><time>2024-03-19T13:03:52Z</time></trkpt>
<trkpt lat="45.509078" lon="7.076177"><ele>2524.6</ele><time>2024-03-19T13:04:16Z</time></trkpt>
<trkpt lat="45.509004" lon="7.076254"><ele>2524.0</ele><time>2024-03-19T13:04:20Z</time></trkpt>
<trkpt lat="45.508988" lon="7.076323"><ele>2523.8</ele><time>2024-03-19T13:04:21Z</time></trkpt>
<trkpt lat="45.509122" lon="7.076403"><ele>2522.4</ele><time>2024-03-19T13:04:23Z</time></trkpt>
<trkpt lat="45.509157" lon="7.076472"><ele>2520.4</ele><time>2024-03-19T13:04:24Z</time></trkpt>
<trkpt lat="45.509142" lon="7.076530"><ele>2517.0</ele><time>2024-03-19T13:04:25Z</time></trkpt>
<trkpt lat="45.509046" lon="7.076638"><ele>2513.0</ele><time>2024-03-19T13:04:27Z</time></trkpt>
<trkpt lat="45.509059" lon="7.076695"><ele>2508.6</ele><time>2024-03-19T13:04:28Z</time></trkpt>
<trkpt lat="45.509106" lon="7.076752"><ele>2507.2</ele><time>2024-03-19T13:04:29Z</time></trkpt>
<trkpt lat="45.509105" lon="7.076833"><ele>2506.2</ele><time>2024-03-19T13:04:30Z</time></trkpt>
<trkpt lat="45.509026" lon="7.076954"><ele>2500.0</ele><time>2024-03-19T13:04:32Z</time></trkpt>
<trkpt lat="45.509052" lon="7.077013"><ele>2496.4</ele><time>2024-03-19T13:04:33Z</time></trkpt>
<trkpt lat="45.509147" lon="7.077114"><ele>2493.2</ele><time>2024-03-19T13:04:35Z</time></trkpt>
<trkpt lat="45.509120" lon="7.077174"><ele>2489.4</ele><time>2024-03-19T13:04:36Z</time></trkpt>
<trkpt lat="45.509008" lon="7.077206"><ele>2484.0</ele><time>2024-03-19T13:04:38Z</time></trkpt>
<trkpt lat="45.508991" lon="7.077194"><ele>2480.4</ele><time>2024-03-19T13:04:39Z</time></trkpt>
<trkpt lat="45.509021" lon="7.077215"><ele>2477.2</ele><time>2024-03-19T13:04:43Z</time></trkpt>
<trkpt lat="45.508777" lon="7.077269"><ele>2475.4</ele><time>2024-03-19T13:04:53Z</time></trkpt>
<trkpt lat="45.508282" lon="7.077305"><ele>2464.6</ele><time>2024-03-19T13:05:02Z</time></trkpt>
<trkpt lat="45.508358" lon="7.077514"><ele>2463.4</ele><time>2024-03-19T13:05:04Z</time></trkpt>
<trkpt lat="45.508351" lon="7.077689"><ele>2461.0</ele><time>2024-03-19T13:05:06Z</time></trkpt>
<trkpt lat="45.508308" lon="7.077779"><ele>2457.0</ele><time>2024-03-19T13:05:07Z</time></trkpt>
<trkpt lat="45.508402" lon="7.077936"><ele>2449.0</ele><time>2024-03-19T13:05:09Z</time></trkpt>
<trkpt lat="45.508400" lon="7.078045"><ele>2446.4</ele><time>2024-03-19T13:05:10Z</time></trkpt>
<trkpt lat="45.508316" lon="7.078210"><ele>2436.4</ele><time>2024-03-19T13:05:12Z</time></trkpt>
<trkpt lat="45.508313" lon="7.078332"><ele>2432.6</ele><time>2024-03-19T13:05:13Z</time></trkpt>
<trkpt lat="45.508368" lon="7.078589"><ele>2425.8</ele><time>2024-03-19T13:05:15Z</time></trkpt>
<trkpt lat="45.508353" lon="7.078679"><ele>2424.0</ele><time>2024-03-19T13:05:16Z</time></trkpt>
<trkpt lat="45.508244" lon="7.078739"><ele>2412.0</ele><time>2024-03-19T13:05:18Z</time></trkpt>
<trkpt lat="45.508194" lon="7.078793"><ele>2409.6</ele><time>2024-03-19T13:05:19Z</time></trkpt>
<trkpt lat="45.508164" lon="7.078892"><ele>2408.4</ele><time>2024-03-19T13:05:20Z</time></trkpt>
<trkpt lat="45.508175" lon="7.078997"><ele>2407.6</ele><time>2024-03-19T13:05:21Z</time></trkpt>
<trkpt lat="45.508234" lon="7.078958"><ele>2406.2</ele><time>2024-03-19T13:05:23Z</time></trkpt>
<trkpt lat="45.508239" lon="7.078965"><ele>2401.6</ele><time>2024-03-19T13:05:29Z</time></trkpt>
<trkpt lat="45.508219" lon="7.078955"><ele>2401.2</ele><time>2024-03-19T13:05:42Z</time></trkpt>
<trkpt lat="45.508247" lon="7.078964"><ele>2401.4</ele><time>2024-03-19T13:06:21Z</time></trkpt>
<trkpt lat="45.508238" lon="7.078987"><ele>2400.4</ele><time>2024-03-19T13:07:50Z</time></trkpt>
<trkpt lat="45.508249" lon="7.078953"><ele>2400.6</ele><time>2024-03-19T13:09:12Z</time></trkpt>
<trkpt lat="45.507918" lon="7.079347"><ele>2399.4</ele><time>2024-03-19T13:09:40Z</time></trkpt>
<trkpt lat="45.507791" lon="7.079719"><ele>2400.2</ele><time>2024-03-19T13:10:23Z</time></trkpt>
<trkpt lat="45.507692" lon="7.079833"><ele>2400.2</ele><time>2024-03-19T13:10:49Z</time></trkpt>
<trkpt lat="45.507376" lon="7.080051"><ele>2398.2</ele><time>2024-03-19T13:11:10Z</time></trkpt>
<trkpt lat="45.507087" lon="7.080386"><ele>2395.4</ele><time>2024-03-19T13:11:18Z</time></trkpt>
<trkpt lat="45.507016" lon="7.080677"><ele>2393.8</ele><time>2024-03-19T13:11:20Z</time></trkpt>
<trkpt lat="45.507061" lon="7.081001"><ele>2391.4</ele><time>2024-03-19T13:11:24Z</time></trkpt>
<trkpt lat="45.507095" lon="7.081053"><ele>2391.6</ele><time>2024-03-19T13:11:27Z</time></trkpt>
<trkpt lat="45.507176" lon="7.081054"><ele>2391.6</ele><time>2024-03-19T13:11:36Z</time></trkpt>
<trkpt lat="45.507321" lon="7.081245"><ele>2391.2</ele><time>2024-03-19T13:11:45Z</time></trkpt>
<trkpt lat="45.507608" lon="7.081348"><ele>2390.4</ele><time>2024-03-19T13:12:08Z</time></trkpt>
<trkpt lat="45.507825" lon="7.081502"><ele>2390.4</ele><time>2024-03-19T13:12:37Z</time></trkpt>
<trkpt lat="45.508387" lon="7.081663"><ele>2389.4</ele><time>2024-03-19T13:13:18Z</time></trkpt>
<trkpt lat="45.508981" lon="7.081739"><ele>2385.8</ele><time>2024-03-19T13:13:30Z</time></trkpt>
<trkpt lat="45.509592" lon="7.081880"><ele>2384.2</ele><time>2024-03-19T13:13:56Z</time></trkpt>
<trkpt lat="45.509568" lon="7.081915"><ele>2384.2</ele><time>2024-03-19T13:14:09Z</time></trkpt>
<trkpt lat="45.509568" lon="7.082050"><ele>2384.2</ele><time>2024-03-19T13:14:15Z</time></trkpt>
<trkpt lat="45.509610" lon="7.082210"><ele>2383.8</ele><time>2024-03-19T13:14:17Z</time></trkpt>
<trkpt lat="45.509887" lon="7.082841"><ele>2375.6</ele><time>2024-03-19T13:14:26Z</time></trkpt>
<trkpt lat="45.509990" lon="7.082792"><ele>2372.8</ele><time>2024-03-19T13:14:28Z</time></trkpt>
<trkpt lat="45.510037" lon="7.082838"><ele>2371.8</ele><time>2024-03-19T13:14:29Z</time></trkpt>
<trkpt lat="45.510074" lon="7.083125"><ele>2363.0</ele><time>2024-03-19T13:14:32Z</time></trkpt>
<trkpt lat="45.510109" lon="7.083155"><ele>2361.6</ele><time>2024-03-19T13:14:33Z</time></trkpt>
<trkpt lat="45.510151" lon="7.083105"><ele>2360.2</ele><time>2024-03-19T13:14:34Z</time></trkpt>
<trkpt lat="45.510341" lon="7.082774"><ele>2352.4</ele><time>2024-03-19T13:14:38Z</time></trkpt>
<trkpt lat="45.510514" lon="7.082754"><ele>2350.6</ele><time>2024-03-19T13:14:40Z</time></trkpt>
<trkpt lat="45.510458" lon="7.082840"><ele>2349.2</ele><time>2024-03-19T13:14:41Z</time></trkpt>
<trkpt lat="45.510495" lon="7.083019"><ele>2348.0</ele><time>2024-03-19T13:14:42Z</time></trkpt>
<trkpt lat="45.510496" lon="7.083192"><ele>2345.6</ele><time>2024-03-19T13:14:43Z</time></trkpt>
<trkpt lat="45.510466" lon="7.083339"><ele>2338.8</ele><time>2024-03-19T13:14:44Z</time></trkpt>
<trkpt lat="45.510389" lon="7.083576"><ele>2335.4</ele><time>2024-03-19T13:14:46Z</time></trkpt>
<trkpt lat="45.510377" lon="7.083797"><ele>2333.4</ele><time>2024-03-19T13:14:48Z</time></trkpt>
<trkpt lat="45.510425" lon="7.083844"><ele>2333.0</ele><time>2024-03-19T13:14:49Z</time></trkpt>
<trkpt lat="45.510494" lon="7.083792"><ele>2331.4</ele><time>2024-03-19T13:14:55Z</time></trkpt>
<trkpt lat="45.510485" lon="7.083843"><ele>2330.0</ele><time>2024-03-19T13:16:23Z</time></trkpt>
<trkpt lat="45.510481" lon="7.083816"><ele>2329.2</ele><time>2024-03-19T13:17:50Z</time></trkpt>
<trkpt lat="45.510511" lon="7.083893"><ele>2329.2</ele><time>2024-03-19T13:17:56Z</time></trkpt>
<trkpt lat="45.510712" lon="7.084056"><ele>2328.2</ele><time>2024-03-19T13:17:59Z</time></trkpt>
<trkpt lat="45.510804" lon="7.084073"><ele>2326.8</ele><time>2024-03-19T13:18:00Z</time></trkpt>
<trkpt lat="45.511044" lon="7.084016"><ele>2321.2</ele><time>2024-03-19T13:18:03Z</time></trkpt>
<trkpt lat="45.511315" lon="7.083816"><ele>2319.2</ele><time>2024-03-19T13:18:08Z</time></trkpt>
<trkpt lat="45.511566" lon="7.083694"><ele>2318.2</ele><time>2024-03-19T13:18:13Z</time></trkpt>
<trkpt lat="45.511732" lon="7.083704"><ele>2317.2</ele><time>2024-03-19T13:18:16Z</time></trkpt>
<trkpt lat="45.512021" lon="7.083871"><ele>2316.0</ele><time>2024-03-19T13:18:21Z</time></trkpt>
<trkpt lat="45.512340" lon="7.083822"><ele>2313.2</ele><time>2024-03-19T13:18:25Z</time></trkpt>
<trkpt lat="45.512494" lon="7.083941"><ele>2310.6</ele><time>2024-03-19T13:18:27Z</time></trkpt>
<trkpt lat="45.512536" lon="7.084098"><ele>2308.8</ele><time>2024-03-19T13:18:28Z</time></trkpt>
<trkpt lat="45.512649" lon="7.084266"><ele>2305.8</ele><time>2024-03-19T13:18:30Z</time></trkpt>
<trkpt lat="45.512780" lon="7.084373"><ele>2304.6</ele><time>2024-03-19T13:18:32Z</time></trkpt>
<trkpt lat="45.512999" lon="7.084445"><ele>2302.4</ele><time>2024-03-19T13:18:35Z</time></trkpt>
<trkpt lat="45.513073" lon="7.084509"><ele>2301.6</ele><time>2024-03-19T13:18:36Z</time></trkpt>
<trkpt lat="45.513101" lon="7.084591"><ele>2297.2</ele><time>2024-03-19T13:18:37Z</time></trkpt>
<trkpt lat="45.513166" lon="7.084594"><ele>2295.6</ele><time>2024-03-19T13:18:39Z</time></trkpt>
<trkpt lat="45.513367" lon="7.084749"><ele>2293.4</ele><time>2024-03-19T13:18:43Z</time></trkpt>
<trkpt lat="45.513467" lon="7.084775"><ele>2292.4</ele><time>2024-03-19T13:18:45Z</time></trkpt>
<trkpt lat="45.513776" lon="7.084739"><ele>2292.2</ele><time>2024-03-19T13:18:56Z</time></trkpt>
<trkpt lat="45.514027" lon="7.084554"><ele>2295.4</ele><time>2024-03-19T13:19:23Z</time></trkpt>
<trkpt lat="45.514193" lon="7.084493"><ele>2295.6</ele><time>2024-03-19T13:19:43Z</time></trkpt>
<trkpt lat="45.514596" lon="7.084498"><ele>2293.8</ele><time>2024-03-19T13:19:53Z</time></trkpt>
<trkpt lat="45.514872" lon="7.084600"><ele>2292.8</ele><time>2024-03-19T13:20:01Z</time></trkpt>
<trkpt lat="45.515248" lon="7.084635"><ele>2293.4</ele><time>2024-03-19T13:20:23Z</time></trkpt>
<trkpt lat="45.515683" lon="7.084431"><ele>2293.4</ele><time>2024-03-19T13:21:20Z</time></trkpt>
<trkpt lat="45.515633" lon="7.084471"><ele>2293.4</ele><time>2024-03-19T13:21:47Z</time></trkpt>
<trkpt lat="45.515636" lon="7.084554"><ele>2292.8</ele><time>2024-03-19T13:22:02Z</time></trkpt>
<trkpt lat="45.515701" lon="7.084466"><ele>2292.4</ele><time>2024-03-19T13:22:20Z</time></trkpt>
<trkpt lat="45.515734" lon="7.084536"><ele>2292.8</ele><time>2024-03-19T13:22:43Z</time></trkpt>
<trkpt lat="45.515698" lon="7.084502"><ele>2293.2</ele><time>2024-03-19T13:22:49Z</time></trkpt>
<trkpt lat="45.515661" lon="7.084571"><ele>2293.4</ele><time>2024-03-19T13:23:03Z</time></trkpt>
<trkpt lat="45.515807" lon="7.084654"><ele>2293.4</ele><time>2024-03-19T13:23:19Z</time></trkpt>
<trkpt lat="45.515813" lon="7.084706"><ele>2293.6</ele><time>2024-03-19T13:23:23Z</time></trkpt>
<trkpt lat="45.515845" lon="7.084716"><ele>2294.2</ele><time>2024-03-19T13:23:26Z</time></trkpt>
<trkpt lat="45.515791" lon="7.084664"><ele>2294.4</ele><time>2024-03-19T13:23:32Z</time></trkpt>
<trkpt lat="45.515798" lon="7.084627"><ele>2294.2</ele><time>2024-03-19T13:23:36Z</time></trkpt>
<trkpt lat="45.515729" lon="7.084614"><ele>2294.0</ele><time>2024-03-19T13:23:41Z</time></trkpt>
<trkpt lat="45.515724" lon="7.084753"><ele>2294.2</ele><time>2024-03-19T13:23:53Z</time></trkpt>
<trkpt lat="45.515706" lon="7.084599"><ele>2293.4</ele><time>2024-03-19T13:24:04Z</time></trkpt>
<trkpt lat="45.515780" lon="7.084514"><ele>2293.6</ele><time>2024-03-19T13:24:22Z</time></trkpt>
<trkpt lat="45.515732" lon="7.084437"><ele>2294.6</ele><time>2024-03-19T13:24:36Z</time></trkpt>
<trkpt lat="45.515766" lon="7.084513"><ele>2293.4</ele><time>2024-03-19T13:24:45Z</time></trkpt>
<trkpt lat="45.515739" lon="7.084529"><ele>2292.8</ele><time>2024-03-19T13:24:53Z</time></trkpt>
<trkpt lat="45.515715" lon="7.084443"><ele>2293.6</ele><time>2024-03-19T13:25:10Z</time></trkpt>
<trkpt lat="45.515763" lon="7.084375"><ele>2293.4</ele><time>2024-03-19T13:25:24Z</time></trkpt>
<trkpt lat="45.515736" lon="7.084387"><ele>2293.6</ele><time>2024-03-19T13:25:29Z</time></trkpt>
<trkpt lat="45.515766" lon="7.084387"><ele>2294.0</ele><time>2024-03-19T13:25:34Z</time></trkpt>
</trkseg></trk>
</gpx>
