<?xml version="1.0" encoding="UTF-8"?>
<gpx version="1.1" creator="Eric Sichak trip reports" xmlns="http://www.topografix.com/GPX/1/1">
<metadata><name>Pow laps in April after work???</name><time>2026-04-13T22:19:17Z</time></metadata>
<trk><name>Pow laps in April after work???</name><type>ski</type><trkseg>
<trkpt lat="38.698598" lon="-119.968585"><ele>2400.4</ele><time>2026-04-13T22:19:17Z</time></trkpt>
<trkpt lat="38.698579" lon="-119.968593"><ele>2401.0</ele><time>2026-04-13T22:19:22Z</time></trkpt>
<trkpt lat="38.698581" lon="-119.968793"><ele>2402.8</ele><time>2026-04-13T22:19:42Z</time></trkpt>
<trkpt lat="38.698509" lon="-119.968954"><ele>2405.0</ele><time>2026-04-13T22:19:59Z</time></trkpt>
<trkpt lat="38.698467" lon="-119.969159"><ele>2406.2</ele><time>2026-04-13T22:20:14Z</time></trkpt>
<trkpt lat="38.698371" lon="-119.969333"><ele>2406.2</ele><time>2026-04-13T22:20:29Z</time></trkpt>
<trkpt lat="38.698283" lon="-119.969414"><ele>2407.4</ele><time>2026-04-13T22:20:43Z</time></trkpt>
<trkpt lat="38.698248" lon="-119.969778"><ele>2410.0</ele><time>2026-04-13T22:21:09Z</time></trkpt>
<trkpt lat="38.698313" lon="-119.970018"><ele>2412.2</ele><time>2026-04-13T22:21:33Z</time></trkpt>
<trkpt lat="38.698334" lon="-119.970022"><ele>2412.8</ele><time>2026-04-13T22:21:47Z</time></trkpt>
<trkpt lat="38.698241" lon="-119.970035"><ele>2416.0</ele><time>2026-04-13T22:22:09Z</time></trkpt>
<trkpt lat="38.698276" lon="-119.970235"><ele>2420.8</ele><time>2026-04-13T22:22:37Z</time></trkpt>
<trkpt lat="38.698271" lon="-119.970207"><ele>2421.2</ele><time>2026-04-13T22:22:43Z</time></trkpt>
<trkpt lat="38.698157" lon="-119.970203"><ele>2423.8</ele><time>2026-04-13T22:23:25Z</time></trkpt>
<trkpt lat="38.698191" lon="-119.970356"><ele>2427.4</ele><time>2026-04-13T22:23:41Z</time></trkpt>
<trkpt lat="38.698105" lon="-119.970343"><ele>2428.6</ele><time>2026-04-13T22:23:52Z</time></trkpt>
<trkpt lat="38.697898" lon="-119.970225"><ele>2435.2</ele><time>2026-04-13T22:24:32Z</time></trkpt>
<trkpt lat="38.697866" lon="-119.970244"><ele>2437.2</ele><time>2026-04-13T22:24:41Z</time></trkpt>
<trkpt lat="38.697875" lon="-119.970402"><ele>2441.2</ele><time>2026-04-13T22:25:03Z</time></trkpt>
<trkpt lat="38.697755" lon="-119.970434"><ele>2444.4</ele><time>2026-04-13T22:25:26Z</time></trkpt>
<trkpt lat="38.697576" lon="-119.970405"><ele>2448.6</ele><time>2026-04-13T22:26:00Z</time></trkpt>
<trkpt lat="38.697540" lon="-119.970506"><ele>2450.2</ele><time>2026-04-13T22:26:10Z</time></trkpt>
<trkpt lat="38.697561" lon="-119.970612"><ele>2452.6</ele><time>2026-04-13T22:26:23Z</time></trkpt>
<trkpt lat="38.697522" lon="-119.970743"><ele>2453.4</ele><time>2026-04-13T22:27:01Z</time></trkpt>
<trkpt lat="38.697492" lon="-119.970773"><ele>2455.4</ele><time>2026-04-13T22:27:18Z</time></trkpt>
<trkpt lat="38.697412" lon="-119.970636"><ele>2457.6</ele><time>2026-04-13T22:27:43Z</time></trkpt>
<trkpt lat="38.697266" lon="-119.970485"><ele>2459.8</ele><time>2026-04-13T22:28:08Z</time></trkpt>
<trkpt lat="38.697129" lon="-119.970258"><ele>2460.8</ele><time>2026-04-13T22:28:37Z</time></trkpt>
<trkpt lat="38.697083" lon="-119.970170"><ele>2459.6</ele><time>2026-04-13T22:28:49Z</time></trkpt>
<trkpt lat="38.697108" lon="-119.970064"><ele>2457.2</ele><time>2026-04-13T22:29:11Z</time></trkpt>
<trkpt lat="38.697065" lon="-119.970013"><ele>2458.6</ele><time>2026-04-13T22:29:21Z</time></trkpt>
<trkpt lat="38.697014" lon="-119.970033"><ele>2459.8</ele><time>2026-04-13T22:29:28Z</time></trkpt>
<trkpt lat="38.696864" lon="-119.970223"><ele>2463.8</ele><time>2026-04-13T22:30:19Z</time></trkpt>
<trkpt lat="38.696788" lon="-119.970098"><ele>2464.6</ele><time>2026-04-13T22:30:50Z</time></trkpt>
<trkpt lat="38.696750" lon="-119.970084"><ele>2464.4</ele><time>2026-04-13T22:30:56Z</time></trkpt>
<trkpt lat="38.696622" lon="-119.970114"><ele>2466.8</ele><time>2026-04-13T22:31:21Z</time></trkpt>
<trkpt lat="38.696513" lon="-119.970096"><ele>2470.6</ele><time>2026-04-13T22:31:53Z</time></trkpt>
<trkpt lat="38.696348" lon="-119.970359"><ele>2476.4</ele><time>2026-04-13T22:32:44Z</time></trkpt>
<trkpt lat="38.696295" lon="-119.970399"><ele>2479.2</ele><time>2026-04-13T22:32:59Z</time></trkpt>
<trkpt lat="38.696255" lon="-119.970263"><ele>2482.0</ele><time>2026-04-13T22:33:19Z</time></trkpt>
<trkpt lat="38.696179" lon="-119.970223"><ele>2484.4</ele><time>2026-04-13T22:33:34Z</time></trkpt>
<trkpt lat="38.696142" lon="-119.970251"><ele>2484.8</ele><time>2026-04-13T22:34:08Z</time></trkpt>
<trkpt lat="38.696142" lon="-119.970313"><ele>2485.0</ele><time>2026-04-13T22:34:26Z</time></trkpt>
<trkpt lat="38.696129" lon="-119.970290"><ele>2484.8</ele><time>2026-04-13T22:34:33Z</time></trkpt>
<trkpt lat="38.696140" lon="-119.970312"><ele>2485.0</ele><time>2026-04-13T22:34:45Z</time></trkpt>
<trkpt lat="38.695972" lon="-119.970368"><ele>2489.8</ele><time>2026-04-13T22:35:26Z</time></trkpt>
<trkpt lat="38.695909" lon="-119.970466"><ele>2493.4</ele><time>2026-04-13T22:35:38Z</time></trkpt>
<trkpt lat="38.695762" lon="-119.970572"><ele>2496.6</ele><time>2026-04-13T22:36:00Z</time></trkpt>
<trkpt lat="38.695803" lon="-119.970724"><ele>2501.4</ele><time>2026-04-13T22:36:23Z</time></trkpt>
<trkpt lat="38.695695" lon="-119.970904"><ele>2507.6</ele><time>2026-04-13T22:36:59Z</time></trkpt>
<trkpt lat="38.695466" lon="-119.971226"><ele>2514.6</ele><time>2026-04-13T22:37:39Z</time></trkpt>
<trkpt lat="38.695100" lon="-119.971607"><ele>2524.8</ele><time>2026-04-13T22:38:37Z</time></trkpt>
<trkpt lat="38.695031" lon="-119.971864"><ele>2530.2</ele><time>2026-04-13T22:39:02Z</time></trkpt>
<trkpt lat="38.694815" lon="-119.972263"><ele>2535.0</ele><time>2026-04-13T22:39:42Z</time></trkpt>
<trkpt lat="38.694713" lon="-119.972378"><ele>2536.6</ele><time>2026-04-13T22:40:16Z</time></trkpt>
<trkpt lat="38.694584" lon="-119.972461"><ele>2536.8</ele><time>2026-04-13T22:40:29Z</time></trkpt>
<trkpt lat="38.694436" lon="-119.972486"><ele>2536.6</ele><time>2026-04-13T22:40:45Z</time></trkpt>
<trkpt lat="38.694013" lon="-119.972387"><ele>2538.0</ele><time>2026-04-13T22:41:25Z</time></trkpt>
<trkpt lat="38.693783" lon="-119.972456"><ele>2539.8</ele><time>2026-04-13T22:41:55Z</time></trkpt>
<trkpt lat="38.693692" lon="-119.972682"><ele>2544.6</ele><time>2026-04-13T22:42:38Z</time></trkpt>
<trkpt lat="38.693404" lon="-119.972936"><ele>2544.8</ele><time>2026-04-13T22:43:11Z</time></trkpt>
<trkpt lat="38.693244" lon="-119.973056"><ele>2548.2</ele><time>2026-04-13T22:43:36Z</time></trkpt>
<trkpt lat="38.693128" lon="-119.973095"><ele>2550.6</ele><time>2026-04-13T22:43:50Z</time></trkpt>
<trkpt lat="38.692827" lon="-119.972931"><ele>2551.2</ele><time>2026-04-13T22:44:22Z</time></trkpt>
<trkpt lat="38.692683" lon="-119.972907"><ele>2551.8</ele><time>2026-04-13T22:44:35Z</time></trkpt>
<trkpt lat="38.692558" lon="-119.972765"><ele>2552.6</ele><time>2026-04-13T22:44:49Z</time></trkpt>
<trkpt lat="38.691751" lon="-119.972370"><ele>2569.0</ele><time>2026-04-13T22:46:53Z</time></trkpt>
<trkpt lat="38.691640" lon="-119.972359"><ele>2573.8</ele><time>2026-04-13T22:47:15Z</time></trkpt>
<trkpt lat="38.691658" lon="-119.972087"><ele>2576.8</ele><time>2026-04-13T22:47:49Z</time></trkpt>
<trkpt lat="38.691626" lon="-119.972058"><ele>2578.6</ele><time>2026-04-13T22:47:58Z</time></trkpt>
<trkpt lat="38.691412" lon="-119.972148"><ele>2585.8</ele><time>2026-04-13T22:48:29Z</time></trkpt>
<trkpt lat="38.690972" lon="-119.972226"><ele>2594.2</ele><time>2026-04-13T22:49:28Z</time></trkpt>
<trkpt lat="38.690576" lon="-119.972341"><ele>2598.2</ele><time>2026-04-13T22:50:06Z</time></trkpt>
<trkpt lat="38.690138" lon="-119.972377"><ele>2601.0</ele><time>2026-04-13T22:50:46Z</time></trkpt>
<trkpt lat="38.689987" lon="-119.972339"><ele>2601.6</ele><time>2026-04-13T22:51:01Z</time></trkpt>
<trkpt lat="38.689714" lon="-119.972516"><ele>2600.8</ele><time>2026-04-13T22:51:27Z</time></trkpt>
<trkpt lat="38.689453" lon="-119.972521"><ele>2600.0</ele><time>2026-04-13T22:51:55Z</time></trkpt>
<trkpt lat="38.689436" lon="-119.972496"><ele>2598.4</ele><time>2026-04-13T22:52:14Z</time></trkpt>
<trkpt lat="38.689451" lon="-119.972520"><ele>2598.2</ele><time>2026-04-13T22:52:36Z</time></trkpt>
<trkpt lat="38.689212" lon="-119.972549"><ele>2596.4</ele><time>2026-04-13T22:53:17Z</time></trkpt>
<trkpt lat="38.688966" lon="-119.972640"><ele>2595.2</ele><time>2026-04-13T22:53:42Z</time></trkpt>
<trkpt lat="38.688796" lon="-119.972747"><ele>2595.4</ele><time>2026-04-13T22:54:00Z</time></trkpt>
<trkpt lat="38.688872" lon="-119.972973"><ele>2594.6</ele><time>2026-04-13T22:54:20Z</time></trkpt>
<trkpt lat="38.688932" lon="-119.973232"><ele>2598.6</ele><time>2026-04-13T22:54:49Z</time></trkpt>
<trkpt lat="38.689014" lon="-119.973347"><ele>2600.4</ele><time>2026-04-13T22:55:07Z</time></trkpt>
<trkpt lat="38.688981" lon="-119.973581"><ele>2601.4</ele><time>2026-04-13T22:55:33Z</time></trkpt>
<trkpt lat="38.689106" lon="-119.973929"><ele>2604.6</ele><time>2026-04-13T22:56:16Z</time></trkpt>
<trkpt lat="38.689093" lon="-119.974067"><ele>2606.6</ele><time>2026-04-13T22:56:34Z</time></trkpt>
<trkpt lat="38.688986" lon="-119.974333"><ele>2611.2</ele><time>2026-04-13T22:57:14Z</time></trkpt>
<trkpt lat="38.688997" lon="-119.974447"><ele>2612.6</ele><time>2026-04-13T22:57:29Z</time></trkpt>
<trkpt lat="38.689191" lon="-119.974747"><ele>2626.4</ele><time>2026-04-13T22:58:30Z</time></trkpt>
<trkpt lat="38.689123" lon="-119.974911"><ele>2628.4</ele><time>2026-04-13T22:59:14Z</time></trkpt>
<trkpt lat="38.689246" lon="-119.974967"><ele>2633.0</ele><time>2026-04-13T23:00:04Z</time></trkpt>
<trkpt lat="38.689313" lon="-119.975022"><ele>2631.0</ele><time>2026-04-13T23:00:50Z</time></trkpt>
<trkpt lat="38.689504" lon="-119.975174"><ele>2638.0</ele><time>2026-04-13T23:01:23Z</time></trkpt>
<trkpt lat="38.689398" lon="-119.975223"><ele>2638.0</ele><time>2026-04-13T23:02:03Z</time></trkpt>
<trkpt lat="38.689470" lon="-119.975314"><ele>2642.2</ele><time>2026-04-13T23:02:24Z</time></trkpt>
<trkpt lat="38.689458" lon="-119.975321"><ele>2644.0</ele><time>2026-04-13T23:02:29Z</time></trkpt>
<trkpt lat="38.689551" lon="-119.975404"><ele>2647.4</ele><time>2026-04-13T23:03:02Z</time></trkpt>
<trkpt lat="38.689624" lon="-119.975553"><ele>2652.2</ele><time>2026-04-13T23:03:42Z</time></trkpt>
<trkpt lat="38.689501" lon="-119.975513"><ele>2651.2</ele><time>2026-04-13T23:04:10Z</time></trkpt>
<trkpt lat="38.689412" lon="-119.975535"><ele>2653.0</ele><time>2026-04-13T23:04:24Z</time></trkpt>
<trkpt lat="38.689477" lon="-119.975633"><ele>2656.8</ele><time>2026-04-13T23:04:48Z</time></trkpt>
<trkpt lat="38.689438" lon="-119.975643"><ele>2655.0</ele><time>2026-04-13T23:05:36Z</time></trkpt>
<trkpt lat="38.689337" lon="-119.975699"><ele>2657.6</ele><time>2026-04-13T23:06:08Z</time></trkpt>
<trkpt lat="38.689433" lon="-119.975869"><ele>2661.4</ele><time>2026-04-13T23:06:37Z</time></trkpt>
<trkpt lat="38.689447" lon="-119.975981"><ele>2662.2</ele><time>2026-04-13T23:06:52Z</time></trkpt>
<trkpt lat="38.689303" lon="-119.976101"><ele>2669.6</ele><time>2026-04-13T23:07:28Z</time></trkpt>
<trkpt lat="38.689179" lon="-119.976106"><ele>2672.8</ele><time>2026-04-13T23:07:51Z</time></trkpt>
<trkpt lat="38.689094" lon="-119.976160"><ele>2676.0</ele><time>2026-04-13T23:08:18Z</time></trkpt>
<trkpt lat="38.689103" lon="-119.976351"><ele>2677.8</ele><time>2026-04-13T23:08:45Z</time></trkpt>
<trkpt lat="38.689048" lon="-119.976424"><ele>2680.4</ele><time>2026-04-13T23:09:06Z</time></trkpt>
<trkpt lat="38.689109" lon="-119.976600"><ele>2685.8</ele><time>2026-04-13T23:09:38Z</time></trkpt>
<trkpt lat="38.689133" lon="-119.976615"><ele>2685.2</ele><time>2026-04-13T23:10:17Z</time></trkpt>
<trkpt lat="38.689116" lon="-119.976611"><ele>2688.6</ele><time>2026-04-13T23:11:38Z</time></trkpt>
<trkpt lat="38.689101" lon="-119.976755"><ele>2694.6</ele><time>2026-04-13T23:11:58Z</time></trkpt>
<trkpt lat="38.689021" lon="-119.976835"><ele>2698.8</ele><time>2026-04-13T23:12:14Z</time></trkpt>
<trkpt lat="38.688875" lon="-119.976874"><ele>2701.6</ele><time>2026-04-13T23:12:45Z</time></trkpt>
<trkpt lat="38.688887" lon="-119.976914"><ele>2704.4</ele><time>2026-04-13T23:12:56Z</time></trkpt>
<trkpt lat="38.688824" lon="-119.976929"><ele>2705.8</ele><time>2026-04-13T23:13:08Z</time></trkpt>
<trkpt lat="38.688791" lon="-119.976978"><ele>2707.2</ele><time>2026-04-13T23:13:18Z</time></trkpt>
<trkpt lat="38.688795" lon="-119.977044"><ele>2710.4</ele><time>2026-04-13T23:13:27Z</time></trkpt>
<trkpt lat="38.688625" lon="-119.977207"><ele>2716.8</ele><time>2026-04-13T23:14:04Z</time></trkpt>
<trkpt lat="38.688578" lon="-119.977337"><ele>2719.6</ele><time>2026-04-13T23:14:29Z</time></trkpt>
<trkpt lat="38.688537" lon="-119.977357"><ele>2719.4</ele><time>2026-04-13T23:14:38Z</time></trkpt>
<trkpt lat="38.688533" lon="-119.977399"><ele>2720.4</ele><time>2026-04-13T23:14:43Z</time></trkpt>
<trkpt lat="38.688621" lon="-119.977498"><ele>2724.6</ele><time>2026-04-13T23:15:14Z</time></trkpt>
<trkpt lat="38.688552" lon="-119.977678"><ele>2726.2</ele><time>2026-04-13T23:16:19Z</time></trkpt>
<trkpt lat="38.688505" lon="-119.977878"><ele>2733.6</ele><time>2026-04-13T23:16:39Z</time></trkpt>
<trkpt lat="38.688444" lon="-119.978075"><ele>2735.8</ele><time>2026-04-13T23:17:15Z</time></trkpt>
<trkpt lat="38.688446" lon="-119.978069"><ele>2738.6</ele><time>2026-04-13T23:17:50Z</time></trkpt>
<trkpt lat="38.688443" lon="-119.978078"><ele>2735.6</ele><time>2026-04-13T23:18:38Z</time></trkpt>
<trkpt lat="38.688425" lon="-119.978142"><ele>2737.8</ele><time>2026-04-13T23:18:56Z</time></trkpt>
<trkpt lat="38.688526" lon="-119.978331"><ele>2746.0</ele><time>2026-04-13T23:19:49Z</time></trkpt>
<trkpt lat="38.688589" lon="-119.978373"><ele>2746.4</ele><time>2026-04-13T23:20:08Z</time></trkpt>
<trkpt lat="38.688534" lon="-119.978390"><ele>2744.2</ele><time>2026-04-13T23:21:58Z</time></trkpt>
<trkpt lat="38.688552" lon="-119.978391"><ele>2746.6</ele><time>2026-04-13T23:23:07Z</time></trkpt>
<trkpt lat="38.688522" lon="-119.978396"><ele>2746.8</ele><time>2026-04-13T23:23:33Z</time></trkpt>
<trkpt lat="38.688550" lon="-119.978377"><ele>2747.4</ele><time>2026-04-13T23:24:14Z</time></trkpt>
<trkpt lat="38.688528" lon="-119.978314"><ele>2746.6</ele><time>2026-04-13T23:24:35Z</time></trkpt>
<trkpt lat="38.688434" lon="-119.978162"><ele>2740.0</ele><time>2026-04-13T23:25:18Z</time></trkpt>
<trkpt lat="38.688460" lon="-119.978067"><ele>2738.0</ele><time>2026-04-13T23:25:45Z</time></trkpt>
<trkpt lat="38.688437" lon="-119.978071"><ele>2737.4</ele><time>2026-04-13T23:26:02Z</time></trkpt>
<trkpt lat="38.688436" lon="-119.978075"><ele>2732.6</ele><time>2026-04-13T23:33:29Z</time></trkpt>
<trkpt lat="38.688466" lon="-119.978073"><ele>2731.6</ele><time>2026-04-13T23:37:28Z</time></trkpt>
<trkpt lat="38.688516" lon="-119.977971"><ele>2730.8</ele><time>2026-04-13T23:38:09Z</time></trkpt>
<trkpt lat="38.688516" lon="-119.977957"><ele>2727.4</ele><time>2026-04-13T23:38:33Z</time></trkpt>
<trkpt lat="38.688544" lon="-119.977901"><ele>2725.8</ele><time>2026-04-13T23:38:46Z</time></trkpt>
<trkpt lat="38.688612" lon="-119.977613"><ele>2721.4</ele><time>2026-04-13T23:39:05Z</time></trkpt>
<trkpt lat="38.688622" lon="-119.977570"><ele>2719.4</ele><time>2026-04-13T23:39:07Z</time></trkpt>
<trkpt lat="38.688610" lon="-119.977571"><ele>2716.8</ele><time>2026-04-13T23:39:55Z</time></trkpt>
<trkpt lat="38.688657" lon="-119.977447"><ele>2714.0</ele><time>2026-04-13T23:40:46Z</time></trkpt>
<trkpt lat="38.688599" lon="-119.977277"><ele>2712.6</ele><time>2026-04-13T23:41:11Z</time></trkpt>
<trkpt lat="38.688625" lon="-119.977137"><ele>2711.2</ele><time>2026-04-13T23:41:15Z</time></trkpt>
<trkpt lat="38.688686" lon="-119.977094"><ele>2709.0</ele><time>2026-04-13T23:41:18Z</time></trkpt>
<trkpt lat="38.688848" lon="-119.977095"><ele>2707.0</ele><time>2026-04-13T23:41:22Z</time></trkpt>
<trkpt lat="38.688932" lon="-119.977044"><ele>2703.4</ele><time>2026-04-13T23:41:26Z</time></trkpt>
<trkpt lat="38.688932" lon="-119.977047"><ele>2700.0</ele><time>2026-04-13T23:41:34Z</time></trkpt>
<trkpt lat="38.689060" lon="-119.976886"><ele>2697.6</ele><time>2026-04-13T23:42:03Z</time></trkpt>
<trkpt lat="38.689095" lon="-119.976784"><ele>2694.4</ele><time>2026-04-13T23:42:05Z</time></trkpt>
<trkpt lat="38.689085" lon="-119.976765"><ele>2689.6</ele><time>2026-04-13T23:42:12Z</time></trkpt>
<trkpt lat="38.689103" lon="-119.976778"><ele>2689.6</ele><time>2026-04-13T23:42:19Z</time></trkpt>
<trkpt lat="38.689151" lon="-119.976660"><ele>2688.2</ele><time>2026-04-13T23:42:24Z</time></trkpt>
<trkpt lat="38.689137" lon="-119.976620"><ele>2683.4</ele><time>2026-04-13T23:42:27Z</time></trkpt>
<trkpt lat="38.689177" lon="-119.976489"><ele>2681.2</ele><time>2026-04-13T23:42:34Z</time></trkpt>
<trkpt lat="38.689301" lon="-119.976154"><ele>2665.4</ele><time>2026-04-13T23:43:12Z</time></trkpt>
<trkpt lat="38.689322" lon="-119.976065"><ele>2664.6</ele><time>2026-04-13T23:43:20Z</time></trkpt>
<trkpt lat="38.689574" lon="-119.975925"><ele>2657.6</ele><time>2026-04-13T23:43:25Z</time></trkpt>
<trkpt lat="38.689607" lon="-119.975843"><ele>2655.2</ele><time>2026-04-13T23:43:27Z</time></trkpt>
<trkpt lat="38.689596" lon="-119.975836"><ele>2652.6</ele><time>2026-04-13T23:43:54Z</time></trkpt>
<trkpt lat="38.689740" lon="-119.975958"><ele>2650.8</ele><time>2026-04-13T23:44:21Z</time></trkpt>
<trkpt lat="38.689825" lon="-119.975964"><ele>2647.4</ele><time>2026-04-13T23:44:23Z</time></trkpt>
<trkpt lat="38.689989" lon="-119.975910"><ele>2638.4</ele><time>2026-04-13T23:44:27Z</time></trkpt>
<trkpt lat="38.690204" lon="-119.975752"><ele>2627.4</ele><time>2026-04-13T23:44:32Z</time></trkpt>
<trkpt lat="38.690434" lon="-119.975757"><ele>2615.4</ele><time>2026-04-13T23:44:37Z</time></trkpt>
<trkpt lat="38.690516" lon="-119.975687"><ele>2610.0</ele><time>2026-04-13T23:44:39Z</time></trkpt>
<trkpt lat="38.690507" lon="-119.975641"><ele>2606.4</ele><time>2026-04-13T23:45:09Z</time></trkpt>
<trkpt lat="38.690641" lon="-119.975643"><ele>2604.2</ele><time>2026-04-13T23:45:21Z</time></trkpt>
<trkpt lat="38.690830" lon="-119.975709"><ele>2593.0</ele><time>2026-04-13T23:45:25Z</time></trkpt>
<trkpt lat="38.691029" lon="-119.975648"><ele>2583.2</ele><time>2026-04-13T23:45:30Z</time></trkpt>
<trkpt lat="38.691182" lon="-119.975626"><ele>2579.2</ele><time>2026-04-13T23:45:34Z</time></trkpt>
<trkpt lat="38.691243" lon="-119.975551"><ele>2575.0</ele><time>2026-04-13T23:45:37Z</time></trkpt>
<trkpt lat="38.691253" lon="-119.975507"><ele>2572.6</ele><time>2026-04-13T23:45:39Z</time></trkpt>
<trkpt lat="38.691235" lon="-119.975510"><ele>2571.4</ele><time>2026-04-13T23:46:02Z</time></trkpt>
<trkpt lat="38.691303" lon="-119.975422"><ele>2570.8</ele><time>2026-04-13T23:46:10Z</time></trkpt>
<trkpt lat="38.691435" lon="-119.975326"><ele>2559.4</ele><time>2026-04-13T23:46:14Z</time></trkpt>
<trkpt lat="38.691579" lon="-119.975215"><ele>2554.0</ele><time>2026-04-13T23:46:18Z</time></trkpt>
<trkpt lat="38.691710" lon="-119.975166"><ele>2549.0</ele><time>2026-04-13T23:46:23Z</time></trkpt>
<trkpt lat="38.691931" lon="-119.975252"><ele>2544.2</ele><time>2026-04-13T23:46:36Z</time></trkpt>
<trkpt lat="38.691900" lon="-119.975201"><ele>2543.4</ele><time>2026-04-13T23:47:07Z</time></trkpt>
<trkpt lat="38.692028" lon="-119.975314"><ele>2541.8</ele><time>2026-04-13T23:47:34Z</time></trkpt>
<trkpt lat="38.692178" lon="-119.975351"><ele>2539.2</ele><time>2026-04-13T23:47:38Z</time></trkpt>
<trkpt lat="38.692348" lon="-119.975330"><ele>2536.6</ele><time>2026-04-13T23:47:48Z</time></trkpt>
<trkpt lat="38.692581" lon="-119.975233"><ele>2532.8</ele><time>2026-04-13T23:47:55Z</time></trkpt>
<trkpt lat="38.692709" lon="-119.975238"><ele>2530.2</ele><time>2026-04-13T23:47:57Z</time></trkpt>
<trkpt lat="38.692738" lon="-119.975257"><ele>2526.0</ele><time>2026-04-13T23:48:06Z</time></trkpt>
<trkpt lat="38.692729" lon="-119.975234"><ele>2526.2</ele><time>2026-04-13T23:48:11Z</time></trkpt>
<trkpt lat="38.692790" lon="-119.975370"><ele>2526.0</ele><time>2026-04-13T23:48:33Z</time></trkpt>
<trkpt lat="38.692963" lon="-119.975573"><ele>2522.4</ele><time>2026-04-13T23:48:50Z</time></trkpt>
<trkpt lat="38.693023" lon="-119.975596"><ele>2521.2</ele><time>2026-04-13T23:48:58Z</time></trkpt>
<trkpt lat="38.693267" lon="-119.975531"><ele>2507.6</ele><time>2026-04-13T23:49:04Z</time></trkpt>
<trkpt lat="38.693292" lon="-119.975516"><ele>2505.0</ele><time>2026-04-13T23:49:05Z</time></trkpt>
<trkpt lat="38.693285" lon="-119.975525"><ele>2500.2</ele><time>2026-04-13T23:49:08Z</time></trkpt>
<trkpt lat="38.693319" lon="-119.975454"><ele>2499.8</ele><time>2026-04-13T23:49:55Z</time></trkpt>
<trkpt lat="38.693474" lon="-119.975415"><ele>2493.8</ele><time>2026-04-13T23:50:03Z</time></trkpt>
<trkpt lat="38.693603" lon="-119.975513"><ele>2490.4</ele><time>2026-04-13T23:50:06Z</time></trkpt>
<trkpt lat="38.693736" lon="-119.975559"><ele>2483.0</ele><time>2026-04-13T23:50:09Z</time></trkpt>
<trkpt lat="38.693759" lon="-119.975641"><ele>2479.4</ele><time>2026-04-13T23:50:11Z</time></trkpt>
<trkpt lat="38.693744" lon="-119.975653"><ele>2476.0</ele><time>2026-04-13T23:50:15Z</time></trkpt>
<trkpt lat="38.694001" lon="-119.975886"><ele>2467.8</ele><time>2026-04-13T23:50:25Z</time></trkpt>
<trkpt lat="38.694262" lon="-119.976028"><ele>2459.8</ele><time>2026-04-13T23:50:29Z</time></trkpt>
<trkpt lat="38.694301" lon="-119.975999"><ele>2457.2</ele><time>2026-04-13T23:51:09Z</time></trkpt>
<trkpt lat="38.694265" lon="-119.975954"><ele>2457.2</ele><time>2026-04-13T23:51:48Z</time></trkpt>
<trkpt lat="38.694313" lon="-119.975987"><ele>2455.2</ele><time>2026-04-13T23:52:07Z</time></trkpt>
<trkpt lat="38.694310" lon="-119.976008"><ele>2457.4</ele><time>2026-04-13T23:52:30Z</time></trkpt>
<trkpt lat="38.694313" lon="-119.975988"><ele>2455.8</ele><time>2026-04-13T23:53:03Z</time></trkpt>
<trkpt lat="38.694298" lon="-119.976013"><ele>2457.4</ele><time>2026-04-13T23:53:22Z</time></trkpt>
<trkpt lat="38.694295" lon="-119.976013"><ele>2453.6</ele><time>2026-04-13T23:53:36Z</time></trkpt>
<trkpt lat="38.694270" lon="-119.976009"><ele>2456.8</ele><time>2026-04-13T23:54:18Z</time></trkpt>
<trkpt lat="38.694306" lon="-119.975990"><ele>2456.4</ele><time>2026-04-13T23:54:53Z</time></trkpt>
<trkpt lat="38.694289" lon="-119.975999"><ele>2457.0</ele><time>2026-04-13T23:55:30Z</time></trkpt>
<trkpt lat="38.694304" lon="-119.975989"><ele>2452.2</ele><time>2026-04-13T23:58:48Z</time></trkpt>
<trkpt lat="38.694308" lon="-119.975961"><ele>2455.6</ele><time>2026-04-13T23:59:08Z</time></trkpt>
<trkpt lat="38.694278" lon="-119.975988"><ele>2456.8</ele><time>2026-04-13T23:59:17Z</time></trkpt>
<trkpt lat="38.694289" lon="-119.975999"><ele>2454.6</ele><time>2026-04-14T00:00:08Z</time></trkpt>
<trkpt lat="38.694306" lon="-119.975994"><ele>2455.8</ele><time>2026-04-14T00:00:40Z</time></trkpt>
<trkpt lat="38.694278" lon="-119.975972"><ele>2456.0</ele><time>2026-04-14T00:01:01Z</time></trkpt>
<trkpt lat="38.694279" lon="-119.976000"><ele>2457.6</ele><time>2026-04-14T00:01:27Z</time></trkpt>
<trkpt lat="38.694319" lon="-119.975978"><ele>2458.4</ele><time>2026-04-14T00:01:36Z</time></trkpt>
<trkpt lat="38.694250" lon="-119.975988"><ele>2458.6</ele><time>2026-04-14T00:01:55Z</time></trkpt>
<trkpt lat="38.694077" lon="-119.975749"><ele>2463.8</ele><time>2026-04-14T00:02:25Z</time></trkpt>
<trkpt lat="38.693979" lon="-119.975458"><ele>2472.2</ele><time>2026-04-14T00:03:11Z</time></trkpt>
<trkpt lat="38.693980" lon="-119.975352"><ele>2475.6</ele><time>2026-04-14T00:03:34Z</time></trkpt>
<trkpt lat="38.693881" lon="-119.975311"><ele>2477.8</ele><time>2026-04-14T00:03:59Z</time></trkpt>
<trkpt lat="38.693909" lon="-119.975310"><ele>2478.8</ele><time>2026-04-14T00:04:17Z</time></trkpt>
<trkpt lat="38.693830" lon="-119.975405"><ele>2478.2</ele><time>2026-04-14T00:05:03Z</time></trkpt>
<trkpt lat="38.693752" lon="-119.975633"><ele>2480.2</ele><time>2026-04-14T00:05:20Z</time></trkpt>
<trkpt lat="38.693510" lon="-119.975984"><ele>2485.6</ele><time>2026-04-14T00:06:02Z</time></trkpt>
<trkpt lat="38.693475" lon="-119.976071"><ele>2486.6</ele><time>2026-04-14T00:06:09Z</time></trkpt>
<trkpt lat="38.693465" lon="-119.976297"><ele>2488.2</ele><time>2026-04-14T00:06:25Z</time></trkpt>
<trkpt lat="38.693308" lon="-119.976651"><ele>2491.8</ele><time>2026-04-14T00:06:58Z</time></trkpt>
<trkpt lat="38.693108" lon="-119.976891"><ele>2494.6</ele><time>2026-04-14T00:07:28Z</time></trkpt>
<trkpt lat="38.693060" lon="-119.977134"><ele>2495.6</ele><time>2026-04-14T00:07:47Z</time></trkpt>
<trkpt lat="38.693003" lon="-119.977134"><ele>2494.6</ele><time>2026-04-14T00:08:12Z</time></trkpt>
<trkpt lat="38.693005" lon="-119.977399"><ele>2497.8</ele><time>2026-04-14T00:09:08Z</time></trkpt>
<trkpt lat="38.693097" lon="-119.978115"><ele>2509.6</ele><time>2026-04-14T00:10:02Z</time></trkpt>
<trkpt lat="38.693092" lon="-119.978449"><ele>2514.0</ele><time>2026-04-14T00:10:31Z</time></trkpt>
<trkpt lat="38.693044" lon="-119.978725"><ele>2517.4</ele><time>2026-04-14T00:10:55Z</time></trkpt>
<trkpt lat="38.692930" lon="-119.978877"><ele>2518.2</ele><time>2026-04-14T00:11:22Z</time></trkpt>
<trkpt lat="38.692541" lon="-119.979096"><ele>2524.4</ele><time>2026-04-14T00:12:04Z</time></trkpt>
<trkpt lat="38.692458" lon="-119.979161"><ele>2526.6</ele><time>2026-04-14T00:12:16Z</time></trkpt>
<trkpt lat="38.692447" lon="-119.979199"><ele>2525.6</ele><time>2026-04-14T00:12:27Z</time></trkpt>
<trkpt lat="38.692441" lon="-119.979124"><ele>2525.8</ele><time>2026-04-14T00:13:00Z</time></trkpt>
<trkpt lat="38.692485" lon="-119.979021"><ele>2526.4</ele><time>2026-04-14T00:13:13Z</time></trkpt>
<trkpt lat="38.692618" lon="-119.978787"><ele>2530.2</ele><time>2026-04-14T00:13:44Z</time></trkpt>
<trkpt lat="38.692623" lon="-119.978524"><ele>2533.0</ele><time>2026-04-14T00:14:08Z</time></trkpt>
<trkpt lat="38.692523" lon="-119.978289"><ele>2535.4</ele><time>2026-04-14T00:14:34Z</time></trkpt>
<trkpt lat="38.692408" lon="-119.978216"><ele>2536.8</ele><time>2026-04-14T00:14:50Z</time></trkpt>
<trkpt lat="38.692458" lon="-119.977888"><ele>2541.4</ele><time>2026-04-14T00:15:32Z</time></trkpt>
<trkpt lat="38.692427" lon="-119.977623"><ele>2545.4</ele><time>2026-04-14T00:15:58Z</time></trkpt>
<trkpt lat="38.692408" lon="-119.977608"><ele>2546.0</ele><time>2026-04-14T00:16:06Z</time></trkpt>
<trkpt lat="38.692274" lon="-119.977713"><ele>2549.4</ele><time>2026-04-14T00:16:27Z</time></trkpt>
<trkpt lat="38.692179" lon="-119.977443"><ele>2552.0</ele><time>2026-04-14T00:16:58Z</time></trkpt>
<trkpt lat="38.692045" lon="-119.977240"><ele>2552.4</ele><time>2026-04-14T00:17:46Z</time></trkpt>
<trkpt lat="38.691878" lon="-119.977520"><ele>2558.8</ele><time>2026-04-14T00:19:03Z</time></trkpt>
<trkpt lat="38.691814" lon="-119.977345"><ele>2560.2</ele><time>2026-04-14T00:19:22Z</time></trkpt>
<trkpt lat="38.691771" lon="-119.977286"><ele>2563.2</ele><time>2026-04-14T00:19:38Z</time></trkpt>
<trkpt lat="38.691744" lon="-119.977105"><ele>2566.8</ele><time>2026-04-14T00:20:02Z</time></trkpt>
<trkpt lat="38.691622" lon="-119.976983"><ele>2568.4</ele><time>2026-04-14T00:20:35Z</time></trkpt>
<trkpt lat="38.691620" lon="-119.976947"><ele>2570.0</ele><time>2026-04-14T00:20:54Z</time></trkpt>
<trkpt lat="38.691648" lon="-119.976954"><ele>2569.8</ele><time>2026-04-14T00:20:59Z</time></trkpt>
<trkpt lat="38.691485" lon="-119.976663"><ele>2578.0</ele><time>2026-04-14T00:21:58Z</time></trkpt>
<trkpt lat="38.691419" lon="-119.976320"><ele>2587.4</ele><time>2026-04-14T00:23:02Z</time></trkpt>
<trkpt lat="38.691298" lon="-119.976232"><ele>2589.0</ele><time>2026-04-14T00:23:50Z</time></trkpt>
<trkpt lat="38.691320" lon="-119.976204"><ele>2588.8</ele><time>2026-04-14T00:24:08Z</time></trkpt>
<trkpt lat="38.691263" lon="-119.976239"><ele>2587.8</ele><time>2026-04-14T00:24:50Z</time></trkpt>
<trkpt lat="38.691303" lon="-119.976197"><ele>2587.6</ele><time>2026-04-14T00:25:24Z</time></trkpt>
<trkpt lat="38.691296" lon="-119.976223"><ele>2587.2</ele><time>2026-04-14T00:25:31Z</time></trkpt>
<trkpt lat="38.691153" lon="-119.976105"><ele>2586.6</ele><time>2026-04-14T00:26:36Z</time></trkpt>
<trkpt lat="38.690933" lon="-119.975977"><ele>2590.4</ele><time>2026-04-14T00:27:14Z</time></trkpt>
<trkpt lat="38.690850" lon="-119.975857"><ele>2594.0</ele><time>2026-04-14T00:27:40Z</time></trkpt>
<trkpt lat="38.690762" lon="-119.975830"><ele>2596.6</ele><time>2026-04-14T00:28:13Z</time></trkpt>
<trkpt lat="38.690685" lon="-119.975614"><ele>2605.8</ele><time>2026-04-14T00:29:03Z</time></trkpt>
<trkpt lat="38.690611" lon="-119.975425"><ele>2609.2</ele><time>2026-04-14T00:29:31Z</time></trkpt>
<trkpt lat="38.690488" lon="-119.975668"><ele>2617.0</ele><time>2026-04-14T00:30:23Z</time></trkpt>
<trkpt lat="38.690393" lon="-119.975794"><ele>2618.8</ele><time>2026-04-14T00:31:18Z</time></trkpt>
<trkpt lat="38.690350" lon="-119.975934"><ele>2622.6</ele><time>2026-04-14T00:31:44Z</time></trkpt>
<trkpt lat="38.690246" lon="-119.976052"><ele>2626.8</ele><time>2026-04-14T00:32:23Z</time></trkpt>
<trkpt lat="38.690229" lon="-119.976230"><ele>2629.8</ele><time>2026-04-14T00:33:01Z</time></trkpt>
<trkpt lat="38.690077" lon="-119.976280"><ele>2635.4</ele><time>2026-04-14T00:33:36Z</time></trkpt>
<trkpt lat="38.690014" lon="-119.976213"><ele>2639.0</ele><time>2026-04-14T00:33:59Z</time></trkpt>
<trkpt lat="38.689921" lon="-119.976201"><ele>2641.2</ele><time>2026-04-14T00:34:15Z</time></trkpt>
<trkpt lat="38.689918" lon="-119.976250"><ele>2642.4</ele><time>2026-04-14T00:34:26Z</time></trkpt>
<trkpt lat="38.689883" lon="-119.976260"><ele>2643.4</ele><time>2026-04-14T00:34:36Z</time></trkpt>
<trkpt lat="38.689821" lon="-119.976193"><ele>2646.4</ele><time>2026-04-14T00:34:56Z</time></trkpt>
<trkpt lat="38.689723" lon="-119.976296"><ele>2648.8</ele><time>2026-04-14T00:35:26Z</time></trkpt>
<trkpt lat="38.689678" lon="-119.976213"><ele>2650.8</ele><time>2026-04-14T00:35:59Z</time></trkpt>
<trkpt lat="38.689605" lon="-119.976279"><ele>2653.6</ele><time>2026-04-14T00:36:48Z</time></trkpt>
<trkpt lat="38.689600" lon="-119.976237"><ele>2655.2</ele><time>2026-04-14T00:37:14Z</time></trkpt>
<trkpt lat="38.689601" lon="-119.976216"><ele>2652.6</ele><time>2026-04-14T00:38:20Z</time></trkpt>
<trkpt lat="38.689558" lon="-119.976118"><ele>2658.6</ele><time>2026-04-14T00:39:14Z</time></trkpt>
<trkpt lat="38.689366" lon="-119.976247"><ele>2666.8</ele><time>2026-04-14T00:40:08Z</time></trkpt>
<trkpt lat="38.689365" lon="-119.976397"><ele>2670.8</ele><time>2026-04-14T00:40:31Z</time></trkpt>
<trkpt lat="38.689246" lon="-119.976382"><ele>2675.0</ele><time>2026-04-14T00:41:19Z</time></trkpt>
<trkpt lat="38.689187" lon="-119.976330"><ele>2676.8</ele><time>2026-04-14T00:41:39Z</time></trkpt>
<trkpt lat="38.689038" lon="-119.976417"><ele>2685.0</ele><time>2026-04-14T00:42:50Z</time></trkpt>
<trkpt lat="38.689084" lon="-119.976534"><ele>2689.6</ele><time>2026-04-14T00:43:30Z</time></trkpt>
<trkpt lat="38.689104" lon="-119.976684"><ele>2691.2</ele><time>2026-04-14T00:44:30Z</time></trkpt>
<trkpt lat="38.689082" lon="-119.976778"><ele>2693.6</ele><time>2026-04-14T00:44:51Z</time></trkpt>
<trkpt lat="38.688981" lon="-119.976854"><ele>2697.0</ele><time>2026-04-14T00:45:30Z</time></trkpt>
<trkpt lat="38.688880" lon="-119.976864"><ele>2701.4</ele><time>2026-04-14T00:45:51Z</time></trkpt>
<trkpt lat="38.688882" lon="-119.976929"><ele>2704.2</ele><time>2026-04-14T00:46:02Z</time></trkpt>
<trkpt lat="38.688799" lon="-119.976967"><ele>2706.8</ele><time>2026-04-14T00:46:20Z</time></trkpt>
<trkpt lat="38.688791" lon="-119.977058"><ele>2709.4</ele><time>2026-04-14T00:46:33Z</time></trkpt>
<trkpt lat="38.688683" lon="-119.977130"><ele>2712.6</ele><time>2026-04-14T00:46:52Z</time></trkpt>
<trkpt lat="38.688529" lon="-119.977357"><ele>2719.8</ele><time>2026-04-14T00:47:27Z</time></trkpt>
<trkpt lat="38.688533" lon="-119.977413"><ele>2720.2</ele><time>2026-04-14T00:47:32Z</time></trkpt>
<trkpt lat="38.688601" lon="-119.977505"><ele>2723.2</ele><time>2026-04-14T00:47:50Z</time></trkpt>
<trkpt lat="38.688573" lon="-119.977601"><ele>2725.8</ele><time>2026-04-14T00:48:10Z</time></trkpt>
<trkpt lat="38.688576" lon="-119.977722"><ele>2726.8</ele><time>2026-04-14T00:49:08Z</time></trkpt>
<trkpt lat="38.688531" lon="-119.977848"><ele>2732.4</ele><time>2026-04-14T00:49:46Z</time></trkpt>
<trkpt lat="38.688469" lon="-119.977958"><ele>2733.6</ele><time>2026-04-14T00:50:12Z</time></trkpt>
<trkpt lat="38.688445" lon="-119.978081"><ele>2739.8</ele><time>2026-04-14T00:51:49Z</time></trkpt>
<trkpt lat="38.688445" lon="-119.978070"><ele>2734.8</ele><time>2026-04-14T00:53:07Z</time></trkpt>
<trkpt lat="38.688420" lon="-119.978114"><ele>2734.4</ele><time>2026-04-14T00:53:12Z</time></trkpt>
<trkpt lat="38.688436" lon="-119.978213"><ele>2742.6</ele><time>2026-04-14T00:53:30Z</time></trkpt>
<trkpt lat="38.688550" lon="-119.978392"><ele>2748.4</ele><time>2026-04-14T00:54:09Z</time></trkpt>
<trkpt lat="38.688550" lon="-119.978392"><ele>2745.8</ele><time>2026-04-14T00:54:38Z</time></trkpt>
<trkpt lat="38.688581" lon="-119.978374"><ele>2747.0</ele><time>2026-04-14T00:55:02Z</time></trkpt>
<trkpt lat="38.688562" lon="-119.978389"><ele>2742.0</ele><time>2026-04-14T00:57:03Z</time></trkpt>
<trkpt lat="38.688534" lon="-119.978388"><ele>2743.6</ele><time>2026-04-14T00:59:33Z</time></trkpt>
<trkpt lat="38.688526" lon="-119.978322"><ele>2741.2</ele><time>2026-04-14T00:59:48Z</time></trkpt>
<trkpt lat="38.688422" lon="-119.978206"><ele>2734.2</ele><time>2026-04-14T01:00:23Z</time></trkpt>
<trkpt lat="38.688440" lon="-119.978193"><ele>2733.8</ele><time>2026-04-14T01:00:27Z</time></trkpt>
<trkpt lat="38.688416" lon="-119.978130"><ele>2731.4</ele><time>2026-04-14T01:00:45Z</time></trkpt>
<trkpt lat="38.688449" lon="-119.978078"><ele>2729.2</ele><time>2026-04-14T01:01:34Z</time></trkpt>
<trkpt lat="38.688433" lon="-119.978061"><ele>2730.2</ele><time>2026-04-14T01:04:06Z</time></trkpt>
<trkpt lat="38.688444" lon="-119.978087"><ele>2730.6</ele><time>2026-04-14T01:05:13Z</time></trkpt>
<trkpt lat="38.688446" lon="-119.978083"><ele>2728.0</ele><time>2026-04-14T01:06:56Z</time></trkpt>
<trkpt lat="38.688446" lon="-119.978083"><ele>2731.0</ele><time>2026-04-14T01:08:42Z</time></trkpt>
<trkpt lat="38.688446" lon="-119.978083"><ele>2728.6</ele><time>2026-04-14T01:08:53Z</time></trkpt>
<trkpt lat="38.688502" lon="-119.978086"><ele>2729.4</ele><time>2026-04-14T01:10:41Z</time></trkpt>
<trkpt lat="38.688493" lon="-119.978059"><ele>2726.8</ele><time>2026-04-14T01:11:01Z</time></trkpt>
<trkpt lat="38.688493" lon="-119.978085"><ele>2726.4</ele><time>2026-04-14T01:11:24Z</time></trkpt>
<trkpt lat="38.688556" lon="-119.978098"><ele>2728.0</ele><time>2026-04-14T01:11:41Z</time></trkpt>
<trkpt lat="38.688552" lon="-119.978041"><ele>2726.6</ele><time>2026-04-14T01:11:54Z</time></trkpt>
<trkpt lat="38.688552" lon="-119.978046"><ele>2723.0</ele><time>2026-04-14T01:12:15Z</time></trkpt>
<trkpt lat="38.688562" lon="-119.977891"><ele>2722.4</ele><time>2026-04-14T01:14:10Z</time></trkpt>
<trkpt lat="38.688608" lon="-119.977726"><ele>2716.8</ele><time>2026-04-14T01:15:30Z</time></trkpt>
<trkpt lat="38.688688" lon="-119.977684"><ele>2715.8</ele><time>2026-04-14T01:15:33Z</time></trkpt>
<trkpt lat="38.688855" lon="-119.977576"><ele>2704.4</ele><time>2026-04-14T01:15:38Z</time></trkpt>
<trkpt lat="38.688856" lon="-119.977585"><ele>2700.2</ele><time>2026-04-14T01:15:47Z</time></trkpt>
<trkpt lat="38.688855" lon="-119.977588"><ele>2703.2</ele><time>2026-04-14T01:16:05Z</time></trkpt>
<trkpt lat="38.688874" lon="-119.977582"><ele>2701.4</ele><time>2026-04-14T01:16:29Z</time></trkpt>
<trkpt lat="38.688857" lon="-119.977578"><ele>2704.2</ele><time>2026-04-14T01:16:45Z</time></trkpt>
<trkpt lat="38.688934" lon="-119.977446"><ele>2701.8</ele><time>2026-04-14T01:16:54Z</time></trkpt>
<trkpt lat="38.689032" lon="-119.977396"><ele>2696.6</ele><time>2026-04-14T01:16:57Z</time></trkpt>
<trkpt lat="38.689081" lon="-119.977351"><ele>2690.0</ele><time>2026-04-14T01:17:01Z</time></trkpt>
<trkpt lat="38.689157" lon="-119.977179"><ele>2689.2</ele><time>2026-04-14T01:17:22Z</time></trkpt>
<trkpt lat="38.689161" lon="-119.977129"><ele>2685.2</ele><time>2026-04-14T01:17:25Z</time></trkpt>
<trkpt lat="38.689234" lon="-119.977126"><ele>2682.2</ele><time>2026-04-14T01:17:30Z</time></trkpt>
<trkpt lat="38.689265" lon="-119.977022"><ele>2676.0</ele><time>2026-04-14T01:19:44Z</time></trkpt>
<trkpt lat="38.689580" lon="-119.976934"><ele>2656.6</ele><time>2026-04-14T01:19:52Z</time></trkpt>
<trkpt lat="38.689591" lon="-119.976907"><ele>2654.4</ele><time>2026-04-14T01:19:54Z</time></trkpt>
<trkpt lat="38.689619" lon="-119.976896"><ele>2657.2</ele><time>2026-04-14T01:20:13Z</time></trkpt>
<trkpt lat="38.689682" lon="-119.976819"><ele>2655.4</ele><time>2026-04-14T01:20:22Z</time></trkpt>
<trkpt lat="38.689675" lon="-119.976766"><ele>2655.0</ele><time>2026-04-14T01:20:55Z</time></trkpt>
<trkpt lat="38.689744" lon="-119.976823"><ele>2655.6</ele><time>2026-04-14T01:21:16Z</time></trkpt>
<trkpt lat="38.689795" lon="-119.976809"><ele>2650.4</ele><time>2026-04-14T01:21:19Z</time></trkpt>
<trkpt lat="38.689872" lon="-119.976716"><ele>2645.2</ele><time>2026-04-14T01:21:22Z</time></trkpt>
<trkpt lat="38.689998" lon="-119.976748"><ele>2641.4</ele><time>2026-04-14T01:21:26Z</time></trkpt>
<trkpt lat="38.690025" lon="-119.976741"><ele>2638.2</ele><time>2026-04-14T01:21:27Z</time></trkpt>
<trkpt lat="38.690222" lon="-119.976483"><ele>2630.0</ele><time>2026-04-14T01:21:32Z</time></trkpt>
<trkpt lat="38.690234" lon="-119.976357"><ele>2624.6</ele><time>2026-04-14T01:21:50Z</time></trkpt>
<trkpt lat="38.690215" lon="-119.976371"><ele>2624.4</ele><time>2026-04-14T01:22:13Z</time></trkpt>
<trkpt lat="38.690269" lon="-119.976303"><ele>2624.6</ele><time>2026-04-14T01:23:08Z</time></trkpt>
<trkpt lat="38.690389" lon="-119.976265"><ele>2621.2</ele><time>2026-04-14T01:23:11Z</time></trkpt>
<trkpt lat="38.690495" lon="-119.976271"><ele>2616.4</ele><time>2026-04-14T01:23:13Z</time></trkpt>
<trkpt lat="38.690575" lon="-119.976338"><ele>2613.0</ele><time>2026-04-14T01:23:20Z</time></trkpt>
<trkpt lat="38.690552" lon="-119.976322"><ele>2612.6</ele><time>2026-04-14T01:23:30Z</time></trkpt>
<trkpt lat="38.690886" lon="-119.976591"><ele>2606.2</ele><time>2026-04-14T01:23:51Z</time></trkpt>
<trkpt lat="38.690909" lon="-119.976644"><ele>2603.8</ele><time>2026-04-14T01:24:40Z</time></trkpt>
<trkpt lat="38.691092" lon="-119.976580"><ele>2600.4</ele><time>2026-04-14T01:24:46Z</time></trkpt>
<trkpt lat="38.691165" lon="-119.976598"><ele>2596.0</ele><time>2026-04-14T01:24:47Z</time></trkpt>
<trkpt lat="38.691244" lon="-119.976556"><ele>2586.2</ele><time>2026-04-14T01:24:49Z</time></trkpt>
<trkpt lat="38.691393" lon="-119.976530"><ele>2579.4</ele><time>2026-04-14T01:24:52Z</time></trkpt>
<trkpt lat="38.691447" lon="-119.976514"><ele>2570.8</ele><time>2026-04-14T01:24:56Z</time></trkpt>
<trkpt lat="38.691475" lon="-119.976464"><ele>2570.4</ele><time>2026-04-14T01:25:14Z</time></trkpt>
<trkpt lat="38.691462" lon="-119.976409"><ele>2570.4</ele><time>2026-04-14T01:25:25Z</time></trkpt>
<trkpt lat="38.691537" lon="-119.976364"><ele>2570.8</ele><time>2026-04-14T01:25:33Z</time></trkpt>
<trkpt lat="38.691655" lon="-119.976449"><ele>2569.4</ele><time>2026-04-14T01:25:36Z</time></trkpt>
<trkpt lat="38.691693" lon="-119.976476"><ele>2559.6</ele><time>2026-04-14T01:25:37Z</time></trkpt>
<trkpt lat="38.691965" lon="-119.976371"><ele>2544.4</ele><time>2026-04-14T01:25:43Z</time></trkpt>
<trkpt lat="38.692018" lon="-119.976370"><ele>2546.2</ele><time>2026-04-14T01:26:07Z</time></trkpt>
<trkpt lat="38.692015" lon="-119.976345"><ele>2546.8</ele><time>2026-04-14T01:26:28Z</time></trkpt>
<trkpt lat="38.692145" lon="-119.976324"><ele>2544.2</ele><time>2026-04-14T01:26:32Z</time></trkpt>
<trkpt lat="38.692442" lon="-119.976226"><ele>2531.4</ele><time>2026-04-14T01:26:37Z</time></trkpt>
<trkpt lat="38.692601" lon="-119.976255"><ele>2528.2</ele><time>2026-04-14T01:26:42Z</time></trkpt>
<trkpt lat="38.692786" lon="-119.976224"><ele>2524.0</ele><time>2026-04-14T01:26:47Z</time></trkpt>
<trkpt lat="38.692828" lon="-119.976186"><ele>2520.2</ele><time>2026-04-14T01:27:00Z</time></trkpt>
<trkpt lat="38.692807" lon="-119.976188"><ele>2521.2</ele><time>2026-04-14T01:27:26Z</time></trkpt>
<trkpt lat="38.692840" lon="-119.976126"><ele>2518.6</ele><time>2026-04-14T01:27:57Z</time></trkpt>
<trkpt lat="38.692893" lon="-119.976115"><ele>2519.6</ele><time>2026-04-14T01:28:33Z</time></trkpt>
<trkpt lat="38.692861" lon="-119.976120"><ele>2519.6</ele><time>2026-04-14T01:28:50Z</time></trkpt>
<trkpt lat="38.692967" lon="-119.975959"><ele>2516.2</ele><time>2026-04-14T01:29:25Z</time></trkpt>
<trkpt lat="38.693096" lon="-119.975987"><ele>2514.0</ele><time>2026-04-14T01:29:33Z</time></trkpt>
<trkpt lat="38.693124" lon="-119.975942"><ele>2511.2</ele><time>2026-04-14T01:29:35Z</time></trkpt>
<trkpt lat="38.693113" lon="-119.975960"><ele>2503.6</ele><time>2026-04-14T01:29:45Z</time></trkpt>
<trkpt lat="38.693177" lon="-119.975968"><ele>2503.2</ele><time>2026-04-14T01:29:56Z</time></trkpt>
<trkpt lat="38.693269" lon="-119.975900"><ele>2501.8</ele><time>2026-04-14T01:30:00Z</time></trkpt>
<trkpt lat="38.693327" lon="-119.975824"><ele>2497.2</ele><time>2026-04-14T01:30:03Z</time></trkpt>
<trkpt lat="38.693473" lon="-119.975871"><ele>2488.4</ele><time>2026-04-14T01:30:09Z</time></trkpt>
<trkpt lat="38.693662" lon="-119.975773"><ele>2481.4</ele><time>2026-04-14T01:30:13Z</time></trkpt>
<trkpt lat="38.693679" lon="-119.975713"><ele>2477.2</ele><time>2026-04-14T01:30:16Z</time></trkpt>
<trkpt lat="38.693742" lon="-119.975679"><ele>2477.4</ele><time>2026-04-14T01:30:56Z</time></trkpt>
<trkpt lat="38.693972" lon="-119.975208"><ele>2473.4</ele><time>2026-04-14T01:31:09Z</time></trkpt>
<trkpt lat="38.694051" lon="-119.974873"><ele>2469.0</ele><time>2026-04-14T01:31:16Z</time></trkpt>
<trkpt lat="38.694145" lon="-119.974632"><ele>2468.2</ele><time>2026-04-14T01:31:22Z</time></trkpt>
<trkpt lat="38.694335" lon="-119.974367"><ele>2464.8</ele><time>2026-04-14T01:31:27Z</time></trkpt>
<trkpt lat="38.694589" lon="-119.974202"><ele>2460.4</ele><time>2026-04-14T01:31:34Z</time></trkpt>
<trkpt lat="38.694722" lon="-119.974154"><ele>2462.0</ele><time>2026-04-14T01:31:59Z</time></trkpt>
<trkpt lat="38.695050" lon="-119.973882"><ele>2456.6</ele><time>2026-04-14T01:32:29Z</time></trkpt>
<trkpt lat="38.695267" lon="-119.973770"><ele>2454.4</ele><time>2026-04-14T01:32:42Z</time></trkpt>
<trkpt lat="38.695286" lon="-119.973704"><ele>2452.6</ele><time>2026-04-14T01:32:47Z</time></trkpt>
<trkpt lat="38.695688" lon="-119.973287"><ele>2449.4</ele><time>2026-04-14T01:33:03Z</time></trkpt>
<trkpt lat="38.696111" lon="-119.973034"><ele>2444.4</ele><time>2026-04-14T01:33:11Z</time></trkpt>
<trkpt lat="38.696514" lon="-119.972691"><ele>2439.4</ele><time>2026-04-14T01:33:19Z</time></trkpt>
<trkpt lat="38.696875" lon="-119.972754"><ele>2436.0</ele><time>2026-04-14T01:33:25Z</time></trkpt>
<trkpt lat="38.697024" lon="-119.972714"><ele>2433.4</ele><time>2026-04-14T01:33:29Z</time></trkpt>
<trkpt lat="38.697185" lon="-119.972598"><ele>2431.6</ele><time>2026-04-14T01:33:34Z</time></trkpt>
<trkpt lat="38.697594" lon="-119.972168"><ele>2425.0</ele><time>2026-04-14T01:33:47Z</time></trkpt>
<trkpt lat="38.698058" lon="-119.971452"><ele>2417.6</ele><time>2026-04-14T01:34:07Z</time></trkpt>
<trkpt lat="38.698249" lon="-119.971067"><ele>2414.4</ele><time>2026-04-14T01:34:14Z</time></trkpt>
<trkpt lat="38.698327" lon="-119.970840"><ele>2412.0</ele><time>2026-04-14T01:34:19Z</time></trkpt>
<trkpt lat="38.698402" lon="-119.970420"><ele>2409.2</ele><time>2026-04-14T01:34:25Z</time></trkpt>
<trkpt lat="38.698408" lon="-119.970272"><ele>2406.6</ele><time>2026-04-14T01:34:27Z</time></trkpt>
<trkpt lat="38.698389" lon="-119.970160"><ele>2406.0</ele><time>2026-04-14T01:34:29Z</time></trkpt>
<trkpt lat="38.698263" lon="-119.969912"><ele>2403.2</ele><time>2026-04-14T01:34:34Z</time></trkpt>
<trkpt lat="38.698234" lon="-119.969779"><ele>2402.8</ele><time>2026-04-14T01:34:36Z</time></trkpt>
<trkpt lat="38.698240" lon="-119.969660"><ele>2400.4</ele><time>2026-04-14T01:34:38Z</time></trkpt>
<trkpt lat="38.698303" lon="-119.969389"><ele>2400.6</ele><time>2026-04-14T01:34:45Z</time></trkpt>
<trkpt lat="38.698422" lon="-119.969260"><ele>2398.0</ele><time>2026-04-14T01:34:55Z</time></trkpt>
<trkpt lat="38.698471" lon="-119.969162"><ele>2397.8</ele><time>2026-04-14T01:35:01Z</time></trkpt>
<trkpt lat="38.698496" lon="-119.968984"><ele>2397.8</ele><time>2026-04-14T01:35:10Z</time></trkpt>
<trkpt lat="38.698570" lon="-119.968809"><ele>2396.8</ele><time>2026-04-14T01:35:15Z</time></trkpt>
<trkpt lat="38.698636" lon="-119.968529"><ele>2393.8</ele><time>2026-04-14T01:35:24Z</time></trkpt>
<trkpt lat="38.698603" lon="-119.968571"><time>2026-04-14T01:35:37Z</time></trkpt>
</trkseg></trk>
</gpx>
