<?xml version="1.0" encoding="UTF-8"?>
<gpx version="1.1" creator="Eric Sichak trip reports" xmlns="http://www.topografix.com/GPX/1/1">
<metadata><name>Emerald Chute / Y Chute Combo</name><time>2025-04-13T15:22:46Z</time></metadata>
<trk><name>Emerald Chute / Y Chute Combo</name><type>ski</type><trkseg>
<trkpt lat="38.959144" lon="-120.113961"><ele>2291.6</ele><time>2025-04-13T15:22:46Z</time></trkpt>
<trkpt lat="38.959120" lon="-120.114072"><ele>2294.8</ele><time>2025-04-13T15:23:21Z</time></trkpt>
<trkpt lat="38.959198" lon="-120.114204"><ele>2301.4</ele><time>2025-04-13T15:24:07Z</time></trkpt>
<trkpt lat="38.959208" lon="-120.114289"><ele>2304.6</ele><time>2025-04-13T15:24:28Z</time></trkpt>
<trkpt lat="38.959320" lon="-120.114422"><ele>2311.6</ele><time>2025-04-13T15:25:23Z</time></trkpt>
<trkpt lat="38.959353" lon="-120.114645"><ele>2317.8</ele><time>2025-04-13T15:26:12Z</time></trkpt>
<trkpt lat="38.959380" lon="-120.114651"><ele>2319.2</ele><time>2025-04-13T15:26:21Z</time></trkpt>
<trkpt lat="38.959409" lon="-120.114772"><ele>2323.4</ele><time>2025-04-13T15:26:52Z</time></trkpt>
<trkpt lat="38.959501" lon="-120.114846"><ele>2327.4</ele><time>2025-04-13T15:27:22Z</time></trkpt>
<trkpt lat="38.959486" lon="-120.114817"><ele>2327.2</ele><time>2025-04-13T15:27:38Z</time></trkpt>
<trkpt lat="38.959473" lon="-120.115084"><ele>2334.4</ele><time>2025-04-13T15:28:35Z</time></trkpt>
<trkpt lat="38.959587" lon="-120.115162"><ele>2339.4</ele><time>2025-04-13T15:29:20Z</time></trkpt>
<trkpt lat="38.959582" lon="-120.115328"><ele>2344.8</ele><time>2025-04-13T15:30:16Z</time></trkpt>
<trkpt lat="38.959708" lon="-120.115415"><ele>2353.2</ele><time>2025-04-13T15:31:27Z</time></trkpt>
<trkpt lat="38.959702" lon="-120.115585"><ele>2359.4</ele><time>2025-04-13T15:32:14Z</time></trkpt>
<trkpt lat="38.959720" lon="-120.115683"><ele>2360.8</ele><time>2025-04-13T15:32:42Z</time></trkpt>
<trkpt lat="38.959700" lon="-120.115721"><ele>2362.0</ele><time>2025-04-13T15:32:51Z</time></trkpt>
<trkpt lat="38.959728" lon="-120.115735"><ele>2364.6</ele><time>2025-04-13T15:33:38Z</time></trkpt>
<trkpt lat="38.959744" lon="-120.115866"><ele>2369.0</ele><time>2025-04-13T15:34:16Z</time></trkpt>
<trkpt lat="38.959895" lon="-120.115942"><ele>2375.6</ele><time>2025-04-13T15:36:39Z</time></trkpt>
<trkpt lat="38.959912" lon="-120.116098"><ele>2380.8</ele><time>2025-04-13T15:38:50Z</time></trkpt>
<trkpt lat="38.960021" lon="-120.116166"><ele>2386.6</ele><time>2025-04-13T15:39:16Z</time></trkpt>
<trkpt lat="38.960012" lon="-120.116281"><ele>2390.0</ele><time>2025-04-13T15:39:37Z</time></trkpt>
<trkpt lat="38.960140" lon="-120.116347"><ele>2397.0</ele><time>2025-04-13T15:40:15Z</time></trkpt>
<trkpt lat="38.960128" lon="-120.116488"><ele>2402.0</ele><time>2025-04-13T15:40:49Z</time></trkpt>
<trkpt lat="38.960224" lon="-120.116516"><ele>2404.8</ele><time>2025-04-13T15:41:05Z</time></trkpt>
<trkpt lat="38.960297" lon="-120.116616"><ele>2409.2</ele><time>2025-04-13T15:41:48Z</time></trkpt>
<trkpt lat="38.960317" lon="-120.116601"><ele>2409.0</ele><time>2025-04-13T15:42:35Z</time></trkpt>
<trkpt lat="38.960304" lon="-120.116590"><ele>2410.6</ele><time>2025-04-13T15:42:49Z</time></trkpt>
<trkpt lat="38.960289" lon="-120.116692"><ele>2411.8</ele><time>2025-04-13T15:43:05Z</time></trkpt>
<trkpt lat="38.960215" lon="-120.116833"><ele>2416.6</ele><time>2025-04-13T15:43:28Z</time></trkpt>
<trkpt lat="38.960229" lon="-120.116881"><ele>2418.2</ele><time>2025-04-13T15:43:34Z</time></trkpt>
<trkpt lat="38.960296" lon="-120.116926"><ele>2421.2</ele><time>2025-04-13T15:43:47Z</time></trkpt>
<trkpt lat="38.960213" lon="-120.117061"><ele>2426.8</ele><time>2025-04-13T15:44:22Z</time></trkpt>
<trkpt lat="38.960318" lon="-120.117138"><ele>2431.0</ele><time>2025-04-13T15:44:45Z</time></trkpt>
<trkpt lat="38.960199" lon="-120.117318"><ele>2437.0</ele><time>2025-04-13T15:45:23Z</time></trkpt>
<trkpt lat="38.960321" lon="-120.117448"><ele>2443.2</ele><time>2025-04-13T15:45:53Z</time></trkpt>
<trkpt lat="38.960284" lon="-120.117596"><ele>2448.6</ele><time>2025-04-13T15:46:32Z</time></trkpt>
<trkpt lat="38.960219" lon="-120.117675"><ele>2451.8</ele><time>2025-04-13T15:46:52Z</time></trkpt>
<trkpt lat="38.960382" lon="-120.117790"><ele>2458.2</ele><time>2025-04-13T15:47:34Z</time></trkpt>
<trkpt lat="38.960261" lon="-120.117984"><ele>2464.2</ele><time>2025-04-13T15:48:12Z</time></trkpt>
<trkpt lat="38.960381" lon="-120.118076"><ele>2469.2</ele><time>2025-04-13T15:48:42Z</time></trkpt>
<trkpt lat="38.960295" lon="-120.118212"><ele>2473.6</ele><time>2025-04-13T15:49:34Z</time></trkpt>
<trkpt lat="38.960283" lon="-120.118290"><ele>2476.2</ele><time>2025-04-13T15:49:48Z</time></trkpt>
<trkpt lat="38.960462" lon="-120.118467"><ele>2483.8</ele><time>2025-04-13T15:50:33Z</time></trkpt>
<trkpt lat="38.960412" lon="-120.118604"><ele>2488.4</ele><time>2025-04-13T15:51:03Z</time></trkpt>
<trkpt lat="38.960545" lon="-120.118694"><ele>2493.4</ele><time>2025-04-13T15:51:43Z</time></trkpt>
<trkpt lat="38.960522" lon="-120.118764"><ele>2495.2</ele><time>2025-04-13T15:51:56Z</time></trkpt>
<trkpt lat="38.960439" lon="-120.118843"><ele>2498.4</ele><time>2025-04-13T15:52:18Z</time></trkpt>
<trkpt lat="38.960496" lon="-120.118899"><ele>2500.8</ele><time>2025-04-13T15:52:39Z</time></trkpt>
<trkpt lat="38.960421" lon="-120.118973"><ele>2503.2</ele><time>2025-04-13T15:53:16Z</time></trkpt>
<trkpt lat="38.960459" lon="-120.119046"><ele>2506.6</ele><time>2025-04-13T15:53:49Z</time></trkpt>
<trkpt lat="38.960412" lon="-120.119151"><ele>2509.6</ele><time>2025-04-13T15:54:11Z</time></trkpt>
<trkpt lat="38.960581" lon="-120.119268"><ele>2516.2</ele><time>2025-04-13T15:55:16Z</time></trkpt>
<trkpt lat="38.960437" lon="-120.119494"><ele>2522.6</ele><time>2025-04-13T15:56:41Z</time></trkpt>
<trkpt lat="38.960632" lon="-120.119585"><ele>2529.8</ele><time>2025-04-13T15:57:28Z</time></trkpt>
<trkpt lat="38.960632" lon="-120.119552"><ele>2531.8</ele><time>2025-04-13T15:57:44Z</time></trkpt>
<trkpt lat="38.960633" lon="-120.119615"><ele>2533.0</ele><time>2025-04-13T15:58:05Z</time></trkpt>
<trkpt lat="38.960659" lon="-120.119599"><ele>2533.2</ele><time>2025-04-13T15:58:12Z</time></trkpt>
<trkpt lat="38.960587" lon="-120.119696"><ele>2537.6</ele><time>2025-04-13T15:58:35Z</time></trkpt>
<trkpt lat="38.960567" lon="-120.119672"><ele>2538.8</ele><time>2025-04-13T15:58:50Z</time></trkpt>
<trkpt lat="38.960530" lon="-120.119748"><ele>2540.8</ele><time>2025-04-13T15:59:15Z</time></trkpt>
<trkpt lat="38.960634" lon="-120.119825"><ele>2545.0</ele><time>2025-04-13T15:59:39Z</time></trkpt>
<trkpt lat="38.960619" lon="-120.119858"><ele>2547.2</ele><time>2025-04-13T16:00:13Z</time></trkpt>
<trkpt lat="38.960600" lon="-120.119826"><ele>2548.0</ele><time>2025-04-13T16:00:53Z</time></trkpt>
<trkpt lat="38.960559" lon="-120.119921"><ele>2553.0</ele><time>2025-04-13T16:01:23Z</time></trkpt>
<trkpt lat="38.960640" lon="-120.119990"><ele>2555.6</ele><time>2025-04-13T16:01:45Z</time></trkpt>
<trkpt lat="38.960767" lon="-120.120018"><ele>2562.2</ele><time>2025-04-13T16:02:14Z</time></trkpt>
<trkpt lat="38.960682" lon="-120.120123"><ele>2567.6</ele><time>2025-04-13T16:03:40Z</time></trkpt>
<trkpt lat="38.960851" lon="-120.120158"><ele>2570.6</ele><time>2025-04-13T16:04:01Z</time></trkpt>
<trkpt lat="38.960890" lon="-120.120133"><ele>2571.4</ele><time>2025-04-13T16:04:24Z</time></trkpt>
<trkpt lat="38.960833" lon="-120.120254"><ele>2574.0</ele><time>2025-04-13T16:05:03Z</time></trkpt>
<trkpt lat="38.960878" lon="-120.120273"><ele>2575.8</ele><time>2025-04-13T16:05:36Z</time></trkpt>
<trkpt lat="38.960837" lon="-120.120324"><ele>2578.6</ele><time>2025-04-13T16:06:20Z</time></trkpt>
<trkpt lat="38.960955" lon="-120.120407"><ele>2581.4</ele><time>2025-04-13T16:06:57Z</time></trkpt>
<trkpt lat="38.961112" lon="-120.120365"><ele>2585.4</ele><time>2025-04-13T16:07:37Z</time></trkpt>
<trkpt lat="38.961248" lon="-120.120248"><ele>2591.2</ele><time>2025-04-13T16:08:52Z</time></trkpt>
<trkpt lat="38.961262" lon="-120.120201"><ele>2594.0</ele><time>2025-04-13T16:09:21Z</time></trkpt>
<trkpt lat="38.961369" lon="-120.120187"><ele>2598.8</ele><time>2025-04-13T16:10:12Z</time></trkpt>
<trkpt lat="38.961377" lon="-120.120588"><ele>2610.8</ele><time>2025-04-13T16:12:19Z</time></trkpt>
<trkpt lat="38.961389" lon="-120.120548"><ele>2611.2</ele><time>2025-04-13T16:12:30Z</time></trkpt>
<trkpt lat="38.961475" lon="-120.120520"><ele>2613.4</ele><time>2025-04-13T16:12:56Z</time></trkpt>
<trkpt lat="38.961456" lon="-120.120521"><ele>2613.2</ele><time>2025-04-13T16:12:59Z</time></trkpt>
<trkpt lat="38.961444" lon="-120.120911"><ele>2628.2</ele><time>2025-04-13T16:15:00Z</time></trkpt>
<trkpt lat="38.961611" lon="-120.120846"><ele>2632.8</ele><time>2025-04-13T16:15:42Z</time></trkpt>
<trkpt lat="38.961577" lon="-120.120919"><ele>2634.8</ele><time>2025-04-13T16:16:09Z</time></trkpt>
<trkpt lat="38.961680" lon="-120.120890"><ele>2638.4</ele><time>2025-04-13T16:16:32Z</time></trkpt>
<trkpt lat="38.961633" lon="-120.120981"><ele>2639.6</ele><time>2025-04-13T16:16:54Z</time></trkpt>
<trkpt lat="38.961663" lon="-120.121338"><ele>2651.2</ele><time>2025-04-13T16:18:00Z</time></trkpt>
<trkpt lat="38.961627" lon="-120.121488"><ele>2655.2</ele><time>2025-04-13T16:18:20Z</time></trkpt>
<trkpt lat="38.961635" lon="-120.121583"><ele>2658.4</ele><time>2025-04-13T16:18:36Z</time></trkpt>
<trkpt lat="38.961763" lon="-120.121622"><ele>2663.4</ele><time>2025-04-13T16:19:06Z</time></trkpt>
<trkpt lat="38.961765" lon="-120.121834"><ele>2669.8</ele><time>2025-04-13T16:19:50Z</time></trkpt>
<trkpt lat="38.961718" lon="-120.121963"><ele>2674.2</ele><time>2025-04-13T16:20:15Z</time></trkpt>
<trkpt lat="38.961790" lon="-120.122033"><ele>2677.6</ele><time>2025-04-13T16:20:41Z</time></trkpt>
<trkpt lat="38.961835" lon="-120.122129"><ele>2680.4</ele><time>2025-04-13T16:21:03Z</time></trkpt>
<trkpt lat="38.961824" lon="-120.122164"><ele>2681.6</ele><time>2025-04-13T16:21:45Z</time></trkpt>
<trkpt lat="38.961843" lon="-120.122151"><ele>2681.4</ele><time>2025-04-13T16:22:02Z</time></trkpt>
<trkpt lat="38.961937" lon="-120.122267"><ele>2685.8</ele><time>2025-04-13T16:22:20Z</time></trkpt>
<trkpt lat="38.962118" lon="-120.122351"><ele>2694.0</ele><time>2025-04-13T16:22:56Z</time></trkpt>
<trkpt lat="38.962203" lon="-120.122428"><ele>2697.0</ele><time>2025-04-13T16:23:13Z</time></trkpt>
<trkpt lat="38.962298" lon="-120.122635"><ele>2701.2</ele><time>2025-04-13T16:23:50Z</time></trkpt>
<trkpt lat="38.962304" lon="-120.122750"><ele>2703.6</ele><time>2025-04-13T16:24:05Z</time></trkpt>
<trkpt lat="38.962349" lon="-120.122845"><ele>2706.8</ele><time>2025-04-13T16:24:20Z</time></trkpt>
<trkpt lat="38.962290" lon="-120.122937"><ele>2707.8</ele><time>2025-04-13T16:24:36Z</time></trkpt>
<trkpt lat="38.962283" lon="-120.123023"><ele>2709.0</ele><time>2025-04-13T16:24:52Z</time></trkpt>
<trkpt lat="38.962309" lon="-120.123070"><ele>2710.0</ele><time>2025-04-13T16:25:03Z</time></trkpt>
<trkpt lat="38.962153" lon="-120.123061"><ele>2713.0</ele><time>2025-04-13T16:25:28Z</time></trkpt>
<trkpt lat="38.962001" lon="-120.122986"><ele>2716.6</ele><time>2025-04-13T16:25:53Z</time></trkpt>
<trkpt lat="38.961942" lon="-120.123049"><ele>2721.0</ele><time>2025-04-13T16:26:25Z</time></trkpt>
<trkpt lat="38.961824" lon="-120.123089"><ele>2724.4</ele><time>2025-04-13T16:26:45Z</time></trkpt>
<trkpt lat="38.961858" lon="-120.123170"><ele>2727.8</ele><time>2025-04-13T16:27:01Z</time></trkpt>
<trkpt lat="38.961885" lon="-120.123787"><ele>2743.6</ele><time>2025-04-13T16:28:30Z</time></trkpt>
<trkpt lat="38.961874" lon="-120.123821"><ele>2745.6</ele><time>2025-04-13T16:28:48Z</time></trkpt>
<trkpt lat="38.961789" lon="-120.123756"><ele>2748.0</ele><time>2025-04-13T16:29:35Z</time></trkpt>
<trkpt lat="38.961738" lon="-120.123743"><ele>2752.0</ele><time>2025-04-13T16:30:12Z</time></trkpt>
<trkpt lat="38.961721" lon="-120.123968"><ele>2758.8</ele><time>2025-04-13T16:30:49Z</time></trkpt>
<trkpt lat="38.961640" lon="-120.123913"><ele>2760.0</ele><time>2025-04-13T16:31:12Z</time></trkpt>
<trkpt lat="38.961589" lon="-120.123900"><ele>2763.0</ele><time>2025-04-13T16:31:22Z</time></trkpt>
<trkpt lat="38.961548" lon="-120.123930"><ele>2766.4</ele><time>2025-04-13T16:31:34Z</time></trkpt>
<trkpt lat="38.961467" lon="-120.123874"><ele>2769.8</ele><time>2025-04-13T16:31:52Z</time></trkpt>
<trkpt lat="38.961306" lon="-120.123950"><ele>2776.6</ele><time>2025-04-13T16:32:22Z</time></trkpt>
<trkpt lat="38.961178" lon="-120.124091"><ele>2779.8</ele><time>2025-04-13T16:32:57Z</time></trkpt>
<trkpt lat="38.961065" lon="-120.124150"><ele>2781.4</ele><time>2025-04-13T16:33:34Z</time></trkpt>
<trkpt lat="38.961055" lon="-120.124138"><ele>2784.4</ele><time>2025-04-13T16:35:21Z</time></trkpt>
<trkpt lat="38.961046" lon="-120.124196"><ele>2784.2</ele><time>2025-04-13T16:35:57Z</time></trkpt>
<trkpt lat="38.961045" lon="-120.124176"><ele>2786.8</ele><time>2025-04-13T16:36:47Z</time></trkpt>
<trkpt lat="38.961033" lon="-120.124153"><ele>2782.0</ele><time>2025-04-13T16:40:56Z</time></trkpt>
<trkpt lat="38.961118" lon="-120.124095"><ele>2781.8</ele><time>2025-04-13T16:41:35Z</time></trkpt>
<trkpt lat="38.961214" lon="-120.124095"><ele>2780.6</ele><time>2025-04-13T16:42:02Z</time></trkpt>
<trkpt lat="38.961224" lon="-120.124052"><ele>2780.0</ele><time>2025-04-13T16:42:12Z</time></trkpt>
<trkpt lat="38.961258" lon="-120.124155"><ele>2776.4</ele><time>2025-04-13T16:42:41Z</time></trkpt>
<trkpt lat="38.961223" lon="-120.124278"><ele>2776.0</ele><time>2025-04-13T16:42:54Z</time></trkpt>
<trkpt lat="38.961024" lon="-120.124566"><ele>2772.8</ele><time>2025-04-13T16:43:38Z</time></trkpt>
<trkpt lat="38.960983" lon="-120.124679"><ele>2771.0</ele><time>2025-04-13T16:45:50Z</time></trkpt>
<trkpt lat="38.960928" lon="-120.124646"><ele>2772.6</ele><time>2025-04-13T16:46:18Z</time></trkpt>
<trkpt lat="38.960894" lon="-120.124691"><ele>2772.0</ele><time>2025-04-13T16:46:22Z</time></trkpt>
<trkpt lat="38.960798" lon="-120.124696"><ele>2773.0</ele><time>2025-04-13T16:46:35Z</time></trkpt>
<trkpt lat="38.960783" lon="-120.124685"><ele>2780.0</ele><time>2025-04-13T16:47:03Z</time></trkpt>
<trkpt lat="38.960708" lon="-120.124654"><ele>2782.4</ele><time>2025-04-13T16:47:19Z</time></trkpt>
<trkpt lat="38.960712" lon="-120.124610"><ele>2785.2</ele><time>2025-04-13T16:47:37Z</time></trkpt>
<trkpt lat="38.960741" lon="-120.124599"><ele>2786.4</ele><time>2025-04-13T16:47:51Z</time></trkpt>
<trkpt lat="38.960692" lon="-120.124562"><ele>2788.6</ele><time>2025-04-13T16:48:15Z</time></trkpt>
<trkpt lat="38.960719" lon="-120.124537"><ele>2788.4</ele><time>2025-04-13T16:48:32Z</time></trkpt>
<trkpt lat="38.960691" lon="-120.124487"><ele>2789.8</ele><time>2025-04-13T16:48:53Z</time></trkpt>
<trkpt lat="38.960642" lon="-120.124436"><ele>2789.6</ele><time>2025-04-13T16:49:10Z</time></trkpt>
<trkpt lat="38.960547" lon="-120.124411"><ele>2788.8</ele><time>2025-04-13T16:49:23Z</time></trkpt>
<trkpt lat="38.960506" lon="-120.124339"><ele>2791.4</ele><time>2025-04-13T16:49:39Z</time></trkpt>
<trkpt lat="38.960437" lon="-120.124287"><ele>2790.6</ele><time>2025-04-13T16:49:49Z</time></trkpt>
<trkpt lat="38.960420" lon="-120.124273"><ele>2788.8</ele><time>2025-04-13T16:50:02Z</time></trkpt>
<trkpt lat="38.960455" lon="-120.124306"><ele>2787.6</ele><time>2025-04-13T16:50:24Z</time></trkpt>
<trkpt lat="38.960418" lon="-120.124266"><ele>2787.6</ele><time>2025-04-13T16:51:35Z</time></trkpt>
<trkpt lat="38.960463" lon="-120.124321"><ele>2787.8</ele><time>2025-04-13T16:51:54Z</time></trkpt>
<trkpt lat="38.960442" lon="-120.124353"><ele>2787.0</ele><time>2025-04-13T16:52:07Z</time></trkpt>
<trkpt lat="38.960322" lon="-120.124383"><ele>2778.2</ele><time>2025-04-13T16:53:41Z</time></trkpt>
<trkpt lat="38.960293" lon="-120.124437"><ele>2777.2</ele><time>2025-04-13T16:53:56Z</time></trkpt>
<trkpt lat="38.960297" lon="-120.124401"><ele>2777.8</ele><time>2025-04-13T16:54:12Z</time></trkpt>
<trkpt lat="38.960250" lon="-120.124352"><ele>2777.6</ele><time>2025-04-13T16:54:33Z</time></trkpt>
<trkpt lat="38.960159" lon="-120.124386"><ele>2775.4</ele><time>2025-04-13T16:55:06Z</time></trkpt>
<trkpt lat="38.960172" lon="-120.124287"><ele>2777.6</ele><time>2025-04-13T16:55:42Z</time></trkpt>
<trkpt lat="38.960088" lon="-120.124264"><ele>2775.0</ele><time>2025-04-13T16:56:03Z</time></trkpt>
<trkpt lat="38.960043" lon="-120.124188"><ele>2775.2</ele><time>2025-04-13T16:56:38Z</time></trkpt>
<trkpt lat="38.959978" lon="-120.124164"><ele>2772.6</ele><time>2025-04-13T16:56:50Z</time></trkpt>
<trkpt lat="38.959822" lon="-120.123991"><ele>2774.2</ele><time>2025-04-13T16:57:38Z</time></trkpt>
<trkpt lat="38.959778" lon="-120.124028"><ele>2770.4</ele><time>2025-04-13T16:57:59Z</time></trkpt>
<trkpt lat="38.959691" lon="-120.124020"><ele>2764.6</ele><time>2025-04-13T16:58:46Z</time></trkpt>
<trkpt lat="38.959679" lon="-120.124052"><ele>2764.0</ele><time>2025-04-13T16:58:52Z</time></trkpt>
<trkpt lat="38.959663" lon="-120.124019"><ele>2763.8</ele><time>2025-04-13T16:59:08Z</time></trkpt>
<trkpt lat="38.959612" lon="-120.124075"><ele>2760.2</ele><time>2025-04-13T17:00:18Z</time></trkpt>
<trkpt lat="38.959547" lon="-120.124029"><ele>2762.8</ele><time>2025-04-13T17:00:57Z</time></trkpt>
<trkpt lat="38.959572" lon="-120.124029"><ele>2762.8</ele><time>2025-04-13T17:01:01Z</time></trkpt>
<trkpt lat="38.959562" lon="-120.123948"><ele>2766.2</ele><time>2025-04-13T17:01:43Z</time></trkpt>
<trkpt lat="38.959480" lon="-120.123829"><ele>2769.4</ele><time>2025-04-13T17:02:21Z</time></trkpt>
<trkpt lat="38.959421" lon="-120.123837"><ele>2767.2</ele><time>2025-04-13T17:02:41Z</time></trkpt>
<trkpt lat="38.959375" lon="-120.123759"><ele>2769.4</ele><time>2025-04-13T17:03:10Z</time></trkpt>
<trkpt lat="38.959256" lon="-120.123714"><ele>2767.2</ele><time>2025-04-13T17:04:03Z</time></trkpt>
<trkpt lat="38.959224" lon="-120.123738"><ele>2766.8</ele><time>2025-04-13T17:04:14Z</time></trkpt>
<trkpt lat="38.959151" lon="-120.123683"><ele>2767.2</ele><time>2025-04-13T17:05:28Z</time></trkpt>
<trkpt lat="38.959087" lon="-120.123513"><ele>2771.6</ele><time>2025-04-13T17:06:49Z</time></trkpt>
<trkpt lat="38.959116" lon="-120.123512"><ele>2772.0</ele><time>2025-04-13T17:07:04Z</time></trkpt>
<trkpt lat="38.959138" lon="-120.123433"><ele>2774.6</ele><time>2025-04-13T17:07:22Z</time></trkpt>
<trkpt lat="38.959005" lon="-120.123321"><ele>2771.4</ele><time>2025-04-13T17:07:52Z</time></trkpt>
<trkpt lat="38.958934" lon="-120.123174"><ele>2774.4</ele><time>2025-04-13T17:08:14Z</time></trkpt>
<trkpt lat="38.958959" lon="-120.123117"><ele>2775.0</ele><time>2025-04-13T17:08:25Z</time></trkpt>
<trkpt lat="38.958871" lon="-120.123096"><ele>2770.4</ele><time>2025-04-13T17:08:45Z</time></trkpt>
<trkpt lat="38.958715" lon="-120.123042"><ele>2770.8</ele><time>2025-04-13T17:09:07Z</time></trkpt>
<trkpt lat="38.958674" lon="-120.123011"><ele>2770.6</ele><time>2025-04-13T17:09:12Z</time></trkpt>
<trkpt lat="38.958635" lon="-120.122897"><ele>2769.6</ele><time>2025-04-13T17:09:36Z</time></trkpt>
<trkpt lat="38.958616" lon="-120.122891"><ele>2773.6</ele><time>2025-04-13T17:10:09Z</time></trkpt>
<trkpt lat="38.958567" lon="-120.122860"><ele>2775.4</ele><time>2025-04-13T17:11:13Z</time></trkpt>
<trkpt lat="38.958587" lon="-120.122860"><ele>2780.6</ele><time>2025-04-13T17:11:45Z</time></trkpt>
<trkpt lat="38.958578" lon="-120.122914"><ele>2779.8</ele><time>2025-04-13T17:12:03Z</time></trkpt>
<trkpt lat="38.958577" lon="-120.122912"><ele>2784.6</ele><time>2025-04-13T17:14:30Z</time></trkpt>
<trkpt lat="38.958577" lon="-120.122912"><ele>2781.2</ele><time>2025-04-13T17:14:40Z</time></trkpt>
<trkpt lat="38.958632" lon="-120.122914"><ele>2781.6</ele><time>2025-04-13T17:14:55Z</time></trkpt>
<trkpt lat="38.958583" lon="-120.122910"><ele>2780.4</ele><time>2025-04-13T17:15:03Z</time></trkpt>
<trkpt lat="38.958592" lon="-120.122908"><ele>2783.0</ele><time>2025-04-13T17:15:26Z</time></trkpt>
<trkpt lat="38.958586" lon="-120.122921"><ele>2779.6</ele><time>2025-04-13T17:15:49Z</time></trkpt>
<trkpt lat="38.958579" lon="-120.122912"><ele>2782.4</ele><time>2025-04-13T17:15:57Z</time></trkpt>
<trkpt lat="38.958583" lon="-120.122910"><ele>2778.6</ele><time>2025-04-13T17:16:18Z</time></trkpt>
<trkpt lat="38.958583" lon="-120.122910"><ele>2783.6</ele><time>2025-04-13T17:16:55Z</time></trkpt>
<trkpt lat="38.958602" lon="-120.122916"><ele>2782.4</ele><time>2025-04-13T17:17:00Z</time></trkpt>
<trkpt lat="38.958582" lon="-120.122912"><ele>2778.0</ele><time>2025-04-13T17:17:43Z</time></trkpt>
<trkpt lat="38.958577" lon="-120.122923"><ele>2781.8</ele><time>2025-04-13T17:18:14Z</time></trkpt>
<trkpt lat="38.958587" lon="-120.122909"><ele>2778.4</ele><time>2025-04-13T17:20:19Z</time></trkpt>
<trkpt lat="38.958589" lon="-120.122906"><ele>2781.8</ele><time>2025-04-13T17:22:11Z</time></trkpt>
<trkpt lat="38.958582" lon="-120.122912"><ele>2778.4</ele><time>2025-04-13T17:24:20Z</time></trkpt>
<trkpt lat="38.958581" lon="-120.122928"><ele>2781.0</ele><time>2025-04-13T17:25:32Z</time></trkpt>
<trkpt lat="38.958565" lon="-120.122869"><ele>2783.0</ele><time>2025-04-13T17:26:13Z</time></trkpt>
<trkpt lat="38.958580" lon="-120.122938"><ele>2779.8</ele><time>2025-04-13T17:26:36Z</time></trkpt>
<trkpt lat="38.958583" lon="-120.122899"><ele>2782.8</ele><time>2025-04-13T17:27:01Z</time></trkpt>
<trkpt lat="38.958575" lon="-120.122902"><ele>2780.0</ele><time>2025-04-13T17:27:36Z</time></trkpt>
<trkpt lat="38.958580" lon="-120.122872"><ele>2779.8</ele><time>2025-04-13T17:27:42Z</time></trkpt>
<trkpt lat="38.958575" lon="-120.122881"><ele>2782.8</ele><time>2025-04-13T17:27:59Z</time></trkpt>
<trkpt lat="38.958584" lon="-120.122935"><ele>2781.2</ele><time>2025-04-13T17:28:36Z</time></trkpt>
<trkpt lat="38.958584" lon="-120.122935"><ele>2774.4</ele><time>2025-04-13T17:30:19Z</time></trkpt>
<trkpt lat="38.958707" lon="-120.123048"><ele>2770.8</ele><time>2025-04-13T17:31:41Z</time></trkpt>
<trkpt lat="38.958737" lon="-120.123042"><ele>2770.8</ele><time>2025-04-13T17:31:47Z</time></trkpt>
<trkpt lat="38.958725" lon="-120.122929"><ele>2770.0</ele><time>2025-04-13T17:31:52Z</time></trkpt>
<trkpt lat="38.958923" lon="-120.122908"><ele>2762.6</ele><time>2025-04-13T17:32:09Z</time></trkpt>
<trkpt lat="38.958910" lon="-120.122922"><ele>2771.6</ele><time>2025-04-13T17:33:03Z</time></trkpt>
<trkpt lat="38.958911" lon="-120.122928"><ele>2768.8</ele><time>2025-04-13T17:33:37Z</time></trkpt>
<trkpt lat="38.958957" lon="-120.122879"><ele>2768.6</ele><time>2025-04-13T17:33:39Z</time></trkpt>
<trkpt lat="38.959005" lon="-120.122749"><ele>2764.6</ele><time>2025-04-13T17:33:42Z</time></trkpt>
<trkpt lat="38.958961" lon="-120.122703"><ele>2761.4</ele><time>2025-04-13T17:33:43Z</time></trkpt>
<trkpt lat="38.958956" lon="-120.122594"><ele>2755.4</ele><time>2025-04-13T17:33:45Z</time></trkpt>
<trkpt lat="38.958902" lon="-120.122504"><ele>2750.2</ele><time>2025-04-13T17:33:47Z</time></trkpt>
<trkpt lat="38.958917" lon="-120.122377"><ele>2739.0</ele><time>2025-04-13T17:33:50Z</time></trkpt>
<trkpt lat="38.959013" lon="-120.122305"><ele>2733.4</ele><time>2025-04-13T17:33:52Z</time></trkpt>
<trkpt lat="38.959029" lon="-120.122258"><ele>2729.4</ele><time>2025-04-13T17:33:53Z</time></trkpt>
<trkpt lat="38.958962" lon="-120.122233"><ele>2726.8</ele><time>2025-04-13T17:33:55Z</time></trkpt>
<trkpt lat="38.958984" lon="-120.122167"><ele>2721.8</ele><time>2025-04-13T17:33:57Z</time></trkpt>
<trkpt lat="38.958953" lon="-120.122115"><ele>2717.4</ele><time>2025-04-13T17:33:59Z</time></trkpt>
<trkpt lat="38.958962" lon="-120.122060"><ele>2716.4</ele><time>2025-04-13T17:34:00Z</time></trkpt>
<trkpt lat="38.958888" lon="-120.121964"><ele>2707.6</ele><time>2025-04-13T17:34:03Z</time></trkpt>
<trkpt lat="38.958884" lon="-120.121752"><ele>2696.4</ele><time>2025-04-13T17:34:07Z</time></trkpt>
<trkpt lat="38.958890" lon="-120.121656"><ele>2685.6</ele><time>2025-04-13T17:34:10Z</time></trkpt>
<trkpt lat="38.958838" lon="-120.121513"><ele>2673.6</ele><time>2025-04-13T17:34:15Z</time></trkpt>
<trkpt lat="38.958874" lon="-120.121410"><ele>2665.8</ele><time>2025-04-13T17:34:18Z</time></trkpt>
<trkpt lat="38.958727" lon="-120.121328"><ele>2662.0</ele><time>2025-04-13T17:34:21Z</time></trkpt>
<trkpt lat="38.958655" lon="-120.121246"><ele>2659.4</ele><time>2025-04-13T17:34:23Z</time></trkpt>
<trkpt lat="38.958679" lon="-120.121130"><ele>2649.2</ele><time>2025-04-13T17:34:26Z</time></trkpt>
<trkpt lat="38.958625" lon="-120.121068"><ele>2642.4</ele><time>2025-04-13T17:34:29Z</time></trkpt>
<trkpt lat="38.958627" lon="-120.121093"><ele>2638.6</ele><time>2025-04-13T17:34:37Z</time></trkpt>
<trkpt lat="38.958611" lon="-120.121059"><ele>2638.4</ele><time>2025-04-13T17:34:47Z</time></trkpt>
<trkpt lat="38.958661" lon="-120.120985"><ele>2636.4</ele><time>2025-04-13T17:34:50Z</time></trkpt>
<trkpt lat="38.958634" lon="-120.120929"><ele>2632.0</ele><time>2025-04-13T17:34:52Z</time></trkpt>
<trkpt lat="38.958658" lon="-120.120849"><ele>2626.4</ele><time>2025-04-13T17:34:54Z</time></trkpt>
<trkpt lat="38.958633" lon="-120.120801"><ele>2624.0</ele><time>2025-04-13T17:34:55Z</time></trkpt>
<trkpt lat="38.958417" lon="-120.120690"><ele>2613.6</ele><time>2025-04-13T17:35:00Z</time></trkpt>
<trkpt lat="38.958441" lon="-120.120650"><ele>2611.0</ele><time>2025-04-13T17:35:01Z</time></trkpt>
<trkpt lat="38.958406" lon="-120.120556"><ele>2602.4</ele><time>2025-04-13T17:35:03Z</time></trkpt>
<trkpt lat="38.958468" lon="-120.120454"><ele>2597.0</ele><time>2025-04-13T17:35:05Z</time></trkpt>
<trkpt lat="38.958387" lon="-120.120158"><ele>2572.2</ele><time>2025-04-13T17:35:13Z</time></trkpt>
<trkpt lat="38.958369" lon="-120.120072"><ele>2568.8</ele><time>2025-04-13T17:35:15Z</time></trkpt>
<trkpt lat="38.958178" lon="-120.120032"><ele>2559.8</ele><time>2025-04-13T17:35:19Z</time></trkpt>
<trkpt lat="38.958099" lon="-120.119950"><ele>2557.6</ele><time>2025-04-13T17:35:21Z</time></trkpt>
<trkpt lat="38.958078" lon="-120.119703"><ele>2550.4</ele><time>2025-04-13T17:35:26Z</time></trkpt>
<trkpt lat="38.958073" lon="-120.119637"><ele>2539.2</ele><time>2025-04-13T17:35:29Z</time></trkpt>
<trkpt lat="38.958073" lon="-120.119637"><ele>2535.8</ele><time>2025-04-13T17:35:32Z</time></trkpt>
<trkpt lat="38.958070" lon="-120.119675"><ele>2535.4</ele><time>2025-04-13T17:35:36Z</time></trkpt>
<trkpt lat="38.958083" lon="-120.119635"><ele>2534.8</ele><time>2025-04-13T17:35:51Z</time></trkpt>
<trkpt lat="38.958068" lon="-120.119641"><ele>2538.0</ele><time>2025-04-13T17:35:55Z</time></trkpt>
<trkpt lat="38.958094" lon="-120.119614"><ele>2540.4</ele><time>2025-04-13T17:36:10Z</time></trkpt>
<trkpt lat="38.958046" lon="-120.119522"><ele>2539.0</ele><time>2025-04-13T17:36:16Z</time></trkpt>
<trkpt lat="38.958080" lon="-120.119437"><ele>2537.0</ele><time>2025-04-13T17:36:18Z</time></trkpt>
<trkpt lat="38.958066" lon="-120.119226"><ele>2520.6</ele><time>2025-04-13T17:36:23Z</time></trkpt>
<trkpt lat="38.958109" lon="-120.119156"><ele>2515.4</ele><time>2025-04-13T17:36:25Z</time></trkpt>
<trkpt lat="38.958094" lon="-120.119138"><ele>2509.6</ele><time>2025-04-13T17:36:27Z</time></trkpt>
<trkpt lat="38.958107" lon="-120.118974"><ele>2500.0</ele><time>2025-04-13T17:36:33Z</time></trkpt>
<trkpt lat="38.957983" lon="-120.118785"><ele>2487.8</ele><time>2025-04-13T17:36:41Z</time></trkpt>
<trkpt lat="38.957925" lon="-120.118518"><ele>2473.2</ele><time>2025-04-13T17:36:47Z</time></trkpt>
<trkpt lat="38.957946" lon="-120.118398"><ele>2465.0</ele><time>2025-04-13T17:36:50Z</time></trkpt>
<trkpt lat="38.957911" lon="-120.118340"><ele>2460.8</ele><time>2025-04-13T17:36:53Z</time></trkpt>
<trkpt lat="38.957916" lon="-120.118290"><ele>2457.0</ele><time>2025-04-13T17:36:56Z</time></trkpt>
<trkpt lat="38.957876" lon="-120.118264"><ele>2455.8</ele><time>2025-04-13T17:36:58Z</time></trkpt>
<trkpt lat="38.957867" lon="-120.118233"><ele>2450.2</ele><time>2025-04-13T17:37:04Z</time></trkpt>
<trkpt lat="38.957812" lon="-120.118153"><ele>2449.6</ele><time>2025-04-13T17:37:07Z</time></trkpt>
<trkpt lat="38.957800" lon="-120.118065"><ele>2447.4</ele><time>2025-04-13T17:37:09Z</time></trkpt>
<trkpt lat="38.957761" lon="-120.118042"><ele>2443.0</ele><time>2025-04-13T17:37:10Z</time></trkpt>
<trkpt lat="38.957704" lon="-120.117988"><ele>2442.0</ele><time>2025-04-13T17:37:12Z</time></trkpt>
<trkpt lat="38.957725" lon="-120.117878"><ele>2436.2</ele><time>2025-04-13T17:37:14Z</time></trkpt>
<trkpt lat="38.957702" lon="-120.117859"><ele>2432.8</ele><time>2025-04-13T17:37:15Z</time></trkpt>
<trkpt lat="38.957706" lon="-120.117689"><ele>2426.0</ele><time>2025-04-13T17:37:18Z</time></trkpt>
<trkpt lat="38.957635" lon="-120.117683"><ele>2415.8</ele><time>2025-04-13T17:37:25Z</time></trkpt>
<trkpt lat="38.957605" lon="-120.117610"><ele>2415.6</ele><time>2025-04-13T17:37:28Z</time></trkpt>
<trkpt lat="38.957488" lon="-120.117488"><ele>2412.2</ele><time>2025-04-13T17:37:31Z</time></trkpt>
<trkpt lat="38.957496" lon="-120.117377"><ele>2407.6</ele><time>2025-04-13T17:37:33Z</time></trkpt>
<trkpt lat="38.957405" lon="-120.117290"><ele>2400.6</ele><time>2025-04-13T17:37:35Z</time></trkpt>
<trkpt lat="38.957408" lon="-120.117233"><ele>2395.4</ele><time>2025-04-13T17:37:36Z</time></trkpt>
<trkpt lat="38.957396" lon="-120.117161"><ele>2394.0</ele><time>2025-04-13T17:37:37Z</time></trkpt>
<trkpt lat="38.957321" lon="-120.117076"><ele>2387.0</ele><time>2025-04-13T17:37:39Z</time></trkpt>
<trkpt lat="38.957293" lon="-120.116950"><ele>2381.6</ele><time>2025-04-13T17:37:41Z</time></trkpt>
<trkpt lat="38.957193" lon="-120.116864"><ele>2376.2</ele><time>2025-04-13T17:37:43Z</time></trkpt>
<trkpt lat="38.957187" lon="-120.116812"><ele>2373.2</ele><time>2025-04-13T17:37:44Z</time></trkpt>
<trkpt lat="38.957234" lon="-120.116708"><ele>2368.0</ele><time>2025-04-13T17:37:46Z</time></trkpt>
<trkpt lat="38.957150" lon="-120.116624"><ele>2364.2</ele><time>2025-04-13T17:37:48Z</time></trkpt>
<trkpt lat="38.957128" lon="-120.116577"><ele>2358.8</ele><time>2025-04-13T17:37:50Z</time></trkpt>
<trkpt lat="38.957153" lon="-120.116549"><ele>2354.4</ele><time>2025-04-13T17:37:52Z</time></trkpt>
<trkpt lat="38.957207" lon="-120.116463"><ele>2353.6</ele><time>2025-04-13T17:37:54Z</time></trkpt>
<trkpt lat="38.957173" lon="-120.116350"><ele>2349.2</ele><time>2025-04-13T17:37:57Z</time></trkpt>
<trkpt lat="38.957054" lon="-120.116243"><ele>2342.6</ele><time>2025-04-13T17:38:00Z</time></trkpt>
<trkpt lat="38.957055" lon="-120.116196"><ele>2342.0</ele><time>2025-04-13T17:38:01Z</time></trkpt>
<trkpt lat="38.957099" lon="-120.116134"><ele>2336.4</ele><time>2025-04-13T17:38:03Z</time></trkpt>
<trkpt lat="38.957057" lon="-120.116085"><ele>2330.6</ele><time>2025-04-13T17:38:06Z</time></trkpt>
<trkpt lat="38.957035" lon="-120.116007"><ele>2329.0</ele><time>2025-04-13T17:38:08Z</time></trkpt>
<trkpt lat="38.957068" lon="-120.115984"><ele>2327.6</ele><time>2025-04-13T17:38:10Z</time></trkpt>
<trkpt lat="38.957080" lon="-120.115926"><ele>2321.2</ele><time>2025-04-13T17:38:12Z</time></trkpt>
<trkpt lat="38.957066" lon="-120.115691"><ele>2318.4</ele><time>2025-04-13T17:38:15Z</time></trkpt>
<trkpt lat="38.957012" lon="-120.115537"><ele>2308.8</ele><time>2025-04-13T17:38:17Z</time></trkpt>
<trkpt lat="38.957029" lon="-120.115437"><ele>2302.6</ele><time>2025-04-13T17:38:19Z</time></trkpt>
<trkpt lat="38.957002" lon="-120.115394"><ele>2297.0</ele><time>2025-04-13T17:38:20Z</time></trkpt>
<trkpt lat="38.956953" lon="-120.115329"><ele>2294.6</ele><time>2025-04-13T17:38:22Z</time></trkpt>
<trkpt lat="38.956975" lon="-120.115317"><ele>2289.6</ele><time>2025-04-13T17:38:34Z</time></trkpt>
<trkpt lat="38.956989" lon="-120.115340"><ele>2289.4</ele><time>2025-04-13T17:38:42Z</time></trkpt>
<trkpt lat="38.956956" lon="-120.115318"><ele>2289.8</ele><time>2025-04-13T17:38:57Z</time></trkpt>
<trkpt lat="38.956990" lon="-120.115328"><ele>2292.4</ele><time>2025-04-13T17:39:07Z</time></trkpt>
<trkpt lat="38.956966" lon="-120.115317"><ele>2288.4</ele><time>2025-04-13T17:39:36Z</time></trkpt>
<trkpt lat="38.957007" lon="-120.115203"><ele>2287.4</ele><time>2025-04-13T17:39:44Z</time></trkpt>
<trkpt lat="38.957098" lon="-120.115090"><ele>2287.2</ele><time>2025-04-13T17:39:48Z</time></trkpt>
<trkpt lat="38.957115" lon="-120.115110"><ele>2276.8</ele><time>2025-04-13T17:40:33Z</time></trkpt>
<trkpt lat="38.957096" lon="-120.115107"><ele>2276.6</ele><time>2025-04-13T17:40:46Z</time></trkpt>
<trkpt lat="38.957170" lon="-120.115125"><ele>2278.8</ele><time>2025-04-13T17:41:02Z</time></trkpt>
<trkpt lat="38.957211" lon="-120.115076"><ele>2279.2</ele><time>2025-04-13T17:41:18Z</time></trkpt>
<trkpt lat="38.957237" lon="-120.115090"><ele>2279.6</ele><time>2025-04-13T17:42:00Z</time></trkpt>
<trkpt lat="38.957216" lon="-120.115069"><ele>2286.0</ele><time>2025-04-13T17:42:15Z</time></trkpt>
<trkpt lat="38.957216" lon="-120.115069"><ele>2282.0</ele><time>2025-04-13T17:42:26Z</time></trkpt>
<trkpt lat="38.957220" lon="-120.115074"><ele>2286.0</ele><time>2025-04-13T17:42:40Z</time></trkpt>
<trkpt lat="38.957227" lon="-120.115111"><ele>2283.4</ele><time>2025-04-13T17:43:09Z</time></trkpt>
<trkpt lat="38.957228" lon="-120.115080"><ele>2285.4</ele><time>2025-04-13T17:43:48Z</time></trkpt>
<trkpt lat="38.957228" lon="-120.115103"><ele>2283.6</ele><time>2025-04-13T17:44:14Z</time></trkpt>
<trkpt lat="38.957222" lon="-120.115104"><ele>2288.6</ele><time>2025-04-13T17:45:10Z</time></trkpt>
<trkpt lat="38.957217" lon="-120.115093"><ele>2286.0</ele><time>2025-04-13T17:45:55Z</time></trkpt>
<trkpt lat="38.957244" lon="-120.115094"><ele>2288.6</ele><time>2025-04-13T17:46:44Z</time></trkpt>
<trkpt lat="38.957380" lon="-120.115037"><ele>2289.0</ele><time>2025-04-13T17:47:12Z</time></trkpt>
<trkpt lat="38.957449" lon="-120.115107"><ele>2291.0</ele><time>2025-04-13T17:47:38Z</time></trkpt>
<trkpt lat="38.957501" lon="-120.115116"><ele>2293.2</ele><time>2025-04-13T17:47:50Z</time></trkpt>
<trkpt lat="38.957672" lon="-120.115027"><ele>2294.6</ele><time>2025-04-13T17:48:23Z</time></trkpt>
<trkpt lat="38.957726" lon="-120.115031"><ele>2292.8</ele><time>2025-04-13T17:48:57Z</time></trkpt>
<trkpt lat="38.957838" lon="-120.115044"><ele>2298.2</ele><time>2025-04-13T17:49:29Z</time></trkpt>
<trkpt lat="38.957912" lon="-120.115049"><ele>2296.2</ele><time>2025-04-13T17:49:54Z</time></trkpt>
<trkpt lat="38.957947" lon="-120.115077"><ele>2299.2</ele><time>2025-04-13T17:50:14Z</time></trkpt>
<trkpt lat="38.957965" lon="-120.115121"><ele>2299.2</ele><time>2025-04-13T17:50:27Z</time></trkpt>
<trkpt lat="38.958015" lon="-120.115148"><ele>2295.6</ele><time>2025-04-13T17:50:56Z</time></trkpt>
<trkpt lat="38.958064" lon="-120.115107"><ele>2298.6</ele><time>2025-04-13T17:51:05Z</time></trkpt>
<trkpt lat="38.958102" lon="-120.115108"><ele>2297.6</ele><time>2025-04-13T17:51:16Z</time></trkpt>
<trkpt lat="38.958093" lon="-120.115211"><ele>2299.2</ele><time>2025-04-13T17:51:51Z</time></trkpt>
<trkpt lat="38.958262" lon="-120.115179"><ele>2304.8</ele><time>2025-04-13T17:52:27Z</time></trkpt>
<trkpt lat="38.958278" lon="-120.115205"><ele>2305.2</ele><time>2025-04-13T17:52:48Z</time></trkpt>
<trkpt lat="38.958434" lon="-120.115152"><ele>2305.2</ele><time>2025-04-13T17:53:24Z</time></trkpt>
<trkpt lat="38.958506" lon="-120.115154"><ele>2307.4</ele><time>2025-04-13T17:53:41Z</time></trkpt>
<trkpt lat="38.958559" lon="-120.115240"><ele>2311.2</ele><time>2025-04-13T17:54:07Z</time></trkpt>
<trkpt lat="38.958686" lon="-120.115223"><ele>2318.2</ele><time>2025-04-13T17:54:53Z</time></trkpt>
<trkpt lat="38.958742" lon="-120.115255"><ele>2322.6</ele><time>2025-04-13T17:55:26Z</time></trkpt>
<trkpt lat="38.958786" lon="-120.115312"><ele>2322.2</ele><time>2025-04-13T17:55:46Z</time></trkpt>
<trkpt lat="38.958767" lon="-120.115341"><ele>2323.0</ele><time>2025-04-13T17:55:59Z</time></trkpt>
<trkpt lat="38.958788" lon="-120.115440"><ele>2325.4</ele><time>2025-04-13T17:56:34Z</time></trkpt>
<trkpt lat="38.958847" lon="-120.115522"><ele>2329.8</ele><time>2025-04-13T17:57:45Z</time></trkpt>
<trkpt lat="38.958836" lon="-120.115597"><ele>2331.8</ele><time>2025-04-13T17:58:04Z</time></trkpt>
<trkpt lat="38.958887" lon="-120.115625"><ele>2334.6</ele><time>2025-04-13T17:58:27Z</time></trkpt>
<trkpt lat="38.958873" lon="-120.115745"><ele>2338.2</ele><time>2025-04-13T17:59:05Z</time></trkpt>
<trkpt lat="38.958927" lon="-120.115872"><ele>2344.8</ele><time>2025-04-13T18:00:02Z</time></trkpt>
<trkpt lat="38.958979" lon="-120.115885"><ele>2346.8</ele><time>2025-04-13T18:00:17Z</time></trkpt>
<trkpt lat="38.959000" lon="-120.115961"><ele>2350.0</ele><time>2025-04-13T18:00:51Z</time></trkpt>
<trkpt lat="38.959048" lon="-120.116006"><ele>2355.6</ele><time>2025-04-13T18:01:30Z</time></trkpt>
<trkpt lat="38.959223" lon="-120.116010"><ele>2360.6</ele><time>2025-04-13T18:02:15Z</time></trkpt>
<trkpt lat="38.959427" lon="-120.115933"><ele>2360.4</ele><time>2025-04-13T18:03:07Z</time></trkpt>
<trkpt lat="38.959533" lon="-120.115986"><ele>2362.0</ele><time>2025-04-13T18:04:04Z</time></trkpt>
<trkpt lat="38.959707" lon="-120.115984"><ele>2362.4</ele><time>2025-04-13T18:04:33Z</time></trkpt>
<trkpt lat="38.959745" lon="-120.116018"><ele>2362.8</ele><time>2025-04-13T18:04:43Z</time></trkpt>
<trkpt lat="38.959839" lon="-120.115987"><ele>2362.8</ele><time>2025-04-13T18:05:05Z</time></trkpt>
<trkpt lat="38.959883" lon="-120.116050"><ele>2365.2</ele><time>2025-04-13T18:05:50Z</time></trkpt>
<trkpt lat="38.959898" lon="-120.116037"><ele>2371.0</ele><time>2025-04-13T18:06:25Z</time></trkpt>
<trkpt lat="38.959875" lon="-120.116033"><ele>2373.4</ele><time>2025-04-13T18:06:44Z</time></trkpt>
<trkpt lat="38.959902" lon="-120.116041"><ele>2373.0</ele><time>2025-04-13T18:06:53Z</time></trkpt>
<trkpt lat="38.959876" lon="-120.116016"><ele>2372.0</ele><time>2025-04-13T18:07:31Z</time></trkpt>
<trkpt lat="38.959877" lon="-120.116044"><ele>2379.4</ele><time>2025-04-13T18:09:58Z</time></trkpt>
<trkpt lat="38.959890" lon="-120.116101"><ele>2379.2</ele><time>2025-04-13T18:10:56Z</time></trkpt>
<trkpt lat="38.959951" lon="-120.116108"><ele>2381.2</ele><time>2025-04-13T18:11:07Z</time></trkpt>
<trkpt lat="38.959963" lon="-120.116151"><ele>2382.2</ele><time>2025-04-13T18:11:14Z</time></trkpt>
<trkpt lat="38.960018" lon="-120.116176"><ele>2385.4</ele><time>2025-04-13T18:11:25Z</time></trkpt>
<trkpt lat="38.960002" lon="-120.116277"><ele>2389.0</ele><time>2025-04-13T18:11:42Z</time></trkpt>
<trkpt lat="38.960091" lon="-120.116335"><ele>2391.8</ele><time>2025-04-13T18:12:02Z</time></trkpt>
<trkpt lat="38.960093" lon="-120.116465"><ele>2393.4</ele><time>2025-04-13T18:12:31Z</time></trkpt>
<trkpt lat="38.960233" lon="-120.116504"><ele>2397.8</ele><time>2025-04-13T18:12:58Z</time></trkpt>
<trkpt lat="38.960205" lon="-120.116671"><ele>2402.0</ele><time>2025-04-13T18:13:36Z</time></trkpt>
<trkpt lat="38.960347" lon="-120.116744"><ele>2406.6</ele><time>2025-04-13T18:14:02Z</time></trkpt>
<trkpt lat="38.960184" lon="-120.117162"><ele>2419.4</ele><time>2025-04-13T18:15:33Z</time></trkpt>
<trkpt lat="38.960346" lon="-120.117324"><ele>2428.0</ele><time>2025-04-13T18:16:37Z</time></trkpt>
<trkpt lat="38.960295" lon="-120.117547"><ele>2435.6</ele><time>2025-04-13T18:17:17Z</time></trkpt>
<trkpt lat="38.960298" lon="-120.117546"><ele>2442.6</ele><time>2025-04-13T18:17:21Z</time></trkpt>
<trkpt lat="38.960283" lon="-120.117599"><ele>2448.2</ele><time>2025-04-13T18:17:32Z</time></trkpt>
<trkpt lat="38.960213" lon="-120.117678"><ele>2449.4</ele><time>2025-04-13T18:17:50Z</time></trkpt>
<trkpt lat="38.960295" lon="-120.117776"><ele>2450.4</ele><time>2025-04-13T18:18:27Z</time></trkpt>
<trkpt lat="38.960382" lon="-120.117808"><ele>2452.2</ele><time>2025-04-13T18:18:59Z</time></trkpt>
<trkpt lat="38.960255" lon="-120.117986"><ele>2458.6</ele><time>2025-04-13T18:19:41Z</time></trkpt>
<trkpt lat="38.960284" lon="-120.118041"><ele>2459.4</ele><time>2025-04-13T18:19:53Z</time></trkpt>
<trkpt lat="38.960366" lon="-120.118083"><ele>2463.8</ele><time>2025-04-13T18:20:17Z</time></trkpt>
<trkpt lat="38.960276" lon="-120.118292"><ele>2469.4</ele><time>2025-04-13T18:21:13Z</time></trkpt>
<trkpt lat="38.960255" lon="-120.118432"><ele>2474.2</ele><time>2025-04-13T18:21:47Z</time></trkpt>
<trkpt lat="38.960506" lon="-120.118699"><ele>2483.0</ele><time>2025-04-13T18:23:00Z</time></trkpt>
<trkpt lat="38.960679" lon="-120.118734"><ele>2487.6</ele><time>2025-04-13T18:23:31Z</time></trkpt>
<trkpt lat="38.960588" lon="-120.118931"><ele>2491.4</ele><time>2025-04-13T18:24:19Z</time></trkpt>
<trkpt lat="38.960409" lon="-120.119176"><ele>2499.0</ele><time>2025-04-13T18:25:16Z</time></trkpt>
<trkpt lat="38.960589" lon="-120.119269"><ele>2504.4</ele><time>2025-04-13T18:26:02Z</time></trkpt>
<trkpt lat="38.960550" lon="-120.119355"><ele>2505.6</ele><time>2025-04-13T18:26:30Z</time></trkpt>
<trkpt lat="38.960425" lon="-120.119510"><ele>2513.0</ele><time>2025-04-13T18:27:09Z</time></trkpt>
<trkpt lat="38.960686" lon="-120.119620"><ele>2521.4</ele><time>2025-04-13T18:29:13Z</time></trkpt>
<trkpt lat="38.960538" lon="-120.119794"><ele>2526.4</ele><time>2025-04-13T18:30:47Z</time></trkpt>
<trkpt lat="38.960637" lon="-120.119810"><ele>2531.2</ele><time>2025-04-13T18:31:30Z</time></trkpt>
<trkpt lat="38.960562" lon="-120.119941"><ele>2537.2</ele><time>2025-04-13T18:32:25Z</time></trkpt>
<trkpt lat="38.960773" lon="-120.120047"><ele>2546.4</ele><time>2025-04-13T18:33:41Z</time></trkpt>
<trkpt lat="38.960688" lon="-120.120142"><ele>2551.0</ele><time>2025-04-13T18:34:23Z</time></trkpt>
<trkpt lat="38.960911" lon="-120.120146"><ele>2559.0</ele><time>2025-04-13T18:35:08Z</time></trkpt>
<trkpt lat="38.960877" lon="-120.120165"><ele>2560.4</ele><time>2025-04-13T18:35:22Z</time></trkpt>
<trkpt lat="38.960904" lon="-120.120140"><ele>2560.6</ele><time>2025-04-13T18:35:30Z</time></trkpt>
<trkpt lat="38.960871" lon="-120.120291"><ele>2565.8</ele><time>2025-04-13T18:36:25Z</time></trkpt>
<trkpt lat="38.961013" lon="-120.120256"><ele>2569.8</ele><time>2025-04-13T18:36:49Z</time></trkpt>
<trkpt lat="38.960979" lon="-120.120423"><ele>2573.8</ele><time>2025-04-13T18:37:55Z</time></trkpt>
<trkpt lat="38.961122" lon="-120.120390"><ele>2578.0</ele><time>2025-04-13T18:39:03Z</time></trkpt>
<trkpt lat="38.961088" lon="-120.120432"><ele>2579.8</ele><time>2025-04-13T18:39:35Z</time></trkpt>
<trkpt lat="38.961055" lon="-120.120578"><ele>2585.2</ele><time>2025-04-13T18:40:27Z</time></trkpt>
<trkpt lat="38.961206" lon="-120.120506"><ele>2590.2</ele><time>2025-04-13T18:42:19Z</time></trkpt>
<trkpt lat="38.961416" lon="-120.120308"><ele>2597.6</ele><time>2025-04-13T18:44:38Z</time></trkpt>
<trkpt lat="38.961369" lon="-120.120581"><ele>2602.6</ele><time>2025-04-13T18:46:44Z</time></trkpt>
<trkpt lat="38.961451" lon="-120.120562"><ele>2605.8</ele><time>2025-04-13T18:47:14Z</time></trkpt>
<trkpt lat="38.961473" lon="-120.120522"><ele>2607.4</ele><time>2025-04-13T18:47:36Z</time></trkpt>
<trkpt lat="38.961453" lon="-120.120921"><ele>2624.8</ele><time>2025-04-13T18:50:13Z</time></trkpt>
<trkpt lat="38.961505" lon="-120.120898"><ele>2627.4</ele><time>2025-04-13T18:50:40Z</time></trkpt>
<trkpt lat="38.961497" lon="-120.120957"><ele>2628.6</ele><time>2025-04-13T18:50:59Z</time></trkpt>
<trkpt lat="38.961537" lon="-120.120920"><ele>2630.8</ele><time>2025-04-13T18:51:24Z</time></trkpt>
<trkpt lat="38.961710" lon="-120.120907"><ele>2635.6</ele><time>2025-04-13T18:52:08Z</time></trkpt>
<trkpt lat="38.961665" lon="-120.120930"><ele>2636.2</ele><time>2025-04-13T18:52:30Z</time></trkpt>
<trkpt lat="38.961637" lon="-120.121019"><ele>2637.8</ele><time>2025-04-13T18:52:47Z</time></trkpt>
<trkpt lat="38.961666" lon="-120.121149"><ele>2643.4</ele><time>2025-04-13T18:53:20Z</time></trkpt>
<trkpt lat="38.961640" lon="-120.121670"><ele>2657.2</ele><time>2025-04-13T18:54:57Z</time></trkpt>
<trkpt lat="38.961668" lon="-120.121712"><ele>2659.0</ele><time>2025-04-13T18:55:10Z</time></trkpt>
<trkpt lat="38.961842" lon="-120.121747"><ele>2665.0</ele><time>2025-04-13T18:55:42Z</time></trkpt>
<trkpt lat="38.961843" lon="-120.121875"><ele>2668.2</ele><time>2025-04-13T18:56:05Z</time></trkpt>
<trkpt lat="38.961778" lon="-120.122019"><ele>2673.4</ele><time>2025-04-13T18:56:32Z</time></trkpt>
<trkpt lat="38.961811" lon="-120.122124"><ele>2676.0</ele><time>2025-04-13T18:56:53Z</time></trkpt>
<trkpt lat="38.961899" lon="-120.122279"><ele>2682.2</ele><time>2025-04-13T18:57:18Z</time></trkpt>
<trkpt lat="38.961916" lon="-120.122266"><ele>2683.6</ele><time>2025-04-13T18:57:32Z</time></trkpt>
<trkpt lat="38.962190" lon="-120.122437"><ele>2693.2</ele><time>2025-04-13T18:58:50Z</time></trkpt>
<trkpt lat="38.962417" lon="-120.122816"><ele>2704.6</ele><time>2025-04-13T19:01:37Z</time></trkpt>
<trkpt lat="38.962596" lon="-120.122913"><ele>2706.8</ele><time>2025-04-13T19:01:58Z</time></trkpt>
<trkpt lat="38.962795" lon="-120.123139"><ele>2705.4</ele><time>2025-04-13T19:02:20Z</time></trkpt>
<trkpt lat="38.963042" lon="-120.123112"><ele>2704.6</ele><time>2025-04-13T19:02:39Z</time></trkpt>
<trkpt lat="38.963130" lon="-120.123034"><ele>2706.6</ele><time>2025-04-13T19:02:52Z</time></trkpt>
<trkpt lat="38.963155" lon="-120.122958"><ele>2708.2</ele><time>2025-04-13T19:03:00Z</time></trkpt>
<trkpt lat="38.963308" lon="-120.122826"><ele>2711.8</ele><time>2025-04-13T19:03:58Z</time></trkpt>
<trkpt lat="38.963427" lon="-120.122584"><ele>2718.0</ele><time>2025-04-13T19:04:34Z</time></trkpt>
<trkpt lat="38.963575" lon="-120.122478"><ele>2721.4</ele><time>2025-04-13T19:04:53Z</time></trkpt>
<trkpt lat="38.963778" lon="-120.122378"><ele>2721.4</ele><time>2025-04-13T19:05:12Z</time></trkpt>
<trkpt lat="38.963877" lon="-120.122222"><ele>2723.8</ele><time>2025-04-13T19:05:57Z</time></trkpt>
<trkpt lat="38.964173" lon="-120.122138"><ele>2730.0</ele><time>2025-04-13T19:06:44Z</time></trkpt>
<trkpt lat="38.964305" lon="-120.122171"><ele>2729.8</ele><time>2025-04-13T19:07:06Z</time></trkpt>
<trkpt lat="38.964300" lon="-120.122194"><ele>2730.2</ele><time>2025-04-13T19:07:27Z</time></trkpt>
<trkpt lat="38.964325" lon="-120.122176"><ele>2729.8</ele><time>2025-04-13T19:07:55Z</time></trkpt>
<trkpt lat="38.964354" lon="-120.122225"><ele>2729.8</ele><time>2025-04-13T19:08:08Z</time></trkpt>
<trkpt lat="38.964418" lon="-120.122161"><ele>2733.2</ele><time>2025-04-13T19:08:44Z</time></trkpt>
<trkpt lat="38.964464" lon="-120.122165"><ele>2733.6</ele><time>2025-04-13T19:08:57Z</time></trkpt>
<trkpt lat="38.964509" lon="-120.122071"><ele>2738.0</ele><time>2025-04-13T19:09:22Z</time></trkpt>
<trkpt lat="38.964572" lon="-120.122030"><ele>2739.8</ele><time>2025-04-13T19:09:36Z</time></trkpt>
<trkpt lat="38.964607" lon="-120.121944"><ele>2740.4</ele><time>2025-04-13T19:09:46Z</time></trkpt>
<trkpt lat="38.964556" lon="-120.121882"><ele>2741.2</ele><time>2025-04-13T19:09:57Z</time></trkpt>
<trkpt lat="38.964609" lon="-120.121657"><ele>2744.8</ele><time>2025-04-13T19:10:37Z</time></trkpt>
<trkpt lat="38.964594" lon="-120.121610"><ele>2745.4</ele><time>2025-04-13T19:10:51Z</time></trkpt>
<trkpt lat="38.964581" lon="-120.121654"><ele>2745.0</ele><time>2025-04-13T19:11:06Z</time></trkpt>
<trkpt lat="38.964506" lon="-120.121223"><ele>2752.0</ele><time>2025-04-13T19:11:59Z</time></trkpt>
<trkpt lat="38.964374" lon="-120.120937"><ele>2757.8</ele><time>2025-04-13T19:12:46Z</time></trkpt>
<trkpt lat="38.964298" lon="-120.120928"><ele>2761.0</ele><time>2025-04-13T19:13:09Z</time></trkpt>
<trkpt lat="38.964209" lon="-120.120660"><ele>2764.8</ele><time>2025-04-13T19:13:43Z</time></trkpt>
<trkpt lat="38.964085" lon="-120.120499"><ele>2766.4</ele><time>2025-04-13T19:14:40Z</time></trkpt>
<trkpt lat="38.964082" lon="-120.120534"><ele>2767.6</ele><time>2025-04-13T19:15:01Z</time></trkpt>
<trkpt lat="38.964085" lon="-120.120530"><ele>2764.8</ele><time>2025-04-13T19:15:58Z</time></trkpt>
<trkpt lat="38.964073" lon="-120.120540"><ele>2768.0</ele><time>2025-04-13T19:18:05Z</time></trkpt>
<trkpt lat="38.964139" lon="-120.120525"><ele>2766.2</ele><time>2025-04-13T19:18:52Z</time></trkpt>
<trkpt lat="38.964145" lon="-120.120524"><ele>2768.4</ele><time>2025-04-13T19:19:19Z</time></trkpt>
<trkpt lat="38.964027" lon="-120.120563"><ele>2775.6</ele><time>2025-04-13T19:20:08Z</time></trkpt>
<trkpt lat="38.964013" lon="-120.120560"><ele>2785.2</ele><time>2025-04-13T19:20:25Z</time></trkpt>
<trkpt lat="38.964059" lon="-120.120552"><ele>2786.0</ele><time>2025-04-13T19:20:33Z</time></trkpt>
<trkpt lat="38.964049" lon="-120.120536"><ele>2791.8</ele><time>2025-04-13T19:20:46Z</time></trkpt>
<trkpt lat="38.964075" lon="-120.120548"><ele>2787.4</ele><time>2025-04-13T19:21:27Z</time></trkpt>
<trkpt lat="38.964070" lon="-120.120541"><ele>2792.2</ele><time>2025-04-13T19:22:01Z</time></trkpt>
<trkpt lat="38.964079" lon="-120.120525"><ele>2790.2</ele><time>2025-04-13T19:22:07Z</time></trkpt>
<trkpt lat="38.964093" lon="-120.120517"><ele>2792.6</ele><time>2025-04-13T19:22:12Z</time></trkpt>
<trkpt lat="38.964085" lon="-120.120548"><ele>2786.6</ele><time>2025-04-13T19:22:28Z</time></trkpt>
<trkpt lat="38.964085" lon="-120.120548"><ele>2793.8</ele><time>2025-04-13T19:22:38Z</time></trkpt>
<trkpt lat="38.964060" lon="-120.120532"><ele>2785.2</ele><time>2025-04-13T19:23:11Z</time></trkpt>
<trkpt lat="38.964060" lon="-120.120532"><ele>2787.4</ele><time>2025-04-13T19:23:29Z</time></trkpt>
<trkpt lat="38.964100" lon="-120.120525"><ele>2786.8</ele><time>2025-04-13T19:23:31Z</time></trkpt>
<trkpt lat="38.964096" lon="-120.120453"><ele>2786.8</ele><time>2025-04-13T19:23:36Z</time></trkpt>
<trkpt lat="38.964096" lon="-120.120453"><ele>2783.8</ele><time>2025-04-13T19:23:56Z</time></trkpt>
<trkpt lat="38.964096" lon="-120.120453"><ele>2792.0</ele><time>2025-04-13T19:24:32Z</time></trkpt>
<trkpt lat="38.964094" lon="-120.120452"><ele>2786.8</ele><time>2025-04-13T19:25:07Z</time></trkpt>
<trkpt lat="38.964102" lon="-120.120398"><ele>2785.8</ele><time>2025-04-13T19:25:28Z</time></trkpt>
<trkpt lat="38.964119" lon="-120.120383"><ele>2784.2</ele><time>2025-04-13T19:25:35Z</time></trkpt>
<trkpt lat="38.964142" lon="-120.120471"><ele>2783.2</ele><time>2025-04-13T19:25:56Z</time></trkpt>
<trkpt lat="38.964106" lon="-120.120467"><ele>2786.8</ele><time>2025-04-13T19:26:11Z</time></trkpt>
<trkpt lat="38.964102" lon="-120.120454"><ele>2792.6</ele><time>2025-04-13T19:27:16Z</time></trkpt>
<trkpt lat="38.964085" lon="-120.120366"><ele>2793.0</ele><time>2025-04-13T19:27:20Z</time></trkpt>
<trkpt lat="38.963990" lon="-120.120197"><ele>2791.4</ele><time>2025-04-13T19:27:23Z</time></trkpt>
<trkpt lat="38.963971" lon="-120.119961"><ele>2784.6</ele><time>2025-04-13T19:27:27Z</time></trkpt>
<trkpt lat="38.963862" lon="-120.119841"><ele>2775.4</ele><time>2025-04-13T19:27:32Z</time></trkpt>
<trkpt lat="38.963780" lon="-120.119665"><ele>2770.0</ele><time>2025-04-13T19:27:36Z</time></trkpt>
<trkpt lat="38.963820" lon="-120.119544"><ele>2764.6</ele><time>2025-04-13T19:27:38Z</time></trkpt>
<trkpt lat="38.963868" lon="-120.119523"><ele>2756.6</ele><time>2025-04-13T19:27:51Z</time></trkpt>
<trkpt lat="38.963826" lon="-120.119238"><ele>2756.4</ele><time>2025-04-13T19:27:55Z</time></trkpt>
<trkpt lat="38.963678" lon="-120.119219"><ele>2745.8</ele><time>2025-04-13T19:27:58Z</time></trkpt>
<trkpt lat="38.963545" lon="-120.119189"><ele>2740.6</ele><time>2025-04-13T19:28:00Z</time></trkpt>
<trkpt lat="38.963519" lon="-120.119152"><ele>2737.4</ele><time>2025-04-13T19:28:01Z</time></trkpt>
<trkpt lat="38.963591" lon="-120.119074"><ele>2733.8</ele><time>2025-04-13T19:28:03Z</time></trkpt>
<trkpt lat="38.963593" lon="-120.119030"><ele>2731.0</ele><time>2025-04-13T19:28:04Z</time></trkpt>
<trkpt lat="38.963506" lon="-120.118982"><ele>2724.0</ele><time>2025-04-13T19:28:07Z</time></trkpt>
<trkpt lat="38.963521" lon="-120.118865"><ele>2719.4</ele><time>2025-04-13T19:28:10Z</time></trkpt>
<trkpt lat="38.963417" lon="-120.118806"><ele>2711.2</ele><time>2025-04-13T19:28:13Z</time></trkpt>
<trkpt lat="38.963375" lon="-120.118659"><ele>2702.8</ele><time>2025-04-13T19:28:17Z</time></trkpt>
<trkpt lat="38.963379" lon="-120.118581"><ele>2696.8</ele><time>2025-04-13T19:28:19Z</time></trkpt>
<trkpt lat="38.963316" lon="-120.118521"><ele>2694.0</ele><time>2025-04-13T19:28:21Z</time></trkpt>
<trkpt lat="38.963236" lon="-120.118507"><ele>2684.4</ele><time>2025-04-13T19:28:23Z</time></trkpt>
<trkpt lat="38.963181" lon="-120.118367"><ele>2680.0</ele><time>2025-04-13T19:28:26Z</time></trkpt>
<trkpt lat="38.963087" lon="-120.118385"><ele>2674.2</ele><time>2025-04-13T19:28:28Z</time></trkpt>
<trkpt lat="38.963015" lon="-120.118401"><ele>2664.8</ele><time>2025-04-13T19:28:30Z</time></trkpt>
<trkpt lat="38.962990" lon="-120.118396"><ele>2663.8</ele><time>2025-04-13T19:28:31Z</time></trkpt>
<trkpt lat="38.962992" lon="-120.118311"><ele>2662.6</ele><time>2025-04-13T19:28:33Z</time></trkpt>
<trkpt lat="38.962924" lon="-120.118309"><ele>2660.6</ele><time>2025-04-13T19:28:35Z</time></trkpt>
<trkpt lat="38.962917" lon="-120.118327"><ele>2648.2</ele><time>2025-04-13T19:29:09Z</time></trkpt>
<trkpt lat="38.962843" lon="-120.118322"><ele>2648.2</ele><time>2025-04-13T19:29:11Z</time></trkpt>
<trkpt lat="38.962668" lon="-120.118442"><ele>2646.4</ele><time>2025-04-13T19:29:14Z</time></trkpt>
<trkpt lat="38.962633" lon="-120.118374"><ele>2641.8</ele><time>2025-04-13T19:29:16Z</time></trkpt>
<trkpt lat="38.962558" lon="-120.118316"><ele>2638.2</ele><time>2025-04-13T19:29:18Z</time></trkpt>
<trkpt lat="38.962545" lon="-120.118274"><ele>2633.4</ele><time>2025-04-13T19:29:19Z</time></trkpt>
<trkpt lat="38.962426" lon="-120.118091"><ele>2620.8</ele><time>2025-04-13T19:29:24Z</time></trkpt>
<trkpt lat="38.962251" lon="-120.118084"><ele>2611.0</ele><time>2025-04-13T19:29:27Z</time></trkpt>
<trkpt lat="38.962238" lon="-120.117983"><ele>2606.6</ele><time>2025-04-13T19:29:29Z</time></trkpt>
<trkpt lat="38.962166" lon="-120.117901"><ele>2598.4</ele><time>2025-04-13T19:29:32Z</time></trkpt>
<trkpt lat="38.962044" lon="-120.117865"><ele>2589.8</ele><time>2025-04-13T19:29:35Z</time></trkpt>
<trkpt lat="38.962046" lon="-120.117792"><ele>2586.2</ele><time>2025-04-13T19:29:37Z</time></trkpt>
<trkpt lat="38.962018" lon="-120.117764"><ele>2581.8</ele><time>2025-04-13T19:29:38Z</time></trkpt>
<trkpt lat="38.961939" lon="-120.117736"><ele>2578.4</ele><time>2025-04-13T19:29:40Z</time></trkpt>
<trkpt lat="38.961948" lon="-120.117636"><ele>2570.2</ele><time>2025-04-13T19:29:43Z</time></trkpt>
<trkpt lat="38.961910" lon="-120.117562"><ele>2567.8</ele><time>2025-04-13T19:29:45Z</time></trkpt>
<trkpt lat="38.961841" lon="-120.117516"><ele>2563.0</ele><time>2025-04-13T19:29:47Z</time></trkpt>
<trkpt lat="38.961812" lon="-120.117392"><ele>2557.0</ele><time>2025-04-13T19:29:49Z</time></trkpt>
<trkpt lat="38.961771" lon="-120.117356"><ele>2554.8</ele><time>2025-04-13T19:29:50Z</time></trkpt>
<trkpt lat="38.961676" lon="-120.117361"><ele>2547.2</ele><time>2025-04-13T19:29:52Z</time></trkpt>
<trkpt lat="38.961640" lon="-120.117177"><ele>2541.0</ele><time>2025-04-13T19:29:55Z</time></trkpt>
<trkpt lat="38.961548" lon="-120.117174"><ele>2535.8</ele><time>2025-04-13T19:29:57Z</time></trkpt>
<trkpt lat="38.961460" lon="-120.116995"><ele>2526.4</ele><time>2025-04-13T19:30:00Z</time></trkpt>
<trkpt lat="38.961326" lon="-120.116935"><ele>2516.2</ele><time>2025-04-13T19:30:03Z</time></trkpt>
<trkpt lat="38.961270" lon="-120.116851"><ele>2511.2</ele><time>2025-04-13T19:30:05Z</time></trkpt>
<trkpt lat="38.961246" lon="-120.116825"><ele>2508.2</ele><time>2025-04-13T19:30:06Z</time></trkpt>
<trkpt lat="38.961216" lon="-120.116830"><ele>2498.6</ele><time>2025-04-13T19:30:09Z</time></trkpt>
<trkpt lat="38.961172" lon="-120.116724"><ele>2495.2</ele><time>2025-04-13T19:30:13Z</time></trkpt>
<trkpt lat="38.961140" lon="-120.116715"><ele>2489.6</ele><time>2025-04-13T19:30:16Z</time></trkpt>
<trkpt lat="38.961083" lon="-120.116601"><ele>2488.4</ele><time>2025-04-13T19:30:19Z</time></trkpt>
<trkpt lat="38.960963" lon="-120.116586"><ele>2478.6</ele><time>2025-04-13T19:30:23Z</time></trkpt>
<trkpt lat="38.960989" lon="-120.116585"><ele>2471.4</ele><time>2025-04-13T19:30:34Z</time></trkpt>
<trkpt lat="38.961018" lon="-120.116600"><ele>2470.4</ele><time>2025-04-13T19:30:39Z</time></trkpt>
<trkpt lat="38.960982" lon="-120.116589"><ele>2466.8</ele><time>2025-04-13T19:31:01Z</time></trkpt>
<trkpt lat="38.960994" lon="-120.116574"><ele>2463.4</ele><time>2025-04-13T19:31:11Z</time></trkpt>
<trkpt lat="38.960944" lon="-120.116504"><ele>2463.4</ele><time>2025-04-13T19:31:14Z</time></trkpt>
<trkpt lat="38.960866" lon="-120.116524"><ele>2462.6</ele><time>2025-04-13T19:31:18Z</time></trkpt>
<trkpt lat="38.960774" lon="-120.116452"><ele>2459.6</ele><time>2025-04-13T19:31:22Z</time></trkpt>
<trkpt lat="38.960729" lon="-120.116397"><ele>2458.8</ele><time>2025-04-13T19:31:24Z</time></trkpt>
<trkpt lat="38.960671" lon="-120.116202"><ele>2453.8</ele><time>2025-04-13T19:31:28Z</time></trkpt>
<trkpt lat="38.960634" lon="-120.116198"><ele>2448.2</ele><time>2025-04-13T19:31:30Z</time></trkpt>
<trkpt lat="38.960549" lon="-120.116077"><ele>2441.4</ele><time>2025-04-13T19:31:35Z</time></trkpt>
<trkpt lat="38.960378" lon="-120.116107"><ele>2434.4</ele><time>2025-04-13T19:31:39Z</time></trkpt>
<trkpt lat="38.960375" lon="-120.116021"><ele>2431.0</ele><time>2025-04-13T19:31:41Z</time></trkpt>
<trkpt lat="38.960304" lon="-120.115970"><ele>2428.2</ele><time>2025-04-13T19:31:43Z</time></trkpt>
<trkpt lat="38.960261" lon="-120.115834"><ele>2424.0</ele><time>2025-04-13T19:31:46Z</time></trkpt>
<trkpt lat="38.960109" lon="-120.115812"><ele>2415.8</ele><time>2025-04-13T19:31:49Z</time></trkpt>
<trkpt lat="38.960100" lon="-120.115711"><ele>2414.0</ele><time>2025-04-13T19:31:51Z</time></trkpt>
<trkpt lat="38.959977" lon="-120.115631"><ele>2408.8</ele><time>2025-04-13T19:31:54Z</time></trkpt>
<trkpt lat="38.959990" lon="-120.115562"><ele>2404.6</ele><time>2025-04-13T19:31:56Z</time></trkpt>
<trkpt lat="38.959925" lon="-120.115518"><ele>2401.6</ele><time>2025-04-13T19:31:58Z</time></trkpt>
<trkpt lat="38.959888" lon="-120.115433"><ele>2397.0</ele><time>2025-04-13T19:32:00Z</time></trkpt>
<trkpt lat="38.959793" lon="-120.115335"><ele>2389.8</ele><time>2025-04-13T19:32:04Z</time></trkpt>
<trkpt lat="38.959809" lon="-120.115270"><ele>2383.4</ele><time>2025-04-13T19:32:08Z</time></trkpt>
<trkpt lat="38.959771" lon="-120.115272"><ele>2382.0</ele><time>2025-04-13T19:32:10Z</time></trkpt>
<trkpt lat="38.959779" lon="-120.115290"><ele>2377.0</ele><time>2025-04-13T19:32:19Z</time></trkpt>
<trkpt lat="38.959772" lon="-120.115261"><ele>2366.6</ele><time>2025-04-13T19:32:44Z</time></trkpt>
<trkpt lat="38.959647" lon="-120.114987"><ele>2365.0</ele><time>2025-04-13T19:32:55Z</time></trkpt>
<trkpt lat="38.959536" lon="-120.114851"><ele>2363.4</ele><time>2025-04-13T19:32:59Z</time></trkpt>
<trkpt lat="38.959436" lon="-120.114773"><ele>2357.8</ele><time>2025-04-13T19:33:03Z</time></trkpt>
<trkpt lat="38.959439" lon="-120.114795"><ele>2340.2</ele><time>2025-04-13T19:33:31Z</time></trkpt>
<trkpt lat="38.959372" lon="-120.114665"><ele>2330.2</ele><time>2025-04-13T19:34:21Z</time></trkpt>
<trkpt lat="38.959379" lon="-120.114664"><ele>2325.0</ele><time>2025-04-13T19:35:35Z</time></trkpt>
<trkpt lat="38.959383" lon="-120.114662"><ele>2331.0</ele><time>2025-04-13T19:35:55Z</time></trkpt>
<trkpt lat="38.959386" lon="-120.114668"><ele>2326.0</ele><time>2025-04-13T19:36:40Z</time></trkpt>
<trkpt lat="38.959385" lon="-120.114668"><ele>2329.8</ele><time>2025-04-13T19:36:52Z</time></trkpt>
<trkpt lat="38.959346" lon="-120.114607"><ele>2333.8</ele><time>2025-04-13T19:37:04Z</time></trkpt>
<trkpt lat="38.959375" lon="-120.114527"><ele>2332.4</ele><time>2025-04-13T19:37:20Z</time></trkpt>
<trkpt lat="38.959350" lon="-120.114488"><ele>2333.4</ele><time>2025-04-13T19:37:26Z</time></trkpt>
<trkpt lat="38.959313" lon="-120.114401"><ele>2328.0</ele><time>2025-04-13T19:37:47Z</time></trkpt>
<trkpt lat="38.959262" lon="-120.114348"><ele>2326.8</ele><time>2025-04-13T19:37:56Z</time></trkpt>
<trkpt lat="38.959300" lon="-120.114238"><ele>2324.6</ele><time>2025-04-13T19:38:10Z</time></trkpt>
<trkpt lat="38.959333" lon="-120.114204"><ele>2316.2</ele><time>2025-04-13T19:39:19Z</time></trkpt>
<trkpt lat="38.959274" lon="-120.114062"><ele>2316.4</ele><time>2025-04-13T19:39:23Z</time></trkpt>
<trkpt lat="38.959271" lon="-120.113836"><ele>2311.4</ele><time>2025-04-13T19:39:28Z</time></trkpt>
<trkpt lat="38.959217" lon="-120.113748"><ele>2308.2</ele><time>2025-04-13T19:39:30Z</time></trkpt>
<trkpt lat="38.959236" lon="-120.113564"><ele>2303.2</ele><time>2025-04-13T19:39:33Z</time></trkpt>
<trkpt lat="38.959181" lon="-120.113451"><ele>2297.2</ele><time>2025-04-13T19:39:35Z</time></trkpt>
<trkpt lat="38.959225" lon="-120.113318"><ele>2292.6</ele><time>2025-04-13T19:39:38Z</time></trkpt>
<trkpt lat="38.959181" lon="-120.113221"><ele>2289.0</ele><time>2025-04-13T19:39:40Z</time></trkpt>
<trkpt lat="38.959184" lon="-120.113057"><ele>2285.2</ele><time>2025-04-13T19:39:43Z</time></trkpt>
<trkpt lat="38.959159" lon="-120.113025"><ele>2283.8</ele><time>2025-04-13T19:39:44Z</time></trkpt>
<trkpt lat="38.959148" lon="-120.113001"><ele>2277.8</ele><time>2025-04-13T19:39:46Z</time></trkpt>
<trkpt lat="38.959000" lon="-120.112871"><ele>2274.8</ele><time>2025-04-13T19:39:50Z</time></trkpt>
<trkpt lat="38.959010" lon="-120.112735"><ele>2270.0</ele><time>2025-04-13T19:39:53Z</time></trkpt>
<trkpt lat="38.958956" lon="-120.112677"><ele>2266.2</ele><time>2025-04-13T19:39:55Z</time></trkpt>
<trkpt lat="38.958856" lon="-120.112435"><ele>2261.0</ele><time>2025-04-13T19:39:59Z</time></trkpt>
<trkpt lat="38.958828" lon="-120.112277"><ele>2254.2</ele><time>2025-04-13T19:40:02Z</time></trkpt>
<trkpt lat="38.958829" lon="-120.112257"><ele>2249.0</ele><time>2025-04-13T19:40:04Z</time></trkpt>
<trkpt lat="38.958858" lon="-120.112263"><ele>2246.0</ele><time>2025-04-13T19:40:14Z</time></trkpt>
<trkpt lat="38.958845" lon="-120.112247"><ele>2238.2</ele><time>2025-04-13T19:40:59Z</time></trkpt>
<trkpt lat="38.958843" lon="-120.112246"><ele>2241.0</ele><time>2025-04-13T19:41:10Z</time></trkpt>
<trkpt lat="38.958849" lon="-120.112186"><ele>2241.2</ele><time>2025-04-13T19:41:12Z</time></trkpt>
<trkpt lat="38.958872" lon="-120.112189"><ele>2240.2</ele><time>2025-04-13T19:41:16Z</time></trkpt>
<trkpt lat="38.958857" lon="-120.112181"><ele>2233.4</ele><time>2025-04-13T19:42:53Z</time></trkpt>
<trkpt lat="38.958863" lon="-120.112175"><ele>2235.8</ele><time>2025-04-13T19:43:11Z</time></trkpt>
<trkpt lat="38.958860" lon="-120.112190"><ele>2234.2</ele><time>2025-04-13T19:43:32Z</time></trkpt>
<trkpt lat="38.959040" lon="-120.112050"><ele>2234.0</ele><time>2025-04-13T19:44:12Z</time></trkpt>
<trkpt lat="38.959047" lon="-120.111941"><ele>2230.0</ele><time>2025-04-13T19:44:31Z</time></trkpt>
<trkpt lat="38.959004" lon="-120.111819"><ele>2228.2</ele><time>2025-04-13T19:44:48Z</time></trkpt>
<trkpt lat="38.959002" lon="-120.111735"><ele>2223.2</ele><time>2025-04-13T19:45:02Z</time></trkpt>
<trkpt lat="38.959133" lon="-120.111613"><ele>2219.4</ele><time>2025-04-13T19:45:25Z</time></trkpt>
<trkpt lat="38.959177" lon="-120.111639"><ele>2219.4</ele><time>2025-04-13T19:45:55Z</time></trkpt>
<trkpt lat="38.959227" lon="-120.111542"><ele>2219.0</ele><time>2025-04-13T19:46:07Z</time></trkpt>
<trkpt lat="38.959208" lon="-120.111455"><ele>2216.6</ele><time>2025-04-13T19:46:15Z</time></trkpt>
<trkpt lat="38.959153" lon="-120.111385"><ele>2210.6</ele><time>2025-04-13T19:46:25Z</time></trkpt>
<trkpt lat="38.959176" lon="-120.111368"><ele>2209.4</ele><time>2025-04-13T19:46:29Z</time></trkpt>
<trkpt lat="38.959172" lon="-120.111308"><ele>2208.4</ele><time>2025-04-13T19:46:43Z</time></trkpt>
<trkpt lat="38.959132" lon="-120.111268"><ele>2202.6</ele><time>2025-04-13T19:46:59Z</time></trkpt>
<trkpt lat="38.959129" lon="-120.111238"><ele>2203.2</ele><time>2025-04-13T19:47:07Z</time></trkpt>
<trkpt lat="38.959076" lon="-120.111216"><ele>2201.4</ele><time>2025-04-13T19:47:15Z</time></trkpt>
<trkpt lat="38.959085" lon="-120.111155"><ele>2199.4</ele><time>2025-04-13T19:47:23Z</time></trkpt>
<trkpt lat="38.959000" lon="-120.111124"><ele>2197.0</ele><time>2025-04-13T19:47:40Z</time></trkpt>
<trkpt lat="38.959029" lon="-120.111116"><ele>2196.4</ele><time>2025-04-13T19:47:45Z</time></trkpt>
<trkpt lat="38.958989" lon="-120.111023"><ele>2193.0</ele><time>2025-04-13T19:48:03Z</time></trkpt>
<trkpt lat="38.958873" lon="-120.110897"><ele>2193.2</ele><time>2025-04-13T19:48:38Z</time></trkpt>
<trkpt lat="38.958893" lon="-120.110654"><ele>2182.2</ele><time>2025-04-13T19:49:17Z</time></trkpt>
<trkpt lat="38.958802" lon="-120.110534"><ele>2178.4</ele><time>2025-04-13T19:49:39Z</time></trkpt>
<trkpt lat="38.958761" lon="-120.110398"><ele>2174.8</ele><time>2025-04-13T19:50:01Z</time></trkpt>
<trkpt lat="38.958791" lon="-120.110347"><ele>2173.8</ele><time>2025-04-13T19:50:09Z</time></trkpt>
<trkpt lat="38.958784" lon="-120.110227"><ele>2169.2</ele><time>2025-04-13T19:50:27Z</time></trkpt>
<trkpt lat="38.958914" lon="-120.110079"><ele>2164.0</ele><time>2025-04-13T19:50:54Z</time></trkpt>
<trkpt lat="38.958959" lon="-120.109912"><ele>2159.2</ele><time>2025-04-13T19:51:11Z</time></trkpt>
<trkpt lat="38.958984" lon="-120.109571"><ele>2150.2</ele><time>2025-04-13T19:51:56Z</time></trkpt>
<trkpt lat="38.958921" lon="-120.109269"><ele>2144.0</ele><time>2025-04-13T19:52:29Z</time></trkpt>
<trkpt lat="38.958969" lon="-120.109163"><ele>2140.6</ele><time>2025-04-13T19:52:49Z</time></trkpt>
<trkpt lat="38.958839" lon="-120.109061"><ele>2137.4</ele><time>2025-04-13T19:53:06Z</time></trkpt>
<trkpt lat="38.958821" lon="-120.108995"><ele>2137.2</ele><time>2025-04-13T19:53:12Z</time></trkpt>
<trkpt lat="38.958829" lon="-120.108906"><ele>2135.4</ele><time>2025-04-13T19:53:22Z</time></trkpt>
<trkpt lat="38.958897" lon="-120.108750"><ele>2132.6</ele><time>2025-04-13T19:53:40Z</time></trkpt>
<trkpt lat="38.958882" lon="-120.108582"><ele>2130.0</ele><time>2025-04-13T19:53:56Z</time></trkpt>
<trkpt lat="38.958918" lon="-120.108433"><ele>2127.8</ele><time>2025-04-13T19:54:13Z</time></trkpt>
<trkpt lat="38.958901" lon="-120.107933"><ele>2122.8</ele><time>2025-04-13T19:54:57Z</time></trkpt>
<trkpt lat="38.958845" lon="-120.107400"><ele>2118.2</ele><time>2025-04-13T19:55:37Z</time></trkpt>
<trkpt lat="38.958932" lon="-120.106991"><ele>2115.8</ele><time>2025-04-13T19:56:12Z</time></trkpt>
<trkpt lat="38.958980" lon="-120.106878"><ele>2119.0</ele><time>2025-04-13T19:56:25Z</time></trkpt>
<trkpt lat="38.959241" lon="-120.106294"><ele>2110.8</ele><time>2025-04-13T19:57:26Z</time></trkpt>
<trkpt lat="38.959443" lon="-120.105671"><ele>2111.8</ele><time>2025-04-13T19:58:12Z</time></trkpt>
<trkpt lat="38.959489" lon="-120.105572"><ele>2109.4</ele><time>2025-04-13T19:58:21Z</time></trkpt>
<trkpt lat="38.959732" lon="-120.105329"><ele>2103.8</ele><time>2025-04-13T19:58:55Z</time></trkpt>
<trkpt lat="38.959922" lon="-120.105067"><ele>2097.8</ele><time>2025-04-13T19:59:26Z</time></trkpt>
<trkpt lat="38.960160" lon="-120.104757"><ele>2095.8</ele><time>2025-04-13T19:59:59Z</time></trkpt>
<trkpt lat="38.960234" lon="-120.104634"><ele>2101.6</ele><time>2025-04-13T20:00:10Z</time></trkpt>
<trkpt lat="38.960276" lon="-120.104539"><ele>2100.8</ele><time>2025-04-13T20:00:17Z</time></trkpt>
<trkpt lat="38.960396" lon="-120.104357"><ele>2097.6</ele><time>2025-04-13T20:00:38Z</time></trkpt>
<trkpt lat="38.960577" lon="-120.104193"><ele>2093.8</ele><time>2025-04-13T20:01:00Z</time></trkpt>
<trkpt lat="38.960751" lon="-120.103976"><ele>2091.4</ele><time>2025-04-13T20:01:28Z</time></trkpt>
<trkpt lat="38.960746" lon="-120.103660"><ele>2089.4</ele><time>2025-04-13T20:01:52Z</time></trkpt>
<trkpt lat="38.960865" lon="-120.103402"><ele>2090.2</ele><time>2025-04-13T20:02:16Z</time></trkpt>
<trkpt lat="38.960943" lon="-120.103188"><ele>2086.8</ele><time>2025-04-13T20:02:33Z</time></trkpt>
<trkpt lat="38.961126" lon="-120.102891"><ele>2085.2</ele><time>2025-04-13T20:02:58Z</time></trkpt>
<trkpt lat="38.961095" lon="-120.102657"><ele>2082.8</ele><time>2025-04-13T20:03:23Z</time></trkpt>
</trkseg></trk>
</gpx>
