<?xml version="1.0" encoding="UTF-8"?>
<gpx version="1.1" creator="Eric Sichak trip reports" xmlns="http://www.topografix.com/GPX/1/1">
<metadata><name>LTCC Beginner Rock Climbing – Day 1</name><time>2026-05-08T16:14:30Z</time></metadata>
<trk><name>LTCC Beginner Rock Climbing – Day 1</name><type>climb</type><trkseg>
<trkpt lat="38.994875" lon="-119.896541"><ele>2367.2</ele><time>2026-05-08T16:14:30Z</time></trkpt>
<trkpt lat="38.994766" lon="-119.896595"><ele>2367.4</ele><time>2026-05-08T16:14:43Z</time></trkpt>
<trkpt lat="38.994731" lon="-119.896736"><ele>2366.0</ele><time>2026-05-08T16:15:06Z</time></trkpt>
<trkpt lat="38.994545" lon="-119.896942"><ele>2361.4</ele><time>2026-05-08T16:15:46Z</time></trkpt>
<trkpt lat="38.994424" lon="-119.897009"><ele>2359.4</ele><time>2026-05-08T16:16:01Z</time></trkpt>
<trkpt lat="38.994090" lon="-119.897113"><ele>2359.8</ele><time>2026-05-08T16:16:36Z</time></trkpt>
<trkpt lat="38.993709" lon="-119.897397"><ele>2355.0</ele><time>2026-05-08T16:17:22Z</time></trkpt>
<trkpt lat="38.993303" lon="-119.897882"><ele>2347.8</ele><time>2026-05-08T16:18:24Z</time></trkpt>
<trkpt lat="38.992942" lon="-119.898188"><ele>2343.8</ele><time>2026-05-08T16:19:09Z</time></trkpt>
<trkpt lat="38.992815" lon="-119.898479"><ele>2341.2</ele><time>2026-05-08T16:19:34Z</time></trkpt>
<trkpt lat="38.992704" lon="-119.898651"><ele>2339.6</ele><time>2026-05-08T16:19:53Z</time></trkpt>
<trkpt lat="38.992514" lon="-119.898873"><ele>2338.4</ele><time>2026-05-08T16:20:22Z</time></trkpt>
<trkpt lat="38.992428" lon="-119.898929"><ele>2336.2</ele><time>2026-05-08T16:20:31Z</time></trkpt>
<trkpt lat="38.992293" lon="-119.899159"><ele>2335.8</ele><time>2026-05-08T16:20:53Z</time></trkpt>
<trkpt lat="38.992035" lon="-119.899402"><ele>2334.6</ele><time>2026-05-08T16:21:27Z</time></trkpt>
<trkpt lat="38.991905" lon="-119.899674"><ele>2335.0</ele><time>2026-05-08T16:21:56Z</time></trkpt>
<trkpt lat="38.991697" lon="-119.899945"><ele>2332.2</ele><time>2026-05-08T16:22:29Z</time></trkpt>
<trkpt lat="38.990955" lon="-119.900398"><ele>2326.2</ele><time>2026-05-08T16:23:54Z</time></trkpt>
<trkpt lat="38.990849" lon="-119.900492"><ele>2325.2</ele><time>2026-05-08T16:24:07Z</time></trkpt>
<trkpt lat="38.990767" lon="-119.900636"><ele>2324.4</ele><time>2026-05-08T16:24:21Z</time></trkpt>
<trkpt lat="38.990701" lon="-119.900830"><ele>2324.0</ele><time>2026-05-08T16:24:36Z</time></trkpt>
<trkpt lat="38.990706" lon="-119.900930"><ele>2324.2</ele><time>2026-05-08T16:24:44Z</time></trkpt>
<trkpt lat="38.990567" lon="-119.901544"><ele>2321.2</ele><time>2026-05-08T16:25:31Z</time></trkpt>
<trkpt lat="38.990385" lon="-119.901855"><ele>2319.0</ele><time>2026-05-08T16:26:00Z</time></trkpt>
<trkpt lat="38.990396" lon="-119.902200"><ele>2318.6</ele><time>2026-05-08T16:26:24Z</time></trkpt>
<trkpt lat="38.990347" lon="-119.902436"><ele>2316.8</ele><time>2026-05-08T16:26:42Z</time></trkpt>
<trkpt lat="38.990391" lon="-119.902886"><ele>2315.4</ele><time>2026-05-08T16:27:14Z</time></trkpt>
<trkpt lat="38.990449" lon="-119.903214"><ele>2312.2</ele><time>2026-05-08T16:27:38Z</time></trkpt>
<trkpt lat="38.990445" lon="-119.903409"><ele>2311.2</ele><time>2026-05-08T16:27:51Z</time></trkpt>
<trkpt lat="38.990548" lon="-119.903712"><ele>2312.2</ele><time>2026-05-08T16:28:16Z</time></trkpt>
<trkpt lat="38.990561" lon="-119.903885"><ele>2314.2</ele><time>2026-05-08T16:28:30Z</time></trkpt>
<trkpt lat="38.990719" lon="-119.904127"><ele>2317.6</ele><time>2026-05-08T16:28:57Z</time></trkpt>
<trkpt lat="38.990848" lon="-119.904128"><ele>2318.6</ele><time>2026-05-08T16:29:10Z</time></trkpt>
<trkpt lat="38.991147" lon="-119.904353"><ele>2323.2</ele><time>2026-05-08T16:29:46Z</time></trkpt>
<trkpt lat="38.991386" lon="-119.904435"><ele>2324.2</ele><time>2026-05-08T16:30:34Z</time></trkpt>
<trkpt lat="38.991429" lon="-119.904481"><ele>2324.6</ele><time>2026-05-08T16:30:40Z</time></trkpt>
<trkpt lat="38.991469" lon="-119.904670"><ele>2325.2</ele><time>2026-05-08T16:30:55Z</time></trkpt>
<trkpt lat="38.991452" lon="-119.904741"><ele>2326.0</ele><time>2026-05-08T16:31:02Z</time></trkpt>
<trkpt lat="38.991294" lon="-119.904964"><ele>2329.6</ele><time>2026-05-08T16:31:28Z</time></trkpt>
<trkpt lat="38.991165" lon="-119.905020"><ele>2331.4</ele><time>2026-05-08T16:31:45Z</time></trkpt>
<trkpt lat="38.991147" lon="-119.905058"><ele>2332.0</ele><time>2026-05-08T16:31:50Z</time></trkpt>
<trkpt lat="38.991313" lon="-119.905444"><ele>2337.2</ele><time>2026-05-08T16:32:35Z</time></trkpt>
<trkpt lat="38.991305" lon="-119.905551"><ele>2338.6</ele><time>2026-05-08T16:32:48Z</time></trkpt>
<trkpt lat="38.991076" lon="-119.905603"><ele>2339.0</ele><time>2026-05-08T16:33:13Z</time></trkpt>
<trkpt lat="38.991014" lon="-119.905563"><ele>2339.0</ele><time>2026-05-08T16:33:20Z</time></trkpt>
<trkpt lat="38.990757" lon="-119.905550"><ele>2342.0</ele><time>2026-05-08T16:33:54Z</time></trkpt>
<trkpt lat="38.990677" lon="-119.905891"><ele>2345.8</ele><time>2026-05-08T16:34:28Z</time></trkpt>
<trkpt lat="38.990561" lon="-119.906072"><ele>2348.0</ele><time>2026-05-08T16:34:53Z</time></trkpt>
<trkpt lat="38.990538" lon="-119.906176"><ele>2348.8</ele><time>2026-05-08T16:35:02Z</time></trkpt>
<trkpt lat="38.990374" lon="-119.906495"><ele>2349.4</ele><time>2026-05-08T16:35:39Z</time></trkpt>
<trkpt lat="38.990056" lon="-119.906414"><ele>2345.4</ele><time>2026-05-08T16:36:20Z</time></trkpt>
<trkpt lat="38.989894" lon="-119.906328"><ele>2342.8</ele><time>2026-05-08T16:36:42Z</time></trkpt>
<trkpt lat="38.989751" lon="-119.906376"><ele>2340.4</ele><time>2026-05-08T16:36:57Z</time></trkpt>
<trkpt lat="38.989639" lon="-119.906493"><ele>2337.4</ele><time>2026-05-08T16:37:21Z</time></trkpt>
<trkpt lat="38.989607" lon="-119.906479"><ele>2336.6</ele><time>2026-05-08T16:37:29Z</time></trkpt>
<trkpt lat="38.989566" lon="-119.906522"><ele>2335.2</ele><time>2026-05-08T16:37:37Z</time></trkpt>
<trkpt lat="38.989576" lon="-119.906619"><ele>2334.2</ele><time>2026-05-08T16:37:45Z</time></trkpt>
<trkpt lat="38.989538" lon="-119.906744"><ele>2333.2</ele><time>2026-05-08T16:37:56Z</time></trkpt>
<trkpt lat="38.989323" lon="-119.907042"><ele>2328.4</ele><time>2026-05-08T16:38:37Z</time></trkpt>
<trkpt lat="38.989246" lon="-119.907304"><ele>2327.2</ele><time>2026-05-08T16:38:58Z</time></trkpt>
<trkpt lat="38.989201" lon="-119.907557"><ele>2329.2</ele><time>2026-05-08T16:39:28Z</time></trkpt>
<trkpt lat="38.989194" lon="-119.907652"><ele>2330.4</ele><time>2026-05-08T16:39:46Z</time></trkpt>
<trkpt lat="38.989266" lon="-119.907674"><ele>2331.2</ele><time>2026-05-08T16:41:03Z</time></trkpt>
<trkpt lat="38.989199" lon="-119.907686"><ele>2330.0</ele><time>2026-05-08T16:41:11Z</time></trkpt>
<trkpt lat="38.989194" lon="-119.907797"><ele>2328.2</ele><time>2026-05-08T16:41:25Z</time></trkpt>
<trkpt lat="38.989145" lon="-119.907934"><ele>2324.6</ele><time>2026-05-08T16:41:48Z</time></trkpt>
<trkpt lat="38.989217" lon="-119.908570"><ele>2334.6</ele><time>2026-05-08T16:43:37Z</time></trkpt>
<trkpt lat="38.989180" lon="-119.908658"><ele>2333.6</ele><time>2026-05-08T16:43:47Z</time></trkpt>
<trkpt lat="38.989159" lon="-119.908826"><ele>2336.8</ele><time>2026-05-08T16:44:31Z</time></trkpt>
<trkpt lat="38.989204" lon="-119.908912"><ele>2338.6</ele><time>2026-05-08T16:44:56Z</time></trkpt>
<trkpt lat="38.989237" lon="-119.908925"><ele>2341.2</ele><time>2026-05-08T16:45:12Z</time></trkpt>
<trkpt lat="38.989236" lon="-119.909022"><ele>2343.0</ele><time>2026-05-08T16:45:40Z</time></trkpt>
<trkpt lat="38.989254" lon="-119.909003"><ele>2343.0</ele><time>2026-05-08T16:46:01Z</time></trkpt>
<trkpt lat="38.989290" lon="-119.909047"><ele>2344.2</ele><time>2026-05-08T16:46:20Z</time></trkpt>
<trkpt lat="38.989283" lon="-119.909082"><ele>2345.4</ele><time>2026-05-08T16:46:55Z</time></trkpt>
<trkpt lat="38.989315" lon="-119.909098"><ele>2348.0</ele><time>2026-05-08T16:47:12Z</time></trkpt>
<trkpt lat="38.989321" lon="-119.909134"><ele>2346.4</ele><time>2026-05-08T16:47:21Z</time></trkpt>
<trkpt lat="38.989415" lon="-119.909190"><ele>2349.8</ele><time>2026-05-08T16:47:45Z</time></trkpt>
<trkpt lat="38.989404" lon="-119.909216"><ele>2351.2</ele><time>2026-05-08T16:47:59Z</time></trkpt>
<trkpt lat="38.989452" lon="-119.909226"><ele>2355.8</ele><time>2026-05-08T16:48:56Z</time></trkpt>
<trkpt lat="38.989438" lon="-119.909270"><ele>2355.6</ele><time>2026-05-08T16:49:34Z</time></trkpt>
<trkpt lat="38.989496" lon="-119.909271"><ele>2357.0</ele><time>2026-05-08T16:50:16Z</time></trkpt>
<trkpt lat="38.989493" lon="-119.909311"><ele>2358.4</ele><time>2026-05-08T23:36:52Z</time></trkpt>
<trkpt lat="38.989414" lon="-119.909288"><ele>2352.8</ele><time>2026-05-08T23:38:20Z</time></trkpt>
<trkpt lat="38.989437" lon="-119.909268"><ele>2351.8</ele><time>2026-05-08T23:38:38Z</time></trkpt>
<trkpt lat="38.989414" lon="-119.909299"><ele>2350.8</ele><time>2026-05-08T23:38:52Z</time></trkpt>
<trkpt lat="38.989419" lon="-119.909234"><ele>2349.6</ele><time>2026-05-08T23:39:08Z</time></trkpt>
<trkpt lat="38.989349" lon="-119.909289"><ele>2345.8</ele><time>2026-05-08T23:39:25Z</time></trkpt>
<trkpt lat="38.989300" lon="-119.909152"><ele>2347.4</ele><time>2026-05-08T23:40:10Z</time></trkpt>
<trkpt lat="38.989245" lon="-119.909088"><ele>2343.4</ele><time>2026-05-08T23:40:40Z</time></trkpt>
<trkpt lat="38.989214" lon="-119.908956"><ele>2340.4</ele><time>2026-05-08T23:41:09Z</time></trkpt>
<trkpt lat="38.989185" lon="-119.908960"><ele>2338.4</ele><time>2026-05-08T23:41:17Z</time></trkpt>
<trkpt lat="38.989140" lon="-119.908895"><ele>2335.4</ele><time>2026-05-08T23:41:39Z</time></trkpt>
<trkpt lat="38.989185" lon="-119.908573"><ele>2334.8</ele><time>2026-05-08T23:42:17Z</time></trkpt>
<trkpt lat="38.989140" lon="-119.908003"><ele>2326.0</ele><time>2026-05-08T23:43:21Z</time></trkpt>
<trkpt lat="38.989217" lon="-119.907693"><ele>2329.6</ele><time>2026-05-08T23:43:53Z</time></trkpt>
<trkpt lat="38.989193" lon="-119.907588"><ele>2327.2</ele><time>2026-05-08T23:44:04Z</time></trkpt>
<trkpt lat="38.989222" lon="-119.907412"><ele>2324.4</ele><time>2026-05-08T23:44:23Z</time></trkpt>
<trkpt lat="38.989309" lon="-119.907146"><ele>2324.2</ele><time>2026-05-08T23:44:44Z</time></trkpt>
<trkpt lat="38.989508" lon="-119.906830"><ele>2328.8</ele><time>2026-05-08T23:45:18Z</time></trkpt>
<trkpt lat="38.989573" lon="-119.906675"><ele>2330.2</ele><time>2026-05-08T23:45:31Z</time></trkpt>
<trkpt lat="38.989576" lon="-119.906556"><ele>2332.0</ele><time>2026-05-08T23:45:43Z</time></trkpt>
<trkpt lat="38.989683" lon="-119.906506"><ele>2334.2</ele><time>2026-05-08T23:46:00Z</time></trkpt>
<trkpt lat="38.989742" lon="-119.906436"><ele>2336.6</ele><time>2026-05-08T23:46:11Z</time></trkpt>
<trkpt lat="38.989824" lon="-119.906433"><ele>2337.6</ele><time>2026-05-08T23:46:22Z</time></trkpt>
<trkpt lat="38.989918" lon="-119.906373"><ele>2339.8</ele><time>2026-05-08T23:46:37Z</time></trkpt>
<trkpt lat="38.990086" lon="-119.906499"><ele>2341.4</ele><time>2026-05-08T23:46:56Z</time></trkpt>
<trkpt lat="38.990213" lon="-119.906484"><ele>2342.4</ele><time>2026-05-08T23:47:11Z</time></trkpt>
<trkpt lat="38.990340" lon="-119.906546"><ele>2344.4</ele><time>2026-05-08T23:47:24Z</time></trkpt>
<trkpt lat="38.990392" lon="-119.906508"><ele>2345.4</ele><time>2026-05-08T23:47:31Z</time></trkpt>
<trkpt lat="38.990526" lon="-119.906271"><ele>2344.6</ele><time>2026-05-08T23:47:51Z</time></trkpt>
<trkpt lat="38.990545" lon="-119.906154"><ele>2343.6</ele><time>2026-05-08T23:48:00Z</time></trkpt>
<trkpt lat="38.990698" lon="-119.905848"><ele>2339.8</ele><time>2026-05-08T23:48:27Z</time></trkpt>
<trkpt lat="38.990754" lon="-119.905566"><ele>2336.2</ele><time>2026-05-08T23:48:47Z</time></trkpt>
<trkpt lat="38.990861" lon="-119.905606"><ele>2334.0</ele><time>2026-05-08T23:48:57Z</time></trkpt>
<trkpt lat="38.990974" lon="-119.905588"><ele>2332.6</ele><time>2026-05-08T23:49:05Z</time></trkpt>
<trkpt lat="38.991212" lon="-119.905633"><ele>2330.0</ele><time>2026-05-08T23:49:24Z</time></trkpt>
<trkpt lat="38.991290" lon="-119.905573"><ele>2329.8</ele><time>2026-05-08T23:49:32Z</time></trkpt>
<trkpt lat="38.991299" lon="-119.905403"><ele>2327.4</ele><time>2026-05-08T23:49:43Z</time></trkpt>
<trkpt lat="38.991155" lon="-119.905078"><ele>2322.6</ele><time>2026-05-08T23:50:13Z</time></trkpt>
<trkpt lat="38.991279" lon="-119.905019"><ele>2321.6</ele><time>2026-05-08T23:50:58Z</time></trkpt>
<trkpt lat="38.991479" lon="-119.904722"><ele>2317.6</ele><time>2026-05-08T23:51:23Z</time></trkpt>
<trkpt lat="38.991468" lon="-119.904576"><ele>2316.4</ele><time>2026-05-08T23:51:32Z</time></trkpt>
<trkpt lat="38.991404" lon="-119.904456"><ele>2316.2</ele><time>2026-05-08T23:51:44Z</time></trkpt>
<trkpt lat="38.991119" lon="-119.904344"><ele>2314.4</ele><time>2026-05-08T23:52:09Z</time></trkpt>
<trkpt lat="38.990870" lon="-119.904160"><ele>2310.6</ele><time>2026-05-08T23:52:36Z</time></trkpt>
<trkpt lat="38.990727" lon="-119.904126"><ele>2309.2</ele><time>2026-05-08T23:52:48Z</time></trkpt>
<trkpt lat="38.990659" lon="-119.903994"><ele>2307.8</ele><time>2026-05-08T23:53:00Z</time></trkpt>
<trkpt lat="38.990563" lon="-119.903909"><ele>2305.6</ele><time>2026-05-08T23:53:09Z</time></trkpt>
<trkpt lat="38.990571" lon="-119.903768"><ele>2304.4</ele><time>2026-05-08T23:53:20Z</time></trkpt>
<trkpt lat="38.990525" lon="-119.903696"><ele>2304.0</ele><time>2026-05-08T23:53:25Z</time></trkpt>
<trkpt lat="38.990469" lon="-119.903442"><ele>2303.2</ele><time>2026-05-08T23:53:42Z</time></trkpt>
<trkpt lat="38.990434" lon="-119.903024"><ele>2306.2</ele><time>2026-05-08T23:54:13Z</time></trkpt>
<trkpt lat="38.990370" lon="-119.902734"><ele>2308.0</ele><time>2026-05-08T23:54:35Z</time></trkpt>
<trkpt lat="38.990354" lon="-119.902396"><ele>2308.4</ele><time>2026-05-08T23:55:02Z</time></trkpt>
<trkpt lat="38.990395" lon="-119.902288"><ele>2309.6</ele><time>2026-05-08T23:55:10Z</time></trkpt>
<trkpt lat="38.990393" lon="-119.901984"><ele>2310.6</ele><time>2026-05-08T23:55:31Z</time></trkpt>
<trkpt lat="38.990440" lon="-119.901804"><ele>2311.0</ele><time>2026-05-08T23:55:46Z</time></trkpt>
<trkpt lat="38.990566" lon="-119.901593"><ele>2312.6</ele><time>2026-05-08T23:56:07Z</time></trkpt>
<trkpt lat="38.990607" lon="-119.901456"><ele>2313.6</ele><time>2026-05-08T23:56:17Z</time></trkpt>
<trkpt lat="38.990699" lon="-119.900864"><ele>2315.8</ele><time>2026-05-08T23:57:02Z</time></trkpt>
<trkpt lat="38.990769" lon="-119.900689"><ele>2316.2</ele><time>2026-05-08T23:57:16Z</time></trkpt>
<trkpt lat="38.990900" lon="-119.900489"><ele>2316.4</ele><time>2026-05-08T23:57:35Z</time></trkpt>
<trkpt lat="38.991464" lon="-119.900120"><ele>2319.4</ele><time>2026-05-08T23:58:35Z</time></trkpt>
<trkpt lat="38.991546" lon="-119.900098"><ele>2319.4</ele><time>2026-05-08T23:58:42Z</time></trkpt>
<trkpt lat="38.991748" lon="-119.899935"><ele>2321.2</ele><time>2026-05-08T23:59:05Z</time></trkpt>
<trkpt lat="38.991861" lon="-119.899790"><ele>2323.0</ele><time>2026-05-08T23:59:18Z</time></trkpt>
<trkpt lat="38.992061" lon="-119.899406"><ele>2323.8</ele><time>2026-05-08T23:59:55Z</time></trkpt>
<trkpt lat="38.992326" lon="-119.899163"><ele>2325.6</ele><time>2026-05-09T00:00:22Z</time></trkpt>
<trkpt lat="38.992398" lon="-119.899001"><ele>2326.4</ele><time>2026-05-09T00:00:37Z</time></trkpt>
<trkpt lat="38.992543" lon="-119.898901"><ele>2329.8</ele><time>2026-05-09T00:00:53Z</time></trkpt>
<trkpt lat="38.992747" lon="-119.898617"><ele>2332.2</ele><time>2026-05-09T00:01:26Z</time></trkpt>
<trkpt lat="38.992956" lon="-119.898217"><ele>2336.8</ele><time>2026-05-09T00:02:06Z</time></trkpt>
<trkpt lat="38.993219" lon="-119.898011"><ele>2339.2</ele><time>2026-05-09T00:02:39Z</time></trkpt>
<trkpt lat="38.993728" lon="-119.897416"><ele>2346.6</ele><time>2026-05-09T00:03:59Z</time></trkpt>
<trkpt lat="38.993886" lon="-119.897258"><ele>2349.8</ele><time>2026-05-09T00:04:24Z</time></trkpt>
<trkpt lat="38.994077" lon="-119.897135"><ele>2353.4</ele><time>2026-05-09T00:04:48Z</time></trkpt>
<trkpt lat="38.994349" lon="-119.897067"><ele>2352.2</ele><time>2026-05-09T00:05:15Z</time></trkpt>
<trkpt lat="38.994557" lon="-119.896970"><ele>2352.4</ele><time>2026-05-09T00:05:40Z</time></trkpt>
<trkpt lat="38.994730" lon="-119.896787"><ele>2356.0</ele><time>2026-05-09T00:06:11Z</time></trkpt>
<trkpt lat="38.994771" lon="-119.896695"><ele>2358.8</ele><time>2026-05-09T00:06:24Z</time></trkpt>
</trkseg></trk>
</gpx>
