<?xml version="1.0" encoding="UTF-8"?>
<gpx version="1.1" creator="Eric Sichak trip reports" xmlns="http://www.topografix.com/GPX/1/1">
<metadata><name>Ski Mountaineering Course – Day 1</name><time>2024-01-27T16:34:56Z</time></metadata>
<trk><name>Ski Mountaineering Course – Day 1</name><type>ski</type><trkseg>
<trkpt lat="39.314237" lon="-120.328473"><ele>2154.0</ele><time>2024-01-27T16:34:56Z</time></trkpt>
<trkpt lat="39.314434" lon="-120.328691"><ele>2153.8</ele><time>2024-01-27T16:35:00Z</time></trkpt>
<trkpt lat="39.314314" lon="-120.328575"><ele>2153.6</ele><time>2024-01-27T16:35:01Z</time></trkpt>
<trkpt lat="39.314219" lon="-120.328563"><ele>2153.6</ele><time>2024-01-27T16:35:02Z</time></trkpt>
<trkpt lat="39.313951" lon="-120.328289"><ele>2152.8</ele><time>2024-01-27T16:35:18Z</time></trkpt>
<trkpt lat="39.313524" lon="-120.328217"><ele>2151.4</ele><time>2024-01-27T16:35:57Z</time></trkpt>
<trkpt lat="39.313369" lon="-120.328133"><ele>2152.0</ele><time>2024-01-27T16:36:12Z</time></trkpt>
<trkpt lat="39.313019" lon="-120.328183"><ele>2153.0</ele><time>2024-01-27T16:36:43Z</time></trkpt>
<trkpt lat="39.312774" lon="-120.328251"><ele>2155.6</ele><time>2024-01-27T16:37:10Z</time></trkpt>
<trkpt lat="39.312728" lon="-120.328242"><ele>2156.2</ele><time>2024-01-27T16:37:17Z</time></trkpt>
<trkpt lat="39.312600" lon="-120.328105"><ele>2158.0</ele><time>2024-01-27T16:37:39Z</time></trkpt>
<trkpt lat="39.312419" lon="-120.328057"><ele>2158.4</ele><time>2024-01-27T16:37:55Z</time></trkpt>
<trkpt lat="39.312048" lon="-120.328064"><ele>2157.2</ele><time>2024-01-27T16:38:28Z</time></trkpt>
<trkpt lat="39.311588" lon="-120.328182"><ele>2155.0</ele><time>2024-01-27T16:39:13Z</time></trkpt>
<trkpt lat="39.311134" lon="-120.328200"><ele>2154.8</ele><time>2024-01-27T16:39:53Z</time></trkpt>
<trkpt lat="39.311031" lon="-120.328164"><ele>2155.8</ele><time>2024-01-27T16:40:10Z</time></trkpt>
<trkpt lat="39.310982" lon="-120.328074"><ele>2155.2</ele><time>2024-01-27T16:40:47Z</time></trkpt>
<trkpt lat="39.310966" lon="-120.327982"><ele>2157.6</ele><time>2024-01-27T16:41:04Z</time></trkpt>
<trkpt lat="39.310822" lon="-120.327747"><ele>2163.2</ele><time>2024-01-27T16:41:43Z</time></trkpt>
<trkpt lat="39.310656" lon="-120.327633"><ele>2165.2</ele><time>2024-01-27T16:42:11Z</time></trkpt>
<trkpt lat="39.310450" lon="-120.327560"><ele>2166.2</ele><time>2024-01-27T16:42:38Z</time></trkpt>
<trkpt lat="39.310422" lon="-120.327455"><ele>2166.2</ele><time>2024-01-27T16:42:50Z</time></trkpt>
<trkpt lat="39.310350" lon="-120.327365"><ele>2167.0</ele><time>2024-01-27T16:43:05Z</time></trkpt>
<trkpt lat="39.310351" lon="-120.327243"><ele>2166.6</ele><time>2024-01-27T16:43:23Z</time></trkpt>
<trkpt lat="39.310283" lon="-120.327169"><ele>2166.8</ele><time>2024-01-27T16:43:33Z</time></trkpt>
<trkpt lat="39.310257" lon="-120.327090"><ele>2168.6</ele><time>2024-01-27T16:43:45Z</time></trkpt>
<trkpt lat="39.310137" lon="-120.327068"><ele>2168.8</ele><time>2024-01-27T16:44:05Z</time></trkpt>
<trkpt lat="39.309954" lon="-120.326941"><ele>2170.8</ele><time>2024-01-27T16:44:49Z</time></trkpt>
<trkpt lat="39.309876" lon="-120.326835"><ele>2173.6</ele><time>2024-01-27T16:45:13Z</time></trkpt>
<trkpt lat="39.309969" lon="-120.326656"><ele>2179.4</ele><time>2024-01-27T16:45:48Z</time></trkpt>
<trkpt lat="39.310029" lon="-120.326632"><ele>2180.0</ele><time>2024-01-27T16:45:58Z</time></trkpt>
<trkpt lat="39.310156" lon="-120.326440"><ele>2184.2</ele><time>2024-01-27T16:46:35Z</time></trkpt>
<trkpt lat="39.310090" lon="-120.326406"><ele>2185.6</ele><time>2024-01-27T16:46:48Z</time></trkpt>
<trkpt lat="39.309984" lon="-120.326236"><ele>2188.6</ele><time>2024-01-27T16:47:52Z</time></trkpt>
<trkpt lat="39.310008" lon="-120.326239"><ele>2188.2</ele><time>2024-01-27T16:48:07Z</time></trkpt>
<trkpt lat="39.309996" lon="-120.326205"><ele>2188.0</ele><time>2024-01-27T16:48:14Z</time></trkpt>
<trkpt lat="39.309951" lon="-120.326190"><ele>2188.0</ele><time>2024-01-27T16:48:29Z</time></trkpt>
<trkpt lat="39.309985" lon="-120.326199"><ele>2188.0</ele><time>2024-01-27T16:48:36Z</time></trkpt>
<trkpt lat="39.309973" lon="-120.326216"><ele>2188.0</ele><time>2024-01-27T16:48:52Z</time></trkpt>
<trkpt lat="39.310028" lon="-120.326188"><ele>2188.0</ele><time>2024-01-27T16:49:04Z</time></trkpt>
<trkpt lat="39.310021" lon="-120.326228"><ele>2188.0</ele><time>2024-01-27T16:49:12Z</time></trkpt>
<trkpt lat="39.309987" lon="-120.326205"><ele>2187.8</ele><time>2024-01-27T16:49:33Z</time></trkpt>
<trkpt lat="39.309985" lon="-120.326252"><ele>2187.6</ele><time>2024-01-27T16:49:52Z</time></trkpt>
<trkpt lat="39.310017" lon="-120.326173"><ele>2187.4</ele><time>2024-01-27T16:50:08Z</time></trkpt>
<trkpt lat="39.309991" lon="-120.326248"><ele>2187.4</ele><time>2024-01-27T16:50:28Z</time></trkpt>
<trkpt lat="39.309987" lon="-120.326173"><ele>2187.4</ele><time>2024-01-27T16:50:48Z</time></trkpt>
<trkpt lat="39.310042" lon="-120.326189"><ele>2187.2</ele><time>2024-01-27T16:51:06Z</time></trkpt>
<trkpt lat="39.309986" lon="-120.326184"><ele>2187.8</ele><time>2024-01-27T16:51:16Z</time></trkpt>
<trkpt lat="39.309979" lon="-120.326144"><ele>2188.2</ele><time>2024-01-27T16:51:22Z</time></trkpt>
<trkpt lat="39.310042" lon="-120.326073"><ele>2190.6</ele><time>2024-01-27T16:51:38Z</time></trkpt>
<trkpt lat="39.310154" lon="-120.326061"><ele>2195.2</ele><time>2024-01-27T16:52:00Z</time></trkpt>
<trkpt lat="39.310186" lon="-120.326001"><ele>2196.6</ele><time>2024-01-27T16:52:11Z</time></trkpt>
<trkpt lat="39.310157" lon="-120.325904"><ele>2198.6</ele><time>2024-01-27T16:52:27Z</time></trkpt>
<trkpt lat="39.310029" lon="-120.325734"><ele>2204.6</ele><time>2024-01-27T16:53:14Z</time></trkpt>
<trkpt lat="39.310154" lon="-120.325598"><ele>2209.2</ele><time>2024-01-27T16:53:49Z</time></trkpt>
<trkpt lat="39.309984" lon="-120.325268"><ele>2215.4</ele><time>2024-01-27T16:55:20Z</time></trkpt>
<trkpt lat="39.310038" lon="-120.325238"><ele>2216.8</ele><time>2024-01-27T16:55:36Z</time></trkpt>
<trkpt lat="39.310039" lon="-120.325205"><ele>2218.0</ele><time>2024-01-27T16:55:41Z</time></trkpt>
<trkpt lat="39.309572" lon="-120.324520"><ele>2234.0</ele><time>2024-01-27T16:57:34Z</time></trkpt>
<trkpt lat="39.309572" lon="-120.324247"><ele>2237.8</ele><time>2024-01-27T16:58:10Z</time></trkpt>
<trkpt lat="39.309450" lon="-120.324166"><ele>2239.4</ele><time>2024-01-27T16:58:29Z</time></trkpt>
<trkpt lat="39.309192" lon="-120.323857"><ele>2247.0</ele><time>2024-01-27T16:59:36Z</time></trkpt>
<trkpt lat="39.309119" lon="-120.323746"><ele>2250.4</ele><time>2024-01-27T16:59:59Z</time></trkpt>
<trkpt lat="39.309118" lon="-120.323676"><ele>2251.8</ele><time>2024-01-27T17:00:10Z</time></trkpt>
<trkpt lat="39.309058" lon="-120.323559"><ele>2254.6</ele><time>2024-01-27T17:00:29Z</time></trkpt>
<trkpt lat="39.308941" lon="-120.323480"><ele>2256.8</ele><time>2024-01-27T17:00:51Z</time></trkpt>
<trkpt lat="39.308903" lon="-120.323413"><ele>2258.2</ele><time>2024-01-27T17:01:03Z</time></trkpt>
<trkpt lat="39.308952" lon="-120.323268"><ele>2261.2</ele><time>2024-01-27T17:01:27Z</time></trkpt>
<trkpt lat="39.308842" lon="-120.323124"><ele>2264.6</ele><time>2024-01-27T17:01:55Z</time></trkpt>
<trkpt lat="39.308909" lon="-120.323077"><ele>2267.2</ele><time>2024-01-27T17:02:19Z</time></trkpt>
<trkpt lat="39.308836" lon="-120.322866"><ele>2272.6</ele><time>2024-01-27T17:02:55Z</time></trkpt>
<trkpt lat="39.308798" lon="-120.322849"><ele>2273.6</ele><time>2024-01-27T17:03:02Z</time></trkpt>
<trkpt lat="39.309018" lon="-120.322791"><ele>2281.8</ele><time>2024-01-27T17:04:07Z</time></trkpt>
<trkpt lat="39.308951" lon="-120.322658"><ele>2284.8</ele><time>2024-01-27T17:04:25Z</time></trkpt>
<trkpt lat="39.308922" lon="-120.322511"><ele>2289.0</ele><time>2024-01-27T17:04:52Z</time></trkpt>
<trkpt lat="39.309139" lon="-120.322472"><ele>2295.4</ele><time>2024-01-27T17:05:37Z</time></trkpt>
<trkpt lat="39.309050" lon="-120.322108"><ele>2302.2</ele><time>2024-01-27T17:06:30Z</time></trkpt>
<trkpt lat="39.309291" lon="-120.321919"><ele>2310.0</ele><time>2024-01-27T17:07:27Z</time></trkpt>
<trkpt lat="39.309119" lon="-120.321332"><ele>2322.6</ele><time>2024-01-27T17:08:59Z</time></trkpt>
<trkpt lat="39.308976" lon="-120.321103"><ele>2327.4</ele><time>2024-01-27T17:09:34Z</time></trkpt>
<trkpt lat="39.308905" lon="-120.321047"><ele>2329.0</ele><time>2024-01-27T17:09:47Z</time></trkpt>
<trkpt lat="39.308779" lon="-120.320803"><ele>2333.6</ele><time>2024-01-27T17:10:26Z</time></trkpt>
<trkpt lat="39.308697" lon="-120.320625"><ele>2336.4</ele><time>2024-01-27T17:10:53Z</time></trkpt>
<trkpt lat="39.308623" lon="-120.320282"><ele>2343.0</ele><time>2024-01-27T17:11:42Z</time></trkpt>
<trkpt lat="39.308459" lon="-120.320243"><ele>2347.8</ele><time>2024-01-27T17:12:13Z</time></trkpt>
<trkpt lat="39.308307" lon="-120.319922"><ele>2353.4</ele><time>2024-01-27T17:13:29Z</time></trkpt>
<trkpt lat="39.308318" lon="-120.319946"><ele>2354.4</ele><time>2024-01-27T17:15:04Z</time></trkpt>
<trkpt lat="39.308307" lon="-120.319901"><ele>2353.8</ele><time>2024-01-27T17:15:45Z</time></trkpt>
<trkpt lat="39.308304" lon="-120.319943"><ele>2355.4</ele><time>2024-01-27T17:19:18Z</time></trkpt>
<trkpt lat="39.308314" lon="-120.319911"><ele>2356.8</ele><time>2024-01-27T17:22:29Z</time></trkpt>
<trkpt lat="39.308059" lon="-120.319623"><ele>2359.8</ele><time>2024-01-27T17:23:37Z</time></trkpt>
<trkpt lat="39.307851" lon="-120.319456"><ele>2364.0</ele><time>2024-01-27T17:24:12Z</time></trkpt>
<trkpt lat="39.307783" lon="-120.319330"><ele>2365.6</ele><time>2024-01-27T17:24:48Z</time></trkpt>
<trkpt lat="39.307691" lon="-120.319264"><ele>2367.6</ele><time>2024-01-27T17:26:03Z</time></trkpt>
<trkpt lat="39.307692" lon="-120.319220"><ele>2371.0</ele><time>2024-01-27T17:36:52Z</time></trkpt>
<trkpt lat="39.307658" lon="-120.319257"><ele>2370.8</ele><time>2024-01-27T17:37:49Z</time></trkpt>
<trkpt lat="39.307700" lon="-120.319238"><ele>2370.4</ele><time>2024-01-27T17:38:42Z</time></trkpt>
<trkpt lat="39.307704" lon="-120.319282"><ele>2371.0</ele><time>2024-01-27T17:39:19Z</time></trkpt>
<trkpt lat="39.307673" lon="-120.319250"><ele>2371.0</ele><time>2024-01-27T17:39:35Z</time></trkpt>
<trkpt lat="39.307714" lon="-120.319254"><ele>2372.2</ele><time>2024-01-27T17:42:46Z</time></trkpt>
<trkpt lat="39.307691" lon="-120.319268"><ele>2371.4</ele><time>2024-01-27T17:44:00Z</time></trkpt>
<trkpt lat="39.307721" lon="-120.319267"><ele>2372.0</ele><time>2024-01-27T17:45:01Z</time></trkpt>
<trkpt lat="39.307699" lon="-120.319258"><ele>2372.2</ele><time>2024-01-27T17:45:57Z</time></trkpt>
<trkpt lat="39.307711" lon="-120.319285"><ele>2371.4</ele><time>2024-01-27T17:46:06Z</time></trkpt>
<trkpt lat="39.307730" lon="-120.319261"><ele>2370.8</ele><time>2024-01-27T17:47:58Z</time></trkpt>
<trkpt lat="39.307711" lon="-120.319251"><ele>2371.0</ele><time>2024-01-27T17:49:02Z</time></trkpt>
<trkpt lat="39.307713" lon="-120.319280"><ele>2371.2</ele><time>2024-01-27T17:49:56Z</time></trkpt>
<trkpt lat="39.307738" lon="-120.319250"><ele>2370.4</ele><time>2024-01-27T17:51:02Z</time></trkpt>
<trkpt lat="39.307700" lon="-120.319266"><ele>2371.8</ele><time>2024-01-27T17:53:05Z</time></trkpt>
<trkpt lat="39.307704" lon="-120.319239"><ele>2373.8</ele><time>2024-01-27T17:54:27Z</time></trkpt>
<trkpt lat="39.307691" lon="-120.319270"><ele>2372.6</ele><time>2024-01-27T17:59:20Z</time></trkpt>
<trkpt lat="39.307713" lon="-120.319269"><ele>2373.6</ele><time>2024-01-27T18:00:27Z</time></trkpt>
<trkpt lat="39.307711" lon="-120.319241"><ele>2369.8</ele><time>2024-01-27T18:01:00Z</time></trkpt>
<trkpt lat="39.307724" lon="-120.319263"><ele>2369.2</ele><time>2024-01-27T18:01:11Z</time></trkpt>
<trkpt lat="39.307707" lon="-120.319244"><ele>2368.4</ele><time>2024-01-27T18:01:33Z</time></trkpt>
<trkpt lat="39.307711" lon="-120.319244"><ele>2371.0</ele><time>2024-01-27T18:02:24Z</time></trkpt>
<trkpt lat="39.307723" lon="-120.319251"><ele>2369.2</ele><time>2024-01-27T18:03:09Z</time></trkpt>
<trkpt lat="39.307745" lon="-120.319206"><ele>2369.6</ele><time>2024-01-27T18:04:28Z</time></trkpt>
<trkpt lat="39.307685" lon="-120.319256"><ele>2370.0</ele><time>2024-01-27T18:08:43Z</time></trkpt>
<trkpt lat="39.307746" lon="-120.319224"><ele>2369.4</ele><time>2024-01-27T18:11:07Z</time></trkpt>
<trkpt lat="39.307705" lon="-120.319274"><ele>2371.6</ele><time>2024-01-27T18:15:00Z</time></trkpt>
<trkpt lat="39.307719" lon="-120.319279"><ele>2370.2</ele><time>2024-01-27T18:15:13Z</time></trkpt>
<trkpt lat="39.307725" lon="-120.319247"><ele>2371.0</ele><time>2024-01-27T18:15:38Z</time></trkpt>
<trkpt lat="39.307723" lon="-120.319273"><ele>2370.8</ele><time>2024-01-27T18:16:24Z</time></trkpt>
<trkpt lat="39.307701" lon="-120.319246"><ele>2371.6</ele><time>2024-01-27T18:18:12Z</time></trkpt>
<trkpt lat="39.307684" lon="-120.319270"><ele>2372.4</ele><time>2024-01-27T18:18:43Z</time></trkpt>
<trkpt lat="39.307765" lon="-120.319243"><ele>2370.4</ele><time>2024-01-27T18:22:16Z</time></trkpt>
<trkpt lat="39.307709" lon="-120.319247"><ele>2372.0</ele><time>2024-01-27T18:26:59Z</time></trkpt>
<trkpt lat="39.307707" lon="-120.319274"><ele>2371.6</ele><time>2024-01-27T18:27:31Z</time></trkpt>
<trkpt lat="39.307698" lon="-120.319230"><ele>2372.6</ele><time>2024-01-27T18:30:49Z</time></trkpt>
<trkpt lat="39.307727" lon="-120.319245"><ele>2373.6</ele><time>2024-01-27T18:34:48Z</time></trkpt>
<trkpt lat="39.307674" lon="-120.319246"><ele>2372.6</ele><time>2024-01-27T18:38:30Z</time></trkpt>
<trkpt lat="39.307678" lon="-120.319220"><ele>2370.0</ele><time>2024-01-27T18:44:08Z</time></trkpt>
<trkpt lat="39.307722" lon="-120.319286"><ele>2369.8</ele><time>2024-01-27T18:45:44Z</time></trkpt>
<trkpt lat="39.307740" lon="-120.319300"><ele>2368.8</ele><time>2024-01-27T18:47:17Z</time></trkpt>
<trkpt lat="39.307719" lon="-120.319279"><ele>2367.6</ele><time>2024-01-27T18:48:12Z</time></trkpt>
<trkpt lat="39.307738" lon="-120.319306"><ele>2368.2</ele><time>2024-01-27T18:48:40Z</time></trkpt>
<trkpt lat="39.307736" lon="-120.319271"><ele>2366.6</ele><time>2024-01-27T18:51:35Z</time></trkpt>
<trkpt lat="39.307718" lon="-120.319281"><ele>2368.4</ele><time>2024-01-27T18:53:48Z</time></trkpt>
<trkpt lat="39.307739" lon="-120.319250"><ele>2366.6</ele><time>2024-01-27T18:59:16Z</time></trkpt>
<trkpt lat="39.307744" lon="-120.319281"><ele>2366.6</ele><time>2024-01-27T19:00:05Z</time></trkpt>
<trkpt lat="39.307703" lon="-120.319213"><ele>2368.4</ele><time>2024-01-27T19:11:46Z</time></trkpt>
<trkpt lat="39.307740" lon="-120.319231"><ele>2373.4</ele><time>2024-01-27T19:34:44Z</time></trkpt>
<trkpt lat="39.307688" lon="-120.319236"><ele>2375.6</ele><time>2024-01-27T19:36:03Z</time></trkpt>
<trkpt lat="39.307743" lon="-120.319238"><ele>2375.4</ele><time>2024-01-27T19:38:48Z</time></trkpt>
<trkpt lat="39.307741" lon="-120.319216"><ele>2378.6</ele><time>2024-01-27T19:44:57Z</time></trkpt>
<trkpt lat="39.307741" lon="-120.319216"><ele>2373.8</ele><time>2024-01-27T19:54:34Z</time></trkpt>
<trkpt lat="39.307711" lon="-120.319195"><ele>2375.2</ele><time>2024-01-27T20:01:21Z</time></trkpt>
<trkpt lat="39.307690" lon="-120.319222"><ele>2375.8</ele><time>2024-01-27T20:01:25Z</time></trkpt>
<trkpt lat="39.307724" lon="-120.319257"><ele>2375.4</ele><time>2024-01-27T20:02:13Z</time></trkpt>
<trkpt lat="39.307693" lon="-120.319231"><ele>2375.8</ele><time>2024-01-27T20:02:23Z</time></trkpt>
<trkpt lat="39.307714" lon="-120.319200"><ele>2376.6</ele><time>2024-01-27T20:04:15Z</time></trkpt>
<trkpt lat="39.307714" lon="-120.319200"><ele>2373.6</ele><time>2024-01-27T20:11:26Z</time></trkpt>
<trkpt lat="39.307753" lon="-120.319221"><ele>2374.0</ele><time>2024-01-27T20:20:24Z</time></trkpt>
<trkpt lat="39.307773" lon="-120.319203"><ele>2371.4</ele><time>2024-01-27T20:22:16Z</time></trkpt>
<trkpt lat="39.307730" lon="-120.319259"><ele>2375.4</ele><time>2024-01-27T20:24:04Z</time></trkpt>
<trkpt lat="39.307721" lon="-120.319219"><ele>2375.4</ele><time>2024-01-27T20:24:32Z</time></trkpt>
<trkpt lat="39.307694" lon="-120.319237"><ele>2376.2</ele><time>2024-01-27T20:24:58Z</time></trkpt>
<trkpt lat="39.307717" lon="-120.319228"><ele>2374.6</ele><time>2024-01-27T20:25:52Z</time></trkpt>
<trkpt lat="39.307712" lon="-120.319205"><ele>2377.4</ele><time>2024-01-27T20:29:09Z</time></trkpt>
<trkpt lat="39.307680" lon="-120.319230"><ele>2376.6</ele><time>2024-01-27T20:29:35Z</time></trkpt>
<trkpt lat="39.307723" lon="-120.319175"><ele>2374.2</ele><time>2024-01-27T20:37:30Z</time></trkpt>
<trkpt lat="39.307734" lon="-120.319219"><ele>2374.0</ele><time>2024-01-27T20:37:52Z</time></trkpt>
<trkpt lat="39.307705" lon="-120.319173"><ele>2374.8</ele><time>2024-01-27T20:38:45Z</time></trkpt>
<trkpt lat="39.307697" lon="-120.319195"><ele>2372.8</ele><time>2024-01-27T20:42:11Z</time></trkpt>
<trkpt lat="39.307704" lon="-120.319164"><ele>2373.4</ele><time>2024-01-27T20:44:52Z</time></trkpt>
<trkpt lat="39.307733" lon="-120.319160"><ele>2373.0</ele><time>2024-01-27T20:47:02Z</time></trkpt>
<trkpt lat="39.307725" lon="-120.319153"><ele>2369.2</ele><time>2024-01-27T20:50:56Z</time></trkpt>
<trkpt lat="39.307770" lon="-120.319158"><ele>2368.4</ele><time>2024-01-27T20:52:55Z</time></trkpt>
<trkpt lat="39.307738" lon="-120.319176"><ele>2371.0</ele><time>2024-01-27T20:53:41Z</time></trkpt>
<trkpt lat="39.307757" lon="-120.319223"><ele>2370.8</ele><time>2024-01-27T20:54:14Z</time></trkpt>
<trkpt lat="39.307683" lon="-120.319244"><ele>2372.2</ele><time>2024-01-27T20:56:43Z</time></trkpt>
<trkpt lat="39.307702" lon="-120.319183"><ele>2372.4</ele><time>2024-01-27T21:06:46Z</time></trkpt>
<trkpt lat="39.307719" lon="-120.319194"><ele>2371.2</ele><time>2024-01-27T21:10:55Z</time></trkpt>
<trkpt lat="39.307684" lon="-120.319241"><ele>2372.8</ele><time>2024-01-27T21:15:03Z</time></trkpt>
<trkpt lat="39.307713" lon="-120.319305"><ele>2371.6</ele><time>2024-01-27T21:15:38Z</time></trkpt>
<trkpt lat="39.307734" lon="-120.319274"><ele>2371.6</ele><time>2024-01-27T21:16:19Z</time></trkpt>
<trkpt lat="39.307671" lon="-120.319234"><ele>2373.0</ele><time>2024-01-27T21:17:39Z</time></trkpt>
<trkpt lat="39.307711" lon="-120.319225"><ele>2372.4</ele><time>2024-01-27T21:18:54Z</time></trkpt>
<trkpt lat="39.307672" lon="-120.319258"><ele>2373.8</ele><time>2024-01-27T21:30:45Z</time></trkpt>
<trkpt lat="39.307499" lon="-120.318944"><ele>2378.0</ele><time>2024-01-27T21:32:36Z</time></trkpt>
<trkpt lat="39.307228" lon="-120.318611"><ele>2385.0</ele><time>2024-01-27T21:33:29Z</time></trkpt>
<trkpt lat="39.306616" lon="-120.318206"><ele>2395.4</ele><time>2024-01-27T21:35:07Z</time></trkpt>
<trkpt lat="39.306549" lon="-120.317907"><ele>2399.8</ele><time>2024-01-27T21:35:44Z</time></trkpt>
<trkpt lat="39.306567" lon="-120.317647"><ele>2403.8</ele><time>2024-01-27T21:36:17Z</time></trkpt>
<trkpt lat="39.306544" lon="-120.317529"><ele>2405.0</ele><time>2024-01-27T21:36:29Z</time></trkpt>
<trkpt lat="39.306423" lon="-120.317226"><ele>2408.6</ele><time>2024-01-27T21:37:05Z</time></trkpt>
<trkpt lat="39.306378" lon="-120.317019"><ele>2412.6</ele><time>2024-01-27T21:37:35Z</time></trkpt>
<trkpt lat="39.306320" lon="-120.316924"><ele>2414.6</ele><time>2024-01-27T21:37:49Z</time></trkpt>
<trkpt lat="39.306305" lon="-120.316806"><ele>2415.8</ele><time>2024-01-27T21:38:04Z</time></trkpt>
<trkpt lat="39.306192" lon="-120.316575"><ele>2419.0</ele><time>2024-01-27T21:38:38Z</time></trkpt>
<trkpt lat="39.306181" lon="-120.316481"><ele>2419.4</ele><time>2024-01-27T21:38:49Z</time></trkpt>
<trkpt lat="39.306191" lon="-120.316470"><ele>2414.8</ele><time>2024-01-27T21:40:25Z</time></trkpt>
<trkpt lat="39.306070" lon="-120.316583"><ele>2419.4</ele><time>2024-01-27T21:41:09Z</time></trkpt>
<trkpt lat="39.305994" lon="-120.316603"><ele>2420.6</ele><time>2024-01-27T21:43:01Z</time></trkpt>
<trkpt lat="39.306000" lon="-120.316627"><ele>2422.2</ele><time>2024-01-27T21:43:18Z</time></trkpt>
<trkpt lat="39.305983" lon="-120.316446"><ele>2424.6</ele><time>2024-01-27T21:43:35Z</time></trkpt>
<trkpt lat="39.305900" lon="-120.316179"><ele>2428.6</ele><time>2024-01-27T21:44:02Z</time></trkpt>
<trkpt lat="39.305839" lon="-120.316151"><ele>2430.2</ele><time>2024-01-27T21:44:10Z</time></trkpt>
<trkpt lat="39.305712" lon="-120.316180"><ele>2434.4</ele><time>2024-01-27T21:44:31Z</time></trkpt>
<trkpt lat="39.305687" lon="-120.316362"><ele>2439.0</ele><time>2024-01-27T21:45:06Z</time></trkpt>
<trkpt lat="39.305596" lon="-120.316389"><ele>2441.4</ele><time>2024-01-27T21:45:23Z</time></trkpt>
<trkpt lat="39.305611" lon="-120.316502"><ele>2443.8</ele><time>2024-01-27T21:45:36Z</time></trkpt>
<trkpt lat="39.305437" lon="-120.316587"><ele>2448.2</ele><time>2024-01-27T21:46:05Z</time></trkpt>
<trkpt lat="39.305493" lon="-120.316684"><ele>2451.4</ele><time>2024-01-27T21:46:23Z</time></trkpt>
<trkpt lat="39.305463" lon="-120.316922"><ele>2456.6</ele><time>2024-01-27T21:46:56Z</time></trkpt>
<trkpt lat="39.305408" lon="-120.316902"><ele>2459.4</ele><time>2024-01-27T21:47:17Z</time></trkpt>
<trkpt lat="39.305297" lon="-120.317192"><ele>2466.8</ele><time>2024-01-27T21:48:16Z</time></trkpt>
<trkpt lat="39.305216" lon="-120.317294"><ele>2469.6</ele><time>2024-01-27T21:48:40Z</time></trkpt>
<trkpt lat="39.305156" lon="-120.317338"><ele>2471.6</ele><time>2024-01-27T21:48:57Z</time></trkpt>
<trkpt lat="39.304919" lon="-120.317341"><ele>2477.4</ele><time>2024-01-27T21:50:00Z</time></trkpt>
<trkpt lat="39.304732" lon="-120.317472"><ele>2478.4</ele><time>2024-01-27T21:50:22Z</time></trkpt>
<trkpt lat="39.304646" lon="-120.317484"><ele>2480.2</ele><time>2024-01-27T21:52:43Z</time></trkpt>
<trkpt lat="39.304569" lon="-120.317570"><ele>2480.8</ele><time>2024-01-27T21:54:07Z</time></trkpt>
<trkpt lat="39.304274" lon="-120.317724"><ele>2486.0</ele><time>2024-01-27T21:55:00Z</time></trkpt>
<trkpt lat="39.304066" lon="-120.317725"><ele>2489.4</ele><time>2024-01-27T21:55:25Z</time></trkpt>
<trkpt lat="39.303251" lon="-120.317569"><ele>2492.4</ele><time>2024-01-27T21:56:41Z</time></trkpt>
<trkpt lat="39.302970" lon="-120.317529"><ele>2496.6</ele><time>2024-01-27T21:57:14Z</time></trkpt>
<trkpt lat="39.302869" lon="-120.317455"><ele>2498.2</ele><time>2024-01-27T21:57:31Z</time></trkpt>
<trkpt lat="39.302720" lon="-120.317507"><ele>2498.6</ele><time>2024-01-27T21:57:47Z</time></trkpt>
<trkpt lat="39.302460" lon="-120.317333"><ele>2501.2</ele><time>2024-01-27T21:58:19Z</time></trkpt>
<trkpt lat="39.302127" lon="-120.317203"><ele>2505.0</ele><time>2024-01-27T21:59:00Z</time></trkpt>
<trkpt lat="39.301830" lon="-120.317108"><ele>2501.6</ele><time>2024-01-27T21:59:17Z</time></trkpt>
<trkpt lat="39.301702" lon="-120.317105"><ele>2497.6</ele><time>2024-01-27T21:59:23Z</time></trkpt>
<trkpt lat="39.301224" lon="-120.316984"><ele>2492.2</ele><time>2024-01-27T21:59:47Z</time></trkpt>
<trkpt lat="39.300797" lon="-120.316759"><ele>2487.0</ele><time>2024-01-27T22:00:15Z</time></trkpt>
<trkpt lat="39.300058" lon="-120.316368"><ele>2489.6</ele><time>2024-01-27T22:01:27Z</time></trkpt>
<trkpt lat="39.299820" lon="-120.316307"><ele>2491.6</ele><time>2024-01-27T22:01:54Z</time></trkpt>
<trkpt lat="39.299538" lon="-120.316329"><ele>2494.6</ele><time>2024-01-27T22:02:27Z</time></trkpt>
<trkpt lat="39.299453" lon="-120.316245"><ele>2496.8</ele><time>2024-01-27T22:02:44Z</time></trkpt>
<trkpt lat="39.299316" lon="-120.316223"><ele>2499.8</ele><time>2024-01-27T22:03:03Z</time></trkpt>
<trkpt lat="39.299040" lon="-120.315943"><ele>2505.6</ele><time>2024-01-27T22:03:45Z</time></trkpt>
<trkpt lat="39.298551" lon="-120.315603"><ele>2510.6</ele><time>2024-01-27T22:05:08Z</time></trkpt>
<trkpt lat="39.298464" lon="-120.315579"><ele>2511.0</ele><time>2024-01-27T22:05:37Z</time></trkpt>
<trkpt lat="39.298428" lon="-120.315513"><ele>2508.6</ele><time>2024-01-27T22:06:13Z</time></trkpt>
<trkpt lat="39.298480" lon="-120.315494"><ele>2507.8</ele><time>2024-01-27T22:07:22Z</time></trkpt>
<trkpt lat="39.298551" lon="-120.315587"><ele>2510.4</ele><time>2024-01-27T22:07:47Z</time></trkpt>
<trkpt lat="39.298542" lon="-120.315620"><ele>2510.8</ele><time>2024-01-27T22:08:15Z</time></trkpt>
<trkpt lat="39.298530" lon="-120.315566"><ele>2514.0</ele><time>2024-01-27T22:11:47Z</time></trkpt>
<trkpt lat="39.298530" lon="-120.315585"><ele>2517.2</ele><time>2024-01-27T22:17:29Z</time></trkpt>
<trkpt lat="39.298509" lon="-120.315584"><ele>2516.6</ele><time>2024-01-27T22:17:56Z</time></trkpt>
<trkpt lat="39.298641" lon="-120.315581"><ele>2513.6</ele><time>2024-01-27T22:22:49Z</time></trkpt>
<trkpt lat="39.298547" lon="-120.315570"><ele>2515.4</ele><time>2024-01-27T22:23:10Z</time></trkpt>
<trkpt lat="39.298527" lon="-120.315618"><ele>2516.6</ele><time>2024-01-27T22:23:44Z</time></trkpt>
<trkpt lat="39.298554" lon="-120.315594"><ele>2516.0</ele><time>2024-01-27T22:24:38Z</time></trkpt>
<trkpt lat="39.298533" lon="-120.315610"><ele>2517.0</ele><time>2024-01-27T22:24:57Z</time></trkpt>
<trkpt lat="39.298537" lon="-120.315594"><ele>2519.8</ele><time>2024-01-27T22:29:07Z</time></trkpt>
<trkpt lat="39.298509" lon="-120.315596"><ele>2519.0</ele><time>2024-01-27T22:30:40Z</time></trkpt>
<trkpt lat="39.298470" lon="-120.315564"><ele>2518.0</ele><time>2024-01-27T22:31:12Z</time></trkpt>
<trkpt lat="39.298473" lon="-120.315578"><ele>2515.2</ele><time>2024-01-27T22:35:17Z</time></trkpt>
<trkpt lat="39.298454" lon="-120.315519"><ele>2513.8</ele><time>2024-01-27T22:39:09Z</time></trkpt>
<trkpt lat="39.298533" lon="-120.315547"><ele>2513.0</ele><time>2024-01-27T22:41:45Z</time></trkpt>
<trkpt lat="39.298520" lon="-120.315505"><ele>2511.4</ele><time>2024-01-27T22:42:01Z</time></trkpt>
<trkpt lat="39.298547" lon="-120.315512"><ele>2510.8</ele><time>2024-01-27T22:42:04Z</time></trkpt>
<trkpt lat="39.298560" lon="-120.315468"><ele>2507.8</ele><time>2024-01-27T22:42:44Z</time></trkpt>
<trkpt lat="39.298544" lon="-120.315461"><ele>2504.8</ele><time>2024-01-27T22:43:09Z</time></trkpt>
<trkpt lat="39.298570" lon="-120.315458"><ele>2504.0</ele><time>2024-01-27T22:43:13Z</time></trkpt>
<trkpt lat="39.298545" lon="-120.315421"><ele>2501.2</ele><time>2024-01-27T22:43:51Z</time></trkpt>
<trkpt lat="39.298581" lon="-120.315420"><ele>2500.2</ele><time>2024-01-27T22:44:10Z</time></trkpt>
<trkpt lat="39.298571" lon="-120.315388"><ele>2497.6</ele><time>2024-01-27T22:45:42Z</time></trkpt>
<trkpt lat="39.298520" lon="-120.315462"><ele>2505.2</ele><time>2024-01-27T22:47:30Z</time></trkpt>
<trkpt lat="39.298538" lon="-120.315464"><ele>2503.8</ele><time>2024-01-27T22:49:18Z</time></trkpt>
<trkpt lat="39.298528" lon="-120.315485"><ele>2507.2</ele><time>2024-01-27T22:50:00Z</time></trkpt>
<trkpt lat="39.298496" lon="-120.315585"><ele>2509.8</ele><time>2024-01-27T22:50:47Z</time></trkpt>
<trkpt lat="39.298497" lon="-120.315567"><ele>2516.4</ele><time>2024-01-27T22:52:30Z</time></trkpt>
<trkpt lat="39.298496" lon="-120.315587"><ele>2515.0</ele><time>2024-01-27T22:53:15Z</time></trkpt>
<trkpt lat="39.298529" lon="-120.315550"><ele>2515.0</ele><time>2024-01-27T22:54:49Z</time></trkpt>
<trkpt lat="39.298540" lon="-120.315562"><ele>2512.8</ele><time>2024-01-27T22:58:32Z</time></trkpt>
<trkpt lat="39.298540" lon="-120.315562"><ele>2515.6</ele><time>2024-01-27T23:00:39Z</time></trkpt>
<trkpt lat="39.298519" lon="-120.315594"><ele>2517.8</ele><time>2024-01-27T23:01:11Z</time></trkpt>
<trkpt lat="39.298507" lon="-120.315587"><ele>2516.0</ele><time>2024-01-27T23:02:29Z</time></trkpt>
<trkpt lat="39.298507" lon="-120.315587"><ele>2519.0</ele><time>2024-01-27T23:03:24Z</time></trkpt>
<trkpt lat="39.298481" lon="-120.315566"><ele>2518.8</ele><time>2024-01-27T23:04:49Z</time></trkpt>
<trkpt lat="39.298484" lon="-120.315588"><ele>2518.0</ele><time>2024-01-27T23:04:57Z</time></trkpt>
<trkpt lat="39.298484" lon="-120.315537"><ele>2517.8</ele><time>2024-01-27T23:05:11Z</time></trkpt>
<trkpt lat="39.298530" lon="-120.315533"><ele>2517.4</ele><time>2024-01-27T23:05:27Z</time></trkpt>
<trkpt lat="39.298560" lon="-120.315465"><ele>2512.8</ele><time>2024-01-27T23:05:48Z</time></trkpt>
<trkpt lat="39.298541" lon="-120.315418"><ele>2507.6</ele><time>2024-01-27T23:06:01Z</time></trkpt>
<trkpt lat="39.298568" lon="-120.315399"><ele>2505.2</ele><time>2024-01-27T23:06:06Z</time></trkpt>
<trkpt lat="39.298581" lon="-120.315318"><ele>2500.4</ele><time>2024-01-27T23:06:15Z</time></trkpt>
<trkpt lat="39.298544" lon="-120.315237"><ele>2496.4</ele><time>2024-01-27T23:06:29Z</time></trkpt>
<trkpt lat="39.298552" lon="-120.315262"><ele>2494.6</ele><time>2024-01-27T23:09:24Z</time></trkpt>
<trkpt lat="39.298582" lon="-120.315184"><ele>2493.8</ele><time>2024-01-27T23:10:21Z</time></trkpt>
<trkpt lat="39.298667" lon="-120.315200"><ele>2492.6</ele><time>2024-01-27T23:10:23Z</time></trkpt>
<trkpt lat="39.298740" lon="-120.315142"><ele>2488.2</ele><time>2024-01-27T23:10:25Z</time></trkpt>
<trkpt lat="39.298769" lon="-120.314941"><ele>2481.8</ele><time>2024-01-27T23:10:28Z</time></trkpt>
<trkpt lat="39.298803" lon="-120.314955"><ele>2477.4</ele><time>2024-01-27T23:10:29Z</time></trkpt>
<trkpt lat="39.298877" lon="-120.314940"><ele>2475.6</ele><time>2024-01-27T23:10:30Z</time></trkpt>
<trkpt lat="39.298909" lon="-120.314890"><ele>2472.0</ele><time>2024-01-27T23:10:31Z</time></trkpt>
<trkpt lat="39.298886" lon="-120.314719"><ele>2465.8</ele><time>2024-01-27T23:10:33Z</time></trkpt>
<trkpt lat="39.298895" lon="-120.314673"><ele>2461.8</ele><time>2024-01-27T23:10:34Z</time></trkpt>
<trkpt lat="39.298989" lon="-120.314685"><ele>2457.8</ele><time>2024-01-27T23:10:36Z</time></trkpt>
<trkpt lat="39.299033" lon="-120.314607"><ele>2451.4</ele><time>2024-01-27T23:10:38Z</time></trkpt>
<trkpt lat="39.299138" lon="-120.314616"><ele>2447.8</ele><time>2024-01-27T23:10:40Z</time></trkpt>
<trkpt lat="39.299170" lon="-120.314510"><ele>2441.8</ele><time>2024-01-27T23:10:42Z</time></trkpt>
<trkpt lat="39.299169" lon="-120.314318"><ele>2432.4</ele><time>2024-01-27T23:10:45Z</time></trkpt>
<trkpt lat="39.299300" lon="-120.314390"><ele>2428.0</ele><time>2024-01-27T23:10:48Z</time></trkpt>
<trkpt lat="39.299380" lon="-120.314322"><ele>2423.6</ele><time>2024-01-27T23:10:50Z</time></trkpt>
<trkpt lat="39.299351" lon="-120.314023"><ele>2413.2</ele><time>2024-01-27T23:10:54Z</time></trkpt>
<trkpt lat="39.299382" lon="-120.313923"><ele>2410.6</ele><time>2024-01-27T23:10:56Z</time></trkpt>
<trkpt lat="39.299376" lon="-120.313887"><ele>2407.0</ele><time>2024-01-27T23:10:59Z</time></trkpt>
<trkpt lat="39.299465" lon="-120.313919"><ele>2406.4</ele><time>2024-01-27T23:11:02Z</time></trkpt>
<trkpt lat="39.299558" lon="-120.314030"><ele>2404.4</ele><time>2024-01-27T23:11:04Z</time></trkpt>
<trkpt lat="39.299591" lon="-120.313893"><ele>2396.4</ele><time>2024-01-27T23:11:08Z</time></trkpt>
<trkpt lat="39.299627" lon="-120.313878"><ele>2394.0</ele><time>2024-01-27T23:11:10Z</time></trkpt>
<trkpt lat="39.299653" lon="-120.313898"><ele>2388.6</ele><time>2024-01-27T23:12:58Z</time></trkpt>
<trkpt lat="39.299687" lon="-120.313810"><ele>2388.2</ele><time>2024-01-27T23:13:35Z</time></trkpt>
<trkpt lat="39.299677" lon="-120.313581"><ele>2382.8</ele><time>2024-01-27T23:13:42Z</time></trkpt>
<trkpt lat="39.299521" lon="-120.313280"><ele>2378.4</ele><time>2024-01-27T23:13:59Z</time></trkpt>
<trkpt lat="39.299578" lon="-120.313187"><ele>2376.0</ele><time>2024-01-27T23:14:02Z</time></trkpt>
<trkpt lat="39.299386" lon="-120.312964"><ele>2365.4</ele><time>2024-01-27T23:14:07Z</time></trkpt>
<trkpt lat="39.299192" lon="-120.312660"><ele>2359.8</ele><time>2024-01-27T23:14:14Z</time></trkpt>
<trkpt lat="39.299162" lon="-120.312641"><ele>2358.0</ele><time>2024-01-27T23:14:15Z</time></trkpt>
<trkpt lat="39.299162" lon="-120.312652"><ele>2354.8</ele><time>2024-01-27T23:14:43Z</time></trkpt>
<trkpt lat="39.299142" lon="-120.312427"><ele>2354.4</ele><time>2024-01-27T23:14:50Z</time></trkpt>
<trkpt lat="39.299117" lon="-120.312354"><ele>2352.2</ele><time>2024-01-27T23:14:51Z</time></trkpt>
<trkpt lat="39.299051" lon="-120.312311"><ele>2345.2</ele><time>2024-01-27T23:14:58Z</time></trkpt>
<trkpt lat="39.299058" lon="-120.312271"><ele>2345.0</ele><time>2024-01-27T23:14:59Z</time></trkpt>
<trkpt lat="39.299196" lon="-120.312109"><ele>2341.4</ele><time>2024-01-27T23:15:03Z</time></trkpt>
<trkpt lat="39.299255" lon="-120.312080"><ele>2340.0</ele><time>2024-01-27T23:15:04Z</time></trkpt>
<trkpt lat="39.299366" lon="-120.312117"><ele>2335.8</ele><time>2024-01-27T23:15:14Z</time></trkpt>
<trkpt lat="39.299431" lon="-120.312084"><ele>2335.0</ele><time>2024-01-27T23:15:19Z</time></trkpt>
<trkpt lat="39.299507" lon="-120.311983"><ele>2333.6</ele><time>2024-01-27T23:15:22Z</time></trkpt>
<trkpt lat="39.299548" lon="-120.311841"><ele>2330.2</ele><time>2024-01-27T23:15:25Z</time></trkpt>
<trkpt lat="39.299672" lon="-120.311757"><ele>2327.0</ele><time>2024-01-27T23:15:28Z</time></trkpt>
<trkpt lat="39.299769" lon="-120.311750"><ele>2324.6</ele><time>2024-01-27T23:15:35Z</time></trkpt>
<trkpt lat="39.299767" lon="-120.311799"><ele>2324.2</ele><time>2024-01-27T23:16:06Z</time></trkpt>
<trkpt lat="39.299765" lon="-120.311763"><ele>2323.4</ele><time>2024-01-27T23:16:18Z</time></trkpt>
<trkpt lat="39.299793" lon="-120.311754"><ele>2323.4</ele><time>2024-01-27T23:16:34Z</time></trkpt>
<trkpt lat="39.299756" lon="-120.311792"><ele>2321.8</ele><time>2024-01-27T23:17:07Z</time></trkpt>
<trkpt lat="39.299789" lon="-120.311732"><ele>2322.0</ele><time>2024-01-27T23:20:13Z</time></trkpt>
<trkpt lat="39.299772" lon="-120.311788"><ele>2322.2</ele><time>2024-01-27T23:21:09Z</time></trkpt>
<trkpt lat="39.299793" lon="-120.311734"><ele>2322.8</ele><time>2024-01-27T23:22:04Z</time></trkpt>
<trkpt lat="39.299755" lon="-120.311763"><ele>2322.0</ele><time>2024-01-27T23:22:53Z</time></trkpt>
<trkpt lat="39.299815" lon="-120.311781"><ele>2321.8</ele><time>2024-01-27T23:24:19Z</time></trkpt>
<trkpt lat="39.299787" lon="-120.311775"><ele>2321.8</ele><time>2024-01-27T23:24:30Z</time></trkpt>
<trkpt lat="39.299804" lon="-120.311756"><ele>2322.4</ele><time>2024-01-27T23:25:01Z</time></trkpt>
<trkpt lat="39.299774" lon="-120.311765"><ele>2322.8</ele><time>2024-01-27T23:25:11Z</time></trkpt>
<trkpt lat="39.299792" lon="-120.311750"><ele>2323.0</ele><time>2024-01-27T23:25:19Z</time></trkpt>
<trkpt lat="39.299812" lon="-120.311805"><ele>2322.8</ele><time>2024-01-27T23:25:33Z</time></trkpt>
<trkpt lat="39.299753" lon="-120.311785"><ele>2322.4</ele><time>2024-01-27T23:25:55Z</time></trkpt>
<trkpt lat="39.299787" lon="-120.311762"><ele>2322.4</ele><time>2024-01-27T23:26:13Z</time></trkpt>
<trkpt lat="39.299783" lon="-120.311803"><ele>2322.0</ele><time>2024-01-27T23:26:47Z</time></trkpt>
<trkpt lat="39.299824" lon="-120.311815"><ele>2321.8</ele><time>2024-01-27T23:27:07Z</time></trkpt>
<trkpt lat="39.299802" lon="-120.311806"><ele>2322.0</ele><time>2024-01-27T23:27:18Z</time></trkpt>
<trkpt lat="39.299936" lon="-120.311801"><ele>2322.8</ele><time>2024-01-27T23:27:38Z</time></trkpt>
<trkpt lat="39.300240" lon="-120.311919"><ele>2325.8</ele><time>2024-01-27T23:28:17Z</time></trkpt>
<trkpt lat="39.300364" lon="-120.312001"><ele>2326.8</ele><time>2024-01-27T23:28:34Z</time></trkpt>
<trkpt lat="39.300483" lon="-120.312160"><ele>2327.6</ele><time>2024-01-27T23:28:57Z</time></trkpt>
<trkpt lat="39.300768" lon="-120.312302"><ele>2327.6</ele><time>2024-01-27T23:29:38Z</time></trkpt>
<trkpt lat="39.300955" lon="-120.312301"><ele>2326.8</ele><time>2024-01-27T23:30:01Z</time></trkpt>
<trkpt lat="39.300996" lon="-120.312354"><ele>2326.4</ele><time>2024-01-27T23:30:11Z</time></trkpt>
<trkpt lat="39.301143" lon="-120.312414"><ele>2325.8</ele><time>2024-01-27T23:30:24Z</time></trkpt>
<trkpt lat="39.301475" lon="-120.312255"><ele>2322.4</ele><time>2024-01-27T23:30:53Z</time></trkpt>
<trkpt lat="39.301473" lon="-120.312020"><ele>2320.0</ele><time>2024-01-27T23:31:12Z</time></trkpt>
<trkpt lat="39.301820" lon="-120.311545"><ele>2314.4</ele><time>2024-01-27T23:31:59Z</time></trkpt>
<trkpt lat="39.301905" lon="-120.311476"><ele>2313.4</ele><time>2024-01-27T23:32:12Z</time></trkpt>
<trkpt lat="39.301991" lon="-120.311456"><ele>2313.8</ele><time>2024-01-27T23:32:26Z</time></trkpt>
<trkpt lat="39.302145" lon="-120.311260"><ele>2315.4</ele><time>2024-01-27T23:32:51Z</time></trkpt>
<trkpt lat="39.302195" lon="-120.311041"><ele>2314.8</ele><time>2024-01-27T23:33:08Z</time></trkpt>
<trkpt lat="39.302334" lon="-120.310886"><ele>2314.2</ele><time>2024-01-27T23:33:25Z</time></trkpt>
<trkpt lat="39.302350" lon="-120.310811"><ele>2313.4</ele><time>2024-01-27T23:33:30Z</time></trkpt>
<trkpt lat="39.302308" lon="-120.310694"><ele>2311.4</ele><time>2024-01-27T23:33:39Z</time></trkpt>
<trkpt lat="39.302466" lon="-120.310578"><ele>2315.2</ele><time>2024-01-27T23:33:59Z</time></trkpt>
<trkpt lat="39.303338" lon="-120.310532"><ele>2332.0</ele><time>2024-01-27T23:35:52Z</time></trkpt>
<trkpt lat="39.303578" lon="-120.310520"><ele>2332.4</ele><time>2024-01-27T23:36:19Z</time></trkpt>
<trkpt lat="39.303783" lon="-120.310562"><ele>2332.8</ele><time>2024-01-27T23:36:41Z</time></trkpt>
<trkpt lat="39.304210" lon="-120.310495"><ele>2338.6</ele><time>2024-01-27T23:37:27Z</time></trkpt>
<trkpt lat="39.304373" lon="-120.310522"><ele>2339.4</ele><time>2024-01-27T23:37:42Z</time></trkpt>
<trkpt lat="39.304634" lon="-120.310505"><ele>2339.6</ele><time>2024-01-27T23:38:06Z</time></trkpt>
<trkpt lat="39.305081" lon="-120.310655"><ele>2338.4</ele><time>2024-01-27T23:38:42Z</time></trkpt>
<trkpt lat="39.305179" lon="-120.310760"><ele>2337.0</ele><time>2024-01-27T23:38:51Z</time></trkpt>
<trkpt lat="39.305286" lon="-120.310939"><ele>2335.8</ele><time>2024-01-27T23:39:08Z</time></trkpt>
<trkpt lat="39.305354" lon="-120.311170"><ele>2335.8</ele><time>2024-01-27T23:39:23Z</time></trkpt>
<trkpt lat="39.305411" lon="-120.311560"><ele>2337.8</ele><time>2024-01-27T23:39:55Z</time></trkpt>
<trkpt lat="39.305329" lon="-120.311759"><ele>2341.4</ele><time>2024-01-27T23:40:19Z</time></trkpt>
<trkpt lat="39.305118" lon="-120.311888"><ele>2342.8</ele><time>2024-01-27T23:40:42Z</time></trkpt>
<trkpt lat="39.305126" lon="-120.312002"><ele>2343.8</ele><time>2024-01-27T23:40:49Z</time></trkpt>
<trkpt lat="39.305225" lon="-120.312135"><ele>2345.8</ele><time>2024-01-27T23:41:04Z</time></trkpt>
<trkpt lat="39.305234" lon="-120.312195"><ele>2347.0</ele><time>2024-01-27T23:41:12Z</time></trkpt>
<trkpt lat="39.305070" lon="-120.312626"><ele>2349.0</ele><time>2024-01-27T23:41:54Z</time></trkpt>
<trkpt lat="39.305130" lon="-120.312868"><ele>2352.6</ele><time>2024-01-27T23:42:19Z</time></trkpt>
<trkpt lat="39.305252" lon="-120.312870"><ele>2356.0</ele><time>2024-01-27T23:42:39Z</time></trkpt>
<trkpt lat="39.305395" lon="-120.313056"><ele>2361.8</ele><time>2024-01-27T23:43:14Z</time></trkpt>
<trkpt lat="39.305481" lon="-120.313071"><ele>2364.8</ele><time>2024-01-27T23:43:31Z</time></trkpt>
<trkpt lat="39.305529" lon="-120.313126"><ele>2366.0</ele><time>2024-01-27T23:43:41Z</time></trkpt>
<trkpt lat="39.305592" lon="-120.313445"><ele>2372.6</ele><time>2024-01-27T23:44:28Z</time></trkpt>
<trkpt lat="39.305594" lon="-120.313577"><ele>2373.6</ele><time>2024-01-27T23:45:11Z</time></trkpt>
<trkpt lat="39.305663" lon="-120.313764"><ele>2376.6</ele><time>2024-01-27T23:45:31Z</time></trkpt>
<trkpt lat="39.305672" lon="-120.313924"><ele>2378.0</ele><time>2024-01-27T23:45:47Z</time></trkpt>
<trkpt lat="39.305620" lon="-120.314412"><ele>2385.4</ele><time>2024-01-27T23:46:35Z</time></trkpt>
<trkpt lat="39.305661" lon="-120.314536"><ele>2388.0</ele><time>2024-01-27T23:46:51Z</time></trkpt>
<trkpt lat="39.305654" lon="-120.314771"><ele>2392.4</ele><time>2024-01-27T23:47:18Z</time></trkpt>
<trkpt lat="39.305574" lon="-120.315138"><ele>2395.6</ele><time>2024-01-27T23:47:51Z</time></trkpt>
<trkpt lat="39.305618" lon="-120.315199"><ele>2396.6</ele><time>2024-01-27T23:47:58Z</time></trkpt>
<trkpt lat="39.305884" lon="-120.315281"><ele>2401.8</ele><time>2024-01-27T23:48:35Z</time></trkpt>
<trkpt lat="39.306092" lon="-120.315449"><ele>2406.6</ele><time>2024-01-27T23:49:10Z</time></trkpt>
<trkpt lat="39.306144" lon="-120.315548"><ele>2408.2</ele><time>2024-01-27T23:50:32Z</time></trkpt>
<trkpt lat="39.306131" lon="-120.315590"><ele>2408.2</ele><time>2024-01-27T23:50:46Z</time></trkpt>
<trkpt lat="39.306259" lon="-120.315669"><ele>2407.6</ele><time>2024-01-27T23:51:07Z</time></trkpt>
<trkpt lat="39.306336" lon="-120.315840"><ele>2405.8</ele><time>2024-01-27T23:51:23Z</time></trkpt>
<trkpt lat="39.306437" lon="-120.316710"><ele>2400.0</ele><time>2024-01-27T23:52:20Z</time></trkpt>
<trkpt lat="39.306400" lon="-120.317203"><ele>2401.8</ele><time>2024-01-27T23:53:02Z</time></trkpt>
<trkpt lat="39.306494" lon="-120.317443"><ele>2399.0</ele><time>2024-01-27T23:53:18Z</time></trkpt>
<trkpt lat="39.306522" lon="-120.317619"><ele>2397.8</ele><time>2024-01-27T23:53:29Z</time></trkpt>
<trkpt lat="39.306521" lon="-120.317879"><ele>2394.8</ele><time>2024-01-27T23:53:39Z</time></trkpt>
<trkpt lat="39.306558" lon="-120.318035"><ele>2392.4</ele><time>2024-01-27T23:53:44Z</time></trkpt>
<trkpt lat="39.306571" lon="-120.318387"><ele>2389.0</ele><time>2024-01-27T23:56:03Z</time></trkpt>
<trkpt lat="39.306599" lon="-120.318376"><ele>2389.4</ele><time>2024-01-27T23:57:22Z</time></trkpt>
<trkpt lat="39.306578" lon="-120.318386"><ele>2389.2</ele><time>2024-01-27T23:57:54Z</time></trkpt>
<trkpt lat="39.306784" lon="-120.318492"><ele>2387.8</ele><time>2024-01-27T23:59:25Z</time></trkpt>
<trkpt lat="39.307030" lon="-120.318707"><ele>2385.0</ele><time>2024-01-27T23:59:35Z</time></trkpt>
<trkpt lat="39.307271" lon="-120.319042"><ele>2379.2</ele><time>2024-01-27T23:59:42Z</time></trkpt>
<trkpt lat="39.307460" lon="-120.319172"><ele>2377.6</ele><time>2024-01-27T23:59:46Z</time></trkpt>
<trkpt lat="39.307728" lon="-120.319514"><ele>2371.2</ele><time>2024-01-27T23:59:52Z</time></trkpt>
<trkpt lat="39.307967" lon="-120.319734"><ele>2367.4</ele><time>2024-01-27T23:59:58Z</time></trkpt>
<trkpt lat="39.308272" lon="-120.319938"><ele>2364.0</ele><time>2024-01-28T00:00:08Z</time></trkpt>
<trkpt lat="39.308332" lon="-120.320014"><ele>2363.6</ele><time>2024-01-28T00:00:10Z</time></trkpt>
<trkpt lat="39.308409" lon="-120.320240"><ele>2360.8</ele><time>2024-01-28T00:00:14Z</time></trkpt>
<trkpt lat="39.308664" lon="-120.320451"><ele>2354.0</ele><time>2024-01-28T00:00:20Z</time></trkpt>
<trkpt lat="39.308900" lon="-120.320838"><ele>2344.4</ele><time>2024-01-28T00:00:27Z</time></trkpt>
<trkpt lat="39.308990" lon="-120.320904"><ele>2342.6</ele><time>2024-01-28T00:00:30Z</time></trkpt>
<trkpt lat="39.309158" lon="-120.321138"><ele>2339.2</ele><time>2024-01-28T00:00:36Z</time></trkpt>
<trkpt lat="39.309436" lon="-120.321325"><ele>2335.8</ele><time>2024-01-28T00:00:45Z</time></trkpt>
<trkpt lat="39.309452" lon="-120.321406"><ele>2335.4</ele><time>2024-01-28T00:00:48Z</time></trkpt>
<trkpt lat="39.309414" lon="-120.321478"><ele>2334.2</ele><time>2024-01-28T00:00:50Z</time></trkpt>
<trkpt lat="39.309316" lon="-120.321557"><ele>2331.8</ele><time>2024-01-28T00:00:53Z</time></trkpt>
<trkpt lat="39.309269" lon="-120.321554"><ele>2328.8</ele><time>2024-01-28T00:01:06Z</time></trkpt>
<trkpt lat="39.309175" lon="-120.321727"><ele>2326.4</ele><time>2024-01-28T00:01:42Z</time></trkpt>
<trkpt lat="39.309225" lon="-120.321845"><ele>2321.4</ele><time>2024-01-28T00:01:45Z</time></trkpt>
<trkpt lat="39.309260" lon="-120.321990"><ele>2320.2</ele><time>2024-01-28T00:01:47Z</time></trkpt>
<trkpt lat="39.309215" lon="-120.322117"><ele>2318.0</ele><time>2024-01-28T00:01:49Z</time></trkpt>
<trkpt lat="39.309108" lon="-120.322202"><ele>2315.2</ele><time>2024-01-28T00:01:51Z</time></trkpt>
<trkpt lat="39.309135" lon="-120.322288"><ele>2310.2</ele><time>2024-01-28T00:01:54Z</time></trkpt>
<trkpt lat="39.309120" lon="-120.322565"><ele>2307.0</ele><time>2024-01-28T00:01:58Z</time></trkpt>
<trkpt lat="39.309102" lon="-120.322600"><ele>2305.4</ele><time>2024-01-28T00:01:59Z</time></trkpt>
<trkpt lat="39.308989" lon="-120.322592"><ele>2300.8</ele><time>2024-01-28T00:02:02Z</time></trkpt>
<trkpt lat="39.308975" lon="-120.322746"><ele>2298.8</ele><time>2024-01-28T00:02:04Z</time></trkpt>
<trkpt lat="39.309001" lon="-120.322813"><ele>2297.2</ele><time>2024-01-28T00:02:05Z</time></trkpt>
<trkpt lat="39.309051" lon="-120.322924"><ele>2290.6</ele><time>2024-01-28T00:02:09Z</time></trkpt>
<trkpt lat="39.309037" lon="-120.322915"><ele>2286.6</ele><time>2024-01-28T00:02:16Z</time></trkpt>
<trkpt lat="39.309104" lon="-120.323124"><ele>2285.0</ele><time>2024-01-28T00:02:21Z</time></trkpt>
<trkpt lat="39.309211" lon="-120.323244"><ele>2280.8</ele><time>2024-01-28T00:02:24Z</time></trkpt>
<trkpt lat="39.309152" lon="-120.323313"><ele>2277.8</ele><time>2024-01-28T00:02:27Z</time></trkpt>
<trkpt lat="39.309150" lon="-120.323334"><ele>2272.2</ele><time>2024-01-28T00:02:37Z</time></trkpt>
<trkpt lat="39.309167" lon="-120.323521"><ele>2270.6</ele><time>2024-01-28T00:02:55Z</time></trkpt>
<trkpt lat="39.309201" lon="-120.323589"><ele>2267.2</ele><time>2024-01-28T00:02:57Z</time></trkpt>
<trkpt lat="39.309219" lon="-120.323581"><ele>2265.6</ele><time>2024-01-28T00:03:16Z</time></trkpt>
<trkpt lat="39.309291" lon="-120.323631"><ele>2265.2</ele><time>2024-01-28T00:03:20Z</time></trkpt>
<trkpt lat="39.309759" lon="-120.324249"><ele>2256.0</ele><time>2024-01-28T00:03:39Z</time></trkpt>
<trkpt lat="39.310006" lon="-120.324480"><ele>2250.4</ele><time>2024-01-28T00:03:53Z</time></trkpt>
<trkpt lat="39.310078" lon="-120.324578"><ele>2248.8</ele><time>2024-01-28T00:04:14Z</time></trkpt>
<trkpt lat="39.310070" lon="-120.324636"><ele>2248.0</ele><time>2024-01-28T00:04:36Z</time></trkpt>
<trkpt lat="39.310108" lon="-120.324637"><ele>2247.8</ele><time>2024-01-28T00:04:46Z</time></trkpt>
<trkpt lat="39.310250" lon="-120.324774"><ele>2246.0</ele><time>2024-01-28T00:04:53Z</time></trkpt>
<trkpt lat="39.310363" lon="-120.324997"><ele>2242.4</ele><time>2024-01-28T00:05:01Z</time></trkpt>
<trkpt lat="39.310323" lon="-120.325056"><ele>2241.8</ele><time>2024-01-28T00:05:06Z</time></trkpt>
<trkpt lat="39.310226" lon="-120.325069"><ele>2240.4</ele><time>2024-01-28T00:05:08Z</time></trkpt>
<trkpt lat="39.310224" lon="-120.325214"><ele>2235.4</ele><time>2024-01-28T00:05:11Z</time></trkpt>
<trkpt lat="39.310189" lon="-120.325266"><ele>2234.0</ele><time>2024-01-28T00:05:12Z</time></trkpt>
<trkpt lat="39.310199" lon="-120.325393"><ele>2231.0</ele><time>2024-01-28T00:05:14Z</time></trkpt>
<trkpt lat="39.310286" lon="-120.325506"><ele>2223.8</ele><time>2024-01-28T00:05:21Z</time></trkpt>
<trkpt lat="39.310294" lon="-120.325569"><ele>2223.8</ele><time>2024-01-28T00:05:23Z</time></trkpt>
<trkpt lat="39.310221" lon="-120.325694"><ele>2222.8</ele><time>2024-01-28T00:05:25Z</time></trkpt>
<trkpt lat="39.310204" lon="-120.325871"><ele>2218.6</ele><time>2024-01-28T00:05:27Z</time></trkpt>
<trkpt lat="39.310257" lon="-120.326049"><ele>2212.0</ele><time>2024-01-28T00:05:30Z</time></trkpt>
<trkpt lat="39.310435" lon="-120.326266"><ele>2205.0</ele><time>2024-01-28T00:05:36Z</time></trkpt>
<trkpt lat="39.310458" lon="-120.326424"><ele>2204.2</ele><time>2024-01-28T00:05:38Z</time></trkpt>
<trkpt lat="39.310500" lon="-120.326511"><ele>2198.2</ele><time>2024-01-28T00:05:41Z</time></trkpt>
<trkpt lat="39.310461" lon="-120.326691"><ele>2196.2</ele><time>2024-01-28T00:05:44Z</time></trkpt>
<trkpt lat="39.310476" lon="-120.326720"><ele>2193.0</ele><time>2024-01-28T00:05:45Z</time></trkpt>
<trkpt lat="39.310756" lon="-120.327033"><ele>2184.0</ele><time>2024-01-28T00:05:55Z</time></trkpt>
<trkpt lat="39.310626" lon="-120.327149"><ele>2181.8</ele><time>2024-01-28T00:06:02Z</time></trkpt>
<trkpt lat="39.310616" lon="-120.327123"><ele>2179.0</ele><time>2024-01-28T00:06:05Z</time></trkpt>
<trkpt lat="39.310775" lon="-120.327373"><ele>2176.0</ele><time>2024-01-28T00:06:23Z</time></trkpt>
<trkpt lat="39.310728" lon="-120.327570"><ele>2174.2</ele><time>2024-01-28T00:06:27Z</time></trkpt>
<trkpt lat="39.310620" lon="-120.327661"><ele>2171.4</ele><time>2024-01-28T00:06:30Z</time></trkpt>
<trkpt lat="39.310782" lon="-120.327753"><ele>2168.0</ele><time>2024-01-28T00:06:47Z</time></trkpt>
<trkpt lat="39.310837" lon="-120.327821"><ele>2167.0</ele><time>2024-01-28T00:06:50Z</time></trkpt>
<trkpt lat="39.311003" lon="-120.328132"><ele>2162.4</ele><time>2024-01-28T00:06:57Z</time></trkpt>
<trkpt lat="39.311110" lon="-120.328241"><ele>2160.6</ele><time>2024-01-28T00:07:02Z</time></trkpt>
<trkpt lat="39.311104" lon="-120.328297"><ele>2158.8</ele><time>2024-01-28T00:07:16Z</time></trkpt>
<trkpt lat="39.311153" lon="-120.328311"><ele>2156.4</ele><time>2024-01-28T00:07:47Z</time></trkpt>
<trkpt lat="39.311136" lon="-120.328296"><ele>2156.6</ele><time>2024-01-28T00:07:57Z</time></trkpt>
<trkpt lat="39.311156" lon="-120.328283"><ele>2155.6</ele><time>2024-01-28T00:08:44Z</time></trkpt>
<trkpt lat="39.311135" lon="-120.328304"><ele>2155.6</ele><time>2024-01-28T00:08:56Z</time></trkpt>
<trkpt lat="39.311126" lon="-120.328277"><ele>2155.2</ele><time>2024-01-28T00:09:14Z</time></trkpt>
<trkpt lat="39.311156" lon="-120.328309"><ele>2154.4</ele><time>2024-01-28T00:09:36Z</time></trkpt>
<trkpt lat="39.311111" lon="-120.328305"><ele>2155.0</ele><time>2024-01-28T00:09:47Z</time></trkpt>
<trkpt lat="39.311141" lon="-120.328277"><ele>2154.8</ele><time>2024-01-28T00:10:04Z</time></trkpt>
<trkpt lat="39.311110" lon="-120.328312"><ele>2154.4</ele><time>2024-01-28T00:10:25Z</time></trkpt>
<trkpt lat="39.311139" lon="-120.328300"><ele>2154.6</ele><time>2024-01-28T00:10:46Z</time></trkpt>
<trkpt lat="39.311127" lon="-120.328280"><ele>2154.0</ele><time>2024-01-28T00:10:53Z</time></trkpt>
<trkpt lat="39.311178" lon="-120.328341"><ele>2154.0</ele><time>2024-01-28T00:11:23Z</time></trkpt>
<trkpt lat="39.311135" lon="-120.328298"><ele>2154.8</ele><time>2024-01-28T00:11:40Z</time></trkpt>
<trkpt lat="39.311134" lon="-120.328330"><ele>2154.6</ele><time>2024-01-28T00:11:56Z</time></trkpt>
<trkpt lat="39.311143" lon="-120.328300"><ele>2154.4</ele><time>2024-01-28T00:12:14Z</time></trkpt>
<trkpt lat="39.311299" lon="-120.328253"><ele>2154.2</ele><time>2024-01-28T00:12:40Z</time></trkpt>
<trkpt lat="39.311147" lon="-120.328276"><ele>2154.6</ele><time>2024-01-28T00:13:05Z</time></trkpt>
<trkpt lat="39.311119" lon="-120.328222"><ele>2154.2</ele><time>2024-01-28T00:13:25Z</time></trkpt>
<trkpt lat="39.311168" lon="-120.328237"><ele>2154.0</ele><time>2024-01-28T00:13:39Z</time></trkpt>
<trkpt lat="39.311106" lon="-120.328239"><ele>2154.0</ele><time>2024-01-28T00:13:53Z</time></trkpt>
<trkpt lat="39.311166" lon="-120.328238"><ele>2154.0</ele><time>2024-01-28T00:14:04Z</time></trkpt>
<trkpt lat="39.311122" lon="-120.328266"><ele>2154.0</ele><time>2024-01-28T00:14:17Z</time></trkpt>
<trkpt lat="39.311178" lon="-120.328266"><ele>2154.0</ele><time>2024-01-28T00:14:39Z</time></trkpt>
<trkpt lat="39.311145" lon="-120.328291"><ele>2154.2</ele><time>2024-01-28T00:14:57Z</time></trkpt>
<trkpt lat="39.311239" lon="-120.328264"><ele>2153.6</ele><time>2024-01-28T00:16:32Z</time></trkpt>
<trkpt lat="39.311159" lon="-120.328280"><ele>2153.8</ele><time>2024-01-28T00:16:47Z</time></trkpt>
<trkpt lat="39.311231" lon="-120.328308"><ele>2153.2</ele><time>2024-01-28T00:17:12Z</time></trkpt>
<trkpt lat="39.311162" lon="-120.328302"><ele>2153.4</ele><time>2024-01-28T00:17:36Z</time></trkpt>
<trkpt lat="39.311168" lon="-120.328271"><ele>2153.8</ele><time>2024-01-28T00:17:43Z</time></trkpt>
<trkpt lat="39.311202" lon="-120.328288"><ele>2153.6</ele><time>2024-01-28T00:18:23Z</time></trkpt>
<trkpt lat="39.311152" lon="-120.328306"><ele>2154.0</ele><time>2024-01-28T00:19:44Z</time></trkpt>
<trkpt lat="39.311347" lon="-120.328283"><ele>2153.0</ele><time>2024-01-28T00:20:01Z</time></trkpt>
<trkpt lat="39.311510" lon="-120.328307"><ele>2153.8</ele><time>2024-01-28T00:20:19Z</time></trkpt>
<trkpt lat="39.311719" lon="-120.328187"><ele>2156.2</ele><time>2024-01-28T00:20:40Z</time></trkpt>
<trkpt lat="39.312086" lon="-120.328151"><ele>2158.6</ele><time>2024-01-28T00:21:24Z</time></trkpt>
<trkpt lat="39.312239" lon="-120.328171"><ele>2159.0</ele><time>2024-01-28T00:21:41Z</time></trkpt>
<trkpt lat="39.312333" lon="-120.328134"><ele>2160.0</ele><time>2024-01-28T00:21:54Z</time></trkpt>
<trkpt lat="39.312516" lon="-120.328143"><ele>2161.0</ele><time>2024-01-28T00:22:14Z</time></trkpt>
<trkpt lat="39.312750" lon="-120.328335"><ele>2160.6</ele><time>2024-01-28T00:22:48Z</time></trkpt>
<trkpt lat="39.313058" lon="-120.328217"><ele>2158.4</ele><time>2024-01-28T00:23:11Z</time></trkpt>
<trkpt lat="39.313190" lon="-120.328200"><ele>2158.2</ele><time>2024-01-28T00:23:23Z</time></trkpt>
<trkpt lat="39.313359" lon="-120.328218"><ele>2158.0</ele><time>2024-01-28T00:23:43Z</time></trkpt>
<trkpt lat="39.313617" lon="-120.328311"><ele>2157.6</ele><time>2024-01-28T00:24:11Z</time></trkpt>
<trkpt lat="39.314110" lon="-120.328329"><ele>2160.2</ele><time>2024-01-28T00:25:09Z</time></trkpt>
<trkpt lat="39.314388" lon="-120.328279"><ele>2162.8</ele><time>2024-01-28T00:25:42Z</time></trkpt>
<trkpt lat="39.314488" lon="-120.328198"><ele>2162.6</ele><time>2024-01-28T00:25:53Z</time></trkpt>
<trkpt lat="39.314540" lon="-120.328061"><ele>2163.6</ele><time>2024-01-28T00:26:04Z</time></trkpt>
<trkpt lat="39.314714" lon="-120.327274"><ele>2167.2</ele><time>2024-01-28T00:27:50Z</time></trkpt>
<trkpt lat="39.314817" lon="-120.327202"><ele>2168.2</ele><time>2024-01-28T00:28:00Z</time></trkpt>
<trkpt lat="39.315144" lon="-120.327146"><ele>2170.2</ele><time>2024-01-28T00:28:35Z</time></trkpt>
<trkpt lat="39.315362" lon="-120.327054"><ele>2171.8</ele><time>2024-01-28T00:28:58Z</time></trkpt>
<trkpt lat="39.316193" lon="-120.326217"><ele>2175.8</ele><time>2024-01-28T00:30:50Z</time></trkpt>
<trkpt lat="39.316470" lon="-120.326126"><ele>2174.2</ele><time>2024-01-28T00:31:26Z</time></trkpt>
<trkpt lat="39.316451" lon="-120.326076"><ele>2174.6</ele><time>2024-01-28T00:31:42Z</time></trkpt>
<trkpt lat="39.316395" lon="-120.326048"><ele>2174.2</ele><time>2024-01-28T00:31:54Z</time></trkpt>
<trkpt lat="39.316459" lon="-120.325877"><ele>2174.0</ele><time>2024-01-28T00:32:12Z</time></trkpt>
<trkpt lat="39.316497" lon="-120.325866"><ele>2173.0</ele><time>2024-01-28T00:32:41Z</time></trkpt>
<trkpt lat="39.316461" lon="-120.325848"><ele>2171.8</ele><time>2024-01-28T00:33:09Z</time></trkpt>
<trkpt lat="39.316486" lon="-120.325871"><ele>2171.2</ele><time>2024-01-28T00:34:07Z</time></trkpt>
<trkpt lat="39.316468" lon="-120.325874"><ele>2170.4</ele><time>2024-01-28T00:34:22Z</time></trkpt>
<trkpt lat="39.316458" lon="-120.325834"><ele>2169.6</ele><time>2024-01-28T00:35:19Z</time></trkpt>
<trkpt lat="39.316441" lon="-120.325856"><ele>2169.2</ele><time>2024-01-28T00:35:30Z</time></trkpt>
<trkpt lat="39.316658" lon="-120.325953"><ele>2169.8</ele><time>2024-01-28T00:37:25Z</time></trkpt>
<trkpt lat="39.316703" lon="-120.326011"><ele>2170.0</ele><time>2024-01-28T00:37:41Z</time></trkpt>
<trkpt lat="39.316709" lon="-120.325982"><ele>2169.8</ele><time>2024-01-28T00:37:49Z</time></trkpt>
<trkpt lat="39.316705" lon="-120.326038"><ele>2169.8</ele><time>2024-01-28T00:38:41Z</time></trkpt>
<trkpt lat="39.316720" lon="-120.325989"><ele>2170.4</ele><time>2024-01-28T00:39:00Z</time></trkpt>
<trkpt lat="39.316703" lon="-120.326001"><ele>2167.4</ele><time>2024-01-28T00:40:48Z</time></trkpt>
<trkpt lat="39.316731" lon="-120.326006"><ele>2167.6</ele><time>2024-01-28T00:41:19Z</time></trkpt>
<trkpt lat="39.316718" lon="-120.325980"><ele>2169.4</ele><time>2024-01-28T00:42:52Z</time></trkpt>
<trkpt lat="39.316704" lon="-120.326003"><ele>2169.4</ele><time>2024-01-28T00:43:31Z</time></trkpt>
</trkseg></trk>
</gpx>
