<?xml version="1.0" encoding="UTF-8"?>
<gpx version="1.1" creator="Eric Sichak trip reports" xmlns="http://www.topografix.com/GPX/1/1">
<metadata><name>PCT Day 2- Lake Morena</name><time>2024-04-23T14:26:39Z</time></metadata>
<trk><name>PCT Day 2- Lake Morena</name><type>hike</type><trkseg>
<trkpt lat="32.627416" lon="-116.510099"><ele>914.4</ele><time>2024-04-23T14:26:39Z</time></trkpt>
<trkpt lat="32.627361" lon="-116.510116"><ele>915.6</ele><time>2024-04-23T14:27:42Z</time></trkpt>
<trkpt lat="32.627582" lon="-116.510156"><ele>915.8</ele><time>2024-04-23T14:27:59Z</time></trkpt>
<trkpt lat="32.627697" lon="-116.510320"><ele>917.2</ele><time>2024-04-23T14:28:17Z</time></trkpt>
<trkpt lat="32.627869" lon="-116.510837"><ele>919.0</ele><time>2024-04-23T14:29:29Z</time></trkpt>
<trkpt lat="32.627857" lon="-116.511215"><ele>920.0</ele><time>2024-04-23T14:29:46Z</time></trkpt>
<trkpt lat="32.628094" lon="-116.511417"><ele>921.0</ele><time>2024-04-23T14:30:25Z</time></trkpt>
<trkpt lat="32.628259" lon="-116.511844"><ele>921.0</ele><time>2024-04-23T14:31:13Z</time></trkpt>
<trkpt lat="32.628372" lon="-116.511883"><ele>920.8</ele><time>2024-04-23T14:31:42Z</time></trkpt>
<trkpt lat="32.628317" lon="-116.511921"><ele>920.8</ele><time>2024-04-23T14:31:46Z</time></trkpt>
<trkpt lat="32.628379" lon="-116.512034"><ele>920.6</ele><time>2024-04-23T14:31:59Z</time></trkpt>
<trkpt lat="32.628618" lon="-116.512375"><ele>917.8</ele><time>2024-04-23T14:33:03Z</time></trkpt>
<trkpt lat="32.629100" lon="-116.512594"><ele>917.0</ele><time>2024-04-23T14:33:44Z</time></trkpt>
<trkpt lat="32.629350" lon="-116.512812"><ele>916.0</ele><time>2024-04-23T14:34:09Z</time></trkpt>
<trkpt lat="32.629437" lon="-116.513121"><ele>913.6</ele><time>2024-04-23T14:34:43Z</time></trkpt>
<trkpt lat="32.629711" lon="-116.513536"><ele>914.2</ele><time>2024-04-23T14:35:23Z</time></trkpt>
<trkpt lat="32.629703" lon="-116.513665"><ele>914.8</ele><time>2024-04-23T14:35:35Z</time></trkpt>
<trkpt lat="32.629959" lon="-116.513805"><ele>915.4</ele><time>2024-04-23T14:35:59Z</time></trkpt>
<trkpt lat="32.630031" lon="-116.514064"><ele>916.2</ele><time>2024-04-23T14:36:15Z</time></trkpt>
<trkpt lat="32.630059" lon="-116.514743"><ele>923.8</ele><time>2024-04-23T14:37:42Z</time></trkpt>
<trkpt lat="32.630127" lon="-116.514762"><ele>924.0</ele><time>2024-04-23T14:37:44Z</time></trkpt>
<trkpt lat="32.630081" lon="-116.514845"><ele>924.4</ele><time>2024-04-23T14:37:50Z</time></trkpt>
<trkpt lat="32.630434" lon="-116.515324"><ele>935.2</ele><time>2024-04-23T14:39:25Z</time></trkpt>
<trkpt lat="32.630376" lon="-116.515548"><ele>937.0</ele><time>2024-04-23T14:39:42Z</time></trkpt>
<trkpt lat="32.630389" lon="-116.515419"><ele>938.8</ele><time>2024-04-23T14:39:50Z</time></trkpt>
<trkpt lat="32.630309" lon="-116.515371"><ele>940.4</ele><time>2024-04-23T14:40:02Z</time></trkpt>
<trkpt lat="32.629595" lon="-116.515255"><ele>947.2</ele><time>2024-04-23T14:41:41Z</time></trkpt>
<trkpt lat="32.629559" lon="-116.515158"><ele>947.0</ele><time>2024-04-23T14:41:53Z</time></trkpt>
<trkpt lat="32.629547" lon="-116.515282"><ele>949.4</ele><time>2024-04-23T14:42:05Z</time></trkpt>
<trkpt lat="32.629482" lon="-116.515318"><ele>951.4</ele><time>2024-04-23T14:42:31Z</time></trkpt>
<trkpt lat="32.629728" lon="-116.515723"><ele>959.6</ele><time>2024-04-23T14:43:45Z</time></trkpt>
<trkpt lat="32.629786" lon="-116.515662"><ele>960.0</ele><time>2024-04-23T14:43:49Z</time></trkpt>
<trkpt lat="32.629915" lon="-116.515681"><ele>961.8</ele><time>2024-04-23T14:44:02Z</time></trkpt>
<trkpt lat="32.629864" lon="-116.515705"><ele>968.6</ele><time>2024-04-23T14:44:55Z</time></trkpt>
<trkpt lat="32.629368" lon="-116.515924"><ele>973.4</ele><time>2024-04-23T14:45:45Z</time></trkpt>
<trkpt lat="32.629099" lon="-116.515616"><ele>977.0</ele><time>2024-04-23T14:46:47Z</time></trkpt>
<trkpt lat="32.629002" lon="-116.515631"><ele>981.4</ele><time>2024-04-23T14:47:43Z</time></trkpt>
<trkpt lat="32.628936" lon="-116.515794"><ele>982.2</ele><time>2024-04-23T14:47:49Z</time></trkpt>
<trkpt lat="32.628991" lon="-116.515788"><ele>983.0</ele><time>2024-04-23T14:47:55Z</time></trkpt>
<trkpt lat="32.628999" lon="-116.515883"><ele>983.6</ele><time>2024-04-23T14:48:03Z</time></trkpt>
<trkpt lat="32.628891" lon="-116.516166"><ele>984.6</ele><time>2024-04-23T14:48:27Z</time></trkpt>
<trkpt lat="32.628826" lon="-116.516147"><ele>986.4</ele><time>2024-04-23T14:48:43Z</time></trkpt>
<trkpt lat="32.628629" lon="-116.516388"><ele>989.2</ele><time>2024-04-23T14:49:35Z</time></trkpt>
<trkpt lat="32.628721" lon="-116.516175"><ele>991.0</ele><time>2024-04-23T14:49:52Z</time></trkpt>
<trkpt lat="32.628665" lon="-116.516135"><ele>992.8</ele><time>2024-04-23T14:50:00Z</time></trkpt>
<trkpt lat="32.628726" lon="-116.516480"><ele>998.6</ele><time>2024-04-23T14:51:39Z</time></trkpt>
<trkpt lat="32.628636" lon="-116.516576"><ele>999.2</ele><time>2024-04-23T14:51:46Z</time></trkpt>
<trkpt lat="32.628696" lon="-116.516579"><ele>999.4</ele><time>2024-04-23T14:51:56Z</time></trkpt>
<trkpt lat="32.628649" lon="-116.516618"><ele>998.6</ele><time>2024-04-23T14:53:39Z</time></trkpt>
<trkpt lat="32.628680" lon="-116.516686"><ele>998.8</ele><time>2024-04-23T14:53:58Z</time></trkpt>
<trkpt lat="32.628588" lon="-116.517004"><ele>998.6</ele><time>2024-04-23T14:55:43Z</time></trkpt>
<trkpt lat="32.628605" lon="-116.516719"><ele>998.8</ele><time>2024-04-23T14:55:45Z</time></trkpt>
<trkpt lat="32.628700" lon="-116.516711"><ele>999.0</ele><time>2024-04-23T14:55:52Z</time></trkpt>
<trkpt lat="32.628667" lon="-116.516665"><ele>999.0</ele><time>2024-04-23T14:56:00Z</time></trkpt>
<trkpt lat="32.628690" lon="-116.516734"><ele>999.0</ele><time>2024-04-23T14:57:33Z</time></trkpt>
<trkpt lat="32.628646" lon="-116.516732"><ele>999.8</ele><time>2024-04-23T14:57:47Z</time></trkpt>
<trkpt lat="32.628661" lon="-116.516580"><ele>1000.4</ele><time>2024-04-23T14:59:47Z</time></trkpt>
<trkpt lat="32.628453" lon="-116.516848"><ele>999.4</ele><time>2024-04-23T15:01:37Z</time></trkpt>
<trkpt lat="32.628149" lon="-116.516819"><ele>1001.6</ele><time>2024-04-23T15:02:15Z</time></trkpt>
<trkpt lat="32.627956" lon="-116.516704"><ele>1002.6</ele><time>2024-04-23T15:02:57Z</time></trkpt>
<trkpt lat="32.627964" lon="-116.516557"><ele>1003.8</ele><time>2024-04-23T15:03:23Z</time></trkpt>
<trkpt lat="32.627824" lon="-116.516344"><ele>1004.4</ele><time>2024-04-23T15:03:44Z</time></trkpt>
<trkpt lat="32.627723" lon="-116.516337"><ele>1005.4</ele><time>2024-04-23T15:03:50Z</time></trkpt>
<trkpt lat="32.627639" lon="-116.516424"><ele>1005.6</ele><time>2024-04-23T15:04:02Z</time></trkpt>
<trkpt lat="32.627235" lon="-116.516370"><ele>1010.8</ele><time>2024-04-23T15:05:42Z</time></trkpt>
<trkpt lat="32.627139" lon="-116.516574"><ele>1012.0</ele><time>2024-04-23T15:05:56Z</time></trkpt>
<trkpt lat="32.626760" lon="-116.516966"><ele>1016.4</ele><time>2024-04-23T15:06:45Z</time></trkpt>
<trkpt lat="32.626637" lon="-116.516804"><ele>1018.6</ele><time>2024-04-23T15:07:09Z</time></trkpt>
<trkpt lat="32.626491" lon="-116.516782"><ele>1020.4</ele><time>2024-04-23T15:07:47Z</time></trkpt>
<trkpt lat="32.626497" lon="-116.516631"><ele>1020.4</ele><time>2024-04-23T15:07:58Z</time></trkpt>
<trkpt lat="32.626179" lon="-116.516695"><ele>1020.8</ele><time>2024-04-23T15:08:22Z</time></trkpt>
<trkpt lat="32.625555" lon="-116.516626"><ele>1020.8</ele><time>2024-04-23T15:09:36Z</time></trkpt>
<trkpt lat="32.625366" lon="-116.516678"><ele>1021.0</ele><time>2024-04-23T15:09:42Z</time></trkpt>
<trkpt lat="32.625308" lon="-116.516968"><ele>1020.8</ele><time>2024-04-23T15:10:00Z</time></trkpt>
<trkpt lat="32.624658" lon="-116.517382"><ele>1022.8</ele><time>2024-04-23T15:11:23Z</time></trkpt>
<trkpt lat="32.624313" lon="-116.517677"><ele>1022.8</ele><time>2024-04-23T15:11:47Z</time></trkpt>
<trkpt lat="32.624283" lon="-116.517787"><ele>1022.6</ele><time>2024-04-23T15:11:54Z</time></trkpt>
<trkpt lat="32.623802" lon="-116.518321"><ele>1018.6</ele><time>2024-04-23T15:12:56Z</time></trkpt>
<trkpt lat="32.623356" lon="-116.518662"><ele>1014.8</ele><time>2024-04-23T15:13:58Z</time></trkpt>
<trkpt lat="32.623713" lon="-116.518796"><ele>1017.8</ele><time>2024-04-23T15:14:52Z</time></trkpt>
<trkpt lat="32.624350" lon="-116.519290"><ele>1021.6</ele><time>2024-04-23T15:15:59Z</time></trkpt>
<trkpt lat="32.623838" lon="-116.518812"><ele>1018.2</ele><time>2024-04-23T15:17:43Z</time></trkpt>
<trkpt lat="32.623870" lon="-116.518914"><ele>1018.6</ele><time>2024-04-23T15:17:59Z</time></trkpt>
<trkpt lat="32.623616" lon="-116.518702"><ele>1016.8</ele><time>2024-04-23T15:19:46Z</time></trkpt>
<trkpt lat="32.623527" lon="-116.518721"><ele>1015.6</ele><time>2024-04-23T15:19:59Z</time></trkpt>
<trkpt lat="32.623478" lon="-116.518992"><ele>1015.4</ele><time>2024-04-23T15:20:39Z</time></trkpt>
<trkpt lat="32.623741" lon="-116.519515"><ele>1021.8</ele><time>2024-04-23T15:21:42Z</time></trkpt>
<trkpt lat="32.623677" lon="-116.519653"><ele>1023.0</ele><time>2024-04-23T15:21:53Z</time></trkpt>
<trkpt lat="32.623717" lon="-116.519704"><ele>1023.0</ele><time>2024-04-23T15:21:58Z</time></trkpt>
<trkpt lat="32.623573" lon="-116.519620"><ele>1023.0</ele><time>2024-04-23T15:23:43Z</time></trkpt>
<trkpt lat="32.623756" lon="-116.519767"><ele>1023.0</ele><time>2024-04-23T15:23:54Z</time></trkpt>
<trkpt lat="32.623704" lon="-116.519786"><ele>1023.0</ele><time>2024-04-23T15:24:01Z</time></trkpt>
<trkpt lat="32.624163" lon="-116.519407"><ele>1023.0</ele><time>2024-04-23T15:25:49Z</time></trkpt>
<trkpt lat="32.624243" lon="-116.519539"><ele>1022.8</ele><time>2024-04-23T15:25:58Z</time></trkpt>
<trkpt lat="32.624587" lon="-116.519755"><ele>1018.8</ele><time>2024-04-23T15:26:42Z</time></trkpt>
<trkpt lat="32.624858" lon="-116.520129"><ele>1016.0</ele><time>2024-04-23T15:27:18Z</time></trkpt>
<trkpt lat="32.624893" lon="-116.520621"><ele>1013.6</ele><time>2024-04-23T15:28:02Z</time></trkpt>
<trkpt lat="32.625284" lon="-116.521004"><ele>1011.0</ele><time>2024-04-23T15:29:02Z</time></trkpt>
<trkpt lat="32.625696" lon="-116.521121"><ele>1012.8</ele><time>2024-04-23T15:29:34Z</time></trkpt>
<trkpt lat="32.625950" lon="-116.521354"><ele>1014.6</ele><time>2024-04-23T15:30:00Z</time></trkpt>
<trkpt lat="32.626118" lon="-116.522063"><ele>1014.0</ele><time>2024-04-23T15:31:44Z</time></trkpt>
<trkpt lat="32.625834" lon="-116.522255"><ele>1012.4</ele><time>2024-04-23T15:32:34Z</time></trkpt>
<trkpt lat="32.625552" lon="-116.522591"><ele>1010.6</ele><time>2024-04-23T15:33:44Z</time></trkpt>
<trkpt lat="32.625498" lon="-116.522500"><ele>1011.2</ele><time>2024-04-23T15:35:48Z</time></trkpt>
<trkpt lat="32.625514" lon="-116.522675"><ele>1011.6</ele><time>2024-04-23T15:37:47Z</time></trkpt>
<trkpt lat="32.625422" lon="-116.522476"><ele>1011.0</ele><time>2024-04-23T15:39:44Z</time></trkpt>
<trkpt lat="32.625519" lon="-116.522573"><ele>1013.0</ele><time>2024-04-23T15:40:08Z</time></trkpt>
<trkpt lat="32.625881" lon="-116.522697"><ele>1010.0</ele><time>2024-04-23T15:41:44Z</time></trkpt>
<trkpt lat="32.625970" lon="-116.522816"><ele>1009.2</ele><time>2024-04-23T15:41:57Z</time></trkpt>
<trkpt lat="32.626252" lon="-116.522912"><ele>1011.6</ele><time>2024-04-23T15:42:36Z</time></trkpt>
<trkpt lat="32.626767" lon="-116.522940"><ele>1011.2</ele><time>2024-04-23T15:43:47Z</time></trkpt>
<trkpt lat="32.627245" lon="-116.523159"><ele>1008.2</ele><time>2024-04-23T15:44:32Z</time></trkpt>
<trkpt lat="32.627401" lon="-116.523300"><ele>1007.2</ele><time>2024-04-23T15:44:52Z</time></trkpt>
<trkpt lat="32.628132" lon="-116.523511"><ele>1004.8</ele><time>2024-04-23T15:46:42Z</time></trkpt>
<trkpt lat="32.628577" lon="-116.523771"><ele>1007.0</ele><time>2024-04-23T15:47:51Z</time></trkpt>
<trkpt lat="32.628635" lon="-116.523739"><ele>1007.4</ele><time>2024-04-23T15:47:57Z</time></trkpt>
<trkpt lat="32.629067" lon="-116.523969"><ele>1004.4</ele><time>2024-04-23T15:49:10Z</time></trkpt>
<trkpt lat="32.629502" lon="-116.523685"><ele>1004.6</ele><time>2024-04-23T15:50:01Z</time></trkpt>
<trkpt lat="32.630369" lon="-116.523982"><ele>1009.4</ele><time>2024-04-23T15:51:54Z</time></trkpt>
<trkpt lat="32.630505" lon="-116.524142"><ele>1010.2</ele><time>2024-04-23T15:52:10Z</time></trkpt>
<trkpt lat="32.630667" lon="-116.524205"><ele>1012.4</ele><time>2024-04-23T15:52:40Z</time></trkpt>
<trkpt lat="32.630940" lon="-116.524221"><ele>1013.8</ele><time>2024-04-23T15:53:42Z</time></trkpt>
<trkpt lat="32.631009" lon="-116.524289"><ele>1013.8</ele><time>2024-04-23T15:54:03Z</time></trkpt>
<trkpt lat="32.630953" lon="-116.524218"><ele>1013.0</ele><time>2024-04-23T15:55:49Z</time></trkpt>
<trkpt lat="32.630957" lon="-116.524297"><ele>1013.8</ele><time>2024-04-23T15:55:57Z</time></trkpt>
<trkpt lat="32.631019" lon="-116.524306"><ele>1013.6</ele><time>2024-04-23T15:57:18Z</time></trkpt>
<trkpt lat="32.631130" lon="-116.524209"><ele>1013.4</ele><time>2024-04-23T15:57:51Z</time></trkpt>
<trkpt lat="32.631479" lon="-116.524731"><ele>1019.2</ele><time>2024-04-23T15:59:02Z</time></trkpt>
<trkpt lat="32.631699" lon="-116.524857"><ele>1020.2</ele><time>2024-04-23T15:59:30Z</time></trkpt>
<trkpt lat="32.631806" lon="-116.525017"><ele>1019.4</ele><time>2024-04-23T15:59:42Z</time></trkpt>
<trkpt lat="32.631924" lon="-116.525026"><ele>1020.0</ele><time>2024-04-23T15:59:51Z</time></trkpt>
<trkpt lat="32.632294" lon="-116.525268"><ele>1021.0</ele><time>2024-04-23T16:00:18Z</time></trkpt>
<trkpt lat="32.632849" lon="-116.525503"><ele>1022.0</ele><time>2024-04-23T16:01:44Z</time></trkpt>
<trkpt lat="32.632958" lon="-116.525430"><ele>1022.8</ele><time>2024-04-23T16:01:53Z</time></trkpt>
<trkpt lat="32.633195" lon="-116.525431"><ele>1021.4</ele><time>2024-04-23T16:02:18Z</time></trkpt>
<trkpt lat="32.633539" lon="-116.525590"><ele>1021.8</ele><time>2024-04-23T16:02:58Z</time></trkpt>
<trkpt lat="32.633893" lon="-116.525642"><ele>1024.6</ele><time>2024-04-23T16:03:43Z</time></trkpt>
<trkpt lat="32.633933" lon="-116.525595"><ele>1024.6</ele><time>2024-04-23T16:03:45Z</time></trkpt>
<trkpt lat="32.634017" lon="-116.525679"><ele>1025.2</ele><time>2024-04-23T16:03:50Z</time></trkpt>
<trkpt lat="32.634946" lon="-116.525872"><ele>1025.0</ele><time>2024-04-23T16:05:28Z</time></trkpt>
<trkpt lat="32.635135" lon="-116.525880"><ele>1024.8</ele><time>2024-04-23T16:05:44Z</time></trkpt>
<trkpt lat="32.635211" lon="-116.525723"><ele>1026.8</ele><time>2024-04-23T16:05:59Z</time></trkpt>
<trkpt lat="32.635833" lon="-116.525877"><ele>1026.4</ele><time>2024-04-23T16:07:44Z</time></trkpt>
<trkpt lat="32.636257" lon="-116.525705"><ele>1031.6</ele><time>2024-04-23T16:09:56Z</time></trkpt>
<trkpt lat="32.636249" lon="-116.525768"><ele>1030.8</ele><time>2024-04-23T16:11:43Z</time></trkpt>
<trkpt lat="32.636198" lon="-116.525703"><ele>1030.0</ele><time>2024-04-23T16:13:28Z</time></trkpt>
<trkpt lat="32.636230" lon="-116.525790"><ele>1029.4</ele><time>2024-04-23T16:13:52Z</time></trkpt>
<trkpt lat="32.636279" lon="-116.525737"><ele>1029.0</ele><time>2024-04-23T16:15:52Z</time></trkpt>
<trkpt lat="32.636248" lon="-116.525772"><ele>1028.6</ele><time>2024-04-23T16:16:01Z</time></trkpt>
<trkpt lat="32.636767" lon="-116.525948"><ele>1028.4</ele><time>2024-04-23T16:17:46Z</time></trkpt>
<trkpt lat="32.637232" lon="-116.526238"><ele>1030.4</ele><time>2024-04-23T16:18:29Z</time></trkpt>
<trkpt lat="32.637377" lon="-116.526429"><ele>1032.2</ele><time>2024-04-23T16:19:09Z</time></trkpt>
<trkpt lat="32.637789" lon="-116.526377"><ele>1030.0</ele><time>2024-04-23T16:19:43Z</time></trkpt>
<trkpt lat="32.637746" lon="-116.526305"><ele>1029.4</ele><time>2024-04-23T16:19:50Z</time></trkpt>
<trkpt lat="32.638239" lon="-116.526540"><ele>1032.8</ele><time>2024-04-23T16:21:17Z</time></trkpt>
<trkpt lat="32.638445" lon="-116.526566"><ele>1033.4</ele><time>2024-04-23T16:21:41Z</time></trkpt>
<trkpt lat="32.638462" lon="-116.525924"><ele>1033.0</ele><time>2024-04-23T16:22:32Z</time></trkpt>
<trkpt lat="32.638676" lon="-116.525646"><ele>1032.8</ele><time>2024-04-23T16:23:32Z</time></trkpt>
<trkpt lat="32.638777" lon="-116.525314"><ele>1033.8</ele><time>2024-04-23T16:23:58Z</time></trkpt>
<trkpt lat="32.639149" lon="-116.524934"><ele>1031.8</ele><time>2024-04-23T16:24:56Z</time></trkpt>
<trkpt lat="32.639571" lon="-116.524999"><ele>1030.2</ele><time>2024-04-23T16:25:42Z</time></trkpt>
<trkpt lat="32.639684" lon="-116.525102"><ele>1030.6</ele><time>2024-04-23T16:25:49Z</time></trkpt>
<trkpt lat="32.639735" lon="-116.525069"><ele>1030.4</ele><time>2024-04-23T16:25:52Z</time></trkpt>
<trkpt lat="32.639744" lon="-116.524970"><ele>1031.8</ele><time>2024-04-23T16:26:03Z</time></trkpt>
<trkpt lat="32.640298" lon="-116.524433"><ele>1030.8</ele><time>2024-04-23T16:27:18Z</time></trkpt>
<trkpt lat="32.640393" lon="-116.524174"><ele>1030.2</ele><time>2024-04-23T16:27:47Z</time></trkpt>
<trkpt lat="32.641127" lon="-116.523935"><ele>1027.6</ele><time>2024-04-23T16:29:20Z</time></trkpt>
<trkpt lat="32.641390" lon="-116.523764"><ele>1027.6</ele><time>2024-04-23T16:29:43Z</time></trkpt>
<trkpt lat="32.641462" lon="-116.523982"><ele>1028.0</ele><time>2024-04-23T16:29:55Z</time></trkpt>
<trkpt lat="32.641782" lon="-116.524005"><ele>1027.8</ele><time>2024-04-23T16:30:16Z</time></trkpt>
<trkpt lat="32.642027" lon="-116.524204"><ele>1026.2</ele><time>2024-04-23T16:31:14Z</time></trkpt>
<trkpt lat="32.642272" lon="-116.524247"><ele>1025.6</ele><time>2024-04-23T16:31:43Z</time></trkpt>
<trkpt lat="32.642221" lon="-116.524073"><ele>1024.8</ele><time>2024-04-23T16:31:53Z</time></trkpt>
<trkpt lat="32.642320" lon="-116.524233"><ele>1024.8</ele><time>2024-04-23T16:32:10Z</time></trkpt>
<trkpt lat="32.642586" lon="-116.524381"><ele>1024.4</ele><time>2024-04-23T16:32:44Z</time></trkpt>
<trkpt lat="32.642815" lon="-116.524380"><ele>1025.4</ele><time>2024-04-23T16:33:14Z</time></trkpt>
<trkpt lat="32.643014" lon="-116.524500"><ele>1028.2</ele><time>2024-04-23T16:33:43Z</time></trkpt>
<trkpt lat="32.643160" lon="-116.524482"><ele>1027.4</ele><time>2024-04-23T16:33:51Z</time></trkpt>
<trkpt lat="32.643335" lon="-116.524374"><ele>1026.4</ele><time>2024-04-23T16:34:22Z</time></trkpt>
<trkpt lat="32.643335" lon="-116.524265"><ele>1025.4</ele><time>2024-04-23T16:34:30Z</time></trkpt>
<trkpt lat="32.643582" lon="-116.524167"><ele>1023.0</ele><time>2024-04-23T16:35:18Z</time></trkpt>
<trkpt lat="32.643931" lon="-116.524141"><ele>1021.6</ele><time>2024-04-23T16:35:43Z</time></trkpt>
<trkpt lat="32.644020" lon="-116.524254"><ele>1019.4</ele><time>2024-04-23T16:36:00Z</time></trkpt>
<trkpt lat="32.644268" lon="-116.523994"><ele>1021.6</ele><time>2024-04-23T16:36:42Z</time></trkpt>
<trkpt lat="32.644505" lon="-116.523409"><ele>1020.0</ele><time>2024-04-23T16:37:43Z</time></trkpt>
<trkpt lat="32.644462" lon="-116.523305"><ele>1020.0</ele><time>2024-04-23T16:37:53Z</time></trkpt>
<trkpt lat="32.644748" lon="-116.522775"><ele>1018.8</ele><time>2024-04-23T16:38:30Z</time></trkpt>
<trkpt lat="32.645179" lon="-116.522301"><ele>1018.8</ele><time>2024-04-23T16:39:43Z</time></trkpt>
<trkpt lat="32.645361" lon="-116.522269"><ele>1016.8</ele><time>2024-04-23T16:40:03Z</time></trkpt>
<trkpt lat="32.645542" lon="-116.522138"><ele>1013.6</ele><time>2024-04-23T16:40:30Z</time></trkpt>
<trkpt lat="32.645787" lon="-116.522169"><ele>1013.8</ele><time>2024-04-23T16:40:54Z</time></trkpt>
<trkpt lat="32.645943" lon="-116.522325"><ele>1015.8</ele><time>2024-04-23T16:41:26Z</time></trkpt>
<trkpt lat="32.645253" lon="-116.522269"><ele>1016.2</ele><time>2024-04-23T16:41:44Z</time></trkpt>
<trkpt lat="32.646142" lon="-116.522267"><ele>1016.2</ele><time>2024-04-23T16:41:45Z</time></trkpt>
<trkpt lat="32.646455" lon="-116.522579"><ele>1019.0</ele><time>2024-04-23T16:42:22Z</time></trkpt>
<trkpt lat="32.646963" lon="-116.522914"><ele>1023.6</ele><time>2024-04-23T16:43:43Z</time></trkpt>
<trkpt lat="32.647063" lon="-116.522750"><ele>1026.0</ele><time>2024-04-23T16:44:03Z</time></trkpt>
<trkpt lat="32.647516" lon="-116.522416"><ele>1028.4</ele><time>2024-04-23T16:45:08Z</time></trkpt>
<trkpt lat="32.647946" lon="-116.522315"><ele>1031.8</ele><time>2024-04-23T16:50:04Z</time></trkpt>
<trkpt lat="32.647863" lon="-116.522390"><ele>1031.0</ele><time>2024-04-23T16:51:44Z</time></trkpt>
<trkpt lat="32.647922" lon="-116.522339"><ele>1030.6</ele><time>2024-04-23T16:51:48Z</time></trkpt>
<trkpt lat="32.648272" lon="-116.522976"><ele>1033.4</ele><time>2024-04-23T16:53:35Z</time></trkpt>
<trkpt lat="32.648401" lon="-116.523093"><ele>1033.4</ele><time>2024-04-23T16:53:41Z</time></trkpt>
<trkpt lat="32.648422" lon="-116.523253"><ele>1033.6</ele><time>2024-04-23T16:53:53Z</time></trkpt>
<trkpt lat="32.648369" lon="-116.523466"><ele>1032.6</ele><time>2024-04-23T16:54:10Z</time></trkpt>
<trkpt lat="32.647929" lon="-116.523856"><ele>1028.6</ele><time>2024-04-23T16:55:26Z</time></trkpt>
<trkpt lat="32.647887" lon="-116.524071"><ele>1027.4</ele><time>2024-04-23T16:55:43Z</time></trkpt>
<trkpt lat="32.647991" lon="-116.524141"><ele>1026.2</ele><time>2024-04-23T16:55:52Z</time></trkpt>
<trkpt lat="32.647925" lon="-116.524512"><ele>1023.6</ele><time>2024-04-23T16:56:30Z</time></trkpt>
<trkpt lat="32.648320" lon="-116.525072"><ele>1018.8</ele><time>2024-04-23T16:57:48Z</time></trkpt>
<trkpt lat="32.648344" lon="-116.525578"><ele>1017.2</ele><time>2024-04-23T16:58:20Z</time></trkpt>
<trkpt lat="32.648425" lon="-116.525839"><ele>1015.8</ele><time>2024-04-23T16:58:50Z</time></trkpt>
<trkpt lat="32.648310" lon="-116.525965"><ele>1014.8</ele><time>2024-04-23T16:59:12Z</time></trkpt>
<trkpt lat="32.648321" lon="-116.526237"><ele>1013.6</ele><time>2024-04-23T16:59:28Z</time></trkpt>
<trkpt lat="32.647967" lon="-116.527234"><ele>1009.6</ele><time>2024-04-23T17:00:48Z</time></trkpt>
<trkpt lat="32.648591" lon="-116.527581"><ele>1002.2</ele><time>2024-04-23T17:02:03Z</time></trkpt>
<trkpt lat="32.648824" lon="-116.528063"><ele>997.6</ele><time>2024-04-23T17:03:12Z</time></trkpt>
<trkpt lat="32.648955" lon="-116.528137"><ele>996.6</ele><time>2024-04-23T17:03:24Z</time></trkpt>
<trkpt lat="32.649219" lon="-116.528097"><ele>995.0</ele><time>2024-04-23T17:03:49Z</time></trkpt>
<trkpt lat="32.649402" lon="-116.528524"><ele>990.0</ele><time>2024-04-23T17:04:46Z</time></trkpt>
<trkpt lat="32.649303" lon="-116.528848"><ele>987.4</ele><time>2024-04-23T17:05:24Z</time></trkpt>
<trkpt lat="32.649526" lon="-116.529122"><ele>986.4</ele><time>2024-04-23T17:05:50Z</time></trkpt>
<trkpt lat="32.649735" lon="-116.529127"><ele>984.2</ele><time>2024-04-23T17:06:14Z</time></trkpt>
<trkpt lat="32.650145" lon="-116.529572"><ele>979.0</ele><time>2024-04-23T17:07:50Z</time></trkpt>
<trkpt lat="32.650251" lon="-116.529575"><ele>978.0</ele><time>2024-04-23T17:08:02Z</time></trkpt>
<trkpt lat="32.651084" lon="-116.530244"><ele>968.0</ele><time>2024-04-23T17:09:43Z</time></trkpt>
<trkpt lat="32.651215" lon="-116.530306"><ele>965.0</ele><time>2024-04-23T17:10:10Z</time></trkpt>
<trkpt lat="32.651415" lon="-116.530249"><ele>964.8</ele><time>2024-04-23T17:10:28Z</time></trkpt>
<trkpt lat="32.651531" lon="-116.530156"><ele>964.2</ele><time>2024-04-23T17:10:42Z</time></trkpt>
<trkpt lat="32.651620" lon="-116.529936"><ele>963.8</ele><time>2024-04-23T17:11:30Z</time></trkpt>
<trkpt lat="32.651669" lon="-116.530073"><ele>963.2</ele><time>2024-04-23T17:11:50Z</time></trkpt>
<trkpt lat="32.651629" lon="-116.530040"><ele>963.6</ele><time>2024-04-23T17:12:01Z</time></trkpt>
<trkpt lat="32.651563" lon="-116.530154"><ele>963.0</ele><time>2024-04-23T17:13:46Z</time></trkpt>
<trkpt lat="32.651677" lon="-116.530118"><ele>962.8</ele><time>2024-04-23T17:13:51Z</time></trkpt>
<trkpt lat="32.651656" lon="-116.530020"><ele>962.4</ele><time>2024-04-23T17:15:56Z</time></trkpt>
<trkpt lat="32.651588" lon="-116.530141"><ele>961.8</ele><time>2024-04-23T17:17:49Z</time></trkpt>
<trkpt lat="32.651896" lon="-116.529701"><ele>958.4</ele><time>2024-04-23T17:19:49Z</time></trkpt>
<trkpt lat="32.651931" lon="-116.529730"><ele>957.8</ele><time>2024-04-23T17:19:51Z</time></trkpt>
<trkpt lat="32.651746" lon="-116.530111"><ele>956.6</ele><time>2024-04-23T17:20:03Z</time></trkpt>
<trkpt lat="32.651551" lon="-116.530332"><ele>957.0</ele><time>2024-04-23T17:20:28Z</time></trkpt>
<trkpt lat="32.650867" lon="-116.530470"><ele>953.6</ele><time>2024-04-23T17:21:45Z</time></trkpt>
<trkpt lat="32.650992" lon="-116.530491"><ele>953.4</ele><time>2024-04-23T17:21:48Z</time></trkpt>
<trkpt lat="32.650809" lon="-116.530542"><ele>951.8</ele><time>2024-04-23T17:22:06Z</time></trkpt>
<trkpt lat="32.650850" lon="-116.530597"><ele>952.2</ele><time>2024-04-23T17:24:01Z</time></trkpt>
<trkpt lat="32.650645" lon="-116.530778"><ele>953.2</ele><time>2024-04-23T17:25:50Z</time></trkpt>
<trkpt lat="32.650831" lon="-116.530514"><ele>953.4</ele><time>2024-04-23T17:25:54Z</time></trkpt>
<trkpt lat="32.650716" lon="-116.530596"><ele>953.8</ele><time>2024-04-23T17:27:53Z</time></trkpt>
<trkpt lat="32.650856" lon="-116.530463"><ele>954.4</ele><time>2024-04-23T17:28:00Z</time></trkpt>
<trkpt lat="32.650836" lon="-116.530562"><ele>956.6</ele><time>2024-04-23T17:30:00Z</time></trkpt>
<trkpt lat="32.650839" lon="-116.530519"><ele>956.6</ele><time>2024-04-23T17:30:03Z</time></trkpt>
<trkpt lat="32.651131" lon="-116.531059"><ele>957.6</ele><time>2024-04-23T17:31:46Z</time></trkpt>
<trkpt lat="32.651254" lon="-116.531033"><ele>957.6</ele><time>2024-04-23T17:31:52Z</time></trkpt>
<trkpt lat="32.651601" lon="-116.531893"><ele>953.6</ele><time>2024-04-23T17:33:43Z</time></trkpt>
<trkpt lat="32.651540" lon="-116.531972"><ele>953.8</ele><time>2024-04-23T17:33:50Z</time></trkpt>
<trkpt lat="32.651567" lon="-116.532285"><ele>955.0</ele><time>2024-04-23T17:34:28Z</time></trkpt>
<trkpt lat="32.651517" lon="-116.532557"><ele>957.8</ele><time>2024-04-23T17:35:08Z</time></trkpt>
<trkpt lat="32.651331" lon="-116.532834"><ele>956.6</ele><time>2024-04-23T17:35:30Z</time></trkpt>
<trkpt lat="32.651088" lon="-116.533052"><ele>955.4</ele><time>2024-04-23T17:35:45Z</time></trkpt>
<trkpt lat="32.651225" lon="-116.532953"><ele>955.4</ele><time>2024-04-23T17:35:52Z</time></trkpt>
<trkpt lat="32.651130" lon="-116.533962"><ele>962.4</ele><time>2024-04-23T17:37:30Z</time></trkpt>
<trkpt lat="32.651146" lon="-116.534174"><ele>962.2</ele><time>2024-04-23T17:37:43Z</time></trkpt>
<trkpt lat="32.651249" lon="-116.533935"><ele>962.4</ele><time>2024-04-23T17:37:54Z</time></trkpt>
<trkpt lat="32.651297" lon="-116.534519"><ele>966.0</ele><time>2024-04-23T17:38:54Z</time></trkpt>
<trkpt lat="32.651257" lon="-116.535137"><ele>964.4</ele><time>2024-04-23T17:39:44Z</time></trkpt>
<trkpt lat="32.651414" lon="-116.535122"><ele>964.8</ele><time>2024-04-23T17:39:59Z</time></trkpt>
<trkpt lat="32.651699" lon="-116.535627"><ele>955.6</ele><time>2024-04-23T17:41:06Z</time></trkpt>
<trkpt lat="32.652048" lon="-116.536622"><ele>954.2</ele><time>2024-04-23T17:43:06Z</time></trkpt>
<trkpt lat="32.652203" lon="-116.536831"><ele>954.0</ele><time>2024-04-23T17:43:44Z</time></trkpt>
<trkpt lat="32.652102" lon="-116.537012"><ele>954.0</ele><time>2024-04-23T17:43:53Z</time></trkpt>
<trkpt lat="32.652081" lon="-116.537334"><ele>957.2</ele><time>2024-04-23T17:44:22Z</time></trkpt>
<trkpt lat="32.652306" lon="-116.537840"><ele>958.0</ele><time>2024-04-23T17:45:24Z</time></trkpt>
<trkpt lat="32.652207" lon="-116.538338"><ele>957.4</ele><time>2024-04-23T17:46:04Z</time></trkpt>
<trkpt lat="32.652396" lon="-116.538703"><ele>957.8</ele><time>2024-04-23T17:46:26Z</time></trkpt>
<trkpt lat="32.652563" lon="-116.538803"><ele>958.0</ele><time>2024-04-23T17:46:56Z</time></trkpt>
<trkpt lat="32.652682" lon="-116.538978"><ele>957.0</ele><time>2024-04-23T17:47:28Z</time></trkpt>
<trkpt lat="32.652727" lon="-116.539208"><ele>956.6</ele><time>2024-04-23T17:47:43Z</time></trkpt>
<trkpt lat="32.652502" lon="-116.539259"><ele>956.6</ele><time>2024-04-23T17:47:46Z</time></trkpt>
<trkpt lat="32.652565" lon="-116.539365"><ele>956.2</ele><time>2024-04-23T17:47:55Z</time></trkpt>
<trkpt lat="32.652745" lon="-116.539379"><ele>954.2</ele><time>2024-04-23T17:48:32Z</time></trkpt>
<trkpt lat="32.652952" lon="-116.539899"><ele>951.4</ele><time>2024-04-23T17:49:20Z</time></trkpt>
<trkpt lat="32.652944" lon="-116.540288"><ele>951.8</ele><time>2024-04-23T17:49:47Z</time></trkpt>
<trkpt lat="32.652984" lon="-116.540272"><ele>951.6</ele><time>2024-04-23T17:49:53Z</time></trkpt>
<trkpt lat="32.652842" lon="-116.540578"><ele>952.6</ele><time>2024-04-23T17:50:30Z</time></trkpt>
<trkpt lat="32.653010" lon="-116.540752"><ele>953.2</ele><time>2024-04-23T17:50:58Z</time></trkpt>
<trkpt lat="32.653013" lon="-116.541149"><ele>954.4</ele><time>2024-04-23T17:51:45Z</time></trkpt>
<trkpt lat="32.652803" lon="-116.541380"><ele>952.2</ele><time>2024-04-23T17:52:03Z</time></trkpt>
<trkpt lat="32.652618" lon="-116.542099"><ele>952.6</ele><time>2024-04-23T17:53:04Z</time></trkpt>
<trkpt lat="32.652437" lon="-116.542402"><ele>951.0</ele><time>2024-04-23T17:53:44Z</time></trkpt>
<trkpt lat="32.652566" lon="-116.542349"><ele>951.2</ele><time>2024-04-23T17:53:48Z</time></trkpt>
<trkpt lat="32.652729" lon="-116.542456"><ele>950.6</ele><time>2024-04-23T17:54:06Z</time></trkpt>
<trkpt lat="32.652725" lon="-116.542895"><ele>949.2</ele><time>2024-04-23T17:54:58Z</time></trkpt>
<trkpt lat="32.652956" lon="-116.543130"><ele>947.8</ele><time>2024-04-23T17:55:58Z</time></trkpt>
<trkpt lat="32.653318" lon="-116.543331"><ele>944.4</ele><time>2024-04-23T17:56:40Z</time></trkpt>
<trkpt lat="32.653637" lon="-116.543616"><ele>944.8</ele><time>2024-04-23T17:57:49Z</time></trkpt>
<trkpt lat="32.653587" lon="-116.543669"><ele>944.4</ele><time>2024-04-23T17:58:03Z</time></trkpt>
<trkpt lat="32.653861" lon="-116.543902"><ele>943.2</ele><time>2024-04-23T17:59:30Z</time></trkpt>
<trkpt lat="32.653868" lon="-116.544055"><ele>942.4</ele><time>2024-04-23T17:59:42Z</time></trkpt>
<trkpt lat="32.653955" lon="-116.544218"><ele>941.6</ele><time>2024-04-23T18:00:01Z</time></trkpt>
<trkpt lat="32.654419" lon="-116.544562"><ele>936.8</ele><time>2024-04-23T18:01:11Z</time></trkpt>
<trkpt lat="32.654527" lon="-116.544796"><ele>934.8</ele><time>2024-04-23T18:01:33Z</time></trkpt>
<trkpt lat="32.654762" lon="-116.544995"><ele>931.2</ele><time>2024-04-23T18:01:58Z</time></trkpt>
<trkpt lat="32.655355" lon="-116.545849"><ele>929.4</ele><time>2024-04-23T18:03:35Z</time></trkpt>
<trkpt lat="32.655431" lon="-116.546218"><ele>931.2</ele><time>2024-04-23T18:04:05Z</time></trkpt>
<trkpt lat="32.655575" lon="-116.546377"><ele>927.6</ele><time>2024-04-23T18:04:33Z</time></trkpt>
<trkpt lat="32.655868" lon="-116.546895"><ele>925.4</ele><time>2024-04-23T18:05:27Z</time></trkpt>
<trkpt lat="32.656462" lon="-116.547282"><ele>921.0</ele><time>2024-04-23T18:06:39Z</time></trkpt>
<trkpt lat="32.656793" lon="-116.547388"><ele>918.8</ele><time>2024-04-23T18:07:45Z</time></trkpt>
<trkpt lat="32.656837" lon="-116.547492"><ele>916.8</ele><time>2024-04-23T18:08:02Z</time></trkpt>
<trkpt lat="32.657287" lon="-116.547771"><ele>910.4</ele><time>2024-04-23T18:08:47Z</time></trkpt>
<trkpt lat="32.657442" lon="-116.547992"><ele>910.6</ele><time>2024-04-23T18:09:39Z</time></trkpt>
<trkpt lat="32.657646" lon="-116.548145"><ele>907.0</ele><time>2024-04-23T18:10:07Z</time></trkpt>
<trkpt lat="32.657991" lon="-116.548642"><ele>907.4</ele><time>2024-04-23T18:10:59Z</time></trkpt>
<trkpt lat="32.658348" lon="-116.548989"><ele>909.0</ele><time>2024-04-23T18:11:46Z</time></trkpt>
<trkpt lat="32.658408" lon="-116.549192"><ele>907.8</ele><time>2024-04-23T18:12:00Z</time></trkpt>
<trkpt lat="32.659306" lon="-116.549890"><ele>899.6</ele><time>2024-04-23T18:13:45Z</time></trkpt>
<trkpt lat="32.659927" lon="-116.550262"><ele>894.2</ele><time>2024-04-23T18:15:05Z</time></trkpt>
<trkpt lat="32.660003" lon="-116.550506"><ele>894.0</ele><time>2024-04-23T18:15:27Z</time></trkpt>
<trkpt lat="32.660178" lon="-116.550613"><ele>892.6</ele><time>2024-04-23T18:15:44Z</time></trkpt>
<trkpt lat="32.660173" lon="-116.550704"><ele>892.6</ele><time>2024-04-23T18:15:53Z</time></trkpt>
<trkpt lat="32.660026" lon="-116.550627"><ele>892.2</ele><time>2024-04-23T18:15:59Z</time></trkpt>
<trkpt lat="32.659953" lon="-116.550221"><ele>892.2</ele><time>2024-04-23T18:16:33Z</time></trkpt>
<trkpt lat="32.659641" lon="-116.549971"><ele>891.0</ele><time>2024-04-23T18:17:03Z</time></trkpt>
<trkpt lat="32.659297" lon="-116.549560"><ele>891.2</ele><time>2024-04-23T18:17:47Z</time></trkpt>
<trkpt lat="32.659152" lon="-116.549483"><ele>891.4</ele><time>2024-04-23T18:17:59Z</time></trkpt>
<trkpt lat="32.658864" lon="-116.549082"><ele>892.8</ele><time>2024-04-23T18:18:37Z</time></trkpt>
<trkpt lat="32.658490" lon="-116.548755"><ele>892.6</ele><time>2024-04-23T18:19:19Z</time></trkpt>
<trkpt lat="32.658437" lon="-116.548466"><ele>891.0</ele><time>2024-04-23T18:19:44Z</time></trkpt>
<trkpt lat="32.658299" lon="-116.548366"><ele>888.8</ele><time>2024-04-23T18:20:05Z</time></trkpt>
<trkpt lat="32.657950" lon="-116.547639"><ele>882.4</ele><time>2024-04-23T18:21:05Z</time></trkpt>
<trkpt lat="32.657705" lon="-116.547536"><ele>881.2</ele><time>2024-04-23T18:21:27Z</time></trkpt>
<trkpt lat="32.657555" lon="-116.547605"><ele>879.6</ele><time>2024-04-23T18:21:44Z</time></trkpt>
<trkpt lat="32.657580" lon="-116.547362"><ele>879.2</ele><time>2024-04-23T18:21:54Z</time></trkpt>
<trkpt lat="32.657227" lon="-116.546783"><ele>878.2</ele><time>2024-04-23T18:22:51Z</time></trkpt>
<trkpt lat="32.657012" lon="-116.546254"><ele>879.2</ele><time>2024-04-23T18:23:44Z</time></trkpt>
<trkpt lat="32.656927" lon="-116.546258"><ele>878.2</ele><time>2024-04-23T18:23:53Z</time></trkpt>
<trkpt lat="32.656823" lon="-116.546128"><ele>877.0</ele><time>2024-04-23T18:24:11Z</time></trkpt>
<trkpt lat="32.656781" lon="-116.545851"><ele>877.6</ele><time>2024-04-23T18:25:46Z</time></trkpt>
<trkpt lat="32.656521" lon="-116.545798"><ele>876.8</ele><time>2024-04-23T18:25:59Z</time></trkpt>
<trkpt lat="32.656441" lon="-116.545508"><ele>875.8</ele><time>2024-04-23T18:26:21Z</time></trkpt>
<trkpt lat="32.656294" lon="-116.545292"><ele>875.8</ele><time>2024-04-23T18:26:35Z</time></trkpt>
<trkpt lat="32.655997" lon="-116.543833"><ele>874.8</ele><time>2024-04-23T18:27:44Z</time></trkpt>
<trkpt lat="32.655780" lon="-116.544675"><ele>873.2</ele><time>2024-04-23T18:27:53Z</time></trkpt>
<trkpt lat="32.655710" lon="-116.544581"><ele>871.6</ele><time>2024-04-23T18:28:04Z</time></trkpt>
<trkpt lat="32.655444" lon="-116.542906"><ele>867.4</ele><time>2024-04-23T18:29:17Z</time></trkpt>
<trkpt lat="32.655303" lon="-116.542382"><ele>865.6</ele><time>2024-04-23T18:29:44Z</time></trkpt>
<trkpt lat="32.655115" lon="-116.543020"><ele>865.6</ele><time>2024-04-23T18:29:46Z</time></trkpt>
<trkpt lat="32.655102" lon="-116.543240"><ele>865.4</ele><time>2024-04-23T18:29:47Z</time></trkpt>
<trkpt lat="32.655039" lon="-116.543340"><ele>865.2</ele><time>2024-04-23T18:29:50Z</time></trkpt>
<trkpt lat="32.654931" lon="-116.543284"><ele>865.0</ele><time>2024-04-23T18:30:00Z</time></trkpt>
<trkpt lat="32.654876" lon="-116.542164"><ele>859.8</ele><time>2024-04-23T18:31:05Z</time></trkpt>
<trkpt lat="32.655035" lon="-116.541724"><ele>857.2</ele><time>2024-04-23T18:31:37Z</time></trkpt>
<trkpt lat="32.654804" lon="-116.541451"><ele>856.2</ele><time>2024-04-23T18:31:44Z</time></trkpt>
<trkpt lat="32.655145" lon="-116.541389"><ele>856.0</ele><time>2024-04-23T18:31:45Z</time></trkpt>
<trkpt lat="32.654719" lon="-116.542342"><ele>856.0</ele><time>2024-04-23T18:31:46Z</time></trkpt>
<trkpt lat="32.654994" lon="-116.542587"><ele>855.6</ele><time>2024-04-23T18:31:48Z</time></trkpt>
<trkpt lat="32.654782" lon="-116.542591"><ele>855.4</ele><time>2024-04-23T18:31:50Z</time></trkpt>
<trkpt lat="32.654771" lon="-116.542471"><ele>855.0</ele><time>2024-04-23T18:31:55Z</time></trkpt>
<trkpt lat="32.654701" lon="-116.542418"><ele>853.8</ele><time>2024-04-23T18:32:04Z</time></trkpt>
<trkpt lat="32.654499" lon="-116.541186"><ele>852.6</ele><time>2024-04-23T18:32:11Z</time></trkpt>
<trkpt lat="32.654686" lon="-116.542154"><ele>848.8</ele><time>2024-04-23T18:33:47Z</time></trkpt>
<trkpt lat="32.654645" lon="-116.542113"><ele>848.8</ele><time>2024-04-23T18:33:53Z</time></trkpt>
<trkpt lat="32.654688" lon="-116.542127"><ele>848.8</ele><time>2024-04-23T18:34:00Z</time></trkpt>
<trkpt lat="32.654659" lon="-116.542089"><ele>849.8</ele><time>2024-04-23T18:35:50Z</time></trkpt>
<trkpt lat="32.654699" lon="-116.542203"><ele>851.4</ele><time>2024-04-23T18:37:47Z</time></trkpt>
<trkpt lat="32.654689" lon="-116.542127"><ele>851.6</ele><time>2024-04-23T18:37:54Z</time></trkpt>
<trkpt lat="32.654650" lon="-116.542132"><ele>851.8</ele><time>2024-04-23T18:39:48Z</time></trkpt>
<trkpt lat="32.654686" lon="-116.542175"><ele>852.2</ele><time>2024-04-23T18:39:55Z</time></trkpt>
<trkpt lat="32.654638" lon="-116.542136"><ele>853.4</ele><time>2024-04-23T18:41:46Z</time></trkpt>
<trkpt lat="32.654660" lon="-116.542218"><ele>853.8</ele><time>2024-04-23T18:41:50Z</time></trkpt>
<trkpt lat="32.654639" lon="-116.542129"><ele>854.8</ele><time>2024-04-23T18:42:01Z</time></trkpt>
<trkpt lat="32.654988" lon="-116.542367"><ele>851.0</ele><time>2024-04-23T18:43:44Z</time></trkpt>
<trkpt lat="32.655010" lon="-116.542472"><ele>848.2</ele><time>2024-04-23T18:44:05Z</time></trkpt>
<trkpt lat="32.655506" lon="-116.543165"><ele>835.2</ele><time>2024-04-23T18:45:56Z</time></trkpt>
<trkpt lat="32.655782" lon="-116.543185"><ele>820.6</ele><time>2024-04-23T18:47:44Z</time></trkpt>
<trkpt lat="32.655696" lon="-116.543179"><ele>819.2</ele><time>2024-04-23T18:47:51Z</time></trkpt>
<trkpt lat="32.655612" lon="-116.543025"><ele>818.6</ele><time>2024-04-23T18:47:55Z</time></trkpt>
<trkpt lat="32.656110" lon="-116.543228"><ele>807.4</ele><time>2024-04-23T18:49:17Z</time></trkpt>
<trkpt lat="32.656528" lon="-116.543461"><ele>806.0</ele><time>2024-04-23T18:49:45Z</time></trkpt>
<trkpt lat="32.656403" lon="-116.543515"><ele>805.8</ele><time>2024-04-23T18:49:46Z</time></trkpt>
<trkpt lat="32.656501" lon="-116.543624"><ele>804.8</ele><time>2024-04-23T18:49:52Z</time></trkpt>
<trkpt lat="32.656662" lon="-116.544124"><ele>802.0</ele><time>2024-04-23T18:50:27Z</time></trkpt>
<trkpt lat="32.656637" lon="-116.544067"><ele>801.4</ele><time>2024-04-23T18:50:46Z</time></trkpt>
<trkpt lat="32.656952" lon="-116.544394"><ele>796.8</ele><time>2024-04-23T18:51:23Z</time></trkpt>
<trkpt lat="32.657221" lon="-116.544549"><ele>795.4</ele><time>2024-04-23T18:51:53Z</time></trkpt>
<trkpt lat="32.657254" lon="-116.544658"><ele>795.0</ele><time>2024-04-23T18:52:01Z</time></trkpt>
<trkpt lat="32.657669" lon="-116.544834"><ele>788.6</ele><time>2024-04-23T18:53:44Z</time></trkpt>
<trkpt lat="32.657627" lon="-116.544556"><ele>789.0</ele><time>2024-04-23T18:53:50Z</time></trkpt>
<trkpt lat="32.657695" lon="-116.544725"><ele>788.8</ele><time>2024-04-23T18:53:55Z</time></trkpt>
<trkpt lat="32.657651" lon="-116.544796"><ele>788.2</ele><time>2024-04-23T18:54:14Z</time></trkpt>
<trkpt lat="32.657882" lon="-116.545092"><ele>784.4</ele><time>2024-04-23T18:54:42Z</time></trkpt>
<trkpt lat="32.657965" lon="-116.545043"><ele>782.8</ele><time>2024-04-23T18:54:53Z</time></trkpt>
<trkpt lat="32.658220" lon="-116.545150"><ele>774.6</ele><time>2024-04-23T18:55:35Z</time></trkpt>
<trkpt lat="32.658557" lon="-116.545317"><ele>773.6</ele><time>2024-04-23T18:56:03Z</time></trkpt>
<trkpt lat="32.659102" lon="-116.544869"><ele>759.8</ele><time>2024-04-23T18:57:47Z</time></trkpt>
<trkpt lat="32.659078" lon="-116.545372"><ele>758.2</ele><time>2024-04-23T18:57:55Z</time></trkpt>
<trkpt lat="32.659457" lon="-116.545569"><ele>750.6</ele><time>2024-04-23T18:58:37Z</time></trkpt>
<trkpt lat="32.659578" lon="-116.545562"><ele>747.4</ele><time>2024-04-23T18:58:50Z</time></trkpt>
<trkpt lat="32.659628" lon="-116.545686"><ele>744.2</ele><time>2024-04-23T18:59:07Z</time></trkpt>
<trkpt lat="32.659853" lon="-116.545645"><ele>743.0</ele><time>2024-04-23T18:59:21Z</time></trkpt>
<trkpt lat="32.660080" lon="-116.545787"><ele>741.2</ele><time>2024-04-23T18:59:42Z</time></trkpt>
<trkpt lat="32.660026" lon="-116.545706"><ele>740.6</ele><time>2024-04-23T18:59:48Z</time></trkpt>
<trkpt lat="32.660318" lon="-116.545691"><ele>735.6</ele><time>2024-04-23T19:00:21Z</time></trkpt>
<trkpt lat="32.660214" lon="-116.545506"><ele>731.8</ele><time>2024-04-23T19:00:42Z</time></trkpt>
<trkpt lat="32.660057" lon="-116.545457"><ele>731.4</ele><time>2024-04-23T19:00:56Z</time></trkpt>
<trkpt lat="32.660185" lon="-116.545397"><ele>728.8</ele><time>2024-04-23T19:01:15Z</time></trkpt>
<trkpt lat="32.660448" lon="-116.545473"><ele>723.6</ele><time>2024-04-23T19:01:43Z</time></trkpt>
<trkpt lat="32.660513" lon="-116.545429"><ele>722.4</ele><time>2024-04-23T19:01:52Z</time></trkpt>
<trkpt lat="32.660694" lon="-116.545575"><ele>718.2</ele><time>2024-04-23T19:02:15Z</time></trkpt>
<trkpt lat="32.661076" lon="-116.545598"><ele>713.0</ele><time>2024-04-23T19:02:47Z</time></trkpt>
<trkpt lat="32.661340" lon="-116.545341"><ele>709.8</ele><time>2024-04-23T19:03:17Z</time></trkpt>
<trkpt lat="32.661443" lon="-116.545331"><ele>708.8</ele><time>2024-04-23T19:03:25Z</time></trkpt>
<trkpt lat="32.661521" lon="-116.545461"><ele>708.6</ele><time>2024-04-23T19:04:22Z</time></trkpt>
<trkpt lat="32.661429" lon="-116.545454"><ele>708.2</ele><time>2024-04-23T19:04:34Z</time></trkpt>
<trkpt lat="32.661429" lon="-116.545513"><ele>709.0</ele><time>2024-04-23T19:06:01Z</time></trkpt>
<trkpt lat="32.661392" lon="-116.545357"><ele>708.6</ele><time>2024-04-23T19:06:45Z</time></trkpt>
<trkpt lat="32.661494" lon="-116.545538"><ele>707.8</ele><time>2024-04-23T19:06:58Z</time></trkpt>
<trkpt lat="32.661436" lon="-116.545392"><ele>708.6</ele><time>2024-04-23T19:08:53Z</time></trkpt>
<trkpt lat="32.661775" lon="-116.545765"><ele>710.0</ele><time>2024-04-23T19:10:45Z</time></trkpt>
<trkpt lat="32.661815" lon="-116.545690"><ele>710.6</ele><time>2024-04-23T19:10:47Z</time></trkpt>
<trkpt lat="32.661915" lon="-116.545730"><ele>712.6</ele><time>2024-04-23T19:11:01Z</time></trkpt>
<trkpt lat="32.662023" lon="-116.545626"><ele>715.4</ele><time>2024-04-23T19:11:25Z</time></trkpt>
<trkpt lat="32.661989" lon="-116.544825"><ele>728.8</ele><time>2024-04-23T19:13:05Z</time></trkpt>
<trkpt lat="32.662241" lon="-116.544579"><ele>733.2</ele><time>2024-04-23T19:13:47Z</time></trkpt>
<trkpt lat="32.662225" lon="-116.544423"><ele>737.4</ele><time>2024-04-23T19:14:13Z</time></trkpt>
<trkpt lat="32.662399" lon="-116.543870"><ele>743.2</ele><time>2024-04-23T19:15:03Z</time></trkpt>
<trkpt lat="32.662280" lon="-116.542603"><ele>752.2</ele><time>2024-04-23T19:16:45Z</time></trkpt>
<trkpt lat="32.662604" lon="-116.542697"><ele>753.2</ele><time>2024-04-23T19:17:00Z</time></trkpt>
<trkpt lat="32.663180" lon="-116.543374"><ele>764.4</ele><time>2024-04-23T19:18:44Z</time></trkpt>
<trkpt lat="32.664162" lon="-116.543794"><ele>778.8</ele><time>2024-04-23T19:20:59Z</time></trkpt>
<trkpt lat="32.664273" lon="-116.543125"><ele>784.2</ele><time>2024-04-23T19:23:19Z</time></trkpt>
<trkpt lat="32.664204" lon="-116.543033"><ele>785.2</ele><time>2024-04-23T19:23:31Z</time></trkpt>
<trkpt lat="32.664260" lon="-116.542835"><ele>784.2</ele><time>2024-04-23T19:23:59Z</time></trkpt>
<trkpt lat="32.664072" lon="-116.542515"><ele>788.0</ele><time>2024-04-23T19:24:51Z</time></trkpt>
<trkpt lat="32.664108" lon="-116.542266"><ele>790.6</ele><time>2024-04-23T19:25:11Z</time></trkpt>
<trkpt lat="32.664058" lon="-116.542020"><ele>796.0</ele><time>2024-04-23T19:26:15Z</time></trkpt>
<trkpt lat="32.664213" lon="-116.541500"><ele>801.4</ele><time>2024-04-23T19:26:57Z</time></trkpt>
<trkpt lat="32.664143" lon="-116.540720"><ele>813.4</ele><time>2024-04-23T19:28:45Z</time></trkpt>
<trkpt lat="32.664218" lon="-116.540726"><ele>814.6</ele><time>2024-04-23T19:28:49Z</time></trkpt>
<trkpt lat="32.664244" lon="-116.540839"><ele>816.2</ele><time>2024-04-23T19:29:02Z</time></trkpt>
<trkpt lat="32.664349" lon="-116.540876"><ele>820.2</ele><time>2024-04-23T19:29:43Z</time></trkpt>
<trkpt lat="32.664268" lon="-116.540711"><ele>828.0</ele><time>2024-04-23T19:30:45Z</time></trkpt>
<trkpt lat="32.664352" lon="-116.540531"><ele>829.2</ele><time>2024-04-23T19:30:51Z</time></trkpt>
<trkpt lat="32.664447" lon="-116.539500"><ele>840.2</ele><time>2024-04-23T19:32:47Z</time></trkpt>
<trkpt lat="32.664468" lon="-116.539595"><ele>841.2</ele><time>2024-04-23T19:32:55Z</time></trkpt>
<trkpt lat="32.664475" lon="-116.539549"><ele>842.0</ele><time>2024-04-23T19:33:03Z</time></trkpt>
<trkpt lat="32.664344" lon="-116.539352"><ele>845.6</ele><time>2024-04-23T19:33:49Z</time></trkpt>
<trkpt lat="32.664295" lon="-116.539002"><ele>851.6</ele><time>2024-04-23T19:34:41Z</time></trkpt>
<trkpt lat="32.664209" lon="-116.538795"><ele>853.4</ele><time>2024-04-23T19:36:54Z</time></trkpt>
<trkpt lat="32.664172" lon="-116.538865"><ele>852.4</ele><time>2024-04-23T19:38:45Z</time></trkpt>
<trkpt lat="32.664255" lon="-116.538828"><ele>853.2</ele><time>2024-04-23T19:40:43Z</time></trkpt>
<trkpt lat="32.664217" lon="-116.538799"><ele>852.6</ele><time>2024-04-23T19:42:50Z</time></trkpt>
<trkpt lat="32.664188" lon="-116.538859"><ele>852.8</ele><time>2024-04-23T19:44:31Z</time></trkpt>
<trkpt lat="32.664192" lon="-116.538807"><ele>852.8</ele><time>2024-04-23T19:46:15Z</time></trkpt>
<trkpt lat="32.664132" lon="-116.538897"><ele>858.8</ele><time>2024-04-23T19:48:18Z</time></trkpt>
<trkpt lat="32.664255" lon="-116.538758"><ele>855.6</ele><time>2024-04-23T19:48:43Z</time></trkpt>
<trkpt lat="32.664268" lon="-116.538836"><ele>854.6</ele><time>2024-04-23T19:48:50Z</time></trkpt>
<trkpt lat="32.664211" lon="-116.538864"><ele>854.4</ele><time>2024-04-23T19:48:57Z</time></trkpt>
<trkpt lat="32.663947" lon="-116.538007"><ele>867.6</ele><time>2024-04-23T19:50:53Z</time></trkpt>
<trkpt lat="32.663880" lon="-116.538001"><ele>869.0</ele><time>2024-04-23T19:51:02Z</time></trkpt>
<trkpt lat="32.663899" lon="-116.537914"><ele>872.4</ele><time>2024-04-23T19:51:23Z</time></trkpt>
<trkpt lat="32.664122" lon="-116.537785"><ele>883.2</ele><time>2024-04-23T19:52:44Z</time></trkpt>
<trkpt lat="32.664266" lon="-116.537946"><ele>884.2</ele><time>2024-04-23T19:53:01Z</time></trkpt>
<trkpt lat="32.665100" lon="-116.538247"><ele>897.0</ele><time>2024-04-23T19:54:47Z</time></trkpt>
<trkpt lat="32.665994" lon="-116.538303"><ele>911.4</ele><time>2024-04-23T19:56:49Z</time></trkpt>
<trkpt lat="32.666091" lon="-116.538223"><ele>913.4</ele><time>2024-04-23T19:57:04Z</time></trkpt>
<trkpt lat="32.666400" lon="-116.538222"><ele>920.8</ele><time>2024-04-23T19:58:01Z</time></trkpt>
<trkpt lat="32.666649" lon="-116.538285"><ele>924.6</ele><time>2024-04-23T19:58:43Z</time></trkpt>
<trkpt lat="32.666587" lon="-116.538080"><ele>927.6</ele><time>2024-04-23T19:59:05Z</time></trkpt>
<trkpt lat="32.666145" lon="-116.537813"><ele>930.2</ele><time>2024-04-23T20:00:01Z</time></trkpt>
<trkpt lat="32.666007" lon="-116.537551"><ele>934.8</ele><time>2024-04-23T20:00:45Z</time></trkpt>
<trkpt lat="32.666012" lon="-116.537201"><ele>936.2</ele><time>2024-04-23T20:01:04Z</time></trkpt>
<trkpt lat="32.665847" lon="-116.536297"><ele>946.8</ele><time>2024-04-23T20:02:51Z</time></trkpt>
<trkpt lat="32.665824" lon="-116.536410"><ele>947.0</ele><time>2024-04-23T20:03:01Z</time></trkpt>
<trkpt lat="32.665158" lon="-116.536287"><ele>952.8</ele><time>2024-04-23T20:04:11Z</time></trkpt>
<trkpt lat="32.664839" lon="-116.536182"><ele>955.8</ele><time>2024-04-23T20:04:44Z</time></trkpt>
<trkpt lat="32.664813" lon="-116.536006"><ele>955.8</ele><time>2024-04-23T20:04:45Z</time></trkpt>
<trkpt lat="32.665462" lon="-116.535564"><ele>955.8</ele><time>2024-04-23T20:04:49Z</time></trkpt>
<trkpt lat="32.665365" lon="-116.535395"><ele>957.0</ele><time>2024-04-23T20:05:03Z</time></trkpt>
<trkpt lat="32.665772" lon="-116.535523"><ele>961.4</ele><time>2024-04-23T20:05:31Z</time></trkpt>
<trkpt lat="32.665633" lon="-116.535429"><ele>962.6</ele><time>2024-04-23T20:05:42Z</time></trkpt>
<trkpt lat="32.665723" lon="-116.535271"><ele>965.0</ele><time>2024-04-23T20:07:23Z</time></trkpt>
<trkpt lat="32.665826" lon="-116.535233"><ele>966.0</ele><time>2024-04-23T20:09:29Z</time></trkpt>
<trkpt lat="32.665808" lon="-116.535275"><ele>965.8</ele><time>2024-04-23T20:09:45Z</time></trkpt>
<trkpt lat="32.665808" lon="-116.535192"><ele>967.0</ele><time>2024-04-23T20:09:50Z</time></trkpt>
<trkpt lat="32.665883" lon="-116.535248"><ele>967.8</ele><time>2024-04-23T20:09:58Z</time></trkpt>
<trkpt lat="32.665989" lon="-116.535104"><ele>974.8</ele><time>2024-04-23T20:10:37Z</time></trkpt>
<trkpt lat="32.666503" lon="-116.534563"><ele>971.0</ele><time>2024-04-23T20:11:49Z</time></trkpt>
<trkpt lat="32.667671" lon="-116.534094"><ele>962.4</ele><time>2024-04-23T20:14:03Z</time></trkpt>
<trkpt lat="32.668116" lon="-116.533590"><ele>955.2</ele><time>2024-04-23T20:14:57Z</time></trkpt>
<trkpt lat="32.668598" lon="-116.533573"><ele>958.4</ele><time>2024-04-23T20:15:48Z</time></trkpt>
<trkpt lat="32.668801" lon="-116.533451"><ele>960.0</ele><time>2024-04-23T20:16:05Z</time></trkpt>
<trkpt lat="32.669181" lon="-116.533441"><ele>960.6</ele><time>2024-04-23T20:16:57Z</time></trkpt>
<trkpt lat="32.669376" lon="-116.533467"><ele>961.6</ele><time>2024-04-23T20:17:11Z</time></trkpt>
<trkpt lat="32.669821" lon="-116.533684"><ele>961.8</ele><time>2024-04-23T20:17:45Z</time></trkpt>
<trkpt lat="32.669915" lon="-116.533601"><ele>962.6</ele><time>2024-04-23T20:17:51Z</time></trkpt>
<trkpt lat="32.670123" lon="-116.533154"><ele>966.8</ele><time>2024-04-23T20:18:53Z</time></trkpt>
<trkpt lat="32.670328" lon="-116.532531"><ele>975.8</ele><time>2024-04-23T20:20:13Z</time></trkpt>
<trkpt lat="32.671280" lon="-116.532274"><ele>982.0</ele><time>2024-04-23T20:21:58Z</time></trkpt>
<trkpt lat="32.671875" lon="-116.532497"><ele>978.0</ele><time>2024-04-23T20:22:47Z</time></trkpt>
<trkpt lat="32.672018" lon="-116.532589"><ele>984.2</ele><time>2024-04-23T20:23:43Z</time></trkpt>
<trkpt lat="32.672377" lon="-116.532496"><ele>992.2</ele><time>2024-04-23T20:25:21Z</time></trkpt>
<trkpt lat="32.672446" lon="-116.532546"><ele>992.6</ele><time>2024-04-23T20:25:45Z</time></trkpt>
<trkpt lat="32.672561" lon="-116.532481"><ele>992.6</ele><time>2024-04-23T20:25:51Z</time></trkpt>
<trkpt lat="32.672591" lon="-116.532389"><ele>992.8</ele><time>2024-04-23T20:25:58Z</time></trkpt>
<trkpt lat="32.672481" lon="-116.532460"><ele>993.0</ele><time>2024-04-23T20:27:56Z</time></trkpt>
<trkpt lat="32.672467" lon="-116.532397"><ele>993.0</ele><time>2024-04-23T20:29:50Z</time></trkpt>
<trkpt lat="32.672483" lon="-116.532452"><ele>992.8</ele><time>2024-04-23T20:30:00Z</time></trkpt>
<trkpt lat="32.672307" lon="-116.532629"><ele>993.2</ele><time>2024-04-23T20:31:45Z</time></trkpt>
<trkpt lat="32.672468" lon="-116.532479"><ele>993.0</ele><time>2024-04-23T20:31:53Z</time></trkpt>
<trkpt lat="32.672295" lon="-116.532676"><ele>993.4</ele><time>2024-04-23T20:33:45Z</time></trkpt>
<trkpt lat="32.672446" lon="-116.532476"><ele>993.6</ele><time>2024-04-23T20:34:05Z</time></trkpt>
<trkpt lat="32.672517" lon="-116.532521"><ele>993.8</ele><time>2024-04-23T20:35:50Z</time></trkpt>
<trkpt lat="32.672448" lon="-116.532449"><ele>994.8</ele><time>2024-04-23T20:37:53Z</time></trkpt>
<trkpt lat="32.672508" lon="-116.532432"><ele>995.4</ele><time>2024-04-23T20:39:47Z</time></trkpt>
<trkpt lat="32.672335" lon="-116.532613"><ele>995.6</ele><time>2024-04-23T20:43:45Z</time></trkpt>
<trkpt lat="32.672493" lon="-116.532471"><ele>995.2</ele><time>2024-04-23T20:44:02Z</time></trkpt>
<trkpt lat="32.672449" lon="-116.532427"><ele>995.4</ele><time>2024-04-23T20:45:51Z</time></trkpt>
<trkpt lat="32.672501" lon="-116.532488"><ele>995.4</ele><time>2024-04-23T20:46:03Z</time></trkpt>
<trkpt lat="32.672417" lon="-116.532430"><ele>994.8</ele><time>2024-04-23T20:47:45Z</time></trkpt>
<trkpt lat="32.672594" lon="-116.532449"><ele>995.4</ele><time>2024-04-23T20:49:48Z</time></trkpt>
<trkpt lat="32.672516" lon="-116.532529"><ele>995.4</ele><time>2024-04-23T20:50:01Z</time></trkpt>
<trkpt lat="32.672463" lon="-116.532420"><ele>996.4</ele><time>2024-04-23T20:54:01Z</time></trkpt>
<trkpt lat="32.672413" lon="-116.532508"><ele>995.4</ele><time>2024-04-23T20:55:47Z</time></trkpt>
<trkpt lat="32.672530" lon="-116.532293"><ele>999.8</ele><time>2024-04-23T20:57:51Z</time></trkpt>
<trkpt lat="32.672424" lon="-116.532249"><ele>1000.6</ele><time>2024-04-23T20:57:57Z</time></trkpt>
<trkpt lat="32.672232" lon="-116.531972"><ele>1003.0</ele><time>2024-04-23T20:58:26Z</time></trkpt>
<trkpt lat="32.671797" lon="-116.531646"><ele>1009.8</ele><time>2024-04-23T20:59:34Z</time></trkpt>
<trkpt lat="32.671722" lon="-116.531517"><ele>1010.8</ele><time>2024-04-23T20:59:47Z</time></trkpt>
<trkpt lat="32.671765" lon="-116.531431"><ele>1009.8</ele><time>2024-04-23T21:00:03Z</time></trkpt>
<trkpt lat="32.671686" lon="-116.531189"><ele>1013.2</ele><time>2024-04-23T21:00:36Z</time></trkpt>
<trkpt lat="32.671584" lon="-116.531045"><ele>1020.2</ele><time>2024-04-23T21:01:45Z</time></trkpt>
<trkpt lat="32.671664" lon="-116.531004"><ele>1020.0</ele><time>2024-04-23T21:01:52Z</time></trkpt>
<trkpt lat="32.671607" lon="-116.530995"><ele>1020.4</ele><time>2024-04-23T21:02:01Z</time></trkpt>
<trkpt lat="32.671635" lon="-116.530953"><ele>1020.2</ele><time>2024-04-23T21:02:03Z</time></trkpt>
<trkpt lat="32.671497" lon="-116.530845"><ele>1025.0</ele><time>2024-04-23T21:03:02Z</time></trkpt>
<trkpt lat="32.671371" lon="-116.530630"><ele>1026.6</ele><time>2024-04-23T21:03:22Z</time></trkpt>
<trkpt lat="32.671510" lon="-116.530267"><ele>1028.4</ele><time>2024-04-23T21:04:03Z</time></trkpt>
<trkpt lat="32.671721" lon="-116.530254"><ele>1033.2</ele><time>2024-04-23T21:04:54Z</time></trkpt>
<trkpt lat="32.671789" lon="-116.530134"><ele>1032.8</ele><time>2024-04-23T21:05:02Z</time></trkpt>
<trkpt lat="32.671793" lon="-116.529959"><ele>1032.4</ele><time>2024-04-23T21:05:26Z</time></trkpt>
<trkpt lat="32.672004" lon="-116.529731"><ele>1034.0</ele><time>2024-04-23T21:05:51Z</time></trkpt>
<trkpt lat="32.672253" lon="-116.529213"><ele>1038.4</ele><time>2024-04-23T21:06:40Z</time></trkpt>
<trkpt lat="32.672555" lon="-116.528358"><ele>1047.8</ele><time>2024-04-23T21:08:02Z</time></trkpt>
<trkpt lat="32.672556" lon="-116.528156"><ele>1050.6</ele><time>2024-04-23T21:08:28Z</time></trkpt>
<trkpt lat="32.672168" lon="-116.527617"><ele>1053.4</ele><time>2024-04-23T21:09:40Z</time></trkpt>
<trkpt lat="32.672087" lon="-116.527366"><ele>1055.0</ele><time>2024-04-23T21:10:02Z</time></trkpt>
<trkpt lat="32.671425" lon="-116.526554"><ele>1063.6</ele><time>2024-04-23T21:11:47Z</time></trkpt>
<trkpt lat="32.671369" lon="-116.526619"><ele>1063.6</ele><time>2024-04-23T21:11:56Z</time></trkpt>
<trkpt lat="32.671121" lon="-116.526200"><ele>1067.0</ele><time>2024-04-23T21:12:32Z</time></trkpt>
<trkpt lat="32.671260" lon="-116.525309"><ele>1067.0</ele><time>2024-04-23T21:13:45Z</time></trkpt>
<trkpt lat="32.671313" lon="-116.525274"><ele>1067.0</ele><time>2024-04-23T21:13:51Z</time></trkpt>
<trkpt lat="32.671074" lon="-116.524882"><ele>1065.8</ele><time>2024-04-23T21:14:34Z</time></trkpt>
<trkpt lat="32.671194" lon="-116.524612"><ele>1063.8</ele><time>2024-04-23T21:15:00Z</time></trkpt>
<trkpt lat="32.671160" lon="-116.524154"><ele>1062.2</ele><time>2024-04-23T21:15:36Z</time></trkpt>
<trkpt lat="32.671269" lon="-116.523972"><ele>1061.0</ele><time>2024-04-23T21:15:54Z</time></trkpt>
<trkpt lat="32.671059" lon="-116.522369"><ele>1050.2</ele><time>2024-04-23T21:18:04Z</time></trkpt>
<trkpt lat="32.671342" lon="-116.521622"><ele>1042.4</ele><time>2024-04-23T21:19:24Z</time></trkpt>
<trkpt lat="32.671492" lon="-116.521494"><ele>1040.4</ele><time>2024-04-23T21:19:45Z</time></trkpt>
<trkpt lat="32.671443" lon="-116.521485"><ele>1040.2</ele><time>2024-04-23T21:19:47Z</time></trkpt>
<trkpt lat="32.671456" lon="-116.521322"><ele>1038.4</ele><time>2024-04-23T21:20:03Z</time></trkpt>
<trkpt lat="32.671585" lon="-116.521099"><ele>1036.4</ele><time>2024-04-23T21:20:28Z</time></trkpt>
<trkpt lat="32.671624" lon="-116.520028"><ele>1037.8</ele><time>2024-04-23T21:21:58Z</time></trkpt>
<trkpt lat="32.672118" lon="-116.519458"><ele>1044.8</ele><time>2024-04-23T21:23:22Z</time></trkpt>
<trkpt lat="32.672423" lon="-116.519199"><ele>1046.0</ele><time>2024-04-23T21:23:46Z</time></trkpt>
<trkpt lat="32.672686" lon="-116.519368"><ele>1044.2</ele><time>2024-04-23T21:24:08Z</time></trkpt>
<trkpt lat="32.673383" lon="-116.519444"><ele>1042.8</ele><time>2024-04-23T21:25:14Z</time></trkpt>
<trkpt lat="32.673688" lon="-116.519826"><ele>1041.8</ele><time>2024-04-23T21:26:01Z</time></trkpt>
<trkpt lat="32.674702" lon="-116.520365"><ele>1047.8</ele><time>2024-04-23T21:27:45Z</time></trkpt>
<trkpt lat="32.674725" lon="-116.520320"><ele>1048.0</ele><time>2024-04-23T21:27:46Z</time></trkpt>
<trkpt lat="32.674734" lon="-116.520377"><ele>1048.4</ele><time>2024-04-23T21:27:50Z</time></trkpt>
<trkpt lat="32.674729" lon="-116.520326"><ele>1048.8</ele><time>2024-04-23T21:27:57Z</time></trkpt>
<trkpt lat="32.674891" lon="-116.520367"><ele>1049.4</ele><time>2024-04-23T21:28:08Z</time></trkpt>
<trkpt lat="32.675110" lon="-116.520284"><ele>1049.4</ele><time>2024-04-23T21:28:30Z</time></trkpt>
<trkpt lat="32.675383" lon="-116.520132"><ele>1053.4</ele><time>2024-04-23T21:29:45Z</time></trkpt>
<trkpt lat="32.675266" lon="-116.520069"><ele>1053.8</ele><time>2024-04-23T21:29:53Z</time></trkpt>
<trkpt lat="32.675241" lon="-116.520146"><ele>1054.2</ele><time>2024-04-23T21:31:45Z</time></trkpt>
<trkpt lat="32.675293" lon="-116.520171"><ele>1054.4</ele><time>2024-04-23T21:31:49Z</time></trkpt>
<trkpt lat="32.675204" lon="-116.519968"><ele>1056.6</ele><time>2024-04-23T21:33:48Z</time></trkpt>
<trkpt lat="32.675265" lon="-116.520122"><ele>1056.8</ele><time>2024-04-23T21:35:56Z</time></trkpt>
<trkpt lat="32.675226" lon="-116.520032"><ele>1056.0</ele><time>2024-04-23T21:38:01Z</time></trkpt>
<trkpt lat="32.675427" lon="-116.520046"><ele>1056.2</ele><time>2024-04-23T21:38:24Z</time></trkpt>
<trkpt lat="32.675476" lon="-116.519933"><ele>1057.8</ele><time>2024-04-23T21:39:06Z</time></trkpt>
<trkpt lat="32.675595" lon="-116.519916"><ele>1058.6</ele><time>2024-04-23T21:39:26Z</time></trkpt>
<trkpt lat="32.675775" lon="-116.519561"><ele>1061.8</ele><time>2024-04-23T21:40:04Z</time></trkpt>
<trkpt lat="32.676151" lon="-116.519121"><ele>1064.4</ele><time>2024-04-23T21:41:14Z</time></trkpt>
<trkpt lat="32.676366" lon="-116.518995"><ele>1067.4</ele><time>2024-04-23T21:41:45Z</time></trkpt>
<trkpt lat="32.676459" lon="-116.519016"><ele>1067.2</ele><time>2024-04-23T21:43:46Z</time></trkpt>
<trkpt lat="32.676392" lon="-116.518999"><ele>1067.4</ele><time>2024-04-23T21:43:56Z</time></trkpt>
<trkpt lat="32.676520" lon="-116.519136"><ele>1068.8</ele><time>2024-04-23T21:46:06Z</time></trkpt>
<trkpt lat="32.676717" lon="-116.519160"><ele>1070.2</ele><time>2024-04-23T21:46:30Z</time></trkpt>
<trkpt lat="32.677074" lon="-116.519031"><ele>1073.4</ele><time>2024-04-23T21:47:24Z</time></trkpt>
<trkpt lat="32.677416" lon="-116.519073"><ele>1071.6</ele><time>2024-04-23T21:47:45Z</time></trkpt>
<trkpt lat="32.677356" lon="-116.519224"><ele>1070.2</ele><time>2024-04-23T21:48:02Z</time></trkpt>
<trkpt lat="32.677457" lon="-116.519252"><ele>1068.2</ele><time>2024-04-23T21:48:12Z</time></trkpt>
<trkpt lat="32.677560" lon="-116.519401"><ele>1065.6</ele><time>2024-04-23T21:48:26Z</time></trkpt>
<trkpt lat="32.677637" lon="-116.519665"><ele>1063.6</ele><time>2024-04-23T21:48:48Z</time></trkpt>
<trkpt lat="32.677803" lon="-116.519731"><ele>1062.8</ele><time>2024-04-23T21:49:18Z</time></trkpt>
<trkpt lat="32.678027" lon="-116.519679"><ele>1059.6</ele><time>2024-04-23T21:49:48Z</time></trkpt>
<trkpt lat="32.678366" lon="-116.519739"><ele>1053.8</ele><time>2024-04-23T21:50:26Z</time></trkpt>
<trkpt lat="32.678197" lon="-116.520010"><ele>1049.6</ele><time>2024-04-23T21:51:02Z</time></trkpt>
<trkpt lat="32.678550" lon="-116.519967"><ele>1046.4</ele><time>2024-04-23T21:51:34Z</time></trkpt>
<trkpt lat="32.678574" lon="-116.519920"><ele>1044.8</ele><time>2024-04-23T21:51:47Z</time></trkpt>
<trkpt lat="32.678832" lon="-116.520007"><ele>1043.0</ele><time>2024-04-23T21:52:06Z</time></trkpt>
<trkpt lat="32.679027" lon="-116.520163"><ele>1039.8</ele><time>2024-04-23T21:52:34Z</time></trkpt>
<trkpt lat="32.679151" lon="-116.520739"><ele>1039.4</ele><time>2024-04-23T21:53:12Z</time></trkpt>
<trkpt lat="32.679406" lon="-116.521002"><ele>1037.4</ele><time>2024-04-23T21:53:45Z</time></trkpt>
<trkpt lat="32.680114" lon="-116.522428"><ele>1031.6</ele><time>2024-04-23T21:55:48Z</time></trkpt>
<trkpt lat="32.680614" lon="-116.523121"><ele>1030.8</ele><time>2024-04-23T21:57:02Z</time></trkpt>
<trkpt lat="32.680760" lon="-116.523610"><ele>1029.4</ele><time>2024-04-23T21:57:38Z</time></trkpt>
<trkpt lat="32.680868" lon="-116.523691"><ele>1028.2</ele><time>2024-04-23T21:57:46Z</time></trkpt>
<trkpt lat="32.680925" lon="-116.523918"><ele>1027.0</ele><time>2024-04-23T21:57:58Z</time></trkpt>
<trkpt lat="32.680825" lon="-116.524137"><ele>1024.6</ele><time>2024-04-23T21:58:22Z</time></trkpt>
<trkpt lat="32.681117" lon="-116.524109"><ele>1020.6</ele><time>2024-04-23T21:59:04Z</time></trkpt>
<trkpt lat="32.681198" lon="-116.524156"><ele>1020.4</ele><time>2024-04-23T21:59:28Z</time></trkpt>
<trkpt lat="32.681424" lon="-116.524098"><ele>1018.0</ele><time>2024-04-23T21:59:59Z</time></trkpt>
<trkpt lat="32.681451" lon="-116.524147"><ele>1017.2</ele><time>2024-04-23T22:00:03Z</time></trkpt>
<trkpt lat="32.681837" lon="-116.524164"><ele>1014.8</ele><time>2024-04-23T22:00:42Z</time></trkpt>
<trkpt lat="32.682334" lon="-116.523847"><ele>1011.8</ele><time>2024-04-23T22:01:47Z</time></trkpt>
<trkpt lat="32.682194" lon="-116.523565"><ele>1010.8</ele><time>2024-04-23T22:01:55Z</time></trkpt>
<trkpt lat="32.682314" lon="-116.523102"><ele>1003.8</ele><time>2024-04-23T22:03:00Z</time></trkpt>
<trkpt lat="32.682342" lon="-116.522660"><ele>999.0</ele><time>2024-04-23T22:03:46Z</time></trkpt>
<trkpt lat="32.682392" lon="-116.522650"><ele>998.4</ele><time>2024-04-23T22:03:50Z</time></trkpt>
<trkpt lat="32.682259" lon="-116.522406"><ele>997.8</ele><time>2024-04-23T22:03:55Z</time></trkpt>
<trkpt lat="32.682340" lon="-116.522324"><ele>997.4</ele><time>2024-04-23T22:04:11Z</time></trkpt>
<trkpt lat="32.682163" lon="-116.522025"><ele>989.0</ele><time>2024-04-23T22:05:35Z</time></trkpt>
<trkpt lat="32.682140" lon="-116.521827"><ele>986.2</ele><time>2024-04-23T22:05:51Z</time></trkpt>
<trkpt lat="32.682020" lon="-116.521553"><ele>985.8</ele><time>2024-04-23T22:05:55Z</time></trkpt>
<trkpt lat="32.682377" lon="-116.521052"><ele>977.0</ele><time>2024-04-23T22:07:45Z</time></trkpt>
<trkpt lat="32.682269" lon="-116.520688"><ele>976.4</ele><time>2024-04-23T22:07:57Z</time></trkpt>
<trkpt lat="32.682396" lon="-116.520336"><ele>975.0</ele><time>2024-04-23T22:08:21Z</time></trkpt>
<trkpt lat="32.682523" lon="-116.519457"><ele>966.2</ele><time>2024-04-23T22:09:48Z</time></trkpt>
<trkpt lat="32.682636" lon="-116.519545"><ele>965.4</ele><time>2024-04-23T22:09:54Z</time></trkpt>
<trkpt lat="32.682704" lon="-116.519496"><ele>964.2</ele><time>2024-04-23T22:10:03Z</time></trkpt>
<trkpt lat="32.682704" lon="-116.519055"><ele>960.4</ele><time>2024-04-23T22:11:19Z</time></trkpt>
<trkpt lat="32.682801" lon="-116.518780"><ele>957.4</ele><time>2024-04-23T22:12:04Z</time></trkpt>
<trkpt lat="32.682838" lon="-116.518345"><ele>953.0</ele><time>2024-04-23T22:13:47Z</time></trkpt>
<trkpt lat="32.682904" lon="-116.518390"><ele>952.6</ele><time>2024-04-23T22:13:49Z</time></trkpt>
<trkpt lat="32.682842" lon="-116.517821"><ele>947.4</ele><time>2024-04-23T22:14:47Z</time></trkpt>
<trkpt lat="32.682767" lon="-116.517628"><ele>945.6</ele><time>2024-04-23T22:14:59Z</time></trkpt>
<trkpt lat="32.682607" lon="-116.517506"><ele>943.4</ele><time>2024-04-23T22:15:21Z</time></trkpt>
<trkpt lat="32.682604" lon="-116.517129"><ele>940.6</ele><time>2024-04-23T22:15:46Z</time></trkpt>
<trkpt lat="32.682531" lon="-116.517141"><ele>940.4</ele><time>2024-04-23T22:15:51Z</time></trkpt>
<trkpt lat="32.682534" lon="-116.517083"><ele>940.6</ele><time>2024-04-23T22:15:59Z</time></trkpt>
<trkpt lat="32.682644" lon="-116.517060"><ele>939.8</ele><time>2024-04-23T22:16:15Z</time></trkpt>
<trkpt lat="32.682776" lon="-116.516743"><ele>938.2</ele><time>2024-04-23T22:17:13Z</time></trkpt>
<trkpt lat="32.683223" lon="-116.516777"><ele>937.4</ele><time>2024-04-23T22:17:46Z</time></trkpt>
<trkpt lat="32.683224" lon="-116.516724"><ele>937.4</ele><time>2024-04-23T22:17:50Z</time></trkpt>
<trkpt lat="32.683832" lon="-116.517013"><ele>938.8</ele><time>2024-04-23T22:18:45Z</time></trkpt>
<trkpt lat="32.684017" lon="-116.516905"><ele>939.4</ele><time>2024-04-23T22:19:11Z</time></trkpt>
<trkpt lat="32.683977" lon="-116.516906"><ele>938.6</ele><time>2024-04-23T22:19:48Z</time></trkpt>
<trkpt lat="32.684045" lon="-116.516756"><ele>939.4</ele><time>2024-04-23T22:22:57Z</time></trkpt>
<trkpt lat="32.684112" lon="-116.516874"><ele>938.8</ele><time>2024-04-23T22:23:15Z</time></trkpt>
<trkpt lat="32.684706" lon="-116.516732"><ele>939.2</ele><time>2024-04-23T22:24:53Z</time></trkpt>
<trkpt lat="32.685215" lon="-116.516725"><ele>939.6</ele><time>2024-04-23T22:25:31Z</time></trkpt>
<trkpt lat="32.685294" lon="-116.516837"><ele>939.4</ele><time>2024-04-23T22:25:55Z</time></trkpt>
<trkpt lat="32.685338" lon="-116.516785"><ele>937.8</ele><time>2024-04-23T22:26:53Z</time></trkpt>
<trkpt lat="32.685338" lon="-116.516879"><ele>936.2</ele><time>2024-04-23T22:27:50Z</time></trkpt>
<trkpt lat="32.685286" lon="-116.516901"><ele>935.8</ele><time>2024-04-23T22:28:04Z</time></trkpt>
<trkpt lat="32.685374" lon="-116.516953"><ele>934.0</ele><time>2024-04-23T22:29:49Z</time></trkpt>
<trkpt lat="32.685312" lon="-116.516845"><ele>934.8</ele><time>2024-04-23T22:29:57Z</time></trkpt>
<trkpt lat="32.685342" lon="-116.516815"><ele>933.6</ele><time>2024-04-23T22:31:09Z</time></trkpt>
<trkpt lat="32.685279" lon="-116.516835"><ele>934.2</ele><time>2024-04-23T22:32:01Z</time></trkpt>
<trkpt lat="32.685315" lon="-116.516912"><ele>935.6</ele><time>2024-04-23T22:35:46Z</time></trkpt>
<trkpt lat="32.685277" lon="-116.516848"><ele>935.6</ele><time>2024-04-23T22:35:51Z</time></trkpt>
<trkpt lat="32.685320" lon="-116.516820"><ele>935.8</ele><time>2024-04-23T22:35:58Z</time></trkpt>
<trkpt lat="32.685430" lon="-116.517152"><ele>936.2</ele><time>2024-04-23T22:37:46Z</time></trkpt>
<trkpt lat="32.685479" lon="-116.517118"><ele>936.2</ele><time>2024-04-23T22:37:47Z</time></trkpt>
<trkpt lat="32.685662" lon="-116.517277"><ele>936.0</ele><time>2024-04-23T22:38:02Z</time></trkpt>
<trkpt lat="32.686222" lon="-116.517288"><ele>935.8</ele><time>2024-04-23T22:39:07Z</time></trkpt>
<trkpt lat="32.686363" lon="-116.517134"><ele>936.6</ele><time>2024-04-23T22:39:25Z</time></trkpt>
<trkpt lat="32.686363" lon="-116.517019"><ele>938.6</ele><time>2024-04-23T22:39:33Z</time></trkpt>
<trkpt lat="32.686237" lon="-116.516762"><ele>939.6</ele><time>2024-04-23T22:39:56Z</time></trkpt>
<trkpt lat="32.686124" lon="-116.516716"><ele>939.8</ele><time>2024-04-23T22:40:11Z</time></trkpt>
<trkpt lat="32.686127" lon="-116.516514"><ele>939.2</ele><time>2024-04-23T22:40:23Z</time></trkpt>
<trkpt lat="32.686285" lon="-116.516007"><ele>938.8</ele><time>2024-04-23T22:40:55Z</time></trkpt>
<trkpt lat="32.686222" lon="-116.515255"><ele>938.2</ele><time>2024-04-23T22:41:54Z</time></trkpt>
<trkpt lat="32.686891" lon="-116.515161"><ele>937.0</ele><time>2024-04-23T22:42:39Z</time></trkpt>
<trkpt lat="32.687083" lon="-116.515204"><ele>936.2</ele><time>2024-04-23T22:42:59Z</time></trkpt>
<trkpt lat="32.687433" lon="-116.515076"><ele>936.6</ele><time>2024-04-23T22:43:46Z</time></trkpt>
<trkpt lat="32.687540" lon="-116.515098"><ele>936.2</ele><time>2024-04-23T22:43:52Z</time></trkpt>
<trkpt lat="32.688679" lon="-116.514405"><ele>935.6</ele><time>2024-04-23T22:45:46Z</time></trkpt>
<trkpt lat="32.689422" lon="-116.514117"><ele>935.2</ele><time>2024-04-23T22:46:59Z</time></trkpt>
<trkpt lat="32.689527" lon="-116.513986"><ele>936.8</ele><time>2024-04-23T22:47:17Z</time></trkpt>
<trkpt lat="32.689642" lon="-116.513776"><ele>938.4</ele><time>2024-04-23T22:47:46Z</time></trkpt>
<trkpt lat="32.689606" lon="-116.513710"><ele>938.2</ele><time>2024-04-23T22:47:52Z</time></trkpt>
<trkpt lat="32.689837" lon="-116.512742"><ele>941.4</ele><time>2024-04-23T22:49:11Z</time></trkpt>
<trkpt lat="32.689810" lon="-116.512409"><ele>944.2</ele><time>2024-04-23T22:49:37Z</time></trkpt>
<trkpt lat="32.689643" lon="-116.512294"><ele>947.8</ele><time>2024-04-23T22:50:06Z</time></trkpt>
<trkpt lat="32.689557" lon="-116.512124"><ele>949.0</ele><time>2024-04-23T22:51:43Z</time></trkpt>
<trkpt lat="32.689541" lon="-116.512193"><ele>949.2</ele><time>2024-04-23T22:51:55Z</time></trkpt>
<trkpt lat="32.689835" lon="-116.511427"><ele>949.2</ele><time>2024-04-23T22:53:49Z</time></trkpt>
<trkpt lat="32.689752" lon="-116.510821"><ele>950.2</ele><time>2024-04-23T22:54:31Z</time></trkpt>
<trkpt lat="32.689797" lon="-116.509963"><ele>950.8</ele><time>2024-04-23T22:55:46Z</time></trkpt>
<trkpt lat="32.689879" lon="-116.509784"><ele>950.8</ele><time>2024-04-23T22:55:56Z</time></trkpt>
<trkpt lat="32.690169" lon="-116.508357"><ele>953.8</ele><time>2024-04-23T22:57:53Z</time></trkpt>
<trkpt lat="32.690420" lon="-116.507575"><ele>955.4</ele><time>2024-04-23T22:59:00Z</time></trkpt>
<trkpt lat="32.690411" lon="-116.507301"><ele>956.6</ele><time>2024-04-23T22:59:58Z</time></trkpt>
<trkpt lat="32.690535" lon="-116.506913"><ele>958.0</ele><time>2024-04-23T23:01:11Z</time></trkpt>
<trkpt lat="32.691345" lon="-116.505112"><ele>965.4</ele><time>2024-04-23T23:03:46Z</time></trkpt>
<trkpt lat="32.691593" lon="-116.504857"><ele>966.8</ele><time>2024-04-23T23:04:06Z</time></trkpt>
<trkpt lat="32.691677" lon="-116.504433"><ele>970.6</ele><time>2024-04-23T23:04:51Z</time></trkpt>
<trkpt lat="32.691672" lon="-116.503686"><ele>973.0</ele><time>2024-04-23T23:05:46Z</time></trkpt>
<trkpt lat="32.691869" lon="-116.503440"><ele>974.0</ele><time>2024-04-23T23:06:03Z</time></trkpt>
<trkpt lat="32.691985" lon="-116.503056"><ele>975.6</ele><time>2024-04-23T23:06:37Z</time></trkpt>
<trkpt lat="32.691960" lon="-116.502517"><ele>979.2</ele><time>2024-04-23T23:07:47Z</time></trkpt>
<trkpt lat="32.692303" lon="-116.502058"><ele>983.2</ele><time>2024-04-23T23:08:39Z</time></trkpt>
<trkpt lat="32.692767" lon="-116.502184"><ele>985.4</ele><time>2024-04-23T23:09:23Z</time></trkpt>
<trkpt lat="32.693181" lon="-116.501976"><ele>984.2</ele><time>2024-04-23T23:09:58Z</time></trkpt>
<trkpt lat="32.693514" lon="-116.501428"><ele>979.8</ele><time>2024-04-23T23:10:41Z</time></trkpt>
<trkpt lat="32.693695" lon="-116.500694"><ele>974.2</ele><time>2024-04-23T23:11:46Z</time></trkpt>
<trkpt lat="32.693622" lon="-116.500672"><ele>973.4</ele><time>2024-04-23T23:11:57Z</time></trkpt>
<trkpt lat="32.694069" lon="-116.500163"><ele>970.0</ele><time>2024-04-23T23:12:43Z</time></trkpt>
<trkpt lat="32.694701" lon="-116.499809"><ele>966.2</ele><time>2024-04-23T23:13:53Z</time></trkpt>
<trkpt lat="32.694988" lon="-116.499815"><ele>964.0</ele><time>2024-04-23T23:14:15Z</time></trkpt>
<trkpt lat="32.695793" lon="-116.500052"><ele>957.6</ele><time>2024-04-23T23:15:47Z</time></trkpt>
<trkpt lat="32.696011" lon="-116.500060"><ele>956.8</ele><time>2024-04-23T23:16:06Z</time></trkpt>
<trkpt lat="32.696794" lon="-116.499180"><ele>963.8</ele><time>2024-04-23T23:18:11Z</time></trkpt>
<trkpt lat="32.696835" lon="-116.498840"><ele>966.4</ele><time>2024-04-23T23:18:41Z</time></trkpt>
<trkpt lat="32.697047" lon="-116.498333"><ele>973.6</ele><time>2024-04-23T23:19:48Z</time></trkpt>
<trkpt lat="32.697004" lon="-116.498285"><ele>974.4</ele><time>2024-04-23T23:19:56Z</time></trkpt>
<trkpt lat="32.697014" lon="-116.498036"><ele>977.6</ele><time>2024-04-23T23:20:23Z</time></trkpt>
<trkpt lat="32.697109" lon="-116.497439"><ele>985.4</ele><time>2024-04-23T23:21:41Z</time></trkpt>
<trkpt lat="32.697222" lon="-116.497137"><ele>987.6</ele><time>2024-04-23T23:22:04Z</time></trkpt>
<trkpt lat="32.696915" lon="-116.497213"><ele>990.6</ele><time>2024-04-23T23:22:39Z</time></trkpt>
<trkpt lat="32.696490" lon="-116.497484"><ele>993.8</ele><time>2024-04-23T23:23:50Z</time></trkpt>
<trkpt lat="32.696552" lon="-116.497488"><ele>993.6</ele><time>2024-04-23T23:24:05Z</time></trkpt>
<trkpt lat="32.695789" lon="-116.497184"><ele>998.6</ele><time>2024-04-23T23:25:48Z</time></trkpt>
<trkpt lat="32.695746" lon="-116.497252"><ele>998.6</ele><time>2024-04-23T23:25:51Z</time></trkpt>
<trkpt lat="32.695125" lon="-116.497198"><ele>1001.4</ele><time>2024-04-23T23:26:37Z</time></trkpt>
<trkpt lat="32.694677" lon="-116.497017"><ele>1009.2</ele><time>2024-04-23T23:27:49Z</time></trkpt>
<trkpt lat="32.694701" lon="-116.496936"><ele>1009.6</ele><time>2024-04-23T23:27:56Z</time></trkpt>
<trkpt lat="32.694638" lon="-116.496939"><ele>1010.0</ele><time>2024-04-23T23:28:01Z</time></trkpt>
<trkpt lat="32.694591" lon="-116.496814"><ele>1010.6</ele><time>2024-04-23T23:28:09Z</time></trkpt>
<trkpt lat="32.694452" lon="-116.496254"><ele>1016.8</ele><time>2024-04-23T23:29:01Z</time></trkpt>
<trkpt lat="32.694476" lon="-116.495939"><ele>1020.2</ele><time>2024-04-23T23:29:46Z</time></trkpt>
<trkpt lat="32.695221" lon="-116.495727"><ele>1029.8</ele><time>2024-04-23T23:31:48Z</time></trkpt>
<trkpt lat="32.695342" lon="-116.495909"><ele>1029.8</ele><time>2024-04-23T23:32:00Z</time></trkpt>
<trkpt lat="32.695214" lon="-116.496020"><ele>1031.0</ele><time>2024-04-23T23:33:48Z</time></trkpt>
<trkpt lat="32.695266" lon="-116.495933"><ele>1030.8</ele><time>2024-04-23T23:33:59Z</time></trkpt>
<trkpt lat="32.695286" lon="-116.495987"><ele>1031.6</ele><time>2024-04-23T23:35:52Z</time></trkpt>
<trkpt lat="32.695347" lon="-116.495950"><ele>1032.6</ele><time>2024-04-23T23:37:37Z</time></trkpt>
<trkpt lat="32.695304" lon="-116.496020"><ele>1032.8</ele><time>2024-04-23T23:38:03Z</time></trkpt>
<trkpt lat="32.695372" lon="-116.496100"><ele>1035.0</ele><time>2024-04-23T23:38:57Z</time></trkpt>
</trkseg></trk>
</gpx>
