<?xml version="1.0" encoding="UTF-8"?>
<gpx version="1.1" creator="Eric Sichak trip reports" xmlns="http://www.topografix.com/GPX/1/1">
<metadata><name>PCT Day 5- Julian</name><time>2024-04-26T14:24:39Z</time></metadata>
<trk><name>PCT Day 5- Julian</name><type>hike</type><trkseg>
<trkpt lat="32.928363" lon="-116.480879"><ele>1624.2</ele><time>2024-04-26T14:24:39Z</time></trkpt>
<trkpt lat="32.928478" lon="-116.480718"><ele>1628.6</ele><time>2024-04-26T14:25:41Z</time></trkpt>
<trkpt lat="32.928486" lon="-116.480762"><ele>1630.4</ele><time>2024-04-26T14:25:54Z</time></trkpt>
<trkpt lat="32.928815" lon="-116.480727"><ele>1633.2</ele><time>2024-04-26T14:26:13Z</time></trkpt>
<trkpt lat="32.928929" lon="-116.480807"><ele>1634.8</ele><time>2024-04-26T14:26:21Z</time></trkpt>
<trkpt lat="32.929926" lon="-116.481029"><ele>1633.8</ele><time>2024-04-26T14:27:25Z</time></trkpt>
<trkpt lat="32.930652" lon="-116.480376"><ele>1632.8</ele><time>2024-04-26T14:27:42Z</time></trkpt>
<trkpt lat="32.930526" lon="-116.481112"><ele>1633.6</ele><time>2024-04-26T14:27:45Z</time></trkpt>
<trkpt lat="32.929733" lon="-116.481076"><ele>1634.2</ele><time>2024-04-26T14:27:48Z</time></trkpt>
<trkpt lat="32.930121" lon="-116.481151"><ele>1639.0</ele><time>2024-04-26T14:28:05Z</time></trkpt>
<trkpt lat="32.930604" lon="-116.481133"><ele>1639.4</ele><time>2024-04-26T14:28:09Z</time></trkpt>
<trkpt lat="32.930989" lon="-116.481052"><ele>1643.0</ele><time>2024-04-26T14:28:27Z</time></trkpt>
<trkpt lat="32.930858" lon="-116.481062"><ele>1646.8</ele><time>2024-04-26T14:29:11Z</time></trkpt>
<trkpt lat="32.930930" lon="-116.480960"><ele>1650.4</ele><time>2024-04-26T14:29:33Z</time></trkpt>
<trkpt lat="32.931206" lon="-116.480928"><ele>1658.4</ele><time>2024-04-26T14:29:54Z</time></trkpt>
<trkpt lat="32.931634" lon="-116.480991"><ele>1654.4</ele><time>2024-04-26T14:30:25Z</time></trkpt>
<trkpt lat="32.931891" lon="-116.481032"><ele>1660.0</ele><time>2024-04-26T14:31:03Z</time></trkpt>
<trkpt lat="32.932313" lon="-116.481238"><ele>1660.0</ele><time>2024-04-26T14:31:42Z</time></trkpt>
<trkpt lat="32.932252" lon="-116.481366"><ele>1658.8</ele><time>2024-04-26T14:31:50Z</time></trkpt>
<trkpt lat="32.932177" lon="-116.481313"><ele>1659.8</ele><time>2024-04-26T14:34:33Z</time></trkpt>
<trkpt lat="32.932549" lon="-116.481734"><ele>1662.6</ele><time>2024-04-26T14:35:25Z</time></trkpt>
<trkpt lat="32.932585" lon="-116.481773"><ele>1667.6</ele><time>2024-04-26T14:35:29Z</time></trkpt>
<trkpt lat="32.932610" lon="-116.481784"><ele>1663.0</ele><time>2024-04-26T14:35:31Z</time></trkpt>
<trkpt lat="32.932763" lon="-116.481844"><ele>1670.4</ele><time>2024-04-26T14:35:42Z</time></trkpt>
<trkpt lat="32.932943" lon="-116.481815"><ele>1672.8</ele><time>2024-04-26T14:35:49Z</time></trkpt>
<trkpt lat="32.933085" lon="-116.481859"><ele>1670.0</ele><time>2024-04-26T14:36:11Z</time></trkpt>
<trkpt lat="32.933223" lon="-116.481903"><ele>1677.2</ele><time>2024-04-26T14:36:29Z</time></trkpt>
<trkpt lat="32.933556" lon="-116.482021"><ele>1672.0</ele><time>2024-04-26T14:36:59Z</time></trkpt>
<trkpt lat="32.934061" lon="-116.482344"><ele>1673.2</ele><time>2024-04-26T14:37:46Z</time></trkpt>
<trkpt lat="32.934198" lon="-116.482327"><ele>1673.6</ele><time>2024-04-26T14:37:52Z</time></trkpt>
<trkpt lat="32.934194" lon="-116.482408"><ele>1675.2</ele><time>2024-04-26T14:38:03Z</time></trkpt>
<trkpt lat="32.934376" lon="-116.482502"><ele>1677.0</ele><time>2024-04-26T14:39:13Z</time></trkpt>
<trkpt lat="32.934554" lon="-116.482469"><ele>1672.0</ele><time>2024-04-26T14:39:27Z</time></trkpt>
<trkpt lat="32.934665" lon="-116.482530"><ele>1666.6</ele><time>2024-04-26T14:39:37Z</time></trkpt>
<trkpt lat="32.934676" lon="-116.482598"><ele>1675.4</ele><time>2024-04-26T14:39:48Z</time></trkpt>
<trkpt lat="32.934773" lon="-116.482582"><ele>1681.4</ele><time>2024-04-26T14:40:15Z</time></trkpt>
<trkpt lat="32.934888" lon="-116.482552"><ele>1676.0</ele><time>2024-04-26T14:40:59Z</time></trkpt>
<trkpt lat="32.935365" lon="-116.482670"><ele>1681.2</ele><time>2024-04-26T14:41:42Z</time></trkpt>
<trkpt lat="32.935496" lon="-116.482880"><ele>1677.6</ele><time>2024-04-26T14:42:02Z</time></trkpt>
<trkpt lat="32.935875" lon="-116.483224"><ele>1682.0</ele><time>2024-04-26T14:42:45Z</time></trkpt>
<trkpt lat="32.936399" lon="-116.483411"><ele>1683.8</ele><time>2024-04-26T14:43:44Z</time></trkpt>
<trkpt lat="32.936644" lon="-116.483361"><ele>1685.2</ele><time>2024-04-26T14:44:01Z</time></trkpt>
<trkpt lat="32.937047" lon="-116.483070"><ele>1688.0</ele><time>2024-04-26T14:44:39Z</time></trkpt>
<trkpt lat="32.937186" lon="-116.482983"><ele>1681.2</ele><time>2024-04-26T14:44:55Z</time></trkpt>
<trkpt lat="32.937686" lon="-116.482818"><ele>1674.4</ele><time>2024-04-26T14:45:37Z</time></trkpt>
<trkpt lat="32.937968" lon="-116.482808"><ele>1674.2</ele><time>2024-04-26T14:45:57Z</time></trkpt>
<trkpt lat="32.939167" lon="-116.483385"><ele>1674.8</ele><time>2024-04-26T14:47:50Z</time></trkpt>
<trkpt lat="32.939227" lon="-116.483490"><ele>1674.8</ele><time>2024-04-26T14:48:00Z</time></trkpt>
<trkpt lat="32.939484" lon="-116.483621"><ele>1675.6</ele><time>2024-04-26T14:48:13Z</time></trkpt>
<trkpt lat="32.939903" lon="-116.483706"><ele>1681.0</ele><time>2024-04-26T14:49:21Z</time></trkpt>
<trkpt lat="32.940162" lon="-116.483891"><ele>1682.0</ele><time>2024-04-26T14:49:42Z</time></trkpt>
<trkpt lat="32.940282" lon="-116.484112"><ele>1685.0</ele><time>2024-04-26T14:50:02Z</time></trkpt>
<trkpt lat="32.940435" lon="-116.484254"><ele>1682.6</ele><time>2024-04-26T14:50:17Z</time></trkpt>
<trkpt lat="32.940594" lon="-116.484178"><ele>1680.6</ele><time>2024-04-26T14:50:37Z</time></trkpt>
<trkpt lat="32.940774" lon="-116.484210"><ele>1679.8</ele><time>2024-04-26T14:50:59Z</time></trkpt>
<trkpt lat="32.941266" lon="-116.484422"><ele>1679.4</ele><time>2024-04-26T14:51:53Z</time></trkpt>
<trkpt lat="32.941421" lon="-116.484586"><ele>1676.6</ele><time>2024-04-26T14:52:13Z</time></trkpt>
<trkpt lat="32.942021" lon="-116.484913"><ele>1675.4</ele><time>2024-04-26T14:53:09Z</time></trkpt>
<trkpt lat="32.942126" lon="-116.485420"><ele>1674.6</ele><time>2024-04-26T14:53:42Z</time></trkpt>
<trkpt lat="32.942079" lon="-116.485418"><ele>1674.4</ele><time>2024-04-26T14:53:46Z</time></trkpt>
<trkpt lat="32.942795" lon="-116.485414"><ele>1673.4</ele><time>2024-04-26T14:54:43Z</time></trkpt>
<trkpt lat="32.943524" lon="-116.485585"><ele>1668.4</ele><time>2024-04-26T14:55:44Z</time></trkpt>
<trkpt lat="32.943966" lon="-116.486100"><ele>1665.4</ele><time>2024-04-26T14:56:25Z</time></trkpt>
<trkpt lat="32.944129" lon="-116.486654"><ele>1667.8</ele><time>2024-04-26T14:57:27Z</time></trkpt>
<trkpt lat="32.944275" lon="-116.486760"><ele>1667.4</ele><time>2024-04-26T14:57:42Z</time></trkpt>
<trkpt lat="32.944284" lon="-116.486656"><ele>1668.4</ele><time>2024-04-26T14:57:54Z</time></trkpt>
<trkpt lat="32.944306" lon="-116.487061"><ele>1664.6</ele><time>2024-04-26T14:58:31Z</time></trkpt>
<trkpt lat="32.944230" lon="-116.487138"><ele>1661.0</ele><time>2024-04-26T14:58:41Z</time></trkpt>
<trkpt lat="32.944284" lon="-116.487461"><ele>1661.8</ele><time>2024-04-26T14:59:17Z</time></trkpt>
<trkpt lat="32.944459" lon="-116.487859"><ele>1658.4</ele><time>2024-04-26T15:00:01Z</time></trkpt>
<trkpt lat="32.944684" lon="-116.487977"><ele>1655.6</ele><time>2024-04-26T15:00:41Z</time></trkpt>
<trkpt lat="32.944966" lon="-116.488272"><ele>1651.6</ele><time>2024-04-26T15:01:47Z</time></trkpt>
<trkpt lat="32.945181" lon="-116.488342"><ele>1650.6</ele><time>2024-04-26T15:02:25Z</time></trkpt>
<trkpt lat="32.945844" lon="-116.488465"><ele>1640.8</ele><time>2024-04-26T15:03:42Z</time></trkpt>
<trkpt lat="32.946192" lon="-116.488408"><ele>1638.2</ele><time>2024-04-26T15:04:17Z</time></trkpt>
<trkpt lat="32.946526" lon="-116.488509"><ele>1631.8</ele><time>2024-04-26T15:05:07Z</time></trkpt>
<trkpt lat="32.946760" lon="-116.488713"><ele>1630.2</ele><time>2024-04-26T15:05:31Z</time></trkpt>
<trkpt lat="32.946948" lon="-116.489032"><ele>1630.0</ele><time>2024-04-26T15:05:48Z</time></trkpt>
<trkpt lat="32.947034" lon="-116.489079"><ele>1632.0</ele><time>2024-04-26T15:06:02Z</time></trkpt>
<trkpt lat="32.948047" lon="-116.489501"><ele>1616.4</ele><time>2024-04-26T15:07:59Z</time></trkpt>
<trkpt lat="32.948376" lon="-116.490204"><ele>1605.4</ele><time>2024-04-26T15:09:41Z</time></trkpt>
<trkpt lat="32.948585" lon="-116.490257"><ele>1603.2</ele><time>2024-04-26T15:09:49Z</time></trkpt>
<trkpt lat="32.948551" lon="-116.490194"><ele>1603.4</ele><time>2024-04-26T15:09:54Z</time></trkpt>
<trkpt lat="32.948540" lon="-116.490682"><ele>1601.4</ele><time>2024-04-26T15:10:45Z</time></trkpt>
<trkpt lat="32.948260" lon="-116.491241"><ele>1597.2</ele><time>2024-04-26T15:11:42Z</time></trkpt>
<trkpt lat="32.948533" lon="-116.491295"><ele>1597.6</ele><time>2024-04-26T15:11:43Z</time></trkpt>
<trkpt lat="32.948589" lon="-116.491240"><ele>1597.8</ele><time>2024-04-26T15:11:48Z</time></trkpt>
<trkpt lat="32.948460" lon="-116.491073"><ele>1597.8</ele><time>2024-04-26T15:11:52Z</time></trkpt>
<trkpt lat="32.948523" lon="-116.491087"><ele>1597.2</ele><time>2024-04-26T15:11:58Z</time></trkpt>
<trkpt lat="32.948441" lon="-116.491401"><ele>1597.2</ele><time>2024-04-26T15:12:19Z</time></trkpt>
<trkpt lat="32.948277" lon="-116.491756"><ele>1595.4</ele><time>2024-04-26T15:12:43Z</time></trkpt>
<trkpt lat="32.948419" lon="-116.492129"><ele>1592.4</ele><time>2024-04-26T15:13:43Z</time></trkpt>
<trkpt lat="32.948243" lon="-116.492355"><ele>1595.2</ele><time>2024-04-26T15:14:42Z</time></trkpt>
<trkpt lat="32.947910" lon="-116.492614"><ele>1597.6</ele><time>2024-04-26T15:15:30Z</time></trkpt>
<trkpt lat="32.947880" lon="-116.492745"><ele>1598.0</ele><time>2024-04-26T15:15:41Z</time></trkpt>
<trkpt lat="32.948231" lon="-116.493101"><ele>1600.2</ele><time>2024-04-26T15:16:33Z</time></trkpt>
<trkpt lat="32.948306" lon="-116.493340"><ele>1600.0</ele><time>2024-04-26T15:16:55Z</time></trkpt>
<trkpt lat="32.947975" lon="-116.493477"><ele>1601.0</ele><time>2024-04-26T15:17:37Z</time></trkpt>
<trkpt lat="32.947885" lon="-116.493641"><ele>1603.2</ele><time>2024-04-26T15:17:53Z</time></trkpt>
<trkpt lat="32.948010" lon="-116.493660"><ele>1604.8</ele><time>2024-04-26T15:17:56Z</time></trkpt>
<trkpt lat="32.947704" lon="-116.493624"><ele>1604.0</ele><time>2024-04-26T15:18:33Z</time></trkpt>
<trkpt lat="32.947197" lon="-116.493927"><ele>1609.0</ele><time>2024-04-26T15:19:35Z</time></trkpt>
<trkpt lat="32.947090" lon="-116.493922"><ele>1608.6</ele><time>2024-04-26T15:19:51Z</time></trkpt>
<trkpt lat="32.946996" lon="-116.494114"><ele>1612.4</ele><time>2024-04-26T15:20:27Z</time></trkpt>
<trkpt lat="32.946755" lon="-116.494365"><ele>1614.4</ele><time>2024-04-26T15:20:55Z</time></trkpt>
<trkpt lat="32.947004" lon="-116.494570"><ele>1618.0</ele><time>2024-04-26T15:21:43Z</time></trkpt>
<trkpt lat="32.947174" lon="-116.494581"><ele>1617.6</ele><time>2024-04-26T15:21:59Z</time></trkpt>
<trkpt lat="32.947268" lon="-116.494668"><ele>1618.8</ele><time>2024-04-26T15:22:05Z</time></trkpt>
<trkpt lat="32.947472" lon="-116.495027"><ele>1619.6</ele><time>2024-04-26T15:22:33Z</time></trkpt>
<trkpt lat="32.947917" lon="-116.495587"><ele>1629.8</ele><time>2024-04-26T15:23:42Z</time></trkpt>
<trkpt lat="32.948156" lon="-116.495572"><ele>1626.2</ele><time>2024-04-26T15:23:56Z</time></trkpt>
<trkpt lat="32.948366" lon="-116.495664"><ele>1620.6</ele><time>2024-04-26T15:24:15Z</time></trkpt>
<trkpt lat="32.948590" lon="-116.495567"><ele>1621.6</ele><time>2024-04-26T15:24:35Z</time></trkpt>
<trkpt lat="32.948687" lon="-116.495620"><ele>1616.4</ele><time>2024-04-26T15:24:57Z</time></trkpt>
<trkpt lat="32.948815" lon="-116.495800"><ele>1614.2</ele><time>2024-04-26T15:25:27Z</time></trkpt>
<trkpt lat="32.948943" lon="-116.495853"><ele>1616.0</ele><time>2024-04-26T15:25:42Z</time></trkpt>
<trkpt lat="32.948891" lon="-116.495880"><ele>1617.4</ele><time>2024-04-26T15:25:51Z</time></trkpt>
<trkpt lat="32.948928" lon="-116.496263"><ele>1614.6</ele><time>2024-04-26T15:26:23Z</time></trkpt>
<trkpt lat="32.949510" lon="-116.496445"><ele>1611.0</ele><time>2024-04-26T15:27:11Z</time></trkpt>
<trkpt lat="32.949941" lon="-116.496723"><ele>1608.8</ele><time>2024-04-26T15:27:57Z</time></trkpt>
<trkpt lat="32.950221" lon="-116.497102"><ele>1609.2</ele><time>2024-04-26T15:29:31Z</time></trkpt>
<trkpt lat="32.950210" lon="-116.497192"><ele>1609.4</ele><time>2024-04-26T15:31:01Z</time></trkpt>
<trkpt lat="32.948815" lon="-116.498709"><ele>1622.2</ele><time>2024-04-26T15:35:59Z</time></trkpt>
<trkpt lat="32.949085" lon="-116.498674"><ele>1621.4</ele><time>2024-04-26T15:36:23Z</time></trkpt>
<trkpt lat="32.949835" lon="-116.498803"><ele>1617.2</ele><time>2024-04-26T15:37:25Z</time></trkpt>
<trkpt lat="32.950461" lon="-116.498666"><ele>1614.2</ele><time>2024-04-26T15:38:15Z</time></trkpt>
<trkpt lat="32.950821" lon="-116.498437"><ele>1605.0</ele><time>2024-04-26T15:39:31Z</time></trkpt>
<trkpt lat="32.951230" lon="-116.498332"><ele>1601.8</ele><time>2024-04-26T15:40:03Z</time></trkpt>
<trkpt lat="32.951966" lon="-116.498394"><ele>1593.8</ele><time>2024-04-26T15:41:17Z</time></trkpt>
<trkpt lat="32.952290" lon="-116.498350"><ele>1591.8</ele><time>2024-04-26T15:41:42Z</time></trkpt>
<trkpt lat="32.952395" lon="-116.498261"><ele>1589.8</ele><time>2024-04-26T15:41:51Z</time></trkpt>
<trkpt lat="32.952612" lon="-116.498292"><ele>1587.6</ele><time>2024-04-26T15:42:09Z</time></trkpt>
<trkpt lat="32.952812" lon="-116.498504"><ele>1586.4</ele><time>2024-04-26T15:42:37Z</time></trkpt>
<trkpt lat="32.953083" lon="-116.498645"><ele>1586.6</ele><time>2024-04-26T15:43:05Z</time></trkpt>
<trkpt lat="32.953580" lon="-116.499062"><ele>1583.2</ele><time>2024-04-26T15:43:49Z</time></trkpt>
<trkpt lat="32.953604" lon="-116.499173"><ele>1583.4</ele><time>2024-04-26T15:43:57Z</time></trkpt>
<trkpt lat="32.953389" lon="-116.499610"><ele>1590.6</ele><time>2024-04-26T15:44:31Z</time></trkpt>
<trkpt lat="32.953472" lon="-116.499699"><ele>1592.0</ele><time>2024-04-26T15:44:41Z</time></trkpt>
<trkpt lat="32.953373" lon="-116.499878"><ele>1598.4</ele><time>2024-04-26T15:45:21Z</time></trkpt>
<trkpt lat="32.953139" lon="-116.499969"><ele>1589.8</ele><time>2024-04-26T15:45:43Z</time></trkpt>
<trkpt lat="32.953089" lon="-116.499673"><ele>1590.6</ele><time>2024-04-26T15:46:02Z</time></trkpt>
<trkpt lat="32.953041" lon="-116.499660"><ele>1591.8</ele><time>2024-04-26T15:46:05Z</time></trkpt>
<trkpt lat="32.952645" lon="-116.499952"><ele>1583.2</ele><time>2024-04-26T15:46:53Z</time></trkpt>
<trkpt lat="32.952429" lon="-116.500301"><ele>1581.8</ele><time>2024-04-26T15:47:42Z</time></trkpt>
<trkpt lat="32.952291" lon="-116.500244"><ele>1582.8</ele><time>2024-04-26T15:47:50Z</time></trkpt>
<trkpt lat="32.952209" lon="-116.500291"><ele>1580.6</ele><time>2024-04-26T15:47:57Z</time></trkpt>
<trkpt lat="32.952083" lon="-116.500567"><ele>1575.0</ele><time>2024-04-26T15:48:25Z</time></trkpt>
<trkpt lat="32.952180" lon="-116.500846"><ele>1576.0</ele><time>2024-04-26T15:49:05Z</time></trkpt>
<trkpt lat="32.952019" lon="-116.501120"><ele>1573.8</ele><time>2024-04-26T15:49:25Z</time></trkpt>
<trkpt lat="32.952043" lon="-116.501296"><ele>1573.6</ele><time>2024-04-26T15:49:44Z</time></trkpt>
<trkpt lat="32.952159" lon="-116.501422"><ele>1576.4</ele><time>2024-04-26T15:50:29Z</time></trkpt>
<trkpt lat="32.952216" lon="-116.501670"><ele>1581.0</ele><time>2024-04-26T15:51:13Z</time></trkpt>
<trkpt lat="32.952457" lon="-116.501678"><ele>1581.4</ele><time>2024-04-26T15:51:42Z</time></trkpt>
<trkpt lat="32.952478" lon="-116.501439"><ele>1582.4</ele><time>2024-04-26T15:52:02Z</time></trkpt>
<trkpt lat="32.953150" lon="-116.501455"><ele>1579.2</ele><time>2024-04-26T15:52:57Z</time></trkpt>
<trkpt lat="32.953744" lon="-116.501625"><ele>1578.4</ele><time>2024-04-26T15:53:42Z</time></trkpt>
<trkpt lat="32.953796" lon="-116.501579"><ele>1578.4</ele><time>2024-04-26T15:53:46Z</time></trkpt>
<trkpt lat="32.954240" lon="-116.501892"><ele>1582.0</ele><time>2024-04-26T15:54:25Z</time></trkpt>
<trkpt lat="32.954542" lon="-116.501942"><ele>1584.6</ele><time>2024-04-26T15:54:55Z</time></trkpt>
<trkpt lat="32.954897" lon="-116.501954"><ele>1579.4</ele><time>2024-04-26T15:55:42Z</time></trkpt>
<trkpt lat="32.955081" lon="-116.502170"><ele>1577.4</ele><time>2024-04-26T15:56:00Z</time></trkpt>
<trkpt lat="32.955366" lon="-116.502248"><ele>1575.4</ele><time>2024-04-26T15:56:17Z</time></trkpt>
<trkpt lat="32.956009" lon="-116.502786"><ele>1574.2</ele><time>2024-04-26T15:57:35Z</time></trkpt>
<trkpt lat="32.956118" lon="-116.503160"><ele>1574.0</ele><time>2024-04-26T15:58:02Z</time></trkpt>
<trkpt lat="32.956199" lon="-116.503222"><ele>1575.4</ele><time>2024-04-26T15:58:15Z</time></trkpt>
<trkpt lat="32.956422" lon="-116.503219"><ele>1573.0</ele><time>2024-04-26T15:58:33Z</time></trkpt>
<trkpt lat="32.956402" lon="-116.503628"><ele>1578.6</ele><time>2024-04-26T15:59:07Z</time></trkpt>
<trkpt lat="32.956967" lon="-116.504204"><ele>1579.0</ele><time>2024-04-26T16:00:07Z</time></trkpt>
<trkpt lat="32.957031" lon="-116.504226"><ele>1577.4</ele><time>2024-04-26T16:00:43Z</time></trkpt>
<trkpt lat="32.957034" lon="-116.504178"><ele>1576.2</ele><time>2024-04-26T16:00:51Z</time></trkpt>
<trkpt lat="32.956975" lon="-116.503867"><ele>1570.4</ele><time>2024-04-26T16:01:13Z</time></trkpt>
<trkpt lat="32.957324" lon="-116.503955"><ele>1563.0</ele><time>2024-04-26T16:01:44Z</time></trkpt>
<trkpt lat="32.957770" lon="-116.505248"><ele>1557.4</ele><time>2024-04-26T16:03:42Z</time></trkpt>
<trkpt lat="32.957869" lon="-116.505277"><ele>1556.0</ele><time>2024-04-26T16:03:49Z</time></trkpt>
<trkpt lat="32.957977" lon="-116.505439"><ele>1552.8</ele><time>2024-04-26T16:04:05Z</time></trkpt>
<trkpt lat="32.958822" lon="-116.505452"><ele>1549.0</ele><time>2024-04-26T16:05:21Z</time></trkpt>
<trkpt lat="32.959076" lon="-116.505373"><ele>1549.8</ele><time>2024-04-26T16:05:51Z</time></trkpt>
<trkpt lat="32.959094" lon="-116.505272"><ele>1549.2</ele><time>2024-04-26T16:05:57Z</time></trkpt>
<trkpt lat="32.959765" lon="-116.504463"><ele>1557.2</ele><time>2024-04-26T16:07:09Z</time></trkpt>
<trkpt lat="32.960239" lon="-116.504315"><ele>1544.6</ele><time>2024-04-26T16:08:00Z</time></trkpt>
<trkpt lat="32.960770" lon="-116.504776"><ele>1536.6</ele><time>2024-04-26T16:09:37Z</time></trkpt>
<trkpt lat="32.960796" lon="-116.504882"><ele>1536.2</ele><time>2024-04-26T16:09:43Z</time></trkpt>
<trkpt lat="32.961029" lon="-116.505069"><ele>1537.6</ele><time>2024-04-26T16:10:05Z</time></trkpt>
<trkpt lat="32.961392" lon="-116.505043"><ele>1539.8</ele><time>2024-04-26T16:10:33Z</time></trkpt>
<trkpt lat="32.961570" lon="-116.504784"><ele>1543.2</ele><time>2024-04-26T16:10:57Z</time></trkpt>
<trkpt lat="32.961750" lon="-116.504730"><ele>1533.4</ele><time>2024-04-26T16:11:25Z</time></trkpt>
<trkpt lat="32.961838" lon="-116.504503"><ele>1530.0</ele><time>2024-04-26T16:11:44Z</time></trkpt>
<trkpt lat="32.961979" lon="-116.504635"><ele>1528.4</ele><time>2024-04-26T16:11:47Z</time></trkpt>
<trkpt lat="32.962772" lon="-116.504537"><ele>1515.4</ele><time>2024-04-26T16:13:01Z</time></trkpt>
<trkpt lat="32.963348" lon="-116.505093"><ele>1512.4</ele><time>2024-04-26T16:13:53Z</time></trkpt>
<trkpt lat="32.963524" lon="-116.505523"><ele>1514.6</ele><time>2024-04-26T16:15:01Z</time></trkpt>
<trkpt lat="32.963658" lon="-116.505716"><ele>1511.4</ele><time>2024-04-26T16:15:25Z</time></trkpt>
<trkpt lat="32.964402" lon="-116.505945"><ele>1501.4</ele><time>2024-04-26T16:16:15Z</time></trkpt>
<trkpt lat="32.964759" lon="-116.506794"><ele>1496.6</ele><time>2024-04-26T16:17:17Z</time></trkpt>
<trkpt lat="32.964860" lon="-116.506922"><ele>1497.6</ele><time>2024-04-26T16:17:33Z</time></trkpt>
<trkpt lat="32.965014" lon="-116.507095"><ele>1498.0</ele><time>2024-04-26T16:17:52Z</time></trkpt>
<trkpt lat="32.965666" lon="-116.507461"><ele>1485.4</ele><time>2024-04-26T16:18:59Z</time></trkpt>
<trkpt lat="32.965952" lon="-116.507842"><ele>1483.2</ele><time>2024-04-26T16:19:29Z</time></trkpt>
<trkpt lat="32.965925" lon="-116.508038"><ele>1481.4</ele><time>2024-04-26T16:19:45Z</time></trkpt>
<trkpt lat="32.965978" lon="-116.508243"><ele>1476.8</ele><time>2024-04-26T16:19:59Z</time></trkpt>
<trkpt lat="32.965874" lon="-116.508629"><ele>1470.8</ele><time>2024-04-26T16:20:25Z</time></trkpt>
<trkpt lat="32.965739" lon="-116.508802"><ele>1462.8</ele><time>2024-04-26T16:21:13Z</time></trkpt>
<trkpt lat="32.965488" lon="-116.508942"><ele>1464.2</ele><time>2024-04-26T16:21:53Z</time></trkpt>
<trkpt lat="32.965420" lon="-116.508957"><ele>1458.0</ele><time>2024-04-26T16:22:02Z</time></trkpt>
<trkpt lat="32.965454" lon="-116.508946"><ele>1465.0</ele><time>2024-04-26T16:22:35Z</time></trkpt>
<trkpt lat="32.965522" lon="-116.508894"><ele>1461.8</ele><time>2024-04-26T16:23:43Z</time></trkpt>
<trkpt lat="32.965466" lon="-116.508960"><ele>1463.8</ele><time>2024-04-26T16:23:49Z</time></trkpt>
<trkpt lat="32.965470" lon="-116.508914"><ele>1465.4</ele><time>2024-04-26T16:24:47Z</time></trkpt>
<trkpt lat="32.965472" lon="-116.508907"><ele>1458.8</ele><time>2024-04-26T16:25:07Z</time></trkpt>
<trkpt lat="32.965467" lon="-116.508892"><ele>1467.4</ele><time>2024-04-26T16:25:54Z</time></trkpt>
<trkpt lat="32.965726" lon="-116.509061"><ele>1465.4</ele><time>2024-04-26T16:27:47Z</time></trkpt>
<trkpt lat="32.965450" lon="-116.508883"><ele>1465.4</ele><time>2024-04-26T16:27:51Z</time></trkpt>
<trkpt lat="32.965429" lon="-116.508996"><ele>1468.8</ele><time>2024-04-26T16:27:59Z</time></trkpt>
<trkpt lat="32.965542" lon="-116.509169"><ele>1467.2</ele><time>2024-04-26T16:28:19Z</time></trkpt>
<trkpt lat="32.965791" lon="-116.509232"><ele>1469.2</ele><time>2024-04-26T16:28:51Z</time></trkpt>
<trkpt lat="32.966028" lon="-116.509606"><ele>1470.6</ele><time>2024-04-26T16:29:25Z</time></trkpt>
<trkpt lat="32.966273" lon="-116.509827"><ele>1471.8</ele><time>2024-04-26T16:29:42Z</time></trkpt>
<trkpt lat="32.966414" lon="-116.509808"><ele>1474.6</ele><time>2024-04-26T16:29:59Z</time></trkpt>
<trkpt lat="32.966612" lon="-116.509978"><ele>1479.6</ele><time>2024-04-26T16:30:17Z</time></trkpt>
<trkpt lat="32.967231" lon="-116.510279"><ele>1484.6</ele><time>2024-04-26T16:31:31Z</time></trkpt>
<trkpt lat="32.967356" lon="-116.510449"><ele>1486.4</ele><time>2024-04-26T16:31:43Z</time></trkpt>
<trkpt lat="32.967309" lon="-116.510516"><ele>1486.0</ele><time>2024-04-26T16:31:44Z</time></trkpt>
<trkpt lat="32.967415" lon="-116.510575"><ele>1487.8</ele><time>2024-04-26T16:31:52Z</time></trkpt>
<trkpt lat="32.967767" lon="-116.511072"><ele>1491.0</ele><time>2024-04-26T16:32:29Z</time></trkpt>
<trkpt lat="32.968162" lon="-116.511410"><ele>1495.0</ele><time>2024-04-26T16:33:45Z</time></trkpt>
<trkpt lat="32.968848" lon="-116.511832"><ele>1498.4</ele><time>2024-04-26T16:35:15Z</time></trkpt>
<trkpt lat="32.969179" lon="-116.511947"><ele>1500.2</ele><time>2024-04-26T16:35:42Z</time></trkpt>
<trkpt lat="32.969172" lon="-116.511892"><ele>1500.8</ele><time>2024-04-26T16:35:44Z</time></trkpt>
<trkpt lat="32.969347" lon="-116.511811"><ele>1497.2</ele><time>2024-04-26T16:36:00Z</time></trkpt>
<trkpt lat="32.969697" lon="-116.512061"><ele>1496.0</ele><time>2024-04-26T16:36:47Z</time></trkpt>
<trkpt lat="32.970030" lon="-116.512521"><ele>1506.0</ele><time>2024-04-26T16:37:42Z</time></trkpt>
<trkpt lat="32.970009" lon="-116.512571"><ele>1504.4</ele><time>2024-04-26T16:37:48Z</time></trkpt>
<trkpt lat="32.970063" lon="-116.512539"><ele>1507.8</ele><time>2024-04-26T16:37:57Z</time></trkpt>
<trkpt lat="32.971065" lon="-116.513409"><ele>1505.2</ele><time>2024-04-26T16:39:46Z</time></trkpt>
<trkpt lat="32.971101" lon="-116.513634"><ele>1510.4</ele><time>2024-04-26T16:40:02Z</time></trkpt>
<trkpt lat="32.971218" lon="-116.514001"><ele>1510.0</ele><time>2024-04-26T16:40:27Z</time></trkpt>
<trkpt lat="32.971737" lon="-116.514590"><ele>1510.4</ele><time>2024-04-26T16:41:42Z</time></trkpt>
<trkpt lat="32.972264" lon="-116.514828"><ele>1514.0</ele><time>2024-04-26T16:42:19Z</time></trkpt>
<trkpt lat="32.972699" lon="-116.514954"><ele>1510.6</ele><time>2024-04-26T16:42:59Z</time></trkpt>
<trkpt lat="32.973118" lon="-116.514994"><ele>1515.2</ele><time>2024-04-26T16:43:42Z</time></trkpt>
<trkpt lat="32.973196" lon="-116.514931"><ele>1517.0</ele><time>2024-04-26T16:43:48Z</time></trkpt>
<trkpt lat="32.973429" lon="-116.515005"><ele>1513.4</ele><time>2024-04-26T16:44:09Z</time></trkpt>
<trkpt lat="32.973471" lon="-116.515026"><ele>1518.0</ele><time>2024-04-26T16:45:23Z</time></trkpt>
<trkpt lat="32.973522" lon="-116.515015"><ele>1513.0</ele><time>2024-04-26T16:45:53Z</time></trkpt>
<trkpt lat="32.973450" lon="-116.515083"><ele>1517.4</ele><time>2024-04-26T16:47:48Z</time></trkpt>
<trkpt lat="32.973491" lon="-116.515007"><ele>1511.6</ele><time>2024-04-26T16:48:21Z</time></trkpt>
<trkpt lat="32.973466" lon="-116.515090"><ele>1514.4</ele><time>2024-04-26T16:49:21Z</time></trkpt>
<trkpt lat="32.973488" lon="-116.515011"><ele>1512.8</ele><time>2024-04-26T16:49:48Z</time></trkpt>
<trkpt lat="32.973627" lon="-116.515017"><ele>1513.2</ele><time>2024-04-26T16:49:58Z</time></trkpt>
<trkpt lat="32.973974" lon="-116.515147"><ele>1514.8</ele><time>2024-04-26T16:50:46Z</time></trkpt>
<trkpt lat="32.974153" lon="-116.515163"><ele>1524.0</ele><time>2024-04-26T16:51:00Z</time></trkpt>
<trkpt lat="32.974390" lon="-116.515304"><ele>1525.6</ele><time>2024-04-26T16:51:22Z</time></trkpt>
<trkpt lat="32.974477" lon="-116.515534"><ele>1521.2</ele><time>2024-04-26T16:51:41Z</time></trkpt>
<trkpt lat="32.974442" lon="-116.515576"><ele>1520.6</ele><time>2024-04-26T16:51:42Z</time></trkpt>
<trkpt lat="32.974270" lon="-116.515632"><ele>1520.0</ele><time>2024-04-26T16:51:46Z</time></trkpt>
<trkpt lat="32.974098" lon="-116.515556"><ele>1514.8</ele><time>2024-04-26T16:51:59Z</time></trkpt>
<trkpt lat="32.973757" lon="-116.515762"><ele>1507.6</ele><time>2024-04-26T16:52:33Z</time></trkpt>
<trkpt lat="32.973714" lon="-116.515808"><ele>1502.8</ele><time>2024-04-26T16:52:37Z</time></trkpt>
<trkpt lat="32.973539" lon="-116.516013"><ele>1507.2</ele><time>2024-04-26T16:52:57Z</time></trkpt>
<trkpt lat="32.973521" lon="-116.516117"><ele>1501.2</ele><time>2024-04-26T16:53:33Z</time></trkpt>
<trkpt lat="32.973556" lon="-116.516222"><ele>1503.4</ele><time>2024-04-26T16:53:44Z</time></trkpt>
<trkpt lat="32.973827" lon="-116.516248"><ele>1508.8</ele><time>2024-04-26T16:54:05Z</time></trkpt>
<trkpt lat="32.974148" lon="-116.516462"><ele>1508.8</ele><time>2024-04-26T16:54:47Z</time></trkpt>
<trkpt lat="32.974813" lon="-116.516755"><ele>1507.6</ele><time>2024-04-26T16:55:43Z</time></trkpt>
<trkpt lat="32.974557" lon="-116.516931"><ele>1506.2</ele><time>2024-04-26T16:55:47Z</time></trkpt>
<trkpt lat="32.974622" lon="-116.516864"><ele>1506.2</ele><time>2024-04-26T16:55:59Z</time></trkpt>
<trkpt lat="32.974770" lon="-116.516893"><ele>1505.0</ele><time>2024-04-26T16:56:11Z</time></trkpt>
<trkpt lat="32.975248" lon="-116.517097"><ele>1505.6</ele><time>2024-04-26T16:56:55Z</time></trkpt>
<trkpt lat="32.975391" lon="-116.517592"><ele>1511.6</ele><time>2024-04-26T16:57:43Z</time></trkpt>
<trkpt lat="32.975709" lon="-116.517402"><ele>1511.8</ele><time>2024-04-26T16:57:44Z</time></trkpt>
<trkpt lat="32.975516" lon="-116.517544"><ele>1510.6</ele><time>2024-04-26T16:58:02Z</time></trkpt>
<trkpt lat="32.975551" lon="-116.517841"><ele>1507.0</ele><time>2024-04-26T16:58:33Z</time></trkpt>
<trkpt lat="32.975875" lon="-116.518425"><ele>1506.0</ele><time>2024-04-26T16:59:42Z</time></trkpt>
<trkpt lat="32.975986" lon="-116.518483"><ele>1507.0</ele><time>2024-04-26T16:59:51Z</time></trkpt>
<trkpt lat="32.976010" lon="-116.518684"><ele>1511.4</ele><time>2024-04-26T17:00:05Z</time></trkpt>
<trkpt lat="32.976101" lon="-116.519326"><ele>1508.6</ele><time>2024-04-26T17:00:43Z</time></trkpt>
<trkpt lat="32.976229" lon="-116.519240"><ele>1507.4</ele><time>2024-04-26T17:01:13Z</time></trkpt>
<trkpt lat="32.976379" lon="-116.519265"><ele>1507.4</ele><time>2024-04-26T17:01:25Z</time></trkpt>
<trkpt lat="32.976462" lon="-116.519181"><ele>1507.6</ele><time>2024-04-26T17:01:43Z</time></trkpt>
<trkpt lat="32.976528" lon="-116.519373"><ele>1507.8</ele><time>2024-04-26T17:01:50Z</time></trkpt>
<trkpt lat="32.976461" lon="-116.519325"><ele>1506.2</ele><time>2024-04-26T17:03:43Z</time></trkpt>
<trkpt lat="32.976512" lon="-116.519370"><ele>1507.4</ele><time>2024-04-26T17:03:52Z</time></trkpt>
<trkpt lat="32.976485" lon="-116.519430"><ele>1507.8</ele><time>2024-04-26T17:05:45Z</time></trkpt>
<trkpt lat="32.976507" lon="-116.519349"><ele>1507.6</ele><time>2024-04-26T17:05:52Z</time></trkpt>
<trkpt lat="32.976618" lon="-116.519296"><ele>1508.0</ele><time>2024-04-26T17:07:25Z</time></trkpt>
<trkpt lat="32.976509" lon="-116.519380"><ele>1510.6</ele><time>2024-04-26T17:08:00Z</time></trkpt>
<trkpt lat="32.976423" lon="-116.519284"><ele>1511.6</ele><time>2024-04-26T17:09:41Z</time></trkpt>
<trkpt lat="32.976648" lon="-116.518930"><ele>1515.4</ele><time>2024-04-26T17:10:03Z</time></trkpt>
<trkpt lat="32.976761" lon="-116.518907"><ele>1529.8</ele><time>2024-04-26T17:10:37Z</time></trkpt>
<trkpt lat="32.977009" lon="-116.518842"><ele>1533.4</ele><time>2024-04-26T17:11:23Z</time></trkpt>
<trkpt lat="32.977390" lon="-116.518933"><ele>1537.2</ele><time>2024-04-26T17:11:47Z</time></trkpt>
<trkpt lat="32.978002" lon="-116.519196"><ele>1543.4</ele><time>2024-04-26T17:12:51Z</time></trkpt>
<trkpt lat="32.978059" lon="-116.519260"><ele>1540.0</ele><time>2024-04-26T17:12:57Z</time></trkpt>
<trkpt lat="32.978071" lon="-116.519393"><ele>1543.0</ele><time>2024-04-26T17:13:11Z</time></trkpt>
<trkpt lat="32.978019" lon="-116.519482"><ele>1538.6</ele><time>2024-04-26T17:13:27Z</time></trkpt>
<trkpt lat="32.978017" lon="-116.519626"><ele>1539.6</ele><time>2024-04-26T17:13:42Z</time></trkpt>
<trkpt lat="32.977914" lon="-116.519860"><ele>1540.2</ele><time>2024-04-26T17:13:57Z</time></trkpt>
<trkpt lat="32.977938" lon="-116.520203"><ele>1543.4</ele><time>2024-04-26T17:14:27Z</time></trkpt>
<trkpt lat="32.978009" lon="-116.520407"><ele>1550.6</ele><time>2024-04-26T17:15:05Z</time></trkpt>
<trkpt lat="32.977933" lon="-116.521025"><ele>1546.2</ele><time>2024-04-26T17:15:42Z</time></trkpt>
<trkpt lat="32.977968" lon="-116.521075"><ele>1549.2</ele><time>2024-04-26T17:15:51Z</time></trkpt>
<trkpt lat="32.978555" lon="-116.521197"><ele>1554.2</ele><time>2024-04-26T17:16:35Z</time></trkpt>
<trkpt lat="32.979159" lon="-116.520991"><ele>1550.0</ele><time>2024-04-26T17:17:37Z</time></trkpt>
<trkpt lat="32.979322" lon="-116.520992"><ele>1550.2</ele><time>2024-04-26T17:17:42Z</time></trkpt>
<trkpt lat="32.979448" lon="-116.521075"><ele>1549.8</ele><time>2024-04-26T17:17:51Z</time></trkpt>
<trkpt lat="32.979608" lon="-116.520955"><ele>1551.2</ele><time>2024-04-26T17:18:05Z</time></trkpt>
<trkpt lat="32.980203" lon="-116.520854"><ele>1545.8</ele><time>2024-04-26T17:19:03Z</time></trkpt>
<trkpt lat="32.980043" lon="-116.521179"><ele>1536.0</ele><time>2024-04-26T17:19:48Z</time></trkpt>
<trkpt lat="32.980102" lon="-116.521162"><ele>1535.0</ele><time>2024-04-26T17:19:51Z</time></trkpt>
<trkpt lat="32.980057" lon="-116.521181"><ele>1534.8</ele><time>2024-04-26T17:19:52Z</time></trkpt>
<trkpt lat="32.980248" lon="-116.521427"><ele>1529.8</ele><time>2024-04-26T17:20:39Z</time></trkpt>
<trkpt lat="32.980288" lon="-116.521951"><ele>1524.8</ele><time>2024-04-26T17:21:11Z</time></trkpt>
<trkpt lat="32.980403" lon="-116.522136"><ele>1525.6</ele><time>2024-04-26T17:21:29Z</time></trkpt>
<trkpt lat="32.980389" lon="-116.522265"><ele>1524.2</ele><time>2024-04-26T17:21:46Z</time></trkpt>
<trkpt lat="32.980286" lon="-116.522256"><ele>1524.2</ele><time>2024-04-26T17:21:50Z</time></trkpt>
<trkpt lat="32.980369" lon="-116.522227"><ele>1524.2</ele><time>2024-04-26T17:21:53Z</time></trkpt>
<trkpt lat="32.980098" lon="-116.522498"><ele>1527.0</ele><time>2024-04-26T17:22:27Z</time></trkpt>
<trkpt lat="32.979752" lon="-116.522754"><ele>1520.6</ele><time>2024-04-26T17:23:19Z</time></trkpt>
<trkpt lat="32.979385" lon="-116.522766"><ele>1518.6</ele><time>2024-04-26T17:23:48Z</time></trkpt>
<trkpt lat="32.979362" lon="-116.522847"><ele>1518.0</ele><time>2024-04-26T17:23:55Z</time></trkpt>
<trkpt lat="32.979269" lon="-116.522875"><ele>1515.4</ele><time>2024-04-26T17:24:02Z</time></trkpt>
<trkpt lat="32.979071" lon="-116.523214"><ele>1517.4</ele><time>2024-04-26T17:24:37Z</time></trkpt>
<trkpt lat="32.979173" lon="-116.523533"><ele>1517.2</ele><time>2024-04-26T17:25:01Z</time></trkpt>
<trkpt lat="32.978865" lon="-116.523705"><ele>1514.2</ele><time>2024-04-26T17:25:31Z</time></trkpt>
<trkpt lat="32.978679" lon="-116.523899"><ele>1514.4</ele><time>2024-04-26T17:25:41Z</time></trkpt>
<trkpt lat="32.978750" lon="-116.524145"><ele>1512.2</ele><time>2024-04-26T17:25:59Z</time></trkpt>
<trkpt lat="32.978584" lon="-116.524671"><ele>1518.2</ele><time>2024-04-26T17:26:33Z</time></trkpt>
<trkpt lat="32.978389" lon="-116.524702"><ele>1521.8</ele><time>2024-04-26T17:26:55Z</time></trkpt>
<trkpt lat="32.978360" lon="-116.524719"><ele>1516.2</ele><time>2024-04-26T17:27:03Z</time></trkpt>
<trkpt lat="32.978027" lon="-116.525084"><ele>1518.6</ele><time>2024-04-26T17:27:42Z</time></trkpt>
<trkpt lat="32.977988" lon="-116.525040"><ele>1518.8</ele><time>2024-04-26T17:27:59Z</time></trkpt>
<trkpt lat="32.977965" lon="-116.525497"><ele>1516.4</ele><time>2024-04-26T17:28:37Z</time></trkpt>
<trkpt lat="32.978039" lon="-116.526008"><ele>1513.4</ele><time>2024-04-26T17:29:13Z</time></trkpt>
<trkpt lat="32.977814" lon="-116.526466"><ele>1512.0</ele><time>2024-04-26T17:29:48Z</time></trkpt>
<trkpt lat="32.977768" lon="-116.526974"><ele>1509.4</ele><time>2024-04-26T17:30:43Z</time></trkpt>
<trkpt lat="32.977768" lon="-116.526985"><ele>1514.4</ele><time>2024-04-26T17:31:03Z</time></trkpt>
<trkpt lat="32.977724" lon="-116.527063"><ele>1513.0</ele><time>2024-04-26T17:31:49Z</time></trkpt>
<trkpt lat="32.977770" lon="-116.527070"><ele>1514.4</ele><time>2024-04-26T17:31:59Z</time></trkpt>
<trkpt lat="32.977744" lon="-116.527219"><ele>1511.8</ele><time>2024-04-26T17:33:25Z</time></trkpt>
<trkpt lat="32.977818" lon="-116.527080"><ele>1511.0</ele><time>2024-04-26T17:33:59Z</time></trkpt>
<trkpt lat="32.977648" lon="-116.527469"><ele>1511.6</ele><time>2024-04-26T17:35:41Z</time></trkpt>
<trkpt lat="32.977843" lon="-116.527091"><ele>1511.0</ele><time>2024-04-26T17:35:54Z</time></trkpt>
<trkpt lat="32.977792" lon="-116.527110"><ele>1514.6</ele><time>2024-04-26T17:36:41Z</time></trkpt>
<trkpt lat="32.977796" lon="-116.527106"><ele>1509.4</ele><time>2024-04-26T17:37:35Z</time></trkpt>
<trkpt lat="32.977757" lon="-116.527044"><ele>1511.4</ele><time>2024-04-26T17:38:02Z</time></trkpt>
<trkpt lat="32.977955" lon="-116.526878"><ele>1509.4</ele><time>2024-04-26T17:39:42Z</time></trkpt>
<trkpt lat="32.977777" lon="-116.526984"><ele>1510.0</ele><time>2024-04-26T17:39:49Z</time></trkpt>
<trkpt lat="32.977781" lon="-116.527058"><ele>1511.4</ele><time>2024-04-26T17:39:57Z</time></trkpt>
<trkpt lat="32.977717" lon="-116.527088"><ele>1511.6</ele><time>2024-04-26T17:40:19Z</time></trkpt>
<trkpt lat="32.977749" lon="-116.527157"><ele>1515.2</ele><time>2024-04-26T17:41:44Z</time></trkpt>
<trkpt lat="32.977849" lon="-116.526986"><ele>1513.6</ele><time>2024-04-26T17:41:56Z</time></trkpt>
<trkpt lat="32.977837" lon="-116.526520"><ele>1515.2</ele><time>2024-04-26T17:42:43Z</time></trkpt>
<trkpt lat="32.977948" lon="-116.526033"><ele>1517.2</ele><time>2024-04-26T17:43:29Z</time></trkpt>
<trkpt lat="32.977907" lon="-116.525797"><ele>1518.2</ele><time>2024-04-26T17:43:45Z</time></trkpt>
<trkpt lat="32.977989" lon="-116.525125"><ele>1519.6</ele><time>2024-04-26T17:44:13Z</time></trkpt>
<trkpt lat="32.978093" lon="-116.524933"><ele>1519.0</ele><time>2024-04-26T17:45:05Z</time></trkpt>
<trkpt lat="32.978065" lon="-116.524806"><ele>1521.0</ele><time>2024-04-26T17:45:42Z</time></trkpt>
<trkpt lat="32.977978" lon="-116.524945"><ele>1520.8</ele><time>2024-04-26T17:45:47Z</time></trkpt>
<trkpt lat="32.978127" lon="-116.524734"><ele>1525.0</ele><time>2024-04-26T17:46:27Z</time></trkpt>
<trkpt lat="32.978401" lon="-116.524567"><ele>1519.6</ele><time>2024-04-26T17:46:59Z</time></trkpt>
<trkpt lat="32.978551" lon="-116.524125"><ele>1516.4</ele><time>2024-04-26T17:47:31Z</time></trkpt>
<trkpt lat="32.978704" lon="-116.523861"><ele>1515.8</ele><time>2024-04-26T17:47:41Z</time></trkpt>
<trkpt lat="32.978810" lon="-116.523792"><ele>1516.6</ele><time>2024-04-26T17:47:52Z</time></trkpt>
<trkpt lat="32.978924" lon="-116.523821"><ele>1516.2</ele><time>2024-04-26T17:47:59Z</time></trkpt>
<trkpt lat="32.979111" lon="-116.523629"><ele>1518.6</ele><time>2024-04-26T17:48:15Z</time></trkpt>
<trkpt lat="32.979151" lon="-116.523269"><ele>1522.0</ele><time>2024-04-26T17:49:13Z</time></trkpt>
<trkpt lat="32.979430" lon="-116.522753"><ele>1521.2</ele><time>2024-04-26T17:49:42Z</time></trkpt>
<trkpt lat="32.979583" lon="-116.522657"><ele>1522.8</ele><time>2024-04-26T17:49:51Z</time></trkpt>
<trkpt lat="32.980004" lon="-116.522609"><ele>1525.4</ele><time>2024-04-26T17:50:19Z</time></trkpt>
<trkpt lat="32.980254" lon="-116.522537"><ele>1537.0</ele><time>2024-04-26T17:50:59Z</time></trkpt>
<trkpt lat="32.980307" lon="-116.522499"><ele>1535.8</ele><time>2024-04-26T17:51:07Z</time></trkpt>
<trkpt lat="32.980325" lon="-116.522346"><ele>1529.8</ele><time>2024-04-26T17:51:21Z</time></trkpt>
<trkpt lat="32.980670" lon="-116.522346"><ele>1528.4</ele><time>2024-04-26T17:51:42Z</time></trkpt>
<trkpt lat="32.981064" lon="-116.522068"><ele>1526.2</ele><time>2024-04-26T17:52:25Z</time></trkpt>
<trkpt lat="32.981805" lon="-116.521636"><ele>1513.4</ele><time>2024-04-26T17:53:42Z</time></trkpt>
<trkpt lat="32.981811" lon="-116.521709"><ele>1512.8</ele><time>2024-04-26T17:54:09Z</time></trkpt>
<trkpt lat="32.982161" lon="-116.521903"><ele>1508.2</ele><time>2024-04-26T17:54:55Z</time></trkpt>
<trkpt lat="32.982143" lon="-116.522111"><ele>1508.6</ele><time>2024-04-26T17:55:13Z</time></trkpt>
<trkpt lat="32.982100" lon="-116.522546"><ele>1496.2</ele><time>2024-04-26T17:55:42Z</time></trkpt>
<trkpt lat="32.981843" lon="-116.522754"><ele>1493.2</ele><time>2024-04-26T17:56:03Z</time></trkpt>
<trkpt lat="32.981838" lon="-116.523184"><ele>1492.6</ele><time>2024-04-26T17:56:29Z</time></trkpt>
<trkpt lat="32.982043" lon="-116.523012"><ele>1495.2</ele><time>2024-04-26T17:57:43Z</time></trkpt>
<trkpt lat="32.982149" lon="-116.523041"><ele>1497.8</ele><time>2024-04-26T17:57:56Z</time></trkpt>
<trkpt lat="32.982543" lon="-116.523278"><ele>1504.2</ele><time>2024-04-26T17:58:34Z</time></trkpt>
<trkpt lat="32.983020" lon="-116.523741"><ele>1502.0</ele><time>2024-04-26T17:59:16Z</time></trkpt>
<trkpt lat="32.983196" lon="-116.523920"><ele>1495.6</ele><time>2024-04-26T17:59:43Z</time></trkpt>
<trkpt lat="32.983494" lon="-116.524382"><ele>1492.4</ele><time>2024-04-26T18:00:23Z</time></trkpt>
<trkpt lat="32.983663" lon="-116.524403"><ele>1488.2</ele><time>2024-04-26T18:00:37Z</time></trkpt>
<trkpt lat="32.984038" lon="-116.525035"><ele>1484.4</ele><time>2024-04-26T18:01:44Z</time></trkpt>
<trkpt lat="32.984185" lon="-116.525116"><ele>1483.0</ele><time>2024-04-26T18:01:58Z</time></trkpt>
<trkpt lat="32.984152" lon="-116.525349"><ele>1479.4</ele><time>2024-04-26T18:02:17Z</time></trkpt>
<trkpt lat="32.984438" lon="-116.525848"><ele>1470.6</ele><time>2024-04-26T18:03:13Z</time></trkpt>
<trkpt lat="32.984753" lon="-116.525897"><ele>1468.0</ele><time>2024-04-26T18:03:44Z</time></trkpt>
<trkpt lat="32.985581" lon="-116.525404"><ele>1456.8</ele><time>2024-04-26T18:05:43Z</time></trkpt>
<trkpt lat="32.985692" lon="-116.525516"><ele>1455.2</ele><time>2024-04-26T18:05:53Z</time></trkpt>
<trkpt lat="32.986056" lon="-116.525489"><ele>1451.2</ele><time>2024-04-26T18:06:29Z</time></trkpt>
<trkpt lat="32.985853" lon="-116.525865"><ele>1447.0</ele><time>2024-04-26T18:06:57Z</time></trkpt>
<trkpt lat="32.985962" lon="-116.526058"><ele>1447.6</ele><time>2024-04-26T18:07:21Z</time></trkpt>
<trkpt lat="32.986324" lon="-116.526111"><ele>1448.2</ele><time>2024-04-26T18:07:44Z</time></trkpt>
<trkpt lat="32.986358" lon="-116.526160"><ele>1448.2</ele><time>2024-04-26T18:07:47Z</time></trkpt>
<trkpt lat="32.986295" lon="-116.526199"><ele>1448.0</ele><time>2024-04-26T18:07:52Z</time></trkpt>
<trkpt lat="32.986362" lon="-116.526290"><ele>1449.8</ele><time>2024-04-26T18:08:02Z</time></trkpt>
<trkpt lat="32.986687" lon="-116.526565"><ele>1452.2</ele><time>2024-04-26T18:08:37Z</time></trkpt>
<trkpt lat="32.986505" lon="-116.526439"><ele>1452.4</ele><time>2024-04-26T18:09:50Z</time></trkpt>
<trkpt lat="32.986625" lon="-116.526627"><ele>1454.8</ele><time>2024-04-26T18:10:02Z</time></trkpt>
<trkpt lat="32.986723" lon="-116.526657"><ele>1455.2</ele><time>2024-04-26T18:10:09Z</time></trkpt>
<trkpt lat="32.986960" lon="-116.526561"><ele>1457.2</ele><time>2024-04-26T18:10:35Z</time></trkpt>
<trkpt lat="32.987449" lon="-116.526871"><ele>1465.8</ele><time>2024-04-26T18:11:33Z</time></trkpt>
<trkpt lat="32.987628" lon="-116.526824"><ele>1467.0</ele><time>2024-04-26T18:11:48Z</time></trkpt>
<trkpt lat="32.987776" lon="-116.526691"><ele>1471.8</ele><time>2024-04-26T18:12:05Z</time></trkpt>
<trkpt lat="32.988130" lon="-116.526620"><ele>1470.8</ele><time>2024-04-26T18:12:39Z</time></trkpt>
<trkpt lat="32.988370" lon="-116.526675"><ele>1473.0</ele><time>2024-04-26T18:12:57Z</time></trkpt>
<trkpt lat="32.988624" lon="-116.526815"><ele>1468.6</ele><time>2024-04-26T18:13:44Z</time></trkpt>
<trkpt lat="32.988944" lon="-116.527362"><ele>1463.4</ele><time>2024-04-26T18:14:25Z</time></trkpt>
<trkpt lat="32.989009" lon="-116.527904"><ele>1459.6</ele><time>2024-04-26T18:15:27Z</time></trkpt>
<trkpt lat="32.989235" lon="-116.527803"><ele>1457.8</ele><time>2024-04-26T18:15:53Z</time></trkpt>
<trkpt lat="32.989305" lon="-116.527847"><ele>1457.6</ele><time>2024-04-26T18:16:00Z</time></trkpt>
<trkpt lat="32.989687" lon="-116.528227"><ele>1454.6</ele><time>2024-04-26T18:16:41Z</time></trkpt>
<trkpt lat="32.990083" lon="-116.528836"><ele>1460.8</ele><time>2024-04-26T18:17:50Z</time></trkpt>
<trkpt lat="32.990794" lon="-116.528903"><ele>1472.2</ele><time>2024-04-26T18:19:29Z</time></trkpt>
<trkpt lat="32.991307" lon="-116.528808"><ele>1476.4</ele><time>2024-04-26T18:20:21Z</time></trkpt>
<trkpt lat="32.991915" lon="-116.528977"><ele>1481.8</ele><time>2024-04-26T18:21:21Z</time></trkpt>
<trkpt lat="32.992256" lon="-116.529009"><ele>1481.2</ele><time>2024-04-26T18:21:42Z</time></trkpt>
<trkpt lat="32.992925" lon="-116.528927"><ele>1483.6</ele><time>2024-04-26T18:22:33Z</time></trkpt>
<trkpt lat="32.993125" lon="-116.528991"><ele>1482.4</ele><time>2024-04-26T18:22:57Z</time></trkpt>
<trkpt lat="32.993286" lon="-116.529140"><ele>1481.6</ele><time>2024-04-26T18:23:13Z</time></trkpt>
<trkpt lat="32.993708" lon="-116.529621"><ele>1481.2</ele><time>2024-04-26T18:24:00Z</time></trkpt>
<trkpt lat="32.993906" lon="-116.529952"><ele>1484.4</ele><time>2024-04-26T18:24:33Z</time></trkpt>
<trkpt lat="32.994047" lon="-116.530055"><ele>1485.2</ele><time>2024-04-26T18:24:55Z</time></trkpt>
<trkpt lat="32.994482" lon="-116.530700"><ele>1484.4</ele><time>2024-04-26T18:26:00Z</time></trkpt>
<trkpt lat="32.994614" lon="-116.530761"><ele>1485.4</ele><time>2024-04-26T18:26:09Z</time></trkpt>
<trkpt lat="32.994874" lon="-116.530795"><ele>1484.8</ele><time>2024-04-26T18:26:35Z</time></trkpt>
<trkpt lat="32.995142" lon="-116.530751"><ele>1478.0</ele><time>2024-04-26T18:27:03Z</time></trkpt>
<trkpt lat="32.995286" lon="-116.530802"><ele>1475.8</ele><time>2024-04-26T18:27:21Z</time></trkpt>
<trkpt lat="32.995469" lon="-116.530966"><ele>1471.8</ele><time>2024-04-26T18:27:42Z</time></trkpt>
<trkpt lat="32.995451" lon="-116.531025"><ele>1471.6</ele><time>2024-04-26T18:27:46Z</time></trkpt>
<trkpt lat="32.995515" lon="-116.530987"><ele>1472.0</ele><time>2024-04-26T18:28:09Z</time></trkpt>
<trkpt lat="32.995779" lon="-116.531096"><ele>1472.4</ele><time>2024-04-26T18:28:35Z</time></trkpt>
<trkpt lat="32.996046" lon="-116.531101"><ele>1473.2</ele><time>2024-04-26T18:29:05Z</time></trkpt>
<trkpt lat="32.996308" lon="-116.530987"><ele>1476.0</ele><time>2024-04-26T18:29:42Z</time></trkpt>
<trkpt lat="32.996307" lon="-116.530936"><ele>1475.8</ele><time>2024-04-26T18:29:44Z</time></trkpt>
<trkpt lat="32.996713" lon="-116.530870"><ele>1469.4</ele><time>2024-04-26T18:30:35Z</time></trkpt>
<trkpt lat="32.996661" lon="-116.530871"><ele>1467.0</ele><time>2024-04-26T18:31:56Z</time></trkpt>
<trkpt lat="32.996695" lon="-116.530893"><ele>1466.2</ele><time>2024-04-26T18:32:01Z</time></trkpt>
<trkpt lat="32.996710" lon="-116.530683"><ele>1465.4</ele><time>2024-04-26T18:33:44Z</time></trkpt>
<trkpt lat="32.996672" lon="-116.530904"><ele>1466.0</ele><time>2024-04-26T18:34:00Z</time></trkpt>
<trkpt lat="32.996678" lon="-116.530857"><ele>1465.8</ele><time>2024-04-26T18:35:03Z</time></trkpt>
<trkpt lat="32.996613" lon="-116.530924"><ele>1464.4</ele><time>2024-04-26T18:37:58Z</time></trkpt>
<trkpt lat="32.996733" lon="-116.530746"><ele>1463.8</ele><time>2024-04-26T18:39:42Z</time></trkpt>
<trkpt lat="32.996645" lon="-116.530958"><ele>1463.8</ele><time>2024-04-26T18:41:35Z</time></trkpt>
<trkpt lat="32.996663" lon="-116.530869"><ele>1463.0</ele><time>2024-04-26T18:41:44Z</time></trkpt>
<trkpt lat="32.996779" lon="-116.530919"><ele>1464.2</ele><time>2024-04-26T18:46:51Z</time></trkpt>
<trkpt lat="32.996930" lon="-116.530867"><ele>1462.0</ele><time>2024-04-26T18:47:46Z</time></trkpt>
<trkpt lat="32.997259" lon="-116.531057"><ele>1462.2</ele><time>2024-04-26T18:48:21Z</time></trkpt>
<trkpt lat="32.998090" lon="-116.531764"><ele>1456.2</ele><time>2024-04-26T18:49:42Z</time></trkpt>
<trkpt lat="32.998389" lon="-116.532220"><ele>1459.4</ele><time>2024-04-26T18:50:17Z</time></trkpt>
<trkpt lat="32.998690" lon="-116.532333"><ele>1460.0</ele><time>2024-04-26T18:50:47Z</time></trkpt>
<trkpt lat="32.999237" lon="-116.532902"><ele>1459.8</ele><time>2024-04-26T18:51:42Z</time></trkpt>
<trkpt lat="32.999460" lon="-116.532964"><ele>1459.2</ele><time>2024-04-26T18:51:57Z</time></trkpt>
<trkpt lat="32.999831" lon="-116.533228"><ele>1452.0</ele><time>2024-04-26T18:52:43Z</time></trkpt>
<trkpt lat="32.999960" lon="-116.533541"><ele>1447.0</ele><time>2024-04-26T18:53:11Z</time></trkpt>
<trkpt lat="33.000058" lon="-116.533991"><ele>1444.4</ele><time>2024-04-26T18:53:43Z</time></trkpt>
<trkpt lat="33.000292" lon="-116.534304"><ele>1444.2</ele><time>2024-04-26T18:54:11Z</time></trkpt>
<trkpt lat="33.000806" lon="-116.534575"><ele>1447.0</ele><time>2024-04-26T18:55:07Z</time></trkpt>
<trkpt lat="33.001168" lon="-116.534537"><ele>1450.8</ele><time>2024-04-26T18:55:42Z</time></trkpt>
<trkpt lat="33.001313" lon="-116.534405"><ele>1453.0</ele><time>2024-04-26T18:55:55Z</time></trkpt>
<trkpt lat="33.001530" lon="-116.534355"><ele>1449.4</ele><time>2024-04-26T18:56:29Z</time></trkpt>
<trkpt lat="33.002218" lon="-116.534762"><ele>1455.2</ele><time>2024-04-26T18:57:42Z</time></trkpt>
<trkpt lat="33.002423" lon="-116.534727"><ele>1457.6</ele><time>2024-04-26T18:57:56Z</time></trkpt>
<trkpt lat="33.002805" lon="-116.535046"><ele>1465.0</ele><time>2024-04-26T18:58:25Z</time></trkpt>
<trkpt lat="33.003034" lon="-116.535196"><ele>1461.4</ele><time>2024-04-26T18:58:49Z</time></trkpt>
<trkpt lat="33.003189" lon="-116.535367"><ele>1456.2</ele><time>2024-04-26T18:59:11Z</time></trkpt>
<trkpt lat="33.003323" lon="-116.535633"><ele>1455.8</ele><time>2024-04-26T18:59:35Z</time></trkpt>
<trkpt lat="33.003447" lon="-116.535695"><ele>1455.8</ele><time>2024-04-26T18:59:44Z</time></trkpt>
<trkpt lat="33.003938" lon="-116.535678"><ele>1451.4</ele><time>2024-04-26T19:00:37Z</time></trkpt>
<trkpt lat="33.004193" lon="-116.535556"><ele>1445.0</ele><time>2024-04-26T19:01:11Z</time></trkpt>
<trkpt lat="33.004740" lon="-116.535500"><ele>1439.8</ele><time>2024-04-26T19:01:46Z</time></trkpt>
<trkpt lat="33.005179" lon="-116.535886"><ele>1441.0</ele><time>2024-04-26T19:02:23Z</time></trkpt>
<trkpt lat="33.005183" lon="-116.536210"><ele>1434.2</ele><time>2024-04-26T19:02:55Z</time></trkpt>
<trkpt lat="33.005023" lon="-116.536665"><ele>1433.8</ele><time>2024-04-26T19:03:27Z</time></trkpt>
<trkpt lat="33.005171" lon="-116.536875"><ele>1437.2</ele><time>2024-04-26T19:03:44Z</time></trkpt>
<trkpt lat="33.005317" lon="-116.536889"><ele>1432.8</ele><time>2024-04-26T19:03:52Z</time></trkpt>
<trkpt lat="33.005652" lon="-116.537071"><ele>1430.4</ele><time>2024-04-26T19:04:23Z</time></trkpt>
<trkpt lat="33.005987" lon="-116.537398"><ele>1424.0</ele><time>2024-04-26T19:04:57Z</time></trkpt>
<trkpt lat="33.006215" lon="-116.537344"><ele>1428.2</ele><time>2024-04-26T19:05:49Z</time></trkpt>
<trkpt lat="33.006684" lon="-116.537358"><ele>1425.2</ele><time>2024-04-26T19:06:29Z</time></trkpt>
<trkpt lat="33.006856" lon="-116.537284"><ele>1426.4</ele><time>2024-04-26T19:06:57Z</time></trkpt>
<trkpt lat="33.007376" lon="-116.536905"><ele>1432.2</ele><time>2024-04-26T19:07:42Z</time></trkpt>
<trkpt lat="33.007259" lon="-116.536777"><ele>1433.6</ele><time>2024-04-26T19:07:46Z</time></trkpt>
<trkpt lat="33.007330" lon="-116.536736"><ele>1434.6</ele><time>2024-04-26T19:07:52Z</time></trkpt>
<trkpt lat="33.007798" lon="-116.537089"><ele>1440.6</ele><time>2024-04-26T19:08:37Z</time></trkpt>
<trkpt lat="33.008338" lon="-116.537197"><ele>1443.2</ele><time>2024-04-26T19:09:39Z</time></trkpt>
<trkpt lat="33.008276" lon="-116.537065"><ele>1441.8</ele><time>2024-04-26T19:10:01Z</time></trkpt>
<trkpt lat="33.008518" lon="-116.537261"><ele>1450.4</ele><time>2024-04-26T19:11:01Z</time></trkpt>
<trkpt lat="33.009050" lon="-116.537624"><ele>1448.2</ele><time>2024-04-26T19:11:41Z</time></trkpt>
<trkpt lat="33.009566" lon="-116.537844"><ele>1447.4</ele><time>2024-04-26T19:12:19Z</time></trkpt>
<trkpt lat="33.010137" lon="-116.537977"><ele>1439.8</ele><time>2024-04-26T19:13:07Z</time></trkpt>
<trkpt lat="33.010447" lon="-116.538318"><ele>1434.4</ele><time>2024-04-26T19:13:39Z</time></trkpt>
<trkpt lat="33.010489" lon="-116.538536"><ele>1431.8</ele><time>2024-04-26T19:13:57Z</time></trkpt>
<trkpt lat="33.010736" lon="-116.538573"><ele>1428.6</ele><time>2024-04-26T19:15:43Z</time></trkpt>
<trkpt lat="33.010685" lon="-116.538717"><ele>1427.4</ele><time>2024-04-26T19:15:52Z</time></trkpt>
<trkpt lat="33.010654" lon="-116.538677"><ele>1427.0</ele><time>2024-04-26T19:16:02Z</time></trkpt>
<trkpt lat="33.010837" lon="-116.538257"><ele>1431.4</ele><time>2024-04-26T19:16:43Z</time></trkpt>
<trkpt lat="33.011389" lon="-116.538171"><ele>1428.4</ele><time>2024-04-26T19:17:37Z</time></trkpt>
<trkpt lat="33.011579" lon="-116.537918"><ele>1425.8</ele><time>2024-04-26T19:17:52Z</time></trkpt>
<trkpt lat="33.012113" lon="-116.537690"><ele>1426.4</ele><time>2024-04-26T19:18:41Z</time></trkpt>
<trkpt lat="33.012759" lon="-116.537555"><ele>1421.6</ele><time>2024-04-26T19:19:35Z</time></trkpt>
<trkpt lat="33.013130" lon="-116.537335"><ele>1413.8</ele><time>2024-04-26T19:20:15Z</time></trkpt>
<trkpt lat="33.013255" lon="-116.537185"><ele>1404.8</ele><time>2024-04-26T19:20:49Z</time></trkpt>
<trkpt lat="33.013407" lon="-116.536867"><ele>1400.0</ele><time>2024-04-26T19:21:13Z</time></trkpt>
<trkpt lat="33.013437" lon="-116.536236"><ele>1391.8</ele><time>2024-04-26T19:21:58Z</time></trkpt>
<trkpt lat="33.013389" lon="-116.536145"><ele>1390.2</ele><time>2024-04-26T19:22:07Z</time></trkpt>
<trkpt lat="33.012914" lon="-116.535826"><ele>1378.2</ele><time>2024-04-26T19:23:11Z</time></trkpt>
<trkpt lat="33.012603" lon="-116.535812"><ele>1371.6</ele><time>2024-04-26T19:23:49Z</time></trkpt>
<trkpt lat="33.012633" lon="-116.535717"><ele>1369.0</ele><time>2024-04-26T19:23:51Z</time></trkpt>
<trkpt lat="33.012468" lon="-116.535610"><ele>1366.2</ele><time>2024-04-26T19:24:11Z</time></trkpt>
<trkpt lat="33.012372" lon="-116.535464"><ele>1367.2</ele><time>2024-04-26T19:24:29Z</time></trkpt>
<trkpt lat="33.012376" lon="-116.535247"><ele>1369.0</ele><time>2024-04-26T19:24:45Z</time></trkpt>
<trkpt lat="33.012512" lon="-116.534983"><ele>1358.8</ele><time>2024-04-26T19:25:27Z</time></trkpt>
<trkpt lat="33.012782" lon="-116.534662"><ele>1352.0</ele><time>2024-04-26T19:25:55Z</time></trkpt>
<trkpt lat="33.012774" lon="-116.534598"><ele>1350.8</ele><time>2024-04-26T19:25:59Z</time></trkpt>
<trkpt lat="33.013783" lon="-116.533593"><ele>1340.8</ele><time>2024-04-26T19:27:43Z</time></trkpt>
<trkpt lat="33.013577" lon="-116.533709"><ele>1340.2</ele><time>2024-04-26T19:27:49Z</time></trkpt>
<trkpt lat="33.013428" lon="-116.534248"><ele>1339.6</ele><time>2024-04-26T19:27:51Z</time></trkpt>
<trkpt lat="33.013300" lon="-116.534234"><ele>1338.6</ele><time>2024-04-26T19:27:57Z</time></trkpt>
<trkpt lat="33.013564" lon="-116.533925"><ele>1336.4</ele><time>2024-04-26T19:28:15Z</time></trkpt>
<trkpt lat="33.014053" lon="-116.533871"><ele>1333.6</ele><time>2024-04-26T19:28:39Z</time></trkpt>
<trkpt lat="33.014137" lon="-116.533805"><ele>1331.4</ele><time>2024-04-26T19:28:59Z</time></trkpt>
<trkpt lat="33.014094" lon="-116.533818"><ele>1330.2</ele><time>2024-04-26T19:29:29Z</time></trkpt>
<trkpt lat="33.014136" lon="-116.533927"><ele>1331.8</ele><time>2024-04-26T19:29:43Z</time></trkpt>
<trkpt lat="33.013932" lon="-116.533940"><ele>1330.4</ele><time>2024-04-26T19:29:49Z</time></trkpt>
<trkpt lat="33.013882" lon="-116.534123"><ele>1330.4</ele><time>2024-04-26T19:29:53Z</time></trkpt>
<trkpt lat="33.013634" lon="-116.534517"><ele>1331.4</ele><time>2024-04-26T19:30:14Z</time></trkpt>
<trkpt lat="33.014003" lon="-116.534117"><ele>1335.2</ele><time>2024-04-26T19:32:46Z</time></trkpt>
<trkpt lat="33.013910" lon="-116.534175"><ele>1334.8</ele><time>2024-04-26T19:32:48Z</time></trkpt>
<trkpt lat="33.013725" lon="-116.534493"><ele>1334.0</ele><time>2024-04-26T19:32:51Z</time></trkpt>
<trkpt lat="33.013652" lon="-116.534480"><ele>1334.4</ele><time>2024-04-26T19:32:59Z</time></trkpt>
<trkpt lat="33.014041" lon="-116.534352"><ele>1329.0</ele><time>2024-04-26T19:33:41Z</time></trkpt>
<trkpt lat="33.014110" lon="-116.534290"><ele>1324.0</ele><time>2024-04-26T19:34:09Z</time></trkpt>
<trkpt lat="33.014277" lon="-116.534330"><ele>1322.2</ele><time>2024-04-26T19:34:25Z</time></trkpt>
<trkpt lat="33.014270" lon="-116.534111"><ele>1318.8</ele><time>2024-04-26T19:34:44Z</time></trkpt>
<trkpt lat="33.014036" lon="-116.534169"><ele>1315.2</ele><time>2024-04-26T19:35:01Z</time></trkpt>
<trkpt lat="33.013724" lon="-116.534100"><ele>1311.8</ele><time>2024-04-26T19:35:21Z</time></trkpt>
<trkpt lat="33.013568" lon="-116.533360"><ele>1300.4</ele><time>2024-04-26T19:36:29Z</time></trkpt>
<trkpt lat="33.013579" lon="-116.533095"><ele>1295.4</ele><time>2024-04-26T19:36:46Z</time></trkpt>
<trkpt lat="33.013557" lon="-116.533129"><ele>1295.0</ele><time>2024-04-26T19:36:47Z</time></trkpt>
<trkpt lat="33.013648" lon="-116.532942"><ele>1294.8</ele><time>2024-04-26T19:37:01Z</time></trkpt>
<trkpt lat="33.013437" lon="-116.532477"><ele>1287.4</ele><time>2024-04-26T19:37:35Z</time></trkpt>
<trkpt lat="33.013235" lon="-116.532472"><ele>1284.8</ele><time>2024-04-26T19:37:57Z</time></trkpt>
<trkpt lat="33.012883" lon="-116.532827"><ele>1279.4</ele><time>2024-04-26T19:38:31Z</time></trkpt>
<trkpt lat="33.012680" lon="-116.532948"><ele>1277.2</ele><time>2024-04-26T19:38:42Z</time></trkpt>
<trkpt lat="33.012878" lon="-116.532750"><ele>1276.2</ele><time>2024-04-26T19:38:51Z</time></trkpt>
<trkpt lat="33.012609" lon="-116.532704"><ele>1272.0</ele><time>2024-04-26T19:39:13Z</time></trkpt>
<trkpt lat="33.012528" lon="-116.532399"><ele>1266.6</ele><time>2024-04-26T19:39:59Z</time></trkpt>
<trkpt lat="33.012579" lon="-116.531456"><ele>1256.2</ele><time>2024-04-26T19:40:43Z</time></trkpt>
<trkpt lat="33.012674" lon="-116.531532"><ele>1256.0</ele><time>2024-04-26T19:40:49Z</time></trkpt>
<trkpt lat="33.012503" lon="-116.531980"><ele>1255.8</ele><time>2024-04-26T19:40:53Z</time></trkpt>
<trkpt lat="33.012588" lon="-116.532133"><ele>1254.0</ele><time>2024-04-26T19:41:13Z</time></trkpt>
<trkpt lat="33.012568" lon="-116.531672"><ele>1243.0</ele><time>2024-04-26T19:41:57Z</time></trkpt>
<trkpt lat="33.012436" lon="-116.531333"><ele>1235.4</ele><time>2024-04-26T19:42:33Z</time></trkpt>
<trkpt lat="33.012460" lon="-116.531591"><ele>1235.8</ele><time>2024-04-26T19:42:43Z</time></trkpt>
<trkpt lat="33.012648" lon="-116.531058"><ele>1235.0</ele><time>2024-04-26T19:42:47Z</time></trkpt>
<trkpt lat="33.012607" lon="-116.531160"><ele>1234.0</ele><time>2024-04-26T19:42:49Z</time></trkpt>
<trkpt lat="33.012827" lon="-116.530958"><ele>1231.8</ele><time>2024-04-26T19:42:59Z</time></trkpt>
<trkpt lat="33.012834" lon="-116.531022"><ele>1231.2</ele><time>2024-04-26T19:43:11Z</time></trkpt>
<trkpt lat="33.012919" lon="-116.530812"><ele>1226.6</ele><time>2024-04-26T19:43:31Z</time></trkpt>
<trkpt lat="33.013035" lon="-116.530215"><ele>1219.6</ele><time>2024-04-26T19:44:09Z</time></trkpt>
<trkpt lat="33.012972" lon="-116.529698"><ele>1212.6</ele><time>2024-04-26T19:44:42Z</time></trkpt>
<trkpt lat="33.013044" lon="-116.529490"><ele>1212.2</ele><time>2024-04-26T19:44:43Z</time></trkpt>
<trkpt lat="33.012917" lon="-116.529679"><ele>1210.8</ele><time>2024-04-26T19:44:51Z</time></trkpt>
<trkpt lat="33.012554" lon="-116.529807"><ele>1210.4</ele><time>2024-04-26T19:44:55Z</time></trkpt>
<trkpt lat="33.012543" lon="-116.529877"><ele>1210.4</ele><time>2024-04-26T19:45:03Z</time></trkpt>
<trkpt lat="33.012587" lon="-116.529810"><ele>1211.2</ele><time>2024-04-26T19:45:10Z</time></trkpt>
<trkpt lat="33.012390" lon="-116.529884"><ele>1211.0</ele><time>2024-04-26T19:46:00Z</time></trkpt>
<trkpt lat="33.012338" lon="-116.529774"><ele>1208.8</ele><time>2024-04-26T19:46:11Z</time></trkpt>
<trkpt lat="33.012181" lon="-116.529694"><ele>1206.4</ele><time>2024-04-26T19:46:29Z</time></trkpt>
<trkpt lat="33.012243" lon="-116.529072"><ele>1201.0</ele><time>2024-04-26T19:47:07Z</time></trkpt>
<trkpt lat="33.012223" lon="-116.528420"><ele>1195.8</ele><time>2024-04-26T19:47:39Z</time></trkpt>
<trkpt lat="33.012096" lon="-116.528229"><ele>1194.6</ele><time>2024-04-26T19:47:44Z</time></trkpt>
<trkpt lat="33.011997" lon="-116.529359"><ele>1193.4</ele><time>2024-04-26T19:47:48Z</time></trkpt>
<trkpt lat="33.011858" lon="-116.529152"><ele>1193.0</ele><time>2024-04-26T19:47:49Z</time></trkpt>
<trkpt lat="33.011689" lon="-116.529060"><ele>1192.6</ele><time>2024-04-26T19:47:57Z</time></trkpt>
<trkpt lat="33.011861" lon="-116.528982"><ele>1190.4</ele><time>2024-04-26T19:48:11Z</time></trkpt>
<trkpt lat="33.011898" lon="-116.528803"><ele>1187.8</ele><time>2024-04-26T19:48:31Z</time></trkpt>
<trkpt lat="33.011843" lon="-116.528708"><ele>1186.0</ele><time>2024-04-26T19:48:40Z</time></trkpt>
<trkpt lat="33.011846" lon="-116.528446"><ele>1184.6</ele><time>2024-04-26T19:48:55Z</time></trkpt>
<trkpt lat="33.012220" lon="-116.527823"><ele>1174.6</ele><time>2024-04-26T19:50:15Z</time></trkpt>
<trkpt lat="33.012476" lon="-116.527209"><ele>1173.6</ele><time>2024-04-26T19:50:42Z</time></trkpt>
<trkpt lat="33.012430" lon="-116.527389"><ele>1173.4</ele><time>2024-04-26T19:50:44Z</time></trkpt>
<trkpt lat="33.013058" lon="-116.527122"><ele>1172.8</ele><time>2024-04-26T19:51:59Z</time></trkpt>
<trkpt lat="33.013493" lon="-116.527089"><ele>1168.4</ele><time>2024-04-26T19:52:41Z</time></trkpt>
<trkpt lat="33.013324" lon="-116.527196"><ele>1168.8</ele><time>2024-04-26T19:52:47Z</time></trkpt>
<trkpt lat="33.013247" lon="-116.526987"><ele>1171.8</ele><time>2024-04-26T19:53:21Z</time></trkpt>
<trkpt lat="33.012935" lon="-116.526696"><ele>1178.2</ele><time>2024-04-26T19:53:59Z</time></trkpt>
<trkpt lat="33.012902" lon="-116.526537"><ele>1181.6</ele><time>2024-04-26T19:54:11Z</time></trkpt>
<trkpt lat="33.012959" lon="-116.526155"><ele>1183.8</ele><time>2024-04-26T19:54:45Z</time></trkpt>
<trkpt lat="33.012620" lon="-116.526150"><ele>1191.8</ele><time>2024-04-26T19:55:19Z</time></trkpt>
<trkpt lat="33.012293" lon="-116.525695"><ele>1194.6</ele><time>2024-04-26T19:56:19Z</time></trkpt>
<trkpt lat="33.012188" lon="-116.525511"><ele>1203.0</ele><time>2024-04-26T19:56:41Z</time></trkpt>
<trkpt lat="33.012086" lon="-116.525456"><ele>1204.2</ele><time>2024-04-26T19:56:50Z</time></trkpt>
<trkpt lat="33.012447" lon="-116.525009"><ele>1217.2</ele><time>2024-04-26T19:57:39Z</time></trkpt>
<trkpt lat="33.012341" lon="-116.524856"><ele>1221.4</ele><time>2024-04-26T19:57:57Z</time></trkpt>
<trkpt lat="33.012007" lon="-116.524679"><ele>1224.2</ele><time>2024-04-26T19:58:47Z</time></trkpt>
<trkpt lat="33.012109" lon="-116.524484"><ele>1224.6</ele><time>2024-04-26T19:58:50Z</time></trkpt>
<trkpt lat="33.012076" lon="-116.524368"><ele>1229.0</ele><time>2024-04-26T19:59:02Z</time></trkpt>
<trkpt lat="33.011664" lon="-116.524234"><ele>1230.0</ele><time>2024-04-26T19:59:55Z</time></trkpt>
<trkpt lat="33.011424" lon="-116.524083"><ele>1232.2</ele><time>2024-04-26T20:00:43Z</time></trkpt>
<trkpt lat="33.011512" lon="-116.523815"><ele>1233.6</ele><time>2024-04-26T20:00:50Z</time></trkpt>
<trkpt lat="33.011403" lon="-116.523956"><ele>1234.2</ele><time>2024-04-26T20:00:51Z</time></trkpt>
<trkpt lat="33.011514" lon="-116.523819"><ele>1234.8</ele><time>2024-04-26T20:00:52Z</time></trkpt>
<trkpt lat="33.011139" lon="-116.523293"><ele>1239.0</ele><time>2024-04-26T20:01:49Z</time></trkpt>
<trkpt lat="33.011198" lon="-116.523362"><ele>1247.0</ele><time>2024-04-26T20:04:42Z</time></trkpt>
<trkpt lat="33.011135" lon="-116.523331"><ele>1247.2</ele><time>2024-04-26T20:06:23Z</time></trkpt>
<trkpt lat="33.011116" lon="-116.523260"><ele>1247.4</ele><time>2024-04-26T20:06:57Z</time></trkpt>
<trkpt lat="33.011306" lon="-116.523025"><ele>1246.2</ele><time>2024-04-26T20:07:49Z</time></trkpt>
<trkpt lat="33.011430" lon="-116.522743"><ele>1247.4</ele><time>2024-04-26T20:08:07Z</time></trkpt>
<trkpt lat="33.011725" lon="-116.522496"><ele>1247.6</ele><time>2024-04-26T20:08:42Z</time></trkpt>
<trkpt lat="33.012183" lon="-116.522322"><ele>1245.2</ele><time>2024-04-26T20:09:17Z</time></trkpt>
<trkpt lat="33.012394" lon="-116.522447"><ele>1247.8</ele><time>2024-04-26T20:09:49Z</time></trkpt>
<trkpt lat="33.012538" lon="-116.522221"><ele>1245.4</ele><time>2024-04-26T20:10:11Z</time></trkpt>
<trkpt lat="33.012844" lon="-116.521985"><ele>1249.4</ele><time>2024-04-26T20:10:44Z</time></trkpt>
<trkpt lat="33.013077" lon="-116.521781"><ele>1243.4</ele><time>2024-04-26T20:11:02Z</time></trkpt>
<trkpt lat="33.013389" lon="-116.521964"><ele>1243.4</ele><time>2024-04-26T20:11:47Z</time></trkpt>
<trkpt lat="33.013400" lon="-116.522120"><ele>1249.4</ele><time>2024-04-26T20:12:25Z</time></trkpt>
<trkpt lat="33.013512" lon="-116.522337"><ele>1248.8</ele><time>2024-04-26T20:12:42Z</time></trkpt>
<trkpt lat="33.013648" lon="-116.522354"><ele>1248.0</ele><time>2024-04-26T20:12:54Z</time></trkpt>
<trkpt lat="33.014012" lon="-116.522164"><ele>1245.6</ele><time>2024-04-26T20:13:15Z</time></trkpt>
<trkpt lat="33.014972" lon="-116.521880"><ele>1245.2</ele><time>2024-04-26T20:14:45Z</time></trkpt>
<trkpt lat="33.015054" lon="-116.521907"><ele>1246.8</ele><time>2024-04-26T20:14:52Z</time></trkpt>
<trkpt lat="33.015237" lon="-116.521827"><ele>1244.8</ele><time>2024-04-26T20:15:05Z</time></trkpt>
<trkpt lat="33.015610" lon="-116.521848"><ele>1251.2</ele><time>2024-04-26T20:16:09Z</time></trkpt>
<trkpt lat="33.016414" lon="-116.522203"><ele>1252.4</ele><time>2024-04-26T20:17:11Z</time></trkpt>
<trkpt lat="33.016568" lon="-116.522412"><ele>1253.8</ele><time>2024-04-26T20:17:39Z</time></trkpt>
<trkpt lat="33.016757" lon="-116.522485"><ele>1253.6</ele><time>2024-04-26T20:17:53Z</time></trkpt>
<trkpt lat="33.017276" lon="-116.522388"><ele>1256.0</ele><time>2024-04-26T20:18:44Z</time></trkpt>
<trkpt lat="33.017231" lon="-116.522522"><ele>1256.2</ele><time>2024-04-26T20:18:47Z</time></trkpt>
<trkpt lat="33.017566" lon="-116.522661"><ele>1257.6</ele><time>2024-04-26T20:19:17Z</time></trkpt>
<trkpt lat="33.018609" lon="-116.522830"><ele>1263.4</ele><time>2024-04-26T20:20:49Z</time></trkpt>
<trkpt lat="33.018657" lon="-116.522985"><ele>1263.0</ele><time>2024-04-26T20:20:58Z</time></trkpt>
<trkpt lat="33.018863" lon="-116.523048"><ele>1264.4</ele><time>2024-04-26T20:21:21Z</time></trkpt>
<trkpt lat="33.019315" lon="-116.522941"><ele>1266.6</ele><time>2024-04-26T20:22:17Z</time></trkpt>
<trkpt lat="33.019414" lon="-116.522914"><ele>1275.6</ele><time>2024-04-26T20:22:31Z</time></trkpt>
<trkpt lat="33.019620" lon="-116.522856"><ele>1277.8</ele><time>2024-04-26T20:22:41Z</time></trkpt>
<trkpt lat="33.019770" lon="-116.522161"><ele>1273.2</ele><time>2024-04-26T20:24:03Z</time></trkpt>
<trkpt lat="33.019570" lon="-116.521638"><ele>1270.8</ele><time>2024-04-26T20:24:44Z</time></trkpt>
<trkpt lat="33.019809" lon="-116.521332"><ele>1267.6</ele><time>2024-04-26T20:25:05Z</time></trkpt>
<trkpt lat="33.020093" lon="-116.521360"><ele>1272.0</ele><time>2024-04-26T20:25:31Z</time></trkpt>
<trkpt lat="33.020118" lon="-116.521363"><ele>1267.6</ele><time>2024-04-26T20:25:41Z</time></trkpt>
<trkpt lat="33.020408" lon="-116.521345"><ele>1267.4</ele><time>2024-04-26T20:26:05Z</time></trkpt>
<trkpt lat="33.020816" lon="-116.521525"><ele>1270.2</ele><time>2024-04-26T20:26:48Z</time></trkpt>
<trkpt lat="33.021191" lon="-116.521483"><ele>1276.2</ele><time>2024-04-26T20:27:29Z</time></trkpt>
<trkpt lat="33.021677" lon="-116.521620"><ele>1279.6</ele><time>2024-04-26T20:28:27Z</time></trkpt>
<trkpt lat="33.022049" lon="-116.521546"><ele>1283.6</ele><time>2024-04-26T20:28:59Z</time></trkpt>
<trkpt lat="33.022222" lon="-116.521428"><ele>1283.6</ele><time>2024-04-26T20:29:15Z</time></trkpt>
<trkpt lat="33.022433" lon="-116.521272"><ele>1297.8</ele><time>2024-04-26T20:29:59Z</time></trkpt>
<trkpt lat="33.022556" lon="-116.521091"><ele>1303.2</ele><time>2024-04-26T20:30:13Z</time></trkpt>
<trkpt lat="33.022644" lon="-116.520896"><ele>1297.4</ele><time>2024-04-26T20:30:42Z</time></trkpt>
<trkpt lat="33.022616" lon="-116.520921"><ele>1296.8</ele><time>2024-04-26T20:30:49Z</time></trkpt>
<trkpt lat="33.022610" lon="-116.520430"><ele>1294.6</ele><time>2024-04-26T20:31:19Z</time></trkpt>
<trkpt lat="33.022526" lon="-116.520121"><ele>1296.2</ele><time>2024-04-26T20:32:07Z</time></trkpt>
<trkpt lat="33.022508" lon="-116.519643"><ele>1299.0</ele><time>2024-04-26T20:32:49Z</time></trkpt>
<trkpt lat="33.022497" lon="-116.519505"><ele>1295.6</ele><time>2024-04-26T20:32:59Z</time></trkpt>
<trkpt lat="33.022305" lon="-116.518976"><ele>1294.6</ele><time>2024-04-26T20:33:55Z</time></trkpt>
<trkpt lat="33.022305" lon="-116.518975"><ele>1289.2</ele><time>2024-04-26T20:34:07Z</time></trkpt>
<trkpt lat="33.022309" lon="-116.518970"><ele>1294.0</ele><time>2024-04-26T20:34:19Z</time></trkpt>
<trkpt lat="33.022524" lon="-116.518841"><ele>1292.6</ele><time>2024-04-26T20:34:42Z</time></trkpt>
<trkpt lat="33.022399" lon="-116.518862"><ele>1293.0</ele><time>2024-04-26T20:34:59Z</time></trkpt>
<trkpt lat="33.022890" lon="-116.519132"><ele>1293.2</ele><time>2024-04-26T20:36:41Z</time></trkpt>
<trkpt lat="33.023133" lon="-116.518994"><ele>1295.2</ele><time>2024-04-26T20:36:53Z</time></trkpt>
<trkpt lat="33.023419" lon="-116.519062"><ele>1306.4</ele><time>2024-04-26T20:37:17Z</time></trkpt>
<trkpt lat="33.023643" lon="-116.519298"><ele>1308.4</ele><time>2024-04-26T20:38:23Z</time></trkpt>
<trkpt lat="33.023685" lon="-116.519255"><ele>1311.2</ele><time>2024-04-26T20:38:45Z</time></trkpt>
<trkpt lat="33.023668" lon="-116.518898"><ele>1310.2</ele><time>2024-04-26T20:39:15Z</time></trkpt>
<trkpt lat="33.023443" lon="-116.518372"><ele>1305.8</ele><time>2024-04-26T20:40:42Z</time></trkpt>
<trkpt lat="33.023173" lon="-116.518246"><ele>1303.2</ele><time>2024-04-26T20:42:43Z</time></trkpt>
<trkpt lat="33.023281" lon="-116.518355"><ele>1301.0</ele><time>2024-04-26T20:44:46Z</time></trkpt>
<trkpt lat="33.023291" lon="-116.518243"><ele>1302.6</ele><time>2024-04-26T20:46:43Z</time></trkpt>
<trkpt lat="33.023295" lon="-116.518371"><ele>1301.6</ele><time>2024-04-26T20:46:51Z</time></trkpt>
<trkpt lat="33.023310" lon="-116.517919"><ele>1300.6</ele><time>2024-04-26T20:47:49Z</time></trkpt>
<trkpt lat="33.023598" lon="-116.517386"><ele>1298.0</ele><time>2024-04-26T20:48:42Z</time></trkpt>
<trkpt lat="33.023483" lon="-116.516828"><ele>1288.6</ele><time>2024-04-26T20:49:45Z</time></trkpt>
<trkpt lat="33.023535" lon="-116.516687"><ele>1293.4</ele><time>2024-04-26T20:49:55Z</time></trkpt>
<trkpt lat="33.023546" lon="-116.516623"><ele>1289.2</ele><time>2024-04-26T20:50:05Z</time></trkpt>
<trkpt lat="33.023341" lon="-116.516351"><ele>1282.4</ele><time>2024-04-26T20:50:43Z</time></trkpt>
<trkpt lat="33.023736" lon="-116.515638"><ele>1276.6</ele><time>2024-04-26T20:51:39Z</time></trkpt>
<trkpt lat="33.023703" lon="-116.515182"><ele>1272.2</ele><time>2024-04-26T20:52:13Z</time></trkpt>
<trkpt lat="33.023941" lon="-116.514993"><ele>1269.4</ele><time>2024-04-26T20:52:50Z</time></trkpt>
<trkpt lat="33.024146" lon="-116.515141"><ele>1275.6</ele><time>2024-04-26T20:53:31Z</time></trkpt>
<trkpt lat="33.024504" lon="-116.515272"><ele>1275.2</ele><time>2024-04-26T20:54:05Z</time></trkpt>
<trkpt lat="33.024591" lon="-116.515398"><ele>1280.0</ele><time>2024-04-26T20:54:29Z</time></trkpt>
<trkpt lat="33.024820" lon="-116.515597"><ele>1279.6</ele><time>2024-04-26T20:54:47Z</time></trkpt>
<trkpt lat="33.024944" lon="-116.515839"><ele>1283.8</ele><time>2024-04-26T20:55:07Z</time></trkpt>
<trkpt lat="33.025242" lon="-116.516046"><ele>1284.2</ele><time>2024-04-26T20:55:59Z</time></trkpt>
<trkpt lat="33.025465" lon="-116.516330"><ele>1296.4</ele><time>2024-04-26T20:56:35Z</time></trkpt>
<trkpt lat="33.025572" lon="-116.516385"><ele>1291.8</ele><time>2024-04-26T20:56:42Z</time></trkpt>
<trkpt lat="33.025790" lon="-116.516213"><ele>1286.8</ele><time>2024-04-26T20:57:03Z</time></trkpt>
<trkpt lat="33.026051" lon="-116.516186"><ele>1285.6</ele><time>2024-04-26T20:57:25Z</time></trkpt>
<trkpt lat="33.026495" lon="-116.516391"><ele>1284.2</ele><time>2024-04-26T20:58:29Z</time></trkpt>
<trkpt lat="33.026528" lon="-116.516282"><ele>1282.4</ele><time>2024-04-26T20:58:52Z</time></trkpt>
<trkpt lat="33.026687" lon="-116.516478"><ele>1279.6</ele><time>2024-04-26T20:59:09Z</time></trkpt>
<trkpt lat="33.026771" lon="-116.516614"><ele>1277.2</ele><time>2024-04-26T20:59:23Z</time></trkpt>
<trkpt lat="33.026838" lon="-116.516888"><ele>1285.0</ele><time>2024-04-26T20:59:45Z</time></trkpt>
<trkpt lat="33.026843" lon="-116.516898"><ele>1290.4</ele><time>2024-04-26T20:59:53Z</time></trkpt>
<trkpt lat="33.026859" lon="-116.516928"><ele>1284.8</ele><time>2024-04-26T21:00:05Z</time></trkpt>
<trkpt lat="33.027106" lon="-116.517344"><ele>1283.6</ele><time>2024-04-26T21:00:41Z</time></trkpt>
<trkpt lat="33.027311" lon="-116.517896"><ele>1283.2</ele><time>2024-04-26T21:01:17Z</time></trkpt>
<trkpt lat="33.027419" lon="-116.518446"><ele>1289.8</ele><time>2024-04-26T21:02:11Z</time></trkpt>
<trkpt lat="33.027623" lon="-116.518688"><ele>1288.6</ele><time>2024-04-26T21:02:43Z</time></trkpt>
<trkpt lat="33.027717" lon="-116.518667"><ele>1286.6</ele><time>2024-04-26T21:02:50Z</time></trkpt>
<trkpt lat="33.027786" lon="-116.518740"><ele>1289.4</ele><time>2024-04-26T21:02:58Z</time></trkpt>
<trkpt lat="33.028028" lon="-116.519168"><ele>1292.0</ele><time>2024-04-26T21:03:43Z</time></trkpt>
<trkpt lat="33.028070" lon="-116.519237"><ele>1287.4</ele><time>2024-04-26T21:04:03Z</time></trkpt>
<trkpt lat="33.028180" lon="-116.519386"><ele>1297.6</ele><time>2024-04-26T21:04:25Z</time></trkpt>
<trkpt lat="33.028340" lon="-116.519667"><ele>1298.2</ele><time>2024-04-26T21:04:43Z</time></trkpt>
<trkpt lat="33.028255" lon="-116.519971"><ele>1297.4</ele><time>2024-04-26T21:05:01Z</time></trkpt>
<trkpt lat="33.028297" lon="-116.520305"><ele>1298.4</ele><time>2024-04-26T21:05:19Z</time></trkpt>
<trkpt lat="33.028467" lon="-116.520976"><ele>1301.8</ele><time>2024-04-26T21:06:23Z</time></trkpt>
<trkpt lat="33.028601" lon="-116.521276"><ele>1304.2</ele><time>2024-04-26T21:06:42Z</time></trkpt>
<trkpt lat="33.028718" lon="-116.521350"><ele>1301.6</ele><time>2024-04-26T21:06:58Z</time></trkpt>
<trkpt lat="33.029056" lon="-116.521406"><ele>1302.4</ele><time>2024-04-26T21:07:17Z</time></trkpt>
<trkpt lat="33.029161" lon="-116.521373"><ele>1306.8</ele><time>2024-04-26T21:07:41Z</time></trkpt>
<trkpt lat="33.029424" lon="-116.521159"><ele>1318.4</ele><time>2024-04-26T21:08:27Z</time></trkpt>
<trkpt lat="33.029970" lon="-116.520832"><ele>1316.2</ele><time>2024-04-26T21:08:56Z</time></trkpt>
<trkpt lat="33.030473" lon="-116.520682"><ele>1311.8</ele><time>2024-04-26T21:10:17Z</time></trkpt>
<trkpt lat="33.030601" lon="-116.520506"><ele>1307.8</ele><time>2024-04-26T21:10:43Z</time></trkpt>
<trkpt lat="33.030654" lon="-116.520431"><ele>1312.8</ele><time>2024-04-26T21:10:52Z</time></trkpt>
<trkpt lat="33.031133" lon="-116.520035"><ele>1307.6</ele><time>2024-04-26T21:11:51Z</time></trkpt>
<trkpt lat="33.031169" lon="-116.519997"><ele>1300.4</ele><time>2024-04-26T21:12:07Z</time></trkpt>
<trkpt lat="33.031585" lon="-116.519479"><ele>1297.6</ele><time>2024-04-26T21:12:54Z</time></trkpt>
<trkpt lat="33.031667" lon="-116.519434"><ele>1290.8</ele><time>2024-04-26T21:13:01Z</time></trkpt>
<trkpt lat="33.031985" lon="-116.519600"><ele>1290.8</ele><time>2024-04-26T21:13:33Z</time></trkpt>
<trkpt lat="33.032028" lon="-116.519701"><ele>1292.4</ele><time>2024-04-26T21:13:41Z</time></trkpt>
<trkpt lat="33.032046" lon="-116.519815"><ele>1291.8</ele><time>2024-04-26T21:13:49Z</time></trkpt>
<trkpt lat="33.031876" lon="-116.520328"><ele>1285.6</ele><time>2024-04-26T21:14:35Z</time></trkpt>
<trkpt lat="33.031888" lon="-116.520500"><ele>1285.6</ele><time>2024-04-26T21:15:02Z</time></trkpt>
<trkpt lat="33.032011" lon="-116.520665"><ele>1285.2</ele><time>2024-04-26T21:15:53Z</time></trkpt>
<trkpt lat="33.032381" lon="-116.520921"><ele>1280.8</ele><time>2024-04-26T21:16:50Z</time></trkpt>
<trkpt lat="33.032403" lon="-116.520924"><ele>1276.0</ele><time>2024-04-26T21:16:54Z</time></trkpt>
<trkpt lat="33.032705" lon="-116.521425"><ele>1279.8</ele><time>2024-04-26T21:17:33Z</time></trkpt>
<trkpt lat="33.032714" lon="-116.521433"><ele>1273.8</ele><time>2024-04-26T21:17:59Z</time></trkpt>
<trkpt lat="33.032762" lon="-116.521631"><ele>1272.2</ele><time>2024-04-26T21:18:23Z</time></trkpt>
<trkpt lat="33.032959" lon="-116.521766"><ele>1271.4</ele><time>2024-04-26T21:18:45Z</time></trkpt>
<trkpt lat="33.033037" lon="-116.521710"><ele>1265.6</ele><time>2024-04-26T21:18:55Z</time></trkpt>
<trkpt lat="33.033078" lon="-116.521665"><ele>1269.8</ele><time>2024-04-26T21:19:01Z</time></trkpt>
<trkpt lat="33.033305" lon="-116.521633"><ele>1267.0</ele><time>2024-04-26T21:19:27Z</time></trkpt>
<trkpt lat="33.033431" lon="-116.521593"><ele>1255.8</ele><time>2024-04-26T21:19:47Z</time></trkpt>
<trkpt lat="33.033655" lon="-116.521535"><ele>1262.0</ele><time>2024-04-26T21:20:03Z</time></trkpt>
<trkpt lat="33.033998" lon="-116.521638"><ele>1253.8</ele><time>2024-04-26T21:20:47Z</time></trkpt>
<trkpt lat="33.034026" lon="-116.521727"><ele>1253.4</ele><time>2024-04-26T21:20:52Z</time></trkpt>
<trkpt lat="33.034038" lon="-116.521782"><ele>1264.6</ele><time>2024-04-26T21:20:58Z</time></trkpt>
<trkpt lat="33.034445" lon="-116.522167"><ele>1249.6</ele><time>2024-04-26T21:21:35Z</time></trkpt>
<trkpt lat="33.034675" lon="-116.522419"><ele>1255.6</ele><time>2024-04-26T21:22:33Z</time></trkpt>
<trkpt lat="33.034901" lon="-116.522567"><ele>1250.0</ele><time>2024-04-26T21:22:46Z</time></trkpt>
<trkpt lat="33.034883" lon="-116.522643"><ele>1249.0</ele><time>2024-04-26T21:22:52Z</time></trkpt>
<trkpt lat="33.034945" lon="-116.522736"><ele>1246.6</ele><time>2024-04-26T21:22:59Z</time></trkpt>
<trkpt lat="33.035318" lon="-116.523082"><ele>1243.6</ele><time>2024-04-26T21:24:01Z</time></trkpt>
<trkpt lat="33.035405" lon="-116.523175"><ele>1252.0</ele><time>2024-04-26T21:24:13Z</time></trkpt>
<trkpt lat="33.035622" lon="-116.523309"><ele>1243.6</ele><time>2024-04-26T21:24:51Z</time></trkpt>
<trkpt lat="33.036378" lon="-116.523242"><ele>1239.8</ele><time>2024-04-26T21:26:27Z</time></trkpt>
<trkpt lat="33.036590" lon="-116.523128"><ele>1236.2</ele><time>2024-04-26T21:26:43Z</time></trkpt>
<trkpt lat="33.036631" lon="-116.523093"><ele>1236.2</ele><time>2024-04-26T21:26:45Z</time></trkpt>
<trkpt lat="33.036580" lon="-116.522892"><ele>1233.0</ele><time>2024-04-26T21:27:00Z</time></trkpt>
<trkpt lat="33.036555" lon="-116.522876"><ele>1238.0</ele><time>2024-04-26T21:27:17Z</time></trkpt>
<trkpt lat="33.036519" lon="-116.522890"><ele>1232.6</ele><time>2024-04-26T21:28:43Z</time></trkpt>
<trkpt lat="33.036599" lon="-116.522878"><ele>1232.2</ele><time>2024-04-26T21:28:57Z</time></trkpt>
<trkpt lat="33.036512" lon="-116.522761"><ele>1234.8</ele><time>2024-04-26T21:29:51Z</time></trkpt>
<trkpt lat="33.036487" lon="-116.522728"><ele>1228.8</ele><time>2024-04-26T21:30:17Z</time></trkpt>
<trkpt lat="33.036387" lon="-116.522584"><ele>1227.6</ele><time>2024-04-26T21:30:42Z</time></trkpt>
<trkpt lat="33.036573" lon="-116.522628"><ele>1227.8</ele><time>2024-04-26T21:30:53Z</time></trkpt>
<trkpt lat="33.036870" lon="-116.522245"><ele>1222.8</ele><time>2024-04-26T21:31:45Z</time></trkpt>
<trkpt lat="33.037192" lon="-116.522079"><ele>1219.4</ele><time>2024-04-26T21:32:44Z</time></trkpt>
<trkpt lat="33.037661" lon="-116.522327"><ele>1222.0</ele><time>2024-04-26T21:33:25Z</time></trkpt>
<trkpt lat="33.038014" lon="-116.522436"><ele>1212.2</ele><time>2024-04-26T21:34:15Z</time></trkpt>
<trkpt lat="33.038056" lon="-116.522453"><ele>1225.2</ele><time>2024-04-26T21:34:25Z</time></trkpt>
<trkpt lat="33.038378" lon="-116.522626"><ele>1215.6</ele><time>2024-04-26T21:34:44Z</time></trkpt>
<trkpt lat="33.038471" lon="-116.522520"><ele>1219.0</ele><time>2024-04-26T21:35:01Z</time></trkpt>
<trkpt lat="33.038690" lon="-116.522501"><ele>1215.2</ele><time>2024-04-26T21:35:17Z</time></trkpt>
<trkpt lat="33.039539" lon="-116.522590"><ele>1211.6</ele><time>2024-04-26T21:36:42Z</time></trkpt>
<trkpt lat="33.039498" lon="-116.522586"><ele>1209.8</ele><time>2024-04-26T21:36:55Z</time></trkpt>
<trkpt lat="33.039847" lon="-116.522754"><ele>1208.0</ele><time>2024-04-26T21:37:29Z</time></trkpt>
<trkpt lat="33.040445" lon="-116.523175"><ele>1206.2</ele><time>2024-04-26T21:38:43Z</time></trkpt>
<trkpt lat="33.040524" lon="-116.523031"><ele>1206.6</ele><time>2024-04-26T21:38:50Z</time></trkpt>
<trkpt lat="33.040577" lon="-116.523141"><ele>1206.4</ele><time>2024-04-26T21:38:59Z</time></trkpt>
<trkpt lat="33.040771" lon="-116.523183"><ele>1206.0</ele><time>2024-04-26T21:39:13Z</time></trkpt>
<trkpt lat="33.041062" lon="-116.522955"><ele>1205.6</ele><time>2024-04-26T21:39:47Z</time></trkpt>
<trkpt lat="33.041255" lon="-116.522544"><ele>1196.2</ele><time>2024-04-26T21:40:43Z</time></trkpt>
<trkpt lat="33.041252" lon="-116.522352"><ele>1204.6</ele><time>2024-04-26T21:40:50Z</time></trkpt>
<trkpt lat="33.041270" lon="-116.522288"><ele>1202.0</ele><time>2024-04-26T21:40:58Z</time></trkpt>
<trkpt lat="33.041403" lon="-116.522093"><ele>1196.4</ele><time>2024-04-26T21:41:17Z</time></trkpt>
<trkpt lat="33.041474" lon="-116.522088"><ele>1194.2</ele><time>2024-04-26T21:41:35Z</time></trkpt>
<trkpt lat="33.041582" lon="-116.522169"><ele>1188.2</ele><time>2024-04-26T21:41:47Z</time></trkpt>
<trkpt lat="33.042002" lon="-116.522595"><ele>1189.2</ele><time>2024-04-26T21:42:42Z</time></trkpt>
<trkpt lat="33.042009" lon="-116.522643"><ele>1190.2</ele><time>2024-04-26T21:42:45Z</time></trkpt>
<trkpt lat="33.041949" lon="-116.522545"><ele>1189.8</ele><time>2024-04-26T21:42:51Z</time></trkpt>
<trkpt lat="33.041987" lon="-116.522651"><ele>1182.4</ele><time>2024-04-26T21:42:58Z</time></trkpt>
<trkpt lat="33.042061" lon="-116.523185"><ele>1193.4</ele><time>2024-04-26T21:43:23Z</time></trkpt>
<trkpt lat="33.042046" lon="-116.523334"><ele>1186.4</ele><time>2024-04-26T21:43:37Z</time></trkpt>
<trkpt lat="33.042033" lon="-116.523728"><ele>1186.2</ele><time>2024-04-26T21:44:11Z</time></trkpt>
<trkpt lat="33.042163" lon="-116.523992"><ele>1183.4</ele><time>2024-04-26T21:44:44Z</time></trkpt>
<trkpt lat="33.042076" lon="-116.523732"><ele>1184.4</ele><time>2024-04-26T21:44:52Z</time></trkpt>
<trkpt lat="33.042303" lon="-116.523817"><ele>1185.8</ele><time>2024-04-26T21:46:27Z</time></trkpt>
<trkpt lat="33.042466" lon="-116.523849"><ele>1180.4</ele><time>2024-04-26T21:46:43Z</time></trkpt>
<trkpt lat="33.042446" lon="-116.523805"><ele>1180.4</ele><time>2024-04-26T21:46:44Z</time></trkpt>
<trkpt lat="33.042559" lon="-116.523715"><ele>1182.8</ele><time>2024-04-26T21:47:07Z</time></trkpt>
<trkpt lat="33.042971" lon="-116.523599"><ele>1179.0</ele><time>2024-04-26T21:47:53Z</time></trkpt>
<trkpt lat="33.043077" lon="-116.523612"><ele>1179.0</ele><time>2024-04-26T21:48:01Z</time></trkpt>
<trkpt lat="33.043505" lon="-116.523990"><ele>1171.2</ele><time>2024-04-26T21:48:43Z</time></trkpt>
<trkpt lat="33.043662" lon="-116.524049"><ele>1173.2</ele><time>2024-04-26T21:48:52Z</time></trkpt>
<trkpt lat="33.043881" lon="-116.523980"><ele>1173.0</ele><time>2024-04-26T21:49:05Z</time></trkpt>
<trkpt lat="33.044159" lon="-116.523826"><ele>1165.2</ele><time>2024-04-26T21:50:07Z</time></trkpt>
<trkpt lat="33.044711" lon="-116.523728"><ele>1167.6</ele><time>2024-04-26T21:50:42Z</time></trkpt>
<trkpt lat="33.044700" lon="-116.523680"><ele>1168.2</ele><time>2024-04-26T21:50:43Z</time></trkpt>
<trkpt lat="33.044952" lon="-116.523647"><ele>1165.8</ele><time>2024-04-26T21:51:00Z</time></trkpt>
<trkpt lat="33.045244" lon="-116.523702"><ele>1159.2</ele><time>2024-04-26T21:51:19Z</time></trkpt>
<trkpt lat="33.045388" lon="-116.523822"><ele>1155.4</ele><time>2024-04-26T21:51:31Z</time></trkpt>
<trkpt lat="33.045652" lon="-116.524625"><ele>1150.2</ele><time>2024-04-26T21:52:31Z</time></trkpt>
<trkpt lat="33.045763" lon="-116.524696"><ele>1152.4</ele><time>2024-04-26T21:52:43Z</time></trkpt>
<trkpt lat="33.045623" lon="-116.524614"><ele>1154.4</ele><time>2024-04-26T21:52:53Z</time></trkpt>
<trkpt lat="33.045625" lon="-116.524697"><ele>1152.0</ele><time>2024-04-26T21:52:58Z</time></trkpt>
<trkpt lat="33.045898" lon="-116.524880"><ele>1151.2</ele><time>2024-04-26T21:53:17Z</time></trkpt>
<trkpt lat="33.046016" lon="-116.524666"><ele>1150.4</ele><time>2024-04-26T21:53:39Z</time></trkpt>
<trkpt lat="33.046484" lon="-116.524803"><ele>1142.0</ele><time>2024-04-26T21:54:15Z</time></trkpt>
<trkpt lat="33.046768" lon="-116.524739"><ele>1135.6</ele><time>2024-04-26T21:54:44Z</time></trkpt>
<trkpt lat="33.046610" lon="-116.524669"><ele>1135.6</ele><time>2024-04-26T21:54:45Z</time></trkpt>
<trkpt lat="33.046716" lon="-116.524555"><ele>1135.0</ele><time>2024-04-26T21:54:52Z</time></trkpt>
<trkpt lat="33.047072" lon="-116.524396"><ele>1135.4</ele><time>2024-04-26T21:55:27Z</time></trkpt>
<trkpt lat="33.047343" lon="-116.524209"><ele>1126.4</ele><time>2024-04-26T21:56:15Z</time></trkpt>
<trkpt lat="33.047521" lon="-116.524199"><ele>1126.4</ele><time>2024-04-26T21:56:43Z</time></trkpt>
<trkpt lat="33.047687" lon="-116.524322"><ele>1124.2</ele><time>2024-04-26T21:57:01Z</time></trkpt>
<trkpt lat="33.047897" lon="-116.524328"><ele>1124.2</ele><time>2024-04-26T21:57:15Z</time></trkpt>
<trkpt lat="33.048196" lon="-116.524112"><ele>1121.0</ele><time>2024-04-26T21:57:45Z</time></trkpt>
<trkpt lat="33.048379" lon="-116.524187"><ele>1119.6</ele><time>2024-04-26T21:57:59Z</time></trkpt>
<trkpt lat="33.048642" lon="-116.524045"><ele>1117.0</ele><time>2024-04-26T21:58:49Z</time></trkpt>
<trkpt lat="33.048714" lon="-116.524085"><ele>1117.4</ele><time>2024-04-26T21:58:54Z</time></trkpt>
<trkpt lat="33.048901" lon="-116.524035"><ele>1115.6</ele><time>2024-04-26T21:59:05Z</time></trkpt>
<trkpt lat="33.049195" lon="-116.523856"><ele>1112.0</ele><time>2024-04-26T21:59:35Z</time></trkpt>
<trkpt lat="33.050043" lon="-116.523843"><ele>1106.6</ele><time>2024-04-26T22:00:56Z</time></trkpt>
<trkpt lat="33.050391" lon="-116.523983"><ele>1103.0</ele><time>2024-04-26T22:01:23Z</time></trkpt>
<trkpt lat="33.050412" lon="-116.524063"><ele>1102.8</ele><time>2024-04-26T22:01:37Z</time></trkpt>
<trkpt lat="33.050311" lon="-116.524102"><ele>1104.6</ele><time>2024-04-26T22:02:37Z</time></trkpt>
<trkpt lat="33.050444" lon="-116.524126"><ele>1106.2</ele><time>2024-04-26T22:04:57Z</time></trkpt>
<trkpt lat="33.050424" lon="-116.524160"><ele>1102.6</ele><time>2024-04-26T22:06:17Z</time></trkpt>
<trkpt lat="33.050346" lon="-116.524150"><ele>1105.2</ele><time>2024-04-26T22:06:47Z</time></trkpt>
<trkpt lat="33.050397" lon="-116.524211"><ele>1103.6</ele><time>2024-04-26T22:06:58Z</time></trkpt>
<trkpt lat="33.050522" lon="-116.524201"><ele>1106.8</ele><time>2024-04-26T22:08:43Z</time></trkpt>
<trkpt lat="33.050400" lon="-116.524092"><ele>1107.2</ele><time>2024-04-26T22:08:48Z</time></trkpt>
<trkpt lat="33.050392" lon="-116.524175"><ele>1106.6</ele><time>2024-04-26T22:10:46Z</time></trkpt>
<trkpt lat="33.050416" lon="-116.524108"><ele>1109.4</ele><time>2024-04-26T22:11:01Z</time></trkpt>
<trkpt lat="33.050347" lon="-116.524140"><ele>1107.8</ele><time>2024-04-26T22:12:48Z</time></trkpt>
<trkpt lat="33.050400" lon="-116.524124"><ele>1108.2</ele><time>2024-04-26T22:13:02Z</time></trkpt>
<trkpt lat="33.050473" lon="-116.524228"><ele>1106.2</ele><time>2024-04-26T22:14:44Z</time></trkpt>
<trkpt lat="33.050384" lon="-116.524152"><ele>1106.4</ele><time>2024-04-26T22:14:58Z</time></trkpt>
<trkpt lat="33.050467" lon="-116.524074"><ele>1107.6</ele><time>2024-04-26T22:16:43Z</time></trkpt>
<trkpt lat="33.050385" lon="-116.524100"><ele>1107.8</ele><time>2024-04-26T22:18:44Z</time></trkpt>
<trkpt lat="33.050470" lon="-116.524037"><ele>1105.4</ele><time>2024-04-26T22:19:31Z</time></trkpt>
<trkpt lat="33.050530" lon="-116.523885"><ele>1106.4</ele><time>2024-04-26T22:19:43Z</time></trkpt>
<trkpt lat="33.051011" lon="-116.523700"><ele>1105.4</ele><time>2024-04-26T22:20:31Z</time></trkpt>
<trkpt lat="33.051104" lon="-116.523540"><ele>1108.0</ele><time>2024-04-26T22:20:44Z</time></trkpt>
<trkpt lat="33.051196" lon="-116.523138"><ele>1108.8</ele><time>2024-04-26T22:21:13Z</time></trkpt>
<trkpt lat="33.051188" lon="-116.521923"><ele>1106.8</ele><time>2024-04-26T22:22:49Z</time></trkpt>
<trkpt lat="33.051436" lon="-116.521411"><ele>1100.4</ele><time>2024-04-26T22:23:37Z</time></trkpt>
<trkpt lat="33.051689" lon="-116.521458"><ele>1105.0</ele><time>2024-04-26T22:24:09Z</time></trkpt>
<trkpt lat="33.051954" lon="-116.521377"><ele>1106.2</ele><time>2024-04-26T22:24:31Z</time></trkpt>
<trkpt lat="33.052184" lon="-116.521168"><ele>1103.4</ele><time>2024-04-26T22:24:51Z</time></trkpt>
<trkpt lat="33.052166" lon="-116.521086"><ele>1102.8</ele><time>2024-04-26T22:24:56Z</time></trkpt>
<trkpt lat="33.052375" lon="-116.520950"><ele>1101.4</ele><time>2024-04-26T22:25:39Z</time></trkpt>
<trkpt lat="33.053237" lon="-116.520886"><ele>1102.2</ele><time>2024-04-26T22:26:51Z</time></trkpt>
<trkpt lat="33.053055" lon="-116.520013"><ele>1092.6</ele><time>2024-04-26T22:28:31Z</time></trkpt>
<trkpt lat="33.053080" lon="-116.519869"><ele>1093.6</ele><time>2024-04-26T22:28:43Z</time></trkpt>
<trkpt lat="33.053144" lon="-116.519911"><ele>1092.4</ele><time>2024-04-26T22:28:49Z</time></trkpt>
<trkpt lat="33.053066" lon="-116.519810"><ele>1091.6</ele><time>2024-04-26T22:28:53Z</time></trkpt>
<trkpt lat="33.053191" lon="-116.519411"><ele>1086.8</ele><time>2024-04-26T22:29:23Z</time></trkpt>
<trkpt lat="33.053530" lon="-116.518754"><ele>1082.2</ele><time>2024-04-26T22:30:46Z</time></trkpt>
<trkpt lat="33.053722" lon="-116.518780"><ele>1084.0</ele><time>2024-04-26T22:30:59Z</time></trkpt>
<trkpt lat="33.053897" lon="-116.518690"><ele>1083.0</ele><time>2024-04-26T22:31:21Z</time></trkpt>
<trkpt lat="33.054169" lon="-116.518312"><ele>1080.4</ele><time>2024-04-26T22:32:55Z</time></trkpt>
<trkpt lat="33.054141" lon="-116.517783"><ele>1084.2</ele><time>2024-04-26T22:33:19Z</time></trkpt>
<trkpt lat="33.054081" lon="-116.517454"><ele>1079.8</ele><time>2024-04-26T22:34:17Z</time></trkpt>
<trkpt lat="33.054155" lon="-116.516966"><ele>1075.2</ele><time>2024-04-26T22:34:57Z</time></trkpt>
<trkpt lat="33.054383" lon="-116.516401"><ele>1071.0</ele><time>2024-04-26T22:36:46Z</time></trkpt>
<trkpt lat="33.054288" lon="-116.516498"><ele>1072.2</ele><time>2024-04-26T22:36:50Z</time></trkpt>
<trkpt lat="33.054426" lon="-116.516481"><ele>1072.6</ele><time>2024-04-26T22:36:51Z</time></trkpt>
<trkpt lat="33.054250" lon="-116.516518"><ele>1072.6</ele><time>2024-04-26T22:36:55Z</time></trkpt>
<trkpt lat="33.054682" lon="-116.516405"><ele>1069.0</ele><time>2024-04-26T22:38:44Z</time></trkpt>
<trkpt lat="33.054272" lon="-116.516545"><ele>1069.2</ele><time>2024-04-26T22:39:00Z</time></trkpt>
<trkpt lat="33.054308" lon="-116.516525"><ele>1066.0</ele><time>2024-04-26T22:39:59Z</time></trkpt>
<trkpt lat="33.054332" lon="-116.516530"><ele>1071.4</ele><time>2024-04-26T22:40:31Z</time></trkpt>
<trkpt lat="33.054309" lon="-116.516561"><ele>1068.6</ele><time>2024-04-26T22:40:42Z</time></trkpt>
<trkpt lat="33.054497" lon="-116.516477"><ele>1067.8</ele><time>2024-04-26T22:40:48Z</time></trkpt>
<trkpt lat="33.054236" lon="-116.516539"><ele>1067.4</ele><time>2024-04-26T22:40:58Z</time></trkpt>
<trkpt lat="33.053774" lon="-116.515896"><ele>1055.0</ele><time>2024-04-26T22:42:42Z</time></trkpt>
<trkpt lat="33.053800" lon="-116.515959"><ele>1054.6</ele><time>2024-04-26T22:42:44Z</time></trkpt>
<trkpt lat="33.053742" lon="-116.516019"><ele>1054.2</ele><time>2024-04-26T22:42:50Z</time></trkpt>
<trkpt lat="33.053584" lon="-116.515993"><ele>1053.8</ele><time>2024-04-26T22:43:09Z</time></trkpt>
<trkpt lat="33.053469" lon="-116.515803"><ele>1053.6</ele><time>2024-04-26T22:43:39Z</time></trkpt>
<trkpt lat="33.053461" lon="-116.515306"><ele>1050.6</ele><time>2024-04-26T22:44:19Z</time></trkpt>
<trkpt lat="33.053400" lon="-116.515160"><ele>1049.4</ele><time>2024-04-26T22:44:39Z</time></trkpt>
<trkpt lat="33.052981" lon="-116.515231"><ele>1049.2</ele><time>2024-04-26T22:44:46Z</time></trkpt>
<trkpt lat="33.052983" lon="-116.515165"><ele>1049.8</ele><time>2024-04-26T22:44:51Z</time></trkpt>
<trkpt lat="33.052579" lon="-116.514948"><ele>1042.8</ele><time>2024-04-26T22:45:51Z</time></trkpt>
<trkpt lat="33.052685" lon="-116.514770"><ele>1044.4</ele><time>2024-04-26T22:46:21Z</time></trkpt>
<trkpt lat="33.052926" lon="-116.514562"><ele>1048.4</ele><time>2024-04-26T22:46:49Z</time></trkpt>
<trkpt lat="33.053735" lon="-116.514476"><ele>1038.8</ele><time>2024-04-26T22:48:31Z</time></trkpt>
<trkpt lat="33.053921" lon="-116.514391"><ele>1035.8</ele><time>2024-04-26T22:48:44Z</time></trkpt>
<trkpt lat="33.054009" lon="-116.514184"><ele>1032.0</ele><time>2024-04-26T22:48:58Z</time></trkpt>
<trkpt lat="33.054157" lon="-116.514077"><ele>1031.6</ele><time>2024-04-26T22:49:11Z</time></trkpt>
<trkpt lat="33.054282" lon="-116.514061"><ele>1026.2</ele><time>2024-04-26T22:49:29Z</time></trkpt>
<trkpt lat="33.054581" lon="-116.514078"><ele>1026.0</ele><time>2024-04-26T22:50:09Z</time></trkpt>
<trkpt lat="33.054924" lon="-116.514236"><ele>1025.8</ele><time>2024-04-26T22:50:42Z</time></trkpt>
<trkpt lat="33.055106" lon="-116.514254"><ele>1027.4</ele><time>2024-04-26T22:50:59Z</time></trkpt>
<trkpt lat="33.055312" lon="-116.514274"><ele>1020.0</ele><time>2024-04-26T22:51:23Z</time></trkpt>
<trkpt lat="33.055965" lon="-116.514294"><ele>1016.6</ele><time>2024-04-26T22:52:17Z</time></trkpt>
<trkpt lat="33.056282" lon="-116.514427"><ele>1013.6</ele><time>2024-04-26T22:52:42Z</time></trkpt>
<trkpt lat="33.056371" lon="-116.514275"><ele>1014.2</ele><time>2024-04-26T22:52:50Z</time></trkpt>
<trkpt lat="33.056527" lon="-116.514391"><ele>1011.2</ele><time>2024-04-26T22:53:29Z</time></trkpt>
<trkpt lat="33.056754" lon="-116.514442"><ele>1004.6</ele><time>2024-04-26T22:53:45Z</time></trkpt>
<trkpt lat="33.056786" lon="-116.514452"><ele>1008.6</ele><time>2024-04-26T22:54:35Z</time></trkpt>
<trkpt lat="33.057646" lon="-116.514152"><ele>1007.4</ele><time>2024-04-26T22:55:39Z</time></trkpt>
<trkpt lat="33.058358" lon="-116.513723"><ele>1001.2</ele><time>2024-04-26T22:56:31Z</time></trkpt>
<trkpt lat="33.058635" lon="-116.513490"><ele>1001.6</ele><time>2024-04-26T22:56:42Z</time></trkpt>
<trkpt lat="33.057814" lon="-116.513944"><ele>1003.6</ele><time>2024-04-26T22:56:51Z</time></trkpt>
<trkpt lat="33.057903" lon="-116.513818"><ele>1005.8</ele><time>2024-04-26T22:57:02Z</time></trkpt>
<trkpt lat="33.058098" lon="-116.513981"><ele>1004.4</ele><time>2024-04-26T22:57:25Z</time></trkpt>
<trkpt lat="33.058647" lon="-116.514223"><ele>1002.4</ele><time>2024-04-26T22:58:35Z</time></trkpt>
<trkpt lat="33.058722" lon="-116.514443"><ele>1001.4</ele><time>2024-04-26T22:58:44Z</time></trkpt>
<trkpt lat="33.058918" lon="-116.513619"><ele>1001.2</ele><time>2024-04-26T22:58:46Z</time></trkpt>
<trkpt lat="33.059061" lon="-116.513330"><ele>1001.4</ele><time>2024-04-26T22:59:05Z</time></trkpt>
<trkpt lat="33.059178" lon="-116.512745"><ele>993.2</ele><time>2024-04-26T23:00:05Z</time></trkpt>
<trkpt lat="33.059083" lon="-116.512372"><ele>987.8</ele><time>2024-04-26T23:00:45Z</time></trkpt>
<trkpt lat="33.058921" lon="-116.512227"><ele>988.0</ele><time>2024-04-26T23:01:09Z</time></trkpt>
<trkpt lat="33.058901" lon="-116.512058"><ele>986.8</ele><time>2024-04-26T23:01:32Z</time></trkpt>
<trkpt lat="33.058857" lon="-116.512079"><ele>984.8</ele><time>2024-04-26T23:01:40Z</time></trkpt>
<trkpt lat="33.058687" lon="-116.511818"><ele>984.0</ele><time>2024-04-26T23:01:57Z</time></trkpt>
<trkpt lat="33.058793" lon="-116.511801"><ele>981.6</ele><time>2024-04-26T23:02:11Z</time></trkpt>
<trkpt lat="33.059054" lon="-116.511921"><ele>989.4</ele><time>2024-04-26T23:02:40Z</time></trkpt>
<trkpt lat="33.059248" lon="-116.511774"><ele>988.0</ele><time>2024-04-26T23:02:59Z</time></trkpt>
<trkpt lat="33.059259" lon="-116.511771"><ele>977.2</ele><time>2024-04-26T23:03:02Z</time></trkpt>
<trkpt lat="33.059724" lon="-116.511747"><ele>973.8</ele><time>2024-04-26T23:03:45Z</time></trkpt>
<trkpt lat="33.060368" lon="-116.511847"><ele>969.4</ele><time>2024-04-26T23:04:54Z</time></trkpt>
<trkpt lat="33.060746" lon="-116.511802"><ele>969.6</ele><time>2024-04-26T23:05:17Z</time></trkpt>
<trkpt lat="33.061005" lon="-116.511748"><ele>970.6</ele><time>2024-04-26T23:05:45Z</time></trkpt>
<trkpt lat="33.061274" lon="-116.511547"><ele>965.6</ele><time>2024-04-26T23:06:27Z</time></trkpt>
<trkpt lat="33.061388" lon="-116.511553"><ele>965.6</ele><time>2024-04-26T23:06:47Z</time></trkpt>
<trkpt lat="33.061519" lon="-116.511354"><ele>965.6</ele><time>2024-04-26T23:06:53Z</time></trkpt>
<trkpt lat="33.061546" lon="-116.511195"><ele>963.4</ele><time>2024-04-26T23:07:05Z</time></trkpt>
<trkpt lat="33.061896" lon="-116.511159"><ele>966.6</ele><time>2024-04-26T23:07:35Z</time></trkpt>
<trkpt lat="33.062024" lon="-116.511513"><ele>966.8</ele><time>2024-04-26T23:07:56Z</time></trkpt>
<trkpt lat="33.062110" lon="-116.511611"><ele>964.8</ele><time>2024-04-26T23:08:07Z</time></trkpt>
<trkpt lat="33.062952" lon="-116.511920"><ele>963.0</ele><time>2024-04-26T23:09:42Z</time></trkpt>
<trkpt lat="33.063043" lon="-116.511709"><ele>961.8</ele><time>2024-04-26T23:09:53Z</time></trkpt>
<trkpt lat="33.063695" lon="-116.511649"><ele>960.4</ele><time>2024-04-26T23:11:05Z</time></trkpt>
<trkpt lat="33.064205" lon="-116.511468"><ele>960.8</ele><time>2024-04-26T23:11:50Z</time></trkpt>
<trkpt lat="33.064870" lon="-116.511326"><ele>965.2</ele><time>2024-04-26T23:12:43Z</time></trkpt>
<trkpt lat="33.065265" lon="-116.511122"><ele>964.6</ele><time>2024-04-26T23:13:31Z</time></trkpt>
<trkpt lat="33.065394" lon="-116.511012"><ele>963.0</ele><time>2024-04-26T23:13:41Z</time></trkpt>
<trkpt lat="33.065307" lon="-116.511043"><ele>963.6</ele><time>2024-04-26T23:13:54Z</time></trkpt>
<trkpt lat="33.065362" lon="-116.510933"><ele>962.4</ele><time>2024-04-26T23:14:02Z</time></trkpt>
<trkpt lat="33.065712" lon="-116.510573"><ele>959.8</ele><time>2024-04-26T23:14:40Z</time></trkpt>
<trkpt lat="33.065633" lon="-116.510547"><ele>959.4</ele><time>2024-04-26T23:14:47Z</time></trkpt>
<trkpt lat="33.065756" lon="-116.510585"><ele>963.8</ele><time>2024-04-26T23:15:02Z</time></trkpt>
<trkpt lat="33.066260" lon="-116.510153"><ele>973.0</ele><time>2024-04-26T23:15:57Z</time></trkpt>
<trkpt lat="33.066577" lon="-116.509668"><ele>972.6</ele><time>2024-04-26T23:16:46Z</time></trkpt>
<trkpt lat="33.066635" lon="-116.508945"><ele>965.0</ele><time>2024-04-26T23:17:51Z</time></trkpt>
<trkpt lat="33.066529" lon="-116.508195"><ele>961.6</ele><time>2024-04-26T23:18:44Z</time></trkpt>
<trkpt lat="33.066363" lon="-116.508304"><ele>961.0</ele><time>2024-04-26T23:18:46Z</time></trkpt>
<trkpt lat="33.066475" lon="-116.507942"><ele>955.4</ele><time>2024-04-26T23:19:13Z</time></trkpt>
<trkpt lat="33.066495" lon="-116.507904"><ele>960.0</ele><time>2024-04-26T23:19:27Z</time></trkpt>
<trkpt lat="33.066877" lon="-116.507251"><ele>959.0</ele><time>2024-04-26T23:20:37Z</time></trkpt>
<trkpt lat="33.066663" lon="-116.507028"><ele>957.2</ele><time>2024-04-26T23:20:42Z</time></trkpt>
<trkpt lat="33.067009" lon="-116.507196"><ele>957.2</ele><time>2024-04-26T23:20:43Z</time></trkpt>
<trkpt lat="33.067132" lon="-116.507079"><ele>957.2</ele><time>2024-04-26T23:20:44Z</time></trkpt>
<trkpt lat="33.067200" lon="-116.507111"><ele>961.4</ele><time>2024-04-26T23:20:53Z</time></trkpt>
<trkpt lat="33.067379" lon="-116.506665"><ele>969.4</ele><time>2024-04-26T23:22:57Z</time></trkpt>
<trkpt lat="33.067505" lon="-116.506525"><ele>971.4</ele><time>2024-04-26T23:23:09Z</time></trkpt>
<trkpt lat="33.067728" lon="-116.506401"><ele>979.2</ele><time>2024-04-26T23:24:03Z</time></trkpt>
<trkpt lat="33.067941" lon="-116.506168"><ele>977.6</ele><time>2024-04-26T23:24:27Z</time></trkpt>
<trkpt lat="33.067957" lon="-116.506137"><ele>983.0</ele><time>2024-04-26T23:24:35Z</time></trkpt>
<trkpt lat="33.067962" lon="-116.505926"><ele>977.4</ele><time>2024-04-26T23:24:45Z</time></trkpt>
<trkpt lat="33.067808" lon="-116.505948"><ele>974.4</ele><time>2024-04-26T23:24:53Z</time></trkpt>
<trkpt lat="33.067604" lon="-116.505650"><ele>971.2</ele><time>2024-04-26T23:25:37Z</time></trkpt>
<trkpt lat="33.067837" lon="-116.505024"><ele>969.0</ele><time>2024-04-26T23:26:42Z</time></trkpt>
<trkpt lat="33.068135" lon="-116.504521"><ele>958.2</ele><time>2024-04-26T23:27:33Z</time></trkpt>
<trkpt lat="33.068172" lon="-116.504126"><ele>954.0</ele><time>2024-04-26T23:28:01Z</time></trkpt>
<trkpt lat="33.067988" lon="-116.503884"><ele>956.8</ele><time>2024-04-26T23:28:31Z</time></trkpt>
<trkpt lat="33.068035" lon="-116.503858"><ele>956.2</ele><time>2024-04-26T23:28:50Z</time></trkpt>
<trkpt lat="33.068081" lon="-116.503610"><ele>959.0</ele><time>2024-04-26T23:29:25Z</time></trkpt>
<trkpt lat="33.068113" lon="-116.503508"><ele>968.6</ele><time>2024-04-26T23:29:59Z</time></trkpt>
<trkpt lat="33.068208" lon="-116.503188"><ele>970.0</ele><time>2024-04-26T23:30:42Z</time></trkpt>
<trkpt lat="33.068053" lon="-116.503259"><ele>973.8</ele><time>2024-04-26T23:31:13Z</time></trkpt>
<trkpt lat="33.068149" lon="-116.503226"><ele>971.0</ele><time>2024-04-26T23:31:23Z</time></trkpt>
<trkpt lat="33.068147" lon="-116.503414"><ele>972.8</ele><time>2024-04-26T23:32:07Z</time></trkpt>
<trkpt lat="33.068196" lon="-116.503329"><ele>969.0</ele><time>2024-04-26T23:32:42Z</time></trkpt>
<trkpt lat="33.068244" lon="-116.503367"><ele>967.2</ele><time>2024-04-26T23:32:54Z</time></trkpt>
<trkpt lat="33.068200" lon="-116.503361"><ele>967.2</ele><time>2024-04-26T23:33:00Z</time></trkpt>
</trkseg></trk>
</gpx>
