<?xml version="1.0" encoding="UTF-8"?>
<gpx version="1.1" creator="Eric Sichak trip reports" xmlns="http://www.topografix.com/GPX/1/1">
<metadata><name>PCT Day 11- San Jacinto</name><time>2024-05-02T13:29:27Z</time></metadata>
<trk><name>PCT Day 11- San Jacinto</name><type>hike</type><trkseg>
<trkpt lat="33.648367" lon="-116.566835"><ele>2079.4</ele><time>2024-05-02T13:29:27Z</time></trkpt>
<trkpt lat="33.648352" lon="-116.566757"><ele>2080.4</ele><time>2024-05-02T13:29:30Z</time></trkpt>
<trkpt lat="33.649029" lon="-116.566544"><ele>2082.2</ele><time>2024-05-02T13:31:58Z</time></trkpt>
<trkpt lat="33.649611" lon="-116.566591"><ele>2074.0</ele><time>2024-05-02T13:32:41Z</time></trkpt>
<trkpt lat="33.649959" lon="-116.566696"><ele>2070.8</ele><time>2024-05-02T13:33:05Z</time></trkpt>
<trkpt lat="33.650387" lon="-116.567019"><ele>2068.8</ele><time>2024-05-02T13:34:00Z</time></trkpt>
<trkpt lat="33.650574" lon="-116.567056"><ele>2069.6</ele><time>2024-05-02T13:34:13Z</time></trkpt>
<trkpt lat="33.650943" lon="-116.567503"><ele>2065.4</ele><time>2024-05-02T13:34:50Z</time></trkpt>
<trkpt lat="33.650960" lon="-116.567649"><ele>2064.4</ele><time>2024-05-02T13:34:58Z</time></trkpt>
<trkpt lat="33.651217" lon="-116.568086"><ele>2062.0</ele><time>2024-05-02T13:35:19Z</time></trkpt>
<trkpt lat="33.651942" lon="-116.568835"><ele>2056.4</ele><time>2024-05-02T13:36:50Z</time></trkpt>
<trkpt lat="33.652021" lon="-116.569031"><ele>2055.0</ele><time>2024-05-02T13:37:01Z</time></trkpt>
<trkpt lat="33.652598" lon="-116.569508"><ele>2054.6</ele><time>2024-05-02T13:37:58Z</time></trkpt>
<trkpt lat="33.652983" lon="-116.570191"><ele>2061.6</ele><time>2024-05-02T13:39:09Z</time></trkpt>
<trkpt lat="33.653095" lon="-116.570671"><ele>2064.2</ele><time>2024-05-02T13:39:42Z</time></trkpt>
<trkpt lat="33.653068" lon="-116.570625"><ele>2065.0</ele><time>2024-05-02T13:39:44Z</time></trkpt>
<trkpt lat="33.653293" lon="-116.570723"><ele>2068.0</ele><time>2024-05-02T13:40:03Z</time></trkpt>
<trkpt lat="33.653495" lon="-116.570965"><ele>2071.2</ele><time>2024-05-02T13:40:38Z</time></trkpt>
<trkpt lat="33.653628" lon="-116.571029"><ele>2074.2</ele><time>2024-05-02T13:41:03Z</time></trkpt>
<trkpt lat="33.653924" lon="-116.571241"><ele>2068.2</ele><time>2024-05-02T13:42:07Z</time></trkpt>
<trkpt lat="33.654026" lon="-116.571371"><ele>2070.4</ele><time>2024-05-02T13:42:19Z</time></trkpt>
<trkpt lat="33.654881" lon="-116.571943"><ele>2070.8</ele><time>2024-05-02T13:42:46Z</time></trkpt>
<trkpt lat="33.655721" lon="-116.572646"><ele>2072.2</ele><time>2024-05-02T13:42:59Z</time></trkpt>
<trkpt lat="33.654767" lon="-116.571729"><ele>2072.6</ele><time>2024-05-02T13:43:04Z</time></trkpt>
<trkpt lat="33.654710" lon="-116.571524"><ele>2073.2</ele><time>2024-05-02T13:43:08Z</time></trkpt>
<trkpt lat="33.654863" lon="-116.571601"><ele>2074.2</ele><time>2024-05-02T13:43:20Z</time></trkpt>
<trkpt lat="33.655204" lon="-116.571470"><ele>2071.8</ele><time>2024-05-02T13:43:50Z</time></trkpt>
<trkpt lat="33.655722" lon="-116.571180"><ele>2076.4</ele><time>2024-05-02T13:44:41Z</time></trkpt>
<trkpt lat="33.656702" lon="-116.570948"><ele>2067.2</ele><time>2024-05-02T13:46:00Z</time></trkpt>
<trkpt lat="33.656586" lon="-116.571034"><ele>2066.6</ele><time>2024-05-02T13:46:03Z</time></trkpt>
<trkpt lat="33.656855" lon="-116.571168"><ele>2062.4</ele><time>2024-05-02T13:46:36Z</time></trkpt>
<trkpt lat="33.657471" lon="-116.571204"><ele>2060.8</ele><time>2024-05-02T13:47:17Z</time></trkpt>
<trkpt lat="33.658251" lon="-116.571435"><ele>2063.2</ele><time>2024-05-02T13:48:39Z</time></trkpt>
<trkpt lat="33.658738" lon="-116.571429"><ele>2064.6</ele><time>2024-05-02T13:49:09Z</time></trkpt>
<trkpt lat="33.659034" lon="-116.571245"><ele>2064.6</ele><time>2024-05-02T13:49:49Z</time></trkpt>
<trkpt lat="33.660010" lon="-116.571208"><ele>2058.4</ele><time>2024-05-02T13:51:03Z</time></trkpt>
<trkpt lat="33.660577" lon="-116.571086"><ele>2058.8</ele><time>2024-05-02T13:52:15Z</time></trkpt>
<trkpt lat="33.661127" lon="-116.570831"><ele>2062.2</ele><time>2024-05-02T13:52:54Z</time></trkpt>
<trkpt lat="33.661350" lon="-116.570766"><ele>2070.6</ele><time>2024-05-02T13:53:41Z</time></trkpt>
<trkpt lat="33.661617" lon="-116.570614"><ele>2073.0</ele><time>2024-05-02T13:54:09Z</time></trkpt>
<trkpt lat="33.662014" lon="-116.570515"><ele>2074.2</ele><time>2024-05-02T13:54:41Z</time></trkpt>
<trkpt lat="33.662231" lon="-116.570789"><ele>2073.4</ele><time>2024-05-02T13:55:01Z</time></trkpt>
<trkpt lat="33.662363" lon="-116.570724"><ele>2072.8</ele><time>2024-05-02T13:55:10Z</time></trkpt>
<trkpt lat="33.662548" lon="-116.571308"><ele>2066.6</ele><time>2024-05-02T13:55:56Z</time></trkpt>
<trkpt lat="33.662854" lon="-116.571321"><ele>2064.4</ele><time>2024-05-02T13:56:23Z</time></trkpt>
<trkpt lat="33.663169" lon="-116.571656"><ele>2068.6</ele><time>2024-05-02T13:56:55Z</time></trkpt>
<trkpt lat="33.663498" lon="-116.571773"><ele>2075.4</ele><time>2024-05-02T13:57:42Z</time></trkpt>
<trkpt lat="33.663381" lon="-116.571875"><ele>2077.0</ele><time>2024-05-02T13:57:44Z</time></trkpt>
<trkpt lat="33.663711" lon="-116.571919"><ele>2079.4</ele><time>2024-05-02T13:58:01Z</time></trkpt>
<trkpt lat="33.663780" lon="-116.572072"><ele>2079.8</ele><time>2024-05-02T13:58:18Z</time></trkpt>
<trkpt lat="33.664065" lon="-116.572229"><ele>2081.4</ele><time>2024-05-02T13:58:42Z</time></trkpt>
<trkpt lat="33.664459" lon="-116.572212"><ele>2083.6</ele><time>2024-05-02T13:59:09Z</time></trkpt>
<trkpt lat="33.664742" lon="-116.572306"><ele>2085.0</ele><time>2024-05-02T13:59:29Z</time></trkpt>
<trkpt lat="33.665280" lon="-116.572358"><ele>2079.2</ele><time>2024-05-02T14:00:21Z</time></trkpt>
<trkpt lat="33.665585" lon="-116.572466"><ele>2075.2</ele><time>2024-05-02T14:00:42Z</time></trkpt>
<trkpt lat="33.665460" lon="-116.572637"><ele>2074.6</ele><time>2024-05-02T14:00:44Z</time></trkpt>
<trkpt lat="33.665771" lon="-116.572602"><ele>2073.2</ele><time>2024-05-02T14:01:00Z</time></trkpt>
<trkpt lat="33.665713" lon="-116.572758"><ele>2072.8</ele><time>2024-05-02T14:01:04Z</time></trkpt>
<trkpt lat="33.665802" lon="-116.572821"><ele>2073.0</ele><time>2024-05-02T14:01:10Z</time></trkpt>
<trkpt lat="33.666041" lon="-116.572941"><ele>2074.4</ele><time>2024-05-02T14:01:34Z</time></trkpt>
<trkpt lat="33.666293" lon="-116.572921"><ele>2075.6</ele><time>2024-05-02T14:01:53Z</time></trkpt>
<trkpt lat="33.666281" lon="-116.573490"><ele>2069.8</ele><time>2024-05-02T14:02:39Z</time></trkpt>
<trkpt lat="33.666095" lon="-116.573727"><ele>2066.6</ele><time>2024-05-02T14:03:03Z</time></trkpt>
<trkpt lat="33.666149" lon="-116.573888"><ele>2064.4</ele><time>2024-05-02T14:03:15Z</time></trkpt>
<trkpt lat="33.666139" lon="-116.574226"><ele>2059.2</ele><time>2024-05-02T14:03:44Z</time></trkpt>
<trkpt lat="33.666244" lon="-116.574534"><ele>2057.4</ele><time>2024-05-02T14:04:05Z</time></trkpt>
<trkpt lat="33.666139" lon="-116.574844"><ele>2055.6</ele><time>2024-05-02T14:04:24Z</time></trkpt>
<trkpt lat="33.666298" lon="-116.575082"><ele>2056.8</ele><time>2024-05-02T14:04:47Z</time></trkpt>
<trkpt lat="33.666336" lon="-116.575784"><ele>2054.2</ele><time>2024-05-02T14:05:37Z</time></trkpt>
<trkpt lat="33.666626" lon="-116.576327"><ele>2061.0</ele><time>2024-05-02T14:06:42Z</time></trkpt>
<trkpt lat="33.666787" lon="-116.576315"><ele>2063.4</ele><time>2024-05-02T14:07:00Z</time></trkpt>
<trkpt lat="33.667182" lon="-116.576671"><ele>2071.8</ele><time>2024-05-02T14:07:59Z</time></trkpt>
<trkpt lat="33.667349" lon="-116.576981"><ele>2075.0</ele><time>2024-05-02T14:08:21Z</time></trkpt>
<trkpt lat="33.667524" lon="-116.577451"><ele>2088.0</ele><time>2024-05-02T14:09:48Z</time></trkpt>
<trkpt lat="33.667698" lon="-116.577376"><ele>2090.2</ele><time>2024-05-02T14:10:01Z</time></trkpt>
<trkpt lat="33.668534" lon="-116.577817"><ele>2102.0</ele><time>2024-05-02T14:11:44Z</time></trkpt>
<trkpt lat="33.668955" lon="-116.577866"><ele>2103.8</ele><time>2024-05-02T14:12:45Z</time></trkpt>
<trkpt lat="33.669427" lon="-116.578084"><ele>2114.0</ele><time>2024-05-02T14:13:42Z</time></trkpt>
<trkpt lat="33.669461" lon="-116.578273"><ele>2115.6</ele><time>2024-05-02T14:13:54Z</time></trkpt>
<trkpt lat="33.669776" lon="-116.578635"><ele>2117.4</ele><time>2024-05-02T14:14:25Z</time></trkpt>
<trkpt lat="33.669998" lon="-116.579012"><ele>2121.6</ele><time>2024-05-02T14:15:11Z</time></trkpt>
<trkpt lat="33.670059" lon="-116.579543"><ele>2122.8</ele><time>2024-05-02T14:15:42Z</time></trkpt>
<trkpt lat="33.670165" lon="-116.579598"><ele>2121.8</ele><time>2024-05-02T14:16:00Z</time></trkpt>
<trkpt lat="33.670306" lon="-116.579492"><ele>2122.0</ele><time>2024-05-02T14:16:02Z</time></trkpt>
<trkpt lat="33.670280" lon="-116.579564"><ele>2122.0</ele><time>2024-05-02T14:16:06Z</time></trkpt>
<trkpt lat="33.670733" lon="-116.579576"><ele>2125.6</ele><time>2024-05-02T14:16:39Z</time></trkpt>
<trkpt lat="33.670835" lon="-116.579779"><ele>2126.0</ele><time>2024-05-02T14:16:52Z</time></trkpt>
<trkpt lat="33.671106" lon="-116.579920"><ele>2125.6</ele><time>2024-05-02T14:17:21Z</time></trkpt>
<trkpt lat="33.671591" lon="-116.579926"><ele>2119.4</ele><time>2024-05-02T14:18:01Z</time></trkpt>
<trkpt lat="33.671814" lon="-116.580253"><ele>2115.4</ele><time>2024-05-02T14:18:27Z</time></trkpt>
<trkpt lat="33.671838" lon="-116.580464"><ele>2112.4</ele><time>2024-05-02T14:18:44Z</time></trkpt>
<trkpt lat="33.671779" lon="-116.580804"><ele>2109.8</ele><time>2024-05-02T14:19:09Z</time></trkpt>
<trkpt lat="33.671976" lon="-116.581452"><ele>2106.0</ele><time>2024-05-02T14:19:55Z</time></trkpt>
<trkpt lat="33.672296" lon="-116.582023"><ele>2108.2</ele><time>2024-05-02T14:20:42Z</time></trkpt>
<trkpt lat="33.672496" lon="-116.582051"><ele>2109.4</ele><time>2024-05-02T14:22:45Z</time></trkpt>
<trkpt lat="33.672519" lon="-116.582303"><ele>2110.6</ele><time>2024-05-02T14:22:57Z</time></trkpt>
<trkpt lat="33.672825" lon="-116.582880"><ele>2113.0</ele><time>2024-05-02T14:23:53Z</time></trkpt>
<trkpt lat="33.673342" lon="-116.583399"><ele>2118.4</ele><time>2024-05-02T14:24:48Z</time></trkpt>
<trkpt lat="33.673348" lon="-116.583507"><ele>2120.2</ele><time>2024-05-02T14:24:58Z</time></trkpt>
<trkpt lat="33.673650" lon="-116.583596"><ele>2124.8</ele><time>2024-05-02T14:25:34Z</time></trkpt>
<trkpt lat="33.673999" lon="-116.583543"><ele>2126.4</ele><time>2024-05-02T14:26:04Z</time></trkpt>
<trkpt lat="33.674436" lon="-116.583677"><ele>2126.0</ele><time>2024-05-02T14:26:43Z</time></trkpt>
<trkpt lat="33.674970" lon="-116.584284"><ele>2121.6</ele><time>2024-05-02T14:27:39Z</time></trkpt>
<trkpt lat="33.675380" lon="-116.584538"><ele>2124.2</ele><time>2024-05-02T14:28:16Z</time></trkpt>
<trkpt lat="33.675783" lon="-116.584975"><ele>2133.6</ele><time>2024-05-02T14:29:42Z</time></trkpt>
<trkpt lat="33.675883" lon="-116.584965"><ele>2134.2</ele><time>2024-05-02T14:29:48Z</time></trkpt>
<trkpt lat="33.675913" lon="-116.585054"><ele>2135.4</ele><time>2024-05-02T14:29:55Z</time></trkpt>
<trkpt lat="33.676253" lon="-116.585257"><ele>2138.6</ele><time>2024-05-02T14:30:22Z</time></trkpt>
<trkpt lat="33.676788" lon="-116.585805"><ele>2144.6</ele><time>2024-05-02T14:31:44Z</time></trkpt>
<trkpt lat="33.676758" lon="-116.586030"><ele>2146.2</ele><time>2024-05-02T14:31:57Z</time></trkpt>
<trkpt lat="33.676996" lon="-116.585947"><ele>2147.2</ele><time>2024-05-02T14:32:05Z</time></trkpt>
<trkpt lat="33.676889" lon="-116.586053"><ele>2148.2</ele><time>2024-05-02T14:32:12Z</time></trkpt>
<trkpt lat="33.676964" lon="-116.586128"><ele>2150.4</ele><time>2024-05-02T14:32:33Z</time></trkpt>
<trkpt lat="33.676969" lon="-116.586377"><ele>2151.6</ele><time>2024-05-02T14:32:50Z</time></trkpt>
<trkpt lat="33.676929" lon="-116.586441"><ele>2151.0</ele><time>2024-05-02T14:32:56Z</time></trkpt>
<trkpt lat="33.676781" lon="-116.586345"><ele>2150.2</ele><time>2024-05-02T14:35:01Z</time></trkpt>
<trkpt lat="33.676878" lon="-116.586455"><ele>2151.2</ele><time>2024-05-02T14:35:11Z</time></trkpt>
<trkpt lat="33.676813" lon="-116.586396"><ele>2150.8</ele><time>2024-05-02T14:35:16Z</time></trkpt>
<trkpt lat="33.676747" lon="-116.586049"><ele>2150.0</ele><time>2024-05-02T14:35:40Z</time></trkpt>
<trkpt lat="33.676739" lon="-116.586401"><ele>2150.0</ele><time>2024-05-02T14:35:42Z</time></trkpt>
<trkpt lat="33.676827" lon="-116.586490"><ele>2150.6</ele><time>2024-05-02T14:36:10Z</time></trkpt>
<trkpt lat="33.676939" lon="-116.586539"><ele>2151.6</ele><time>2024-05-02T14:37:44Z</time></trkpt>
<trkpt lat="33.676950" lon="-116.586493"><ele>2152.2</ele><time>2024-05-02T14:38:02Z</time></trkpt>
<trkpt lat="33.676919" lon="-116.586534"><ele>2151.8</ele><time>2024-05-02T14:38:14Z</time></trkpt>
<trkpt lat="33.677218" lon="-116.586850"><ele>2146.2</ele><time>2024-05-02T14:39:03Z</time></trkpt>
<trkpt lat="33.677249" lon="-116.587685"><ele>2137.4</ele><time>2024-05-02T14:40:18Z</time></trkpt>
<trkpt lat="33.677282" lon="-116.587877"><ele>2133.0</ele><time>2024-05-02T14:40:44Z</time></trkpt>
<trkpt lat="33.677357" lon="-116.587902"><ele>2132.6</ele><time>2024-05-02T14:40:50Z</time></trkpt>
<trkpt lat="33.677147" lon="-116.588429"><ele>2125.4</ele><time>2024-05-02T14:42:12Z</time></trkpt>
<trkpt lat="33.677246" lon="-116.588649"><ele>2123.8</ele><time>2024-05-02T14:42:44Z</time></trkpt>
<trkpt lat="33.677156" lon="-116.588785"><ele>2122.2</ele><time>2024-05-02T14:42:57Z</time></trkpt>
<trkpt lat="33.677272" lon="-116.588855"><ele>2122.2</ele><time>2024-05-02T14:43:06Z</time></trkpt>
<trkpt lat="33.677419" lon="-116.589951"><ele>2136.2</ele><time>2024-05-02T14:45:06Z</time></trkpt>
<trkpt lat="33.677285" lon="-116.590396"><ele>2142.8</ele><time>2024-05-02T14:45:44Z</time></trkpt>
<trkpt lat="33.677313" lon="-116.590511"><ele>2144.2</ele><time>2024-05-02T14:45:57Z</time></trkpt>
<trkpt lat="33.677238" lon="-116.591031"><ele>2144.6</ele><time>2024-05-02T14:46:31Z</time></trkpt>
<trkpt lat="33.677279" lon="-116.591207"><ele>2144.4</ele><time>2024-05-02T14:46:40Z</time></trkpt>
<trkpt lat="33.677456" lon="-116.591124"><ele>2143.8</ele><time>2024-05-02T14:46:49Z</time></trkpt>
<trkpt lat="33.677982" lon="-116.591864"><ele>2152.6</ele><time>2024-05-02T14:48:36Z</time></trkpt>
<trkpt lat="33.678332" lon="-116.592070"><ele>2154.4</ele><time>2024-05-02T14:49:00Z</time></trkpt>
<trkpt lat="33.678626" lon="-116.592722"><ele>2162.0</ele><time>2024-05-02T14:50:18Z</time></trkpt>
<trkpt lat="33.678774" lon="-116.593173"><ele>2162.2</ele><time>2024-05-02T14:50:42Z</time></trkpt>
<trkpt lat="33.678990" lon="-116.593423"><ele>2163.6</ele><time>2024-05-02T14:51:04Z</time></trkpt>
<trkpt lat="33.678953" lon="-116.594103"><ele>2167.4</ele><time>2024-05-02T14:51:55Z</time></trkpt>
<trkpt lat="33.678616" lon="-116.595123"><ele>2166.2</ele><time>2024-05-02T14:53:38Z</time></trkpt>
<trkpt lat="33.678596" lon="-116.595298"><ele>2165.8</ele><time>2024-05-02T14:53:43Z</time></trkpt>
<trkpt lat="33.678652" lon="-116.595312"><ele>2165.8</ele><time>2024-05-02T14:53:44Z</time></trkpt>
<trkpt lat="33.678574" lon="-116.595696"><ele>2164.6</ele><time>2024-05-02T14:54:04Z</time></trkpt>
<trkpt lat="33.678299" lon="-116.595937"><ele>2163.6</ele><time>2024-05-02T14:54:14Z</time></trkpt>
<trkpt lat="33.678478" lon="-116.595696"><ele>2163.2</ele><time>2024-05-02T14:54:25Z</time></trkpt>
<trkpt lat="33.678299" lon="-116.595937"><ele>2161.6</ele><time>2024-05-02T14:54:39Z</time></trkpt>
<trkpt lat="33.678488" lon="-116.595829"><ele>2161.6</ele><time>2024-05-02T14:54:41Z</time></trkpt>
<trkpt lat="33.678480" lon="-116.595929"><ele>2160.2</ele><time>2024-05-02T14:54:49Z</time></trkpt>
<trkpt lat="33.678597" lon="-116.595907"><ele>2158.0</ele><time>2024-05-02T14:55:01Z</time></trkpt>
<trkpt lat="33.678771" lon="-116.596205"><ele>2153.6</ele><time>2024-05-02T14:55:30Z</time></trkpt>
<trkpt lat="33.678649" lon="-116.596373"><ele>2148.0</ele><time>2024-05-02T14:56:00Z</time></trkpt>
<trkpt lat="33.678619" lon="-116.596642"><ele>2141.2</ele><time>2024-05-02T14:56:38Z</time></trkpt>
<trkpt lat="33.678598" lon="-116.597253"><ele>2141.8</ele><time>2024-05-02T14:57:16Z</time></trkpt>
<trkpt lat="33.679231" lon="-116.597809"><ele>2146.8</ele><time>2024-05-02T14:58:43Z</time></trkpt>
<trkpt lat="33.679210" lon="-116.597987"><ele>2145.6</ele><time>2024-05-02T14:58:51Z</time></trkpt>
<trkpt lat="33.679448" lon="-116.598243"><ele>2142.6</ele><time>2024-05-02T14:59:16Z</time></trkpt>
<trkpt lat="33.679614" lon="-116.598547"><ele>2142.2</ele><time>2024-05-02T14:59:44Z</time></trkpt>
<trkpt lat="33.679969" lon="-116.598862"><ele>2138.4</ele><time>2024-05-02T15:00:43Z</time></trkpt>
<trkpt lat="33.680055" lon="-116.599386"><ele>2136.4</ele><time>2024-05-02T15:02:38Z</time></trkpt>
<trkpt lat="33.680130" lon="-116.599397"><ele>2133.8</ele><time>2024-05-02T15:02:58Z</time></trkpt>
<trkpt lat="33.680312" lon="-116.599712"><ele>2121.8</ele><time>2024-05-02T15:04:00Z</time></trkpt>
<trkpt lat="33.680578" lon="-116.599736"><ele>2113.0</ele><time>2024-05-02T15:04:45Z</time></trkpt>
<trkpt lat="33.680676" lon="-116.599636"><ele>2108.6</ele><time>2024-05-02T15:05:09Z</time></trkpt>
<trkpt lat="33.680840" lon="-116.599911"><ele>2106.0</ele><time>2024-05-02T15:05:40Z</time></trkpt>
<trkpt lat="33.680854" lon="-116.600083"><ele>2105.0</ele><time>2024-05-02T15:05:52Z</time></trkpt>
<trkpt lat="33.681152" lon="-116.600302"><ele>2097.6</ele><time>2024-05-02T15:06:44Z</time></trkpt>
<trkpt lat="33.681400" lon="-116.600357"><ele>2097.6</ele><time>2024-05-02T15:07:06Z</time></trkpt>
<trkpt lat="33.681818" lon="-116.600329"><ele>2091.0</ele><time>2024-05-02T15:07:43Z</time></trkpt>
<trkpt lat="33.681439" lon="-116.600543"><ele>2087.6</ele><time>2024-05-02T15:08:01Z</time></trkpt>
<trkpt lat="33.681630" lon="-116.600679"><ele>2087.2</ele><time>2024-05-02T15:08:06Z</time></trkpt>
<trkpt lat="33.681651" lon="-116.600634"><ele>2087.2</ele><time>2024-05-02T15:08:11Z</time></trkpt>
<trkpt lat="33.681558" lon="-116.600783"><ele>2085.6</ele><time>2024-05-02T15:08:44Z</time></trkpt>
<trkpt lat="33.681604" lon="-116.600839"><ele>2084.8</ele><time>2024-05-02T15:08:50Z</time></trkpt>
<trkpt lat="33.681804" lon="-116.600728"><ele>2076.8</ele><time>2024-05-02T15:09:32Z</time></trkpt>
<trkpt lat="33.681989" lon="-116.600858"><ele>2070.2</ele><time>2024-05-02T15:10:04Z</time></trkpt>
<trkpt lat="33.682045" lon="-116.600790"><ele>2069.0</ele><time>2024-05-02T15:10:10Z</time></trkpt>
<trkpt lat="33.682188" lon="-116.600871"><ele>2065.8</ele><time>2024-05-02T15:10:26Z</time></trkpt>
<trkpt lat="33.682336" lon="-116.600640"><ele>2065.8</ele><time>2024-05-02T15:10:45Z</time></trkpt>
<trkpt lat="33.682444" lon="-116.600751"><ele>2062.6</ele><time>2024-05-02T15:11:04Z</time></trkpt>
<trkpt lat="33.682362" lon="-116.600830"><ele>2061.2</ele><time>2024-05-02T15:11:11Z</time></trkpt>
<trkpt lat="33.682372" lon="-116.600903"><ele>2060.2</ele><time>2024-05-02T15:11:17Z</time></trkpt>
<trkpt lat="33.682552" lon="-116.600804"><ele>2055.6</ele><time>2024-05-02T15:11:41Z</time></trkpt>
<trkpt lat="33.682496" lon="-116.601274"><ele>2049.0</ele><time>2024-05-02T15:12:44Z</time></trkpt>
<trkpt lat="33.682594" lon="-116.601238"><ele>2041.2</ele><time>2024-05-02T15:13:34Z</time></trkpt>
<trkpt lat="33.682755" lon="-116.601220"><ele>2039.4</ele><time>2024-05-02T15:13:49Z</time></trkpt>
<trkpt lat="33.682782" lon="-116.601155"><ele>2038.2</ele><time>2024-05-02T15:14:01Z</time></trkpt>
<trkpt lat="33.682787" lon="-116.601227"><ele>2032.2</ele><time>2024-05-02T15:14:34Z</time></trkpt>
<trkpt lat="33.682878" lon="-116.601278"><ele>2029.8</ele><time>2024-05-02T15:14:46Z</time></trkpt>
<trkpt lat="33.683124" lon="-116.601305"><ele>2026.4</ele><time>2024-05-02T15:15:04Z</time></trkpt>
<trkpt lat="33.683103" lon="-116.601356"><ele>2024.0</ele><time>2024-05-02T15:15:16Z</time></trkpt>
<trkpt lat="33.683279" lon="-116.601553"><ele>2021.0</ele><time>2024-05-02T15:15:42Z</time></trkpt>
<trkpt lat="33.683415" lon="-116.601613"><ele>2020.2</ele><time>2024-05-02T15:15:48Z</time></trkpt>
<trkpt lat="33.683355" lon="-116.601671"><ele>2020.0</ele><time>2024-05-02T15:15:51Z</time></trkpt>
<trkpt lat="33.683319" lon="-116.601590"><ele>2019.8</ele><time>2024-05-02T15:15:54Z</time></trkpt>
<trkpt lat="33.683351" lon="-116.601753"><ele>2017.6</ele><time>2024-05-02T15:16:08Z</time></trkpt>
<trkpt lat="33.683172" lon="-116.601893"><ele>2014.4</ele><time>2024-05-02T15:16:42Z</time></trkpt>
<trkpt lat="33.683135" lon="-116.602052"><ele>2011.0</ele><time>2024-05-02T15:16:58Z</time></trkpt>
<trkpt lat="33.683174" lon="-116.602041"><ele>2006.8</ele><time>2024-05-02T15:17:43Z</time></trkpt>
<trkpt lat="33.683107" lon="-116.602043"><ele>2006.6</ele><time>2024-05-02T15:17:45Z</time></trkpt>
<trkpt lat="33.683216" lon="-116.602030"><ele>2006.4</ele><time>2024-05-02T15:17:46Z</time></trkpt>
<trkpt lat="33.683331" lon="-116.602342"><ele>2002.2</ele><time>2024-05-02T15:18:16Z</time></trkpt>
<trkpt lat="33.683006" lon="-116.602351"><ele>1994.2</ele><time>2024-05-02T15:19:00Z</time></trkpt>
<trkpt lat="33.682937" lon="-116.602377"><ele>1992.2</ele><time>2024-05-02T15:19:36Z</time></trkpt>
<trkpt lat="33.682947" lon="-116.602464"><ele>1992.2</ele><time>2024-05-02T15:19:46Z</time></trkpt>
<trkpt lat="33.682839" lon="-116.602398"><ele>1992.8</ele><time>2024-05-02T15:19:54Z</time></trkpt>
<trkpt lat="33.682707" lon="-116.602633"><ele>1990.6</ele><time>2024-05-02T15:20:34Z</time></trkpt>
<trkpt lat="33.682284" lon="-116.602937"><ele>1983.8</ele><time>2024-05-02T15:21:32Z</time></trkpt>
<trkpt lat="33.681780" lon="-116.602942"><ele>1981.0</ele><time>2024-05-02T15:22:01Z</time></trkpt>
<trkpt lat="33.682023" lon="-116.603010"><ele>1978.4</ele><time>2024-05-02T15:22:15Z</time></trkpt>
<trkpt lat="33.682176" lon="-116.603135"><ele>1976.2</ele><time>2024-05-02T15:22:32Z</time></trkpt>
<trkpt lat="33.682860" lon="-116.602921"><ele>1965.0</ele><time>2024-05-02T15:24:19Z</time></trkpt>
<trkpt lat="33.683203" lon="-116.603249"><ele>1963.6</ele><time>2024-05-02T15:24:42Z</time></trkpt>
<trkpt lat="33.683018" lon="-116.603013"><ele>1963.2</ele><time>2024-05-02T15:24:44Z</time></trkpt>
<trkpt lat="33.683275" lon="-116.603048"><ele>1964.2</ele><time>2024-05-02T15:25:02Z</time></trkpt>
<trkpt lat="33.683702" lon="-116.603384"><ele>1959.0</ele><time>2024-05-02T15:26:03Z</time></trkpt>
<trkpt lat="33.683977" lon="-116.603462"><ele>1958.0</ele><time>2024-05-02T15:26:36Z</time></trkpt>
<trkpt lat="33.684830" lon="-116.603537"><ele>1953.2</ele><time>2024-05-02T15:27:43Z</time></trkpt>
<trkpt lat="33.685001" lon="-116.603474"><ele>1951.4</ele><time>2024-05-02T15:27:53Z</time></trkpt>
<trkpt lat="33.685216" lon="-116.603569"><ele>1949.4</ele><time>2024-05-02T15:28:24Z</time></trkpt>
<trkpt lat="33.685439" lon="-116.603309"><ele>1943.8</ele><time>2024-05-02T15:29:10Z</time></trkpt>
<trkpt lat="33.685548" lon="-116.603044"><ele>1942.6</ele><time>2024-05-02T15:29:43Z</time></trkpt>
<trkpt lat="33.685443" lon="-116.602936"><ele>1942.6</ele><time>2024-05-02T15:29:45Z</time></trkpt>
<trkpt lat="33.685506" lon="-116.602215"><ele>1935.2</ele><time>2024-05-02T15:30:54Z</time></trkpt>
<trkpt lat="33.685407" lon="-116.601668"><ele>1930.8</ele><time>2024-05-02T15:31:43Z</time></trkpt>
<trkpt lat="33.685051" lon="-116.600973"><ele>1926.6</ele><time>2024-05-02T15:33:28Z</time></trkpt>
<trkpt lat="33.684913" lon="-116.600930"><ele>1926.0</ele><time>2024-05-02T15:33:43Z</time></trkpt>
<trkpt lat="33.684918" lon="-116.600791"><ele>1925.6</ele><time>2024-05-02T15:34:04Z</time></trkpt>
<trkpt lat="33.684873" lon="-116.600801"><ele>1925.6</ele><time>2024-05-02T15:34:10Z</time></trkpt>
<trkpt lat="33.684907" lon="-116.600680"><ele>1925.0</ele><time>2024-05-02T15:34:40Z</time></trkpt>
<trkpt lat="33.684775" lon="-116.600657"><ele>1924.6</ele><time>2024-05-02T15:34:45Z</time></trkpt>
<trkpt lat="33.684512" lon="-116.599945"><ele>1916.2</ele><time>2024-05-02T15:37:00Z</time></trkpt>
<trkpt lat="33.684560" lon="-116.600046"><ele>1915.4</ele><time>2024-05-02T15:37:05Z</time></trkpt>
<trkpt lat="33.684571" lon="-116.599977"><ele>1915.2</ele><time>2024-05-02T15:37:11Z</time></trkpt>
<trkpt lat="33.684558" lon="-116.600017"><ele>1913.8</ele><time>2024-05-02T15:37:27Z</time></trkpt>
<trkpt lat="33.684784" lon="-116.600165"><ele>1912.8</ele><time>2024-05-02T15:37:50Z</time></trkpt>
<trkpt lat="33.684847" lon="-116.600297"><ele>1912.8</ele><time>2024-05-02T15:38:02Z</time></trkpt>
<trkpt lat="33.685721" lon="-116.600998"><ele>1903.8</ele><time>2024-05-02T15:39:47Z</time></trkpt>
<trkpt lat="33.685826" lon="-116.601169"><ele>1902.8</ele><time>2024-05-02T15:40:02Z</time></trkpt>
<trkpt lat="33.685812" lon="-116.601256"><ele>1902.6</ele><time>2024-05-02T15:40:05Z</time></trkpt>
<trkpt lat="33.686066" lon="-116.601632"><ele>1901.8</ele><time>2024-05-02T15:40:52Z</time></trkpt>
<trkpt lat="33.686295" lon="-116.602207"><ele>1898.2</ele><time>2024-05-02T15:41:48Z</time></trkpt>
<trkpt lat="33.686250" lon="-116.602291"><ele>1896.2</ele><time>2024-05-02T15:42:02Z</time></trkpt>
<trkpt lat="33.686376" lon="-116.602970"><ele>1890.8</ele><time>2024-05-02T15:42:40Z</time></trkpt>
<trkpt lat="33.686548" lon="-116.603221"><ele>1888.8</ele><time>2024-05-02T15:42:57Z</time></trkpt>
<trkpt lat="33.686614" lon="-116.603669"><ele>1885.4</ele><time>2024-05-02T15:43:28Z</time></trkpt>
<trkpt lat="33.686826" lon="-116.603800"><ele>1883.0</ele><time>2024-05-02T15:44:02Z</time></trkpt>
<trkpt lat="33.687312" lon="-116.604802"><ele>1873.2</ele><time>2024-05-02T15:45:20Z</time></trkpt>
<trkpt lat="33.687479" lon="-116.605029"><ele>1869.8</ele><time>2024-05-02T15:45:54Z</time></trkpt>
<trkpt lat="33.687788" lon="-116.605672"><ele>1865.6</ele><time>2024-05-02T15:46:50Z</time></trkpt>
<trkpt lat="33.687811" lon="-116.605830"><ele>1865.6</ele><time>2024-05-02T15:46:59Z</time></trkpt>
<trkpt lat="33.688808" lon="-116.606715"><ele>1851.2</ele><time>2024-05-02T15:48:47Z</time></trkpt>
<trkpt lat="33.688911" lon="-116.606689"><ele>1850.2</ele><time>2024-05-02T15:48:54Z</time></trkpt>
<trkpt lat="33.689843" lon="-116.607814"><ele>1838.8</ele><time>2024-05-02T15:50:44Z</time></trkpt>
<trkpt lat="33.689934" lon="-116.608111"><ele>1836.0</ele><time>2024-05-02T15:51:06Z</time></trkpt>
<trkpt lat="33.689933" lon="-116.608611"><ele>1832.8</ele><time>2024-05-02T15:51:52Z</time></trkpt>
<trkpt lat="33.690053" lon="-116.608797"><ele>1832.6</ele><time>2024-05-02T15:52:16Z</time></trkpt>
<trkpt lat="33.689958" lon="-116.608996"><ele>1831.4</ele><time>2024-05-02T15:55:52Z</time></trkpt>
<trkpt lat="33.690100" lon="-116.609099"><ele>1831.2</ele><time>2024-05-02T15:56:18Z</time></trkpt>
<trkpt lat="33.690168" lon="-116.609609"><ele>1831.2</ele><time>2024-05-02T15:57:05Z</time></trkpt>
<trkpt lat="33.690403" lon="-116.609981"><ele>1834.0</ele><time>2024-05-02T15:57:49Z</time></trkpt>
<trkpt lat="33.690424" lon="-116.610130"><ele>1836.0</ele><time>2024-05-02T15:58:02Z</time></trkpt>
<trkpt lat="33.690570" lon="-116.610291"><ele>1839.0</ele><time>2024-05-02T15:58:22Z</time></trkpt>
<trkpt lat="33.690885" lon="-116.610361"><ele>1845.8</ele><time>2024-05-02T15:59:12Z</time></trkpt>
<trkpt lat="33.691491" lon="-116.610721"><ele>1856.4</ele><time>2024-05-02T16:00:49Z</time></trkpt>
<trkpt lat="33.691948" lon="-116.610569"><ele>1865.6</ele><time>2024-05-02T16:02:10Z</time></trkpt>
<trkpt lat="33.692181" lon="-116.610580"><ele>1868.4</ele><time>2024-05-02T16:02:42Z</time></trkpt>
<trkpt lat="33.692210" lon="-116.610674"><ele>1868.8</ele><time>2024-05-02T16:02:44Z</time></trkpt>
<trkpt lat="33.692142" lon="-116.610969"><ele>1871.8</ele><time>2024-05-02T16:03:11Z</time></trkpt>
<trkpt lat="33.692196" lon="-116.611198"><ele>1874.0</ele><time>2024-05-02T16:03:41Z</time></trkpt>
<trkpt lat="33.693175" lon="-116.611631"><ele>1886.8</ele><time>2024-05-02T16:05:40Z</time></trkpt>
<trkpt lat="33.693280" lon="-116.611756"><ele>1887.8</ele><time>2024-05-02T16:05:46Z</time></trkpt>
<trkpt lat="33.693637" lon="-116.611779"><ele>1893.6</ele><time>2024-05-02T16:07:44Z</time></trkpt>
<trkpt lat="33.693601" lon="-116.611873"><ele>1894.0</ele><time>2024-05-02T16:07:46Z</time></trkpt>
<trkpt lat="33.693738" lon="-116.611943"><ele>1895.2</ele><time>2024-05-02T16:08:00Z</time></trkpt>
<trkpt lat="33.694599" lon="-116.611905"><ele>1911.2</ele><time>2024-05-02T16:09:49Z</time></trkpt>
<trkpt lat="33.695551" lon="-116.612065"><ele>1925.4</ele><time>2024-05-02T16:11:45Z</time></trkpt>
<trkpt lat="33.696316" lon="-116.612968"><ele>1938.4</ele><time>2024-05-02T16:13:43Z</time></trkpt>
<trkpt lat="33.696554" lon="-116.613043"><ele>1942.6</ele><time>2024-05-02T16:14:10Z</time></trkpt>
<trkpt lat="33.696966" lon="-116.613375"><ele>1945.2</ele><time>2024-05-02T16:15:44Z</time></trkpt>
<trkpt lat="33.696708" lon="-116.613317"><ele>1945.2</ele><time>2024-05-02T16:15:45Z</time></trkpt>
<trkpt lat="33.696794" lon="-116.613300"><ele>1945.0</ele><time>2024-05-02T16:15:51Z</time></trkpt>
<trkpt lat="33.696751" lon="-116.613326"><ele>1945.2</ele><time>2024-05-02T16:15:58Z</time></trkpt>
<trkpt lat="33.696794" lon="-116.613153"><ele>1943.4</ele><time>2024-05-02T16:17:40Z</time></trkpt>
<trkpt lat="33.696750" lon="-116.613334"><ele>1944.0</ele><time>2024-05-02T16:17:55Z</time></trkpt>
<trkpt lat="33.696895" lon="-116.613493"><ele>1945.6</ele><time>2024-05-02T16:19:45Z</time></trkpt>
<trkpt lat="33.696929" lon="-116.613676"><ele>1947.8</ele><time>2024-05-02T16:20:01Z</time></trkpt>
<trkpt lat="33.697521" lon="-116.614022"><ele>1961.4</ele><time>2024-05-02T16:24:47Z</time></trkpt>
<trkpt lat="33.697874" lon="-116.614382"><ele>1971.2</ele><time>2024-05-02T16:25:46Z</time></trkpt>
<trkpt lat="33.697842" lon="-116.614465"><ele>1972.4</ele><time>2024-05-02T16:25:52Z</time></trkpt>
<trkpt lat="33.697886" lon="-116.614527"><ele>1975.2</ele><time>2024-05-02T16:26:04Z</time></trkpt>
<trkpt lat="33.698200" lon="-116.614610"><ele>1979.4</ele><time>2024-05-02T16:26:41Z</time></trkpt>
<trkpt lat="33.698633" lon="-116.614834"><ele>1988.8</ele><time>2024-05-02T16:27:44Z</time></trkpt>
<trkpt lat="33.698705" lon="-116.615073"><ele>1990.2</ele><time>2024-05-02T16:28:01Z</time></trkpt>
<trkpt lat="33.698975" lon="-116.615272"><ele>1995.4</ele><time>2024-05-02T16:28:47Z</time></trkpt>
<trkpt lat="33.699313" lon="-116.615402"><ele>2001.4</ele><time>2024-05-02T16:29:39Z</time></trkpt>
<trkpt lat="33.699350" lon="-116.615462"><ele>2002.4</ele><time>2024-05-02T16:29:47Z</time></trkpt>
<trkpt lat="33.699234" lon="-116.615611"><ele>2004.6</ele><time>2024-05-02T16:30:00Z</time></trkpt>
<trkpt lat="33.699587" lon="-116.615844"><ele>2018.8</ele><time>2024-05-02T16:31:46Z</time></trkpt>
<trkpt lat="33.699429" lon="-116.616031"><ele>2021.4</ele><time>2024-05-02T16:31:58Z</time></trkpt>
<trkpt lat="33.699003" lon="-116.616095"><ele>2035.2</ele><time>2024-05-02T16:33:44Z</time></trkpt>
<trkpt lat="33.698992" lon="-116.616178"><ele>2035.8</ele><time>2024-05-02T16:33:48Z</time></trkpt>
<trkpt lat="33.698824" lon="-116.616353"><ele>2036.8</ele><time>2024-05-02T16:33:53Z</time></trkpt>
<trkpt lat="33.698909" lon="-116.616538"><ele>2043.4</ele><time>2024-05-02T16:34:31Z</time></trkpt>
<trkpt lat="33.698945" lon="-116.616467"><ele>2044.4</ele><time>2024-05-02T16:34:49Z</time></trkpt>
<trkpt lat="33.699052" lon="-116.616529"><ele>2047.8</ele><time>2024-05-02T16:35:19Z</time></trkpt>
<trkpt lat="33.699131" lon="-116.616796"><ele>2048.8</ele><time>2024-05-02T16:35:45Z</time></trkpt>
<trkpt lat="33.698941" lon="-116.616715"><ele>2049.0</ele><time>2024-05-02T16:35:46Z</time></trkpt>
<trkpt lat="33.698702" lon="-116.616773"><ele>2050.2</ele><time>2024-05-02T16:35:52Z</time></trkpt>
<trkpt lat="33.698676" lon="-116.616809"><ele>2052.4</ele><time>2024-05-02T16:36:02Z</time></trkpt>
<trkpt lat="33.698764" lon="-116.616906"><ele>2054.8</ele><time>2024-05-02T16:36:19Z</time></trkpt>
<trkpt lat="33.698885" lon="-116.616956"><ele>2059.0</ele><time>2024-05-02T16:37:25Z</time></trkpt>
<trkpt lat="33.699151" lon="-116.616875"><ele>2057.4</ele><time>2024-05-02T16:37:48Z</time></trkpt>
<trkpt lat="33.699015" lon="-116.617060"><ele>2058.4</ele><time>2024-05-02T16:37:54Z</time></trkpt>
<trkpt lat="33.699353" lon="-116.617041"><ele>2065.8</ele><time>2024-05-02T16:38:45Z</time></trkpt>
<trkpt lat="33.699818" lon="-116.617016"><ele>2066.0</ele><time>2024-05-02T16:39:47Z</time></trkpt>
<trkpt lat="33.699823" lon="-116.617173"><ele>2066.0</ele><time>2024-05-02T16:39:52Z</time></trkpt>
<trkpt lat="33.699682" lon="-116.617311"><ele>2066.0</ele><time>2024-05-02T16:39:54Z</time></trkpt>
<trkpt lat="33.700455" lon="-116.617289"><ele>2074.6</ele><time>2024-05-02T16:41:01Z</time></trkpt>
<trkpt lat="33.701565" lon="-116.617140"><ele>2077.6</ele><time>2024-05-02T16:41:45Z</time></trkpt>
<trkpt lat="33.701412" lon="-116.617082"><ele>2077.6</ele><time>2024-05-02T16:41:47Z</time></trkpt>
<trkpt lat="33.701167" lon="-116.617276"><ele>2077.6</ele><time>2024-05-02T16:41:48Z</time></trkpt>
<trkpt lat="33.701377" lon="-116.617126"><ele>2077.6</ele><time>2024-05-02T16:41:49Z</time></trkpt>
<trkpt lat="33.701309" lon="-116.617377"><ele>2077.4</ele><time>2024-05-02T16:41:50Z</time></trkpt>
<trkpt lat="33.700939" lon="-116.617567"><ele>2077.2</ele><time>2024-05-02T16:41:52Z</time></trkpt>
<trkpt lat="33.700721" lon="-116.617894"><ele>2076.8</ele><time>2024-05-02T16:41:59Z</time></trkpt>
<trkpt lat="33.701602" lon="-116.617581"><ele>2084.0</ele><time>2024-05-02T16:43:18Z</time></trkpt>
<trkpt lat="33.702209" lon="-116.617474"><ele>2087.6</ele><time>2024-05-02T16:43:47Z</time></trkpt>
<trkpt lat="33.702098" lon="-116.617546"><ele>2087.8</ele><time>2024-05-02T16:43:49Z</time></trkpt>
<trkpt lat="33.702058" lon="-116.617739"><ele>2087.6</ele><time>2024-05-02T16:43:54Z</time></trkpt>
<trkpt lat="33.701421" lon="-116.618198"><ele>2087.8</ele><time>2024-05-02T16:43:58Z</time></trkpt>
<trkpt lat="33.701576" lon="-116.618157"><ele>2088.0</ele><time>2024-05-02T16:44:00Z</time></trkpt>
<trkpt lat="33.701525" lon="-116.618333"><ele>2088.2</ele><time>2024-05-02T16:44:02Z</time></trkpt>
<trkpt lat="33.701163" lon="-116.618541"><ele>2089.2</ele><time>2024-05-02T16:44:10Z</time></trkpt>
<trkpt lat="33.701024" lon="-116.618565"><ele>2089.8</ele><time>2024-05-02T16:44:14Z</time></trkpt>
<trkpt lat="33.700979" lon="-116.618337"><ele>2091.0</ele><time>2024-05-02T16:44:29Z</time></trkpt>
<trkpt lat="33.700899" lon="-116.618327"><ele>2092.0</ele><time>2024-05-02T16:44:37Z</time></trkpt>
<trkpt lat="33.700752" lon="-116.618326"><ele>2093.2</ele><time>2024-05-02T16:44:43Z</time></trkpt>
<trkpt lat="33.700758" lon="-116.618405"><ele>2093.8</ele><time>2024-05-02T16:44:49Z</time></trkpt>
<trkpt lat="33.700625" lon="-116.618480"><ele>2095.4</ele><time>2024-05-02T16:45:01Z</time></trkpt>
<trkpt lat="33.700984" lon="-116.618018"><ele>2099.6</ele><time>2024-05-02T16:45:48Z</time></trkpt>
<trkpt lat="33.700924" lon="-116.617974"><ele>2100.6</ele><time>2024-05-02T16:45:54Z</time></trkpt>
<trkpt lat="33.700973" lon="-116.617893"><ele>2103.6</ele><time>2024-05-02T16:46:14Z</time></trkpt>
<trkpt lat="33.701213" lon="-116.617738"><ele>2106.0</ele><time>2024-05-02T16:46:44Z</time></trkpt>
<trkpt lat="33.700325" lon="-116.618325"><ele>2106.2</ele><time>2024-05-02T16:46:51Z</time></trkpt>
<trkpt lat="33.700299" lon="-116.618483"><ele>2106.0</ele><time>2024-05-02T16:46:56Z</time></trkpt>
<trkpt lat="33.700062" lon="-116.618600"><ele>2106.4</ele><time>2024-05-02T16:47:00Z</time></trkpt>
<trkpt lat="33.700003" lon="-116.618699"><ele>2107.2</ele><time>2024-05-02T16:47:04Z</time></trkpt>
<trkpt lat="33.700207" lon="-116.618878"><ele>2109.0</ele><time>2024-05-02T16:47:31Z</time></trkpt>
<trkpt lat="33.700130" lon="-116.618796"><ele>2110.8</ele><time>2024-05-02T16:49:47Z</time></trkpt>
<trkpt lat="33.700100" lon="-116.618862"><ele>2111.2</ele><time>2024-05-02T16:50:00Z</time></trkpt>
<trkpt lat="33.700322" lon="-116.618636"><ele>2112.0</ele><time>2024-05-02T16:51:45Z</time></trkpt>
<trkpt lat="33.700037" lon="-116.618851"><ele>2112.2</ele><time>2024-05-02T16:51:53Z</time></trkpt>
<trkpt lat="33.700155" lon="-116.618844"><ele>2112.4</ele><time>2024-05-02T16:52:01Z</time></trkpt>
<trkpt lat="33.700418" lon="-116.619185"><ele>2121.2</ele><time>2024-05-02T16:53:47Z</time></trkpt>
<trkpt lat="33.700589" lon="-116.619314"><ele>2123.0</ele><time>2024-05-02T16:54:01Z</time></trkpt>
<trkpt lat="33.701131" lon="-116.619531"><ele>2131.4</ele><time>2024-05-02T16:55:17Z</time></trkpt>
<trkpt lat="33.701579" lon="-116.619456"><ele>2134.4</ele><time>2024-05-02T16:55:45Z</time></trkpt>
<trkpt lat="33.701700" lon="-116.619374"><ele>2134.6</ele><time>2024-05-02T16:55:55Z</time></trkpt>
<trkpt lat="33.701647" lon="-116.619476"><ele>2134.6</ele><time>2024-05-02T16:56:00Z</time></trkpt>
<trkpt lat="33.701852" lon="-116.619517"><ele>2137.4</ele><time>2024-05-02T16:56:19Z</time></trkpt>
<trkpt lat="33.702062" lon="-116.619691"><ele>2148.6</ele><time>2024-05-02T16:57:31Z</time></trkpt>
<trkpt lat="33.702257" lon="-116.619780"><ele>2149.0</ele><time>2024-05-02T16:57:47Z</time></trkpt>
<trkpt lat="33.703705" lon="-116.619697"><ele>2152.2</ele><time>2024-05-02T16:59:49Z</time></trkpt>
<trkpt lat="33.703550" lon="-116.619874"><ele>2154.0</ele><time>2024-05-02T16:59:58Z</time></trkpt>
<trkpt lat="33.703781" lon="-116.619877"><ele>2156.2</ele><time>2024-05-02T17:00:11Z</time></trkpt>
<trkpt lat="33.703896" lon="-116.619973"><ele>2157.4</ele><time>2024-05-02T17:00:21Z</time></trkpt>
<trkpt lat="33.703935" lon="-116.620122"><ele>2163.2</ele><time>2024-05-02T17:00:55Z</time></trkpt>
<trkpt lat="33.703963" lon="-116.620155"><ele>2168.8</ele><time>2024-05-02T17:01:33Z</time></trkpt>
<trkpt lat="33.704011" lon="-116.620075"><ele>2168.8</ele><time>2024-05-02T17:01:47Z</time></trkpt>
<trkpt lat="33.703856" lon="-116.620126"><ele>2168.4</ele><time>2024-05-02T17:01:50Z</time></trkpt>
<trkpt lat="33.703735" lon="-116.620275"><ele>2168.4</ele><time>2024-05-02T17:01:55Z</time></trkpt>
<trkpt lat="33.703674" lon="-116.620244"><ele>2169.4</ele><time>2024-05-02T17:02:04Z</time></trkpt>
<trkpt lat="33.704257" lon="-116.620313"><ele>2173.2</ele><time>2024-05-02T17:03:43Z</time></trkpt>
<trkpt lat="33.704030" lon="-116.620439"><ele>2173.4</ele><time>2024-05-02T17:03:50Z</time></trkpt>
<trkpt lat="33.703955" lon="-116.620557"><ele>2173.6</ele><time>2024-05-02T17:03:53Z</time></trkpt>
<trkpt lat="33.704617" lon="-116.621063"><ele>2182.6</ele><time>2024-05-02T17:05:37Z</time></trkpt>
<trkpt lat="33.704707" lon="-116.621220"><ele>2183.4</ele><time>2024-05-02T17:05:44Z</time></trkpt>
<trkpt lat="33.704615" lon="-116.621544"><ele>2185.4</ele><time>2024-05-02T17:05:56Z</time></trkpt>
<trkpt lat="33.704930" lon="-116.621776"><ele>2186.8</ele><time>2024-05-02T17:06:32Z</time></trkpt>
<trkpt lat="33.705495" lon="-116.622056"><ele>2191.4</ele><time>2024-05-02T17:07:44Z</time></trkpt>
<trkpt lat="33.705556" lon="-116.622179"><ele>2189.4</ele><time>2024-05-02T17:07:59Z</time></trkpt>
<trkpt lat="33.705572" lon="-116.622139"><ele>2187.0</ele><time>2024-05-02T17:08:10Z</time></trkpt>
<trkpt lat="33.705467" lon="-116.622121"><ele>2182.4</ele><time>2024-05-02T17:08:38Z</time></trkpt>
<trkpt lat="33.705713" lon="-116.622105"><ele>2176.2</ele><time>2024-05-02T17:09:06Z</time></trkpt>
<trkpt lat="33.705887" lon="-116.622172"><ele>2175.2</ele><time>2024-05-02T17:09:20Z</time></trkpt>
<trkpt lat="33.705963" lon="-116.622091"><ele>2171.6</ele><time>2024-05-02T17:09:47Z</time></trkpt>
<trkpt lat="33.706328" lon="-116.622000"><ele>2169.0</ele><time>2024-05-02T17:10:01Z</time></trkpt>
<trkpt lat="33.706612" lon="-116.622069"><ele>2163.0</ele><time>2024-05-02T17:10:36Z</time></trkpt>
<trkpt lat="33.706656" lon="-116.622138"><ele>2161.2</ele><time>2024-05-02T17:11:43Z</time></trkpt>
<trkpt lat="33.706795" lon="-116.621992"><ele>2160.0</ele><time>2024-05-02T17:11:50Z</time></trkpt>
<trkpt lat="33.707161" lon="-116.621890"><ele>2160.0</ele><time>2024-05-02T17:12:00Z</time></trkpt>
<trkpt lat="33.707656" lon="-116.621883"><ele>2153.6</ele><time>2024-05-02T17:13:49Z</time></trkpt>
<trkpt lat="33.707944" lon="-116.622008"><ele>2144.6</ele><time>2024-05-02T17:14:39Z</time></trkpt>
<trkpt lat="33.707940" lon="-116.621916"><ele>2144.2</ele><time>2024-05-02T17:15:17Z</time></trkpt>
<trkpt lat="33.708074" lon="-116.621914"><ele>2144.6</ele><time>2024-05-02T17:15:47Z</time></trkpt>
<trkpt lat="33.707883" lon="-116.621916"><ele>2144.0</ele><time>2024-05-02T17:16:01Z</time></trkpt>
<trkpt lat="33.708255" lon="-116.621977"><ele>2141.0</ele><time>2024-05-02T17:17:11Z</time></trkpt>
<trkpt lat="33.708557" lon="-116.621933"><ele>2137.0</ele><time>2024-05-02T17:17:43Z</time></trkpt>
<trkpt lat="33.709086" lon="-116.622162"><ele>2138.2</ele><time>2024-05-02T17:18:39Z</time></trkpt>
<trkpt lat="33.709549" lon="-116.622279"><ele>2134.4</ele><time>2024-05-02T17:19:48Z</time></trkpt>
<trkpt lat="33.709581" lon="-116.622369"><ele>2136.0</ele><time>2024-05-02T17:19:58Z</time></trkpt>
<trkpt lat="33.709994" lon="-116.622495"><ele>2139.8</ele><time>2024-05-02T17:20:53Z</time></trkpt>
<trkpt lat="33.710296" lon="-116.622714"><ele>2140.0</ele><time>2024-05-02T17:21:50Z</time></trkpt>
<trkpt lat="33.710491" lon="-116.622773"><ele>2140.8</ele><time>2024-05-02T17:22:21Z</time></trkpt>
<trkpt lat="33.710800" lon="-116.622754"><ele>2142.2</ele><time>2024-05-02T17:22:59Z</time></trkpt>
<trkpt lat="33.711124" lon="-116.623007"><ele>2147.6</ele><time>2024-05-02T17:23:35Z</time></trkpt>
<trkpt lat="33.711276" lon="-116.623026"><ele>2149.0</ele><time>2024-05-02T17:23:45Z</time></trkpt>
<trkpt lat="33.711281" lon="-116.623112"><ele>2150.0</ele><time>2024-05-02T17:23:51Z</time></trkpt>
<trkpt lat="33.712019" lon="-116.623107"><ele>2163.4</ele><time>2024-05-02T17:25:44Z</time></trkpt>
<trkpt lat="33.712081" lon="-116.623166"><ele>2164.2</ele><time>2024-05-02T17:25:51Z</time></trkpt>
<trkpt lat="33.712011" lon="-116.623259"><ele>2166.6</ele><time>2024-05-02T17:26:01Z</time></trkpt>
<trkpt lat="33.712352" lon="-116.623068"><ele>2177.0</ele><time>2024-05-02T17:27:45Z</time></trkpt>
<trkpt lat="33.712486" lon="-116.623126"><ele>2178.4</ele><time>2024-05-02T17:27:55Z</time></trkpt>
<trkpt lat="33.712877" lon="-116.622975"><ele>2185.4</ele><time>2024-05-02T17:29:48Z</time></trkpt>
<trkpt lat="33.713044" lon="-116.623016"><ele>2187.0</ele><time>2024-05-02T17:30:31Z</time></trkpt>
<trkpt lat="33.713223" lon="-116.623037"><ele>2197.8</ele><time>2024-05-02T17:31:33Z</time></trkpt>
<trkpt lat="33.714015" lon="-116.623080"><ele>2213.6</ele><time>2024-05-02T17:33:44Z</time></trkpt>
<trkpt lat="33.714012" lon="-116.623167"><ele>2214.6</ele><time>2024-05-02T17:33:48Z</time></trkpt>
<trkpt lat="33.714186" lon="-116.623188"><ele>2218.2</ele><time>2024-05-02T17:34:07Z</time></trkpt>
<trkpt lat="33.714313" lon="-116.623382"><ele>2224.4</ele><time>2024-05-02T17:34:45Z</time></trkpt>
<trkpt lat="33.714497" lon="-116.623411"><ele>2228.8</ele><time>2024-05-02T17:35:17Z</time></trkpt>
<trkpt lat="33.714608" lon="-116.623619"><ele>2233.0</ele><time>2024-05-02T17:35:47Z</time></trkpt>
<trkpt lat="33.714765" lon="-116.623563"><ele>2235.4</ele><time>2024-05-02T17:36:02Z</time></trkpt>
<trkpt lat="33.715465" lon="-116.623940"><ele>2245.0</ele><time>2024-05-02T17:37:17Z</time></trkpt>
<trkpt lat="33.715559" lon="-116.624080"><ele>2244.6</ele><time>2024-05-02T17:37:37Z</time></trkpt>
<trkpt lat="33.715783" lon="-116.624207"><ele>2244.4</ele><time>2024-05-02T17:37:46Z</time></trkpt>
<trkpt lat="33.716198" lon="-116.624361"><ele>2241.2</ele><time>2024-05-02T17:38:19Z</time></trkpt>
<trkpt lat="33.716628" lon="-116.624418"><ele>2241.0</ele><time>2024-05-02T17:39:37Z</time></trkpt>
<trkpt lat="33.716750" lon="-116.624529"><ele>2241.0</ele><time>2024-05-02T17:39:45Z</time></trkpt>
<trkpt lat="33.716714" lon="-116.624457"><ele>2241.2</ele><time>2024-05-02T17:39:52Z</time></trkpt>
<trkpt lat="33.716910" lon="-116.624073"><ele>2238.2</ele><time>2024-05-02T17:41:15Z</time></trkpt>
<trkpt lat="33.717054" lon="-116.624152"><ele>2235.0</ele><time>2024-05-02T17:41:35Z</time></trkpt>
<trkpt lat="33.717208" lon="-116.624117"><ele>2233.2</ele><time>2024-05-02T17:41:47Z</time></trkpt>
<trkpt lat="33.717208" lon="-116.623922"><ele>2231.8</ele><time>2024-05-02T17:42:05Z</time></trkpt>
<trkpt lat="33.717430" lon="-116.623547"><ele>2225.6</ele><time>2024-05-02T17:43:27Z</time></trkpt>
<trkpt lat="33.717456" lon="-116.623401"><ele>2223.0</ele><time>2024-05-02T17:43:48Z</time></trkpt>
<trkpt lat="33.717755" lon="-116.623272"><ele>2222.4</ele><time>2024-05-02T17:44:47Z</time></trkpt>
<trkpt lat="33.717867" lon="-116.623085"><ele>2220.6</ele><time>2024-05-02T17:45:01Z</time></trkpt>
<trkpt lat="33.718326" lon="-116.622711"><ele>2213.4</ele><time>2024-05-02T17:45:54Z</time></trkpt>
<trkpt lat="33.718365" lon="-116.622649"><ele>2207.8</ele><time>2024-05-02T17:47:07Z</time></trkpt>
<trkpt lat="33.718267" lon="-116.622556"><ele>2204.2</ele><time>2024-05-02T17:47:27Z</time></trkpt>
<trkpt lat="33.718447" lon="-116.622340"><ele>2200.0</ele><time>2024-05-02T17:47:53Z</time></trkpt>
<trkpt lat="33.718527" lon="-116.622371"><ele>2198.6</ele><time>2024-05-02T17:47:59Z</time></trkpt>
<trkpt lat="33.718564" lon="-116.622248"><ele>2196.8</ele><time>2024-05-02T17:48:17Z</time></trkpt>
<trkpt lat="33.718774" lon="-116.622041"><ele>2188.2</ele><time>2024-05-02T17:48:57Z</time></trkpt>
<trkpt lat="33.718943" lon="-116.621951"><ele>2182.4</ele><time>2024-05-02T17:49:21Z</time></trkpt>
<trkpt lat="33.718732" lon="-116.621728"><ele>2178.2</ele><time>2024-05-02T17:49:44Z</time></trkpt>
<trkpt lat="33.718599" lon="-116.621882"><ele>2177.8</ele><time>2024-05-02T17:49:49Z</time></trkpt>
<trkpt lat="33.718468" lon="-116.621887"><ele>2175.6</ele><time>2024-05-02T17:50:05Z</time></trkpt>
<trkpt lat="33.718465" lon="-116.621779"><ele>2173.4</ele><time>2024-05-02T17:50:21Z</time></trkpt>
<trkpt lat="33.718511" lon="-116.621765"><ele>2168.6</ele><time>2024-05-02T17:50:51Z</time></trkpt>
<trkpt lat="33.718827" lon="-116.621741"><ele>2161.0</ele><time>2024-05-02T17:51:37Z</time></trkpt>
<trkpt lat="33.718918" lon="-116.621667"><ele>2160.2</ele><time>2024-05-02T17:51:50Z</time></trkpt>
<trkpt lat="33.718937" lon="-116.621413"><ele>2159.6</ele><time>2024-05-02T17:51:57Z</time></trkpt>
<trkpt lat="33.718758" lon="-116.621128"><ele>2156.4</ele><time>2024-05-02T17:52:13Z</time></trkpt>
<trkpt lat="33.718656" lon="-116.621172"><ele>2155.4</ele><time>2024-05-02T17:52:17Z</time></trkpt>
<trkpt lat="33.718602" lon="-116.621388"><ele>2154.4</ele><time>2024-05-02T17:52:23Z</time></trkpt>
<trkpt lat="33.718422" lon="-116.621237"><ele>2153.4</ele><time>2024-05-02T17:52:31Z</time></trkpt>
<trkpt lat="33.718395" lon="-116.621014"><ele>2150.6</ele><time>2024-05-02T17:52:45Z</time></trkpt>
<trkpt lat="33.718666" lon="-116.620895"><ele>2147.4</ele><time>2024-05-02T17:53:01Z</time></trkpt>
<trkpt lat="33.718679" lon="-116.620712"><ele>2143.0</ele><time>2024-05-02T17:53:25Z</time></trkpt>
<trkpt lat="33.718581" lon="-116.620492"><ele>2140.4</ele><time>2024-05-02T17:53:44Z</time></trkpt>
<trkpt lat="33.718518" lon="-116.620764"><ele>2140.2</ele><time>2024-05-02T17:53:45Z</time></trkpt>
<trkpt lat="33.718291" lon="-116.620914"><ele>2136.6</ele><time>2024-05-02T17:54:11Z</time></trkpt>
<trkpt lat="33.718594" lon="-116.620616"><ele>2128.6</ele><time>2024-05-02T17:55:09Z</time></trkpt>
<trkpt lat="33.718593" lon="-116.620450"><ele>2126.4</ele><time>2024-05-02T17:55:27Z</time></trkpt>
<trkpt lat="33.718777" lon="-116.620256"><ele>2123.2</ele><time>2024-05-02T17:55:45Z</time></trkpt>
<trkpt lat="33.719144" lon="-116.620277"><ele>2118.6</ele><time>2024-05-02T17:56:23Z</time></trkpt>
<trkpt lat="33.719405" lon="-116.620144"><ele>2114.0</ele><time>2024-05-02T17:56:45Z</time></trkpt>
<trkpt lat="33.719336" lon="-116.619598"><ele>2106.2</ele><time>2024-05-02T17:57:25Z</time></trkpt>
<trkpt lat="33.719478" lon="-116.619520"><ele>2102.4</ele><time>2024-05-02T17:57:49Z</time></trkpt>
<trkpt lat="33.719736" lon="-116.619519"><ele>2099.2</ele><time>2024-05-02T17:58:10Z</time></trkpt>
<trkpt lat="33.719807" lon="-116.619787"><ele>2096.4</ele><time>2024-05-02T17:58:33Z</time></trkpt>
<trkpt lat="33.719922" lon="-116.619892"><ele>2093.0</ele><time>2024-05-02T17:58:53Z</time></trkpt>
<trkpt lat="33.719866" lon="-116.620006"><ele>2091.6</ele><time>2024-05-02T17:59:04Z</time></trkpt>
<trkpt lat="33.719902" lon="-116.620332"><ele>2088.4</ele><time>2024-05-02T17:59:42Z</time></trkpt>
<trkpt lat="33.719847" lon="-116.620414"><ele>2089.6</ele><time>2024-05-02T18:00:02Z</time></trkpt>
<trkpt lat="33.719898" lon="-116.620479"><ele>2089.8</ele><time>2024-05-02T18:00:43Z</time></trkpt>
<trkpt lat="33.719859" lon="-116.620329"><ele>2091.6</ele><time>2024-05-02T18:02:48Z</time></trkpt>
<trkpt lat="33.719842" lon="-116.620412"><ele>2090.4</ele><time>2024-05-02T18:03:35Z</time></trkpt>
<trkpt lat="33.719881" lon="-116.620402"><ele>2092.6</ele><time>2024-05-02T18:05:02Z</time></trkpt>
<trkpt lat="33.719853" lon="-116.620365"><ele>2092.2</ele><time>2024-05-02T18:06:23Z</time></trkpt>
<trkpt lat="33.719840" lon="-116.620422"><ele>2093.6</ele><time>2024-05-02T18:06:54Z</time></trkpt>
<trkpt lat="33.719879" lon="-116.620408"><ele>2094.0</ele><time>2024-05-02T18:08:47Z</time></trkpt>
<trkpt lat="33.719833" lon="-116.620348"><ele>2094.4</ele><time>2024-05-02T18:10:52Z</time></trkpt>
<trkpt lat="33.719870" lon="-116.620441"><ele>2099.8</ele><time>2024-05-02T18:14:17Z</time></trkpt>
<trkpt lat="33.719865" lon="-116.620090"><ele>2101.2</ele><time>2024-05-02T18:14:57Z</time></trkpt>
<trkpt lat="33.719785" lon="-116.619790"><ele>2104.2</ele><time>2024-05-02T18:15:29Z</time></trkpt>
<trkpt lat="33.719674" lon="-116.619585"><ele>2109.0</ele><time>2024-05-02T18:16:55Z</time></trkpt>
<trkpt lat="33.719517" lon="-116.619482"><ele>2107.4</ele><time>2024-05-02T18:18:46Z</time></trkpt>
<trkpt lat="33.719665" lon="-116.619592"><ele>2107.2</ele><time>2024-05-02T18:20:54Z</time></trkpt>
<trkpt lat="33.719518" lon="-116.619489"><ele>2111.6</ele><time>2024-05-02T18:24:33Z</time></trkpt>
<trkpt lat="33.719645" lon="-116.619585"><ele>2110.4</ele><time>2024-05-02T18:25:04Z</time></trkpt>
<trkpt lat="33.719610" lon="-116.619608"><ele>2111.6</ele><time>2024-05-02T18:27:09Z</time></trkpt>
<trkpt lat="33.719648" lon="-116.619568"><ele>2112.6</ele><time>2024-05-02T18:28:48Z</time></trkpt>
<trkpt lat="33.719597" lon="-116.619669"><ele>2112.6</ele><time>2024-05-02T18:32:48Z</time></trkpt>
<trkpt lat="33.719591" lon="-116.619604"><ele>2112.2</ele><time>2024-05-02T18:32:59Z</time></trkpt>
<trkpt lat="33.719669" lon="-116.619557"><ele>2113.2</ele><time>2024-05-02T18:34:09Z</time></trkpt>
<trkpt lat="33.719626" lon="-116.619561"><ele>2112.8</ele><time>2024-05-02T18:34:51Z</time></trkpt>
<trkpt lat="33.719668" lon="-116.619583"><ele>2112.4</ele><time>2024-05-02T18:34:54Z</time></trkpt>
<trkpt lat="33.719435" lon="-116.619686"><ele>2115.0</ele><time>2024-05-02T18:35:43Z</time></trkpt>
<trkpt lat="33.719323" lon="-116.619820"><ele>2117.4</ele><time>2024-05-02T18:36:11Z</time></trkpt>
<trkpt lat="33.719374" lon="-116.620085"><ele>2122.0</ele><time>2024-05-02T18:36:56Z</time></trkpt>
<trkpt lat="33.718577" lon="-116.620362"><ele>2134.0</ele><time>2024-05-02T18:38:44Z</time></trkpt>
<trkpt lat="33.718610" lon="-116.620448"><ele>2134.2</ele><time>2024-05-02T18:38:46Z</time></trkpt>
<trkpt lat="33.718722" lon="-116.620455"><ele>2135.0</ele><time>2024-05-02T18:38:58Z</time></trkpt>
<trkpt lat="33.718422" lon="-116.620808"><ele>2142.4</ele><time>2024-05-02T18:40:37Z</time></trkpt>
<trkpt lat="33.718592" lon="-116.620785"><ele>2145.2</ele><time>2024-05-02T18:41:01Z</time></trkpt>
<trkpt lat="33.718641" lon="-116.620851"><ele>2146.8</ele><time>2024-05-02T18:41:16Z</time></trkpt>
<trkpt lat="33.718633" lon="-116.621125"><ele>2156.0</ele><time>2024-05-02T18:42:47Z</time></trkpt>
<trkpt lat="33.718731" lon="-116.621223"><ele>2157.8</ele><time>2024-05-02T18:43:04Z</time></trkpt>
<trkpt lat="33.718819" lon="-116.621551"><ele>2164.8</ele><time>2024-05-02T18:43:54Z</time></trkpt>
<trkpt lat="33.718643" lon="-116.621589"><ele>2170.6</ele><time>2024-05-02T18:44:34Z</time></trkpt>
<trkpt lat="33.718527" lon="-116.621651"><ele>2172.4</ele><time>2024-05-02T18:44:46Z</time></trkpt>
<trkpt lat="33.718571" lon="-116.621712"><ele>2172.6</ele><time>2024-05-02T18:44:48Z</time></trkpt>
<trkpt lat="33.718554" lon="-116.621649"><ele>2172.6</ele><time>2024-05-02T18:44:50Z</time></trkpt>
<trkpt lat="33.718376" lon="-116.621780"><ele>2174.0</ele><time>2024-05-02T18:45:02Z</time></trkpt>
<trkpt lat="33.718697" lon="-116.622025"><ele>2188.2</ele><time>2024-05-02T18:46:40Z</time></trkpt>
<trkpt lat="33.718705" lon="-116.622152"><ele>2191.0</ele><time>2024-05-02T18:47:00Z</time></trkpt>
<trkpt lat="33.718466" lon="-116.622382"><ele>2205.8</ele><time>2024-05-02T18:48:45Z</time></trkpt>
<trkpt lat="33.718208" lon="-116.622555"><ele>2205.2</ele><time>2024-05-02T18:49:15Z</time></trkpt>
<trkpt lat="33.717984" lon="-116.622831"><ele>2212.6</ele><time>2024-05-02T18:50:47Z</time></trkpt>
<trkpt lat="33.717838" lon="-116.622931"><ele>2212.6</ele><time>2024-05-02T18:50:53Z</time></trkpt>
<trkpt lat="33.717828" lon="-116.623003"><ele>2220.2</ele><time>2024-05-02T18:52:27Z</time></trkpt>
<trkpt lat="33.717827" lon="-116.623217"><ele>2222.0</ele><time>2024-05-02T18:52:47Z</time></trkpt>
<trkpt lat="33.717941" lon="-116.623140"><ele>2223.4</ele><time>2024-05-02T18:52:52Z</time></trkpt>
<trkpt lat="33.717683" lon="-116.623242"><ele>2222.4</ele><time>2024-05-02T18:53:09Z</time></trkpt>
<trkpt lat="33.717290" lon="-116.623765"><ele>2229.0</ele><time>2024-05-02T18:54:58Z</time></trkpt>
<trkpt lat="33.717126" lon="-116.624124"><ele>2234.6</ele><time>2024-05-02T18:55:34Z</time></trkpt>
<trkpt lat="33.717078" lon="-116.624183"><ele>2235.6</ele><time>2024-05-02T18:55:48Z</time></trkpt>
<trkpt lat="33.716974" lon="-116.624159"><ele>2241.2</ele><time>2024-05-02T18:56:24Z</time></trkpt>
<trkpt lat="33.716763" lon="-116.624412"><ele>2243.6</ele><time>2024-05-02T18:56:45Z</time></trkpt>
<trkpt lat="33.716815" lon="-116.624477"><ele>2244.0</ele><time>2024-05-02T18:56:49Z</time></trkpt>
<trkpt lat="33.716728" lon="-116.624497"><ele>2244.6</ele><time>2024-05-02T18:57:00Z</time></trkpt>
<trkpt lat="33.716892" lon="-116.624746"><ele>2247.8</ele><time>2024-05-02T18:57:40Z</time></trkpt>
<trkpt lat="33.716892" lon="-116.624673"><ele>2248.0</ele><time>2024-05-02T18:57:48Z</time></trkpt>
<trkpt lat="33.716875" lon="-116.624702"><ele>2252.6</ele><time>2024-05-02T18:58:08Z</time></trkpt>
<trkpt lat="33.716951" lon="-116.624789"><ele>2256.2</ele><time>2024-05-02T18:58:20Z</time></trkpt>
<trkpt lat="33.717141" lon="-116.624780"><ele>2257.0</ele><time>2024-05-02T18:58:34Z</time></trkpt>
<trkpt lat="33.717312" lon="-116.624960"><ele>2256.4</ele><time>2024-05-02T18:58:50Z</time></trkpt>
<trkpt lat="33.717513" lon="-116.624907"><ele>2256.6</ele><time>2024-05-02T18:59:07Z</time></trkpt>
<trkpt lat="33.717650" lon="-116.624436"><ele>2255.0</ele><time>2024-05-02T18:59:43Z</time></trkpt>
<trkpt lat="33.717570" lon="-116.624372"><ele>2255.0</ele><time>2024-05-02T18:59:44Z</time></trkpt>
<trkpt lat="33.717536" lon="-116.624005"><ele>2251.8</ele><time>2024-05-02T19:00:10Z</time></trkpt>
<trkpt lat="33.718936" lon="-116.622432"><ele>2245.0</ele><time>2024-05-02T19:02:46Z</time></trkpt>
<trkpt lat="33.718749" lon="-116.623095"><ele>2245.0</ele><time>2024-05-02T19:02:48Z</time></trkpt>
<trkpt lat="33.718760" lon="-116.623171"><ele>2244.8</ele><time>2024-05-02T19:02:52Z</time></trkpt>
<trkpt lat="33.718883" lon="-116.623128"><ele>2244.8</ele><time>2024-05-02T19:03:03Z</time></trkpt>
<trkpt lat="33.719008" lon="-116.624077"><ele>2244.8</ele><time>2024-05-02T19:04:36Z</time></trkpt>
<trkpt lat="33.718991" lon="-116.624326"><ele>2244.2</ele><time>2024-05-02T19:04:47Z</time></trkpt>
<trkpt lat="33.719578" lon="-116.623594"><ele>2242.8</ele><time>2024-05-02T19:05:08Z</time></trkpt>
<trkpt lat="33.719678" lon="-116.623849"><ele>2242.6</ele><time>2024-05-02T19:05:48Z</time></trkpt>
<trkpt lat="33.719677" lon="-116.624196"><ele>2243.6</ele><time>2024-05-02T19:06:20Z</time></trkpt>
<trkpt lat="33.719806" lon="-116.625222"><ele>2236.8</ele><time>2024-05-02T19:07:48Z</time></trkpt>
<trkpt lat="33.720142" lon="-116.624953"><ele>2237.2</ele><time>2024-05-02T19:08:03Z</time></trkpt>
<trkpt lat="33.719639" lon="-116.625517"><ele>2241.0</ele><time>2024-05-02T19:09:48Z</time></trkpt>
<trkpt lat="33.719886" lon="-116.625124"><ele>2241.2</ele><time>2024-05-02T19:09:52Z</time></trkpt>
<trkpt lat="33.719914" lon="-116.624985"><ele>2241.2</ele><time>2024-05-02T19:09:54Z</time></trkpt>
<trkpt lat="33.720089" lon="-116.624899"><ele>2241.6</ele><time>2024-05-02T19:09:59Z</time></trkpt>
<trkpt lat="33.720064" lon="-116.624988"><ele>2241.2</ele><time>2024-05-02T19:10:06Z</time></trkpt>
<trkpt lat="33.720220" lon="-116.625007"><ele>2240.8</ele><time>2024-05-02T19:10:15Z</time></trkpt>
<trkpt lat="33.720556" lon="-116.625311"><ele>2239.8</ele><time>2024-05-02T19:10:49Z</time></trkpt>
<trkpt lat="33.720508" lon="-116.625472"><ele>2238.6</ele><time>2024-05-02T19:10:57Z</time></trkpt>
<trkpt lat="33.720520" lon="-116.626281"><ele>2233.4</ele><time>2024-05-02T19:11:56Z</time></trkpt>
<trkpt lat="33.720436" lon="-116.626862"><ele>2228.4</ele><time>2024-05-02T19:12:50Z</time></trkpt>
<trkpt lat="33.720474" lon="-116.626945"><ele>2228.4</ele><time>2024-05-02T19:12:53Z</time></trkpt>
<trkpt lat="33.720699" lon="-116.626892"><ele>2228.4</ele><time>2024-05-02T19:13:01Z</time></trkpt>
<trkpt lat="33.721259" lon="-116.627365"><ele>2222.6</ele><time>2024-05-02T19:13:57Z</time></trkpt>
<trkpt lat="33.721612" lon="-116.627477"><ele>2220.4</ele><time>2024-05-02T19:14:35Z</time></trkpt>
<trkpt lat="33.722068" lon="-116.627507"><ele>2215.2</ele><time>2024-05-02T19:15:16Z</time></trkpt>
<trkpt lat="33.722645" lon="-116.627808"><ele>2211.6</ele><time>2024-05-02T19:16:46Z</time></trkpt>
<trkpt lat="33.722935" lon="-116.627626"><ele>2209.6</ele><time>2024-05-02T19:17:02Z</time></trkpt>
<trkpt lat="33.723282" lon="-116.627914"><ele>2204.0</ele><time>2024-05-02T19:17:50Z</time></trkpt>
<trkpt lat="33.723857" lon="-116.628166"><ele>2197.4</ele><time>2024-05-02T19:18:49Z</time></trkpt>
<trkpt lat="33.724031" lon="-116.628340"><ele>2195.2</ele><time>2024-05-02T19:19:06Z</time></trkpt>
<trkpt lat="33.724719" lon="-116.628523"><ele>2189.2</ele><time>2024-05-02T19:20:24Z</time></trkpt>
<trkpt lat="33.724987" lon="-116.628721"><ele>2186.0</ele><time>2024-05-02T19:20:49Z</time></trkpt>
<trkpt lat="33.725119" lon="-116.628634"><ele>2185.2</ele><time>2024-05-02T19:20:51Z</time></trkpt>
<trkpt lat="33.725057" lon="-116.628710"><ele>2185.2</ele><time>2024-05-02T19:20:52Z</time></trkpt>
<trkpt lat="33.725145" lon="-116.628826"><ele>2185.6</ele><time>2024-05-02T19:21:05Z</time></trkpt>
<trkpt lat="33.725412" lon="-116.628755"><ele>2182.8</ele><time>2024-05-02T19:22:45Z</time></trkpt>
<trkpt lat="33.725334" lon="-116.628855"><ele>2182.6</ele><time>2024-05-02T19:22:57Z</time></trkpt>
<trkpt lat="33.725600" lon="-116.629042"><ele>2183.2</ele><time>2024-05-02T19:23:20Z</time></trkpt>
<trkpt lat="33.726194" lon="-116.629014"><ele>2179.4</ele><time>2024-05-02T19:24:48Z</time></trkpt>
<trkpt lat="33.726253" lon="-116.629123"><ele>2179.0</ele><time>2024-05-02T19:24:56Z</time></trkpt>
<trkpt lat="33.726341" lon="-116.629119"><ele>2178.4</ele><time>2024-05-02T19:25:02Z</time></trkpt>
<trkpt lat="33.727013" lon="-116.628831"><ele>2173.6</ele><time>2024-05-02T19:25:58Z</time></trkpt>
<trkpt lat="33.727000" lon="-116.628959"><ele>2172.0</ele><time>2024-05-02T19:26:46Z</time></trkpt>
<trkpt lat="33.726785" lon="-116.629072"><ele>2170.4</ele><time>2024-05-02T19:27:05Z</time></trkpt>
<trkpt lat="33.726502" lon="-116.629028"><ele>2170.4</ele><time>2024-05-02T19:27:22Z</time></trkpt>
<trkpt lat="33.725906" lon="-116.628752"><ele>2163.8</ele><time>2024-05-02T19:28:46Z</time></trkpt>
<trkpt lat="33.725653" lon="-116.628809"><ele>2161.6</ele><time>2024-05-02T19:29:04Z</time></trkpt>
<trkpt lat="33.725453" lon="-116.628428"><ele>2160.8</ele><time>2024-05-02T19:29:44Z</time></trkpt>
<trkpt lat="33.725363" lon="-116.628231"><ele>2154.0</ele><time>2024-05-02T19:30:46Z</time></trkpt>
<trkpt lat="33.725216" lon="-116.628439"><ele>2153.0</ele><time>2024-05-02T19:30:54Z</time></trkpt>
<trkpt lat="33.726009" lon="-116.628453"><ele>2147.6</ele><time>2024-05-02T19:32:24Z</time></trkpt>
<trkpt lat="33.726452" lon="-116.628383"><ele>2146.4</ele><time>2024-05-02T19:32:46Z</time></trkpt>
<trkpt lat="33.726525" lon="-116.628435"><ele>2146.2</ele><time>2024-05-02T19:32:50Z</time></trkpt>
<trkpt lat="33.726380" lon="-116.628599"><ele>2146.2</ele><time>2024-05-02T19:32:54Z</time></trkpt>
<trkpt lat="33.726449" lon="-116.628658"><ele>2145.6</ele><time>2024-05-02T19:33:04Z</time></trkpt>
<trkpt lat="33.726806" lon="-116.628620"><ele>2143.4</ele><time>2024-05-02T19:33:24Z</time></trkpt>
<trkpt lat="33.727193" lon="-116.628462"><ele>2138.8</ele><time>2024-05-02T19:34:14Z</time></trkpt>
<trkpt lat="33.727623" lon="-116.628638"><ele>2136.6</ele><time>2024-05-02T19:34:52Z</time></trkpt>
<trkpt lat="33.727392" lon="-116.628860"><ele>2135.8</ele><time>2024-05-02T19:35:04Z</time></trkpt>
<trkpt lat="33.727515" lon="-116.628512"><ele>2136.2</ele><time>2024-05-02T19:36:49Z</time></trkpt>
<trkpt lat="33.727326" lon="-116.628841"><ele>2136.2</ele><time>2024-05-02T19:36:58Z</time></trkpt>
<trkpt lat="33.727526" lon="-116.628704"><ele>2139.0</ele><time>2024-05-02T19:38:52Z</time></trkpt>
<trkpt lat="33.727372" lon="-116.628852"><ele>2138.8</ele><time>2024-05-02T19:38:55Z</time></trkpt>
<trkpt lat="33.727401" lon="-116.628824"><ele>2138.6</ele><time>2024-05-02T19:39:04Z</time></trkpt>
<trkpt lat="33.727505" lon="-116.629132"><ele>2138.0</ele><time>2024-05-02T19:40:47Z</time></trkpt>
<trkpt lat="33.727554" lon="-116.629116"><ele>2137.6</ele><time>2024-05-02T19:40:49Z</time></trkpt>
<trkpt lat="33.727321" lon="-116.629151"><ele>2137.0</ele><time>2024-05-02T19:41:05Z</time></trkpt>
<trkpt lat="33.727253" lon="-116.629251"><ele>2138.8</ele><time>2024-05-02T19:41:12Z</time></trkpt>
<trkpt lat="33.727125" lon="-116.629697"><ele>2144.2</ele><time>2024-05-02T19:42:26Z</time></trkpt>
<trkpt lat="33.727110" lon="-116.629974"><ele>2145.4</ele><time>2024-05-02T19:42:49Z</time></trkpt>
<trkpt lat="33.727154" lon="-116.630034"><ele>2145.6</ele><time>2024-05-02T19:42:52Z</time></trkpt>
<trkpt lat="33.727025" lon="-116.630221"><ele>2146.2</ele><time>2024-05-02T19:43:01Z</time></trkpt>
<trkpt lat="33.727081" lon="-116.630233"><ele>2146.8</ele><time>2024-05-02T19:43:04Z</time></trkpt>
<trkpt lat="33.727185" lon="-116.630594"><ele>2149.4</ele><time>2024-05-02T19:43:46Z</time></trkpt>
<trkpt lat="33.727415" lon="-116.630764"><ele>2147.2</ele><time>2024-05-02T19:44:12Z</time></trkpt>
<trkpt lat="33.727493" lon="-116.631098"><ele>2142.8</ele><time>2024-05-02T19:44:50Z</time></trkpt>
<trkpt lat="33.727367" lon="-116.631309"><ele>2141.2</ele><time>2024-05-02T19:45:04Z</time></trkpt>
<trkpt lat="33.727447" lon="-116.631408"><ele>2138.6</ele><time>2024-05-02T19:45:26Z</time></trkpt>
<trkpt lat="33.727677" lon="-116.631459"><ele>2134.0</ele><time>2024-05-02T19:46:30Z</time></trkpt>
<trkpt lat="33.727635" lon="-116.631336"><ele>2133.0</ele><time>2024-05-02T19:46:48Z</time></trkpt>
<trkpt lat="33.727412" lon="-116.631431"><ele>2132.4</ele><time>2024-05-02T19:46:53Z</time></trkpt>
<trkpt lat="33.727459" lon="-116.630900"><ele>2128.6</ele><time>2024-05-02T19:47:44Z</time></trkpt>
<trkpt lat="33.727407" lon="-116.630742"><ele>2125.2</ele><time>2024-05-02T19:48:00Z</time></trkpt>
<trkpt lat="33.727521" lon="-116.630768"><ele>2123.0</ele><time>2024-05-02T19:48:12Z</time></trkpt>
<trkpt lat="33.727564" lon="-116.631019"><ele>2123.6</ele><time>2024-05-02T19:48:46Z</time></trkpt>
<trkpt lat="33.727667" lon="-116.631011"><ele>2122.8</ele><time>2024-05-02T19:48:51Z</time></trkpt>
<trkpt lat="33.727564" lon="-116.631195"><ele>2122.0</ele><time>2024-05-02T19:48:56Z</time></trkpt>
<trkpt lat="33.727574" lon="-116.631142"><ele>2121.0</ele><time>2024-05-02T19:49:01Z</time></trkpt>
<trkpt lat="33.727726" lon="-116.631489"><ele>2118.4</ele><time>2024-05-02T19:49:42Z</time></trkpt>
<trkpt lat="33.727800" lon="-116.632098"><ele>2111.4</ele><time>2024-05-02T19:50:45Z</time></trkpt>
<trkpt lat="33.727876" lon="-116.632101"><ele>2111.2</ele><time>2024-05-02T19:50:47Z</time></trkpt>
<trkpt lat="33.727898" lon="-116.632190"><ele>2109.6</ele><time>2024-05-02T19:50:55Z</time></trkpt>
<trkpt lat="33.727843" lon="-116.632308"><ele>2108.8</ele><time>2024-05-02T19:51:02Z</time></trkpt>
<trkpt lat="33.728005" lon="-116.632503"><ele>2106.4</ele><time>2024-05-02T19:51:30Z</time></trkpt>
<trkpt lat="33.728116" lon="-116.632923"><ele>2103.4</ele><time>2024-05-02T19:52:14Z</time></trkpt>
<trkpt lat="33.728298" lon="-116.633126"><ele>2103.6</ele><time>2024-05-02T19:52:51Z</time></trkpt>
<trkpt lat="33.728126" lon="-116.633375"><ele>2104.8</ele><time>2024-05-02T19:53:05Z</time></trkpt>
<trkpt lat="33.728423" lon="-116.633956"><ele>2106.2</ele><time>2024-05-02T19:54:22Z</time></trkpt>
<trkpt lat="33.728721" lon="-116.634314"><ele>2106.2</ele><time>2024-05-02T19:54:45Z</time></trkpt>
<trkpt lat="33.728483" lon="-116.634709"><ele>2106.0</ele><time>2024-05-02T19:55:01Z</time></trkpt>
<trkpt lat="33.728913" lon="-116.635167"><ele>2105.8</ele><time>2024-05-02T19:56:47Z</time></trkpt>
<trkpt lat="33.728931" lon="-116.635414"><ele>2106.6</ele><time>2024-05-02T19:57:01Z</time></trkpt>
<trkpt lat="33.729750" lon="-116.635814"><ele>2107.6</ele><time>2024-05-02T19:59:01Z</time></trkpt>
<trkpt lat="33.730095" lon="-116.635833"><ele>2104.0</ele><time>2024-05-02T20:00:48Z</time></trkpt>
<trkpt lat="33.730063" lon="-116.635877"><ele>2104.2</ele><time>2024-05-02T20:00:54Z</time></trkpt>
<trkpt lat="33.730111" lon="-116.635955"><ele>2103.8</ele><time>2024-05-02T20:02:40Z</time></trkpt>
<trkpt lat="33.730101" lon="-116.635868"><ele>2103.8</ele><time>2024-05-02T20:03:04Z</time></trkpt>
<trkpt lat="33.730409" lon="-116.635961"><ele>2108.4</ele><time>2024-05-02T20:04:47Z</time></trkpt>
<trkpt lat="33.730383" lon="-116.636145"><ele>2109.4</ele><time>2024-05-02T20:04:57Z</time></trkpt>
<trkpt lat="33.730572" lon="-116.636130"><ele>2108.0</ele><time>2024-05-02T20:05:12Z</time></trkpt>
<trkpt lat="33.731077" lon="-116.636469"><ele>2111.2</ele><time>2024-05-02T20:05:58Z</time></trkpt>
<trkpt lat="33.731237" lon="-116.636668"><ele>2108.8</ele><time>2024-05-02T20:06:47Z</time></trkpt>
<trkpt lat="33.731038" lon="-116.637485"><ele>2109.2</ele><time>2024-05-02T20:08:00Z</time></trkpt>
<trkpt lat="33.730955" lon="-116.637992"><ele>2107.4</ele><time>2024-05-02T20:08:52Z</time></trkpt>
<trkpt lat="33.730995" lon="-116.638134"><ele>2108.6</ele><time>2024-05-02T20:09:04Z</time></trkpt>
<trkpt lat="33.731238" lon="-116.638436"><ele>2104.6</ele><time>2024-05-02T20:09:30Z</time></trkpt>
<trkpt lat="33.731488" lon="-116.638582"><ele>2102.6</ele><time>2024-05-02T20:10:02Z</time></trkpt>
<trkpt lat="33.731725" lon="-116.638990"><ele>2102.8</ele><time>2024-05-02T20:10:49Z</time></trkpt>
<trkpt lat="33.731642" lon="-116.639035"><ele>2103.4</ele><time>2024-05-02T20:10:54Z</time></trkpt>
<trkpt lat="33.731734" lon="-116.639141"><ele>2104.8</ele><time>2024-05-02T20:11:06Z</time></trkpt>
<trkpt lat="33.732382" lon="-116.639326"><ele>2103.6</ele><time>2024-05-02T20:12:45Z</time></trkpt>
<trkpt lat="33.732467" lon="-116.639301"><ele>2102.4</ele><time>2024-05-02T20:12:56Z</time></trkpt>
<trkpt lat="33.732789" lon="-116.639941"><ele>2097.6</ele><time>2024-05-02T20:14:04Z</time></trkpt>
<trkpt lat="33.732818" lon="-116.640338"><ele>2092.8</ele><time>2024-05-02T20:14:50Z</time></trkpt>
<trkpt lat="33.732842" lon="-116.640233"><ele>2094.2</ele><time>2024-05-02T20:15:03Z</time></trkpt>
<trkpt lat="33.733434" lon="-116.640754"><ele>2095.8</ele><time>2024-05-02T20:16:45Z</time></trkpt>
<trkpt lat="33.733437" lon="-116.640704"><ele>2095.8</ele><time>2024-05-02T20:16:46Z</time></trkpt>
<trkpt lat="33.733945" lon="-116.640915"><ele>2104.2</ele><time>2024-05-02T20:18:20Z</time></trkpt>
<trkpt lat="33.734705" lon="-116.641369"><ele>2111.2</ele><time>2024-05-02T20:19:32Z</time></trkpt>
<trkpt lat="33.735088" lon="-116.641682"><ele>2115.2</ele><time>2024-05-02T20:20:45Z</time></trkpt>
<trkpt lat="33.735076" lon="-116.641617"><ele>2115.2</ele><time>2024-05-02T20:20:53Z</time></trkpt>
<trkpt lat="33.734645" lon="-116.641401"><ele>2119.0</ele><time>2024-05-02T20:22:46Z</time></trkpt>
<trkpt lat="33.734086" lon="-116.641262"><ele>2127.6</ele><time>2024-05-02T20:24:42Z</time></trkpt>
<trkpt lat="33.733807" lon="-116.641324"><ele>2137.2</ele><time>2024-05-02T20:25:44Z</time></trkpt>
<trkpt lat="33.734304" lon="-116.641710"><ele>2146.8</ele><time>2024-05-02T20:27:32Z</time></trkpt>
<trkpt lat="33.734613" lon="-116.641884"><ele>2156.2</ele><time>2024-05-02T20:29:01Z</time></trkpt>
<trkpt lat="33.734567" lon="-116.641923"><ele>2158.6</ele><time>2024-05-02T20:32:46Z</time></trkpt>
<trkpt lat="33.734620" lon="-116.641861"><ele>2159.2</ele><time>2024-05-02T20:33:01Z</time></trkpt>
<trkpt lat="33.734581" lon="-116.641869"><ele>2159.2</ele><time>2024-05-02T20:33:05Z</time></trkpt>
<trkpt lat="33.734596" lon="-116.641820"><ele>2167.8</ele><time>2024-05-02T20:34:18Z</time></trkpt>
<trkpt lat="33.734628" lon="-116.642102"><ele>2171.8</ele><time>2024-05-02T20:34:46Z</time></trkpt>
<trkpt lat="33.734474" lon="-116.642085"><ele>2172.6</ele><time>2024-05-02T20:35:01Z</time></trkpt>
<trkpt lat="33.734305" lon="-116.642161"><ele>2177.2</ele><time>2024-05-02T20:35:58Z</time></trkpt>
<trkpt lat="33.734711" lon="-116.642283"><ele>2183.0</ele><time>2024-05-02T20:36:52Z</time></trkpt>
<trkpt lat="33.734893" lon="-116.642478"><ele>2183.4</ele><time>2024-05-02T20:37:14Z</time></trkpt>
<trkpt lat="33.735080" lon="-116.642802"><ele>2180.4</ele><time>2024-05-02T20:37:44Z</time></trkpt>
<trkpt lat="33.735349" lon="-116.643151"><ele>2186.8</ele><time>2024-05-02T20:38:45Z</time></trkpt>
<trkpt lat="33.735392" lon="-116.643123"><ele>2187.2</ele><time>2024-05-02T20:38:48Z</time></trkpt>
<trkpt lat="33.735692" lon="-116.643311"><ele>2185.2</ele><time>2024-05-02T20:39:40Z</time></trkpt>
<trkpt lat="33.736072" lon="-116.643584"><ele>2188.6</ele><time>2024-05-02T20:40:38Z</time></trkpt>
<trkpt lat="33.736387" lon="-116.643557"><ele>2189.2</ele><time>2024-05-02T20:40:59Z</time></trkpt>
<trkpt lat="33.736250" lon="-116.643635"><ele>2190.8</ele><time>2024-05-02T20:41:20Z</time></trkpt>
<trkpt lat="33.736394" lon="-116.643868"><ele>2193.4</ele><time>2024-05-02T20:42:10Z</time></trkpt>
<trkpt lat="33.736425" lon="-116.644103"><ele>2193.8</ele><time>2024-05-02T20:42:24Z</time></trkpt>
<trkpt lat="33.736600" lon="-116.644457"><ele>2193.6</ele><time>2024-05-02T20:42:58Z</time></trkpt>
<trkpt lat="33.736703" lon="-116.644470"><ele>2194.0</ele><time>2024-05-02T20:43:10Z</time></trkpt>
<trkpt lat="33.736844" lon="-116.644362"><ele>2196.6</ele><time>2024-05-02T20:43:32Z</time></trkpt>
<trkpt lat="33.737512" lon="-116.644461"><ele>2194.6</ele><time>2024-05-02T20:44:51Z</time></trkpt>
<trkpt lat="33.737700" lon="-116.644819"><ele>2195.2</ele><time>2024-05-02T20:45:44Z</time></trkpt>
<trkpt lat="33.737898" lon="-116.645037"><ele>2193.6</ele><time>2024-05-02T20:46:30Z</time></trkpt>
<trkpt lat="33.739088" lon="-116.645501"><ele>2192.0</ele><time>2024-05-02T20:49:06Z</time></trkpt>
<trkpt lat="33.739320" lon="-116.645682"><ele>2205.6</ele><time>2024-05-02T20:50:40Z</time></trkpt>
<trkpt lat="33.739419" lon="-116.645790"><ele>2206.0</ele><time>2024-05-02T20:50:53Z</time></trkpt>
<trkpt lat="33.739627" lon="-116.645839"><ele>2202.6</ele><time>2024-05-02T20:51:40Z</time></trkpt>
<trkpt lat="33.740067" lon="-116.646056"><ele>2208.2</ele><time>2024-05-02T20:52:46Z</time></trkpt>
<trkpt lat="33.740140" lon="-116.646003"><ele>2208.6</ele><time>2024-05-02T20:52:51Z</time></trkpt>
<trkpt lat="33.740082" lon="-116.646049"><ele>2208.4</ele><time>2024-05-02T20:52:58Z</time></trkpt>
<trkpt lat="33.740138" lon="-116.646112"><ele>2208.4</ele><time>2024-05-02T20:53:03Z</time></trkpt>
<trkpt lat="33.740568" lon="-116.646111"><ele>2210.2</ele><time>2024-05-02T20:53:48Z</time></trkpt>
<trkpt lat="33.740970" lon="-116.645942"><ele>2216.2</ele><time>2024-05-02T20:54:46Z</time></trkpt>
<trkpt lat="33.741040" lon="-116.645871"><ele>2215.2</ele><time>2024-05-02T20:54:58Z</time></trkpt>
<trkpt lat="33.741018" lon="-116.645807"><ele>2216.0</ele><time>2024-05-02T20:55:03Z</time></trkpt>
<trkpt lat="33.741242" lon="-116.645586"><ele>2214.6</ele><time>2024-05-02T20:55:32Z</time></trkpt>
<trkpt lat="33.741677" lon="-116.645330"><ele>2213.6</ele><time>2024-05-02T20:56:49Z</time></trkpt>
<trkpt lat="33.741701" lon="-116.645201"><ele>2213.8</ele><time>2024-05-02T20:56:54Z</time></trkpt>
<trkpt lat="33.741859" lon="-116.644992"><ele>2212.8</ele><time>2024-05-02T20:57:26Z</time></trkpt>
<trkpt lat="33.742173" lon="-116.644777"><ele>2215.8</ele><time>2024-05-02T20:58:48Z</time></trkpt>
<trkpt lat="33.742100" lon="-116.644658"><ele>2215.8</ele><time>2024-05-02T20:59:02Z</time></trkpt>
<trkpt lat="33.742373" lon="-116.644840"><ele>2222.2</ele><time>2024-05-02T20:59:42Z</time></trkpt>
<trkpt lat="33.742813" lon="-116.645181"><ele>2222.2</ele><time>2024-05-02T21:00:48Z</time></trkpt>
<trkpt lat="33.742874" lon="-116.645328"><ele>2222.6</ele><time>2024-05-02T21:00:57Z</time></trkpt>
<trkpt lat="33.743303" lon="-116.645331"><ele>2228.6</ele><time>2024-05-02T21:02:48Z</time></trkpt>
<trkpt lat="33.743301" lon="-116.645400"><ele>2229.0</ele><time>2024-05-02T21:02:56Z</time></trkpt>
<trkpt lat="33.743481" lon="-116.645433"><ele>2231.0</ele><time>2024-05-02T21:03:18Z</time></trkpt>
<trkpt lat="33.743948" lon="-116.645436"><ele>2239.4</ele><time>2024-05-02T21:04:48Z</time></trkpt>
<trkpt lat="33.743698" lon="-116.645475"><ele>2240.8</ele><time>2024-05-02T21:05:14Z</time></trkpt>
<trkpt lat="33.743132" lon="-116.645758"><ele>2248.6</ele><time>2024-05-02T21:06:45Z</time></trkpt>
<trkpt lat="33.742090" lon="-116.645369"><ele>2254.2</ele><time>2024-05-02T21:10:52Z</time></trkpt>
<trkpt lat="33.742144" lon="-116.645433"><ele>2254.2</ele><time>2024-05-02T21:10:53Z</time></trkpt>
<trkpt lat="33.742084" lon="-116.645347"><ele>2254.2</ele><time>2024-05-02T21:10:54Z</time></trkpt>
<trkpt lat="33.742120" lon="-116.645364"><ele>2253.8</ele><time>2024-05-02T21:11:05Z</time></trkpt>
<trkpt lat="33.741940" lon="-116.645789"><ele>2256.6</ele><time>2024-05-02T21:12:47Z</time></trkpt>
<trkpt lat="33.741404" lon="-116.646071"><ele>2264.2</ele><time>2024-05-02T21:14:18Z</time></trkpt>
<trkpt lat="33.741163" lon="-116.646434"><ele>2265.0</ele><time>2024-05-02T21:14:47Z</time></trkpt>
<trkpt lat="33.741094" lon="-116.646446"><ele>2265.6</ele><time>2024-05-02T21:15:02Z</time></trkpt>
<trkpt lat="33.740860" lon="-116.646923"><ele>2274.0</ele><time>2024-05-02T21:16:25Z</time></trkpt>
<trkpt lat="33.740560" lon="-116.647372"><ele>2278.6</ele><time>2024-05-02T21:17:01Z</time></trkpt>
<trkpt lat="33.740654" lon="-116.647536"><ele>2279.6</ele><time>2024-05-02T21:17:13Z</time></trkpt>
<trkpt lat="33.741074" lon="-116.647808"><ele>2282.0</ele><time>2024-05-02T21:18:25Z</time></trkpt>
<trkpt lat="33.741211" lon="-116.647852"><ele>2282.0</ele><time>2024-05-02T21:18:54Z</time></trkpt>
<trkpt lat="33.741182" lon="-116.647794"><ele>2284.4</ele><time>2024-05-02T21:22:46Z</time></trkpt>
<trkpt lat="33.741207" lon="-116.647874"><ele>2284.4</ele><time>2024-05-02T21:22:53Z</time></trkpt>
<trkpt lat="33.741243" lon="-116.647885"><ele>2292.0</ele><time>2024-05-02T21:24:46Z</time></trkpt>
<trkpt lat="33.741206" lon="-116.647851"><ele>2293.0</ele><time>2024-05-02T21:24:58Z</time></trkpt>
<trkpt lat="33.741259" lon="-116.647789"><ele>2294.2</ele><time>2024-05-02T21:27:06Z</time></trkpt>
<trkpt lat="33.741188" lon="-116.647911"><ele>2295.6</ele><time>2024-05-02T21:28:53Z</time></trkpt>
<trkpt lat="33.741218" lon="-116.647858"><ele>2295.0</ele><time>2024-05-02T21:29:03Z</time></trkpt>
<trkpt lat="33.741580" lon="-116.648502"><ele>2293.2</ele><time>2024-05-02T21:30:47Z</time></trkpt>
<trkpt lat="33.741649" lon="-116.648484"><ele>2293.2</ele><time>2024-05-02T21:30:49Z</time></trkpt>
<trkpt lat="33.741882" lon="-116.649472"><ele>2295.4</ele><time>2024-05-02T21:32:33Z</time></trkpt>
<trkpt lat="33.742097" lon="-116.650019"><ele>2295.2</ele><time>2024-05-02T21:33:04Z</time></trkpt>
<trkpt lat="33.742322" lon="-116.649956"><ele>2298.4</ele><time>2024-05-02T21:33:49Z</time></trkpt>
<trkpt lat="33.742169" lon="-116.649819"><ele>2302.4</ele><time>2024-05-02T21:34:50Z</time></trkpt>
<trkpt lat="33.742056" lon="-116.648336"><ele>2314.2</ele><time>2024-05-02T21:37:02Z</time></trkpt>
<trkpt lat="33.741849" lon="-116.647673"><ele>2321.0</ele><time>2024-05-02T21:38:19Z</time></trkpt>
<trkpt lat="33.741597" lon="-116.647303"><ele>2323.8</ele><time>2024-05-02T21:38:48Z</time></trkpt>
<trkpt lat="33.741564" lon="-116.647122"><ele>2324.0</ele><time>2024-05-02T21:39:03Z</time></trkpt>
<trkpt lat="33.741943" lon="-116.646908"><ele>2325.8</ele><time>2024-05-02T21:39:51Z</time></trkpt>
<trkpt lat="33.742364" lon="-116.646811"><ele>2329.4</ele><time>2024-05-02T21:40:57Z</time></trkpt>
<trkpt lat="33.742534" lon="-116.646905"><ele>2327.0</ele><time>2024-05-02T21:41:27Z</time></trkpt>
<trkpt lat="33.742764" lon="-116.647141"><ele>2331.4</ele><time>2024-05-02T21:42:46Z</time></trkpt>
<trkpt lat="33.742888" lon="-116.647119"><ele>2332.4</ele><time>2024-05-02T21:42:55Z</time></trkpt>
<trkpt lat="33.743277" lon="-116.647297"><ele>2334.8</ele><time>2024-05-02T21:43:53Z</time></trkpt>
<trkpt lat="33.743694" lon="-116.647317"><ele>2337.6</ele><time>2024-05-02T21:44:50Z</time></trkpt>
<trkpt lat="33.743940" lon="-116.647490"><ele>2343.2</ele><time>2024-05-02T21:45:56Z</time></trkpt>
<trkpt lat="33.744188" lon="-116.647547"><ele>2345.2</ele><time>2024-05-02T21:46:18Z</time></trkpt>
<trkpt lat="33.744329" lon="-116.647796"><ele>2340.4</ele><time>2024-05-02T21:46:58Z</time></trkpt>
<trkpt lat="33.744272" lon="-116.647855"><ele>2340.2</ele><time>2024-05-02T21:47:01Z</time></trkpt>
<trkpt lat="33.744431" lon="-116.647924"><ele>2340.4</ele><time>2024-05-02T21:47:05Z</time></trkpt>
<trkpt lat="33.744423" lon="-116.647997"><ele>2340.2</ele><time>2024-05-02T21:47:15Z</time></trkpt>
<trkpt lat="33.744840" lon="-116.648446"><ele>2337.4</ele><time>2024-05-02T21:48:54Z</time></trkpt>
<trkpt lat="33.744920" lon="-116.648435"><ele>2336.8</ele><time>2024-05-02T21:49:04Z</time></trkpt>
<trkpt lat="33.745144" lon="-116.648641"><ele>2330.0</ele><time>2024-05-02T21:49:53Z</time></trkpt>
<trkpt lat="33.745499" lon="-116.648967"><ele>2336.0</ele><time>2024-05-02T21:50:52Z</time></trkpt>
<trkpt lat="33.745447" lon="-116.649000"><ele>2336.0</ele><time>2024-05-02T21:50:56Z</time></trkpt>
<trkpt lat="33.745558" lon="-116.648805"><ele>2331.2</ele><time>2024-05-02T21:52:51Z</time></trkpt>
<trkpt lat="33.746675" lon="-116.649055"><ele>2323.4</ele><time>2024-05-02T21:55:09Z</time></trkpt>
<trkpt lat="33.746954" lon="-116.648949"><ele>2325.8</ele><time>2024-05-02T21:56:07Z</time></trkpt>
<trkpt lat="33.747306" lon="-116.648659"><ele>2327.8</ele><time>2024-05-02T21:56:51Z</time></trkpt>
<trkpt lat="33.747385" lon="-116.648760"><ele>2327.6</ele><time>2024-05-02T21:57:04Z</time></trkpt>
<trkpt lat="33.748052" lon="-116.648537"><ele>2331.6</ele><time>2024-05-02T21:58:48Z</time></trkpt>
<trkpt lat="33.748082" lon="-116.648595"><ele>2331.4</ele><time>2024-05-02T21:58:50Z</time></trkpt>
<trkpt lat="33.748416" lon="-116.648672"><ele>2329.0</ele><time>2024-05-02T21:59:29Z</time></trkpt>
<trkpt lat="33.749165" lon="-116.648583"><ele>2324.6</ele><time>2024-05-02T22:00:46Z</time></trkpt>
<trkpt lat="33.749171" lon="-116.648649"><ele>2324.4</ele><time>2024-05-02T22:00:55Z</time></trkpt>
<trkpt lat="33.749369" lon="-116.648711"><ele>2330.0</ele><time>2024-05-02T22:01:47Z</time></trkpt>
<trkpt lat="33.749464" lon="-116.648866"><ele>2332.2</ele><time>2024-05-02T22:02:17Z</time></trkpt>
<trkpt lat="33.749503" lon="-116.648620"><ele>2335.6</ele><time>2024-05-02T22:02:49Z</time></trkpt>
<trkpt lat="33.749404" lon="-116.648505"><ele>2338.8</ele><time>2024-05-02T22:03:05Z</time></trkpt>
<trkpt lat="33.749532" lon="-116.648369"><ele>2345.4</ele><time>2024-05-02T22:03:43Z</time></trkpt>
<trkpt lat="33.749810" lon="-116.648135"><ele>2346.8</ele><time>2024-05-02T22:05:05Z</time></trkpt>
<trkpt lat="33.749880" lon="-116.648271"><ele>2347.8</ele><time>2024-05-02T22:06:52Z</time></trkpt>
<trkpt lat="33.749811" lon="-116.648166"><ele>2348.2</ele><time>2024-05-02T22:07:01Z</time></trkpt>
<trkpt lat="33.749835" lon="-116.648100"><ele>2348.2</ele><time>2024-05-02T22:07:12Z</time></trkpt>
<trkpt lat="33.750247" lon="-116.647982"><ele>2356.0</ele><time>2024-05-02T22:08:42Z</time></trkpt>
<trkpt lat="33.750291" lon="-116.647905"><ele>2356.8</ele><time>2024-05-02T22:08:45Z</time></trkpt>
<trkpt lat="33.750340" lon="-116.647988"><ele>2357.2</ele><time>2024-05-02T22:08:46Z</time></trkpt>
<trkpt lat="33.750351" lon="-116.647894"><ele>2358.0</ele><time>2024-05-02T22:08:49Z</time></trkpt>
<trkpt lat="33.750512" lon="-116.647790"><ele>2359.4</ele><time>2024-05-02T22:09:05Z</time></trkpt>
<trkpt lat="33.750804" lon="-116.647978"><ele>2363.8</ele><time>2024-05-02T22:09:32Z</time></trkpt>
<trkpt lat="33.751209" lon="-116.648431"><ele>2372.6</ele><time>2024-05-02T22:10:45Z</time></trkpt>
<trkpt lat="33.751352" lon="-116.648345"><ele>2372.2</ele><time>2024-05-02T22:10:56Z</time></trkpt>
<trkpt lat="33.751687" lon="-116.648327"><ele>2375.0</ele><time>2024-05-02T22:11:23Z</time></trkpt>
<trkpt lat="33.751954" lon="-116.648446"><ele>2379.4</ele><time>2024-05-02T22:11:53Z</time></trkpt>
<trkpt lat="33.752115" lon="-116.648371"><ele>2381.6</ele><time>2024-05-02T22:12:23Z</time></trkpt>
<trkpt lat="33.752226" lon="-116.648402"><ele>2382.8</ele><time>2024-05-02T22:12:31Z</time></trkpt>
<trkpt lat="33.752700" lon="-116.648780"><ele>2382.6</ele><time>2024-05-02T22:13:27Z</time></trkpt>
<trkpt lat="33.752883" lon="-116.648994"><ele>2394.0</ele><time>2024-05-02T22:14:35Z</time></trkpt>
<trkpt lat="33.753038" lon="-116.649113"><ele>2395.2</ele><time>2024-05-02T22:14:47Z</time></trkpt>
<trkpt lat="33.753595" lon="-116.649015"><ele>2406.0</ele><time>2024-05-02T22:16:46Z</time></trkpt>
<trkpt lat="33.754379" lon="-116.648429"><ele>2413.6</ele><time>2024-05-02T22:18:05Z</time></trkpt>
<trkpt lat="33.754589" lon="-116.648124"><ele>2418.0</ele><time>2024-05-02T22:18:46Z</time></trkpt>
<trkpt lat="33.754472" lon="-116.648256"><ele>2418.2</ele><time>2024-05-02T22:18:48Z</time></trkpt>
<trkpt lat="33.754491" lon="-116.648123"><ele>2420.8</ele><time>2024-05-02T22:19:03Z</time></trkpt>
<trkpt lat="33.755350" lon="-116.648544"><ele>2432.0</ele><time>2024-05-02T22:20:46Z</time></trkpt>
<trkpt lat="33.755337" lon="-116.648420"><ele>2432.2</ele><time>2024-05-02T22:20:47Z</time></trkpt>
<trkpt lat="33.755382" lon="-116.648399"><ele>2432.6</ele><time>2024-05-02T22:20:49Z</time></trkpt>
<trkpt lat="33.755739" lon="-116.648510"><ele>2437.2</ele><time>2024-05-02T22:21:23Z</time></trkpt>
<trkpt lat="33.755897" lon="-116.648441"><ele>2437.8</ele><time>2024-05-02T22:21:43Z</time></trkpt>
<trkpt lat="33.756097" lon="-116.648515"><ele>2445.6</ele><time>2024-05-02T22:22:43Z</time></trkpt>
<trkpt lat="33.756433" lon="-116.648439"><ele>2446.4</ele><time>2024-05-02T22:22:49Z</time></trkpt>
<trkpt lat="33.756475" lon="-116.648345"><ele>2446.6</ele><time>2024-05-02T22:22:52Z</time></trkpt>
<trkpt lat="33.756891" lon="-116.648109"><ele>2449.2</ele><time>2024-05-02T22:23:13Z</time></trkpt>
<trkpt lat="33.757071" lon="-116.648069"><ele>2454.4</ele><time>2024-05-02T22:24:48Z</time></trkpt>
<trkpt lat="33.756904" lon="-116.648105"><ele>2454.4</ele><time>2024-05-02T22:25:02Z</time></trkpt>
<trkpt lat="33.756949" lon="-116.648745"><ele>2464.6</ele><time>2024-05-02T22:26:43Z</time></trkpt>
<trkpt lat="33.756872" lon="-116.648777"><ele>2465.0</ele><time>2024-05-02T22:26:47Z</time></trkpt>
<trkpt lat="33.757382" lon="-116.648595"><ele>2465.2</ele><time>2024-05-02T22:26:49Z</time></trkpt>
<trkpt lat="33.757420" lon="-116.648507"><ele>2465.4</ele><time>2024-05-02T22:26:52Z</time></trkpt>
<trkpt lat="33.758277" lon="-116.648476"><ele>2480.8</ele><time>2024-05-02T22:28:47Z</time></trkpt>
<trkpt lat="33.758300" lon="-116.648430"><ele>2481.2</ele><time>2024-05-02T22:28:50Z</time></trkpt>
<trkpt lat="33.758409" lon="-116.648454"><ele>2483.6</ele><time>2024-05-02T22:29:06Z</time></trkpt>
<trkpt lat="33.758432" lon="-116.648565"><ele>2484.8</ele><time>2024-05-02T22:30:49Z</time></trkpt>
<trkpt lat="33.758536" lon="-116.648477"><ele>2486.0</ele><time>2024-05-02T22:31:03Z</time></trkpt>
<trkpt lat="33.758333" lon="-116.648656"><ele>2487.2</ele><time>2024-05-02T22:32:46Z</time></trkpt>
<trkpt lat="33.758588" lon="-116.648623"><ele>2487.6</ele><time>2024-05-02T22:32:49Z</time></trkpt>
<trkpt lat="33.758511" lon="-116.648546"><ele>2488.2</ele><time>2024-05-02T22:33:02Z</time></trkpt>
<trkpt lat="33.758562" lon="-116.648518"><ele>2487.6</ele><time>2024-05-02T22:34:31Z</time></trkpt>
<trkpt lat="33.758525" lon="-116.648563"><ele>2487.8</ele><time>2024-05-02T22:34:50Z</time></trkpt>
<trkpt lat="33.758505" lon="-116.648512"><ele>2488.2</ele><time>2024-05-02T22:35:03Z</time></trkpt>
<trkpt lat="33.759025" lon="-116.648467"><ele>2487.4</ele><time>2024-05-02T22:36:50Z</time></trkpt>
<trkpt lat="33.758579" lon="-116.648472"><ele>2487.4</ele><time>2024-05-02T22:36:54Z</time></trkpt>
<trkpt lat="33.758602" lon="-116.648620"><ele>2492.0</ele><time>2024-05-02T22:38:48Z</time></trkpt>
<trkpt lat="33.758664" lon="-116.648581"><ele>2493.6</ele><time>2024-05-02T22:38:57Z</time></trkpt>
<trkpt lat="33.758812" lon="-116.648702"><ele>2493.0</ele><time>2024-05-02T22:39:27Z</time></trkpt>
<trkpt lat="33.758985" lon="-116.648697"><ele>2495.0</ele><time>2024-05-02T22:40:39Z</time></trkpt>
<trkpt lat="33.759386" lon="-116.648356"><ele>2504.8</ele><time>2024-05-02T22:42:03Z</time></trkpt>
<trkpt lat="33.759524" lon="-116.648221"><ele>2502.4</ele><time>2024-05-02T22:42:52Z</time></trkpt>
<trkpt lat="33.759783" lon="-116.647735"><ele>2503.4</ele><time>2024-05-02T22:44:34Z</time></trkpt>
<trkpt lat="33.759945" lon="-116.646762"><ele>2508.4</ele><time>2024-05-02T22:46:45Z</time></trkpt>
<trkpt lat="33.759971" lon="-116.646815"><ele>2507.8</ele><time>2024-05-02T22:46:54Z</time></trkpt>
<trkpt lat="33.760032" lon="-116.646597"><ele>2505.4</ele><time>2024-05-02T22:48:46Z</time></trkpt>
<trkpt lat="33.760147" lon="-116.646470"><ele>2506.4</ele><time>2024-05-02T22:49:03Z</time></trkpt>
<trkpt lat="33.760411" lon="-116.645889"><ele>2516.4</ele><time>2024-05-02T22:50:50Z</time></trkpt>
<trkpt lat="33.760367" lon="-116.645837"><ele>2516.8</ele><time>2024-05-02T22:51:02Z</time></trkpt>
<trkpt lat="33.760429" lon="-116.645557"><ele>2510.8</ele><time>2024-05-02T22:51:35Z</time></trkpt>
<trkpt lat="33.760486" lon="-116.645197"><ele>2512.8</ele><time>2024-05-02T22:52:23Z</time></trkpt>
<trkpt lat="33.760714" lon="-116.644622"><ele>2513.0</ele><time>2024-05-02T22:53:03Z</time></trkpt>
<trkpt lat="33.760697" lon="-116.644448"><ele>2512.0</ele><time>2024-05-02T22:53:23Z</time></trkpt>
<trkpt lat="33.760841" lon="-116.644215"><ele>2518.0</ele><time>2024-05-02T22:53:57Z</time></trkpt>
<trkpt lat="33.760907" lon="-116.644426"><ele>2512.6</ele><time>2024-05-02T22:54:46Z</time></trkpt>
<trkpt lat="33.760965" lon="-116.644455"><ele>2512.4</ele><time>2024-05-02T22:54:56Z</time></trkpt>
<trkpt lat="33.760923" lon="-116.644562"><ele>2512.4</ele><time>2024-05-02T22:56:15Z</time></trkpt>
<trkpt lat="33.760933" lon="-116.644466"><ele>2512.0</ele><time>2024-05-02T22:56:46Z</time></trkpt>
<trkpt lat="33.760976" lon="-116.644482"><ele>2512.2</ele><time>2024-05-02T22:56:57Z</time></trkpt>
<trkpt lat="33.760939" lon="-116.644467"><ele>2512.4</ele><time>2024-05-02T22:57:25Z</time></trkpt>
</trkseg></trk>
</gpx>
