<?xml version="1.0" encoding="UTF-8"?>
<gpx version="1.1" creator="Eric Sichak trip reports" xmlns="http://www.topografix.com/GPX/1/1">
<metadata><name>PCT Day 12- San Jacinto</name><time>2024-05-03T14:43:21Z</time></metadata>
<trk><name>PCT Day 12- San Jacinto</name><type>hike</type><trkseg>
<trkpt lat="33.760935" lon="-116.644471"><ele>2504.6</ele><time>2024-05-03T14:43:21Z</time></trkpt>
<trkpt lat="33.760838" lon="-116.644384"><ele>2505.2</ele><time>2024-05-03T14:43:28Z</time></trkpt>
<trkpt lat="33.760790" lon="-116.644603"><ele>2504.4</ele><time>2024-05-03T14:43:46Z</time></trkpt>
<trkpt lat="33.760624" lon="-116.644922"><ele>2508.0</ele><time>2024-05-03T14:44:22Z</time></trkpt>
<trkpt lat="33.760536" lon="-116.645302"><ele>2511.6</ele><time>2024-05-03T14:44:52Z</time></trkpt>
<trkpt lat="33.760562" lon="-116.645669"><ele>2512.6</ele><time>2024-05-03T14:45:18Z</time></trkpt>
<trkpt lat="33.760707" lon="-116.646237"><ele>2522.6</ele><time>2024-05-03T14:46:42Z</time></trkpt>
<trkpt lat="33.760654" lon="-116.646680"><ele>2531.0</ele><time>2024-05-03T14:48:17Z</time></trkpt>
<trkpt lat="33.760697" lon="-116.646871"><ele>2530.2</ele><time>2024-05-03T14:48:44Z</time></trkpt>
<trkpt lat="33.760887" lon="-116.646690"><ele>2530.0</ele><time>2024-05-03T14:48:47Z</time></trkpt>
<trkpt lat="33.760744" lon="-116.646702"><ele>2530.0</ele><time>2024-05-03T14:48:49Z</time></trkpt>
<trkpt lat="33.760773" lon="-116.646774"><ele>2528.8</ele><time>2024-05-03T14:49:11Z</time></trkpt>
<trkpt lat="33.760624" lon="-116.646815"><ele>2526.6</ele><time>2024-05-03T14:49:23Z</time></trkpt>
<trkpt lat="33.760765" lon="-116.646202"><ele>2530.6</ele><time>2024-05-03T14:50:42Z</time></trkpt>
<trkpt lat="33.760831" lon="-116.646222"><ele>2530.6</ele><time>2024-05-03T14:50:49Z</time></trkpt>
<trkpt lat="33.760868" lon="-116.645600"><ele>2528.0</ele><time>2024-05-03T14:52:48Z</time></trkpt>
<trkpt lat="33.760942" lon="-116.645450"><ele>2525.4</ele><time>2024-05-03T14:54:11Z</time></trkpt>
<trkpt lat="33.760936" lon="-116.645280"><ele>2529.4</ele><time>2024-05-03T14:54:59Z</time></trkpt>
<trkpt lat="33.761061" lon="-116.645240"><ele>2515.8</ele><time>2024-05-03T14:56:05Z</time></trkpt>
<trkpt lat="33.761422" lon="-116.645289"><ele>2516.2</ele><time>2024-05-03T14:56:42Z</time></trkpt>
<trkpt lat="33.761415" lon="-116.645189"><ele>2516.4</ele><time>2024-05-03T14:56:44Z</time></trkpt>
<trkpt lat="33.761584" lon="-116.645088"><ele>2519.2</ele><time>2024-05-03T14:57:02Z</time></trkpt>
<trkpt lat="33.762172" lon="-116.645186"><ele>2519.2</ele><time>2024-05-03T14:58:43Z</time></trkpt>
<trkpt lat="33.762223" lon="-116.645218"><ele>2519.4</ele><time>2024-05-03T14:58:45Z</time></trkpt>
<trkpt lat="33.762180" lon="-116.645394"><ele>2522.6</ele><time>2024-05-03T14:59:00Z</time></trkpt>
<trkpt lat="33.762729" lon="-116.645594"><ele>2519.8</ele><time>2024-05-03T15:00:43Z</time></trkpt>
<trkpt lat="33.762819" lon="-116.645790"><ele>2521.4</ele><time>2024-05-03T15:01:01Z</time></trkpt>
<trkpt lat="33.762888" lon="-116.646422"><ele>2523.8</ele><time>2024-05-03T15:02:46Z</time></trkpt>
<trkpt lat="33.762984" lon="-116.646482"><ele>2525.2</ele><time>2024-05-03T15:03:00Z</time></trkpt>
<trkpt lat="33.763047" lon="-116.646900"><ele>2533.8</ele><time>2024-05-03T15:03:57Z</time></trkpt>
<trkpt lat="33.763148" lon="-116.647352"><ele>2535.2</ele><time>2024-05-03T15:04:45Z</time></trkpt>
<trkpt lat="33.763059" lon="-116.647251"><ele>2536.8</ele><time>2024-05-03T15:05:02Z</time></trkpt>
<trkpt lat="33.762890" lon="-116.647381"><ele>2536.2</ele><time>2024-05-03T15:05:23Z</time></trkpt>
<trkpt lat="33.762692" lon="-116.647778"><ele>2529.6</ele><time>2024-05-03T15:06:19Z</time></trkpt>
<trkpt lat="33.762424" lon="-116.648104"><ele>2532.4</ele><time>2024-05-03T15:06:55Z</time></trkpt>
<trkpt lat="33.762183" lon="-116.648551"><ele>2531.4</ele><time>2024-05-03T15:08:42Z</time></trkpt>
<trkpt lat="33.762284" lon="-116.648756"><ele>2531.6</ele><time>2024-05-03T15:08:44Z</time></trkpt>
<trkpt lat="33.762170" lon="-116.649034"><ele>2529.6</ele><time>2024-05-03T15:10:43Z</time></trkpt>
<trkpt lat="33.762247" lon="-116.649208"><ele>2530.8</ele><time>2024-05-03T15:10:53Z</time></trkpt>
<trkpt lat="33.762518" lon="-116.649390"><ele>2531.4</ele><time>2024-05-03T15:11:11Z</time></trkpt>
<trkpt lat="33.762726" lon="-116.649641"><ele>2530.0</ele><time>2024-05-03T15:12:52Z</time></trkpt>
<trkpt lat="33.762660" lon="-116.649972"><ele>2531.8</ele><time>2024-05-03T15:13:39Z</time></trkpt>
<trkpt lat="33.762406" lon="-116.650553"><ele>2528.6</ele><time>2024-05-03T15:14:58Z</time></trkpt>
<trkpt lat="33.762342" lon="-116.651476"><ele>2527.8</ele><time>2024-05-03T15:16:42Z</time></trkpt>
<trkpt lat="33.762156" lon="-116.651391"><ele>2528.0</ele><time>2024-05-03T15:16:44Z</time></trkpt>
<trkpt lat="33.762162" lon="-116.651835"><ele>2523.2</ele><time>2024-05-03T15:18:43Z</time></trkpt>
<trkpt lat="33.762281" lon="-116.652070"><ele>2523.2</ele><time>2024-05-03T15:18:48Z</time></trkpt>
<trkpt lat="33.762292" lon="-116.652442"><ele>2523.6</ele><time>2024-05-03T15:19:36Z</time></trkpt>
<trkpt lat="33.762531" lon="-116.653087"><ele>2524.0</ele><time>2024-05-03T15:20:56Z</time></trkpt>
<trkpt lat="33.762610" lon="-116.653796"><ele>2516.4</ele><time>2024-05-03T15:22:43Z</time></trkpt>
<trkpt lat="33.763034" lon="-116.654268"><ele>2517.8</ele><time>2024-05-03T15:24:49Z</time></trkpt>
<trkpt lat="33.762829" lon="-116.653977"><ele>2518.0</ele><time>2024-05-03T15:24:54Z</time></trkpt>
<trkpt lat="33.762867" lon="-116.654066"><ele>2518.4</ele><time>2024-05-03T15:25:01Z</time></trkpt>
<trkpt lat="33.762997" lon="-116.654091"><ele>2518.2</ele><time>2024-05-03T15:25:14Z</time></trkpt>
<trkpt lat="33.763435" lon="-116.654514"><ele>2522.8</ele><time>2024-05-03T15:26:43Z</time></trkpt>
<trkpt lat="33.763447" lon="-116.655043"><ele>2529.4</ele><time>2024-05-03T15:27:34Z</time></trkpt>
<trkpt lat="33.763366" lon="-116.655235"><ele>2531.2</ele><time>2024-05-03T15:27:54Z</time></trkpt>
<trkpt lat="33.763080" lon="-116.655379"><ele>2531.8</ele><time>2024-05-03T15:28:24Z</time></trkpt>
<trkpt lat="33.762975" lon="-116.655505"><ele>2534.0</ele><time>2024-05-03T15:28:43Z</time></trkpt>
<trkpt lat="33.762926" lon="-116.655699"><ele>2533.8</ele><time>2024-05-03T15:29:01Z</time></trkpt>
<trkpt lat="33.763006" lon="-116.656726"><ele>2528.4</ele><time>2024-05-03T15:30:44Z</time></trkpt>
<trkpt lat="33.762899" lon="-116.656718"><ele>2527.8</ele><time>2024-05-03T15:30:56Z</time></trkpt>
<trkpt lat="33.762899" lon="-116.657121"><ele>2525.0</ele><time>2024-05-03T15:31:29Z</time></trkpt>
<trkpt lat="33.762823" lon="-116.657443"><ele>2528.6</ele><time>2024-05-03T15:32:25Z</time></trkpt>
<trkpt lat="33.762688" lon="-116.657700"><ele>2530.6</ele><time>2024-05-03T15:32:45Z</time></trkpt>
<trkpt lat="33.762698" lon="-116.657786"><ele>2530.8</ele><time>2024-05-03T15:32:58Z</time></trkpt>
<trkpt lat="33.762394" lon="-116.658335"><ele>2529.6</ele><time>2024-05-03T15:34:24Z</time></trkpt>
<trkpt lat="33.762373" lon="-116.658576"><ele>2530.2</ele><time>2024-05-03T15:34:46Z</time></trkpt>
<trkpt lat="33.762430" lon="-116.658604"><ele>2529.6</ele><time>2024-05-03T15:34:49Z</time></trkpt>
<trkpt lat="33.762466" lon="-116.659054"><ele>2526.2</ele><time>2024-05-03T15:36:04Z</time></trkpt>
<trkpt lat="33.762428" lon="-116.659449"><ele>2519.0</ele><time>2024-05-03T15:36:44Z</time></trkpt>
<trkpt lat="33.762485" lon="-116.659589"><ele>2517.4</ele><time>2024-05-03T15:37:03Z</time></trkpt>
<trkpt lat="33.762378" lon="-116.660236"><ele>2511.8</ele><time>2024-05-03T15:37:58Z</time></trkpt>
<trkpt lat="33.762290" lon="-116.660322"><ele>2510.8</ele><time>2024-05-03T15:38:12Z</time></trkpt>
<trkpt lat="33.762216" lon="-116.660537"><ele>2508.4</ele><time>2024-05-03T15:38:44Z</time></trkpt>
<trkpt lat="33.762271" lon="-116.660486"><ele>2508.0</ele><time>2024-05-03T15:38:49Z</time></trkpt>
<trkpt lat="33.762169" lon="-116.660624"><ele>2507.0</ele><time>2024-05-03T15:38:58Z</time></trkpt>
<trkpt lat="33.761757" lon="-116.661706"><ele>2500.2</ele><time>2024-05-03T15:40:44Z</time></trkpt>
<trkpt lat="33.761621" lon="-116.661780"><ele>2501.6</ele><time>2024-05-03T15:41:02Z</time></trkpt>
<trkpt lat="33.761207" lon="-116.662520"><ele>2498.6</ele><time>2024-05-03T15:42:28Z</time></trkpt>
<trkpt lat="33.761065" lon="-116.662706"><ele>2498.8</ele><time>2024-05-03T15:43:01Z</time></trkpt>
<trkpt lat="33.760138" lon="-116.663172"><ele>2501.4</ele><time>2024-05-03T15:44:45Z</time></trkpt>
<trkpt lat="33.760261" lon="-116.663388"><ele>2500.6</ele><time>2024-05-03T15:45:00Z</time></trkpt>
<trkpt lat="33.760217" lon="-116.663944"><ele>2498.8</ele><time>2024-05-03T15:46:58Z</time></trkpt>
<trkpt lat="33.759731" lon="-116.664383"><ele>2498.8</ele><time>2024-05-03T15:48:32Z</time></trkpt>
<trkpt lat="33.759606" lon="-116.664573"><ele>2497.8</ele><time>2024-05-03T15:48:44Z</time></trkpt>
<trkpt lat="33.759739" lon="-116.664655"><ele>2497.6</ele><time>2024-05-03T15:48:46Z</time></trkpt>
<trkpt lat="33.759795" lon="-116.664817"><ele>2488.8</ele><time>2024-05-03T15:50:18Z</time></trkpt>
<trkpt lat="33.759920" lon="-116.664991"><ele>2485.8</ele><time>2024-05-03T15:50:51Z</time></trkpt>
<trkpt lat="33.759892" lon="-116.665452"><ele>2486.4</ele><time>2024-05-03T15:52:20Z</time></trkpt>
<trkpt lat="33.759962" lon="-116.665641"><ele>2487.0</ele><time>2024-05-03T15:52:45Z</time></trkpt>
<trkpt lat="33.759902" lon="-116.665580"><ele>2487.2</ele><time>2024-05-03T15:52:46Z</time></trkpt>
<trkpt lat="33.759979" lon="-116.665527"><ele>2487.8</ele><time>2024-05-03T15:52:53Z</time></trkpt>
<trkpt lat="33.759890" lon="-116.665552"><ele>2488.2</ele><time>2024-05-03T15:53:01Z</time></trkpt>
<trkpt lat="33.760253" lon="-116.665552"><ele>2486.0</ele><time>2024-05-03T15:53:30Z</time></trkpt>
<trkpt lat="33.760625" lon="-116.665750"><ele>2484.0</ele><time>2024-05-03T15:54:44Z</time></trkpt>
<trkpt lat="33.760725" lon="-116.665703"><ele>2484.2</ele><time>2024-05-03T15:54:47Z</time></trkpt>
<trkpt lat="33.760657" lon="-116.665735"><ele>2484.6</ele><time>2024-05-03T15:54:54Z</time></trkpt>
<trkpt lat="33.760599" lon="-116.665934"><ele>2486.4</ele><time>2024-05-03T15:55:20Z</time></trkpt>
<trkpt lat="33.760267" lon="-116.665951"><ele>2495.6</ele><time>2024-05-03T15:56:44Z</time></trkpt>
<trkpt lat="33.760317" lon="-116.665986"><ele>2496.2</ele><time>2024-05-03T15:56:47Z</time></trkpt>
<trkpt lat="33.760298" lon="-116.666079"><ele>2496.6</ele><time>2024-05-03T15:56:56Z</time></trkpt>
<trkpt lat="33.760522" lon="-116.667014"><ele>2503.4</ele><time>2024-05-03T15:58:47Z</time></trkpt>
<trkpt lat="33.760510" lon="-116.666971"><ele>2504.8</ele><time>2024-05-03T15:59:01Z</time></trkpt>
<trkpt lat="33.760940" lon="-116.667762"><ele>2516.0</ele><time>2024-05-03T16:00:44Z</time></trkpt>
<trkpt lat="33.760843" lon="-116.667828"><ele>2517.2</ele><time>2024-05-03T16:01:00Z</time></trkpt>
<trkpt lat="33.760797" lon="-116.668065"><ele>2520.0</ele><time>2024-05-03T16:01:43Z</time></trkpt>
<trkpt lat="33.760641" lon="-116.668346"><ele>2526.0</ele><time>2024-05-03T16:02:46Z</time></trkpt>
<trkpt lat="33.760558" lon="-116.668311"><ele>2526.0</ele><time>2024-05-03T16:03:02Z</time></trkpt>
<trkpt lat="33.760673" lon="-116.668383"><ele>2526.4</ele><time>2024-05-03T16:03:52Z</time></trkpt>
<trkpt lat="33.760643" lon="-116.668342"><ele>2526.4</ele><time>2024-05-03T16:04:02Z</time></trkpt>
<trkpt lat="33.760377" lon="-116.668497"><ele>2533.2</ele><time>2024-05-03T16:05:17Z</time></trkpt>
<trkpt lat="33.760233" lon="-116.668541"><ele>2534.8</ele><time>2024-05-03T16:05:49Z</time></trkpt>
<trkpt lat="33.760268" lon="-116.668511"><ele>2535.2</ele><time>2024-05-03T16:05:52Z</time></trkpt>
<trkpt lat="33.759745" lon="-116.667929"><ele>2544.4</ele><time>2024-05-03T16:07:50Z</time></trkpt>
<trkpt lat="33.759458" lon="-116.668195"><ele>2548.2</ele><time>2024-05-03T16:08:19Z</time></trkpt>
<trkpt lat="33.759289" lon="-116.668540"><ele>2559.2</ele><time>2024-05-03T16:09:47Z</time></trkpt>
<trkpt lat="33.759153" lon="-116.668614"><ele>2559.8</ele><time>2024-05-03T16:10:01Z</time></trkpt>
<trkpt lat="33.758897" lon="-116.668544"><ele>2564.4</ele><time>2024-05-03T16:11:45Z</time></trkpt>
<trkpt lat="33.758942" lon="-116.668573"><ele>2564.6</ele><time>2024-05-03T16:11:50Z</time></trkpt>
<trkpt lat="33.758182" lon="-116.668834"><ele>2573.2</ele><time>2024-05-03T16:13:45Z</time></trkpt>
<trkpt lat="33.758303" lon="-116.668661"><ele>2572.4</ele><time>2024-05-03T16:13:57Z</time></trkpt>
<trkpt lat="33.758294" lon="-116.668716"><ele>2571.6</ele><time>2024-05-03T16:14:04Z</time></trkpt>
<trkpt lat="33.758010" lon="-116.668637"><ele>2576.4</ele><time>2024-05-03T16:14:43Z</time></trkpt>
<trkpt lat="33.757648" lon="-116.668816"><ele>2581.4</ele><time>2024-05-03T16:15:44Z</time></trkpt>
<trkpt lat="33.757779" lon="-116.668771"><ele>2582.2</ele><time>2024-05-03T16:15:49Z</time></trkpt>
<trkpt lat="33.757696" lon="-116.668814"><ele>2582.4</ele><time>2024-05-03T16:16:04Z</time></trkpt>
<trkpt lat="33.757637" lon="-116.669953"><ele>2596.0</ele><time>2024-05-03T16:17:49Z</time></trkpt>
<trkpt lat="33.757582" lon="-116.669942"><ele>2596.4</ele><time>2024-05-03T16:17:52Z</time></trkpt>
<trkpt lat="33.757560" lon="-116.670032"><ele>2598.6</ele><time>2024-05-03T16:18:02Z</time></trkpt>
<trkpt lat="33.757556" lon="-116.670525"><ele>2608.6</ele><time>2024-05-03T16:19:15Z</time></trkpt>
<trkpt lat="33.757482" lon="-116.671034"><ele>2612.0</ele><time>2024-05-03T16:19:44Z</time></trkpt>
<trkpt lat="33.757891" lon="-116.670743"><ele>2612.6</ele><time>2024-05-03T16:19:49Z</time></trkpt>
<trkpt lat="33.757848" lon="-116.670919"><ele>2614.0</ele><time>2024-05-03T16:20:01Z</time></trkpt>
<trkpt lat="33.758292" lon="-116.670978"><ele>2624.8</ele><time>2024-05-03T16:21:46Z</time></trkpt>
<trkpt lat="33.758634" lon="-116.671155"><ele>2622.4</ele><time>2024-05-03T16:22:19Z</time></trkpt>
<trkpt lat="33.758878" lon="-116.671564"><ele>2614.2</ele><time>2024-05-03T16:23:50Z</time></trkpt>
<trkpt lat="33.758838" lon="-116.671550"><ele>2614.4</ele><time>2024-05-03T16:23:55Z</time></trkpt>
<trkpt lat="33.758997" lon="-116.672142"><ele>2608.2</ele><time>2024-05-03T16:25:45Z</time></trkpt>
<trkpt lat="33.759105" lon="-116.672150"><ele>2608.0</ele><time>2024-05-03T16:25:48Z</time></trkpt>
<trkpt lat="33.758841" lon="-116.672112"><ele>2608.0</ele><time>2024-05-03T16:27:27Z</time></trkpt>
<trkpt lat="33.758939" lon="-116.672178"><ele>2608.8</ele><time>2024-05-03T16:27:59Z</time></trkpt>
<trkpt lat="33.758854" lon="-116.672254"><ele>2614.8</ele><time>2024-05-03T16:29:44Z</time></trkpt>
<trkpt lat="33.758829" lon="-116.672203"><ele>2614.6</ele><time>2024-05-03T16:29:49Z</time></trkpt>
<trkpt lat="33.758983" lon="-116.672214"><ele>2611.8</ele><time>2024-05-03T16:30:23Z</time></trkpt>
<trkpt lat="33.759301" lon="-116.672050"><ele>2617.2</ele><time>2024-05-03T16:31:48Z</time></trkpt>
<trkpt lat="33.759302" lon="-116.672144"><ele>2618.4</ele><time>2024-05-03T16:31:59Z</time></trkpt>
<trkpt lat="33.759345" lon="-116.672110"><ele>2618.6</ele><time>2024-05-03T16:32:15Z</time></trkpt>
<trkpt lat="33.759803" lon="-116.671810"><ele>2605.2</ele><time>2024-05-03T16:33:46Z</time></trkpt>
<trkpt lat="33.759781" lon="-116.671771"><ele>2604.0</ele><time>2024-05-03T16:33:53Z</time></trkpt>
<trkpt lat="33.760275" lon="-116.671341"><ele>2594.6</ele><time>2024-05-03T16:34:55Z</time></trkpt>
<trkpt lat="33.760827" lon="-116.671109"><ele>2588.6</ele><time>2024-05-03T16:35:44Z</time></trkpt>
<trkpt lat="33.760714" lon="-116.671282"><ele>2587.8</ele><time>2024-05-03T16:35:49Z</time></trkpt>
<trkpt lat="33.761335" lon="-116.671170"><ele>2581.4</ele><time>2024-05-03T16:37:25Z</time></trkpt>
<trkpt lat="33.761501" lon="-116.670909"><ele>2579.4</ele><time>2024-05-03T16:37:45Z</time></trkpt>
<trkpt lat="33.761575" lon="-116.670965"><ele>2579.6</ele><time>2024-05-03T16:37:50Z</time></trkpt>
<trkpt lat="33.761493" lon="-116.670998"><ele>2579.0</ele><time>2024-05-03T16:37:55Z</time></trkpt>
<trkpt lat="33.762237" lon="-116.670701"><ele>2575.0</ele><time>2024-05-03T16:39:50Z</time></trkpt>
<trkpt lat="33.762174" lon="-116.670704"><ele>2575.0</ele><time>2024-05-03T16:39:51Z</time></trkpt>
<trkpt lat="33.762170" lon="-116.670637"><ele>2574.6</ele><time>2024-05-03T16:39:57Z</time></trkpt>
<trkpt lat="33.762752" lon="-116.671133"><ele>2570.0</ele><time>2024-05-03T16:41:48Z</time></trkpt>
<trkpt lat="33.763024" lon="-116.670970"><ele>2568.2</ele><time>2024-05-03T16:42:03Z</time></trkpt>
<trkpt lat="33.763114" lon="-116.671161"><ele>2566.2</ele><time>2024-05-03T16:42:40Z</time></trkpt>
<trkpt lat="33.763170" lon="-116.671561"><ele>2558.2</ele><time>2024-05-03T16:43:47Z</time></trkpt>
<trkpt lat="33.763420" lon="-116.671492"><ele>2557.8</ele><time>2024-05-03T16:43:50Z</time></trkpt>
<trkpt lat="33.763308" lon="-116.671563"><ele>2558.0</ele><time>2024-05-03T16:43:51Z</time></trkpt>
<trkpt lat="33.763535" lon="-116.671283"><ele>2558.2</ele><time>2024-05-03T16:43:54Z</time></trkpt>
<trkpt lat="33.763731" lon="-116.671335"><ele>2558.2</ele><time>2024-05-03T16:43:58Z</time></trkpt>
<trkpt lat="33.763657" lon="-116.671468"><ele>2556.4</ele><time>2024-05-03T16:44:14Z</time></trkpt>
<trkpt lat="33.763665" lon="-116.671715"><ele>2552.0</ele><time>2024-05-03T16:45:38Z</time></trkpt>
<trkpt lat="33.763618" lon="-116.671794"><ele>2551.8</ele><time>2024-05-03T16:45:47Z</time></trkpt>
<trkpt lat="33.764471" lon="-116.671333"><ele>2550.8</ele><time>2024-05-03T16:45:56Z</time></trkpt>
<trkpt lat="33.764450" lon="-116.671290"><ele>2550.8</ele><time>2024-05-03T16:45:58Z</time></trkpt>
<trkpt lat="33.765003" lon="-116.672048"><ele>2542.0</ele><time>2024-05-03T16:47:55Z</time></trkpt>
<trkpt lat="33.765144" lon="-116.672009"><ele>2541.6</ele><time>2024-05-03T16:48:03Z</time></trkpt>
<trkpt lat="33.765104" lon="-116.672161"><ele>2540.4</ele><time>2024-05-03T16:48:20Z</time></trkpt>
<trkpt lat="33.765251" lon="-116.672481"><ele>2534.6</ele><time>2024-05-03T16:49:36Z</time></trkpt>
<trkpt lat="33.765245" lon="-116.672655"><ele>2533.4</ele><time>2024-05-03T16:49:47Z</time></trkpt>
<trkpt lat="33.765765" lon="-116.672407"><ele>2532.8</ele><time>2024-05-03T16:49:54Z</time></trkpt>
<trkpt lat="33.765850" lon="-116.673353"><ele>2531.6</ele><time>2024-05-03T16:51:44Z</time></trkpt>
<trkpt lat="33.765893" lon="-116.673389"><ele>2531.4</ele><time>2024-05-03T16:51:47Z</time></trkpt>
<trkpt lat="33.766552" lon="-116.673030"><ele>2532.0</ele><time>2024-05-03T16:52:05Z</time></trkpt>
<trkpt lat="33.766926" lon="-116.673367"><ele>2532.4</ele><time>2024-05-03T16:52:56Z</time></trkpt>
<trkpt lat="33.767442" lon="-116.673560"><ele>2528.0</ele><time>2024-05-03T16:53:51Z</time></trkpt>
<trkpt lat="33.767378" lon="-116.673643"><ele>2527.4</ele><time>2024-05-03T16:53:57Z</time></trkpt>
<trkpt lat="33.767442" lon="-116.673588"><ele>2527.6</ele><time>2024-05-03T16:54:02Z</time></trkpt>
<trkpt lat="33.768189" lon="-116.673604"><ele>2519.8</ele><time>2024-05-03T16:55:46Z</time></trkpt>
<trkpt lat="33.768123" lon="-116.673679"><ele>2519.0</ele><time>2024-05-03T16:55:53Z</time></trkpt>
<trkpt lat="33.768217" lon="-116.673678"><ele>2518.8</ele><time>2024-05-03T16:56:00Z</time></trkpt>
<trkpt lat="33.768392" lon="-116.673936"><ele>2523.4</ele><time>2024-05-03T16:56:38Z</time></trkpt>
<trkpt lat="33.768540" lon="-116.674016"><ele>2525.8</ele><time>2024-05-03T16:57:16Z</time></trkpt>
<trkpt lat="33.769199" lon="-116.674040"><ele>2522.4</ele><time>2024-05-03T16:59:00Z</time></trkpt>
<trkpt lat="33.769716" lon="-116.674397"><ele>2520.2</ele><time>2024-05-03T16:59:52Z</time></trkpt>
<trkpt lat="33.769948" lon="-116.674369"><ele>2518.6</ele><time>2024-05-03T17:00:00Z</time></trkpt>
<trkpt lat="33.770037" lon="-116.674516"><ele>2516.8</ele><time>2024-05-03T17:00:24Z</time></trkpt>
<trkpt lat="33.770120" lon="-116.674556"><ele>2511.0</ele><time>2024-05-03T17:01:02Z</time></trkpt>
<trkpt lat="33.770489" lon="-116.674582"><ele>2504.4</ele><time>2024-05-03T17:01:44Z</time></trkpt>
<trkpt lat="33.770527" lon="-116.674679"><ele>2503.8</ele><time>2024-05-03T17:01:47Z</time></trkpt>
<trkpt lat="33.770569" lon="-116.674587"><ele>2503.6</ele><time>2024-05-03T17:01:48Z</time></trkpt>
<trkpt lat="33.770522" lon="-116.674553"><ele>2503.4</ele><time>2024-05-03T17:01:49Z</time></trkpt>
<trkpt lat="33.770630" lon="-116.674597"><ele>2503.2</ele><time>2024-05-03T17:01:52Z</time></trkpt>
<trkpt lat="33.770556" lon="-116.674626"><ele>2503.0</ele><time>2024-05-03T17:01:54Z</time></trkpt>
<trkpt lat="33.770508" lon="-116.674764"><ele>2502.4</ele><time>2024-05-03T17:01:59Z</time></trkpt>
<trkpt lat="33.770479" lon="-116.674680"><ele>2501.2</ele><time>2024-05-03T17:02:05Z</time></trkpt>
<trkpt lat="33.771110" lon="-116.674582"><ele>2490.6</ele><time>2024-05-03T17:03:26Z</time></trkpt>
<trkpt lat="33.771971" lon="-116.674287"><ele>2486.8</ele><time>2024-05-03T17:04:33Z</time></trkpt>
<trkpt lat="33.772114" lon="-116.674192"><ele>2487.4</ele><time>2024-05-03T17:04:45Z</time></trkpt>
<trkpt lat="33.772256" lon="-116.673947"><ele>2489.0</ele><time>2024-05-03T17:05:19Z</time></trkpt>
<trkpt lat="33.772649" lon="-116.673767"><ele>2488.0</ele><time>2024-05-03T17:06:00Z</time></trkpt>
<trkpt lat="33.772881" lon="-116.673564"><ele>2485.2</ele><time>2024-05-03T17:06:38Z</time></trkpt>
<trkpt lat="33.773270" lon="-116.673468"><ele>2483.0</ele><time>2024-05-03T17:07:54Z</time></trkpt>
<trkpt lat="33.773191" lon="-116.673574"><ele>2481.6</ele><time>2024-05-03T17:08:02Z</time></trkpt>
<trkpt lat="33.773707" lon="-116.673045"><ele>2482.2</ele><time>2024-05-03T17:08:52Z</time></trkpt>
<trkpt lat="33.773870" lon="-116.672929"><ele>2482.8</ele><time>2024-05-03T17:09:24Z</time></trkpt>
<trkpt lat="33.774198" lon="-116.672839"><ele>2481.6</ele><time>2024-05-03T17:09:47Z</time></trkpt>
<trkpt lat="33.774251" lon="-116.672856"><ele>2481.6</ele><time>2024-05-03T17:09:48Z</time></trkpt>
<trkpt lat="33.774281" lon="-116.673054"><ele>2480.8</ele><time>2024-05-03T17:09:58Z</time></trkpt>
<trkpt lat="33.774631" lon="-116.672967"><ele>2482.0</ele><time>2024-05-03T17:11:46Z</time></trkpt>
<trkpt lat="33.774653" lon="-116.673029"><ele>2482.0</ele><time>2024-05-03T17:11:52Z</time></trkpt>
<trkpt lat="33.774491" lon="-116.673181"><ele>2483.6</ele><time>2024-05-03T17:12:17Z</time></trkpt>
<trkpt lat="33.774595" lon="-116.673101"><ele>2483.8</ele><time>2024-05-03T17:12:42Z</time></trkpt>
<trkpt lat="33.774553" lon="-116.673179"><ele>2483.2</ele><time>2024-05-03T17:12:59Z</time></trkpt>
<trkpt lat="33.774886" lon="-116.673276"><ele>2485.2</ele><time>2024-05-03T17:13:44Z</time></trkpt>
<trkpt lat="33.775229" lon="-116.673549"><ele>2490.2</ele><time>2024-05-03T17:14:24Z</time></trkpt>
<trkpt lat="33.775092" lon="-116.674075"><ele>2493.4</ele><time>2024-05-03T17:14:46Z</time></trkpt>
<trkpt lat="33.775285" lon="-116.673404"><ele>2494.0</ele><time>2024-05-03T17:14:48Z</time></trkpt>
<trkpt lat="33.775439" lon="-116.673381"><ele>2494.2</ele><time>2024-05-03T17:14:50Z</time></trkpt>
<trkpt lat="33.775542" lon="-116.673264"><ele>2494.6</ele><time>2024-05-03T17:14:54Z</time></trkpt>
<trkpt lat="33.775432" lon="-116.673361"><ele>2494.6</ele><time>2024-05-03T17:14:55Z</time></trkpt>
<trkpt lat="33.775539" lon="-116.673341"><ele>2495.0</ele><time>2024-05-03T17:15:00Z</time></trkpt>
<trkpt lat="33.775711" lon="-116.673475"><ele>2496.8</ele><time>2024-05-03T17:15:14Z</time></trkpt>
<trkpt lat="33.775778" lon="-116.673806"><ele>2498.8</ele><time>2024-05-03T17:15:38Z</time></trkpt>
<trkpt lat="33.776362" lon="-116.673611"><ele>2504.6</ele><time>2024-05-03T17:16:51Z</time></trkpt>
<trkpt lat="33.776393" lon="-116.673715"><ele>2505.2</ele><time>2024-05-03T17:16:56Z</time></trkpt>
<trkpt lat="33.776702" lon="-116.673590"><ele>2512.6</ele><time>2024-05-03T17:18:26Z</time></trkpt>
<trkpt lat="33.776778" lon="-116.673756"><ele>2515.2</ele><time>2024-05-03T17:18:46Z</time></trkpt>
<trkpt lat="33.776963" lon="-116.673848"><ele>2515.8</ele><time>2024-05-03T17:18:57Z</time></trkpt>
<trkpt lat="33.776946" lon="-116.673908"><ele>2516.0</ele><time>2024-05-03T17:19:03Z</time></trkpt>
<trkpt lat="33.777027" lon="-116.673972"><ele>2517.0</ele><time>2024-05-03T17:19:11Z</time></trkpt>
<trkpt lat="33.777376" lon="-116.673754"><ele>2524.4</ele><time>2024-05-03T17:20:29Z</time></trkpt>
<trkpt lat="33.777622" lon="-116.673723"><ele>2526.8</ele><time>2024-05-03T17:20:47Z</time></trkpt>
<trkpt lat="33.777424" lon="-116.673739"><ele>2527.2</ele><time>2024-05-03T17:20:55Z</time></trkpt>
<trkpt lat="33.777400" lon="-116.673854"><ele>2529.0</ele><time>2024-05-03T17:21:05Z</time></trkpt>
<trkpt lat="33.777499" lon="-116.674129"><ele>2532.4</ele><time>2024-05-03T17:21:45Z</time></trkpt>
<trkpt lat="33.777606" lon="-116.673983"><ele>2535.4</ele><time>2024-05-03T17:22:11Z</time></trkpt>
<trkpt lat="33.778011" lon="-116.673714"><ele>2543.2</ele><time>2024-05-03T17:23:08Z</time></trkpt>
<trkpt lat="33.778132" lon="-116.674073"><ele>2552.8</ele><time>2024-05-03T17:24:49Z</time></trkpt>
<trkpt lat="33.778409" lon="-116.673669"><ele>2557.4</ele><time>2024-05-03T17:26:11Z</time></trkpt>
<trkpt lat="33.778673" lon="-116.673143"><ele>2565.8</ele><time>2024-05-03T17:27:07Z</time></trkpt>
<trkpt lat="33.778767" lon="-116.672565"><ele>2569.6</ele><time>2024-05-03T17:27:51Z</time></trkpt>
<trkpt lat="33.778927" lon="-116.672412"><ele>2572.8</ele><time>2024-05-03T17:28:15Z</time></trkpt>
<trkpt lat="33.779165" lon="-116.671988"><ele>2579.2</ele><time>2024-05-03T17:29:06Z</time></trkpt>
<trkpt lat="33.779695" lon="-116.671612"><ele>2591.2</ele><time>2024-05-03T17:30:49Z</time></trkpt>
<trkpt lat="33.779664" lon="-116.671677"><ele>2591.8</ele><time>2024-05-03T17:30:53Z</time></trkpt>
<trkpt lat="33.779682" lon="-116.671631"><ele>2593.4</ele><time>2024-05-03T17:31:05Z</time></trkpt>
<trkpt lat="33.779868" lon="-116.671675"><ele>2598.6</ele><time>2024-05-03T17:31:46Z</time></trkpt>
<trkpt lat="33.779702" lon="-116.672006"><ele>2604.4</ele><time>2024-05-03T17:32:47Z</time></trkpt>
<trkpt lat="33.779726" lon="-116.671943"><ele>2604.6</ele><time>2024-05-03T17:32:49Z</time></trkpt>
<trkpt lat="33.779651" lon="-116.671911"><ele>2605.6</ele><time>2024-05-03T17:32:55Z</time></trkpt>
<trkpt lat="33.779616" lon="-116.672063"><ele>2606.2</ele><time>2024-05-03T17:33:01Z</time></trkpt>
<trkpt lat="33.779618" lon="-116.672991"><ele>2612.8</ele><time>2024-05-03T17:34:36Z</time></trkpt>
<trkpt lat="33.779586" lon="-116.673282"><ele>2613.6</ele><time>2024-05-03T17:34:49Z</time></trkpt>
<trkpt lat="33.779529" lon="-116.673301"><ele>2613.8</ele><time>2024-05-03T17:34:51Z</time></trkpt>
<trkpt lat="33.779611" lon="-116.673293"><ele>2614.0</ele><time>2024-05-03T17:34:53Z</time></trkpt>
<trkpt lat="33.779574" lon="-116.673670"><ele>2617.0</ele><time>2024-05-03T17:35:21Z</time></trkpt>
<trkpt lat="33.779795" lon="-116.673497"><ele>2621.4</ele><time>2024-05-03T17:36:13Z</time></trkpt>
<trkpt lat="33.779885" lon="-116.673592"><ele>2626.4</ele><time>2024-05-03T17:36:48Z</time></trkpt>
<trkpt lat="33.779836" lon="-116.673443"><ele>2627.6</ele><time>2024-05-03T17:37:00Z</time></trkpt>
<trkpt lat="33.779913" lon="-116.673441"><ele>2629.0</ele><time>2024-05-03T17:38:27Z</time></trkpt>
<trkpt lat="33.779959" lon="-116.673472"><ele>2628.8</ele><time>2024-05-03T17:38:50Z</time></trkpt>
<trkpt lat="33.779814" lon="-116.673560"><ele>2628.6</ele><time>2024-05-03T17:38:55Z</time></trkpt>
<trkpt lat="33.779938" lon="-116.673513"><ele>2628.6</ele><time>2024-05-03T17:39:03Z</time></trkpt>
<trkpt lat="33.779895" lon="-116.673518"><ele>2628.6</ele><time>2024-05-03T17:39:05Z</time></trkpt>
<trkpt lat="33.780302" lon="-116.673785"><ele>2638.2</ele><time>2024-05-03T17:40:33Z</time></trkpt>
<trkpt lat="33.780393" lon="-116.673888"><ele>2638.0</ele><time>2024-05-03T17:40:46Z</time></trkpt>
<trkpt lat="33.780401" lon="-116.674018"><ele>2638.6</ele><time>2024-05-03T17:40:57Z</time></trkpt>
<trkpt lat="33.780482" lon="-116.673802"><ele>2643.2</ele><time>2024-05-03T17:41:27Z</time></trkpt>
<trkpt lat="33.780491" lon="-116.673602"><ele>2651.8</ele><time>2024-05-03T17:42:29Z</time></trkpt>
<trkpt lat="33.780571" lon="-116.673592"><ele>2654.2</ele><time>2024-05-03T17:42:48Z</time></trkpt>
<trkpt lat="33.780618" lon="-116.673664"><ele>2655.8</ele><time>2024-05-03T17:43:00Z</time></trkpt>
<trkpt lat="33.780631" lon="-116.672937"><ele>2670.8</ele><time>2024-05-03T17:44:43Z</time></trkpt>
<trkpt lat="33.780736" lon="-116.673112"><ele>2673.0</ele><time>2024-05-03T17:45:06Z</time></trkpt>
<trkpt lat="33.780958" lon="-116.673177"><ele>2677.0</ele><time>2024-05-03T17:46:01Z</time></trkpt>
<trkpt lat="33.780992" lon="-116.673136"><ele>2683.6</ele><time>2024-05-03T17:46:50Z</time></trkpt>
<trkpt lat="33.781145" lon="-116.673115"><ele>2688.0</ele><time>2024-05-03T17:47:29Z</time></trkpt>
<trkpt lat="33.781181" lon="-116.673149"><ele>2694.8</ele><time>2024-05-03T17:48:15Z</time></trkpt>
<trkpt lat="33.781268" lon="-116.673002"><ele>2698.0</ele><time>2024-05-03T17:48:53Z</time></trkpt>
<trkpt lat="33.781295" lon="-116.673067"><ele>2699.8</ele><time>2024-05-03T17:49:04Z</time></trkpt>
<trkpt lat="33.781478" lon="-116.673075"><ele>2702.4</ele><time>2024-05-03T17:49:31Z</time></trkpt>
<trkpt lat="33.781774" lon="-116.672988"><ele>2710.4</ele><time>2024-05-03T17:50:48Z</time></trkpt>
<trkpt lat="33.781840" lon="-116.673079"><ele>2710.8</ele><time>2024-05-03T17:50:52Z</time></trkpt>
<trkpt lat="33.782055" lon="-116.673159"><ele>2714.2</ele><time>2024-05-03T17:51:15Z</time></trkpt>
<trkpt lat="33.782422" lon="-116.673566"><ele>2718.4</ele><time>2024-05-03T17:52:49Z</time></trkpt>
<trkpt lat="33.782501" lon="-116.673454"><ele>2718.8</ele><time>2024-05-03T17:52:56Z</time></trkpt>
<trkpt lat="33.782495" lon="-116.673505"><ele>2719.0</ele><time>2024-05-03T17:53:04Z</time></trkpt>
<trkpt lat="33.783188" lon="-116.673622"><ele>2723.8</ele><time>2024-05-03T17:54:55Z</time></trkpt>
<trkpt lat="33.783540" lon="-116.673958"><ele>2736.4</ele><time>2024-05-03T17:56:35Z</time></trkpt>
<trkpt lat="33.783585" lon="-116.674115"><ele>2738.4</ele><time>2024-05-03T17:56:51Z</time></trkpt>
<trkpt lat="33.783771" lon="-116.674034"><ele>2740.2</ele><time>2024-05-03T17:57:03Z</time></trkpt>
<trkpt lat="33.783931" lon="-116.674390"><ele>2744.0</ele><time>2024-05-03T17:57:53Z</time></trkpt>
<trkpt lat="33.784198" lon="-116.674727"><ele>2739.0</ele><time>2024-05-03T17:58:51Z</time></trkpt>
<trkpt lat="33.784273" lon="-116.674740"><ele>2738.8</ele><time>2024-05-03T17:58:59Z</time></trkpt>
<trkpt lat="33.784989" lon="-116.674203"><ele>2737.8</ele><time>2024-05-03T18:00:48Z</time></trkpt>
<trkpt lat="33.785123" lon="-116.674162"><ele>2738.4</ele><time>2024-05-03T18:02:01Z</time></trkpt>
<trkpt lat="33.785254" lon="-116.673983"><ele>2734.4</ele><time>2024-05-03T18:04:21Z</time></trkpt>
<trkpt lat="33.785591" lon="-116.673701"><ele>2732.0</ele><time>2024-05-03T18:04:49Z</time></trkpt>
<trkpt lat="33.785578" lon="-116.673754"><ele>2732.4</ele><time>2024-05-03T18:05:00Z</time></trkpt>
<trkpt lat="33.786060" lon="-116.674520"><ele>2723.2</ele><time>2024-05-03T18:06:48Z</time></trkpt>
<trkpt lat="33.786235" lon="-116.674517"><ele>2723.8</ele><time>2024-05-03T18:06:55Z</time></trkpt>
<trkpt lat="33.786243" lon="-116.674470"><ele>2724.2</ele><time>2024-05-03T18:07:01Z</time></trkpt>
<trkpt lat="33.786582" lon="-116.675029"><ele>2724.2</ele><time>2024-05-03T18:08:15Z</time></trkpt>
<trkpt lat="33.787045" lon="-116.675563"><ele>2726.4</ele><time>2024-05-03T18:10:07Z</time></trkpt>
<trkpt lat="33.787868" lon="-116.676938"><ele>2731.8</ele><time>2024-05-03T18:12:53Z</time></trkpt>
<trkpt lat="33.787774" lon="-116.676906"><ele>2732.2</ele><time>2024-05-03T18:13:00Z</time></trkpt>
<trkpt lat="33.788242" lon="-116.677374"><ele>2740.0</ele><time>2024-05-03T18:14:50Z</time></trkpt>
<trkpt lat="33.788202" lon="-116.677292"><ele>2740.4</ele><time>2024-05-03T18:14:55Z</time></trkpt>
<trkpt lat="33.788354" lon="-116.677345"><ele>2742.8</ele><time>2024-05-03T18:15:17Z</time></trkpt>
<trkpt lat="33.788495" lon="-116.677275"><ele>2744.2</ele><time>2024-05-03T18:16:13Z</time></trkpt>
<trkpt lat="33.788548" lon="-116.677418"><ele>2746.8</ele><time>2024-05-03T18:16:48Z</time></trkpt>
<trkpt lat="33.787866" lon="-116.677958"><ele>2758.6</ele><time>2024-05-03T18:18:47Z</time></trkpt>
<trkpt lat="33.787706" lon="-116.678144"><ele>2761.2</ele><time>2024-05-03T18:19:06Z</time></trkpt>
<trkpt lat="33.787634" lon="-116.678386"><ele>2764.2</ele><time>2024-05-03T18:20:50Z</time></trkpt>
<trkpt lat="33.787512" lon="-116.678554"><ele>2762.8</ele><time>2024-05-03T18:21:30Z</time></trkpt>
<trkpt lat="33.787414" lon="-116.679225"><ele>2752.2</ele><time>2024-05-03T18:22:47Z</time></trkpt>
<trkpt lat="33.787349" lon="-116.679205"><ele>2751.6</ele><time>2024-05-03T18:23:01Z</time></trkpt>
<trkpt lat="33.787404" lon="-116.679220"><ele>2750.4</ele><time>2024-05-03T18:24:57Z</time></trkpt>
<trkpt lat="33.787362" lon="-116.679218"><ele>2750.6</ele><time>2024-05-03T18:25:03Z</time></trkpt>
<trkpt lat="33.787485" lon="-116.680022"><ele>2740.8</ele><time>2024-05-03T18:26:46Z</time></trkpt>
<trkpt lat="33.787442" lon="-116.680197"><ele>2739.2</ele><time>2024-05-03T18:26:56Z</time></trkpt>
<trkpt lat="33.787495" lon="-116.680400"><ele>2737.4</ele><time>2024-05-03T18:27:10Z</time></trkpt>
<trkpt lat="33.787466" lon="-116.681255"><ele>2732.0</ele><time>2024-05-03T18:28:55Z</time></trkpt>
<trkpt lat="33.787232" lon="-116.681648"><ele>2722.4</ele><time>2024-05-03T18:30:50Z</time></trkpt>
<trkpt lat="33.787261" lon="-116.681711"><ele>2721.6</ele><time>2024-05-03T18:30:58Z</time></trkpt>
<trkpt lat="33.787129" lon="-116.681862"><ele>2715.8</ele><time>2024-05-03T18:31:24Z</time></trkpt>
<trkpt lat="33.786846" lon="-116.682498"><ele>2709.2</ele><time>2024-05-03T18:32:14Z</time></trkpt>
<trkpt lat="33.786714" lon="-116.682682"><ele>2704.0</ele><time>2024-05-03T18:32:47Z</time></trkpt>
<trkpt lat="33.786774" lon="-116.682646"><ele>2703.4</ele><time>2024-05-03T18:32:50Z</time></trkpt>
<trkpt lat="33.786782" lon="-116.682751"><ele>2700.2</ele><time>2024-05-03T18:33:03Z</time></trkpt>
<trkpt lat="33.786624" lon="-116.682956"><ele>2695.6</ele><time>2024-05-03T18:33:48Z</time></trkpt>
<trkpt lat="33.786610" lon="-116.683077"><ele>2694.0</ele><time>2024-05-03T18:34:42Z</time></trkpt>
<trkpt lat="33.786562" lon="-116.683114"><ele>2692.4</ele><time>2024-05-03T18:34:49Z</time></trkpt>
<trkpt lat="33.786608" lon="-116.683079"><ele>2689.8</ele><time>2024-05-03T18:35:06Z</time></trkpt>
<trkpt lat="33.786480" lon="-116.683043"><ele>2680.0</ele><time>2024-05-03T18:36:48Z</time></trkpt>
<trkpt lat="33.786516" lon="-116.683166"><ele>2678.4</ele><time>2024-05-03T18:36:58Z</time></trkpt>
<trkpt lat="33.785982" lon="-116.684352"><ele>2663.0</ele><time>2024-05-03T18:38:47Z</time></trkpt>
<trkpt lat="33.786006" lon="-116.684688"><ele>2663.6</ele><time>2024-05-03T18:39:06Z</time></trkpt>
<trkpt lat="33.785768" lon="-116.685036"><ele>2664.8</ele><time>2024-05-03T18:39:42Z</time></trkpt>
<trkpt lat="33.785123" lon="-116.685684"><ele>2654.2</ele><time>2024-05-03T18:40:54Z</time></trkpt>
<trkpt lat="33.785208" lon="-116.685787"><ele>2653.6</ele><time>2024-05-03T18:40:59Z</time></trkpt>
<trkpt lat="33.785165" lon="-116.685838"><ele>2652.4</ele><time>2024-05-03T18:41:04Z</time></trkpt>
<trkpt lat="33.785052" lon="-116.685845"><ele>2650.0</ele><time>2024-05-03T18:41:14Z</time></trkpt>
<trkpt lat="33.784818" lon="-116.685697"><ele>2655.2</ele><time>2024-05-03T18:44:50Z</time></trkpt>
<trkpt lat="33.785080" lon="-116.685820"><ele>2653.0</ele><time>2024-05-03T18:45:02Z</time></trkpt>
<trkpt lat="33.785023" lon="-116.686150"><ele>2655.2</ele><time>2024-05-03T18:46:49Z</time></trkpt>
<trkpt lat="33.785018" lon="-116.686041"><ele>2655.2</ele><time>2024-05-03T18:46:50Z</time></trkpt>
<trkpt lat="33.785112" lon="-116.685886"><ele>2654.6</ele><time>2024-05-03T18:46:53Z</time></trkpt>
<trkpt lat="33.785069" lon="-116.685848"><ele>2653.0</ele><time>2024-05-03T18:47:07Z</time></trkpt>
<trkpt lat="33.785072" lon="-116.686127"><ele>2652.6</ele><time>2024-05-03T18:47:34Z</time></trkpt>
<trkpt lat="33.785499" lon="-116.686988"><ele>2646.8</ele><time>2024-05-03T18:48:55Z</time></trkpt>
<trkpt lat="33.785693" lon="-116.687563"><ele>2636.8</ele><time>2024-05-03T18:50:12Z</time></trkpt>
<trkpt lat="33.785886" lon="-116.688417"><ele>2633.8</ele><time>2024-05-03T18:51:06Z</time></trkpt>
<trkpt lat="33.786511" lon="-116.689509"><ele>2628.4</ele><time>2024-05-03T18:52:49Z</time></trkpt>
<trkpt lat="33.786596" lon="-116.689450"><ele>2627.8</ele><time>2024-05-03T18:54:47Z</time></trkpt>
<trkpt lat="33.786580" lon="-116.689538"><ele>2627.8</ele><time>2024-05-03T18:54:57Z</time></trkpt>
<trkpt lat="33.786538" lon="-116.689498"><ele>2627.2</ele><time>2024-05-03T18:55:05Z</time></trkpt>
<trkpt lat="33.786550" lon="-116.689602"><ele>2628.2</ele><time>2024-05-03T18:56:07Z</time></trkpt>
<trkpt lat="33.786562" lon="-116.689519"><ele>2627.4</ele><time>2024-05-03T18:56:55Z</time></trkpt>
<trkpt lat="33.786519" lon="-116.689555"><ele>2624.6</ele><time>2024-05-03T18:58:50Z</time></trkpt>
<trkpt lat="33.786568" lon="-116.689507"><ele>2625.2</ele><time>2024-05-03T18:58:55Z</time></trkpt>
<trkpt lat="33.786560" lon="-116.689591"><ele>2624.0</ele><time>2024-05-03T18:59:05Z</time></trkpt>
<trkpt lat="33.786563" lon="-116.689468"><ele>2626.8</ele><time>2024-05-03T19:01:00Z</time></trkpt>
<trkpt lat="33.786469" lon="-116.689941"><ele>2625.4</ele><time>2024-05-03T19:02:17Z</time></trkpt>
<trkpt lat="33.786343" lon="-116.690084"><ele>2627.6</ele><time>2024-05-03T19:02:41Z</time></trkpt>
<trkpt lat="33.786221" lon="-116.690636"><ele>2624.4</ele><time>2024-05-03T19:03:21Z</time></trkpt>
<trkpt lat="33.786020" lon="-116.690934"><ele>2613.2</ele><time>2024-05-03T19:04:19Z</time></trkpt>
<trkpt lat="33.785831" lon="-116.691126"><ele>2610.2</ele><time>2024-05-03T19:04:37Z</time></trkpt>
<trkpt lat="33.785085" lon="-116.691436"><ele>2606.8</ele><time>2024-05-03T19:05:43Z</time></trkpt>
<trkpt lat="33.784709" lon="-116.691723"><ele>2607.4</ele><time>2024-05-03T19:06:19Z</time></trkpt>
<trkpt lat="33.784169" lon="-116.691957"><ele>2607.4</ele><time>2024-05-03T19:06:56Z</time></trkpt>
<trkpt lat="33.784020" lon="-116.691951"><ele>2609.8</ele><time>2024-05-03T19:07:15Z</time></trkpt>
<trkpt lat="33.783734" lon="-116.692334"><ele>2601.0</ele><time>2024-05-03T19:08:15Z</time></trkpt>
<trkpt lat="33.783501" lon="-116.692496"><ele>2596.6</ele><time>2024-05-03T19:08:37Z</time></trkpt>
<trkpt lat="33.783330" lon="-116.692559"><ele>2594.2</ele><time>2024-05-03T19:08:49Z</time></trkpt>
<trkpt lat="33.783465" lon="-116.692429"><ele>2594.2</ele><time>2024-05-03T19:08:51Z</time></trkpt>
<trkpt lat="33.783190" lon="-116.692552"><ele>2594.0</ele><time>2024-05-03T19:08:52Z</time></trkpt>
<trkpt lat="33.783158" lon="-116.692436"><ele>2593.0</ele><time>2024-05-03T19:08:56Z</time></trkpt>
<trkpt lat="33.783043" lon="-116.692479"><ele>2591.0</ele><time>2024-05-03T19:09:08Z</time></trkpt>
<trkpt lat="33.783099" lon="-116.692432"><ele>2589.8</ele><time>2024-05-03T19:09:13Z</time></trkpt>
<trkpt lat="33.782989" lon="-116.692304"><ele>2589.2</ele><time>2024-05-03T19:09:35Z</time></trkpt>
<trkpt lat="33.782645" lon="-116.692314"><ele>2587.8</ele><time>2024-05-03T19:10:25Z</time></trkpt>
<trkpt lat="33.782177" lon="-116.692783"><ele>2587.0</ele><time>2024-05-03T19:10:55Z</time></trkpt>
<trkpt lat="33.781641" lon="-116.693142"><ele>2586.4</ele><time>2024-05-03T19:11:06Z</time></trkpt>
<trkpt lat="33.781249" lon="-116.693577"><ele>2587.0</ele><time>2024-05-03T19:11:47Z</time></trkpt>
<trkpt lat="33.780860" lon="-116.694224"><ele>2578.8</ele><time>2024-05-03T19:12:49Z</time></trkpt>
<trkpt lat="33.780924" lon="-116.694289"><ele>2577.8</ele><time>2024-05-03T19:12:59Z</time></trkpt>
<trkpt lat="33.780617" lon="-116.694664"><ele>2573.2</ele><time>2024-05-03T19:13:39Z</time></trkpt>
<trkpt lat="33.780378" lon="-116.694839"><ele>2569.8</ele><time>2024-05-03T19:14:03Z</time></trkpt>
<trkpt lat="33.780240" lon="-116.695062"><ele>2565.0</ele><time>2024-05-03T19:14:27Z</time></trkpt>
<trkpt lat="33.780229" lon="-116.695223"><ele>2562.8</ele><time>2024-05-03T19:14:48Z</time></trkpt>
<trkpt lat="33.780289" lon="-116.695299"><ele>2561.4</ele><time>2024-05-03T19:15:00Z</time></trkpt>
<trkpt lat="33.780232" lon="-116.695343"><ele>2561.2</ele><time>2024-05-03T19:15:05Z</time></trkpt>
<trkpt lat="33.780302" lon="-116.695456"><ele>2560.6</ele><time>2024-05-03T19:15:17Z</time></trkpt>
<trkpt lat="33.780398" lon="-116.695544"><ele>2555.2</ele><time>2024-05-03T19:15:53Z</time></trkpt>
<trkpt lat="33.780747" lon="-116.695638"><ele>2553.8</ele><time>2024-05-03T19:16:50Z</time></trkpt>
<trkpt lat="33.780655" lon="-116.695689"><ele>2553.8</ele><time>2024-05-03T19:16:51Z</time></trkpt>
<trkpt lat="33.780827" lon="-116.695421"><ele>2553.8</ele><time>2024-05-03T19:17:01Z</time></trkpt>
<trkpt lat="33.781279" lon="-116.695357"><ele>2544.0</ele><time>2024-05-03T19:18:37Z</time></trkpt>
<trkpt lat="33.781430" lon="-116.695452"><ele>2544.0</ele><time>2024-05-03T19:18:50Z</time></trkpt>
<trkpt lat="33.781432" lon="-116.695272"><ele>2544.0</ele><time>2024-05-03T19:18:54Z</time></trkpt>
<trkpt lat="33.782190" lon="-116.695925"><ele>2534.4</ele><time>2024-05-03T19:20:31Z</time></trkpt>
<trkpt lat="33.782325" lon="-116.696311"><ele>2530.4</ele><time>2024-05-03T19:21:07Z</time></trkpt>
<trkpt lat="33.782460" lon="-116.696464"><ele>2529.8</ele><time>2024-05-03T19:21:25Z</time></trkpt>
<trkpt lat="33.782779" lon="-116.697353"><ele>2517.8</ele><time>2024-05-03T19:22:57Z</time></trkpt>
<trkpt lat="33.782721" lon="-116.698119"><ele>2510.0</ele><time>2024-05-03T19:23:55Z</time></trkpt>
<trkpt lat="33.782807" lon="-116.698416"><ele>2504.2</ele><time>2024-05-03T19:24:27Z</time></trkpt>
<trkpt lat="33.783051" lon="-116.698779"><ele>2500.2</ele><time>2024-05-03T19:25:08Z</time></trkpt>
<trkpt lat="33.783311" lon="-116.699351"><ele>2498.6</ele><time>2024-05-03T19:25:51Z</time></trkpt>
<trkpt lat="33.783489" lon="-116.699443"><ele>2499.8</ele><time>2024-05-03T19:26:41Z</time></trkpt>
<trkpt lat="33.783428" lon="-116.699589"><ele>2501.0</ele><time>2024-05-03T19:26:54Z</time></trkpt>
<trkpt lat="33.783600" lon="-116.699775"><ele>2500.0</ele><time>2024-05-03T19:27:47Z</time></trkpt>
<trkpt lat="33.783685" lon="-116.700209"><ele>2502.2</ele><time>2024-05-03T19:28:50Z</time></trkpt>
<trkpt lat="33.783732" lon="-116.700194"><ele>2502.4</ele><time>2024-05-03T19:28:51Z</time></trkpt>
<trkpt lat="33.783529" lon="-116.700885"><ele>2502.2</ele><time>2024-05-03T19:29:43Z</time></trkpt>
<trkpt lat="33.783145" lon="-116.701609"><ele>2495.0</ele><time>2024-05-03T19:30:43Z</time></trkpt>
<trkpt lat="33.783061" lon="-116.701658"><ele>2494.4</ele><time>2024-05-03T19:30:49Z</time></trkpt>
<trkpt lat="33.783016" lon="-116.702142"><ele>2491.4</ele><time>2024-05-03T19:31:31Z</time></trkpt>
<trkpt lat="33.782660" lon="-116.702669"><ele>2483.6</ele><time>2024-05-03T19:32:51Z</time></trkpt>
<trkpt lat="33.782395" lon="-116.702788"><ele>2483.0</ele><time>2024-05-03T19:33:07Z</time></trkpt>
<trkpt lat="33.782395" lon="-116.702868"><ele>2482.6</ele><time>2024-05-03T19:33:27Z</time></trkpt>
<trkpt lat="33.782461" lon="-116.702850"><ele>2482.4</ele><time>2024-05-03T19:33:55Z</time></trkpt>
<trkpt lat="33.782515" lon="-116.703009"><ele>2477.0</ele><time>2024-05-03T19:34:17Z</time></trkpt>
<trkpt lat="33.782369" lon="-116.703364"><ele>2471.8</ele><time>2024-05-03T19:34:53Z</time></trkpt>
<trkpt lat="33.782321" lon="-116.703347"><ele>2471.6</ele><time>2024-05-03T19:34:55Z</time></trkpt>
<trkpt lat="33.782330" lon="-116.703420"><ele>2471.2</ele><time>2024-05-03T19:35:05Z</time></trkpt>
<trkpt lat="33.782655" lon="-116.703410"><ele>2465.8</ele><time>2024-05-03T19:35:37Z</time></trkpt>
<trkpt lat="33.782950" lon="-116.703905"><ele>2464.8</ele><time>2024-05-03T19:36:17Z</time></trkpt>
<trkpt lat="33.783194" lon="-116.704050"><ele>2466.0</ele><time>2024-05-03T19:36:41Z</time></trkpt>
<trkpt lat="33.783280" lon="-116.704028"><ele>2466.8</ele><time>2024-05-03T19:36:49Z</time></trkpt>
<trkpt lat="33.783143" lon="-116.704143"><ele>2466.6</ele><time>2024-05-03T19:36:56Z</time></trkpt>
<trkpt lat="33.783355" lon="-116.703923"><ele>2464.0</ele><time>2024-05-03T19:37:51Z</time></trkpt>
<trkpt lat="33.783380" lon="-116.704093"><ele>2464.6</ele><time>2024-05-03T19:38:53Z</time></trkpt>
<trkpt lat="33.783848" lon="-116.703872"><ele>2467.4</ele><time>2024-05-03T19:40:50Z</time></trkpt>
<trkpt lat="33.783726" lon="-116.704013"><ele>2468.6</ele><time>2024-05-03T19:40:58Z</time></trkpt>
<trkpt lat="33.783633" lon="-116.704022"><ele>2469.0</ele><time>2024-05-03T19:41:03Z</time></trkpt>
<trkpt lat="33.783753" lon="-116.703903"><ele>2471.2</ele><time>2024-05-03T19:41:32Z</time></trkpt>
<trkpt lat="33.783985" lon="-116.703870"><ele>2469.4</ele><time>2024-05-03T19:41:56Z</time></trkpt>
<trkpt lat="33.784596" lon="-116.704165"><ele>2472.6</ele><time>2024-05-03T19:42:49Z</time></trkpt>
<trkpt lat="33.784564" lon="-116.704204"><ele>2472.6</ele><time>2024-05-03T19:42:50Z</time></trkpt>
<trkpt lat="33.784815" lon="-116.704036"><ele>2472.0</ele><time>2024-05-03T19:43:04Z</time></trkpt>
<trkpt lat="33.785482" lon="-116.704411"><ele>2477.2</ele><time>2024-05-03T19:44:51Z</time></trkpt>
<trkpt lat="33.785332" lon="-116.704591"><ele>2477.2</ele><time>2024-05-03T19:44:55Z</time></trkpt>
<trkpt lat="33.785466" lon="-116.704558"><ele>2477.2</ele><time>2024-05-03T19:45:05Z</time></trkpt>
<trkpt lat="33.786191" lon="-116.704870"><ele>2483.4</ele><time>2024-05-03T19:46:32Z</time></trkpt>
<trkpt lat="33.786411" lon="-116.705062"><ele>2487.2</ele><time>2024-05-03T19:47:05Z</time></trkpt>
<trkpt lat="33.786841" lon="-116.705137"><ele>2489.4</ele><time>2024-05-03T19:48:56Z</time></trkpt>
<trkpt lat="33.786839" lon="-116.705224"><ele>2491.0</ele><time>2024-05-03T19:49:03Z</time></trkpt>
<trkpt lat="33.787281" lon="-116.705388"><ele>2499.2</ele><time>2024-05-03T19:50:27Z</time></trkpt>
<trkpt lat="33.787592" lon="-116.705639"><ele>2500.6</ele><time>2024-05-03T19:50:52Z</time></trkpt>
<trkpt lat="33.787670" lon="-116.705874"><ele>2502.4</ele><time>2024-05-03T19:51:07Z</time></trkpt>
<trkpt lat="33.787834" lon="-116.705771"><ele>2510.8</ele><time>2024-05-03T19:51:52Z</time></trkpt>
<trkpt lat="33.788092" lon="-116.705763"><ele>2517.2</ele><time>2024-05-03T19:52:51Z</time></trkpt>
<trkpt lat="33.788072" lon="-116.705912"><ele>2518.8</ele><time>2024-05-03T19:52:58Z</time></trkpt>
<trkpt lat="33.788325" lon="-116.705967"><ele>2521.6</ele><time>2024-05-03T19:53:33Z</time></trkpt>
<trkpt lat="33.788293" lon="-116.705816"><ele>2524.8</ele><time>2024-05-03T19:53:55Z</time></trkpt>
<trkpt lat="33.788373" lon="-116.705652"><ele>2527.0</ele><time>2024-05-03T19:54:13Z</time></trkpt>
<trkpt lat="33.788482" lon="-116.705698"><ele>2529.4</ele><time>2024-05-03T19:54:57Z</time></trkpt>
<trkpt lat="33.788525" lon="-116.705628"><ele>2530.8</ele><time>2024-05-03T19:55:05Z</time></trkpt>
<trkpt lat="33.789227" lon="-116.705481"><ele>2545.8</ele><time>2024-05-03T19:56:50Z</time></trkpt>
<trkpt lat="33.789286" lon="-116.705344"><ele>2548.0</ele><time>2024-05-03T19:57:03Z</time></trkpt>
<trkpt lat="33.789476" lon="-116.705290"><ele>2551.8</ele><time>2024-05-03T19:57:34Z</time></trkpt>
<trkpt lat="33.789639" lon="-116.705257"><ele>2553.4</ele><time>2024-05-03T19:58:12Z</time></trkpt>
<trkpt lat="33.789917" lon="-116.705322"><ele>2552.6</ele><time>2024-05-03T19:58:34Z</time></trkpt>
<trkpt lat="33.790298" lon="-116.705241"><ele>2552.6</ele><time>2024-05-03T19:58:57Z</time></trkpt>
<trkpt lat="33.790260" lon="-116.705190"><ele>2552.6</ele><time>2024-05-03T19:59:00Z</time></trkpt>
<trkpt lat="33.790345" lon="-116.705180"><ele>2552.6</ele><time>2024-05-03T19:59:03Z</time></trkpt>
<trkpt lat="33.790623" lon="-116.705425"><ele>2551.2</ele><time>2024-05-03T19:59:36Z</time></trkpt>
<trkpt lat="33.790620" lon="-116.706153"><ele>2556.2</ele><time>2024-05-03T20:00:52Z</time></trkpt>
<trkpt lat="33.790781" lon="-116.706278"><ele>2555.6</ele><time>2024-05-03T20:00:58Z</time></trkpt>
<trkpt lat="33.790915" lon="-116.706704"><ele>2549.8</ele><time>2024-05-03T20:01:32Z</time></trkpt>
<trkpt lat="33.791163" lon="-116.707119"><ele>2548.0</ele><time>2024-05-03T20:02:10Z</time></trkpt>
<trkpt lat="33.791520" lon="-116.707525"><ele>2541.8</ele><time>2024-05-03T20:02:58Z</time></trkpt>
<trkpt lat="33.791776" lon="-116.707897"><ele>2542.8</ele><time>2024-05-03T20:03:29Z</time></trkpt>
<trkpt lat="33.791863" lon="-116.707910"><ele>2543.2</ele><time>2024-05-03T20:03:43Z</time></trkpt>
<trkpt lat="33.792477" lon="-116.708444"><ele>2542.6</ele><time>2024-05-03T20:04:52Z</time></trkpt>
<trkpt lat="33.792429" lon="-116.708516"><ele>2543.4</ele><time>2024-05-03T20:04:54Z</time></trkpt>
<trkpt lat="33.792551" lon="-116.708501"><ele>2544.0</ele><time>2024-05-03T20:04:58Z</time></trkpt>
<trkpt lat="33.792551" lon="-116.708601"><ele>2545.2</ele><time>2024-05-03T20:05:05Z</time></trkpt>
<trkpt lat="33.793153" lon="-116.708049"><ele>2559.0</ele><time>2024-05-03T20:06:58Z</time></trkpt>
<trkpt lat="33.793544" lon="-116.707849"><ele>2562.2</ele><time>2024-05-03T20:07:31Z</time></trkpt>
<trkpt lat="33.794078" lon="-116.707736"><ele>2566.2</ele><time>2024-05-03T20:08:48Z</time></trkpt>
<trkpt lat="33.794270" lon="-116.707969"><ele>2569.8</ele><time>2024-05-03T20:09:08Z</time></trkpt>
<trkpt lat="33.794311" lon="-116.707928"><ele>2571.0</ele><time>2024-05-03T20:09:18Z</time></trkpt>
<trkpt lat="33.794258" lon="-116.707726"><ele>2574.4</ele><time>2024-05-03T20:09:42Z</time></trkpt>
<trkpt lat="33.794401" lon="-116.707590"><ele>2582.2</ele><time>2024-05-03T20:10:44Z</time></trkpt>
<trkpt lat="33.794920" lon="-116.707830"><ele>2591.0</ele><time>2024-05-03T20:12:03Z</time></trkpt>
<trkpt lat="33.794945" lon="-116.707740"><ele>2591.8</ele><time>2024-05-03T20:14:07Z</time></trkpt>
<trkpt lat="33.795184" lon="-116.707663"><ele>2596.4</ele><time>2024-05-03T20:15:56Z</time></trkpt>
<trkpt lat="33.795243" lon="-116.707581"><ele>2598.2</ele><time>2024-05-03T20:16:09Z</time></trkpt>
<trkpt lat="33.796972" lon="-116.707169"><ele>2618.8</ele><time>2024-05-03T20:19:53Z</time></trkpt>
<trkpt lat="33.797027" lon="-116.707078"><ele>2618.8</ele><time>2024-05-03T20:20:01Z</time></trkpt>
<trkpt lat="33.797183" lon="-116.707056"><ele>2624.6</ele><time>2024-05-03T20:21:02Z</time></trkpt>
<trkpt lat="33.797519" lon="-116.707279"><ele>2629.0</ele><time>2024-05-03T20:21:50Z</time></trkpt>
<trkpt lat="33.797461" lon="-116.707486"><ele>2630.6</ele><time>2024-05-03T20:22:06Z</time></trkpt>
<trkpt lat="33.797657" lon="-116.707413"><ele>2633.8</ele><time>2024-05-03T20:22:38Z</time></trkpt>
<trkpt lat="33.797810" lon="-116.707454"><ele>2636.0</ele><time>2024-05-03T20:23:04Z</time></trkpt>
<trkpt lat="33.798097" lon="-116.707188"><ele>2641.8</ele><time>2024-05-03T20:23:51Z</time></trkpt>
<trkpt lat="33.798105" lon="-116.707055"><ele>2642.4</ele><time>2024-05-03T20:24:00Z</time></trkpt>
<trkpt lat="33.798370" lon="-116.707171"><ele>2646.2</ele><time>2024-05-03T20:24:42Z</time></trkpt>
<trkpt lat="33.798839" lon="-116.707249"><ele>2642.8</ele><time>2024-05-03T20:25:46Z</time></trkpt>
<trkpt lat="33.798909" lon="-116.707352"><ele>2640.4</ele><time>2024-05-03T20:26:07Z</time></trkpt>
<trkpt lat="33.799438" lon="-116.707182"><ele>2633.2</ele><time>2024-05-03T20:27:56Z</time></trkpt>
<trkpt lat="33.799986" lon="-116.706352"><ele>2634.0</ele><time>2024-05-03T20:29:51Z</time></trkpt>
<trkpt lat="33.799936" lon="-116.706337"><ele>2636.8</ele><time>2024-05-03T20:30:06Z</time></trkpt>
<trkpt lat="33.800259" lon="-116.705825"><ele>2645.4</ele><time>2024-05-03T20:31:51Z</time></trkpt>
<trkpt lat="33.800255" lon="-116.705870"><ele>2646.2</ele><time>2024-05-03T20:31:55Z</time></trkpt>
<trkpt lat="33.800265" lon="-116.705685"><ele>2647.2</ele><time>2024-05-03T20:32:07Z</time></trkpt>
<trkpt lat="33.800477" lon="-116.705353"><ele>2657.2</ele><time>2024-05-03T20:33:38Z</time></trkpt>
<trkpt lat="33.800702" lon="-116.705243"><ele>2654.6</ele><time>2024-05-03T20:34:05Z</time></trkpt>
<trkpt lat="33.800808" lon="-116.704695"><ele>2658.2</ele><time>2024-05-03T20:35:50Z</time></trkpt>
<trkpt lat="33.800845" lon="-116.704721"><ele>2658.4</ele><time>2024-05-03T20:35:51Z</time></trkpt>
<trkpt lat="33.800735" lon="-116.704648"><ele>2660.4</ele><time>2024-05-03T20:36:08Z</time></trkpt>
<trkpt lat="33.800670" lon="-116.703763"><ele>2667.4</ele><time>2024-05-03T20:37:59Z</time></trkpt>
<trkpt lat="33.800799" lon="-116.703349"><ele>2673.2</ele><time>2024-05-03T20:39:51Z</time></trkpt>
<trkpt lat="33.800880" lon="-116.703341"><ele>2673.4</ele><time>2024-05-03T20:39:53Z</time></trkpt>
<trkpt lat="33.800835" lon="-116.703222"><ele>2673.8</ele><time>2024-05-03T20:39:59Z</time></trkpt>
<trkpt lat="33.801002" lon="-116.702899"><ele>2672.6</ele><time>2024-05-03T20:41:15Z</time></trkpt>
<trkpt lat="33.801122" lon="-116.702655"><ele>2676.6</ele><time>2024-05-03T20:41:53Z</time></trkpt>
<trkpt lat="33.801079" lon="-116.702585"><ele>2677.2</ele><time>2024-05-03T20:41:59Z</time></trkpt>
<trkpt lat="33.801144" lon="-116.702521"><ele>2678.2</ele><time>2024-05-03T20:42:07Z</time></trkpt>
<trkpt lat="33.800958" lon="-116.701878"><ele>2684.4</ele><time>2024-05-03T20:43:52Z</time></trkpt>
<trkpt lat="33.800859" lon="-116.701781"><ele>2685.0</ele><time>2024-05-03T20:43:59Z</time></trkpt>
<trkpt lat="33.800916" lon="-116.701777"><ele>2686.0</ele><time>2024-05-03T20:44:05Z</time></trkpt>
<trkpt lat="33.800803" lon="-116.701246"><ele>2690.0</ele><time>2024-05-03T20:46:00Z</time></trkpt>
<trkpt lat="33.800370" lon="-116.700569"><ele>2698.2</ele><time>2024-05-03T20:47:57Z</time></trkpt>
<trkpt lat="33.800415" lon="-116.700539"><ele>2699.2</ele><time>2024-05-03T20:48:03Z</time></trkpt>
<trkpt lat="33.800428" lon="-116.700047"><ele>2705.4</ele><time>2024-05-03T20:49:37Z</time></trkpt>
<trkpt lat="33.800538" lon="-116.699820"><ele>2706.6</ele><time>2024-05-03T20:49:53Z</time></trkpt>
<trkpt lat="33.800377" lon="-116.699750"><ele>2707.0</ele><time>2024-05-03T20:49:57Z</time></trkpt>
<trkpt lat="33.800453" lon="-116.699443"><ele>2710.4</ele><time>2024-05-03T20:52:09Z</time></trkpt>
<trkpt lat="33.800693" lon="-116.699184"><ele>2716.2</ele><time>2024-05-03T20:53:53Z</time></trkpt>
<trkpt lat="33.800589" lon="-116.699151"><ele>2717.6</ele><time>2024-05-03T20:54:15Z</time></trkpt>
<trkpt lat="33.800548" lon="-116.699000"><ele>2724.8</ele><time>2024-05-03T20:55:45Z</time></trkpt>
<trkpt lat="33.800444" lon="-116.698923"><ele>2727.0</ele><time>2024-05-03T20:56:04Z</time></trkpt>
<trkpt lat="33.800915" lon="-116.698949"><ele>2725.2</ele><time>2024-05-03T20:56:57Z</time></trkpt>
<trkpt lat="33.801307" lon="-116.698891"><ele>2728.4</ele><time>2024-05-03T20:57:51Z</time></trkpt>
<trkpt lat="33.801229" lon="-116.698921"><ele>2728.8</ele><time>2024-05-03T20:57:53Z</time></trkpt>
<trkpt lat="33.801064" lon="-116.698780"><ele>2730.2</ele><time>2024-05-03T20:58:01Z</time></trkpt>
<trkpt lat="33.801086" lon="-116.698736"><ele>2730.0</ele><time>2024-05-03T20:58:07Z</time></trkpt>
<trkpt lat="33.801642" lon="-116.699078"><ele>2723.2</ele><time>2024-05-03T20:59:55Z</time></trkpt>
<trkpt lat="33.801701" lon="-116.699181"><ele>2724.4</ele><time>2024-05-03T21:00:10Z</time></trkpt>
<trkpt lat="33.801840" lon="-116.699074"><ele>2729.6</ele><time>2024-05-03T21:01:05Z</time></trkpt>
<trkpt lat="33.801967" lon="-116.698888"><ele>2729.6</ele><time>2024-05-03T21:01:55Z</time></trkpt>
<trkpt lat="33.802479" lon="-116.698713"><ele>2726.2</ele><time>2024-05-03T21:03:58Z</time></trkpt>
<trkpt lat="33.802938" lon="-116.698918"><ele>2720.0</ele><time>2024-05-03T21:05:33Z</time></trkpt>
<trkpt lat="33.803130" lon="-116.699116"><ele>2721.2</ele><time>2024-05-03T21:06:02Z</time></trkpt>
<trkpt lat="33.803836" lon="-116.699155"><ele>2718.8</ele><time>2024-05-03T21:07:17Z</time></trkpt>
<trkpt lat="33.804336" lon="-116.699143"><ele>2719.2</ele><time>2024-05-03T21:07:51Z</time></trkpt>
<trkpt lat="33.804304" lon="-116.699100"><ele>2719.2</ele><time>2024-05-03T21:07:53Z</time></trkpt>
<trkpt lat="33.804542" lon="-116.699198"><ele>2720.4</ele><time>2024-05-03T21:08:09Z</time></trkpt>
<trkpt lat="33.805009" lon="-116.699183"><ele>2722.2</ele><time>2024-05-03T21:08:31Z</time></trkpt>
<trkpt lat="33.805526" lon="-116.699079"><ele>2727.6</ele><time>2024-05-03T21:09:54Z</time></trkpt>
<trkpt lat="33.805524" lon="-116.699026"><ele>2728.8</ele><time>2024-05-03T21:10:01Z</time></trkpt>
<trkpt lat="33.806649" lon="-116.698979"><ele>2730.2</ele><time>2024-05-03T21:11:51Z</time></trkpt>
<trkpt lat="33.806489" lon="-116.698894"><ele>2730.0</ele><time>2024-05-03T21:11:57Z</time></trkpt>
<trkpt lat="33.806722" lon="-116.698775"><ele>2730.2</ele><time>2024-05-03T21:12:47Z</time></trkpt>
<trkpt lat="33.806818" lon="-116.698597"><ele>2730.2</ele><time>2024-05-03T21:13:58Z</time></trkpt>
<trkpt lat="33.806877" lon="-116.698653"><ele>2730.8</ele><time>2024-05-03T21:14:04Z</time></trkpt>
<trkpt lat="33.806880" lon="-116.698557"><ele>2732.6</ele><time>2024-05-03T21:14:13Z</time></trkpt>
<trkpt lat="33.807091" lon="-116.698312"><ele>2740.4</ele><time>2024-05-03T21:15:25Z</time></trkpt>
<trkpt lat="33.807519" lon="-116.697826"><ele>2737.2</ele><time>2024-05-03T21:18:04Z</time></trkpt>
<trkpt lat="33.807479" lon="-116.697726"><ele>2733.8</ele><time>2024-05-03T21:19:39Z</time></trkpt>
<trkpt lat="33.807658" lon="-116.697861"><ele>2733.0</ele><time>2024-05-03T21:19:59Z</time></trkpt>
<trkpt lat="33.807596" lon="-116.697819"><ele>2732.8</ele><time>2024-05-03T21:20:05Z</time></trkpt>
<trkpt lat="33.807604" lon="-116.697725"><ele>2731.2</ele><time>2024-05-03T21:21:33Z</time></trkpt>
<trkpt lat="33.807721" lon="-116.697740"><ele>2730.8</ele><time>2024-05-03T21:22:07Z</time></trkpt>
<trkpt lat="33.807750" lon="-116.697647"><ele>2731.0</ele><time>2024-05-03T21:22:13Z</time></trkpt>
<trkpt lat="33.807529" lon="-116.697654"><ele>2730.2</ele><time>2024-05-03T21:22:57Z</time></trkpt>
<trkpt lat="33.807525" lon="-116.697741"><ele>2730.4</ele><time>2024-05-03T21:23:01Z</time></trkpt>
<trkpt lat="33.807582" lon="-116.697641"><ele>2730.8</ele><time>2024-05-03T21:23:07Z</time></trkpt>
<trkpt lat="33.807889" lon="-116.697449"><ele>2734.0</ele><time>2024-05-03T21:25:01Z</time></trkpt>
<trkpt lat="33.807867" lon="-116.697539"><ele>2732.6</ele><time>2024-05-03T21:25:08Z</time></trkpt>
<trkpt lat="33.808146" lon="-116.697683"><ele>2721.8</ele><time>2024-05-03T21:26:57Z</time></trkpt>
<trkpt lat="33.808265" lon="-116.697603"><ele>2721.2</ele><time>2024-05-03T21:27:04Z</time></trkpt>
<trkpt lat="33.808546" lon="-116.697600"><ele>2724.0</ele><time>2024-05-03T21:28:10Z</time></trkpt>
<trkpt lat="33.808919" lon="-116.697586"><ele>2718.4</ele><time>2024-05-03T21:28:52Z</time></trkpt>
<trkpt lat="33.808991" lon="-116.697516"><ele>2716.8</ele><time>2024-05-03T21:29:02Z</time></trkpt>
<trkpt lat="33.809541" lon="-116.697502"><ele>2711.0</ele><time>2024-05-03T21:30:54Z</time></trkpt>
<trkpt lat="33.809479" lon="-116.697547"><ele>2710.8</ele><time>2024-05-03T21:31:05Z</time></trkpt>
<trkpt lat="33.809711" lon="-116.697538"><ele>2709.0</ele><time>2024-05-03T21:32:46Z</time></trkpt>
<trkpt lat="33.809776" lon="-116.697603"><ele>2708.4</ele><time>2024-05-03T21:33:05Z</time></trkpt>
<trkpt lat="33.810730" lon="-116.697470"><ele>2714.6</ele><time>2024-05-03T21:36:58Z</time></trkpt>
<trkpt lat="33.810683" lon="-116.697422"><ele>2714.6</ele><time>2024-05-03T21:36:59Z</time></trkpt>
<trkpt lat="33.810687" lon="-116.697511"><ele>2715.0</ele><time>2024-05-03T21:40:47Z</time></trkpt>
<trkpt lat="33.810741" lon="-116.697435"><ele>2714.6</ele><time>2024-05-03T21:41:00Z</time></trkpt>
<trkpt lat="33.810747" lon="-116.697690"><ele>2714.0</ele><time>2024-05-03T21:41:04Z</time></trkpt>
<trkpt lat="33.810700" lon="-116.697475"><ele>2714.2</ele><time>2024-05-03T21:42:33Z</time></trkpt>
<trkpt lat="33.810728" lon="-116.697361"><ele>2716.0</ele><time>2024-05-03T21:42:59Z</time></trkpt>
<trkpt lat="33.810699" lon="-116.697468"><ele>2715.8</ele><time>2024-05-03T21:43:07Z</time></trkpt>
<trkpt lat="33.810566" lon="-116.697344"><ele>2725.6</ele><time>2024-05-03T21:47:15Z</time></trkpt>
<trkpt lat="33.810669" lon="-116.697549"><ele>2728.0</ele><time>2024-05-03T21:48:11Z</time></trkpt>
<trkpt lat="33.810803" lon="-116.697639"><ele>2732.0</ele><time>2024-05-03T21:49:14Z</time></trkpt>
<trkpt lat="33.811040" lon="-116.697854"><ele>2727.0</ele><time>2024-05-03T21:49:53Z</time></trkpt>
<trkpt lat="33.810979" lon="-116.697876"><ele>2726.4</ele><time>2024-05-03T21:49:55Z</time></trkpt>
<trkpt lat="33.810979" lon="-116.697834"><ele>2723.8</ele><time>2024-05-03T21:50:09Z</time></trkpt>
<trkpt lat="33.811339" lon="-116.698351"><ele>2721.0</ele><time>2024-05-03T21:51:50Z</time></trkpt>
<trkpt lat="33.811398" lon="-116.698397"><ele>2721.2</ele><time>2024-05-03T21:51:54Z</time></trkpt>
<trkpt lat="33.811419" lon="-116.698332"><ele>2721.2</ele><time>2024-05-03T21:51:55Z</time></trkpt>
<trkpt lat="33.811430" lon="-116.698675"><ele>2715.0</ele><time>2024-05-03T21:53:52Z</time></trkpt>
<trkpt lat="33.811503" lon="-116.698587"><ele>2714.2</ele><time>2024-05-03T21:54:01Z</time></trkpt>
<trkpt lat="33.811544" lon="-116.698609"><ele>2712.4</ele><time>2024-05-03T21:54:08Z</time></trkpt>
<trkpt lat="33.811470" lon="-116.698540"><ele>2699.4</ele><time>2024-05-03T21:55:32Z</time></trkpt>
<trkpt lat="33.811377" lon="-116.698613"><ele>2696.0</ele><time>2024-05-03T21:55:50Z</time></trkpt>
<trkpt lat="33.811359" lon="-116.698856"><ele>2693.8</ele><time>2024-05-03T21:56:08Z</time></trkpt>
<trkpt lat="33.811263" lon="-116.699202"><ele>2681.2</ele><time>2024-05-03T21:57:16Z</time></trkpt>
<trkpt lat="33.811351" lon="-116.699501"><ele>2678.0</ele><time>2024-05-03T21:57:40Z</time></trkpt>
<trkpt lat="33.811253" lon="-116.699562"><ele>2675.6</ele><time>2024-05-03T21:57:53Z</time></trkpt>
<trkpt lat="33.811271" lon="-116.699667"><ele>2671.8</ele><time>2024-05-03T21:58:06Z</time></trkpt>
<trkpt lat="33.811132" lon="-116.699954"><ele>2660.6</ele><time>2024-05-03T21:59:00Z</time></trkpt>
<trkpt lat="33.810945" lon="-116.700142"><ele>2656.0</ele><time>2024-05-03T21:59:20Z</time></trkpt>
<trkpt lat="33.810833" lon="-116.700369"><ele>2651.0</ele><time>2024-05-03T21:59:51Z</time></trkpt>
<trkpt lat="33.810836" lon="-116.700460"><ele>2649.2</ele><time>2024-05-03T21:59:59Z</time></trkpt>
<trkpt lat="33.810787" lon="-116.700478"><ele>2648.8</ele><time>2024-05-03T22:00:14Z</time></trkpt>
<trkpt lat="33.810857" lon="-116.700528"><ele>2644.8</ele><time>2024-05-03T22:00:34Z</time></trkpt>
<trkpt lat="33.810978" lon="-116.700580"><ele>2642.6</ele><time>2024-05-03T22:02:04Z</time></trkpt>
<trkpt lat="33.811502" lon="-116.700345"><ele>2629.0</ele><time>2024-05-03T22:04:07Z</time></trkpt>
<trkpt lat="33.811713" lon="-116.700352"><ele>2627.2</ele><time>2024-05-03T22:04:36Z</time></trkpt>
<trkpt lat="33.811807" lon="-116.700442"><ele>2620.6</ele><time>2024-05-03T22:05:10Z</time></trkpt>
<trkpt lat="33.811798" lon="-116.700627"><ele>2617.6</ele><time>2024-05-03T22:05:24Z</time></trkpt>
<trkpt lat="33.811977" lon="-116.700708"><ele>2615.2</ele><time>2024-05-03T22:05:55Z</time></trkpt>
<trkpt lat="33.811961" lon="-116.700760"><ele>2611.8</ele><time>2024-05-03T22:06:12Z</time></trkpt>
<trkpt lat="33.812133" lon="-116.700801"><ele>2607.6</ele><time>2024-05-03T22:06:36Z</time></trkpt>
<trkpt lat="33.812404" lon="-116.701025"><ele>2602.8</ele><time>2024-05-03T22:07:04Z</time></trkpt>
<trkpt lat="33.812964" lon="-116.701224"><ele>2606.6</ele><time>2024-05-03T22:08:21Z</time></trkpt>
<trkpt lat="33.813052" lon="-116.701397"><ele>2608.0</ele><time>2024-05-03T22:08:51Z</time></trkpt>
<trkpt lat="33.813186" lon="-116.701334"><ele>2606.6</ele><time>2024-05-03T22:09:11Z</time></trkpt>
<trkpt lat="33.813474" lon="-116.701398"><ele>2606.2</ele><time>2024-05-03T22:09:47Z</time></trkpt>
<trkpt lat="33.813781" lon="-116.701520"><ele>2607.0</ele><time>2024-05-03T22:10:09Z</time></trkpt>
<trkpt lat="33.813876" lon="-116.701500"><ele>2608.2</ele><time>2024-05-03T22:13:37Z</time></trkpt>
<trkpt lat="33.814015" lon="-116.701707"><ele>2609.0</ele><time>2024-05-03T22:15:55Z</time></trkpt>
<trkpt lat="33.814121" lon="-116.701631"><ele>2607.8</ele><time>2024-05-03T22:16:01Z</time></trkpt>
<trkpt lat="33.814779" lon="-116.701833"><ele>2609.0</ele><time>2024-05-03T22:17:13Z</time></trkpt>
<trkpt lat="33.815243" lon="-116.701710"><ele>2614.8</ele><time>2024-05-03T22:18:03Z</time></trkpt>
<trkpt lat="33.816342" lon="-116.701899"><ele>2618.6</ele><time>2024-05-03T22:19:54Z</time></trkpt>
<trkpt lat="33.816534" lon="-116.701794"><ele>2621.0</ele><time>2024-05-03T22:21:01Z</time></trkpt>
<trkpt lat="33.816499" lon="-116.701557"><ele>2623.4</ele><time>2024-05-03T22:21:53Z</time></trkpt>
<trkpt lat="33.816554" lon="-116.701659"><ele>2624.6</ele><time>2024-05-03T22:22:04Z</time></trkpt>
<trkpt lat="33.817237" lon="-116.701559"><ele>2635.2</ele><time>2024-05-03T22:24:00Z</time></trkpt>
<trkpt lat="33.817226" lon="-116.701602"><ele>2636.4</ele><time>2024-05-03T22:24:07Z</time></trkpt>
<trkpt lat="33.818044" lon="-116.701653"><ele>2642.8</ele><time>2024-05-03T22:26:45Z</time></trkpt>
<trkpt lat="33.818501" lon="-116.701739"><ele>2650.6</ele><time>2024-05-03T22:27:49Z</time></trkpt>
<trkpt lat="33.818620" lon="-116.701767"><ele>2650.8</ele><time>2024-05-03T22:27:52Z</time></trkpt>
<trkpt lat="33.818646" lon="-116.701868"><ele>2651.0</ele><time>2024-05-03T22:27:55Z</time></trkpt>
<trkpt lat="33.818744" lon="-116.701806"><ele>2651.6</ele><time>2024-05-03T22:28:01Z</time></trkpt>
<trkpt lat="33.818882" lon="-116.701980"><ele>2653.8</ele><time>2024-05-03T22:28:19Z</time></trkpt>
<trkpt lat="33.818902" lon="-116.702279"><ele>2657.0</ele><time>2024-05-03T22:28:43Z</time></trkpt>
<trkpt lat="33.819199" lon="-116.702408"><ele>2661.8</ele><time>2024-05-03T22:29:56Z</time></trkpt>
<trkpt lat="33.819255" lon="-116.702367"><ele>2661.4</ele><time>2024-05-03T22:30:13Z</time></trkpt>
<trkpt lat="33.819140" lon="-116.702794"><ele>2653.0</ele><time>2024-05-03T22:31:56Z</time></trkpt>
<trkpt lat="33.819317" lon="-116.702607"><ele>2653.0</ele><time>2024-05-03T22:32:00Z</time></trkpt>
<trkpt lat="33.819461" lon="-116.702555"><ele>2653.0</ele><time>2024-05-03T22:32:01Z</time></trkpt>
<trkpt lat="33.819269" lon="-116.702627"><ele>2653.0</ele><time>2024-05-03T22:32:02Z</time></trkpt>
<trkpt lat="33.819492" lon="-116.702515"><ele>2652.8</ele><time>2024-05-03T22:32:08Z</time></trkpt>
<trkpt lat="33.819409" lon="-116.702720"><ele>2648.4</ele><time>2024-05-03T22:33:59Z</time></trkpt>
<trkpt lat="33.819629" lon="-116.702661"><ele>2647.4</ele><time>2024-05-03T22:34:09Z</time></trkpt>
<trkpt lat="33.819612" lon="-116.703245"><ele>2650.8</ele><time>2024-05-03T22:35:59Z</time></trkpt>
<trkpt lat="33.819814" lon="-116.703347"><ele>2650.4</ele><time>2024-05-03T22:36:14Z</time></trkpt>
<trkpt lat="33.819884" lon="-116.703512"><ele>2656.6</ele><time>2024-05-03T22:36:56Z</time></trkpt>
<trkpt lat="33.819897" lon="-116.703683"><ele>2656.4</ele><time>2024-05-03T22:37:34Z</time></trkpt>
<trkpt lat="33.819956" lon="-116.703776"><ele>2652.8</ele><time>2024-05-03T22:37:55Z</time></trkpt>
<trkpt lat="33.819891" lon="-116.703846"><ele>2649.4</ele><time>2024-05-03T22:38:08Z</time></trkpt>
<trkpt lat="33.820424" lon="-116.704389"><ele>2645.0</ele><time>2024-05-03T22:39:54Z</time></trkpt>
<trkpt lat="33.820417" lon="-116.704342"><ele>2644.8</ele><time>2024-05-03T22:39:56Z</time></trkpt>
<trkpt lat="33.820499" lon="-116.704360"><ele>2644.2</ele><time>2024-05-03T22:40:09Z</time></trkpt>
<trkpt lat="33.820500" lon="-116.704441"><ele>2642.4</ele><time>2024-05-03T22:42:02Z</time></trkpt>
<trkpt lat="33.820539" lon="-116.704391"><ele>2642.2</ele><time>2024-05-03T22:42:09Z</time></trkpt>
<trkpt lat="33.820541" lon="-116.704486"><ele>2643.0</ele><time>2024-05-03T22:42:17Z</time></trkpt>
<trkpt lat="33.821026" lon="-116.705202"><ele>2652.8</ele><time>2024-05-03T22:44:10Z</time></trkpt>
<trkpt lat="33.821307" lon="-116.706182"><ele>2658.0</ele><time>2024-05-03T22:45:55Z</time></trkpt>
<trkpt lat="33.821475" lon="-116.706214"><ele>2655.8</ele><time>2024-05-03T22:46:12Z</time></trkpt>
<trkpt lat="33.821885" lon="-116.706594"><ele>2647.2</ele><time>2024-05-03T22:47:57Z</time></trkpt>
<trkpt lat="33.821861" lon="-116.706644"><ele>2647.0</ele><time>2024-05-03T22:48:02Z</time></trkpt>
<trkpt lat="33.822037" lon="-116.706787"><ele>2644.8</ele><time>2024-05-03T22:48:39Z</time></trkpt>
<trkpt lat="33.822118" lon="-116.706977"><ele>2637.2</ele><time>2024-05-03T22:49:15Z</time></trkpt>
<trkpt lat="33.822270" lon="-116.707090"><ele>2628.4</ele><time>2024-05-03T22:50:01Z</time></trkpt>
<trkpt lat="33.822244" lon="-116.707171"><ele>2627.6</ele><time>2024-05-03T22:50:08Z</time></trkpt>
<trkpt lat="33.822415" lon="-116.707320"><ele>2624.2</ele><time>2024-05-03T22:50:37Z</time></trkpt>
<trkpt lat="33.823052" lon="-116.707631"><ele>2613.4</ele><time>2024-05-03T22:51:54Z</time></trkpt>
<trkpt lat="33.823352" lon="-116.707527"><ele>2609.4</ele><time>2024-05-03T22:52:36Z</time></trkpt>
<trkpt lat="33.823815" lon="-116.707563"><ele>2598.6</ele><time>2024-05-03T22:53:59Z</time></trkpt>
<trkpt lat="33.823793" lon="-116.707691"><ele>2596.0</ele><time>2024-05-03T22:54:12Z</time></trkpt>
<trkpt lat="33.824180" lon="-116.707667"><ele>2581.6</ele><time>2024-05-03T22:55:57Z</time></trkpt>
<trkpt lat="33.824171" lon="-116.707876"><ele>2580.6</ele><time>2024-05-03T22:56:10Z</time></trkpt>
<trkpt lat="33.824299" lon="-116.707982"><ele>2577.8</ele><time>2024-05-03T22:56:36Z</time></trkpt>
<trkpt lat="33.824413" lon="-116.707991"><ele>2567.4</ele><time>2024-05-03T22:57:38Z</time></trkpt>
<trkpt lat="33.824612" lon="-116.708074"><ele>2563.6</ele><time>2024-05-03T22:57:55Z</time></trkpt>
<trkpt lat="33.824691" lon="-116.708252"><ele>2559.8</ele><time>2024-05-03T22:58:04Z</time></trkpt>
<trkpt lat="33.824618" lon="-116.708322"><ele>2553.0</ele><time>2024-05-03T22:58:46Z</time></trkpt>
<trkpt lat="33.824648" lon="-116.708356"><ele>2547.2</ele><time>2024-05-03T22:59:10Z</time></trkpt>
<trkpt lat="33.824471" lon="-116.708542"><ele>2538.0</ele><time>2024-05-03T22:59:55Z</time></trkpt>
<trkpt lat="33.824529" lon="-116.708718"><ele>2537.0</ele><time>2024-05-03T23:00:00Z</time></trkpt>
<trkpt lat="33.824550" lon="-116.708646"><ele>2536.2</ele><time>2024-05-03T23:00:04Z</time></trkpt>
<trkpt lat="33.824838" lon="-116.709131"><ele>2533.4</ele><time>2024-05-03T23:00:26Z</time></trkpt>
<trkpt lat="33.825210" lon="-116.709350"><ele>2536.4</ele><time>2024-05-03T23:00:56Z</time></trkpt>
<trkpt lat="33.825600" lon="-116.709735"><ele>2535.4</ele><time>2024-05-03T23:01:53Z</time></trkpt>
<trkpt lat="33.825568" lon="-116.709753"><ele>2536.4</ele><time>2024-05-03T23:01:56Z</time></trkpt>
<trkpt lat="33.825618" lon="-116.709790"><ele>2536.4</ele><time>2024-05-03T23:02:03Z</time></trkpt>
<trkpt lat="33.825724" lon="-116.710373"><ele>2525.6</ele><time>2024-05-03T23:02:50Z</time></trkpt>
<trkpt lat="33.825678" lon="-116.710392"><ele>2523.2</ele><time>2024-05-03T23:02:58Z</time></trkpt>
<trkpt lat="33.825869" lon="-116.710757"><ele>2524.4</ele><time>2024-05-03T23:03:53Z</time></trkpt>
<trkpt lat="33.825879" lon="-116.710704"><ele>2524.4</ele><time>2024-05-03T23:03:54Z</time></trkpt>
<trkpt lat="33.825963" lon="-116.710712"><ele>2524.8</ele><time>2024-05-03T23:04:04Z</time></trkpt>
<trkpt lat="33.826001" lon="-116.710598"><ele>2531.2</ele><time>2024-05-03T23:04:48Z</time></trkpt>
<trkpt lat="33.826303" lon="-116.710652"><ele>2540.0</ele><time>2024-05-03T23:05:34Z</time></trkpt>
<trkpt lat="33.826440" lon="-116.710774"><ele>2543.4</ele><time>2024-05-03T23:05:57Z</time></trkpt>
<trkpt lat="33.826462" lon="-116.710707"><ele>2545.0</ele><time>2024-05-03T23:06:06Z</time></trkpt>
<trkpt lat="33.826687" lon="-116.710686"><ele>2550.0</ele><time>2024-05-03T23:06:34Z</time></trkpt>
<trkpt lat="33.826660" lon="-116.710634"><ele>2556.4</ele><time>2024-05-03T23:07:40Z</time></trkpt>
<trkpt lat="33.826914" lon="-116.710812"><ele>2555.4</ele><time>2024-05-03T23:08:02Z</time></trkpt>
<trkpt lat="33.827084" lon="-116.710789"><ele>2556.6</ele><time>2024-05-03T23:08:09Z</time></trkpt>
<trkpt lat="33.827319" lon="-116.710885"><ele>2560.4</ele><time>2024-05-03T23:08:24Z</time></trkpt>
<trkpt lat="33.827407" lon="-116.710844"><ele>2565.2</ele><time>2024-05-03T23:08:42Z</time></trkpt>
<trkpt lat="33.827635" lon="-116.710934"><ele>2574.8</ele><time>2024-05-03T23:09:46Z</time></trkpt>
<trkpt lat="33.827729" lon="-116.711042"><ele>2574.6</ele><time>2024-05-03T23:09:56Z</time></trkpt>
<trkpt lat="33.827720" lon="-116.711229"><ele>2576.0</ele><time>2024-05-03T23:10:11Z</time></trkpt>
<trkpt lat="33.827796" lon="-116.711277"><ele>2579.2</ele><time>2024-05-03T23:10:26Z</time></trkpt>
<trkpt lat="33.828182" lon="-116.711339"><ele>2581.0</ele><time>2024-05-03T23:11:54Z</time></trkpt>
<trkpt lat="33.828306" lon="-116.711459"><ele>2579.4</ele><time>2024-05-03T23:12:05Z</time></trkpt>
<trkpt lat="33.828964" lon="-116.711698"><ele>2586.4</ele><time>2024-05-03T23:13:50Z</time></trkpt>
<trkpt lat="33.829083" lon="-116.711725"><ele>2586.4</ele><time>2024-05-03T23:13:53Z</time></trkpt>
<trkpt lat="33.829069" lon="-116.711661"><ele>2585.8</ele><time>2024-05-03T23:13:58Z</time></trkpt>
<trkpt lat="33.829194" lon="-116.711659"><ele>2586.0</ele><time>2024-05-03T23:14:05Z</time></trkpt>
<trkpt lat="33.829470" lon="-116.711760"><ele>2587.0</ele><time>2024-05-03T23:15:04Z</time></trkpt>
<trkpt lat="33.829624" lon="-116.711911"><ele>2580.6</ele><time>2024-05-03T23:15:57Z</time></trkpt>
<trkpt lat="33.829631" lon="-116.711856"><ele>2580.4</ele><time>2024-05-03T23:15:58Z</time></trkpt>
<trkpt lat="33.829600" lon="-116.711906"><ele>2580.0</ele><time>2024-05-03T23:16:01Z</time></trkpt>
<trkpt lat="33.829678" lon="-116.712079"><ele>2581.2</ele><time>2024-05-03T23:16:48Z</time></trkpt>
<trkpt lat="33.829887" lon="-116.712262"><ele>2574.8</ele><time>2024-05-03T23:17:55Z</time></trkpt>
<trkpt lat="33.829845" lon="-116.712128"><ele>2572.8</ele><time>2024-05-03T23:18:11Z</time></trkpt>
<trkpt lat="33.829887" lon="-116.711981"><ele>2566.2</ele><time>2024-05-03T23:19:44Z</time></trkpt>
<trkpt lat="33.830268" lon="-116.712287"><ele>2553.6</ele><time>2024-05-03T23:21:56Z</time></trkpt>
<trkpt lat="33.830302" lon="-116.712175"><ele>2553.2</ele><time>2024-05-03T23:22:08Z</time></trkpt>
<trkpt lat="33.830348" lon="-116.712195"><ele>2548.0</ele><time>2024-05-03T23:22:44Z</time></trkpt>
<trkpt lat="33.830399" lon="-116.712060"><ele>2544.6</ele><time>2024-05-03T23:23:02Z</time></trkpt>
<trkpt lat="33.830434" lon="-116.712098"><ele>2541.4</ele><time>2024-05-03T23:23:22Z</time></trkpt>
<trkpt lat="33.830607" lon="-116.712040"><ele>2539.2</ele><time>2024-05-03T23:23:55Z</time></trkpt>
<trkpt lat="33.830605" lon="-116.712270"><ele>2539.2</ele><time>2024-05-03T23:24:03Z</time></trkpt>
<trkpt lat="33.830549" lon="-116.712272"><ele>2539.4</ele><time>2024-05-03T23:24:05Z</time></trkpt>
<trkpt lat="33.831108" lon="-116.712523"><ele>2527.4</ele><time>2024-05-03T23:25:59Z</time></trkpt>
<trkpt lat="33.831115" lon="-116.712647"><ele>2526.8</ele><time>2024-05-03T23:26:03Z</time></trkpt>
<trkpt lat="33.831546" lon="-116.712951"><ele>2516.4</ele><time>2024-05-03T23:28:01Z</time></trkpt>
<trkpt lat="33.832040" lon="-116.713398"><ele>2507.2</ele><time>2024-05-03T23:30:00Z</time></trkpt>
<trkpt lat="33.832006" lon="-116.713418"><ele>2507.0</ele><time>2024-05-03T23:30:02Z</time></trkpt>
<trkpt lat="33.832057" lon="-116.713385"><ele>2506.8</ele><time>2024-05-03T23:30:05Z</time></trkpt>
<trkpt lat="33.832495" lon="-116.713790"><ele>2498.8</ele><time>2024-05-03T23:31:55Z</time></trkpt>
<trkpt lat="33.832366" lon="-116.713784"><ele>2498.4</ele><time>2024-05-03T23:32:05Z</time></trkpt>
<trkpt lat="33.832826" lon="-116.714230"><ele>2491.2</ele><time>2024-05-03T23:33:00Z</time></trkpt>
<trkpt lat="33.833158" lon="-116.714527"><ele>2486.0</ele><time>2024-05-03T23:33:58Z</time></trkpt>
<trkpt lat="33.833287" lon="-116.714497"><ele>2486.0</ele><time>2024-05-03T23:34:00Z</time></trkpt>
<trkpt lat="33.833114" lon="-116.714549"><ele>2487.0</ele><time>2024-05-03T23:34:12Z</time></trkpt>
<trkpt lat="33.833316" lon="-116.714905"><ele>2487.0</ele><time>2024-05-03T23:35:05Z</time></trkpt>
<trkpt lat="33.833412" lon="-116.715220"><ele>2485.8</ele><time>2024-05-03T23:35:55Z</time></trkpt>
<trkpt lat="33.833544" lon="-116.715273"><ele>2485.4</ele><time>2024-05-03T23:36:00Z</time></trkpt>
<trkpt lat="33.833569" lon="-116.715144"><ele>2484.6</ele><time>2024-05-03T23:36:09Z</time></trkpt>
<trkpt lat="33.833697" lon="-116.715443"><ele>2483.8</ele><time>2024-05-03T23:36:52Z</time></trkpt>
<trkpt lat="33.833752" lon="-116.715908"><ele>2488.8</ele><time>2024-05-03T23:38:01Z</time></trkpt>
<trkpt lat="33.833721" lon="-116.715797"><ele>2489.0</ele><time>2024-05-03T23:38:13Z</time></trkpt>
<trkpt lat="33.833678" lon="-116.715864"><ele>2489.2</ele><time>2024-05-03T23:38:52Z</time></trkpt>
<trkpt lat="33.833696" lon="-116.715735"><ele>2489.2</ele><time>2024-05-03T23:38:55Z</time></trkpt>
<trkpt lat="33.833707" lon="-116.715816"><ele>2488.4</ele><time>2024-05-03T23:39:00Z</time></trkpt>
<trkpt lat="33.833669" lon="-116.715799"><ele>2489.0</ele><time>2024-05-03T23:39:08Z</time></trkpt>
<trkpt lat="33.833907" lon="-116.716092"><ele>2490.4</ele><time>2024-05-03T23:41:01Z</time></trkpt>
<trkpt lat="33.833843" lon="-116.716073"><ele>2491.2</ele><time>2024-05-03T23:41:09Z</time></trkpt>
<trkpt lat="33.834115" lon="-116.716786"><ele>2491.8</ele><time>2024-05-03T23:42:57Z</time></trkpt>
<trkpt lat="33.834043" lon="-116.716802"><ele>2492.0</ele><time>2024-05-03T23:43:02Z</time></trkpt>
<trkpt lat="33.834112" lon="-116.716818"><ele>2491.2</ele><time>2024-05-03T23:43:10Z</time></trkpt>
<trkpt lat="33.834341" lon="-116.717299"><ele>2484.4</ele><time>2024-05-03T23:44:56Z</time></trkpt>
<trkpt lat="33.834478" lon="-116.717402"><ele>2484.0</ele><time>2024-05-03T23:45:00Z</time></trkpt>
<trkpt lat="33.834428" lon="-116.717331"><ele>2483.6</ele><time>2024-05-03T23:45:08Z</time></trkpt>
<trkpt lat="33.834522" lon="-116.717352"><ele>2483.4</ele><time>2024-05-03T23:45:12Z</time></trkpt>
<trkpt lat="33.834653" lon="-116.718233"><ele>2476.6</ele><time>2024-05-03T23:46:57Z</time></trkpt>
<trkpt lat="33.834612" lon="-116.718217"><ele>2476.2</ele><time>2024-05-03T23:46:59Z</time></trkpt>
<trkpt lat="33.834819" lon="-116.718287"><ele>2476.0</ele><time>2024-05-03T23:47:04Z</time></trkpt>
<trkpt lat="33.834765" lon="-116.718274"><ele>2475.6</ele><time>2024-05-03T23:47:08Z</time></trkpt>
<trkpt lat="33.835005" lon="-116.718722"><ele>2478.8</ele><time>2024-05-03T23:48:52Z</time></trkpt>
<trkpt lat="33.834932" lon="-116.719055"><ele>2478.8</ele><time>2024-05-03T23:48:59Z</time></trkpt>
<trkpt lat="33.834784" lon="-116.718834"><ele>2479.0</ele><time>2024-05-03T23:49:02Z</time></trkpt>
<trkpt lat="33.834708" lon="-116.718856"><ele>2480.0</ele><time>2024-05-03T23:49:10Z</time></trkpt>
<trkpt lat="33.834791" lon="-116.719420"><ele>2482.0</ele><time>2024-05-03T23:50:27Z</time></trkpt>
<trkpt lat="33.834889" lon="-116.719588"><ele>2481.0</ele><time>2024-05-03T23:51:02Z</time></trkpt>
<trkpt lat="33.834796" lon="-116.719547"><ele>2482.0</ele><time>2024-05-03T23:51:11Z</time></trkpt>
<trkpt lat="33.834740" lon="-116.719861"><ele>2479.2</ele><time>2024-05-03T23:51:44Z</time></trkpt>
<trkpt lat="33.834823" lon="-116.719957"><ele>2475.4</ele><time>2024-05-03T23:52:04Z</time></trkpt>
<trkpt lat="33.834830" lon="-116.720286"><ele>2468.6</ele><time>2024-05-03T23:53:01Z</time></trkpt>
<trkpt lat="33.834666" lon="-116.720185"><ele>2468.0</ele><time>2024-05-03T23:53:08Z</time></trkpt>
<trkpt lat="33.835408" lon="-116.721071"><ele>2463.0</ele><time>2024-05-03T23:54:57Z</time></trkpt>
<trkpt lat="33.835386" lon="-116.721163"><ele>2462.8</ele><time>2024-05-03T23:55:03Z</time></trkpt>
<trkpt lat="33.835355" lon="-116.721018"><ele>2461.2</ele><time>2024-05-03T23:55:14Z</time></trkpt>
<trkpt lat="33.835561" lon="-116.721285"><ele>2460.2</ele><time>2024-05-03T23:55:53Z</time></trkpt>
<trkpt lat="33.835567" lon="-116.721515"><ele>2459.6</ele><time>2024-05-03T23:56:17Z</time></trkpt>
<trkpt lat="33.835721" lon="-116.721582"><ele>2458.0</ele><time>2024-05-03T23:57:01Z</time></trkpt>
<trkpt lat="33.835572" lon="-116.722063"><ele>2454.2</ele><time>2024-05-03T23:57:53Z</time></trkpt>
<trkpt lat="33.835646" lon="-116.722043"><ele>2453.6</ele><time>2024-05-03T23:57:57Z</time></trkpt>
<trkpt lat="33.835772" lon="-116.722207"><ele>2454.4</ele><time>2024-05-03T23:58:18Z</time></trkpt>
<trkpt lat="33.835707" lon="-116.722253"><ele>2453.8</ele><time>2024-05-03T23:58:28Z</time></trkpt>
<trkpt lat="33.835523" lon="-116.722104"><ele>2452.2</ele><time>2024-05-03T23:58:54Z</time></trkpt>
<trkpt lat="33.835927" lon="-116.722387"><ele>2452.0</ele><time>2024-05-03T23:58:58Z</time></trkpt>
<trkpt lat="33.836062" lon="-116.722564"><ele>2451.8</ele><time>2024-05-03T23:58:59Z</time></trkpt>
<trkpt lat="33.835897" lon="-116.722657"><ele>2452.4</ele><time>2024-05-03T23:59:16Z</time></trkpt>
<trkpt lat="33.835932" lon="-116.722567"><ele>2452.0</ele><time>2024-05-03T23:59:23Z</time></trkpt>
<trkpt lat="33.836207" lon="-116.722581"><ele>2451.0</ele><time>2024-05-03T23:59:53Z</time></trkpt>
<trkpt lat="33.836136" lon="-116.722715"><ele>2451.0</ele><time>2024-05-03T23:59:55Z</time></trkpt>
<trkpt lat="33.836159" lon="-116.722838"><ele>2450.4</ele><time>2024-05-04T00:00:01Z</time></trkpt>
<trkpt lat="33.836451" lon="-116.723174"><ele>2447.2</ele><time>2024-05-04T00:00:57Z</time></trkpt>
<trkpt lat="33.836531" lon="-116.723148"><ele>2446.2</ele><time>2024-05-04T00:01:11Z</time></trkpt>
<trkpt lat="33.836539" lon="-116.723250"><ele>2444.0</ele><time>2024-05-04T00:01:21Z</time></trkpt>
<trkpt lat="33.836380" lon="-116.723526"><ele>2445.4</ele><time>2024-05-04T00:02:01Z</time></trkpt>
<trkpt lat="33.836369" lon="-116.723789"><ele>2446.8</ele><time>2024-05-04T00:02:55Z</time></trkpt>
<trkpt lat="33.836297" lon="-116.723908"><ele>2448.2</ele><time>2024-05-04T00:03:10Z</time></trkpt>
<trkpt lat="33.836675" lon="-116.724783"><ele>2450.8</ele><time>2024-05-04T00:04:43Z</time></trkpt>
<trkpt lat="33.836804" lon="-116.725035"><ele>2448.8</ele><time>2024-05-04T00:04:57Z</time></trkpt>
<trkpt lat="33.836789" lon="-116.724828"><ele>2448.2</ele><time>2024-05-04T00:05:07Z</time></trkpt>
<trkpt lat="33.836718" lon="-116.724754"><ele>2447.6</ele><time>2024-05-04T00:05:22Z</time></trkpt>
<trkpt lat="33.837117" lon="-116.724947"><ele>2439.6</ele><time>2024-05-04T00:06:28Z</time></trkpt>
<trkpt lat="33.837408" lon="-116.724983"><ele>2436.0</ele><time>2024-05-04T00:06:54Z</time></trkpt>
<trkpt lat="33.837340" lon="-116.725101"><ele>2436.0</ele><time>2024-05-04T00:06:59Z</time></trkpt>
<trkpt lat="33.837390" lon="-116.725202"><ele>2433.4</ele><time>2024-05-04T00:07:17Z</time></trkpt>
<trkpt lat="33.837968" lon="-116.725606"><ele>2432.0</ele><time>2024-05-04T00:07:57Z</time></trkpt>
<trkpt lat="33.837800" lon="-116.725479"><ele>2431.6</ele><time>2024-05-04T00:08:00Z</time></trkpt>
<trkpt lat="33.837786" lon="-116.725411"><ele>2431.2</ele><time>2024-05-04T00:08:02Z</time></trkpt>
<trkpt lat="33.837858" lon="-116.725533"><ele>2430.8</ele><time>2024-05-04T00:08:03Z</time></trkpt>
<trkpt lat="33.837753" lon="-116.725343"><ele>2430.8</ele><time>2024-05-04T00:08:05Z</time></trkpt>
<trkpt lat="33.837781" lon="-116.725311"><ele>2428.6</ele><time>2024-05-04T00:08:14Z</time></trkpt>
<trkpt lat="33.838498" lon="-116.726250"><ele>2420.8</ele><time>2024-05-04T00:10:31Z</time></trkpt>
<trkpt lat="33.838383" lon="-116.726178"><ele>2420.2</ele><time>2024-05-04T00:10:36Z</time></trkpt>
<trkpt lat="33.838416" lon="-116.726460"><ele>2418.4</ele><time>2024-05-04T00:11:02Z</time></trkpt>
<trkpt lat="33.838469" lon="-116.726473"><ele>2418.2</ele><time>2024-05-04T00:11:09Z</time></trkpt>
<trkpt lat="33.838774" lon="-116.727698"><ele>2412.6</ele><time>2024-05-04T00:12:58Z</time></trkpt>
<trkpt lat="33.838671" lon="-116.727542"><ele>2410.6</ele><time>2024-05-04T00:13:07Z</time></trkpt>
<trkpt lat="33.838685" lon="-116.727666"><ele>2409.2</ele><time>2024-05-04T00:13:19Z</time></trkpt>
<trkpt lat="33.838616" lon="-116.727812"><ele>2406.8</ele><time>2024-05-04T00:13:32Z</time></trkpt>
<trkpt lat="33.838416" lon="-116.728076"><ele>2406.8</ele><time>2024-05-04T00:14:15Z</time></trkpt>
<trkpt lat="33.838534" lon="-116.728978"><ele>2408.2</ele><time>2024-05-04T00:16:01Z</time></trkpt>
<trkpt lat="33.838168" lon="-116.728613"><ele>2408.2</ele><time>2024-05-04T00:16:06Z</time></trkpt>
<trkpt lat="33.838178" lon="-116.728780"><ele>2408.0</ele><time>2024-05-04T00:16:25Z</time></trkpt>
<trkpt lat="33.838349" lon="-116.729034"><ele>2408.2</ele><time>2024-05-04T00:16:53Z</time></trkpt>
<trkpt lat="33.838158" lon="-116.728993"><ele>2408.4</ele><time>2024-05-04T00:17:04Z</time></trkpt>
<trkpt lat="33.838304" lon="-116.729735"><ele>2405.8</ele><time>2024-05-04T00:18:29Z</time></trkpt>
<trkpt lat="33.838555" lon="-116.730293"><ele>2405.4</ele><time>2024-05-04T00:18:58Z</time></trkpt>
<trkpt lat="33.838364" lon="-116.730107"><ele>2405.4</ele><time>2024-05-04T00:18:59Z</time></trkpt>
<trkpt lat="33.838294" lon="-116.729876"><ele>2405.8</ele><time>2024-05-04T00:19:03Z</time></trkpt>
<trkpt lat="33.838594" lon="-116.730397"><ele>2396.6</ele><time>2024-05-04T00:21:02Z</time></trkpt>
<trkpt lat="33.838580" lon="-116.730521"><ele>2396.0</ele><time>2024-05-04T00:21:07Z</time></trkpt>
<trkpt lat="33.838482" lon="-116.730371"><ele>2395.4</ele><time>2024-05-04T00:21:15Z</time></trkpt>
<trkpt lat="33.838479" lon="-116.730666"><ele>2393.4</ele><time>2024-05-04T00:21:54Z</time></trkpt>
<trkpt lat="33.838538" lon="-116.730682"><ele>2393.2</ele><time>2024-05-04T00:22:02Z</time></trkpt>
<trkpt lat="33.838486" lon="-116.730739"><ele>2393.4</ele><time>2024-05-04T00:22:20Z</time></trkpt>
<trkpt lat="33.838792" lon="-116.730973"><ele>2385.4</ele><time>2024-05-04T00:23:20Z</time></trkpt>
<trkpt lat="33.838722" lon="-116.731607"><ele>2386.0</ele><time>2024-05-04T00:24:00Z</time></trkpt>
<trkpt lat="33.838822" lon="-116.731644"><ele>2386.4</ele><time>2024-05-04T00:24:01Z</time></trkpt>
<trkpt lat="33.838933" lon="-116.731541"><ele>2387.0</ele><time>2024-05-04T00:24:05Z</time></trkpt>
<trkpt lat="33.838976" lon="-116.731426"><ele>2387.6</ele><time>2024-05-04T00:24:11Z</time></trkpt>
<trkpt lat="33.838879" lon="-116.731215"><ele>2387.2</ele><time>2024-05-04T00:24:18Z</time></trkpt>
<trkpt lat="33.839051" lon="-116.731383"><ele>2387.2</ele><time>2024-05-04T00:24:54Z</time></trkpt>
<trkpt lat="33.838951" lon="-116.731533"><ele>2389.6</ele><time>2024-05-04T00:25:15Z</time></trkpt>
<trkpt lat="33.838943" lon="-116.731895"><ele>2390.8</ele><time>2024-05-04T00:25:42Z</time></trkpt>
<trkpt lat="33.838818" lon="-116.732604"><ele>2394.0</ele><time>2024-05-04T00:26:56Z</time></trkpt>
<trkpt lat="33.838878" lon="-116.732579"><ele>2394.4</ele><time>2024-05-04T00:26:58Z</time></trkpt>
<trkpt lat="33.838802" lon="-116.732581"><ele>2394.2</ele><time>2024-05-04T00:27:06Z</time></trkpt>
<trkpt lat="33.838689" lon="-116.733814"><ele>2391.8</ele><time>2024-05-04T00:28:58Z</time></trkpt>
<trkpt lat="33.838676" lon="-116.733685"><ele>2391.8</ele><time>2024-05-04T00:29:00Z</time></trkpt>
<trkpt lat="33.838576" lon="-116.733600"><ele>2391.6</ele><time>2024-05-04T00:29:06Z</time></trkpt>
<trkpt lat="33.838772" lon="-116.734793"><ele>2384.2</ele><time>2024-05-04T00:31:02Z</time></trkpt>
<trkpt lat="33.838682" lon="-116.734762"><ele>2384.0</ele><time>2024-05-04T00:31:05Z</time></trkpt>
<trkpt lat="33.838817" lon="-116.734901"><ele>2382.0</ele><time>2024-05-04T00:31:24Z</time></trkpt>
<trkpt lat="33.838912" lon="-116.735266"><ele>2376.4</ele><time>2024-05-04T00:32:14Z</time></trkpt>
<trkpt lat="33.838802" lon="-116.735639"><ele>2373.2</ele><time>2024-05-04T00:32:42Z</time></trkpt>
<trkpt lat="33.838925" lon="-116.735717"><ele>2372.6</ele><time>2024-05-04T00:32:57Z</time></trkpt>
<trkpt lat="33.838863" lon="-116.735734"><ele>2372.6</ele><time>2024-05-04T00:32:59Z</time></trkpt>
<trkpt lat="33.838889" lon="-116.735767"><ele>2372.6</ele><time>2024-05-04T00:33:02Z</time></trkpt>
<trkpt lat="33.838979" lon="-116.735751"><ele>2371.0</ele><time>2024-05-04T00:33:11Z</time></trkpt>
<trkpt lat="33.839079" lon="-116.735833"><ele>2367.4</ele><time>2024-05-04T00:33:36Z</time></trkpt>
<trkpt lat="33.839067" lon="-116.736050"><ele>2364.6</ele><time>2024-05-04T00:33:54Z</time></trkpt>
<trkpt lat="33.839445" lon="-116.736212"><ele>2363.4</ele><time>2024-05-04T00:34:26Z</time></trkpt>
<trkpt lat="33.839599" lon="-116.736506"><ele>2364.8</ele><time>2024-05-04T00:34:59Z</time></trkpt>
<trkpt lat="33.839784" lon="-116.736502"><ele>2365.6</ele><time>2024-05-04T00:35:11Z</time></trkpt>
</trkseg></trk>
</gpx>
