<?xml version="1.0" encoding="UTF-8"?>
<gpx version="1.1" creator="Eric Sichak trip reports" xmlns="http://www.topografix.com/GPX/1/1">
<metadata><name>PCT Day 19- Big Bear</name><time>2024-05-10T14:44:17Z</time></metadata>
<trk><name>PCT Day 19- Big Bear</name><type>hike</type><trkseg>
<trkpt lat="34.284408" lon="-116.915609"><ele>2301.4</ele><time>2024-05-10T14:44:17Z</time></trkpt>
<trkpt lat="34.284399" lon="-116.915659"><ele>2301.4</ele><time>2024-05-10T14:44:57Z</time></trkpt>
<trkpt lat="34.284531" lon="-116.914625"><ele>2299.0</ele><time>2024-05-10T14:46:52Z</time></trkpt>
<trkpt lat="34.284555" lon="-116.913629"><ele>2304.0</ele><time>2024-05-10T14:48:25Z</time></trkpt>
<trkpt lat="34.284619" lon="-116.913225"><ele>2304.0</ele><time>2024-05-10T14:48:42Z</time></trkpt>
<trkpt lat="34.284688" lon="-116.913229"><ele>2304.2</ele><time>2024-05-10T14:48:48Z</time></trkpt>
<trkpt lat="34.284718" lon="-116.913111"><ele>2303.8</ele><time>2024-05-10T14:48:57Z</time></trkpt>
<trkpt lat="34.284760" lon="-116.912348"><ele>2299.6</ele><time>2024-05-10T14:49:51Z</time></trkpt>
<trkpt lat="34.284564" lon="-116.911587"><ele>2294.6</ele><time>2024-05-10T14:50:42Z</time></trkpt>
<trkpt lat="34.284565" lon="-116.911679"><ele>2294.2</ele><time>2024-05-10T14:50:44Z</time></trkpt>
<trkpt lat="34.283737" lon="-116.910400"><ele>2297.4</ele><time>2024-05-10T14:52:42Z</time></trkpt>
<trkpt lat="34.283825" lon="-116.910127"><ele>2297.8</ele><time>2024-05-10T14:53:00Z</time></trkpt>
<trkpt lat="34.283373" lon="-116.909856"><ele>2298.8</ele><time>2024-05-10T14:53:57Z</time></trkpt>
<trkpt lat="34.283162" lon="-116.909946"><ele>2301.4</ele><time>2024-05-10T14:54:45Z</time></trkpt>
<trkpt lat="34.282845" lon="-116.910340"><ele>2305.4</ele><time>2024-05-10T14:55:31Z</time></trkpt>
<trkpt lat="34.282699" lon="-116.910624"><ele>2308.2</ele><time>2024-05-10T14:55:59Z</time></trkpt>
<trkpt lat="34.282323" lon="-116.911004"><ele>2312.2</ele><time>2024-05-10T14:56:42Z</time></trkpt>
<trkpt lat="34.281926" lon="-116.911231"><ele>2315.8</ele><time>2024-05-10T14:57:17Z</time></trkpt>
<trkpt lat="34.281441" lon="-116.911879"><ele>2323.0</ele><time>2024-05-10T14:58:42Z</time></trkpt>
<trkpt lat="34.281366" lon="-116.912140"><ele>2324.4</ele><time>2024-05-10T14:58:50Z</time></trkpt>
<trkpt lat="34.281391" lon="-116.912308"><ele>2325.2</ele><time>2024-05-10T14:59:00Z</time></trkpt>
<trkpt lat="34.281260" lon="-116.912624"><ele>2326.6</ele><time>2024-05-10T14:59:19Z</time></trkpt>
<trkpt lat="34.280879" lon="-116.913186"><ele>2331.2</ele><time>2024-05-10T15:00:42Z</time></trkpt>
<trkpt lat="34.280936" lon="-116.913336"><ele>2329.2</ele><time>2024-05-10T15:00:54Z</time></trkpt>
<trkpt lat="34.280729" lon="-116.914241"><ele>2322.0</ele><time>2024-05-10T15:02:49Z</time></trkpt>
<trkpt lat="34.280617" lon="-116.914325"><ele>2322.0</ele><time>2024-05-10T15:03:00Z</time></trkpt>
<trkpt lat="34.280516" lon="-116.914845"><ele>2317.6</ele><time>2024-05-10T15:04:05Z</time></trkpt>
<trkpt lat="34.280531" lon="-116.915461"><ele>2314.4</ele><time>2024-05-10T15:04:49Z</time></trkpt>
<trkpt lat="34.280009" lon="-116.915770"><ele>2313.4</ele><time>2024-05-10T15:06:17Z</time></trkpt>
<trkpt lat="34.279672" lon="-116.915494"><ele>2312.4</ele><time>2024-05-10T15:07:01Z</time></trkpt>
<trkpt lat="34.279228" lon="-116.915308"><ele>2311.2</ele><time>2024-05-10T15:08:07Z</time></trkpt>
<trkpt lat="34.279060" lon="-116.915037"><ele>2311.6</ele><time>2024-05-10T15:08:33Z</time></trkpt>
<trkpt lat="34.278701" lon="-116.914708"><ele>2308.0</ele><time>2024-05-10T15:09:21Z</time></trkpt>
<trkpt lat="34.278607" lon="-116.914516"><ele>2308.2</ele><time>2024-05-10T15:10:44Z</time></trkpt>
<trkpt lat="34.278641" lon="-116.914557"><ele>2307.0</ele><time>2024-05-10T15:11:59Z</time></trkpt>
<trkpt lat="34.278680" lon="-116.914466"><ele>2308.6</ele><time>2024-05-10T15:12:45Z</time></trkpt>
<trkpt lat="34.278896" lon="-116.914382"><ele>2313.0</ele><time>2024-05-10T15:14:43Z</time></trkpt>
<trkpt lat="34.278845" lon="-116.914414"><ele>2312.2</ele><time>2024-05-10T15:14:51Z</time></trkpt>
<trkpt lat="34.278806" lon="-116.914319"><ele>2310.4</ele><time>2024-05-10T15:16:47Z</time></trkpt>
<trkpt lat="34.278868" lon="-116.914450"><ele>2312.2</ele><time>2024-05-10T15:18:52Z</time></trkpt>
<trkpt lat="34.278413" lon="-116.914394"><ele>2301.4</ele><time>2024-05-10T15:20:42Z</time></trkpt>
<trkpt lat="34.278512" lon="-116.914405"><ele>2301.4</ele><time>2024-05-10T15:20:53Z</time></trkpt>
<trkpt lat="34.278678" lon="-116.914082"><ele>2300.8</ele><time>2024-05-10T15:21:11Z</time></trkpt>
<trkpt lat="34.278997" lon="-116.913789"><ele>2296.6</ele><time>2024-05-10T15:21:53Z</time></trkpt>
<trkpt lat="34.279275" lon="-116.913838"><ele>2293.4</ele><time>2024-05-10T15:22:25Z</time></trkpt>
<trkpt lat="34.279432" lon="-116.913796"><ele>2291.8</ele><time>2024-05-10T15:22:44Z</time></trkpt>
<trkpt lat="34.279500" lon="-116.913905"><ele>2291.0</ele><time>2024-05-10T15:22:52Z</time></trkpt>
<trkpt lat="34.279752" lon="-116.913459"><ele>2287.4</ele><time>2024-05-10T15:24:13Z</time></trkpt>
<trkpt lat="34.279732" lon="-116.913022"><ele>2285.8</ele><time>2024-05-10T15:24:44Z</time></trkpt>
<trkpt lat="34.279301" lon="-116.912134"><ele>2279.4</ele><time>2024-05-10T15:26:03Z</time></trkpt>
<trkpt lat="34.279113" lon="-116.911614"><ele>2278.2</ele><time>2024-05-10T15:26:42Z</time></trkpt>
<trkpt lat="34.279042" lon="-116.911547"><ele>2277.2</ele><time>2024-05-10T15:26:49Z</time></trkpt>
<trkpt lat="34.278556" lon="-116.911629"><ele>2271.8</ele><time>2024-05-10T15:27:59Z</time></trkpt>
<trkpt lat="34.278357" lon="-116.912043"><ele>2269.0</ele><time>2024-05-10T15:28:42Z</time></trkpt>
<trkpt lat="34.278459" lon="-116.912183"><ele>2268.2</ele><time>2024-05-10T15:28:58Z</time></trkpt>
<trkpt lat="34.278360" lon="-116.912401"><ele>2263.2</ele><time>2024-05-10T15:29:53Z</time></trkpt>
<trkpt lat="34.278177" lon="-116.912289"><ele>2257.6</ele><time>2024-05-10T15:30:42Z</time></trkpt>
<trkpt lat="34.278170" lon="-116.912338"><ele>2257.4</ele><time>2024-05-10T15:30:46Z</time></trkpt>
<trkpt lat="34.277905" lon="-116.911960"><ele>2256.8</ele><time>2024-05-10T15:31:15Z</time></trkpt>
<trkpt lat="34.277646" lon="-116.911764"><ele>2256.4</ele><time>2024-05-10T15:31:59Z</time></trkpt>
<trkpt lat="34.277359" lon="-116.911341"><ele>2255.6</ele><time>2024-05-10T15:32:42Z</time></trkpt>
<trkpt lat="34.277439" lon="-116.911064"><ele>2254.2</ele><time>2024-05-10T15:33:01Z</time></trkpt>
<trkpt lat="34.277571" lon="-116.910926"><ele>2253.2</ele><time>2024-05-10T15:33:15Z</time></trkpt>
<trkpt lat="34.278077" lon="-116.910765"><ele>2249.8</ele><time>2024-05-10T15:34:03Z</time></trkpt>
<trkpt lat="34.278656" lon="-116.910366"><ele>2245.4</ele><time>2024-05-10T15:34:42Z</time></trkpt>
<trkpt lat="34.278481" lon="-116.910563"><ele>2245.2</ele><time>2024-05-10T15:34:45Z</time></trkpt>
<trkpt lat="34.278309" lon="-116.910583"><ele>2245.2</ele><time>2024-05-10T15:34:50Z</time></trkpt>
<trkpt lat="34.277719" lon="-116.910133"><ele>2243.2</ele><time>2024-05-10T15:35:51Z</time></trkpt>
<trkpt lat="34.277339" lon="-116.909788"><ele>2235.4</ele><time>2024-05-10T15:36:45Z</time></trkpt>
<trkpt lat="34.277333" lon="-116.909853"><ele>2234.6</ele><time>2024-05-10T15:36:51Z</time></trkpt>
<trkpt lat="34.277255" lon="-116.909866"><ele>2234.4</ele><time>2024-05-10T15:36:56Z</time></trkpt>
<trkpt lat="34.277057" lon="-116.909785"><ele>2233.6</ele><time>2024-05-10T15:37:13Z</time></trkpt>
<trkpt lat="34.276554" lon="-116.909358"><ele>2227.4</ele><time>2024-05-10T15:38:31Z</time></trkpt>
<trkpt lat="34.276467" lon="-116.909260"><ele>2226.8</ele><time>2024-05-10T15:38:43Z</time></trkpt>
<trkpt lat="34.276429" lon="-116.909037"><ele>2226.2</ele><time>2024-05-10T15:38:57Z</time></trkpt>
<trkpt lat="34.276569" lon="-116.908760"><ele>2223.8</ele><time>2024-05-10T15:39:27Z</time></trkpt>
<trkpt lat="34.276722" lon="-116.908633"><ele>2219.6</ele><time>2024-05-10T15:40:07Z</time></trkpt>
<trkpt lat="34.276789" lon="-116.908328"><ele>2218.8</ele><time>2024-05-10T15:40:42Z</time></trkpt>
<trkpt lat="34.276804" lon="-116.908375"><ele>2218.6</ele><time>2024-05-10T15:40:46Z</time></trkpt>
<trkpt lat="34.276721" lon="-116.908375"><ele>2218.6</ele><time>2024-05-10T15:41:01Z</time></trkpt>
<trkpt lat="34.276065" lon="-116.907554"><ele>2208.6</ele><time>2024-05-10T15:42:42Z</time></trkpt>
<trkpt lat="34.275877" lon="-116.907556"><ele>2208.6</ele><time>2024-05-10T15:42:51Z</time></trkpt>
<trkpt lat="34.275448" lon="-116.908199"><ele>2204.8</ele><time>2024-05-10T15:43:51Z</time></trkpt>
<trkpt lat="34.274776" lon="-116.908549"><ele>2201.6</ele><time>2024-05-10T15:44:42Z</time></trkpt>
<trkpt lat="34.275123" lon="-116.908442"><ele>2201.0</ele><time>2024-05-10T15:44:45Z</time></trkpt>
<trkpt lat="34.274306" lon="-116.908306"><ele>2187.4</ele><time>2024-05-10T15:46:17Z</time></trkpt>
<trkpt lat="34.274112" lon="-116.907961"><ele>2183.0</ele><time>2024-05-10T15:46:46Z</time></trkpt>
<trkpt lat="34.273686" lon="-116.907557"><ele>2177.4</ele><time>2024-05-10T15:47:23Z</time></trkpt>
<trkpt lat="34.272831" lon="-116.907360"><ele>2176.6</ele><time>2024-05-10T15:48:43Z</time></trkpt>
<trkpt lat="34.272771" lon="-116.907592"><ele>2176.2</ele><time>2024-05-10T15:48:58Z</time></trkpt>
<trkpt lat="34.272295" lon="-116.907797"><ele>2173.2</ele><time>2024-05-10T15:49:47Z</time></trkpt>
<trkpt lat="34.272078" lon="-116.907745"><ele>2171.2</ele><time>2024-05-10T15:50:11Z</time></trkpt>
<trkpt lat="34.271557" lon="-116.907816"><ele>2167.8</ele><time>2024-05-10T15:50:50Z</time></trkpt>
<trkpt lat="34.271277" lon="-116.907986"><ele>2166.0</ele><time>2024-05-10T15:51:25Z</time></trkpt>
<trkpt lat="34.270722" lon="-116.907897"><ele>2164.6</ele><time>2024-05-10T15:52:15Z</time></trkpt>
<trkpt lat="34.270387" lon="-116.907741"><ele>2162.4</ele><time>2024-05-10T15:52:43Z</time></trkpt>
<trkpt lat="34.270362" lon="-116.907689"><ele>2162.4</ele><time>2024-05-10T15:52:46Z</time></trkpt>
<trkpt lat="34.270419" lon="-116.907636"><ele>2162.2</ele><time>2024-05-10T15:53:02Z</time></trkpt>
<trkpt lat="34.269883" lon="-116.907152"><ele>2157.8</ele><time>2024-05-10T15:54:13Z</time></trkpt>
<trkpt lat="34.269503" lon="-116.906905"><ele>2156.0</ele><time>2024-05-10T15:54:42Z</time></trkpt>
<trkpt lat="34.269440" lon="-116.906780"><ele>2155.2</ele><time>2024-05-10T15:54:51Z</time></trkpt>
<trkpt lat="34.269299" lon="-116.906763"><ele>2154.0</ele><time>2024-05-10T15:55:07Z</time></trkpt>
<trkpt lat="34.269224" lon="-116.906798"><ele>2153.0</ele><time>2024-05-10T15:55:15Z</time></trkpt>
<trkpt lat="34.269204" lon="-116.906943"><ele>2152.0</ele><time>2024-05-10T15:55:25Z</time></trkpt>
<trkpt lat="34.269556" lon="-116.908009"><ele>2143.6</ele><time>2024-05-10T15:56:49Z</time></trkpt>
<trkpt lat="34.269375" lon="-116.908803"><ele>2137.6</ele><time>2024-05-10T15:57:55Z</time></trkpt>
<trkpt lat="34.269415" lon="-116.908908"><ele>2137.8</ele><time>2024-05-10T15:58:03Z</time></trkpt>
<trkpt lat="34.269110" lon="-116.909148"><ele>2134.4</ele><time>2024-05-10T15:58:47Z</time></trkpt>
<trkpt lat="34.269060" lon="-116.909146"><ele>2134.4</ele><time>2024-05-10T15:58:48Z</time></trkpt>
<trkpt lat="34.269073" lon="-116.909063"><ele>2133.4</ele><time>2024-05-10T15:58:58Z</time></trkpt>
<trkpt lat="34.268859" lon="-116.909056"><ele>2131.2</ele><time>2024-05-10T15:59:17Z</time></trkpt>
<trkpt lat="34.268414" lon="-116.909776"><ele>2121.4</ele><time>2024-05-10T16:00:33Z</time></trkpt>
<trkpt lat="34.268210" lon="-116.909827"><ele>2120.4</ele><time>2024-05-10T16:00:49Z</time></trkpt>
<trkpt lat="34.267791" lon="-116.910418"><ele>2118.4</ele><time>2024-05-10T16:01:13Z</time></trkpt>
<trkpt lat="34.267423" lon="-116.910686"><ele>2117.2</ele><time>2024-05-10T16:01:35Z</time></trkpt>
<trkpt lat="34.267060" lon="-116.911107"><ele>2116.2</ele><time>2024-05-10T16:01:59Z</time></trkpt>
<trkpt lat="34.266873" lon="-116.911496"><ele>2116.2</ele><time>2024-05-10T16:02:29Z</time></trkpt>
<trkpt lat="34.266254" lon="-116.911883"><ele>2113.8</ele><time>2024-05-10T16:02:44Z</time></trkpt>
<trkpt lat="34.266830" lon="-116.911397"><ele>2113.4</ele><time>2024-05-10T16:02:51Z</time></trkpt>
<trkpt lat="34.266779" lon="-116.911486"><ele>2113.4</ele><time>2024-05-10T16:02:53Z</time></trkpt>
<trkpt lat="34.266904" lon="-116.911445"><ele>2113.4</ele><time>2024-05-10T16:02:56Z</time></trkpt>
<trkpt lat="34.266982" lon="-116.911327"><ele>2113.6</ele><time>2024-05-10T16:02:59Z</time></trkpt>
<trkpt lat="34.266585" lon="-116.911709"><ele>2111.6</ele><time>2024-05-10T16:03:27Z</time></trkpt>
<trkpt lat="34.266425" lon="-116.911371"><ele>2105.6</ele><time>2024-05-10T16:04:42Z</time></trkpt>
<trkpt lat="34.266325" lon="-116.911596"><ele>2105.2</ele><time>2024-05-10T16:04:59Z</time></trkpt>
<trkpt lat="34.265781" lon="-116.911408"><ele>2103.0</ele><time>2024-05-10T16:05:57Z</time></trkpt>
<trkpt lat="34.265354" lon="-116.910961"><ele>2099.6</ele><time>2024-05-10T16:06:44Z</time></trkpt>
<trkpt lat="34.265079" lon="-116.910982"><ele>2098.0</ele><time>2024-05-10T16:08:39Z</time></trkpt>
<trkpt lat="34.265074" lon="-116.910883"><ele>2098.2</ele><time>2024-05-10T16:08:48Z</time></trkpt>
<trkpt lat="34.264839" lon="-116.910856"><ele>2097.2</ele><time>2024-05-10T16:09:21Z</time></trkpt>
<trkpt lat="34.264569" lon="-116.910702"><ele>2097.0</ele><time>2024-05-10T16:09:43Z</time></trkpt>
<trkpt lat="34.264033" lon="-116.910763"><ele>2092.2</ele><time>2024-05-10T16:10:44Z</time></trkpt>
<trkpt lat="34.243708" lon="-116.901844"><ele>2077.0</ele><time>2024-05-10T19:31:45Z</time></trkpt>
<trkpt lat="34.243659" lon="-116.901899"><ele>2077.0</ele><time>2024-05-10T19:31:49Z</time></trkpt>
<trkpt lat="34.243728" lon="-116.901854"><ele>2076.8</ele><time>2024-05-10T19:32:01Z</time></trkpt>
<trkpt lat="34.243759" lon="-116.901715"><ele>2077.4</ele><time>2024-05-10T19:32:41Z</time></trkpt>
<trkpt lat="34.243845" lon="-116.901717"><ele>2077.8</ele><time>2024-05-10T19:32:51Z</time></trkpt>
<trkpt lat="34.243822" lon="-116.901754"><ele>2077.6</ele><time>2024-05-10T19:33:06Z</time></trkpt>
<trkpt lat="34.243841" lon="-116.901659"><ele>2077.8</ele><time>2024-05-10T19:33:20Z</time></trkpt>
<trkpt lat="34.243882" lon="-116.901672"><ele>2078.0</ele><time>2024-05-10T19:33:27Z</time></trkpt>
<trkpt lat="34.243852" lon="-116.901755"><ele>2078.2</ele><time>2024-05-10T19:35:15Z</time></trkpt>
<trkpt lat="34.243673" lon="-116.901849"><ele>2078.2</ele><time>2024-05-10T19:35:59Z</time></trkpt>
<trkpt lat="34.243772" lon="-116.901427"><ele>2078.6</ele><time>2024-05-10T19:37:42Z</time></trkpt>
<trkpt lat="34.243722" lon="-116.901458"><ele>2078.6</ele><time>2024-05-10T19:37:47Z</time></trkpt>
<trkpt lat="34.243688" lon="-116.901343"><ele>2079.0</ele><time>2024-05-10T19:37:52Z</time></trkpt>
<trkpt lat="34.243541" lon="-116.900643"><ele>2079.8</ele><time>2024-05-10T19:39:31Z</time></trkpt>
<trkpt lat="34.243582" lon="-116.900721"><ele>2079.4</ele><time>2024-05-10T19:39:45Z</time></trkpt>
<trkpt lat="34.243451" lon="-116.900666"><ele>2080.2</ele><time>2024-05-10T19:40:02Z</time></trkpt>
<trkpt lat="34.243317" lon="-116.899683"><ele>2082.0</ele><time>2024-05-10T19:41:31Z</time></trkpt>
<trkpt lat="34.243409" lon="-116.899269"><ele>2083.2</ele><time>2024-05-10T19:41:59Z</time></trkpt>
<trkpt lat="34.242942" lon="-116.899163"><ele>2083.8</ele><time>2024-05-10T19:46:59Z</time></trkpt>
<trkpt lat="34.243437" lon="-116.899053"><ele>2083.6</ele><time>2024-05-10T19:51:31Z</time></trkpt>
<trkpt lat="34.243020" lon="-116.899103"><ele>2083.4</ele><time>2024-05-10T19:51:34Z</time></trkpt>
<trkpt lat="34.242938" lon="-116.899220"><ele>2083.4</ele><time>2024-05-10T19:51:36Z</time></trkpt>
<trkpt lat="34.243117" lon="-116.898688"><ele>2083.2</ele><time>2024-05-10T19:55:05Z</time></trkpt>
<trkpt lat="34.243143" lon="-116.898749"><ele>2083.2</ele><time>2024-05-10T19:56:33Z</time></trkpt>
<trkpt lat="34.243109" lon="-116.898538"><ele>2083.4</ele><time>2024-05-10T19:56:51Z</time></trkpt>
<trkpt lat="34.243211" lon="-116.898919"><ele>2083.4</ele><time>2024-05-10T19:57:41Z</time></trkpt>
<trkpt lat="34.243384" lon="-116.898811"><ele>2083.8</ele><time>2024-05-10T19:57:58Z</time></trkpt>
<trkpt lat="34.243323" lon="-116.897397"><ele>2084.2</ele><time>2024-05-10T19:59:41Z</time></trkpt>
<trkpt lat="34.243386" lon="-116.897396"><ele>2084.0</ele><time>2024-05-10T19:59:46Z</time></trkpt>
<trkpt lat="34.243407" lon="-116.897156"><ele>2084.2</ele><time>2024-05-10T19:59:58Z</time></trkpt>
<trkpt lat="34.243343" lon="-116.896669"><ele>2084.6</ele><time>2024-05-10T20:00:19Z</time></trkpt>
<trkpt lat="34.243350" lon="-116.895952"><ele>2088.4</ele><time>2024-05-10T20:01:39Z</time></trkpt>
<trkpt lat="34.243295" lon="-116.895742"><ele>2088.6</ele><time>2024-05-10T20:01:43Z</time></trkpt>
<trkpt lat="34.243353" lon="-116.895540"><ele>2088.8</ele><time>2024-05-10T20:01:54Z</time></trkpt>
<trkpt lat="34.243253" lon="-116.893852"><ele>2088.2</ele><time>2024-05-10T20:03:47Z</time></trkpt>
<trkpt lat="34.243486" lon="-116.893757"><ele>2088.0</ele><time>2024-05-10T20:05:47Z</time></trkpt>
<trkpt lat="34.243356" lon="-116.893758"><ele>2088.0</ele><time>2024-05-10T20:05:49Z</time></trkpt>
<trkpt lat="34.243364" lon="-116.893637"><ele>2087.8</ele><time>2024-05-10T20:05:57Z</time></trkpt>
<trkpt lat="34.243229" lon="-116.893312"><ele>2087.8</ele><time>2024-05-10T20:06:09Z</time></trkpt>
<trkpt lat="34.242774" lon="-116.891499"><ele>2088.8</ele><time>2024-05-10T20:07:47Z</time></trkpt>
<trkpt lat="34.242723" lon="-116.891079"><ele>2088.8</ele><time>2024-05-10T20:07:48Z</time></trkpt>
<trkpt lat="34.242843" lon="-116.890898"><ele>2088.8</ele><time>2024-05-10T20:07:49Z</time></trkpt>
<trkpt lat="34.243316" lon="-116.892012"><ele>2089.0</ele><time>2024-05-10T20:07:54Z</time></trkpt>
<trkpt lat="34.243319" lon="-116.890163"><ele>2090.6</ele><time>2024-05-10T20:10:01Z</time></trkpt>
<trkpt lat="34.243207" lon="-116.889699"><ele>2091.6</ele><time>2024-05-10T20:10:27Z</time></trkpt>
<trkpt lat="34.243148" lon="-116.889567"><ele>2091.6</ele><time>2024-05-10T20:10:47Z</time></trkpt>
<trkpt lat="34.242996" lon="-116.889457"><ele>2091.6</ele><time>2024-05-10T20:10:59Z</time></trkpt>
<trkpt lat="34.242929" lon="-116.889270"><ele>2091.6</ele><time>2024-05-10T20:11:13Z</time></trkpt>
<trkpt lat="34.243288" lon="-116.888611"><ele>2091.2</ele><time>2024-05-10T20:11:46Z</time></trkpt>
<trkpt lat="34.243228" lon="-116.888487"><ele>2091.2</ele><time>2024-05-10T20:12:00Z</time></trkpt>
<trkpt lat="34.243235" lon="-116.887206"><ele>2091.8</ele><time>2024-05-10T20:14:02Z</time></trkpt>
<trkpt lat="34.243370" lon="-116.885890"><ele>2090.6</ele><time>2024-05-10T20:15:31Z</time></trkpt>
<trkpt lat="34.243488" lon="-116.885661"><ele>2090.2</ele><time>2024-05-10T20:15:43Z</time></trkpt>
<trkpt lat="34.243538" lon="-116.885668"><ele>2090.0</ele><time>2024-05-10T20:15:50Z</time></trkpt>
<trkpt lat="34.243729" lon="-116.884977"><ele>2089.4</ele><time>2024-05-10T20:16:25Z</time></trkpt>
<trkpt lat="34.244237" lon="-116.884254"><ele>2087.8</ele><time>2024-05-10T20:17:39Z</time></trkpt>
<trkpt lat="34.244235" lon="-116.884172"><ele>2087.6</ele><time>2024-05-10T20:17:47Z</time></trkpt>
<trkpt lat="34.244964" lon="-116.883636"><ele>2086.4</ele><time>2024-05-10T20:18:51Z</time></trkpt>
<trkpt lat="34.245136" lon="-116.883327"><ele>2085.4</ele><time>2024-05-10T20:19:29Z</time></trkpt>
<trkpt lat="34.245530" lon="-116.883043"><ele>2084.6</ele><time>2024-05-10T20:19:57Z</time></trkpt>
<trkpt lat="34.246684" lon="-116.882751"><ele>2081.8</ele><time>2024-05-10T20:21:27Z</time></trkpt>
<trkpt lat="34.246688" lon="-116.882611"><ele>2081.6</ele><time>2024-05-10T20:21:42Z</time></trkpt>
<trkpt lat="34.248392" lon="-116.882729"><ele>2079.0</ele><time>2024-05-10T20:24:02Z</time></trkpt>
<trkpt lat="34.249321" lon="-116.883436"><ele>2079.0</ele><time>2024-05-10T20:25:07Z</time></trkpt>
<trkpt lat="34.249598" lon="-116.883227"><ele>2079.2</ele><time>2024-05-10T20:25:45Z</time></trkpt>
<trkpt lat="34.250209" lon="-116.883458"><ele>2078.2</ele><time>2024-05-10T20:26:33Z</time></trkpt>
<trkpt lat="34.250707" lon="-116.883927"><ele>2077.0</ele><time>2024-05-10T20:27:17Z</time></trkpt>
<trkpt lat="34.250715" lon="-116.883843"><ele>2077.2</ele><time>2024-05-10T20:27:29Z</time></trkpt>
<trkpt lat="34.251047" lon="-116.883744"><ele>2077.6</ele><time>2024-05-10T20:27:52Z</time></trkpt>
<trkpt lat="34.252044" lon="-116.884148"><ele>2074.2</ele><time>2024-05-10T20:30:01Z</time></trkpt>
<trkpt lat="34.252255" lon="-116.883860"><ele>2076.0</ele><time>2024-05-10T20:30:58Z</time></trkpt>
<trkpt lat="34.252767" lon="-116.883415"><ele>2077.0</ele><time>2024-05-10T20:32:02Z</time></trkpt>
<trkpt lat="34.252596" lon="-116.883482"><ele>2077.2</ele><time>2024-05-10T20:32:08Z</time></trkpt>
<trkpt lat="34.252875" lon="-116.883874"><ele>2077.2</ele><time>2024-05-10T20:32:40Z</time></trkpt>
<trkpt lat="34.252777" lon="-116.883440"><ele>2077.0</ele><time>2024-05-10T20:32:57Z</time></trkpt>
<trkpt lat="34.252833" lon="-116.883277"><ele>2076.8</ele><time>2024-05-10T20:34:37Z</time></trkpt>
<trkpt lat="34.252956" lon="-116.883211"><ele>2076.6</ele><time>2024-05-10T20:34:47Z</time></trkpt>
<trkpt lat="34.252970" lon="-116.883287"><ele>2076.8</ele><time>2024-05-10T20:34:57Z</time></trkpt>
<trkpt lat="34.252922" lon="-116.883286"><ele>2076.6</ele><time>2024-05-10T20:35:01Z</time></trkpt>
<trkpt lat="34.253063" lon="-116.883444"><ele>2076.2</ele><time>2024-05-10T20:35:50Z</time></trkpt>
<trkpt lat="34.253050" lon="-116.883594"><ele>2076.2</ele><time>2024-05-10T20:36:58Z</time></trkpt>
<trkpt lat="34.252847" lon="-116.883299"><ele>2076.8</ele><time>2024-05-10T20:38:48Z</time></trkpt>
<trkpt lat="34.253044" lon="-116.883414"><ele>2076.4</ele><time>2024-05-10T20:40:55Z</time></trkpt>
<trkpt lat="34.252917" lon="-116.883331"><ele>2076.4</ele><time>2024-05-10T20:42:57Z</time></trkpt>
<trkpt lat="34.253012" lon="-116.883348"><ele>2076.2</ele><time>2024-05-10T20:43:15Z</time></trkpt>
<trkpt lat="34.253022" lon="-116.883593"><ele>2076.4</ele><time>2024-05-10T20:44:48Z</time></trkpt>
<trkpt lat="34.252928" lon="-116.883454"><ele>2076.4</ele><time>2024-05-10T20:44:53Z</time></trkpt>
<trkpt lat="34.252955" lon="-116.883381"><ele>2076.4</ele><time>2024-05-10T20:44:58Z</time></trkpt>
<trkpt lat="34.252666" lon="-116.883390"><ele>2076.4</ele><time>2024-05-10T20:46:56Z</time></trkpt>
<trkpt lat="34.252987" lon="-116.883806"><ele>2076.6</ele><time>2024-05-10T20:48:49Z</time></trkpt>
<trkpt lat="34.252878" lon="-116.883776"><ele>2076.6</ele><time>2024-05-10T20:48:54Z</time></trkpt>
<trkpt lat="34.252923" lon="-116.883751"><ele>2076.4</ele><time>2024-05-10T20:49:00Z</time></trkpt>
<trkpt lat="34.253040" lon="-116.883899"><ele>2077.0</ele><time>2024-05-10T20:50:03Z</time></trkpt>
<trkpt lat="34.252998" lon="-116.883623"><ele>2077.4</ele><time>2024-05-10T20:50:57Z</time></trkpt>
<trkpt lat="34.252859" lon="-116.883774"><ele>2077.0</ele><time>2024-05-10T20:52:54Z</time></trkpt>
<trkpt lat="34.253128" lon="-116.883653"><ele>2075.6</ele><time>2024-05-10T20:56:55Z</time></trkpt>
<trkpt lat="34.253025" lon="-116.883647"><ele>2075.4</ele><time>2024-05-10T20:57:00Z</time></trkpt>
<trkpt lat="34.253125" lon="-116.883591"><ele>2075.0</ele><time>2024-05-10T20:57:44Z</time></trkpt>
<trkpt lat="34.252958" lon="-116.883759"><ele>2075.0</ele><time>2024-05-10T20:59:56Z</time></trkpt>
<trkpt lat="34.253121" lon="-116.883587"><ele>2075.6</ele><time>2024-05-10T21:01:54Z</time></trkpt>
<trkpt lat="34.252847" lon="-116.884023"><ele>2075.4</ele><time>2024-05-10T21:03:53Z</time></trkpt>
<trkpt lat="34.253124" lon="-116.883949"><ele>2075.4</ele><time>2024-05-10T21:03:56Z</time></trkpt>
<trkpt lat="34.253159" lon="-116.883534"><ele>2075.4</ele><time>2024-05-10T21:04:29Z</time></trkpt>
<trkpt lat="34.253123" lon="-116.883686"><ele>2075.4</ele><time>2024-05-10T21:05:46Z</time></trkpt>
<trkpt lat="34.253056" lon="-116.883634"><ele>2075.2</ele><time>2024-05-10T21:05:53Z</time></trkpt>
<trkpt lat="34.253140" lon="-116.883687"><ele>2075.0</ele><time>2024-05-10T21:07:46Z</time></trkpt>
<trkpt lat="34.253172" lon="-116.883498"><ele>2074.8</ele><time>2024-05-10T21:07:53Z</time></trkpt>
<trkpt lat="34.253140" lon="-116.883778"><ele>2074.2</ele><time>2024-05-10T21:09:44Z</time></trkpt>
<trkpt lat="34.253078" lon="-116.883644"><ele>2074.0</ele><time>2024-05-10T21:09:52Z</time></trkpt>
<trkpt lat="34.253256" lon="-116.883584"><ele>2074.0</ele><time>2024-05-10T21:11:48Z</time></trkpt>
<trkpt lat="34.253237" lon="-116.883391"><ele>2074.0</ele><time>2024-05-10T21:11:52Z</time></trkpt>
<trkpt lat="34.253048" lon="-116.883679"><ele>2072.2</ele><time>2024-05-10T21:15:56Z</time></trkpt>
<trkpt lat="34.253132" lon="-116.883439"><ele>2072.0</ele><time>2024-05-10T21:17:57Z</time></trkpt>
<trkpt lat="34.252996" lon="-116.884219"><ele>2076.0</ele><time>2024-05-10T21:25:47Z</time></trkpt>
<trkpt lat="34.252948" lon="-116.883879"><ele>2076.0</ele><time>2024-05-10T21:25:51Z</time></trkpt>
<trkpt lat="34.253061" lon="-116.883760"><ele>2076.6</ele><time>2024-05-10T21:27:49Z</time></trkpt>
<trkpt lat="34.253054" lon="-116.883653"><ele>2076.4</ele><time>2024-05-10T21:27:55Z</time></trkpt>
<trkpt lat="34.253067" lon="-116.883853"><ele>2076.6</ele><time>2024-05-10T21:29:50Z</time></trkpt>
<trkpt lat="34.253033" lon="-116.883696"><ele>2076.8</ele><time>2024-05-10T21:29:58Z</time></trkpt>
<trkpt lat="34.253058" lon="-116.883749"><ele>2076.8</ele><time>2024-05-10T21:30:02Z</time></trkpt>
<trkpt lat="34.252992" lon="-116.883780"><ele>2077.2</ele><time>2024-05-10T21:31:51Z</time></trkpt>
<trkpt lat="34.253084" lon="-116.883620"><ele>2074.0</ele><time>2024-05-10T21:37:02Z</time></trkpt>
<trkpt lat="34.253073" lon="-116.883753"><ele>2074.0</ele><time>2024-05-10T21:38:41Z</time></trkpt>
<trkpt lat="34.253300" lon="-116.883949"><ele>2075.2</ele><time>2024-05-10T21:39:00Z</time></trkpt>
<trkpt lat="34.253505" lon="-116.884266"><ele>2073.6</ele><time>2024-05-10T21:40:55Z</time></trkpt>
<trkpt lat="34.253415" lon="-116.883966"><ele>2073.4</ele><time>2024-05-10T21:40:57Z</time></trkpt>
<trkpt lat="34.253534" lon="-116.884323"><ele>2073.4</ele><time>2024-05-10T21:40:58Z</time></trkpt>
<trkpt lat="34.253525" lon="-116.884465"><ele>2073.2</ele><time>2024-05-10T21:41:01Z</time></trkpt>
<trkpt lat="34.253518" lon="-116.884306"><ele>2073.0</ele><time>2024-05-10T21:43:34Z</time></trkpt>
<trkpt lat="34.253445" lon="-116.884442"><ele>2073.0</ele><time>2024-05-10T21:43:57Z</time></trkpt>
<trkpt lat="34.253416" lon="-116.884355"><ele>2073.8</ele><time>2024-05-10T21:44:55Z</time></trkpt>
<trkpt lat="34.253316" lon="-116.884322"><ele>2074.2</ele><time>2024-05-10T21:45:43Z</time></trkpt>
<trkpt lat="34.253657" lon="-116.884422"><ele>2074.4</ele><time>2024-05-10T21:47:46Z</time></trkpt>
<trkpt lat="34.253594" lon="-116.884626"><ele>2073.8</ele><time>2024-05-10T21:47:53Z</time></trkpt>
<trkpt lat="34.253612" lon="-116.884762"><ele>2072.6</ele><time>2024-05-10T21:47:57Z</time></trkpt>
<trkpt lat="34.253668" lon="-116.884718"><ele>2072.6</ele><time>2024-05-10T21:48:01Z</time></trkpt>
<trkpt lat="34.253616" lon="-116.884764"><ele>2072.6</ele><time>2024-05-10T21:48:02Z</time></trkpt>
<trkpt lat="34.254299" lon="-116.884444"><ele>2072.4</ele><time>2024-05-10T21:48:11Z</time></trkpt>
<trkpt lat="34.254589" lon="-116.884317"><ele>2079.0</ele><time>2024-05-10T21:48:21Z</time></trkpt>
<trkpt lat="34.254929" lon="-116.884169"><ele>2070.8</ele><time>2024-05-10T21:48:39Z</time></trkpt>
<trkpt lat="34.255879" lon="-116.883754"><ele>2069.8</ele><time>2024-05-10T21:49:31Z</time></trkpt>
<trkpt lat="34.257100" lon="-116.883059"><ele>2070.2</ele><time>2024-05-10T21:49:44Z</time></trkpt>
<trkpt lat="34.257870" lon="-116.883547"><ele>2071.8</ele><time>2024-05-10T21:49:51Z</time></trkpt>
<trkpt lat="34.258985" lon="-116.884022"><ele>2074.8</ele><time>2024-05-10T21:50:00Z</time></trkpt>
<trkpt lat="34.260100" lon="-116.886743"><ele>2072.6</ele><time>2024-05-10T21:50:15Z</time></trkpt>
<trkpt lat="34.261120" lon="-116.889127"><ele>2080.2</ele><time>2024-05-10T21:51:05Z</time></trkpt>
<trkpt lat="34.261842" lon="-116.890828"><ele>2073.6</ele><time>2024-05-10T21:51:35Z</time></trkpt>
<trkpt lat="34.263033" lon="-116.894016"><ele>2076.0</ele><time>2024-05-10T21:51:45Z</time></trkpt>
<trkpt lat="34.263214" lon="-116.895584"><ele>2075.0</ele><time>2024-05-10T21:51:52Z</time></trkpt>
<trkpt lat="34.263121" lon="-116.896043"><ele>2071.6</ele><time>2024-05-10T21:51:55Z</time></trkpt>
<trkpt lat="34.262779" lon="-116.896610"><ele>2071.4</ele><time>2024-05-10T21:51:59Z</time></trkpt>
<trkpt lat="34.262808" lon="-116.897278"><ele>2071.8</ele><time>2024-05-10T21:52:00Z</time></trkpt>
<trkpt lat="34.263157" lon="-116.900762"><ele>2075.0</ele><time>2024-05-10T21:52:12Z</time></trkpt>
<trkpt lat="34.263365" lon="-116.902855"><ele>2089.8</ele><time>2024-05-10T21:52:36Z</time></trkpt>
<trkpt lat="34.263733" lon="-116.906550"><ele>2096.2</ele><time>2024-05-10T21:53:30Z</time></trkpt>
<trkpt lat="34.264199" lon="-116.910676"><ele>2094.0</ele><time>2024-05-10T21:53:50Z</time></trkpt>
<trkpt lat="34.264260" lon="-116.910683"><ele>2094.0</ele><time>2024-05-10T21:53:53Z</time></trkpt>
<trkpt lat="34.264118" lon="-116.910766"><ele>2094.2</ele><time>2024-05-10T21:54:01Z</time></trkpt>
<trkpt lat="34.264174" lon="-116.910780"><ele>2094.4</ele><time>2024-05-10T21:54:06Z</time></trkpt>
<trkpt lat="34.264174" lon="-116.910852"><ele>2096.0</ele><time>2024-05-10T21:55:30Z</time></trkpt>
<trkpt lat="34.264469" lon="-116.910764"><ele>2097.8</ele><time>2024-05-10T21:55:56Z</time></trkpt>
<trkpt lat="34.265057" lon="-116.910893"><ele>2102.4</ele><time>2024-05-10T21:56:47Z</time></trkpt>
<trkpt lat="34.265615" lon="-116.911207"><ele>2106.6</ele><time>2024-05-10T21:57:41Z</time></trkpt>
<trkpt lat="34.265753" lon="-116.911404"><ele>2108.2</ele><time>2024-05-10T21:57:59Z</time></trkpt>
<trkpt lat="34.266667" lon="-116.911659"><ele>2113.8</ele><time>2024-05-10T21:59:44Z</time></trkpt>
<trkpt lat="34.267800" lon="-116.910743"><ele>2121.8</ele><time>2024-05-10T22:01:48Z</time></trkpt>
<trkpt lat="34.267761" lon="-116.910826"><ele>2121.8</ele><time>2024-05-10T22:01:52Z</time></trkpt>
<trkpt lat="34.267835" lon="-116.910633"><ele>2123.4</ele><time>2024-05-10T22:02:15Z</time></trkpt>
<trkpt lat="34.268127" lon="-116.910434"><ele>2129.0</ele><time>2024-05-10T22:03:13Z</time></trkpt>
<trkpt lat="34.268202" lon="-116.910281"><ele>2128.4</ele><time>2024-05-10T22:03:25Z</time></trkpt>
<trkpt lat="34.268361" lon="-116.910148"><ele>2129.0</ele><time>2024-05-10T22:03:44Z</time></trkpt>
<trkpt lat="34.268292" lon="-116.910032"><ele>2128.6</ele><time>2024-05-10T22:03:54Z</time></trkpt>
<trkpt lat="34.268681" lon="-116.909380"><ele>2134.2</ele><time>2024-05-10T22:05:37Z</time></trkpt>
<trkpt lat="34.268898" lon="-116.909178"><ele>2134.8</ele><time>2024-05-10T22:05:51Z</time></trkpt>
<trkpt lat="34.268917" lon="-116.909072"><ele>2136.2</ele><time>2024-05-10T22:05:59Z</time></trkpt>
<trkpt lat="34.269202" lon="-116.908965"><ele>2143.6</ele><time>2024-05-10T22:07:03Z</time></trkpt>
<trkpt lat="34.269521" lon="-116.908624"><ele>2145.6</ele><time>2024-05-10T22:07:42Z</time></trkpt>
<trkpt lat="34.269615" lon="-116.908271"><ele>2148.2</ele><time>2024-05-10T22:08:07Z</time></trkpt>
<trkpt lat="34.269616" lon="-116.907118"><ele>2155.4</ele><time>2024-05-10T22:09:47Z</time></trkpt>
<trkpt lat="34.269545" lon="-116.907029"><ele>2156.0</ele><time>2024-05-10T22:09:53Z</time></trkpt>
<trkpt lat="34.269420" lon="-116.907080"><ele>2157.0</ele><time>2024-05-10T22:10:00Z</time></trkpt>
<trkpt lat="34.269706" lon="-116.906667"><ele>2160.4</ele><time>2024-05-10T22:11:44Z</time></trkpt>
<trkpt lat="34.269562" lon="-116.906775"><ele>2161.2</ele><time>2024-05-10T22:12:00Z</time></trkpt>
<trkpt lat="34.269609" lon="-116.906735"><ele>2161.4</ele><time>2024-05-10T22:13:46Z</time></trkpt>
<trkpt lat="34.269750" lon="-116.906798"><ele>2162.0</ele><time>2024-05-10T22:13:58Z</time></trkpt>
<trkpt lat="34.270134" lon="-116.907300"><ele>2165.6</ele><time>2024-05-10T22:14:49Z</time></trkpt>
<trkpt lat="34.270316" lon="-116.907362"><ele>2167.0</ele><time>2024-05-10T22:15:03Z</time></trkpt>
<trkpt lat="34.270847" lon="-116.908001"><ele>2170.8</ele><time>2024-05-10T22:15:58Z</time></trkpt>
<trkpt lat="34.271199" lon="-116.907969"><ele>2170.4</ele><time>2024-05-10T22:16:17Z</time></trkpt>
<trkpt lat="34.272008" lon="-116.907694"><ele>2175.0</ele><time>2024-05-10T22:17:43Z</time></trkpt>
<trkpt lat="34.272120" lon="-116.907798"><ele>2175.6</ele><time>2024-05-10T22:17:52Z</time></trkpt>
<trkpt lat="34.272563" lon="-116.907690"><ele>2177.4</ele><time>2024-05-10T22:18:19Z</time></trkpt>
<trkpt lat="34.273273" lon="-116.907327"><ele>2180.4</ele><time>2024-05-10T22:19:47Z</time></trkpt>
<trkpt lat="34.273783" lon="-116.907561"><ele>2177.6</ele><time>2024-05-10T22:20:33Z</time></trkpt>
<trkpt lat="34.274085" lon="-116.908004"><ele>2183.2</ele><time>2024-05-10T22:21:29Z</time></trkpt>
<trkpt lat="34.274182" lon="-116.908077"><ele>2185.0</ele><time>2024-05-10T22:21:43Z</time></trkpt>
<trkpt lat="34.274231" lon="-116.908039"><ele>2185.2</ele><time>2024-05-10T22:21:46Z</time></trkpt>
<trkpt lat="34.274255" lon="-116.908195"><ele>2186.6</ele><time>2024-05-10T22:21:57Z</time></trkpt>
<trkpt lat="34.274654" lon="-116.908313"><ele>2195.4</ele><time>2024-05-10T22:23:13Z</time></trkpt>
<trkpt lat="34.275232" lon="-116.908398"><ele>2200.4</ele><time>2024-05-10T22:23:51Z</time></trkpt>
<trkpt lat="34.275604" lon="-116.908194"><ele>2205.2</ele><time>2024-05-10T22:25:15Z</time></trkpt>
<trkpt lat="34.275776" lon="-116.907923"><ele>2207.8</ele><time>2024-05-10T22:25:42Z</time></trkpt>
<trkpt lat="34.275856" lon="-116.907657"><ele>2207.6</ele><time>2024-05-10T22:25:59Z</time></trkpt>
<trkpt lat="34.276134" lon="-116.907731"><ele>2209.2</ele><time>2024-05-10T22:26:41Z</time></trkpt>
<trkpt lat="34.276520" lon="-116.908103"><ele>2213.6</ele><time>2024-05-10T22:27:43Z</time></trkpt>
<trkpt lat="34.276581" lon="-116.908210"><ele>2214.4</ele><time>2024-05-10T22:27:48Z</time></trkpt>
<trkpt lat="34.276549" lon="-116.908268"><ele>2215.0</ele><time>2024-05-10T22:27:54Z</time></trkpt>
<trkpt lat="34.276736" lon="-116.908322"><ele>2219.8</ele><time>2024-05-10T22:28:53Z</time></trkpt>
<trkpt lat="34.276830" lon="-116.908430"><ele>2218.8</ele><time>2024-05-10T22:29:07Z</time></trkpt>
<trkpt lat="34.276818" lon="-116.908670"><ele>2221.4</ele><time>2024-05-10T22:29:39Z</time></trkpt>
<trkpt lat="34.276775" lon="-116.908751"><ele>2222.4</ele><time>2024-05-10T22:29:47Z</time></trkpt>
<trkpt lat="34.276665" lon="-116.908779"><ele>2223.4</ele><time>2024-05-10T22:30:01Z</time></trkpt>
<trkpt lat="34.276772" lon="-116.909249"><ele>2227.4</ele><time>2024-05-10T22:31:07Z</time></trkpt>
<trkpt lat="34.276939" lon="-116.909660"><ele>2230.6</ele><time>2024-05-10T22:31:42Z</time></trkpt>
<trkpt lat="34.277090" lon="-116.909642"><ele>2231.0</ele><time>2024-05-10T22:31:50Z</time></trkpt>
<trkpt lat="34.277925" lon="-116.910234"><ele>2241.8</ele><time>2024-05-10T22:33:43Z</time></trkpt>
<trkpt lat="34.277996" lon="-116.910191"><ele>2242.2</ele><time>2024-05-10T22:33:46Z</time></trkpt>
<trkpt lat="34.277974" lon="-116.910316"><ele>2243.2</ele><time>2024-05-10T22:33:54Z</time></trkpt>
<trkpt lat="34.278072" lon="-116.910374"><ele>2242.8</ele><time>2024-05-10T22:34:00Z</time></trkpt>
<trkpt lat="34.278052" lon="-116.910681"><ele>2247.4</ele><time>2024-05-10T22:35:13Z</time></trkpt>
<trkpt lat="34.277897" lon="-116.910931"><ele>2250.6</ele><time>2024-05-10T22:35:43Z</time></trkpt>
<trkpt lat="34.277978" lon="-116.910899"><ele>2250.8</ele><time>2024-05-10T22:35:45Z</time></trkpt>
<trkpt lat="34.277860" lon="-116.910874"><ele>2251.6</ele><time>2024-05-10T22:36:01Z</time></trkpt>
<trkpt lat="34.277784" lon="-116.911061"><ele>2252.4</ele><time>2024-05-10T22:36:13Z</time></trkpt>
<trkpt lat="34.277710" lon="-116.911743"><ele>2257.0</ele><time>2024-05-10T22:37:42Z</time></trkpt>
<trkpt lat="34.277852" lon="-116.911735"><ele>2257.2</ele><time>2024-05-10T22:37:49Z</time></trkpt>
<trkpt lat="34.277914" lon="-116.911862"><ele>2257.0</ele><time>2024-05-10T22:38:00Z</time></trkpt>
<trkpt lat="34.278659" lon="-116.912584"><ele>2263.0</ele><time>2024-05-10T22:39:44Z</time></trkpt>
<trkpt lat="34.278776" lon="-116.912584"><ele>2263.6</ele><time>2024-05-10T22:39:49Z</time></trkpt>
<trkpt lat="34.278720" lon="-116.912596"><ele>2264.4</ele><time>2024-05-10T22:39:52Z</time></trkpt>
<trkpt lat="34.278719" lon="-116.912383"><ele>2266.4</ele><time>2024-05-10T22:40:09Z</time></trkpt>
<trkpt lat="34.278577" lon="-116.911893"><ele>2270.8</ele><time>2024-05-10T22:41:11Z</time></trkpt>
<trkpt lat="34.278556" lon="-116.911436"><ele>2273.6</ele><time>2024-05-10T22:41:47Z</time></trkpt>
<trkpt lat="34.278629" lon="-116.911437"><ele>2273.8</ele><time>2024-05-10T22:41:49Z</time></trkpt>
<trkpt lat="34.278597" lon="-116.911497"><ele>2274.4</ele><time>2024-05-10T22:41:56Z</time></trkpt>
<trkpt lat="34.278894" lon="-116.911734"><ele>2279.6</ele><time>2024-05-10T22:43:05Z</time></trkpt>
<trkpt lat="34.279112" lon="-116.912005"><ele>2280.2</ele><time>2024-05-10T22:43:35Z</time></trkpt>
<trkpt lat="34.279471" lon="-116.912227"><ele>2282.2</ele><time>2024-05-10T22:43:56Z</time></trkpt>
<trkpt lat="34.279853" lon="-116.913535"><ele>2289.6</ele><time>2024-05-10T22:45:42Z</time></trkpt>
<trkpt lat="34.279815" lon="-116.913504"><ele>2289.8</ele><time>2024-05-10T22:45:45Z</time></trkpt>
<trkpt lat="34.279869" lon="-116.913452"><ele>2290.2</ele><time>2024-05-10T22:45:49Z</time></trkpt>
<trkpt lat="34.279612" lon="-116.913657"><ele>2293.4</ele><time>2024-05-10T22:46:23Z</time></trkpt>
<trkpt lat="34.279002" lon="-116.913799"><ele>2299.0</ele><time>2024-05-10T22:47:27Z</time></trkpt>
<trkpt lat="34.278713" lon="-116.913974"><ele>2300.2</ele><time>2024-05-10T22:47:42Z</time></trkpt>
<trkpt lat="34.278771" lon="-116.913910"><ele>2300.8</ele><time>2024-05-10T22:47:51Z</time></trkpt>
<trkpt lat="34.278623" lon="-116.914346"><ele>2304.2</ele><time>2024-05-10T22:49:43Z</time></trkpt>
<trkpt lat="34.278568" lon="-116.914359"><ele>2304.0</ele><time>2024-05-10T22:49:45Z</time></trkpt>
<trkpt lat="34.278608" lon="-116.914390"><ele>2304.2</ele><time>2024-05-10T22:49:49Z</time></trkpt>
<trkpt lat="34.278542" lon="-116.914431"><ele>2304.6</ele><time>2024-05-10T22:49:54Z</time></trkpt>
<trkpt lat="34.278966" lon="-116.914983"><ele>2310.0</ele><time>2024-05-10T22:51:35Z</time></trkpt>
<trkpt lat="34.279022" lon="-116.915155"><ele>2309.6</ele><time>2024-05-10T22:51:41Z</time></trkpt>
<trkpt lat="34.280060" lon="-116.915806"><ele>2312.8</ele><time>2024-05-10T22:53:42Z</time></trkpt>
<trkpt lat="34.280180" lon="-116.915762"><ele>2313.4</ele><time>2024-05-10T22:53:53Z</time></trkpt>
<trkpt lat="34.280190" lon="-116.915659"><ele>2314.0</ele><time>2024-05-10T22:54:00Z</time></trkpt>
<trkpt lat="34.280492" lon="-116.915177"><ele>2315.0</ele><time>2024-05-10T22:54:49Z</time></trkpt>
<trkpt lat="34.280555" lon="-116.914779"><ele>2321.0</ele><time>2024-05-10T22:55:42Z</time></trkpt>
<trkpt lat="34.280520" lon="-116.914719"><ele>2321.2</ele><time>2024-05-10T22:55:45Z</time></trkpt>
<trkpt lat="34.281036" lon="-116.913349"><ele>2328.6</ele><time>2024-05-10T22:57:42Z</time></trkpt>
<trkpt lat="34.280944" lon="-116.913232"><ele>2329.0</ele><time>2024-05-10T22:57:56Z</time></trkpt>
<trkpt lat="34.280953" lon="-116.913127"><ele>2331.2</ele><time>2024-05-10T22:58:11Z</time></trkpt>
<trkpt lat="34.281232" lon="-116.912504"><ele>2326.8</ele><time>2024-05-10T22:59:43Z</time></trkpt>
<trkpt lat="34.281285" lon="-116.912427"><ele>2326.6</ele><time>2024-05-10T22:59:45Z</time></trkpt>
<trkpt lat="34.281380" lon="-116.912450"><ele>2325.6</ele><time>2024-05-10T22:59:51Z</time></trkpt>
<trkpt lat="34.281714" lon="-116.911494"><ele>2318.0</ele><time>2024-05-10T23:01:17Z</time></trkpt>
<trkpt lat="34.281998" lon="-116.911063"><ele>2315.6</ele><time>2024-05-10T23:01:43Z</time></trkpt>
<trkpt lat="34.282263" lon="-116.911067"><ele>2314.4</ele><time>2024-05-10T23:02:01Z</time></trkpt>
<trkpt lat="34.282809" lon="-116.910557"><ele>2308.2</ele><time>2024-05-10T23:03:15Z</time></trkpt>
<trkpt lat="34.283123" lon="-116.910041"><ele>2305.2</ele><time>2024-05-10T23:03:58Z</time></trkpt>
<trkpt lat="34.283388" lon="-116.909893"><ele>2302.0</ele><time>2024-05-10T23:04:29Z</time></trkpt>
<trkpt lat="34.283529" lon="-116.909694"><ele>2299.8</ele><time>2024-05-10T23:04:47Z</time></trkpt>
<trkpt lat="34.283918" lon="-116.909977"><ele>2298.2</ele><time>2024-05-10T23:05:35Z</time></trkpt>
<trkpt lat="34.283834" lon="-116.910324"><ele>2298.8</ele><time>2024-05-10T23:06:02Z</time></trkpt>
<trkpt lat="34.283884" lon="-116.910501"><ele>2298.8</ele><time>2024-05-10T23:06:29Z</time></trkpt>
<trkpt lat="34.284258" lon="-116.911212"><ele>2297.2</ele><time>2024-05-10T23:07:46Z</time></trkpt>
<trkpt lat="34.284344" lon="-116.911198"><ele>2296.8</ele><time>2024-05-10T23:07:48Z</time></trkpt>
<trkpt lat="34.284544" lon="-116.911595"><ele>2295.8</ele><time>2024-05-10T23:08:09Z</time></trkpt>
<trkpt lat="34.284708" lon="-116.911978"><ele>2296.4</ele><time>2024-05-10T23:08:47Z</time></trkpt>
<trkpt lat="34.284870" lon="-116.912648"><ele>2301.2</ele><time>2024-05-10T23:09:42Z</time></trkpt>
<trkpt lat="34.284661" lon="-116.913512"><ele>2304.8</ele><time>2024-05-10T23:11:09Z</time></trkpt>
<trkpt lat="34.284556" lon="-116.914239"><ele>2302.2</ele><time>2024-05-10T23:11:50Z</time></trkpt>
<trkpt lat="34.284652" lon="-116.915136"><ele>2303.8</ele><time>2024-05-10T23:13:03Z</time></trkpt>
<trkpt lat="34.284426" lon="-116.915860"><ele>2305.2</ele><time>2024-05-10T23:13:53Z</time></trkpt>
<trkpt lat="34.284423" lon="-116.916699"><ele>2304.0</ele><time>2024-05-10T23:14:57Z</time></trkpt>
<trkpt lat="34.284283" lon="-116.917286"><ele>2301.6</ele><time>2024-05-10T23:15:44Z</time></trkpt>
<trkpt lat="34.284016" lon="-116.917180"><ele>2301.2</ele><time>2024-05-10T23:16:03Z</time></trkpt>
<trkpt lat="34.283786" lon="-116.916921"><ele>2304.8</ele><time>2024-05-10T23:17:43Z</time></trkpt>
<trkpt lat="34.283822" lon="-116.916855"><ele>2305.6</ele><time>2024-05-10T23:18:11Z</time></trkpt>
<trkpt lat="34.283753" lon="-116.916995"><ele>2305.0</ele><time>2024-05-10T23:19:13Z</time></trkpt>
<trkpt lat="34.283893" lon="-116.917023"><ele>2304.0</ele><time>2024-05-10T23:19:47Z</time></trkpt>
<trkpt lat="34.283862" lon="-116.917050"><ele>2304.4</ele><time>2024-05-10T23:19:56Z</time></trkpt>
<trkpt lat="34.283903" lon="-116.916877"><ele>2306.6</ele><time>2024-05-10T23:21:25Z</time></trkpt>
<trkpt lat="34.283868" lon="-116.916813"><ele>2306.0</ele><time>2024-05-10T23:21:45Z</time></trkpt>
<trkpt lat="34.283799" lon="-116.916850"><ele>2306.2</ele><time>2024-05-10T23:21:55Z</time></trkpt>
<trkpt lat="34.283888" lon="-116.916915"><ele>2306.8</ele><time>2024-05-10T23:23:47Z</time></trkpt>
<trkpt lat="34.283780" lon="-116.916859"><ele>2307.4</ele><time>2024-05-10T23:24:00Z</time></trkpt>
<trkpt lat="34.283771" lon="-116.916738"><ele>2306.6</ele><time>2024-05-10T23:25:48Z</time></trkpt>
<trkpt lat="34.283840" lon="-116.916884"><ele>2306.4</ele><time>2024-05-10T23:27:57Z</time></trkpt>
</trkseg></trk>
</gpx>
