<?xml version="1.0" encoding="UTF-8"?>
<gpx version="1.1" creator="Eric Sichak trip reports" xmlns="http://www.topografix.com/GPX/1/1">
<metadata><name>PCT Day 23- Cajon Pass</name><time>2024-05-14T13:32:19Z</time></metadata>
<trk><name>PCT Day 23- Cajon Pass</name><type>hike</type><trkseg>
<trkpt lat="34.319712" lon="-117.422819"><ele>1127.6</ele><time>2024-05-14T13:32:19Z</time></trkpt>
<trkpt lat="34.319771" lon="-117.422910"><ele>1127.6</ele><time>2024-05-14T13:32:49Z</time></trkpt>
<trkpt lat="34.319712" lon="-117.423105"><ele>1129.8</ele><time>2024-05-14T13:33:43Z</time></trkpt>
<trkpt lat="34.319566" lon="-117.423246"><ele>1130.8</ele><time>2024-05-14T13:34:07Z</time></trkpt>
<trkpt lat="34.319632" lon="-117.423550"><ele>1134.0</ele><time>2024-05-14T13:34:42Z</time></trkpt>
<trkpt lat="34.319628" lon="-117.423485"><ele>1133.8</ele><time>2024-05-14T13:34:48Z</time></trkpt>
<trkpt lat="34.319410" lon="-117.423855"><ele>1133.8</ele><time>2024-05-14T13:35:40Z</time></trkpt>
<trkpt lat="34.319364" lon="-117.424371"><ele>1138.4</ele><time>2024-05-14T13:36:43Z</time></trkpt>
<trkpt lat="34.318831" lon="-117.425553"><ele>1149.2</ele><time>2024-05-14T13:38:35Z</time></trkpt>
<trkpt lat="34.318719" lon="-117.425990"><ele>1151.4</ele><time>2024-05-14T13:38:56Z</time></trkpt>
<trkpt lat="34.318578" lon="-117.426262"><ele>1151.4</ele><time>2024-05-14T13:39:27Z</time></trkpt>
<trkpt lat="34.318703" lon="-117.426712"><ele>1153.4</ele><time>2024-05-14T13:39:57Z</time></trkpt>
<trkpt lat="34.318379" lon="-117.427508"><ele>1158.0</ele><time>2024-05-14T13:40:57Z</time></trkpt>
<trkpt lat="34.318350" lon="-117.427699"><ele>1159.8</ele><time>2024-05-14T13:41:21Z</time></trkpt>
<trkpt lat="34.318179" lon="-117.427860"><ele>1161.2</ele><time>2024-05-14T13:41:39Z</time></trkpt>
<trkpt lat="34.318131" lon="-117.428041"><ele>1162.4</ele><time>2024-05-14T13:41:57Z</time></trkpt>
<trkpt lat="34.318143" lon="-117.428840"><ele>1165.4</ele><time>2024-05-14T13:42:46Z</time></trkpt>
<trkpt lat="34.317975" lon="-117.428870"><ele>1165.6</ele><time>2024-05-14T13:42:58Z</time></trkpt>
<trkpt lat="34.317877" lon="-117.429096"><ele>1164.4</ele><time>2024-05-14T13:43:23Z</time></trkpt>
<trkpt lat="34.317934" lon="-117.429273"><ele>1165.4</ele><time>2024-05-14T13:43:45Z</time></trkpt>
<trkpt lat="34.317503" lon="-117.430117"><ele>1167.4</ele><time>2024-05-14T13:44:48Z</time></trkpt>
<trkpt lat="34.317342" lon="-117.430152"><ele>1167.4</ele><time>2024-05-14T13:45:00Z</time></trkpt>
<trkpt lat="34.317171" lon="-117.430749"><ele>1167.6</ele><time>2024-05-14T13:45:33Z</time></trkpt>
<trkpt lat="34.317146" lon="-117.431190"><ele>1166.0</ele><time>2024-05-14T13:46:25Z</time></trkpt>
<trkpt lat="34.317323" lon="-117.431529"><ele>1165.2</ele><time>2024-05-14T13:46:48Z</time></trkpt>
<trkpt lat="34.317354" lon="-117.431725"><ele>1165.4</ele><time>2024-05-14T13:47:00Z</time></trkpt>
<trkpt lat="34.317309" lon="-117.432232"><ele>1165.8</ele><time>2024-05-14T13:48:01Z</time></trkpt>
<trkpt lat="34.317150" lon="-117.432811"><ele>1167.2</ele><time>2024-05-14T13:48:41Z</time></trkpt>
<trkpt lat="34.317219" lon="-117.432828"><ele>1167.6</ele><time>2024-05-14T13:48:46Z</time></trkpt>
<trkpt lat="34.317270" lon="-117.432952"><ele>1168.6</ele><time>2024-05-14T13:48:56Z</time></trkpt>
<trkpt lat="34.317027" lon="-117.433700"><ele>1168.8</ele><time>2024-05-14T13:49:53Z</time></trkpt>
<trkpt lat="34.316900" lon="-117.434312"><ele>1175.2</ele><time>2024-05-14T13:50:58Z</time></trkpt>
<trkpt lat="34.316318" lon="-117.434635"><ele>1172.8</ele><time>2024-05-14T13:52:11Z</time></trkpt>
<trkpt lat="34.316238" lon="-117.434756"><ele>1175.0</ele><time>2024-05-14T13:52:42Z</time></trkpt>
<trkpt lat="34.316371" lon="-117.434839"><ele>1175.2</ele><time>2024-05-14T13:52:50Z</time></trkpt>
<trkpt lat="34.316378" lon="-117.435200"><ele>1176.2</ele><time>2024-05-14T13:53:07Z</time></trkpt>
<trkpt lat="34.316953" lon="-117.436154"><ele>1180.8</ele><time>2024-05-14T13:54:48Z</time></trkpt>
<trkpt lat="34.317044" lon="-117.436465"><ele>1183.4</ele><time>2024-05-14T13:55:41Z</time></trkpt>
<trkpt lat="34.317268" lon="-117.436510"><ele>1184.8</ele><time>2024-05-14T13:56:41Z</time></trkpt>
<trkpt lat="34.317364" lon="-117.436274"><ele>1186.2</ele><time>2024-05-14T13:56:56Z</time></trkpt>
<trkpt lat="34.317318" lon="-117.436227"><ele>1186.2</ele><time>2024-05-14T13:57:00Z</time></trkpt>
<trkpt lat="34.317319" lon="-117.436030"><ele>1186.8</ele><time>2024-05-14T13:57:07Z</time></trkpt>
<trkpt lat="34.317402" lon="-117.435031"><ele>1194.0</ele><time>2024-05-14T13:58:42Z</time></trkpt>
<trkpt lat="34.317478" lon="-117.435008"><ele>1194.2</ele><time>2024-05-14T13:58:46Z</time></trkpt>
<trkpt lat="34.317639" lon="-117.435097"><ele>1196.6</ele><time>2024-05-14T13:59:02Z</time></trkpt>
<trkpt lat="34.317998" lon="-117.435676"><ele>1207.6</ele><time>2024-05-14T14:00:41Z</time></trkpt>
<trkpt lat="34.317950" lon="-117.435799"><ele>1209.2</ele><time>2024-05-14T14:00:54Z</time></trkpt>
<trkpt lat="34.318225" lon="-117.436703"><ele>1211.0</ele><time>2024-05-14T14:02:15Z</time></trkpt>
<trkpt lat="34.318259" lon="-117.437164"><ele>1208.8</ele><time>2024-05-14T14:02:42Z</time></trkpt>
<trkpt lat="34.318216" lon="-117.437490"><ele>1205.4</ele><time>2024-05-14T14:03:00Z</time></trkpt>
<trkpt lat="34.318266" lon="-117.437618"><ele>1203.8</ele><time>2024-05-14T14:03:19Z</time></trkpt>
<trkpt lat="34.318366" lon="-117.437367"><ele>1197.4</ele><time>2024-05-14T14:04:33Z</time></trkpt>
<trkpt lat="34.318403" lon="-117.437542"><ele>1193.8</ele><time>2024-05-14T14:04:47Z</time></trkpt>
<trkpt lat="34.318249" lon="-117.437835"><ele>1187.0</ele><time>2024-05-14T14:05:49Z</time></trkpt>
<trkpt lat="34.318219" lon="-117.438278"><ele>1182.2</ele><time>2024-05-14T14:06:15Z</time></trkpt>
<trkpt lat="34.318347" lon="-117.438566"><ele>1177.0</ele><time>2024-05-14T14:06:41Z</time></trkpt>
<trkpt lat="34.318239" lon="-117.438542"><ele>1175.6</ele><time>2024-05-14T14:06:52Z</time></trkpt>
<trkpt lat="34.318070" lon="-117.438758"><ele>1172.2</ele><time>2024-05-14T14:07:11Z</time></trkpt>
<trkpt lat="34.317979" lon="-117.438727"><ele>1170.6</ele><time>2024-05-14T14:07:35Z</time></trkpt>
<trkpt lat="34.317900" lon="-117.438928"><ele>1168.8</ele><time>2024-05-14T14:07:57Z</time></trkpt>
<trkpt lat="34.317717" lon="-117.439142"><ele>1167.0</ele><time>2024-05-14T14:08:17Z</time></trkpt>
<trkpt lat="34.317515" lon="-117.439735"><ele>1162.2</ele><time>2024-05-14T14:08:58Z</time></trkpt>
<trkpt lat="34.317529" lon="-117.439933"><ele>1161.2</ele><time>2024-05-14T14:09:09Z</time></trkpt>
<trkpt lat="34.317964" lon="-117.440321"><ele>1156.0</ele><time>2024-05-14T14:10:01Z</time></trkpt>
<trkpt lat="34.317980" lon="-117.440821"><ele>1152.6</ele><time>2024-05-14T14:10:42Z</time></trkpt>
<trkpt lat="34.318225" lon="-117.441447"><ele>1148.2</ele><time>2024-05-14T14:11:35Z</time></trkpt>
<trkpt lat="34.318430" lon="-117.441717"><ele>1145.4</ele><time>2024-05-14T14:12:03Z</time></trkpt>
<trkpt lat="34.318367" lon="-117.442146"><ele>1142.0</ele><time>2024-05-14T14:12:35Z</time></trkpt>
<trkpt lat="34.318450" lon="-117.442286"><ele>1141.6</ele><time>2024-05-14T14:12:42Z</time></trkpt>
<trkpt lat="34.318368" lon="-117.442356"><ele>1140.8</ele><time>2024-05-14T14:12:49Z</time></trkpt>
<trkpt lat="34.318392" lon="-117.442675"><ele>1138.2</ele><time>2024-05-14T14:13:13Z</time></trkpt>
<trkpt lat="34.318498" lon="-117.442965"><ele>1136.4</ele><time>2024-05-14T14:13:33Z</time></trkpt>
<trkpt lat="34.318498" lon="-117.443229"><ele>1133.2</ele><time>2024-05-14T14:13:55Z</time></trkpt>
<trkpt lat="34.318585" lon="-117.443588"><ele>1131.4</ele><time>2024-05-14T14:14:17Z</time></trkpt>
<trkpt lat="34.318649" lon="-117.443837"><ele>1133.2</ele><time>2024-05-14T14:14:39Z</time></trkpt>
<trkpt lat="34.318757" lon="-117.443975"><ele>1133.2</ele><time>2024-05-14T14:14:52Z</time></trkpt>
<trkpt lat="34.318831" lon="-117.444545"><ele>1133.6</ele><time>2024-05-14T14:15:25Z</time></trkpt>
<trkpt lat="34.318808" lon="-117.444824"><ele>1133.6</ele><time>2024-05-14T14:15:47Z</time></trkpt>
<trkpt lat="34.319183" lon="-117.445401"><ele>1138.2</ele><time>2024-05-14T14:16:58Z</time></trkpt>
<trkpt lat="34.319241" lon="-117.445624"><ele>1135.2</ele><time>2024-05-14T14:17:19Z</time></trkpt>
<trkpt lat="34.319559" lon="-117.445904"><ele>1132.4</ele><time>2024-05-14T14:17:49Z</time></trkpt>
<trkpt lat="34.319529" lon="-117.446230"><ele>1128.8</ele><time>2024-05-14T14:18:19Z</time></trkpt>
<trkpt lat="34.319608" lon="-117.446271"><ele>1127.4</ele><time>2024-05-14T14:18:43Z</time></trkpt>
<trkpt lat="34.319632" lon="-117.446669"><ele>1123.4</ele><time>2024-05-14T14:20:03Z</time></trkpt>
<trkpt lat="34.319635" lon="-117.446472"><ele>1122.2</ele><time>2024-05-14T14:20:19Z</time></trkpt>
<trkpt lat="34.319407" lon="-117.446445"><ele>1121.6</ele><time>2024-05-14T14:20:42Z</time></trkpt>
<trkpt lat="34.319246" lon="-117.446156"><ele>1120.8</ele><time>2024-05-14T14:20:55Z</time></trkpt>
<trkpt lat="34.319287" lon="-117.446131"><ele>1121.0</ele><time>2024-05-14T14:20:58Z</time></trkpt>
<trkpt lat="34.319113" lon="-117.446021"><ele>1121.0</ele><time>2024-05-14T14:21:31Z</time></trkpt>
<trkpt lat="34.318625" lon="-117.445978"><ele>1118.2</ele><time>2024-05-14T14:22:09Z</time></trkpt>
<trkpt lat="34.318512" lon="-117.446191"><ele>1119.2</ele><time>2024-05-14T14:22:41Z</time></trkpt>
<trkpt lat="34.318412" lon="-117.446200"><ele>1118.8</ele><time>2024-05-14T14:22:49Z</time></trkpt>
<trkpt lat="34.318247" lon="-117.447072"><ele>1114.8</ele><time>2024-05-14T14:24:09Z</time></trkpt>
<trkpt lat="34.318288" lon="-117.447882"><ele>1111.2</ele><time>2024-05-14T14:24:59Z</time></trkpt>
<trkpt lat="34.318319" lon="-117.448035"><ele>1109.6</ele><time>2024-05-14T14:25:09Z</time></trkpt>
<trkpt lat="34.318729" lon="-117.448623"><ele>1104.2</ele><time>2024-05-14T14:26:01Z</time></trkpt>
<trkpt lat="34.318696" lon="-117.448859"><ele>1103.8</ele><time>2024-05-14T14:26:17Z</time></trkpt>
<trkpt lat="34.318486" lon="-117.449189"><ele>1101.8</ele><time>2024-05-14T14:26:49Z</time></trkpt>
<trkpt lat="34.318513" lon="-117.449330"><ele>1102.4</ele><time>2024-05-14T14:26:59Z</time></trkpt>
<trkpt lat="34.318167" lon="-117.449749"><ele>1101.4</ele><time>2024-05-14T14:27:39Z</time></trkpt>
<trkpt lat="34.318162" lon="-117.450258"><ele>1099.8</ele><time>2024-05-14T14:28:21Z</time></trkpt>
<trkpt lat="34.318241" lon="-117.450230"><ele>1100.4</ele><time>2024-05-14T14:28:47Z</time></trkpt>
<trkpt lat="34.318326" lon="-117.450412"><ele>1102.0</ele><time>2024-05-14T14:29:01Z</time></trkpt>
<trkpt lat="34.318355" lon="-117.450563"><ele>1097.4</ele><time>2024-05-14T14:29:27Z</time></trkpt>
<trkpt lat="34.318289" lon="-117.450503"><ele>1095.2</ele><time>2024-05-14T14:29:45Z</time></trkpt>
<trkpt lat="34.318320" lon="-117.450685"><ele>1093.0</ele><time>2024-05-14T14:29:57Z</time></trkpt>
<trkpt lat="34.318235" lon="-117.451020"><ele>1086.2</ele><time>2024-05-14T14:30:31Z</time></trkpt>
<trkpt lat="34.318146" lon="-117.450301"><ele>1084.2</ele><time>2024-05-14T14:30:42Z</time></trkpt>
<trkpt lat="34.318172" lon="-117.451354"><ele>1082.8</ele><time>2024-05-14T14:30:49Z</time></trkpt>
<trkpt lat="34.318065" lon="-117.451351"><ele>1080.6</ele><time>2024-05-14T14:31:02Z</time></trkpt>
<trkpt lat="34.317991" lon="-117.451711"><ele>1078.6</ele><time>2024-05-14T14:31:27Z</time></trkpt>
<trkpt lat="34.318024" lon="-117.451738"><ele>1077.4</ele><time>2024-05-14T14:31:41Z</time></trkpt>
<trkpt lat="34.317840" lon="-117.451870"><ele>1076.8</ele><time>2024-05-14T14:31:53Z</time></trkpt>
<trkpt lat="34.317347" lon="-117.451935"><ele>1073.4</ele><time>2024-05-14T14:32:33Z</time></trkpt>
<trkpt lat="34.317391" lon="-117.451982"><ele>1072.2</ele><time>2024-05-14T14:32:42Z</time></trkpt>
<trkpt lat="34.317268" lon="-117.452196"><ele>1067.8</ele><time>2024-05-14T14:32:57Z</time></trkpt>
<trkpt lat="34.317239" lon="-117.452361"><ele>1061.6</ele><time>2024-05-14T14:33:27Z</time></trkpt>
<trkpt lat="34.317051" lon="-117.451743"><ele>1056.4</ele><time>2024-05-14T14:34:13Z</time></trkpt>
<trkpt lat="34.316910" lon="-117.451994"><ele>1053.2</ele><time>2024-05-14T14:34:35Z</time></trkpt>
<trkpt lat="34.316987" lon="-117.452116"><ele>1052.6</ele><time>2024-05-14T14:34:42Z</time></trkpt>
<trkpt lat="34.316968" lon="-117.452259"><ele>1051.4</ele><time>2024-05-14T14:34:55Z</time></trkpt>
<trkpt lat="34.316807" lon="-117.452294"><ele>1049.6</ele><time>2024-05-14T14:35:07Z</time></trkpt>
<trkpt lat="34.316590" lon="-117.452152"><ele>1045.2</ele><time>2024-05-14T14:35:33Z</time></trkpt>
<trkpt lat="34.316524" lon="-117.452216"><ele>1044.2</ele><time>2024-05-14T14:35:45Z</time></trkpt>
<trkpt lat="34.316422" lon="-117.452583"><ele>1041.0</ele><time>2024-05-14T14:36:09Z</time></trkpt>
<trkpt lat="34.316483" lon="-117.453022"><ele>1037.4</ele><time>2024-05-14T14:36:37Z</time></trkpt>
<trkpt lat="34.316442" lon="-117.453138"><ele>1036.2</ele><time>2024-05-14T14:36:46Z</time></trkpt>
<trkpt lat="34.316307" lon="-117.453390"><ele>1033.2</ele><time>2024-05-14T14:37:09Z</time></trkpt>
<trkpt lat="34.315990" lon="-117.453605"><ele>1030.0</ele><time>2024-05-14T14:37:41Z</time></trkpt>
<trkpt lat="34.315965" lon="-117.453859"><ele>1028.0</ele><time>2024-05-14T14:37:59Z</time></trkpt>
<trkpt lat="34.316142" lon="-117.454273"><ele>1023.6</ele><time>2024-05-14T14:38:37Z</time></trkpt>
<trkpt lat="34.316774" lon="-117.453680"><ele>1018.4</ele><time>2024-05-14T14:39:47Z</time></trkpt>
<trkpt lat="34.316841" lon="-117.453958"><ele>1017.2</ele><time>2024-05-14T14:40:07Z</time></trkpt>
<trkpt lat="34.317005" lon="-117.454143"><ele>1014.0</ele><time>2024-05-14T14:40:39Z</time></trkpt>
<trkpt lat="34.317008" lon="-117.454412"><ele>1015.2</ele><time>2024-05-14T14:40:57Z</time></trkpt>
<trkpt lat="34.317249" lon="-117.455576"><ele>1013.2</ele><time>2024-05-14T14:42:23Z</time></trkpt>
<trkpt lat="34.317186" lon="-117.455641"><ele>1013.6</ele><time>2024-05-14T14:42:31Z</time></trkpt>
<trkpt lat="34.317086" lon="-117.455597"><ele>1012.8</ele><time>2024-05-14T14:42:47Z</time></trkpt>
<trkpt lat="34.316815" lon="-117.456037"><ele>1014.0</ele><time>2024-05-14T14:43:43Z</time></trkpt>
<trkpt lat="34.316330" lon="-117.456363"><ele>1008.8</ele><time>2024-05-14T14:44:39Z</time></trkpt>
<trkpt lat="34.316245" lon="-117.456479"><ele>1008.4</ele><time>2024-05-14T14:44:42Z</time></trkpt>
<trkpt lat="34.316187" lon="-117.456822"><ele>1005.6</ele><time>2024-05-14T14:44:59Z</time></trkpt>
<trkpt lat="34.316070" lon="-117.457039"><ele>1004.0</ele><time>2024-05-14T14:45:13Z</time></trkpt>
<trkpt lat="34.315638" lon="-117.457429"><ele>1001.2</ele><time>2024-05-14T14:45:55Z</time></trkpt>
<trkpt lat="34.315559" lon="-117.457751"><ele>999.0</ele><time>2024-05-14T14:46:19Z</time></trkpt>
<trkpt lat="34.314967" lon="-117.458574"><ele>1000.2</ele><time>2024-05-14T14:47:51Z</time></trkpt>
<trkpt lat="34.315002" lon="-117.458849"><ele>1001.2</ele><time>2024-05-14T14:48:17Z</time></trkpt>
<trkpt lat="34.315196" lon="-117.459321"><ele>998.8</ele><time>2024-05-14T14:48:42Z</time></trkpt>
<trkpt lat="34.315406" lon="-117.459438"><ele>996.0</ele><time>2024-05-14T14:49:00Z</time></trkpt>
<trkpt lat="34.315444" lon="-117.459941"><ele>989.8</ele><time>2024-05-14T14:49:51Z</time></trkpt>
<trkpt lat="34.315392" lon="-117.460547"><ele>986.6</ele><time>2024-05-14T14:50:42Z</time></trkpt>
<trkpt lat="34.315414" lon="-117.460499"><ele>986.2</ele><time>2024-05-14T14:50:44Z</time></trkpt>
<trkpt lat="34.315459" lon="-117.460615"><ele>984.0</ele><time>2024-05-14T14:50:56Z</time></trkpt>
<trkpt lat="34.315464" lon="-117.460813"><ele>982.2</ele><time>2024-05-14T14:51:09Z</time></trkpt>
<trkpt lat="34.315376" lon="-117.460996"><ele>979.8</ele><time>2024-05-14T14:51:23Z</time></trkpt>
<trkpt lat="34.315185" lon="-117.461095"><ele>976.6</ele><time>2024-05-14T14:51:41Z</time></trkpt>
<trkpt lat="34.315128" lon="-117.461353"><ele>971.8</ele><time>2024-05-14T14:52:09Z</time></trkpt>
<trkpt lat="34.314943" lon="-117.461681"><ele>965.4</ele><time>2024-05-14T14:52:44Z</time></trkpt>
<trkpt lat="34.314240" lon="-117.461640"><ele>957.8</ele><time>2024-05-14T14:53:55Z</time></trkpt>
<trkpt lat="34.313616" lon="-117.461709"><ele>956.6</ele><time>2024-05-14T14:54:45Z</time></trkpt>
<trkpt lat="34.312715" lon="-117.462222"><ele>960.0</ele><time>2024-05-14T14:56:23Z</time></trkpt>
<trkpt lat="34.311763" lon="-117.462393"><ele>961.4</ele><time>2024-05-14T14:57:21Z</time></trkpt>
<trkpt lat="34.311636" lon="-117.462530"><ele>958.8</ele><time>2024-05-14T14:57:43Z</time></trkpt>
<trkpt lat="34.311256" lon="-117.462420"><ele>955.0</ele><time>2024-05-14T14:58:25Z</time></trkpt>
<trkpt lat="34.310852" lon="-117.462386"><ele>954.8</ele><time>2024-05-14T14:58:42Z</time></trkpt>
<trkpt lat="34.310286" lon="-117.462044"><ele>952.4</ele><time>2024-05-14T14:59:29Z</time></trkpt>
<trkpt lat="34.310028" lon="-117.462110"><ele>950.0</ele><time>2024-05-14T14:59:55Z</time></trkpt>
<trkpt lat="34.309582" lon="-117.462383"><ele>948.0</ele><time>2024-05-14T15:00:49Z</time></trkpt>
<trkpt lat="34.309009" lon="-117.462434"><ele>947.6</ele><time>2024-05-14T15:02:04Z</time></trkpt>
<trkpt lat="34.308759" lon="-117.462394"><ele>944.8</ele><time>2024-05-14T15:02:30Z</time></trkpt>
<trkpt lat="34.308756" lon="-117.463476"><ele>944.2</ele><time>2024-05-14T15:02:41Z</time></trkpt>
<trkpt lat="34.308500" lon="-117.462309"><ele>944.2</ele><time>2024-05-14T15:02:43Z</time></trkpt>
<trkpt lat="34.308282" lon="-117.462178"><ele>943.4</ele><time>2024-05-14T15:03:00Z</time></trkpt>
<trkpt lat="34.308196" lon="-117.462230"><ele>942.6</ele><time>2024-05-14T15:03:06Z</time></trkpt>
<trkpt lat="34.308083" lon="-117.462574"><ele>938.4</ele><time>2024-05-14T15:03:46Z</time></trkpt>
<trkpt lat="34.308010" lon="-117.463329"><ele>936.6</ele><time>2024-05-14T15:04:40Z</time></trkpt>
<trkpt lat="34.307795" lon="-117.463354"><ele>935.4</ele><time>2024-05-14T15:04:59Z</time></trkpt>
<trkpt lat="34.307923" lon="-117.464446"><ele>933.8</ele><time>2024-05-14T15:05:10Z</time></trkpt>
<trkpt lat="34.308169" lon="-117.465577"><ele>932.0</ele><time>2024-05-14T15:05:34Z</time></trkpt>
<trkpt lat="34.308474" lon="-117.466609"><ele>931.6</ele><time>2024-05-14T15:06:10Z</time></trkpt>
<trkpt lat="34.307891" lon="-117.466139"><ele>930.8</ele><time>2024-05-14T15:06:41Z</time></trkpt>
<trkpt lat="34.308211" lon="-117.467557"><ele>930.8</ele><time>2024-05-14T15:06:42Z</time></trkpt>
<trkpt lat="34.308757" lon="-117.468081"><ele>930.8</ele><time>2024-05-14T15:06:43Z</time></trkpt>
<trkpt lat="34.307759" lon="-117.466179"><ele>930.0</ele><time>2024-05-14T15:06:52Z</time></trkpt>
<trkpt lat="34.307149" lon="-117.464581"><ele>929.0</ele><time>2024-05-14T15:06:57Z</time></trkpt>
<trkpt lat="34.306768" lon="-117.464965"><ele>927.4</ele><time>2024-05-14T15:07:20Z</time></trkpt>
<trkpt lat="34.306478" lon="-117.465073"><ele>923.2</ele><time>2024-05-14T15:08:06Z</time></trkpt>
<trkpt lat="34.306388" lon="-117.465474"><ele>925.6</ele><time>2024-05-14T15:08:41Z</time></trkpt>
<trkpt lat="34.306422" lon="-117.465531"><ele>926.4</ele><time>2024-05-14T15:08:47Z</time></trkpt>
<trkpt lat="34.306215" lon="-117.465825"><ele>925.4</ele><time>2024-05-14T15:09:25Z</time></trkpt>
<trkpt lat="34.306149" lon="-117.466129"><ele>920.0</ele><time>2024-05-14T15:10:17Z</time></trkpt>
<trkpt lat="34.306038" lon="-117.466146"><ele>919.4</ele><time>2024-05-14T15:10:44Z</time></trkpt>
<trkpt lat="34.306014" lon="-117.466248"><ele>919.8</ele><time>2024-05-14T15:10:52Z</time></trkpt>
<trkpt lat="34.306020" lon="-117.466347"><ele>919.8</ele><time>2024-05-14T15:10:58Z</time></trkpt>
<trkpt lat="34.306502" lon="-117.466857"><ele>921.2</ele><time>2024-05-14T15:11:37Z</time></trkpt>
<trkpt lat="34.307247" lon="-117.467476"><ele>924.0</ele><time>2024-05-14T15:12:58Z</time></trkpt>
<trkpt lat="34.308274" lon="-117.468572"><ele>929.0</ele><time>2024-05-14T15:14:42Z</time></trkpt>
<trkpt lat="34.308856" lon="-117.470031"><ele>935.2</ele><time>2024-05-14T15:16:35Z</time></trkpt>
<trkpt lat="34.308995" lon="-117.470148"><ele>936.2</ele><time>2024-05-14T15:16:48Z</time></trkpt>
<trkpt lat="34.309010" lon="-117.470592"><ele>938.2</ele><time>2024-05-14T15:18:23Z</time></trkpt>
<trkpt lat="34.308979" lon="-117.470533"><ele>938.2</ele><time>2024-05-14T15:18:47Z</time></trkpt>
<trkpt lat="34.309058" lon="-117.470554"><ele>938.0</ele><time>2024-05-14T15:18:51Z</time></trkpt>
<trkpt lat="34.308823" lon="-117.470488"><ele>937.6</ele><time>2024-05-14T15:20:46Z</time></trkpt>
<trkpt lat="34.309028" lon="-117.470592"><ele>936.8</ele><time>2024-05-14T15:20:51Z</time></trkpt>
<trkpt lat="34.309086" lon="-117.470392"><ele>936.4</ele><time>2024-05-14T15:21:26Z</time></trkpt>
<trkpt lat="34.309311" lon="-117.470521"><ele>936.8</ele><time>2024-05-14T15:21:50Z</time></trkpt>
<trkpt lat="34.309311" lon="-117.470667"><ele>937.4</ele><time>2024-05-14T15:22:00Z</time></trkpt>
<trkpt lat="34.309225" lon="-117.470720"><ele>936.8</ele><time>2024-05-14T15:23:01Z</time></trkpt>
<trkpt lat="34.309255" lon="-117.470627"><ele>937.0</ele><time>2024-05-14T15:23:15Z</time></trkpt>
<trkpt lat="34.309070" lon="-117.470532"><ele>935.6</ele><time>2024-05-14T15:23:43Z</time></trkpt>
<trkpt lat="34.308972" lon="-117.470644"><ele>938.6</ele><time>2024-05-14T15:24:21Z</time></trkpt>
<trkpt lat="34.308947" lon="-117.470541"><ele>938.4</ele><time>2024-05-14T15:25:10Z</time></trkpt>
<trkpt lat="34.309109" lon="-117.470678"><ele>939.6</ele><time>2024-05-14T15:27:23Z</time></trkpt>
<trkpt lat="34.308858" lon="-117.470657"><ele>939.4</ele><time>2024-05-14T15:27:27Z</time></trkpt>
<trkpt lat="34.308974" lon="-117.470630"><ele>939.0</ele><time>2024-05-14T15:29:14Z</time></trkpt>
<trkpt lat="34.308960" lon="-117.470539"><ele>938.6</ele><time>2024-05-14T15:31:31Z</time></trkpt>
<trkpt lat="34.308951" lon="-117.470632"><ele>940.0</ele><time>2024-05-14T15:32:40Z</time></trkpt>
<trkpt lat="34.309065" lon="-117.470568"><ele>940.4</ele><time>2024-05-14T15:35:16Z</time></trkpt>
<trkpt lat="34.309176" lon="-117.470419"><ele>940.2</ele><time>2024-05-14T15:35:35Z</time></trkpt>
<trkpt lat="34.309070" lon="-117.470632"><ele>940.2</ele><time>2024-05-14T15:35:37Z</time></trkpt>
<trkpt lat="34.308946" lon="-117.470588"><ele>940.2</ele><time>2024-05-14T15:35:42Z</time></trkpt>
<trkpt lat="34.308938" lon="-117.470504"><ele>939.8</ele><time>2024-05-14T15:35:51Z</time></trkpt>
<trkpt lat="34.308683" lon="-117.470612"><ele>940.4</ele><time>2024-05-14T15:37:59Z</time></trkpt>
<trkpt lat="34.308928" lon="-117.470580"><ele>940.4</ele><time>2024-05-14T15:39:45Z</time></trkpt>
<trkpt lat="34.309118" lon="-117.470642"><ele>940.6</ele><time>2024-05-14T15:39:52Z</time></trkpt>
<trkpt lat="34.308957" lon="-117.470558"><ele>940.6</ele><time>2024-05-14T15:39:54Z</time></trkpt>
<trkpt lat="34.308896" lon="-117.470625"><ele>940.8</ele><time>2024-05-14T15:42:25Z</time></trkpt>
<trkpt lat="34.308967" lon="-117.470691"><ele>941.2</ele><time>2024-05-14T15:42:30Z</time></trkpt>
<trkpt lat="34.308891" lon="-117.470545"><ele>942.0</ele><time>2024-05-14T15:44:39Z</time></trkpt>
<trkpt lat="34.308831" lon="-117.470645"><ele>942.0</ele><time>2024-05-14T15:44:54Z</time></trkpt>
<trkpt lat="34.308798" lon="-117.470503"><ele>941.8</ele><time>2024-05-14T15:45:00Z</time></trkpt>
<trkpt lat="34.308962" lon="-117.470687"><ele>942.2</ele><time>2024-05-14T15:47:30Z</time></trkpt>
<trkpt lat="34.308981" lon="-117.470636"><ele>942.0</ele><time>2024-05-14T15:47:35Z</time></trkpt>
<trkpt lat="34.308944" lon="-117.470712"><ele>941.0</ele><time>2024-05-14T15:47:54Z</time></trkpt>
<trkpt lat="34.308864" lon="-117.470538"><ele>942.2</ele><time>2024-05-14T15:55:29Z</time></trkpt>
<trkpt lat="34.308957" lon="-117.470657"><ele>941.0</ele><time>2024-05-14T15:56:03Z</time></trkpt>
<trkpt lat="34.309077" lon="-117.470531"><ele>941.8</ele><time>2024-05-14T15:58:12Z</time></trkpt>
<trkpt lat="34.309017" lon="-117.470594"><ele>941.8</ele><time>2024-05-14T15:58:13Z</time></trkpt>
<trkpt lat="34.308960" lon="-117.470501"><ele>940.8</ele><time>2024-05-14T15:58:42Z</time></trkpt>
<trkpt lat="34.308995" lon="-117.470553"><ele>941.4</ele><time>2024-05-14T15:58:46Z</time></trkpt>
<trkpt lat="34.308947" lon="-117.470682"><ele>941.2</ele><time>2024-05-14T15:58:50Z</time></trkpt>
<trkpt lat="34.308996" lon="-117.470607"><ele>941.2</ele><time>2024-05-14T15:59:00Z</time></trkpt>
<trkpt lat="34.309083" lon="-117.470687"><ele>941.8</ele><time>2024-05-14T16:00:55Z</time></trkpt>
<trkpt lat="34.308947" lon="-117.470793"><ele>941.2</ele><time>2024-05-14T16:01:02Z</time></trkpt>
<trkpt lat="34.307718" lon="-117.471258"><ele>941.4</ele><time>2024-05-14T16:02:50Z</time></trkpt>
<trkpt lat="34.307027" lon="-117.471690"><ele>941.2</ele><time>2024-05-14T16:02:59Z</time></trkpt>
<trkpt lat="34.307132" lon="-117.471586"><ele>941.0</ele><time>2024-05-14T16:03:01Z</time></trkpt>
<trkpt lat="34.307575" lon="-117.471486"><ele>941.0</ele><time>2024-05-14T16:03:06Z</time></trkpt>
<trkpt lat="34.307715" lon="-117.471525"><ele>940.8</ele><time>2024-05-14T16:03:08Z</time></trkpt>
<trkpt lat="34.308306" lon="-117.471160"><ele>940.2</ele><time>2024-05-14T16:03:16Z</time></trkpt>
<trkpt lat="34.308790" lon="-117.470714"><ele>939.4</ele><time>2024-05-14T16:03:27Z</time></trkpt>
<trkpt lat="34.308584" lon="-117.470699"><ele>939.4</ele><time>2024-05-14T16:03:32Z</time></trkpt>
<trkpt lat="34.309346" lon="-117.470151"><ele>938.8</ele><time>2024-05-14T16:05:12Z</time></trkpt>
<trkpt lat="34.309305" lon="-117.470455"><ele>938.4</ele><time>2024-05-14T16:05:26Z</time></trkpt>
<trkpt lat="34.309651" lon="-117.470575"><ele>940.0</ele><time>2024-05-14T16:06:28Z</time></trkpt>
<trkpt lat="34.309978" lon="-117.471175"><ele>942.2</ele><time>2024-05-14T16:07:12Z</time></trkpt>
<trkpt lat="34.310231" lon="-117.471461"><ele>943.2</ele><time>2024-05-14T16:07:36Z</time></trkpt>
<trkpt lat="34.310164" lon="-117.471685"><ele>943.6</ele><time>2024-05-14T16:07:49Z</time></trkpt>
<trkpt lat="34.310206" lon="-117.471799"><ele>944.4</ele><time>2024-05-14T16:07:58Z</time></trkpt>
<trkpt lat="34.310843" lon="-117.472289"><ele>950.8</ele><time>2024-05-14T16:09:06Z</time></trkpt>
<trkpt lat="34.311208" lon="-117.472623"><ele>955.6</ele><time>2024-05-14T16:09:47Z</time></trkpt>
<trkpt lat="34.311309" lon="-117.472794"><ele>957.0</ele><time>2024-05-14T16:10:02Z</time></trkpt>
<trkpt lat="34.311744" lon="-117.472979"><ele>960.6</ele><time>2024-05-14T16:10:33Z</time></trkpt>
<trkpt lat="34.311928" lon="-117.473308"><ele>960.8</ele><time>2024-05-14T16:10:59Z</time></trkpt>
<trkpt lat="34.311773" lon="-117.474053"><ele>960.8</ele><time>2024-05-14T16:11:42Z</time></trkpt>
<trkpt lat="34.311857" lon="-117.474953"><ele>960.0</ele><time>2024-05-14T16:12:47Z</time></trkpt>
<trkpt lat="34.311790" lon="-117.475094"><ele>960.2</ele><time>2024-05-14T16:12:59Z</time></trkpt>
<trkpt lat="34.311876" lon="-117.475994"><ele>958.4</ele><time>2024-05-14T16:13:50Z</time></trkpt>
<trkpt lat="34.311673" lon="-117.476790"><ele>956.0</ele><time>2024-05-14T16:14:53Z</time></trkpt>
<trkpt lat="34.311824" lon="-117.477337"><ele>954.6</ele><time>2024-05-14T16:15:43Z</time></trkpt>
<trkpt lat="34.311767" lon="-117.477608"><ele>954.2</ele><time>2024-05-14T16:15:58Z</time></trkpt>
<trkpt lat="34.312088" lon="-117.477915"><ele>955.4</ele><time>2024-05-14T16:16:53Z</time></trkpt>
<trkpt lat="34.312087" lon="-117.478002"><ele>956.0</ele><time>2024-05-14T16:17:17Z</time></trkpt>
<trkpt lat="34.312382" lon="-117.478177"><ele>956.4</ele><time>2024-05-14T16:17:44Z</time></trkpt>
<trkpt lat="34.313053" lon="-117.477926"><ele>956.4</ele><time>2024-05-14T16:20:03Z</time></trkpt>
<trkpt lat="34.312651" lon="-117.478116"><ele>955.8</ele><time>2024-05-14T16:22:01Z</time></trkpt>
<trkpt lat="34.312697" lon="-117.478224"><ele>955.4</ele><time>2024-05-14T16:23:51Z</time></trkpt>
<trkpt lat="34.312618" lon="-117.478134"><ele>955.6</ele><time>2024-05-14T16:23:56Z</time></trkpt>
<trkpt lat="34.312772" lon="-117.478052"><ele>956.2</ele><time>2024-05-14T16:25:56Z</time></trkpt>
<trkpt lat="34.312661" lon="-117.478147"><ele>956.2</ele><time>2024-05-14T16:26:01Z</time></trkpt>
<trkpt lat="34.312464" lon="-117.478584"><ele>957.2</ele><time>2024-05-14T16:27:54Z</time></trkpt>
<trkpt lat="34.312651" lon="-117.478282"><ele>957.2</ele><time>2024-05-14T16:27:56Z</time></trkpt>
<trkpt lat="34.312620" lon="-117.478244"><ele>957.2</ele><time>2024-05-14T16:28:00Z</time></trkpt>
<trkpt lat="34.313179" lon="-117.477954"><ele>957.6</ele><time>2024-05-14T16:29:55Z</time></trkpt>
<trkpt lat="34.312720" lon="-117.478205"><ele>957.8</ele><time>2024-05-14T16:31:58Z</time></trkpt>
<trkpt lat="34.312682" lon="-117.478079"><ele>957.6</ele><time>2024-05-14T16:32:06Z</time></trkpt>
<trkpt lat="34.312684" lon="-117.478164"><ele>957.6</ele><time>2024-05-14T16:32:13Z</time></trkpt>
<trkpt lat="34.313056" lon="-117.477883"><ele>958.2</ele><time>2024-05-14T16:35:02Z</time></trkpt>
<trkpt lat="34.312764" lon="-117.478270"><ele>958.8</ele><time>2024-05-14T16:36:50Z</time></trkpt>
<trkpt lat="34.312817" lon="-117.478241"><ele>958.6</ele><time>2024-05-14T16:36:55Z</time></trkpt>
<trkpt lat="34.311951" lon="-117.478213"><ele>956.6</ele><time>2024-05-14T16:37:59Z</time></trkpt>
<trkpt lat="34.312087" lon="-117.477979"><ele>956.2</ele><time>2024-05-14T16:38:52Z</time></trkpt>
<trkpt lat="34.312080" lon="-117.478098"><ele>956.2</ele><time>2024-05-14T16:38:58Z</time></trkpt>
<trkpt lat="34.311781" lon="-117.477720"><ele>955.2</ele><time>2024-05-14T16:40:10Z</time></trkpt>
<trkpt lat="34.311522" lon="-117.477563"><ele>955.6</ele><time>2024-05-14T16:40:43Z</time></trkpt>
<trkpt lat="34.311590" lon="-117.476920"><ele>957.2</ele><time>2024-05-14T16:41:17Z</time></trkpt>
<trkpt lat="34.311527" lon="-117.476532"><ele>958.6</ele><time>2024-05-14T16:41:41Z</time></trkpt>
<trkpt lat="34.311703" lon="-117.476036"><ele>959.4</ele><time>2024-05-14T16:42:21Z</time></trkpt>
<trkpt lat="34.311643" lon="-117.475754"><ele>959.6</ele><time>2024-05-14T16:42:42Z</time></trkpt>
<trkpt lat="34.311731" lon="-117.475425"><ele>959.0</ele><time>2024-05-14T16:42:59Z</time></trkpt>
<trkpt lat="34.311729" lon="-117.474957"><ele>959.4</ele><time>2024-05-14T16:43:21Z</time></trkpt>
<trkpt lat="34.311807" lon="-117.474460"><ele>959.6</ele><time>2024-05-14T16:44:01Z</time></trkpt>
<trkpt lat="34.311881" lon="-117.474393"><ele>959.8</ele><time>2024-05-14T16:44:15Z</time></trkpt>
<trkpt lat="34.311707" lon="-117.473951"><ele>958.8</ele><time>2024-05-14T16:44:42Z</time></trkpt>
<trkpt lat="34.311761" lon="-117.473539"><ele>958.8</ele><time>2024-05-14T16:45:02Z</time></trkpt>
<trkpt lat="34.311214" lon="-117.473022"><ele>955.0</ele><time>2024-05-14T16:46:03Z</time></trkpt>
<trkpt lat="34.310796" lon="-117.472465"><ele>949.8</ele><time>2024-05-14T16:46:48Z</time></trkpt>
<trkpt lat="34.310754" lon="-117.472320"><ele>948.4</ele><time>2024-05-14T16:46:56Z</time></trkpt>
<trkpt lat="34.310399" lon="-117.472179"><ele>943.8</ele><time>2024-05-14T16:47:29Z</time></trkpt>
<trkpt lat="34.310265" lon="-117.471734"><ele>939.8</ele><time>2024-05-14T16:48:31Z</time></trkpt>
<trkpt lat="34.310143" lon="-117.471592"><ele>938.6</ele><time>2024-05-14T16:48:42Z</time></trkpt>
<trkpt lat="34.310015" lon="-117.471616"><ele>938.0</ele><time>2024-05-14T16:48:52Z</time></trkpt>
<trkpt lat="34.309774" lon="-117.471098"><ele>937.0</ele><time>2024-05-14T16:49:47Z</time></trkpt>
<trkpt lat="34.309504" lon="-117.470891"><ele>936.0</ele><time>2024-05-14T16:50:11Z</time></trkpt>
<trkpt lat="34.309201" lon="-117.470724"><ele>935.4</ele><time>2024-05-14T16:50:46Z</time></trkpt>
<trkpt lat="34.309198" lon="-117.470770"><ele>935.6</ele><time>2024-05-14T16:50:51Z</time></trkpt>
<trkpt lat="34.309335" lon="-117.470669"><ele>935.0</ele><time>2024-05-14T16:52:43Z</time></trkpt>
<trkpt lat="34.309394" lon="-117.470511"><ele>935.4</ele><time>2024-05-14T16:52:46Z</time></trkpt>
<trkpt lat="34.309300" lon="-117.470340"><ele>935.4</ele><time>2024-05-14T16:53:01Z</time></trkpt>
<trkpt lat="34.308878" lon="-117.470715"><ele>935.2</ele><time>2024-05-14T16:55:25Z</time></trkpt>
<trkpt lat="34.309016" lon="-117.470604"><ele>935.4</ele><time>2024-05-14T16:55:29Z</time></trkpt>
<trkpt lat="34.309067" lon="-117.470757"><ele>935.4</ele><time>2024-05-14T16:57:25Z</time></trkpt>
<trkpt lat="34.308978" lon="-117.470621"><ele>935.6</ele><time>2024-05-14T16:58:53Z</time></trkpt>
<trkpt lat="34.308984" lon="-117.470432"><ele>935.8</ele><time>2024-05-14T16:59:25Z</time></trkpt>
<trkpt lat="34.308952" lon="-117.470663"><ele>935.8</ele><time>2024-05-14T16:59:32Z</time></trkpt>
<trkpt lat="34.308931" lon="-117.470433"><ele>935.8</ele><time>2024-05-14T17:03:35Z</time></trkpt>
<trkpt lat="34.309030" lon="-117.470863"><ele>936.4</ele><time>2024-05-14T17:04:00Z</time></trkpt>
<trkpt lat="34.308998" lon="-117.470506"><ele>935.2</ele><time>2024-05-14T17:06:06Z</time></trkpt>
<trkpt lat="34.309025" lon="-117.470607"><ele>936.8</ele><time>2024-05-14T17:06:11Z</time></trkpt>
<trkpt lat="34.309077" lon="-117.470572"><ele>935.8</ele><time>2024-05-14T17:06:42Z</time></trkpt>
<trkpt lat="34.309056" lon="-117.470618"><ele>936.6</ele><time>2024-05-14T17:06:49Z</time></trkpt>
<trkpt lat="34.308995" lon="-117.470630"><ele>936.6</ele><time>2024-05-14T17:06:53Z</time></trkpt>
<trkpt lat="34.309017" lon="-117.470557"><ele>936.6</ele><time>2024-05-14T17:06:56Z</time></trkpt>
<trkpt lat="34.309045" lon="-117.470593"><ele>936.6</ele><time>2024-05-14T17:08:53Z</time></trkpt>
<trkpt lat="34.308996" lon="-117.470574"><ele>936.0</ele><time>2024-05-14T17:09:00Z</time></trkpt>
<trkpt lat="34.309146" lon="-117.470516"><ele>936.2</ele><time>2024-05-14T17:13:30Z</time></trkpt>
<trkpt lat="34.309123" lon="-117.470473"><ele>936.2</ele><time>2024-05-14T17:15:32Z</time></trkpt>
<trkpt lat="34.308873" lon="-117.470596"><ele>937.0</ele><time>2024-05-14T17:17:43Z</time></trkpt>
<trkpt lat="34.308977" lon="-117.470635"><ele>935.8</ele><time>2024-05-14T17:17:48Z</time></trkpt>
<trkpt lat="34.308925" lon="-117.470705"><ele>936.0</ele><time>2024-05-14T17:17:55Z</time></trkpt>
<trkpt lat="34.309102" lon="-117.470557"><ele>935.6</ele><time>2024-05-14T17:27:36Z</time></trkpt>
<trkpt lat="34.307811" lon="-117.472639"><ele>936.0</ele><time>2024-05-14T17:34:11Z</time></trkpt>
<trkpt lat="34.309106" lon="-117.470439"><ele>934.8</ele><time>2024-05-14T17:34:49Z</time></trkpt>
<trkpt lat="34.309070" lon="-117.470473"><ele>935.2</ele><time>2024-05-14T17:34:51Z</time></trkpt>
<trkpt lat="34.309051" lon="-117.470528"><ele>935.8</ele><time>2024-05-14T17:34:55Z</time></trkpt>
<trkpt lat="34.309156" lon="-117.470578"><ele>935.8</ele><time>2024-05-14T17:42:23Z</time></trkpt>
<trkpt lat="34.309169" lon="-117.470521"><ele>936.0</ele><time>2024-05-14T17:42:26Z</time></trkpt>
<trkpt lat="34.308969" lon="-117.470538"><ele>935.4</ele><time>2024-05-14T17:55:46Z</time></trkpt>
<trkpt lat="34.308965" lon="-117.470589"><ele>935.4</ele><time>2024-05-14T17:55:48Z</time></trkpt>
<trkpt lat="34.309103" lon="-117.470647"><ele>934.6</ele><time>2024-05-14T17:58:15Z</time></trkpt>
<trkpt lat="34.309046" lon="-117.470596"><ele>936.0</ele><time>2024-05-14T17:58:59Z</time></trkpt>
<trkpt lat="34.309001" lon="-117.470708"><ele>936.4</ele><time>2024-05-14T17:59:51Z</time></trkpt>
<trkpt lat="34.309064" lon="-117.470523"><ele>936.8</ele><time>2024-05-14T18:00:45Z</time></trkpt>
<trkpt lat="34.308996" lon="-117.470605"><ele>936.8</ele><time>2024-05-14T18:01:26Z</time></trkpt>
<trkpt lat="34.309072" lon="-117.470572"><ele>935.4</ele><time>2024-05-14T18:02:11Z</time></trkpt>
<trkpt lat="34.308978" lon="-117.470576"><ele>936.2</ele><time>2024-05-14T18:03:29Z</time></trkpt>
<trkpt lat="34.309067" lon="-117.470614"><ele>936.0</ele><time>2024-05-14T18:05:33Z</time></trkpt>
<trkpt lat="34.308972" lon="-117.470728"><ele>936.4</ele><time>2024-05-14T18:07:27Z</time></trkpt>
<trkpt lat="34.308855" lon="-117.470743"><ele>936.4</ele><time>2024-05-14T18:08:48Z</time></trkpt>
<trkpt lat="34.308645" lon="-117.470931"><ele>934.6</ele><time>2024-05-14T18:09:22Z</time></trkpt>
<trkpt lat="34.308661" lon="-117.470885"><ele>934.6</ele><time>2024-05-14T18:09:23Z</time></trkpt>
<trkpt lat="34.308934" lon="-117.470618"><ele>935.8</ele><time>2024-05-14T18:09:25Z</time></trkpt>
<trkpt lat="34.309110" lon="-117.470603"><ele>936.0</ele><time>2024-05-14T18:11:48Z</time></trkpt>
<trkpt lat="34.309029" lon="-117.470577"><ele>936.4</ele><time>2024-05-14T18:12:02Z</time></trkpt>
<trkpt lat="34.309069" lon="-117.470570"><ele>935.2</ele><time>2024-05-14T18:13:39Z</time></trkpt>
<trkpt lat="34.309025" lon="-117.470753"><ele>935.2</ele><time>2024-05-14T18:14:44Z</time></trkpt>
<trkpt lat="34.309072" lon="-117.470477"><ele>935.8</ele><time>2024-05-14T18:14:54Z</time></trkpt>
<trkpt lat="34.309071" lon="-117.470581"><ele>935.8</ele><time>2024-05-14T18:14:57Z</time></trkpt>
<trkpt lat="34.309135" lon="-117.470604"><ele>935.6</ele><time>2024-05-14T18:19:22Z</time></trkpt>
<trkpt lat="34.309083" lon="-117.470686"><ele>936.2</ele><time>2024-05-14T18:19:40Z</time></trkpt>
<trkpt lat="34.309081" lon="-117.470599"><ele>936.2</ele><time>2024-05-14T18:21:56Z</time></trkpt>
<trkpt lat="34.308922" lon="-117.470633"><ele>938.0</ele><time>2024-05-14T18:23:50Z</time></trkpt>
<trkpt lat="34.309001" lon="-117.470647"><ele>938.6</ele><time>2024-05-14T18:23:57Z</time></trkpt>
<trkpt lat="34.309189" lon="-117.470425"><ele>937.6</ele><time>2024-05-14T18:25:55Z</time></trkpt>
<trkpt lat="34.309033" lon="-117.470515"><ele>938.0</ele><time>2024-05-14T18:28:11Z</time></trkpt>
<trkpt lat="34.309000" lon="-117.470672"><ele>936.8</ele><time>2024-05-14T18:28:58Z</time></trkpt>
<trkpt lat="34.309017" lon="-117.470519"><ele>937.6</ele><time>2024-05-14T18:29:01Z</time></trkpt>
<trkpt lat="34.309002" lon="-117.470583"><ele>937.6</ele><time>2024-05-14T18:29:04Z</time></trkpt>
<trkpt lat="34.308814" lon="-117.470480"><ele>937.8</ele><time>2024-05-14T18:31:02Z</time></trkpt>
<trkpt lat="34.308979" lon="-117.470493"><ele>937.4</ele><time>2024-05-14T18:31:10Z</time></trkpt>
<trkpt lat="34.309972" lon="-117.469983"><ele>938.2</ele><time>2024-05-14T18:31:50Z</time></trkpt>
<trkpt lat="34.309642" lon="-117.470167"><ele>938.2</ele><time>2024-05-14T18:31:51Z</time></trkpt>
<trkpt lat="34.309205" lon="-117.470572"><ele>938.2</ele><time>2024-05-14T18:31:59Z</time></trkpt>
<trkpt lat="34.309235" lon="-117.470599"><ele>938.0</ele><time>2024-05-14T18:32:01Z</time></trkpt>
<trkpt lat="34.309128" lon="-117.470606"><ele>937.8</ele><time>2024-05-14T18:33:56Z</time></trkpt>
<trkpt lat="34.308978" lon="-117.470741"><ele>937.6</ele><time>2024-05-14T18:34:02Z</time></trkpt>
<trkpt lat="34.308923" lon="-117.470484"><ele>937.0</ele><time>2024-05-14T18:36:08Z</time></trkpt>
<trkpt lat="34.308945" lon="-117.470557"><ele>936.2</ele><time>2024-05-14T18:36:12Z</time></trkpt>
<trkpt lat="34.308699" lon="-117.470820"><ele>937.6</ele><time>2024-05-14T18:38:52Z</time></trkpt>
<trkpt lat="34.308995" lon="-117.470661"><ele>937.4</ele><time>2024-05-14T18:39:01Z</time></trkpt>
<trkpt lat="34.308975" lon="-117.470327"><ele>937.8</ele><time>2024-05-14T18:40:53Z</time></trkpt>
<trkpt lat="34.309105" lon="-117.470329"><ele>936.6</ele><time>2024-05-14T18:41:00Z</time></trkpt>
<trkpt lat="34.309255" lon="-117.470439"><ele>936.4</ele><time>2024-05-14T18:41:20Z</time></trkpt>
<trkpt lat="34.309080" lon="-117.470587"><ele>938.6</ele><time>2024-05-14T18:41:52Z</time></trkpt>
<trkpt lat="34.309160" lon="-117.470553"><ele>939.2</ele><time>2024-05-14T18:42:00Z</time></trkpt>
<trkpt lat="34.309211" lon="-117.470731"><ele>938.4</ele><time>2024-05-14T18:42:54Z</time></trkpt>
<trkpt lat="34.309289" lon="-117.470538"><ele>938.4</ele><time>2024-05-14T18:44:47Z</time></trkpt>
<trkpt lat="34.309296" lon="-117.470595"><ele>938.4</ele><time>2024-05-14T18:44:48Z</time></trkpt>
<trkpt lat="34.309335" lon="-117.470541"><ele>938.4</ele><time>2024-05-14T18:44:52Z</time></trkpt>
<trkpt lat="34.309122" lon="-117.470940"><ele>939.0</ele><time>2024-05-14T18:46:43Z</time></trkpt>
<trkpt lat="34.309271" lon="-117.470779"><ele>939.2</ele><time>2024-05-14T18:46:49Z</time></trkpt>
<trkpt lat="34.309290" lon="-117.470647"><ele>939.2</ele><time>2024-05-14T18:46:50Z</time></trkpt>
<trkpt lat="34.309427" lon="-117.470610"><ele>939.2</ele><time>2024-05-14T18:47:00Z</time></trkpt>
<trkpt lat="34.309302" lon="-117.470616"><ele>939.2</ele><time>2024-05-14T18:48:46Z</time></trkpt>
<trkpt lat="34.309408" lon="-117.470546"><ele>939.2</ele><time>2024-05-14T18:48:53Z</time></trkpt>
<trkpt lat="34.309460" lon="-117.470588"><ele>939.0</ele><time>2024-05-14T18:49:00Z</time></trkpt>
<trkpt lat="34.309503" lon="-117.470504"><ele>939.0</ele><time>2024-05-14T18:50:11Z</time></trkpt>
<trkpt lat="34.309172" lon="-117.470967"><ele>938.6</ele><time>2024-05-14T18:52:42Z</time></trkpt>
<trkpt lat="34.309455" lon="-117.470570"><ele>938.4</ele><time>2024-05-14T18:52:55Z</time></trkpt>
<trkpt lat="34.309395" lon="-117.470581"><ele>938.4</ele><time>2024-05-14T18:54:37Z</time></trkpt>
<trkpt lat="34.309389" lon="-117.470655"><ele>938.2</ele><time>2024-05-14T18:54:43Z</time></trkpt>
<trkpt lat="34.309445" lon="-117.470494"><ele>938.2</ele><time>2024-05-14T18:54:48Z</time></trkpt>
<trkpt lat="34.309309" lon="-117.470279"><ele>937.0</ele><time>2024-05-14T18:55:05Z</time></trkpt>
<trkpt lat="34.309002" lon="-117.470552"><ele>937.6</ele><time>2024-05-14T18:56:51Z</time></trkpt>
<trkpt lat="34.309068" lon="-117.470474"><ele>938.0</ele><time>2024-05-14T18:57:57Z</time></trkpt>
<trkpt lat="34.308985" lon="-117.470408"><ele>938.6</ele><time>2024-05-14T18:58:45Z</time></trkpt>
<trkpt lat="34.309144" lon="-117.470249"><ele>938.0</ele><time>2024-05-14T18:58:53Z</time></trkpt>
<trkpt lat="34.309068" lon="-117.469858"><ele>936.6</ele><time>2024-05-14T18:59:11Z</time></trkpt>
<trkpt lat="34.308589" lon="-117.469375"><ele>935.8</ele><time>2024-05-14T18:59:47Z</time></trkpt>
<trkpt lat="34.308426" lon="-117.469129"><ele>934.4</ele><time>2024-05-14T19:00:23Z</time></trkpt>
<trkpt lat="34.308392" lon="-117.468800"><ele>932.4</ele><time>2024-05-14T19:00:57Z</time></trkpt>
<trkpt lat="34.308187" lon="-117.468423"><ele>929.8</ele><time>2024-05-14T19:01:27Z</time></trkpt>
<trkpt lat="34.308147" lon="-117.468207"><ele>929.0</ele><time>2024-05-14T19:01:41Z</time></trkpt>
<trkpt lat="34.307991" lon="-117.468163"><ele>928.6</ele><time>2024-05-14T19:01:59Z</time></trkpt>
<trkpt lat="34.307731" lon="-117.467883"><ele>926.6</ele><time>2024-05-14T19:02:25Z</time></trkpt>
<trkpt lat="34.307452" lon="-117.467779"><ele>926.2</ele><time>2024-05-14T19:02:44Z</time></trkpt>
<trkpt lat="34.307373" lon="-117.467519"><ele>926.6</ele><time>2024-05-14T19:02:59Z</time></trkpt>
<trkpt lat="34.306930" lon="-117.467097"><ele>924.8</ele><time>2024-05-14T19:03:45Z</time></trkpt>
<trkpt lat="34.306263" lon="-117.466657"><ele>923.8</ele><time>2024-05-14T19:04:45Z</time></trkpt>
<trkpt lat="34.306090" lon="-117.466397"><ele>920.8</ele><time>2024-05-14T19:05:33Z</time></trkpt>
<trkpt lat="34.305994" lon="-117.465866"><ele>914.6</ele><time>2024-05-14T19:06:07Z</time></trkpt>
<trkpt lat="34.305448" lon="-117.465927"><ele>912.2</ele><time>2024-05-14T19:06:55Z</time></trkpt>
<trkpt lat="34.304364" lon="-117.465311"><ele>909.6</ele><time>2024-05-14T19:08:49Z</time></trkpt>
<trkpt lat="34.304414" lon="-117.465371"><ele>908.8</ele><time>2024-05-14T19:09:01Z</time></trkpt>
<trkpt lat="34.304262" lon="-117.465373"><ele>908.8</ele><time>2024-05-14T19:10:01Z</time></trkpt>
<trkpt lat="34.303969" lon="-117.464991"><ele>908.0</ele><time>2024-05-14T19:10:45Z</time></trkpt>
<trkpt lat="34.303699" lon="-117.464197"><ele>905.2</ele><time>2024-05-14T19:11:43Z</time></trkpt>
<trkpt lat="34.303591" lon="-117.464235"><ele>904.2</ele><time>2024-05-14T19:12:09Z</time></trkpt>
<trkpt lat="34.303584" lon="-117.464878"><ele>904.6</ele><time>2024-05-14T19:12:42Z</time></trkpt>
<trkpt lat="34.303771" lon="-117.465013"><ele>905.0</ele><time>2024-05-14T19:12:57Z</time></trkpt>
<trkpt lat="34.303940" lon="-117.465847"><ele>906.4</ele><time>2024-05-14T19:13:49Z</time></trkpt>
<trkpt lat="34.303867" lon="-117.466492"><ele>906.8</ele><time>2024-05-14T19:14:48Z</time></trkpt>
<trkpt lat="34.303980" lon="-117.467111"><ele>908.4</ele><time>2024-05-14T19:15:35Z</time></trkpt>
<trkpt lat="34.303953" lon="-117.467636"><ele>910.0</ele><time>2024-05-14T19:16:07Z</time></trkpt>
<trkpt lat="34.303676" lon="-117.467881"><ele>913.0</ele><time>2024-05-14T19:16:42Z</time></trkpt>
<trkpt lat="34.303663" lon="-117.467694"><ele>914.6</ele><time>2024-05-14T19:16:53Z</time></trkpt>
<trkpt lat="34.303442" lon="-117.467648"><ele>917.2</ele><time>2024-05-14T19:17:25Z</time></trkpt>
<trkpt lat="34.303221" lon="-117.467821"><ele>916.2</ele><time>2024-05-14T19:17:51Z</time></trkpt>
<trkpt lat="34.302860" lon="-117.467765"><ele>918.4</ele><time>2024-05-14T19:18:23Z</time></trkpt>
<trkpt lat="34.302671" lon="-117.467850"><ele>919.4</ele><time>2024-05-14T19:18:41Z</time></trkpt>
<trkpt lat="34.302693" lon="-117.467929"><ele>920.2</ele><time>2024-05-14T19:18:49Z</time></trkpt>
<trkpt lat="34.302612" lon="-117.467815"><ele>921.4</ele><time>2024-05-14T19:19:02Z</time></trkpt>
<trkpt lat="34.302396" lon="-117.467826"><ele>922.4</ele><time>2024-05-14T19:19:21Z</time></trkpt>
<trkpt lat="34.302163" lon="-117.468012"><ele>926.2</ele><time>2024-05-14T19:19:59Z</time></trkpt>
<trkpt lat="34.302113" lon="-117.467840"><ele>926.8</ele><time>2024-05-14T19:20:11Z</time></trkpt>
<trkpt lat="34.302004" lon="-117.467743"><ele>927.8</ele><time>2024-05-14T19:20:23Z</time></trkpt>
<trkpt lat="34.301733" lon="-117.467681"><ele>931.2</ele><time>2024-05-14T19:20:49Z</time></trkpt>
<trkpt lat="34.301560" lon="-117.467561"><ele>932.2</ele><time>2024-05-14T19:21:05Z</time></trkpt>
<trkpt lat="34.301433" lon="-117.467567"><ele>933.4</ele><time>2024-05-14T19:21:21Z</time></trkpt>
<trkpt lat="34.301368" lon="-117.467791"><ele>932.6</ele><time>2024-05-14T19:21:55Z</time></trkpt>
<trkpt lat="34.301094" lon="-117.468057"><ele>928.8</ele><time>2024-05-14T19:22:44Z</time></trkpt>
<trkpt lat="34.301171" lon="-117.468192"><ele>928.6</ele><time>2024-05-14T19:22:59Z</time></trkpt>
<trkpt lat="34.300842" lon="-117.468254"><ele>928.4</ele><time>2024-05-14T19:23:19Z</time></trkpt>
<trkpt lat="34.300740" lon="-117.468342"><ele>926.6</ele><time>2024-05-14T19:23:45Z</time></trkpt>
<trkpt lat="34.300638" lon="-117.468611"><ele>925.0</ele><time>2024-05-14T19:24:05Z</time></trkpt>
<trkpt lat="34.300456" lon="-117.468627"><ele>922.0</ele><time>2024-05-14T19:24:27Z</time></trkpt>
<trkpt lat="34.300251" lon="-117.468823"><ele>921.2</ele><time>2024-05-14T19:24:47Z</time></trkpt>
<trkpt lat="34.300155" lon="-117.468739"><ele>920.6</ele><time>2024-05-14T19:25:00Z</time></trkpt>
<trkpt lat="34.299865" lon="-117.468942"><ele>918.4</ele><time>2024-05-14T19:25:19Z</time></trkpt>
<trkpt lat="34.299722" lon="-117.469212"><ele>918.0</ele><time>2024-05-14T19:25:37Z</time></trkpt>
<trkpt lat="34.299675" lon="-117.469814"><ele>911.4</ele><time>2024-05-14T19:26:43Z</time></trkpt>
<trkpt lat="34.299755" lon="-117.469817"><ele>911.4</ele><time>2024-05-14T19:26:47Z</time></trkpt>
<trkpt lat="34.299607" lon="-117.469913"><ele>911.8</ele><time>2024-05-14T19:27:02Z</time></trkpt>
<trkpt lat="34.299453" lon="-117.469813"><ele>910.4</ele><time>2024-05-14T19:27:17Z</time></trkpt>
<trkpt lat="34.299029" lon="-117.469064"><ele>905.8</ele><time>2024-05-14T19:28:42Z</time></trkpt>
<trkpt lat="34.298608" lon="-117.468672"><ele>907.2</ele><time>2024-05-14T19:29:51Z</time></trkpt>
<trkpt lat="34.298504" lon="-117.468681"><ele>907.6</ele><time>2024-05-14T19:29:59Z</time></trkpt>
<trkpt lat="34.298397" lon="-117.468492"><ele>904.4</ele><time>2024-05-14T19:30:15Z</time></trkpt>
<trkpt lat="34.298209" lon="-117.468464"><ele>904.2</ele><time>2024-05-14T19:30:44Z</time></trkpt>
<trkpt lat="34.298095" lon="-117.468625"><ele>904.4</ele><time>2024-05-14T19:31:00Z</time></trkpt>
<trkpt lat="34.298023" lon="-117.468619"><ele>905.4</ele><time>2024-05-14T19:31:05Z</time></trkpt>
<trkpt lat="34.298042" lon="-117.468501"><ele>908.6</ele><time>2024-05-14T19:31:47Z</time></trkpt>
<trkpt lat="34.297939" lon="-117.468519"><ele>910.8</ele><time>2024-05-14T19:32:07Z</time></trkpt>
<trkpt lat="34.297749" lon="-117.468396"><ele>914.4</ele><time>2024-05-14T19:32:44Z</time></trkpt>
<trkpt lat="34.297771" lon="-117.468547"><ele>916.0</ele><time>2024-05-14T19:32:59Z</time></trkpt>
<trkpt lat="34.297591" lon="-117.468831"><ele>917.6</ele><time>2024-05-14T19:33:15Z</time></trkpt>
<trkpt lat="34.297446" lon="-117.468970"><ele>920.8</ele><time>2024-05-14T19:33:47Z</time></trkpt>
<trkpt lat="34.297317" lon="-117.469001"><ele>921.2</ele><time>2024-05-14T19:34:03Z</time></trkpt>
<trkpt lat="34.297045" lon="-117.469290"><ele>922.0</ele><time>2024-05-14T19:34:42Z</time></trkpt>
<trkpt lat="34.296981" lon="-117.469192"><ele>924.2</ele><time>2024-05-14T19:34:52Z</time></trkpt>
<trkpt lat="34.296892" lon="-117.469238"><ele>924.6</ele><time>2024-05-14T19:35:02Z</time></trkpt>
<trkpt lat="34.296432" lon="-117.469045"><ele>931.6</ele><time>2024-05-14T19:36:01Z</time></trkpt>
<trkpt lat="34.296033" lon="-117.469030"><ele>937.2</ele><time>2024-05-14T19:36:43Z</time></trkpt>
<trkpt lat="34.296102" lon="-117.468998"><ele>937.2</ele><time>2024-05-14T19:36:47Z</time></trkpt>
<trkpt lat="34.295895" lon="-117.469250"><ele>936.6</ele><time>2024-05-14T19:37:35Z</time></trkpt>
<trkpt lat="34.296079" lon="-117.469445"><ele>939.4</ele><time>2024-05-14T19:38:15Z</time></trkpt>
<trkpt lat="34.296093" lon="-117.469619"><ele>940.6</ele><time>2024-05-14T19:38:31Z</time></trkpt>
<trkpt lat="34.295996" lon="-117.469832"><ele>940.2</ele><time>2024-05-14T19:38:42Z</time></trkpt>
<trkpt lat="34.296295" lon="-117.470075"><ele>941.2</ele><time>2024-05-14T19:39:13Z</time></trkpt>
<trkpt lat="34.296180" lon="-117.470558"><ele>944.0</ele><time>2024-05-14T19:39:59Z</time></trkpt>
<trkpt lat="34.296056" lon="-117.470635"><ele>946.4</ele><time>2024-05-14T19:40:19Z</time></trkpt>
<trkpt lat="34.296015" lon="-117.470891"><ele>946.8</ele><time>2024-05-14T19:40:42Z</time></trkpt>
<trkpt lat="34.296097" lon="-117.470878"><ele>947.8</ele><time>2024-05-14T19:40:51Z</time></trkpt>
<trkpt lat="34.296158" lon="-117.471040"><ele>946.6</ele><time>2024-05-14T19:41:03Z</time></trkpt>
<trkpt lat="34.296105" lon="-117.471187"><ele>945.4</ele><time>2024-05-14T19:41:19Z</time></trkpt>
<trkpt lat="34.295853" lon="-117.471372"><ele>944.0</ele><time>2024-05-14T19:41:41Z</time></trkpt>
<trkpt lat="34.295703" lon="-117.471646"><ele>945.0</ele><time>2024-05-14T19:42:11Z</time></trkpt>
<trkpt lat="34.295654" lon="-117.471886"><ele>944.4</ele><time>2024-05-14T19:42:42Z</time></trkpt>
<trkpt lat="34.295556" lon="-117.471973"><ele>943.4</ele><time>2024-05-14T19:42:56Z</time></trkpt>
<trkpt lat="34.295467" lon="-117.472278"><ele>944.4</ele><time>2024-05-14T19:43:13Z</time></trkpt>
<trkpt lat="34.295291" lon="-117.472374"><ele>943.4</ele><time>2024-05-14T19:43:33Z</time></trkpt>
<trkpt lat="34.295185" lon="-117.472251"><ele>939.0</ele><time>2024-05-14T19:43:55Z</time></trkpt>
<trkpt lat="34.294804" lon="-117.472534"><ele>935.8</ele><time>2024-05-14T19:44:43Z</time></trkpt>
<trkpt lat="34.294609" lon="-117.472379"><ele>937.0</ele><time>2024-05-14T19:45:00Z</time></trkpt>
<trkpt lat="34.294483" lon="-117.472771"><ele>935.6</ele><time>2024-05-14T19:45:37Z</time></trkpt>
<trkpt lat="34.294519" lon="-117.472873"><ele>939.4</ele><time>2024-05-14T19:46:23Z</time></trkpt>
<trkpt lat="34.294418" lon="-117.472990"><ele>940.0</ele><time>2024-05-14T19:46:43Z</time></trkpt>
<trkpt lat="34.294283" lon="-117.473023"><ele>941.6</ele><time>2024-05-14T19:46:55Z</time></trkpt>
<trkpt lat="34.294218" lon="-117.472946"><ele>941.8</ele><time>2024-05-14T19:47:02Z</time></trkpt>
<trkpt lat="34.294077" lon="-117.473002"><ele>942.2</ele><time>2024-05-14T19:47:07Z</time></trkpt>
<trkpt lat="34.293584" lon="-117.473280"><ele>949.4</ele><time>2024-05-14T19:48:25Z</time></trkpt>
<trkpt lat="34.293464" lon="-117.473490"><ele>952.0</ele><time>2024-05-14T19:48:42Z</time></trkpt>
<trkpt lat="34.293531" lon="-117.473607"><ele>953.4</ele><time>2024-05-14T19:48:55Z</time></trkpt>
<trkpt lat="34.293482" lon="-117.474040"><ele>957.0</ele><time>2024-05-14T19:49:23Z</time></trkpt>
<trkpt lat="34.293585" lon="-117.474351"><ele>958.2</ele><time>2024-05-14T19:49:43Z</time></trkpt>
<trkpt lat="34.293539" lon="-117.475002"><ele>963.6</ele><time>2024-05-14T19:50:41Z</time></trkpt>
<trkpt lat="34.293616" lon="-117.474804"><ele>964.0</ele><time>2024-05-14T19:50:47Z</time></trkpt>
<trkpt lat="34.293652" lon="-117.474832"><ele>965.4</ele><time>2024-05-14T19:51:00Z</time></trkpt>
<trkpt lat="34.293509" lon="-117.475456"><ele>970.8</ele><time>2024-05-14T19:52:58Z</time></trkpt>
<trkpt lat="34.293636" lon="-117.475930"><ele>973.0</ele><time>2024-05-14T19:54:43Z</time></trkpt>
<trkpt lat="34.293615" lon="-117.476629"><ele>978.6</ele><time>2024-05-14T19:55:35Z</time></trkpt>
<trkpt lat="34.293727" lon="-117.477001"><ele>981.8</ele><time>2024-05-14T19:56:25Z</time></trkpt>
<trkpt lat="34.293714" lon="-117.477146"><ele>983.2</ele><time>2024-05-14T19:56:42Z</time></trkpt>
<trkpt lat="34.292967" lon="-117.477279"><ele>988.6</ele><time>2024-05-14T19:58:21Z</time></trkpt>
<trkpt lat="34.292776" lon="-117.477463"><ele>990.2</ele><time>2024-05-14T19:58:42Z</time></trkpt>
<trkpt lat="34.292681" lon="-117.477458"><ele>990.6</ele><time>2024-05-14T19:58:55Z</time></trkpt>
<trkpt lat="34.292521" lon="-117.477646"><ele>991.8</ele><time>2024-05-14T19:59:45Z</time></trkpt>
<trkpt lat="34.292466" lon="-117.477772"><ele>991.0</ele><time>2024-05-14T19:59:57Z</time></trkpt>
<trkpt lat="34.292433" lon="-117.478216"><ele>994.2</ele><time>2024-05-14T20:00:42Z</time></trkpt>
<trkpt lat="34.292500" lon="-117.478242"><ele>994.0</ele><time>2024-05-14T20:00:48Z</time></trkpt>
<trkpt lat="34.292489" lon="-117.478152"><ele>993.6</ele><time>2024-05-14T20:00:50Z</time></trkpt>
<trkpt lat="34.292529" lon="-117.478158"><ele>993.8</ele><time>2024-05-14T20:00:54Z</time></trkpt>
<trkpt lat="34.292654" lon="-117.478251"><ele>999.4</ele><time>2024-05-14T20:01:17Z</time></trkpt>
<trkpt lat="34.292651" lon="-117.478165"><ele>998.8</ele><time>2024-05-14T20:01:49Z</time></trkpt>
<trkpt lat="34.292705" lon="-117.478423"><ele>1003.0</ele><time>2024-05-14T20:02:31Z</time></trkpt>
<trkpt lat="34.292665" lon="-117.478546"><ele>1003.4</ele><time>2024-05-14T20:02:44Z</time></trkpt>
<trkpt lat="34.292488" lon="-117.478430"><ele>1004.4</ele><time>2024-05-14T20:02:56Z</time></trkpt>
<trkpt lat="34.292172" lon="-117.478491"><ele>1007.2</ele><time>2024-05-14T20:03:14Z</time></trkpt>
<trkpt lat="34.291962" lon="-117.478436"><ele>1010.6</ele><time>2024-05-14T20:03:52Z</time></trkpt>
<trkpt lat="34.291447" lon="-117.478162"><ele>1015.0</ele><time>2024-05-14T20:04:41Z</time></trkpt>
<trkpt lat="34.291475" lon="-117.478073"><ele>1015.0</ele><time>2024-05-14T20:04:49Z</time></trkpt>
<trkpt lat="34.291525" lon="-117.478093"><ele>1015.0</ele><time>2024-05-14T20:04:53Z</time></trkpt>
<trkpt lat="34.291472" lon="-117.478001"><ele>1016.2</ele><time>2024-05-14T20:05:01Z</time></trkpt>
<trkpt lat="34.291063" lon="-117.477567"><ele>1023.0</ele><time>2024-05-14T20:06:03Z</time></trkpt>
<trkpt lat="34.290722" lon="-117.477364"><ele>1023.6</ele><time>2024-05-14T20:06:41Z</time></trkpt>
<trkpt lat="34.290614" lon="-117.477398"><ele>1024.0</ele><time>2024-05-14T20:06:48Z</time></trkpt>
<trkpt lat="34.290638" lon="-117.477487"><ele>1023.8</ele><time>2024-05-14T20:06:52Z</time></trkpt>
<trkpt lat="34.290340" lon="-117.478139"><ele>1033.6</ele><time>2024-05-14T20:08:42Z</time></trkpt>
<trkpt lat="34.290383" lon="-117.478411"><ele>1036.6</ele><time>2024-05-14T20:09:01Z</time></trkpt>
<trkpt lat="34.290102" lon="-117.478529"><ele>1040.2</ele><time>2024-05-14T20:09:57Z</time></trkpt>
<trkpt lat="34.289953" lon="-117.478674"><ele>1043.8</ele><time>2024-05-14T20:10:17Z</time></trkpt>
<trkpt lat="34.289791" lon="-117.478731"><ele>1043.2</ele><time>2024-05-14T20:10:41Z</time></trkpt>
<trkpt lat="34.289779" lon="-117.478669"><ele>1042.8</ele><time>2024-05-14T20:10:46Z</time></trkpt>
<trkpt lat="34.289783" lon="-117.478815"><ele>1042.4</ele><time>2024-05-14T20:10:52Z</time></trkpt>
<trkpt lat="34.288867" lon="-117.478633"><ele>1053.0</ele><time>2024-05-14T20:12:42Z</time></trkpt>
<trkpt lat="34.288905" lon="-117.478787"><ele>1054.0</ele><time>2024-05-14T20:12:47Z</time></trkpt>
<trkpt lat="34.288768" lon="-117.478799"><ele>1053.8</ele><time>2024-05-14T20:12:59Z</time></trkpt>
<trkpt lat="34.288695" lon="-117.478923"><ele>1054.6</ele><time>2024-05-14T20:13:11Z</time></trkpt>
<trkpt lat="34.288720" lon="-117.479148"><ele>1059.8</ele><time>2024-05-14T20:14:39Z</time></trkpt>
<trkpt lat="34.288596" lon="-117.479424"><ele>1060.6</ele><time>2024-05-14T20:14:47Z</time></trkpt>
<trkpt lat="34.288466" lon="-117.479246"><ele>1061.8</ele><time>2024-05-14T20:14:50Z</time></trkpt>
<trkpt lat="34.288481" lon="-117.479139"><ele>1063.8</ele><time>2024-05-14T20:15:02Z</time></trkpt>
<trkpt lat="34.288591" lon="-117.479428"><ele>1073.4</ele><time>2024-05-14T20:16:03Z</time></trkpt>
<trkpt lat="34.288618" lon="-117.479880"><ele>1079.0</ele><time>2024-05-14T20:16:42Z</time></trkpt>
<trkpt lat="34.288860" lon="-117.480144"><ele>1079.4</ele><time>2024-05-14T20:16:48Z</time></trkpt>
<trkpt lat="34.288824" lon="-117.480058"><ele>1079.4</ele><time>2024-05-14T20:16:50Z</time></trkpt>
<trkpt lat="34.288764" lon="-117.480028"><ele>1080.2</ele><time>2024-05-14T20:16:53Z</time></trkpt>
<trkpt lat="34.288948" lon="-117.480561"><ele>1082.6</ele><time>2024-05-14T20:17:40Z</time></trkpt>
<trkpt lat="34.289196" lon="-117.480729"><ele>1084.4</ele><time>2024-05-14T20:18:01Z</time></trkpt>
<trkpt lat="34.289334" lon="-117.480987"><ele>1083.6</ele><time>2024-05-14T20:18:23Z</time></trkpt>
<trkpt lat="34.289554" lon="-117.482139"><ele>1080.4</ele><time>2024-05-14T20:19:43Z</time></trkpt>
<trkpt lat="34.289612" lon="-117.482113"><ele>1080.8</ele><time>2024-05-14T20:19:44Z</time></trkpt>
<trkpt lat="34.289579" lon="-117.482228"><ele>1081.4</ele><time>2024-05-14T20:19:47Z</time></trkpt>
<trkpt lat="34.289444" lon="-117.482058"><ele>1082.4</ele><time>2024-05-14T20:19:51Z</time></trkpt>
<trkpt lat="34.289411" lon="-117.482175"><ele>1083.4</ele><time>2024-05-14T20:19:59Z</time></trkpt>
<trkpt lat="34.289233" lon="-117.482330"><ele>1087.0</ele><time>2024-05-14T20:21:41Z</time></trkpt>
<trkpt lat="34.289394" lon="-117.482697"><ele>1086.4</ele><time>2024-05-14T20:22:02Z</time></trkpt>
<trkpt lat="34.289425" lon="-117.482461"><ele>1085.2</ele><time>2024-05-14T20:23:41Z</time></trkpt>
<trkpt lat="34.289252" lon="-117.482342"><ele>1085.0</ele><time>2024-05-14T20:23:48Z</time></trkpt>
<trkpt lat="34.289277" lon="-117.482660"><ele>1085.0</ele><time>2024-05-14T20:23:51Z</time></trkpt>
<trkpt lat="34.289390" lon="-117.482708"><ele>1084.2</ele><time>2024-05-14T20:23:58Z</time></trkpt>
<trkpt lat="34.289329" lon="-117.482712"><ele>1084.4</ele><time>2024-05-14T20:24:01Z</time></trkpt>
<trkpt lat="34.289658" lon="-117.483220"><ele>1085.8</ele><time>2024-05-14T20:25:15Z</time></trkpt>
<trkpt lat="34.289784" lon="-117.483540"><ele>1085.2</ele><time>2024-05-14T20:25:43Z</time></trkpt>
<trkpt lat="34.289686" lon="-117.483500"><ele>1084.6</ele><time>2024-05-14T20:25:49Z</time></trkpt>
<trkpt lat="34.289707" lon="-117.483636"><ele>1082.0</ele><time>2024-05-14T20:26:00Z</time></trkpt>
<trkpt lat="34.290006" lon="-117.484111"><ele>1082.8</ele><time>2024-05-14T20:26:43Z</time></trkpt>
<trkpt lat="34.290332" lon="-117.484736"><ele>1075.2</ele><time>2024-05-14T20:27:46Z</time></trkpt>
<trkpt lat="34.290454" lon="-117.484744"><ele>1074.8</ele><time>2024-05-14T20:28:02Z</time></trkpt>
<trkpt lat="34.290641" lon="-117.485062"><ele>1076.2</ele><time>2024-05-14T20:28:30Z</time></trkpt>
<trkpt lat="34.290833" lon="-117.485185"><ele>1077.4</ele><time>2024-05-14T20:28:52Z</time></trkpt>
<trkpt lat="34.290873" lon="-117.485310"><ele>1078.2</ele><time>2024-05-14T20:29:04Z</time></trkpt>
<trkpt lat="34.291257" lon="-117.485592"><ele>1081.2</ele><time>2024-05-14T20:29:41Z</time></trkpt>
<trkpt lat="34.291086" lon="-117.485669"><ele>1081.8</ele><time>2024-05-14T20:29:54Z</time></trkpt>
<trkpt lat="34.291310" lon="-117.485886"><ele>1080.4</ele><time>2024-05-14T20:30:47Z</time></trkpt>
<trkpt lat="34.291342" lon="-117.485595"><ele>1073.4</ele><time>2024-05-14T20:31:42Z</time></trkpt>
<trkpt lat="34.291291" lon="-117.485627"><ele>1073.2</ele><time>2024-05-14T20:31:43Z</time></trkpt>
<trkpt lat="34.291390" lon="-117.485757"><ele>1072.0</ele><time>2024-05-14T20:31:49Z</time></trkpt>
<trkpt lat="34.291385" lon="-117.485643"><ele>1071.0</ele><time>2024-05-14T20:31:55Z</time></trkpt>
<trkpt lat="34.291786" lon="-117.485855"><ele>1063.2</ele><time>2024-05-14T20:33:09Z</time></trkpt>
<trkpt lat="34.291755" lon="-117.486060"><ele>1060.0</ele><time>2024-05-14T20:33:33Z</time></trkpt>
<trkpt lat="34.291864" lon="-117.486427"><ele>1059.4</ele><time>2024-05-14T20:33:52Z</time></trkpt>
<trkpt lat="34.291788" lon="-117.486460"><ele>1057.6</ele><time>2024-05-14T20:33:59Z</time></trkpt>
<trkpt lat="34.291652" lon="-117.486694"><ele>1057.4</ele><time>2024-05-14T20:34:17Z</time></trkpt>
<trkpt lat="34.291999" lon="-117.487622"><ele>1048.2</ele><time>2024-05-14T20:35:50Z</time></trkpt>
<trkpt lat="34.291966" lon="-117.487660"><ele>1048.0</ele><time>2024-05-14T20:35:57Z</time></trkpt>
<trkpt lat="34.292329" lon="-117.488088"><ele>1047.0</ele><time>2024-05-14T20:36:27Z</time></trkpt>
<trkpt lat="34.292716" lon="-117.488310"><ele>1046.0</ele><time>2024-05-14T20:37:21Z</time></trkpt>
<trkpt lat="34.292928" lon="-117.488542"><ele>1043.6</ele><time>2024-05-14T20:37:42Z</time></trkpt>
<trkpt lat="34.293020" lon="-117.488543"><ele>1045.0</ele><time>2024-05-14T20:37:48Z</time></trkpt>
<trkpt lat="34.293128" lon="-117.489134"><ele>1053.0</ele><time>2024-05-14T20:38:59Z</time></trkpt>
<trkpt lat="34.293099" lon="-117.489539"><ele>1061.8</ele><time>2024-05-14T20:39:43Z</time></trkpt>
<trkpt lat="34.293225" lon="-117.489449"><ele>1062.0</ele><time>2024-05-14T20:39:58Z</time></trkpt>
<trkpt lat="34.294250" lon="-117.489659"><ele>1066.2</ele><time>2024-05-14T20:41:42Z</time></trkpt>
<trkpt lat="34.294418" lon="-117.489864"><ele>1066.4</ele><time>2024-05-14T20:41:45Z</time></trkpt>
<trkpt lat="34.294483" lon="-117.489847"><ele>1066.8</ele><time>2024-05-14T20:41:57Z</time></trkpt>
<trkpt lat="34.294860" lon="-117.490171"><ele>1067.4</ele><time>2024-05-14T20:42:47Z</time></trkpt>
<trkpt lat="34.295295" lon="-117.490130"><ele>1058.4</ele><time>2024-05-14T20:43:43Z</time></trkpt>
<trkpt lat="34.295273" lon="-117.490259"><ele>1058.4</ele><time>2024-05-14T20:43:49Z</time></trkpt>
<trkpt lat="34.295206" lon="-117.490292"><ele>1058.4</ele><time>2024-05-14T20:43:56Z</time></trkpt>
<trkpt lat="34.295538" lon="-117.490447"><ele>1057.8</ele><time>2024-05-14T20:44:37Z</time></trkpt>
<trkpt lat="34.295788" lon="-117.491116"><ele>1057.6</ele><time>2024-05-14T20:45:43Z</time></trkpt>
<trkpt lat="34.295606" lon="-117.491282"><ele>1059.0</ele><time>2024-05-14T20:45:56Z</time></trkpt>
<trkpt lat="34.295687" lon="-117.491905"><ele>1062.8</ele><time>2024-05-14T20:46:51Z</time></trkpt>
<trkpt lat="34.295786" lon="-117.492103"><ele>1063.8</ele><time>2024-05-14T20:47:15Z</time></trkpt>
<trkpt lat="34.296061" lon="-117.492280"><ele>1064.0</ele><time>2024-05-14T20:47:45Z</time></trkpt>
<trkpt lat="34.296155" lon="-117.492514"><ele>1065.8</ele><time>2024-05-14T20:48:03Z</time></trkpt>
<trkpt lat="34.295747" lon="-117.493394"><ele>1070.6</ele><time>2024-05-14T20:49:42Z</time></trkpt>
<trkpt lat="34.295837" lon="-117.493811"><ele>1072.0</ele><time>2024-05-14T20:50:07Z</time></trkpt>
<trkpt lat="34.296089" lon="-117.494491"><ele>1077.2</ele><time>2024-05-14T20:51:41Z</time></trkpt>
<trkpt lat="34.296089" lon="-117.494604"><ele>1077.2</ele><time>2024-05-14T20:51:43Z</time></trkpt>
<trkpt lat="34.295986" lon="-117.494703"><ele>1078.4</ele><time>2024-05-14T20:51:56Z</time></trkpt>
<trkpt lat="34.296382" lon="-117.494888"><ele>1080.6</ele><time>2024-05-14T20:52:39Z</time></trkpt>
<trkpt lat="34.296914" lon="-117.495365"><ele>1081.0</ele><time>2024-05-14T20:53:41Z</time></trkpt>
<trkpt lat="34.296791" lon="-117.495520"><ele>1083.0</ele><time>2024-05-14T20:53:59Z</time></trkpt>
<trkpt lat="34.296995" lon="-117.496043"><ele>1086.2</ele><time>2024-05-14T20:55:07Z</time></trkpt>
<trkpt lat="34.297046" lon="-117.496393"><ele>1087.0</ele><time>2024-05-14T20:55:37Z</time></trkpt>
<trkpt lat="34.296887" lon="-117.497100"><ele>1092.6</ele><time>2024-05-14T20:56:59Z</time></trkpt>
<trkpt lat="34.296877" lon="-117.497629"><ele>1091.6</ele><time>2024-05-14T20:57:35Z</time></trkpt>
<trkpt lat="34.296736" lon="-117.497958"><ele>1091.2</ele><time>2024-05-14T20:57:44Z</time></trkpt>
<trkpt lat="34.296774" lon="-117.498018"><ele>1092.2</ele><time>2024-05-14T20:57:48Z</time></trkpt>
<trkpt lat="34.296847" lon="-117.497985"><ele>1092.2</ele><time>2024-05-14T20:57:58Z</time></trkpt>
<trkpt lat="34.296930" lon="-117.498366"><ele>1092.6</ele><time>2024-05-14T20:58:19Z</time></trkpt>
<trkpt lat="34.296860" lon="-117.498410"><ele>1091.4</ele><time>2024-05-14T20:58:39Z</time></trkpt>
<trkpt lat="34.296689" lon="-117.498913"><ele>1089.0</ele><time>2024-05-14T20:59:19Z</time></trkpt>
<trkpt lat="34.296533" lon="-117.499534"><ele>1088.6</ele><time>2024-05-14T21:00:02Z</time></trkpt>
<trkpt lat="34.296538" lon="-117.499813"><ele>1087.4</ele><time>2024-05-14T21:00:17Z</time></trkpt>
<trkpt lat="34.297062" lon="-117.500672"><ele>1090.0</ele><time>2024-05-14T21:01:42Z</time></trkpt>
<trkpt lat="34.297175" lon="-117.500722"><ele>1090.8</ele><time>2024-05-14T21:01:57Z</time></trkpt>
<trkpt lat="34.297582" lon="-117.501305"><ele>1093.2</ele><time>2024-05-14T21:03:23Z</time></trkpt>
<trkpt lat="34.297713" lon="-117.501587"><ele>1095.4</ele><time>2024-05-14T21:03:42Z</time></trkpt>
<trkpt lat="34.297704" lon="-117.502479"><ele>1096.6</ele><time>2024-05-14T21:04:41Z</time></trkpt>
<trkpt lat="34.297570" lon="-117.503214"><ele>1100.8</ele><time>2024-05-14T21:05:41Z</time></trkpt>
<trkpt lat="34.297700" lon="-117.503320"><ele>1101.0</ele><time>2024-05-14T21:05:49Z</time></trkpt>
<trkpt lat="34.297720" lon="-117.503477"><ele>1101.0</ele><time>2024-05-14T21:06:00Z</time></trkpt>
<trkpt lat="34.297911" lon="-117.503745"><ele>1100.6</ele><time>2024-05-14T21:06:29Z</time></trkpt>
<trkpt lat="34.298049" lon="-117.503827"><ele>1098.8</ele><time>2024-05-14T21:06:47Z</time></trkpt>
<trkpt lat="34.298238" lon="-117.504611"><ele>1094.8</ele><time>2024-05-14T21:07:42Z</time></trkpt>
<trkpt lat="34.298488" lon="-117.505041"><ele>1092.6</ele><time>2024-05-14T21:08:13Z</time></trkpt>
<trkpt lat="34.298580" lon="-117.505027"><ele>1091.6</ele><time>2024-05-14T21:08:25Z</time></trkpt>
<trkpt lat="34.298679" lon="-117.505119"><ele>1090.6</ele><time>2024-05-14T21:08:39Z</time></trkpt>
<trkpt lat="34.298707" lon="-117.505656"><ele>1087.8</ele><time>2024-05-14T21:09:29Z</time></trkpt>
<trkpt lat="34.298855" lon="-117.505951"><ele>1086.6</ele><time>2024-05-14T21:09:42Z</time></trkpt>
<trkpt lat="34.298960" lon="-117.506022"><ele>1086.0</ele><time>2024-05-14T21:09:49Z</time></trkpt>
<trkpt lat="34.298921" lon="-117.506131"><ele>1086.2</ele><time>2024-05-14T21:09:56Z</time></trkpt>
<trkpt lat="34.298568" lon="-117.506317"><ele>1088.2</ele><time>2024-05-14T21:10:55Z</time></trkpt>
<trkpt lat="34.298101" lon="-117.506700"><ele>1087.6</ele><time>2024-05-14T21:11:47Z</time></trkpt>
<trkpt lat="34.297576" lon="-117.506573"><ele>1090.6</ele><time>2024-05-14T21:12:23Z</time></trkpt>
<trkpt lat="34.297131" lon="-117.506747"><ele>1088.4</ele><time>2024-05-14T21:13:11Z</time></trkpt>
<trkpt lat="34.296925" lon="-117.507031"><ele>1088.4</ele><time>2024-05-14T21:14:57Z</time></trkpt>
<trkpt lat="34.296984" lon="-117.507069"><ele>1088.0</ele><time>2024-05-14T21:15:48Z</time></trkpt>
<trkpt lat="34.296953" lon="-117.507009"><ele>1088.0</ele><time>2024-05-14T21:15:51Z</time></trkpt>
<trkpt lat="34.296890" lon="-117.507077"><ele>1089.0</ele><time>2024-05-14T21:16:35Z</time></trkpt>
<trkpt lat="34.296944" lon="-117.507037"><ele>1086.8</ele><time>2024-05-14T21:19:43Z</time></trkpt>
<trkpt lat="34.296929" lon="-117.507152"><ele>1086.2</ele><time>2024-05-14T21:21:09Z</time></trkpt>
<trkpt lat="34.296942" lon="-117.507069"><ele>1087.4</ele><time>2024-05-14T21:21:49Z</time></trkpt>
<trkpt lat="34.296899" lon="-117.507072"><ele>1087.8</ele><time>2024-05-14T21:23:21Z</time></trkpt>
<trkpt lat="34.296957" lon="-117.507026"><ele>1087.2</ele><time>2024-05-14T21:25:44Z</time></trkpt>
<trkpt lat="34.296576" lon="-117.506878"><ele>1090.8</ele><time>2024-05-14T21:27:29Z</time></trkpt>
<trkpt lat="34.296416" lon="-117.506888"><ele>1091.4</ele><time>2024-05-14T21:27:42Z</time></trkpt>
<trkpt lat="34.296359" lon="-117.507042"><ele>1092.0</ele><time>2024-05-14T21:27:55Z</time></trkpt>
<trkpt lat="34.296457" lon="-117.507507"><ele>1092.8</ele><time>2024-05-14T21:28:21Z</time></trkpt>
<trkpt lat="34.296450" lon="-117.507867"><ele>1094.4</ele><time>2024-05-14T21:28:39Z</time></trkpt>
<trkpt lat="34.296355" lon="-117.508292"><ele>1097.6</ele><time>2024-05-14T21:29:33Z</time></trkpt>
<trkpt lat="34.296350" lon="-117.508813"><ele>1098.6</ele><time>2024-05-14T21:30:02Z</time></trkpt>
<trkpt lat="34.295708" lon="-117.510292"><ele>1105.4</ele><time>2024-05-14T21:31:58Z</time></trkpt>
<trkpt lat="34.295452" lon="-117.510261"><ele>1107.2</ele><time>2024-05-14T21:32:19Z</time></trkpt>
<trkpt lat="34.294796" lon="-117.510019"><ele>1113.0</ele><time>2024-05-14T21:33:42Z</time></trkpt>
<trkpt lat="34.294702" lon="-117.510255"><ele>1115.0</ele><time>2024-05-14T21:34:00Z</time></trkpt>
<trkpt lat="34.294565" lon="-117.510295"><ele>1116.0</ele><time>2024-05-14T21:34:17Z</time></trkpt>
<trkpt lat="34.293896" lon="-117.510139"><ele>1117.2</ele><time>2024-05-14T21:35:46Z</time></trkpt>
<trkpt lat="34.293715" lon="-117.510210"><ele>1117.6</ele><time>2024-05-14T21:36:02Z</time></trkpt>
<trkpt lat="34.293560" lon="-117.509666"><ele>1118.4</ele><time>2024-05-14T21:36:31Z</time></trkpt>
<trkpt lat="34.293679" lon="-117.508807"><ele>1122.2</ele><time>2024-05-14T21:37:53Z</time></trkpt>
<trkpt lat="34.293364" lon="-117.508287"><ele>1124.4</ele><time>2024-05-14T21:38:35Z</time></trkpt>
<trkpt lat="34.292908" lon="-117.507553"><ele>1129.2</ele><time>2024-05-14T21:39:47Z</time></trkpt>
<trkpt lat="34.292601" lon="-117.507577"><ele>1131.4</ele><time>2024-05-14T21:40:17Z</time></trkpt>
<trkpt lat="34.292357" lon="-117.507750"><ele>1134.8</ele><time>2024-05-14T21:40:37Z</time></trkpt>
<trkpt lat="34.292095" lon="-117.507303"><ele>1137.6</ele><time>2024-05-14T21:41:49Z</time></trkpt>
<trkpt lat="34.292072" lon="-117.507108"><ele>1138.8</ele><time>2024-05-14T21:42:02Z</time></trkpt>
<trkpt lat="34.291748" lon="-117.506719"><ele>1142.0</ele><time>2024-05-14T21:42:53Z</time></trkpt>
<trkpt lat="34.291458" lon="-117.506553"><ele>1143.8</ele><time>2024-05-14T21:43:42Z</time></trkpt>
<trkpt lat="34.291318" lon="-117.506748"><ele>1144.6</ele><time>2024-05-14T21:43:58Z</time></trkpt>
<trkpt lat="34.291152" lon="-117.507278"><ele>1146.6</ele><time>2024-05-14T21:44:29Z</time></trkpt>
<trkpt lat="34.291185" lon="-117.507853"><ele>1149.4</ele><time>2024-05-14T21:45:31Z</time></trkpt>
<trkpt lat="34.291030" lon="-117.508170"><ele>1150.0</ele><time>2024-05-14T21:45:53Z</time></trkpt>
<trkpt lat="34.290745" lon="-117.508264"><ele>1152.0</ele><time>2024-05-14T21:46:33Z</time></trkpt>
<trkpt lat="34.290435" lon="-117.508273"><ele>1154.0</ele><time>2024-05-14T21:46:55Z</time></trkpt>
<trkpt lat="34.290199" lon="-117.508531"><ele>1158.6</ele><time>2024-05-14T21:47:44Z</time></trkpt>
<trkpt lat="34.290176" lon="-117.508746"><ele>1161.2</ele><time>2024-05-14T21:48:01Z</time></trkpt>
<trkpt lat="34.290010" lon="-117.508816"><ele>1162.0</ele><time>2024-05-14T21:48:17Z</time></trkpt>
<trkpt lat="34.289398" lon="-117.508848"><ele>1168.2</ele><time>2024-05-14T21:49:43Z</time></trkpt>
<trkpt lat="34.289485" lon="-117.508736"><ele>1168.8</ele><time>2024-05-14T21:49:52Z</time></trkpt>
<trkpt lat="34.289458" lon="-117.508691"><ele>1169.0</ele><time>2024-05-14T21:49:57Z</time></trkpt>
<trkpt lat="34.289319" lon="-117.508732"><ele>1169.8</ele><time>2024-05-14T21:50:07Z</time></trkpt>
<trkpt lat="34.289209" lon="-117.508885"><ele>1172.0</ele><time>2024-05-14T21:50:25Z</time></trkpt>
<trkpt lat="34.289051" lon="-117.509345"><ele>1178.6</ele><time>2024-05-14T21:51:19Z</time></trkpt>
<trkpt lat="34.288990" lon="-117.509713"><ele>1180.2</ele><time>2024-05-14T21:51:42Z</time></trkpt>
<trkpt lat="34.288997" lon="-117.510292"><ele>1184.2</ele><time>2024-05-14T21:52:19Z</time></trkpt>
<trkpt lat="34.288939" lon="-117.510489"><ele>1184.4</ele><time>2024-05-14T21:52:39Z</time></trkpt>
<trkpt lat="34.288768" lon="-117.510435"><ele>1184.6</ele><time>2024-05-14T21:52:59Z</time></trkpt>
<trkpt lat="34.288315" lon="-117.510758"><ele>1191.8</ele><time>2024-05-14T21:54:03Z</time></trkpt>
<trkpt lat="34.288139" lon="-117.510723"><ele>1198.4</ele><time>2024-05-14T21:55:21Z</time></trkpt>
<trkpt lat="34.287995" lon="-117.510474"><ele>1201.0</ele><time>2024-05-14T21:55:58Z</time></trkpt>
<trkpt lat="34.287854" lon="-117.510499"><ele>1201.6</ele><time>2024-05-14T21:56:11Z</time></trkpt>
<trkpt lat="34.287154" lon="-117.511050"><ele>1211.4</ele><time>2024-05-14T21:57:49Z</time></trkpt>
<trkpt lat="34.286772" lon="-117.511061"><ele>1215.6</ele><time>2024-05-14T21:58:19Z</time></trkpt>
<trkpt lat="34.286595" lon="-117.511150"><ele>1219.6</ele><time>2024-05-14T21:59:44Z</time></trkpt>
<trkpt lat="34.286683" lon="-117.511108"><ele>1219.6</ele><time>2024-05-14T21:59:46Z</time></trkpt>
<trkpt lat="34.286644" lon="-117.511065"><ele>1219.8</ele><time>2024-05-14T21:59:58Z</time></trkpt>
<trkpt lat="34.286368" lon="-117.511209"><ele>1219.6</ele><time>2024-05-14T22:01:44Z</time></trkpt>
<trkpt lat="34.286408" lon="-117.511115"><ele>1219.8</ele><time>2024-05-14T22:01:45Z</time></trkpt>
<trkpt lat="34.286553" lon="-117.511192"><ele>1221.0</ele><time>2024-05-14T22:01:50Z</time></trkpt>
<trkpt lat="34.285816" lon="-117.511541"><ele>1224.6</ele><time>2024-05-14T22:02:39Z</time></trkpt>
<trkpt lat="34.285239" lon="-117.512168"><ele>1233.2</ele><time>2024-05-14T22:03:43Z</time></trkpt>
<trkpt lat="34.285866" lon="-117.512356"><ele>1235.4</ele><time>2024-05-14T22:03:58Z</time></trkpt>
<trkpt lat="34.285703" lon="-117.512809"><ele>1240.8</ele><time>2024-05-14T22:04:45Z</time></trkpt>
<trkpt lat="34.285486" lon="-117.512768"><ele>1243.0</ele><time>2024-05-14T22:05:05Z</time></trkpt>
<trkpt lat="34.285179" lon="-117.513259"><ele>1248.0</ele><time>2024-05-14T22:05:43Z</time></trkpt>
<trkpt lat="34.284989" lon="-117.513337"><ele>1248.2</ele><time>2024-05-14T22:05:48Z</time></trkpt>
<trkpt lat="34.285589" lon="-117.513377"><ele>1248.4</ele><time>2024-05-14T22:05:50Z</time></trkpt>
<trkpt lat="34.285152" lon="-117.514622"><ele>1253.4</ele><time>2024-05-14T22:07:31Z</time></trkpt>
<trkpt lat="34.284917" lon="-117.514854"><ele>1252.6</ele><time>2024-05-14T22:07:46Z</time></trkpt>
<trkpt lat="34.285302" lon="-117.514796"><ele>1253.0</ele><time>2024-05-14T22:07:55Z</time></trkpt>
<trkpt lat="34.285148" lon="-117.514751"><ele>1254.8</ele><time>2024-05-14T22:08:06Z</time></trkpt>
<trkpt lat="34.284992" lon="-117.514346"><ele>1257.8</ele><time>2024-05-14T22:08:44Z</time></trkpt>
<trkpt lat="34.284807" lon="-117.514077"><ele>1259.8</ele><time>2024-05-14T22:09:13Z</time></trkpt>
<trkpt lat="34.284592" lon="-117.514522"><ele>1268.8</ele><time>2024-05-14T22:10:43Z</time></trkpt>
<trkpt lat="34.284884" lon="-117.514373"><ele>1269.4</ele><time>2024-05-14T22:10:48Z</time></trkpt>
<trkpt lat="34.284788" lon="-117.514501"><ele>1269.4</ele><time>2024-05-14T22:10:54Z</time></trkpt>
<trkpt lat="34.285421" lon="-117.515599"><ele>1282.0</ele><time>2024-05-14T22:12:43Z</time></trkpt>
<trkpt lat="34.285388" lon="-117.515631"><ele>1282.2</ele><time>2024-05-14T22:12:44Z</time></trkpt>
<trkpt lat="34.285435" lon="-117.515616"><ele>1282.6</ele><time>2024-05-14T22:12:47Z</time></trkpt>
<trkpt lat="34.285302" lon="-117.515692"><ele>1284.2</ele><time>2024-05-14T22:12:57Z</time></trkpt>
<trkpt lat="34.285364" lon="-117.516446"><ele>1294.0</ele><time>2024-05-14T22:14:35Z</time></trkpt>
<trkpt lat="34.285331" lon="-117.516592"><ele>1295.2</ele><time>2024-05-14T22:14:48Z</time></trkpt>
<trkpt lat="34.285245" lon="-117.516574"><ele>1295.6</ele><time>2024-05-14T22:15:02Z</time></trkpt>
<trkpt lat="34.285300" lon="-117.516576"><ele>1295.4</ele><time>2024-05-14T22:16:50Z</time></trkpt>
<trkpt lat="34.285198" lon="-117.517116"><ele>1302.6</ele><time>2024-05-14T22:18:21Z</time></trkpt>
<trkpt lat="34.285213" lon="-117.517510"><ele>1303.2</ele><time>2024-05-14T22:18:43Z</time></trkpt>
<trkpt lat="34.285687" lon="-117.517086"><ele>1308.4</ele><time>2024-05-14T22:19:32Z</time></trkpt>
<trkpt lat="34.285877" lon="-117.516675"><ele>1314.2</ele><time>2024-05-14T22:20:24Z</time></trkpt>
<trkpt lat="34.286036" lon="-117.516497"><ele>1316.8</ele><time>2024-05-14T22:20:44Z</time></trkpt>
<trkpt lat="34.286058" lon="-117.516124"><ele>1319.0</ele><time>2024-05-14T22:21:03Z</time></trkpt>
<trkpt lat="34.286257" lon="-117.515673"><ele>1328.6</ele><time>2024-05-14T22:22:17Z</time></trkpt>
<trkpt lat="34.286388" lon="-117.515199"><ele>1328.0</ele><time>2024-05-14T22:22:43Z</time></trkpt>
<trkpt lat="34.286340" lon="-117.514909"><ele>1328.8</ele><time>2024-05-14T22:23:03Z</time></trkpt>
<trkpt lat="34.286479" lon="-117.513864"><ele>1333.8</ele><time>2024-05-14T22:24:51Z</time></trkpt>
<trkpt lat="34.286745" lon="-117.513695"><ele>1335.0</ele><time>2024-05-14T22:25:23Z</time></trkpt>
<trkpt lat="34.287103" lon="-117.513272"><ele>1338.8</ele><time>2024-05-14T22:26:17Z</time></trkpt>
<trkpt lat="34.287395" lon="-117.513139"><ele>1339.2</ele><time>2024-05-14T22:26:43Z</time></trkpt>
<trkpt lat="34.287404" lon="-117.513193"><ele>1339.2</ele><time>2024-05-14T22:26:45Z</time></trkpt>
<trkpt lat="34.288225" lon="-117.513506"><ele>1347.2</ele><time>2024-05-14T22:28:21Z</time></trkpt>
<trkpt lat="34.288628" lon="-117.513391"><ele>1347.8</ele><time>2024-05-14T22:28:57Z</time></trkpt>
<trkpt lat="34.288728" lon="-117.513435"><ele>1347.6</ele><time>2024-05-14T22:29:11Z</time></trkpt>
<trkpt lat="34.288747" lon="-117.513822"><ele>1351.4</ele><time>2024-05-14T22:30:31Z</time></trkpt>
<trkpt lat="34.288907" lon="-117.514282"><ele>1352.6</ele><time>2024-05-14T22:30:59Z</time></trkpt>
<trkpt lat="34.288883" lon="-117.514503"><ele>1353.6</ele><time>2024-05-14T22:31:07Z</time></trkpt>
<trkpt lat="34.288566" lon="-117.515781"><ele>1358.8</ele><time>2024-05-14T22:32:51Z</time></trkpt>
<trkpt lat="34.288398" lon="-117.515964"><ele>1359.8</ele><time>2024-05-14T22:33:05Z</time></trkpt>
<trkpt lat="34.288084" lon="-117.516748"><ele>1364.2</ele><time>2024-05-14T22:34:43Z</time></trkpt>
<trkpt lat="34.288738" lon="-117.516380"><ele>1364.2</ele><time>2024-05-14T22:35:53Z</time></trkpt>
<trkpt lat="34.289259" lon="-117.516181"><ele>1368.4</ele><time>2024-05-14T22:36:43Z</time></trkpt>
<trkpt lat="34.290264" lon="-117.517078"><ele>1378.0</ele><time>2024-05-14T22:38:42Z</time></trkpt>
<trkpt lat="34.290151" lon="-117.517087"><ele>1378.2</ele><time>2024-05-14T22:38:52Z</time></trkpt>
<trkpt lat="34.290193" lon="-117.517120"><ele>1378.2</ele><time>2024-05-14T22:39:00Z</time></trkpt>
<trkpt lat="34.290143" lon="-117.517275"><ele>1378.4</ele><time>2024-05-14T22:39:15Z</time></trkpt>
<trkpt lat="34.290100" lon="-117.518133"><ele>1386.4</ele><time>2024-05-14T22:40:42Z</time></trkpt>
<trkpt lat="34.290138" lon="-117.518196"><ele>1386.6</ele><time>2024-05-14T22:40:45Z</time></trkpt>
<trkpt lat="34.290025" lon="-117.518868"><ele>1392.4</ele><time>2024-05-14T22:41:55Z</time></trkpt>
<trkpt lat="34.290017" lon="-117.519518"><ele>1395.6</ele><time>2024-05-14T22:42:43Z</time></trkpt>
<trkpt lat="34.290071" lon="-117.519679"><ele>1396.0</ele><time>2024-05-14T22:42:53Z</time></trkpt>
<trkpt lat="34.290033" lon="-117.519800"><ele>1396.4</ele><time>2024-05-14T22:43:00Z</time></trkpt>
<trkpt lat="34.290089" lon="-117.520266"><ele>1398.8</ele><time>2024-05-14T22:44:42Z</time></trkpt>
<trkpt lat="34.290060" lon="-117.520210"><ele>1398.6</ele><time>2024-05-14T22:44:45Z</time></trkpt>
<trkpt lat="34.289881" lon="-117.520233"><ele>1398.6</ele><time>2024-05-14T22:44:49Z</time></trkpt>
<trkpt lat="34.289962" lon="-117.520209"><ele>1398.4</ele><time>2024-05-14T22:44:58Z</time></trkpt>
<trkpt lat="34.289498" lon="-117.521546"><ele>1408.4</ele><time>2024-05-14T22:48:35Z</time></trkpt>
<trkpt lat="34.289382" lon="-117.521995"><ele>1410.6</ele><time>2024-05-14T22:49:00Z</time></trkpt>
<trkpt lat="34.289476" lon="-117.522397"><ele>1414.4</ele><time>2024-05-14T22:49:51Z</time></trkpt>
<trkpt lat="34.289584" lon="-117.522317"><ele>1415.2</ele><time>2024-05-14T22:50:09Z</time></trkpt>
<trkpt lat="34.289655" lon="-117.522023"><ele>1417.2</ele><time>2024-05-14T22:50:31Z</time></trkpt>
<trkpt lat="34.289758" lon="-117.521950"><ele>1417.6</ele><time>2024-05-14T22:50:42Z</time></trkpt>
<trkpt lat="34.289963" lon="-117.522110"><ele>1416.6</ele><time>2024-05-14T22:51:01Z</time></trkpt>
<trkpt lat="34.290173" lon="-117.522041"><ele>1416.4</ele><time>2024-05-14T22:51:09Z</time></trkpt>
<trkpt lat="34.290619" lon="-117.521693"><ele>1419.2</ele><time>2024-05-14T22:51:57Z</time></trkpt>
<trkpt lat="34.290903" lon="-117.521743"><ele>1422.6</ele><time>2024-05-14T22:52:47Z</time></trkpt>
<trkpt lat="34.290975" lon="-117.521634"><ele>1423.0</ele><time>2024-05-14T22:52:51Z</time></trkpt>
<trkpt lat="34.292411" lon="-117.522016"><ele>1431.4</ele><time>2024-05-14T22:54:43Z</time></trkpt>
<trkpt lat="34.292079" lon="-117.521611"><ele>1431.8</ele><time>2024-05-14T22:54:45Z</time></trkpt>
<trkpt lat="34.292142" lon="-117.521549"><ele>1432.0</ele><time>2024-05-14T22:54:49Z</time></trkpt>
<trkpt lat="34.292226" lon="-117.521638"><ele>1432.4</ele><time>2024-05-14T22:55:00Z</time></trkpt>
<trkpt lat="34.292016" lon="-117.521806"><ele>1434.0</ele><time>2024-05-14T22:55:19Z</time></trkpt>
<trkpt lat="34.291757" lon="-117.521891"><ele>1436.2</ele><time>2024-05-14T22:55:43Z</time></trkpt>
<trkpt lat="34.291733" lon="-117.521696"><ele>1441.0</ele><time>2024-05-14T22:56:31Z</time></trkpt>
<trkpt lat="34.291652" lon="-117.521677"><ele>1442.8</ele><time>2024-05-14T22:56:46Z</time></trkpt>
<trkpt lat="34.291669" lon="-117.521843"><ele>1443.2</ele><time>2024-05-14T22:57:01Z</time></trkpt>
<trkpt lat="34.291716" lon="-117.521840"><ele>1443.2</ele><time>2024-05-14T22:57:08Z</time></trkpt>
<trkpt lat="34.291527" lon="-117.521936"><ele>1445.2</ele><time>2024-05-14T22:57:30Z</time></trkpt>
<trkpt lat="34.291384" lon="-117.521922"><ele>1446.8</ele><time>2024-05-14T22:57:40Z</time></trkpt>
<trkpt lat="34.291323" lon="-117.522078"><ele>1448.6</ele><time>2024-05-14T22:57:51Z</time></trkpt>
<trkpt lat="34.291302" lon="-117.522039"><ele>1449.4</ele><time>2024-05-14T22:57:57Z</time></trkpt>
<trkpt lat="34.290469" lon="-117.522798"><ele>1462.0</ele><time>2024-05-14T22:59:54Z</time></trkpt>
<trkpt lat="34.289684" lon="-117.523746"><ele>1471.6</ele><time>2024-05-14T23:01:43Z</time></trkpt>
<trkpt lat="34.289724" lon="-117.523825"><ele>1472.2</ele><time>2024-05-14T23:01:47Z</time></trkpt>
<trkpt lat="34.289581" lon="-117.523953"><ele>1473.2</ele><time>2024-05-14T23:01:59Z</time></trkpt>
<trkpt lat="34.289446" lon="-117.524500"><ele>1474.8</ele><time>2024-05-14T23:02:41Z</time></trkpt>
<trkpt lat="34.289222" lon="-117.524778"><ele>1478.4</ele><time>2024-05-14T23:03:33Z</time></trkpt>
<trkpt lat="34.289150" lon="-117.525000"><ele>1479.6</ele><time>2024-05-14T23:03:43Z</time></trkpt>
<trkpt lat="34.289061" lon="-117.525021"><ele>1480.6</ele><time>2024-05-14T23:03:49Z</time></trkpt>
<trkpt lat="34.288964" lon="-117.524910"><ele>1481.0</ele><time>2024-05-14T23:03:53Z</time></trkpt>
<trkpt lat="34.288895" lon="-117.524977"><ele>1481.6</ele><time>2024-05-14T23:04:01Z</time></trkpt>
<trkpt lat="34.288828" lon="-117.524894"><ele>1480.2</ele><time>2024-05-14T23:05:47Z</time></trkpt>
<trkpt lat="34.288957" lon="-117.525281"><ele>1481.8</ele><time>2024-05-14T23:07:45Z</time></trkpt>
<trkpt lat="34.289042" lon="-117.525328"><ele>1482.0</ele><time>2024-05-14T23:07:48Z</time></trkpt>
<trkpt lat="34.288886" lon="-117.524988"><ele>1482.0</ele><time>2024-05-14T23:07:55Z</time></trkpt>
<trkpt lat="34.288971" lon="-117.525177"><ele>1483.2</ele><time>2024-05-14T23:09:41Z</time></trkpt>
<trkpt lat="34.288484" lon="-117.524452"><ele>1485.4</ele><time>2024-05-14T23:10:57Z</time></trkpt>
<trkpt lat="34.288333" lon="-117.524122"><ele>1490.0</ele><time>2024-05-14T23:11:44Z</time></trkpt>
<trkpt lat="34.288200" lon="-117.524028"><ele>1491.2</ele><time>2024-05-14T23:12:00Z</time></trkpt>
<trkpt lat="34.288131" lon="-117.524064"><ele>1496.4</ele><time>2024-05-14T23:12:53Z</time></trkpt>
<trkpt lat="34.288445" lon="-117.524990"><ele>1505.0</ele><time>2024-05-14T23:14:39Z</time></trkpt>
<trkpt lat="34.288868" lon="-117.525800"><ele>1511.8</ele><time>2024-05-14T23:15:44Z</time></trkpt>
<trkpt lat="34.288802" lon="-117.525531"><ele>1513.2</ele><time>2024-05-14T23:15:51Z</time></trkpt>
<trkpt lat="34.289735" lon="-117.525623"><ele>1521.4</ele><time>2024-05-14T23:17:45Z</time></trkpt>
<trkpt lat="34.289817" lon="-117.525440"><ele>1522.2</ele><time>2024-05-14T23:17:57Z</time></trkpt>
<trkpt lat="34.290345" lon="-117.525286"><ele>1528.8</ele><time>2024-05-14T23:19:43Z</time></trkpt>
<trkpt lat="34.290402" lon="-117.525339"><ele>1528.6</ele><time>2024-05-14T23:19:50Z</time></trkpt>
<trkpt lat="34.290396" lon="-117.525747"><ele>1530.0</ele><time>2024-05-14T23:20:09Z</time></trkpt>
<trkpt lat="34.290618" lon="-117.526855"><ele>1539.6</ele><time>2024-05-14T23:21:54Z</time></trkpt>
<trkpt lat="34.291223" lon="-117.527749"><ele>1546.2</ele><time>2024-05-14T23:23:42Z</time></trkpt>
<trkpt lat="34.291272" lon="-117.527949"><ele>1547.6</ele><time>2024-05-14T23:23:57Z</time></trkpt>
<trkpt lat="34.291894" lon="-117.529051"><ele>1561.4</ele><time>2024-05-14T23:25:44Z</time></trkpt>
<trkpt lat="34.291870" lon="-117.528955"><ele>1561.4</ele><time>2024-05-14T23:25:45Z</time></trkpt>
<trkpt lat="34.291984" lon="-117.529069"><ele>1563.4</ele><time>2024-05-14T23:26:01Z</time></trkpt>
<trkpt lat="34.292486" lon="-117.528685"><ele>1568.0</ele><time>2024-05-14T23:27:45Z</time></trkpt>
<trkpt lat="34.292786" lon="-117.529020"><ele>1568.8</ele><time>2024-05-14T23:27:50Z</time></trkpt>
<trkpt lat="34.292825" lon="-117.529245"><ele>1569.0</ele><time>2024-05-14T23:27:52Z</time></trkpt>
<trkpt lat="34.292915" lon="-117.529209"><ele>1570.4</ele><time>2024-05-14T23:28:02Z</time></trkpt>
<trkpt lat="34.292576" lon="-117.529362"><ele>1580.0</ele><time>2024-05-14T23:29:11Z</time></trkpt>
<trkpt lat="34.292058" lon="-117.529635"><ele>1584.6</ele><time>2024-05-14T23:29:59Z</time></trkpt>
<trkpt lat="34.291668" lon="-117.529619"><ele>1585.8</ele><time>2024-05-14T23:30:41Z</time></trkpt>
<trkpt lat="34.291314" lon="-117.529738"><ele>1586.0</ele><time>2024-05-14T23:31:13Z</time></trkpt>
<trkpt lat="34.291166" lon="-117.529653"><ele>1588.0</ele><time>2024-05-14T23:31:27Z</time></trkpt>
<trkpt lat="34.291140" lon="-117.529511"><ele>1587.6</ele><time>2024-05-14T23:31:49Z</time></trkpt>
<trkpt lat="34.291181" lon="-117.529504"><ele>1587.2</ele><time>2024-05-14T23:31:58Z</time></trkpt>
<trkpt lat="34.291123" lon="-117.529514"><ele>1588.6</ele><time>2024-05-14T23:32:41Z</time></trkpt>
<trkpt lat="34.291178" lon="-117.529437"><ele>1588.0</ele><time>2024-05-14T23:33:42Z</time></trkpt>
<trkpt lat="34.291098" lon="-117.529444"><ele>1586.8</ele><time>2024-05-14T23:35:57Z</time></trkpt>
</trkseg></trk>
</gpx>
