<?xml version="1.0" encoding="UTF-8"?>
<gpx version="1.1" creator="Eric Sichak trip reports" xmlns="http://www.topografix.com/GPX/1/1">
<metadata><name>PCT Day 24- Wrightwood</name><time>2024-05-15T15:00:52Z</time></metadata>
<trk><name>PCT Day 24- Wrightwood</name><type>hike</type><trkseg>
<trkpt lat="34.291146" lon="-117.529453"><ele>1576.8</ele><time>2024-05-15T15:00:52Z</time></trkpt>
<trkpt lat="34.291087" lon="-117.529401"><ele>1575.8</ele><time>2024-05-15T15:01:46Z</time></trkpt>
<trkpt lat="34.291099" lon="-117.529311"><ele>1576.0</ele><time>2024-05-15T15:02:02Z</time></trkpt>
<trkpt lat="34.291440" lon="-117.529447"><ele>1577.0</ele><time>2024-05-15T15:03:00Z</time></trkpt>
<trkpt lat="34.291908" lon="-117.529292"><ele>1574.8</ele><time>2024-05-15T15:03:42Z</time></trkpt>
<trkpt lat="34.292370" lon="-117.529423"><ele>1574.0</ele><time>2024-05-15T15:03:56Z</time></trkpt>
<trkpt lat="34.292618" lon="-117.529324"><ele>1570.2</ele><time>2024-05-15T15:04:24Z</time></trkpt>
<trkpt lat="34.292873" lon="-117.529357"><ele>1568.8</ele><time>2024-05-15T15:05:44Z</time></trkpt>
<trkpt lat="34.292823" lon="-117.529167"><ele>1569.2</ele><time>2024-05-15T15:05:50Z</time></trkpt>
<trkpt lat="34.292961" lon="-117.529233"><ele>1569.0</ele><time>2024-05-15T15:05:54Z</time></trkpt>
<trkpt lat="34.293049" lon="-117.529163"><ele>1569.4</ele><time>2024-05-15T15:06:03Z</time></trkpt>
<trkpt lat="34.293403" lon="-117.529203"><ele>1577.0</ele><time>2024-05-15T15:07:08Z</time></trkpt>
<trkpt lat="34.293865" lon="-117.529466"><ele>1579.4</ele><time>2024-05-15T15:07:43Z</time></trkpt>
<trkpt lat="34.293885" lon="-117.529627"><ele>1580.8</ele><time>2024-05-15T15:07:56Z</time></trkpt>
<trkpt lat="34.293649" lon="-117.529893"><ele>1582.6</ele><time>2024-05-15T15:08:48Z</time></trkpt>
<trkpt lat="34.293289" lon="-117.530663"><ele>1584.0</ele><time>2024-05-15T15:09:40Z</time></trkpt>
<trkpt lat="34.293150" lon="-117.531218"><ele>1588.0</ele><time>2024-05-15T15:10:28Z</time></trkpt>
<trkpt lat="34.293123" lon="-117.531788"><ele>1591.0</ele><time>2024-05-15T15:11:12Z</time></trkpt>
<trkpt lat="34.293252" lon="-117.532114"><ele>1593.2</ele><time>2024-05-15T15:11:38Z</time></trkpt>
<trkpt lat="34.293183" lon="-117.532413"><ele>1593.8</ele><time>2024-05-15T15:12:03Z</time></trkpt>
<trkpt lat="34.293301" lon="-117.532970"><ele>1595.2</ele><time>2024-05-15T15:12:48Z</time></trkpt>
<trkpt lat="34.293263" lon="-117.533921"><ele>1597.6</ele><time>2024-05-15T15:14:02Z</time></trkpt>
<trkpt lat="34.293175" lon="-117.534272"><ele>1601.0</ele><time>2024-05-15T15:14:38Z</time></trkpt>
<trkpt lat="34.293057" lon="-117.534470"><ele>1599.6</ele><time>2024-05-15T15:15:04Z</time></trkpt>
<trkpt lat="34.293047" lon="-117.535211"><ele>1599.2</ele><time>2024-05-15T15:15:47Z</time></trkpt>
<trkpt lat="34.293145" lon="-117.535269"><ele>1599.4</ele><time>2024-05-15T15:15:57Z</time></trkpt>
<trkpt lat="34.293156" lon="-117.535612"><ele>1599.2</ele><time>2024-05-15T15:16:14Z</time></trkpt>
<trkpt lat="34.293060" lon="-117.536375"><ele>1597.2</ele><time>2024-05-15T15:16:56Z</time></trkpt>
<trkpt lat="34.293245" lon="-117.536652"><ele>1597.0</ele><time>2024-05-15T15:17:28Z</time></trkpt>
<trkpt lat="34.293428" lon="-117.536730"><ele>1596.4</ele><time>2024-05-15T15:17:44Z</time></trkpt>
<trkpt lat="34.293564" lon="-117.536707"><ele>1596.8</ele><time>2024-05-15T15:17:50Z</time></trkpt>
<trkpt lat="34.293840" lon="-117.537388"><ele>1595.8</ele><time>2024-05-15T15:19:10Z</time></trkpt>
<trkpt lat="34.293591" lon="-117.538326"><ele>1594.6</ele><time>2024-05-15T15:20:20Z</time></trkpt>
<trkpt lat="34.294174" lon="-117.538984"><ele>1592.4</ele><time>2024-05-15T15:21:36Z</time></trkpt>
<trkpt lat="34.294205" lon="-117.539092"><ele>1592.4</ele><time>2024-05-15T15:21:43Z</time></trkpt>
<trkpt lat="34.294384" lon="-117.539134"><ele>1592.6</ele><time>2024-05-15T15:21:45Z</time></trkpt>
<trkpt lat="34.294504" lon="-117.539336"><ele>1593.4</ele><time>2024-05-15T15:22:00Z</time></trkpt>
<trkpt lat="34.295018" lon="-117.539508"><ele>1594.8</ele><time>2024-05-15T15:22:58Z</time></trkpt>
<trkpt lat="34.295245" lon="-117.539707"><ele>1595.0</ele><time>2024-05-15T15:23:24Z</time></trkpt>
<trkpt lat="34.295445" lon="-117.540196"><ele>1594.8</ele><time>2024-05-15T15:23:59Z</time></trkpt>
<trkpt lat="34.295761" lon="-117.540679"><ele>1595.8</ele><time>2024-05-15T15:24:46Z</time></trkpt>
<trkpt lat="34.295984" lon="-117.540785"><ele>1594.8</ele><time>2024-05-15T15:25:08Z</time></trkpt>
<trkpt lat="34.296284" lon="-117.541228"><ele>1599.8</ele><time>2024-05-15T15:25:57Z</time></trkpt>
<trkpt lat="34.297231" lon="-117.541725"><ele>1607.8</ele><time>2024-05-15T15:27:43Z</time></trkpt>
<trkpt lat="34.297289" lon="-117.541694"><ele>1608.6</ele><time>2024-05-15T15:27:48Z</time></trkpt>
<trkpt lat="34.297371" lon="-117.541842"><ele>1610.0</ele><time>2024-05-15T15:28:02Z</time></trkpt>
<trkpt lat="34.297439" lon="-117.542239"><ele>1612.2</ele><time>2024-05-15T15:28:32Z</time></trkpt>
<trkpt lat="34.297382" lon="-117.542500"><ele>1613.6</ele><time>2024-05-15T15:28:58Z</time></trkpt>
<trkpt lat="34.297532" lon="-117.543081"><ele>1617.6</ele><time>2024-05-15T15:29:38Z</time></trkpt>
<trkpt lat="34.297508" lon="-117.543241"><ele>1618.2</ele><time>2024-05-15T15:29:46Z</time></trkpt>
<trkpt lat="34.297793" lon="-117.543073"><ele>1618.8</ele><time>2024-05-15T15:29:55Z</time></trkpt>
<trkpt lat="34.297874" lon="-117.543404"><ele>1618.8</ele><time>2024-05-15T15:30:10Z</time></trkpt>
<trkpt lat="34.298056" lon="-117.544631"><ele>1623.8</ele><time>2024-05-15T15:31:44Z</time></trkpt>
<trkpt lat="34.297954" lon="-117.544755"><ele>1624.0</ele><time>2024-05-15T15:31:46Z</time></trkpt>
<trkpt lat="34.298511" lon="-117.544329"><ele>1624.8</ele><time>2024-05-15T15:31:54Z</time></trkpt>
<trkpt lat="34.298382" lon="-117.545033"><ele>1627.8</ele><time>2024-05-15T15:32:30Z</time></trkpt>
<trkpt lat="34.297629" lon="-117.546247"><ele>1632.0</ele><time>2024-05-15T15:33:44Z</time></trkpt>
<trkpt lat="34.298149" lon="-117.545788"><ele>1633.0</ele><time>2024-05-15T15:33:51Z</time></trkpt>
<trkpt lat="34.297807" lon="-117.546172"><ele>1633.2</ele><time>2024-05-15T15:33:52Z</time></trkpt>
<trkpt lat="34.298185" lon="-117.545937"><ele>1633.8</ele><time>2024-05-15T15:33:59Z</time></trkpt>
<trkpt lat="34.298142" lon="-117.546781"><ele>1637.2</ele><time>2024-05-15T15:34:36Z</time></trkpt>
<trkpt lat="34.297880" lon="-117.547448"><ele>1639.4</ele><time>2024-05-15T15:35:44Z</time></trkpt>
<trkpt lat="34.297925" lon="-117.547564"><ele>1639.6</ele><time>2024-05-15T15:35:45Z</time></trkpt>
<trkpt lat="34.297894" lon="-117.547696"><ele>1640.0</ele><time>2024-05-15T15:35:50Z</time></trkpt>
<trkpt lat="34.298217" lon="-117.547407"><ele>1640.4</ele><time>2024-05-15T15:35:54Z</time></trkpt>
<trkpt lat="34.297982" lon="-117.548369"><ele>1644.6</ele><time>2024-05-15T15:36:56Z</time></trkpt>
<trkpt lat="34.297961" lon="-117.549199"><ele>1647.0</ele><time>2024-05-15T15:37:45Z</time></trkpt>
<trkpt lat="34.298428" lon="-117.548773"><ele>1648.6</ele><time>2024-05-15T15:37:54Z</time></trkpt>
<trkpt lat="34.298503" lon="-117.548823"><ele>1649.4</ele><time>2024-05-15T15:38:03Z</time></trkpt>
<trkpt lat="34.298659" lon="-117.548787"><ele>1649.8</ele><time>2024-05-15T15:38:10Z</time></trkpt>
<trkpt lat="34.299253" lon="-117.548525"><ele>1649.8</ele><time>2024-05-15T15:39:02Z</time></trkpt>
<trkpt lat="34.299712" lon="-117.548420"><ele>1652.4</ele><time>2024-05-15T15:39:44Z</time></trkpt>
<trkpt lat="34.299755" lon="-117.548337"><ele>1653.2</ele><time>2024-05-15T15:39:49Z</time></trkpt>
<trkpt lat="34.299620" lon="-117.548449"><ele>1653.4</ele><time>2024-05-15T15:39:54Z</time></trkpt>
<trkpt lat="34.299859" lon="-117.548450"><ele>1654.2</ele><time>2024-05-15T15:40:06Z</time></trkpt>
<trkpt lat="34.300690" lon="-117.548774"><ele>1662.6</ele><time>2024-05-15T15:41:43Z</time></trkpt>
<trkpt lat="34.300785" lon="-117.548723"><ele>1662.8</ele><time>2024-05-15T15:41:48Z</time></trkpt>
<trkpt lat="34.301080" lon="-117.549062"><ele>1666.2</ele><time>2024-05-15T15:42:13Z</time></trkpt>
<trkpt lat="34.301771" lon="-117.549287"><ele>1672.0</ele><time>2024-05-15T15:43:43Z</time></trkpt>
<trkpt lat="34.301463" lon="-117.549623"><ele>1672.4</ele><time>2024-05-15T15:43:48Z</time></trkpt>
<trkpt lat="34.301569" lon="-117.549940"><ele>1674.8</ele><time>2024-05-15T15:44:26Z</time></trkpt>
<trkpt lat="34.301778" lon="-117.550226"><ele>1677.4</ele><time>2024-05-15T15:45:04Z</time></trkpt>
<trkpt lat="34.301916" lon="-117.550304"><ele>1677.8</ele><time>2024-05-15T15:45:18Z</time></trkpt>
<trkpt lat="34.302077" lon="-117.550129"><ele>1679.8</ele><time>2024-05-15T15:45:43Z</time></trkpt>
<trkpt lat="34.301941" lon="-117.549902"><ele>1680.0</ele><time>2024-05-15T15:45:45Z</time></trkpt>
<trkpt lat="34.302204" lon="-117.549969"><ele>1680.0</ele><time>2024-05-15T15:45:47Z</time></trkpt>
<trkpt lat="34.302353" lon="-117.549892"><ele>1680.2</ele><time>2024-05-15T15:45:50Z</time></trkpt>
<trkpt lat="34.302579" lon="-117.549618"><ele>1679.8</ele><time>2024-05-15T15:46:54Z</time></trkpt>
<trkpt lat="34.302500" lon="-117.549721"><ele>1677.8</ele><time>2024-05-15T15:47:48Z</time></trkpt>
<trkpt lat="34.302649" lon="-117.549779"><ele>1678.0</ele><time>2024-05-15T15:49:04Z</time></trkpt>
<trkpt lat="34.303123" lon="-117.550291"><ele>1674.2</ele><time>2024-05-15T15:49:58Z</time></trkpt>
<trkpt lat="34.303320" lon="-117.550748"><ele>1676.6</ele><time>2024-05-15T15:50:26Z</time></trkpt>
<trkpt lat="34.303037" lon="-117.551164"><ele>1678.4</ele><time>2024-05-15T15:51:16Z</time></trkpt>
<trkpt lat="34.302804" lon="-117.551684"><ele>1680.2</ele><time>2024-05-15T15:51:44Z</time></trkpt>
<trkpt lat="34.302853" lon="-117.551711"><ele>1680.6</ele><time>2024-05-15T15:51:52Z</time></trkpt>
<trkpt lat="34.302597" lon="-117.552451"><ele>1685.4</ele><time>2024-05-15T15:53:08Z</time></trkpt>
<trkpt lat="34.302671" lon="-117.553031"><ele>1687.0</ele><time>2024-05-15T15:53:43Z</time></trkpt>
<trkpt lat="34.302673" lon="-117.553186"><ele>1688.0</ele><time>2024-05-15T15:53:53Z</time></trkpt>
<trkpt lat="34.302614" lon="-117.553266"><ele>1690.0</ele><time>2024-05-15T15:54:04Z</time></trkpt>
<trkpt lat="34.303273" lon="-117.554280"><ele>1692.6</ele><time>2024-05-15T15:55:58Z</time></trkpt>
<trkpt lat="34.303657" lon="-117.554722"><ele>1693.8</ele><time>2024-05-15T15:57:08Z</time></trkpt>
<trkpt lat="34.303737" lon="-117.555044"><ele>1694.8</ele><time>2024-05-15T15:57:34Z</time></trkpt>
<trkpt lat="34.303933" lon="-117.555299"><ele>1694.4</ele><time>2024-05-15T15:57:47Z</time></trkpt>
<trkpt lat="34.303885" lon="-117.555389"><ele>1694.6</ele><time>2024-05-15T15:57:50Z</time></trkpt>
<trkpt lat="34.303920" lon="-117.555527"><ele>1695.2</ele><time>2024-05-15T15:58:02Z</time></trkpt>
<trkpt lat="34.304189" lon="-117.555806"><ele>1698.0</ele><time>2024-05-15T15:58:38Z</time></trkpt>
<trkpt lat="34.304805" lon="-117.556240"><ele>1702.0</ele><time>2024-05-15T15:59:44Z</time></trkpt>
<trkpt lat="34.304872" lon="-117.556468"><ele>1703.4</ele><time>2024-05-15T16:00:01Z</time></trkpt>
<trkpt lat="34.305855" lon="-117.557139"><ele>1710.2</ele><time>2024-05-15T16:01:43Z</time></trkpt>
<trkpt lat="34.305669" lon="-117.557309"><ele>1710.8</ele><time>2024-05-15T16:01:48Z</time></trkpt>
<trkpt lat="34.305824" lon="-117.557378"><ele>1711.8</ele><time>2024-05-15T16:01:59Z</time></trkpt>
<trkpt lat="34.306030" lon="-117.557687"><ele>1713.8</ele><time>2024-05-15T16:02:34Z</time></trkpt>
<trkpt lat="34.306396" lon="-117.558415"><ele>1719.4</ele><time>2024-05-15T16:03:43Z</time></trkpt>
<trkpt lat="34.306578" lon="-117.558400"><ele>1721.0</ele><time>2024-05-15T16:03:52Z</time></trkpt>
<trkpt lat="34.306755" lon="-117.558777"><ele>1723.4</ele><time>2024-05-15T16:04:18Z</time></trkpt>
<trkpt lat="34.307202" lon="-117.559312"><ele>1727.8</ele><time>2024-05-15T16:05:46Z</time></trkpt>
<trkpt lat="34.307301" lon="-117.559200"><ele>1727.4</ele><time>2024-05-15T16:06:00Z</time></trkpt>
<trkpt lat="34.307913" lon="-117.560301"><ele>1736.4</ele><time>2024-05-15T16:07:45Z</time></trkpt>
<trkpt lat="34.307852" lon="-117.560470"><ele>1736.6</ele><time>2024-05-15T16:07:51Z</time></trkpt>
<trkpt lat="34.307904" lon="-117.560568"><ele>1736.4</ele><time>2024-05-15T16:07:59Z</time></trkpt>
<trkpt lat="34.308913" lon="-117.560620"><ele>1739.8</ele><time>2024-05-15T16:09:04Z</time></trkpt>
<trkpt lat="34.309674" lon="-117.560535"><ele>1738.0</ele><time>2024-05-15T16:09:44Z</time></trkpt>
<trkpt lat="34.308900" lon="-117.560826"><ele>1738.8</ele><time>2024-05-15T16:09:53Z</time></trkpt>
<trkpt lat="34.308980" lon="-117.560737"><ele>1739.6</ele><time>2024-05-15T16:10:01Z</time></trkpt>
<trkpt lat="34.309536" lon="-117.560793"><ele>1743.6</ele><time>2024-05-15T16:11:16Z</time></trkpt>
<trkpt lat="34.309912" lon="-117.561045"><ele>1745.0</ele><time>2024-05-15T16:11:43Z</time></trkpt>
<trkpt lat="34.309633" lon="-117.561300"><ele>1745.8</ele><time>2024-05-15T16:11:57Z</time></trkpt>
<trkpt lat="34.309729" lon="-117.562169"><ele>1753.6</ele><time>2024-05-15T16:13:44Z</time></trkpt>
<trkpt lat="34.309213" lon="-117.562485"><ele>1754.0</ele><time>2024-05-15T16:13:51Z</time></trkpt>
<trkpt lat="34.309136" lon="-117.562681"><ele>1755.8</ele><time>2024-05-15T16:14:10Z</time></trkpt>
<trkpt lat="34.309097" lon="-117.563365"><ele>1763.2</ele><time>2024-05-15T16:15:43Z</time></trkpt>
<trkpt lat="34.308940" lon="-117.563650"><ele>1764.2</ele><time>2024-05-15T16:15:50Z</time></trkpt>
<trkpt lat="34.308667" lon="-117.563742"><ele>1764.8</ele><time>2024-05-15T16:15:54Z</time></trkpt>
<trkpt lat="34.308335" lon="-117.564631"><ele>1774.8</ele><time>2024-05-15T16:17:44Z</time></trkpt>
<trkpt lat="34.308381" lon="-117.564660"><ele>1775.2</ele><time>2024-05-15T16:17:51Z</time></trkpt>
<trkpt lat="34.308326" lon="-117.564714"><ele>1775.2</ele><time>2024-05-15T16:18:00Z</time></trkpt>
<trkpt lat="34.308415" lon="-117.565522"><ele>1779.6</ele><time>2024-05-15T16:19:04Z</time></trkpt>
<trkpt lat="34.308291" lon="-117.566107"><ele>1784.0</ele><time>2024-05-15T16:19:48Z</time></trkpt>
<trkpt lat="34.308341" lon="-117.566095"><ele>1785.0</ele><time>2024-05-15T16:19:53Z</time></trkpt>
<trkpt lat="34.308379" lon="-117.566492"><ele>1786.2</ele><time>2024-05-15T16:20:18Z</time></trkpt>
<trkpt lat="34.308603" lon="-117.566748"><ele>1789.2</ele><time>2024-05-15T16:21:02Z</time></trkpt>
<trkpt lat="34.308537" lon="-117.566977"><ele>1793.0</ele><time>2024-05-15T16:21:43Z</time></trkpt>
<trkpt lat="34.308601" lon="-117.567011"><ele>1793.4</ele><time>2024-05-15T16:21:46Z</time></trkpt>
<trkpt lat="34.308629" lon="-117.566951"><ele>1793.4</ele><time>2024-05-15T16:21:48Z</time></trkpt>
<trkpt lat="34.308645" lon="-117.567034"><ele>1793.4</ele><time>2024-05-15T16:21:52Z</time></trkpt>
<trkpt lat="34.308649" lon="-117.566964"><ele>1794.4</ele><time>2024-05-15T16:22:10Z</time></trkpt>
<trkpt lat="34.308817" lon="-117.567310"><ele>1796.2</ele><time>2024-05-15T16:22:44Z</time></trkpt>
<trkpt lat="34.308909" lon="-117.567322"><ele>1795.8</ele><time>2024-05-15T16:22:56Z</time></trkpt>
<trkpt lat="34.309091" lon="-117.567714"><ele>1801.2</ele><time>2024-05-15T16:23:34Z</time></trkpt>
<trkpt lat="34.309186" lon="-117.567779"><ele>1802.8</ele><time>2024-05-15T16:23:48Z</time></trkpt>
<trkpt lat="34.309414" lon="-117.568249"><ele>1798.8</ele><time>2024-05-15T16:24:46Z</time></trkpt>
<trkpt lat="34.309377" lon="-117.568253"><ele>1798.6</ele><time>2024-05-15T16:24:51Z</time></trkpt>
<trkpt lat="34.309836" lon="-117.569141"><ele>1807.4</ele><time>2024-05-15T16:26:43Z</time></trkpt>
<trkpt lat="34.310737" lon="-117.568293"><ele>1819.4</ele><time>2024-05-15T16:28:44Z</time></trkpt>
<trkpt lat="34.310954" lon="-117.568186"><ele>1819.6</ele><time>2024-05-15T16:28:59Z</time></trkpt>
<trkpt lat="34.311104" lon="-117.568194"><ele>1820.4</ele><time>2024-05-15T16:29:06Z</time></trkpt>
<trkpt lat="34.311500" lon="-117.568628"><ele>1828.8</ele><time>2024-05-15T16:30:43Z</time></trkpt>
<trkpt lat="34.311454" lon="-117.568861"><ele>1830.4</ele><time>2024-05-15T16:30:58Z</time></trkpt>
<trkpt lat="34.311549" lon="-117.568925"><ele>1830.8</ele><time>2024-05-15T16:31:04Z</time></trkpt>
<trkpt lat="34.311862" lon="-117.569062"><ele>1833.0</ele><time>2024-05-15T16:31:30Z</time></trkpt>
<trkpt lat="34.312575" lon="-117.569087"><ele>1838.2</ele><time>2024-05-15T16:32:49Z</time></trkpt>
<trkpt lat="34.312510" lon="-117.569146"><ele>1838.4</ele><time>2024-05-15T16:32:51Z</time></trkpt>
<trkpt lat="34.312620" lon="-117.569119"><ele>1839.2</ele><time>2024-05-15T16:33:01Z</time></trkpt>
<trkpt lat="34.313027" lon="-117.569290"><ele>1841.4</ele><time>2024-05-15T16:33:44Z</time></trkpt>
<trkpt lat="34.313457" lon="-117.569680"><ele>1845.4</ele><time>2024-05-15T16:34:44Z</time></trkpt>
<trkpt lat="34.313365" lon="-117.569789"><ele>1844.4</ele><time>2024-05-15T16:35:06Z</time></trkpt>
<trkpt lat="34.313587" lon="-117.570467"><ele>1851.2</ele><time>2024-05-15T16:36:38Z</time></trkpt>
<trkpt lat="34.313468" lon="-117.571096"><ele>1852.8</ele><time>2024-05-15T16:37:01Z</time></trkpt>
<trkpt lat="34.313608" lon="-117.571987"><ele>1858.2</ele><time>2024-05-15T16:38:43Z</time></trkpt>
<trkpt lat="34.313576" lon="-117.572136"><ele>1858.2</ele><time>2024-05-15T16:38:47Z</time></trkpt>
<trkpt lat="34.313704" lon="-117.572309"><ele>1858.6</ele><time>2024-05-15T16:39:02Z</time></trkpt>
<trkpt lat="34.313863" lon="-117.572981"><ele>1863.8</ele><time>2024-05-15T16:40:22Z</time></trkpt>
<trkpt lat="34.313807" lon="-117.573762"><ele>1867.4</ele><time>2024-05-15T16:41:18Z</time></trkpt>
<trkpt lat="34.313857" lon="-117.574441"><ele>1872.8</ele><time>2024-05-15T16:42:45Z</time></trkpt>
<trkpt lat="34.313806" lon="-117.574616"><ele>1872.6</ele><time>2024-05-15T16:44:46Z</time></trkpt>
<trkpt lat="34.313737" lon="-117.574525"><ele>1872.8</ele><time>2024-05-15T16:44:54Z</time></trkpt>
<trkpt lat="34.313734" lon="-117.574634"><ele>1872.8</ele><time>2024-05-15T16:45:03Z</time></trkpt>
<trkpt lat="34.313725" lon="-117.574501"><ele>1872.6</ele><time>2024-05-15T16:46:46Z</time></trkpt>
<trkpt lat="34.313793" lon="-117.574529"><ele>1872.6</ele><time>2024-05-15T16:47:01Z</time></trkpt>
<trkpt lat="34.313751" lon="-117.574449"><ele>1872.2</ele><time>2024-05-15T16:48:47Z</time></trkpt>
<trkpt lat="34.313849" lon="-117.574469"><ele>1872.2</ele><time>2024-05-15T16:48:52Z</time></trkpt>
<trkpt lat="34.313695" lon="-117.574519"><ele>1872.2</ele><time>2024-05-15T16:50:36Z</time></trkpt>
<trkpt lat="34.313771" lon="-117.574599"><ele>1872.4</ele><time>2024-05-15T16:51:02Z</time></trkpt>
<trkpt lat="34.313810" lon="-117.574536"><ele>1874.8</ele><time>2024-05-15T16:52:43Z</time></trkpt>
<trkpt lat="34.313797" lon="-117.574616"><ele>1875.0</ele><time>2024-05-15T16:52:59Z</time></trkpt>
<trkpt lat="34.313744" lon="-117.574593"><ele>1876.6</ele><time>2024-05-15T16:54:02Z</time></trkpt>
<trkpt lat="34.313828" lon="-117.574601"><ele>1875.2</ele><time>2024-05-15T16:54:44Z</time></trkpt>
<trkpt lat="34.313710" lon="-117.574570"><ele>1875.2</ele><time>2024-05-15T16:55:00Z</time></trkpt>
<trkpt lat="34.313789" lon="-117.574538"><ele>1876.6</ele><time>2024-05-15T16:58:53Z</time></trkpt>
<trkpt lat="34.313578" lon="-117.575227"><ele>1882.4</ele><time>2024-05-15T17:00:46Z</time></trkpt>
<trkpt lat="34.313238" lon="-117.575670"><ele>1885.2</ele><time>2024-05-15T17:01:28Z</time></trkpt>
<trkpt lat="34.313007" lon="-117.576210"><ele>1891.0</ele><time>2024-05-15T17:02:44Z</time></trkpt>
<trkpt lat="34.312776" lon="-117.577316"><ele>1895.6</ele><time>2024-05-15T17:04:02Z</time></trkpt>
<trkpt lat="34.312317" lon="-117.577455"><ele>1899.4</ele><time>2024-05-15T17:04:53Z</time></trkpt>
<trkpt lat="34.312278" lon="-117.577559"><ele>1901.0</ele><time>2024-05-15T17:05:02Z</time></trkpt>
<trkpt lat="34.312337" lon="-117.577854"><ele>1901.6</ele><time>2024-05-15T17:05:14Z</time></trkpt>
<trkpt lat="34.312172" lon="-117.578540"><ele>1905.6</ele><time>2024-05-15T17:06:00Z</time></trkpt>
<trkpt lat="34.312068" lon="-117.578768"><ele>1908.8</ele><time>2024-05-15T17:06:38Z</time></trkpt>
<trkpt lat="34.311997" lon="-117.578843"><ele>1909.6</ele><time>2024-05-15T17:06:44Z</time></trkpt>
<trkpt lat="34.311944" lon="-117.578789"><ele>1909.6</ele><time>2024-05-15T17:06:50Z</time></trkpt>
<trkpt lat="34.311844" lon="-117.579553"><ele>1913.0</ele><time>2024-05-15T17:07:40Z</time></trkpt>
<trkpt lat="34.311484" lon="-117.580392"><ele>1917.2</ele><time>2024-05-15T17:09:01Z</time></trkpt>
<trkpt lat="34.311469" lon="-117.580700"><ele>1917.4</ele><time>2024-05-15T17:09:22Z</time></trkpt>
<trkpt lat="34.311581" lon="-117.581771"><ele>1922.0</ele><time>2024-05-15T17:10:44Z</time></trkpt>
<trkpt lat="34.311655" lon="-117.581773"><ele>1922.0</ele><time>2024-05-15T17:10:47Z</time></trkpt>
<trkpt lat="34.311709" lon="-117.582066"><ele>1923.8</ele><time>2024-05-15T17:11:14Z</time></trkpt>
<trkpt lat="34.311656" lon="-117.582412"><ele>1929.0</ele><time>2024-05-15T17:12:10Z</time></trkpt>
<trkpt lat="34.311396" lon="-117.583130"><ele>1933.8</ele><time>2024-05-15T17:12:49Z</time></trkpt>
<trkpt lat="34.311261" lon="-117.583255"><ele>1936.8</ele><time>2024-05-15T17:13:11Z</time></trkpt>
<trkpt lat="34.310946" lon="-117.583194"><ele>1939.4</ele><time>2024-05-15T17:13:44Z</time></trkpt>
<trkpt lat="34.310720" lon="-117.583226"><ele>1941.2</ele><time>2024-05-15T17:14:02Z</time></trkpt>
<trkpt lat="34.309768" lon="-117.584063"><ele>1949.4</ele><time>2024-05-15T17:15:43Z</time></trkpt>
<trkpt lat="34.309824" lon="-117.583966"><ele>1949.8</ele><time>2024-05-15T17:15:45Z</time></trkpt>
<trkpt lat="34.309916" lon="-117.583974"><ele>1949.8</ele><time>2024-05-15T17:15:46Z</time></trkpt>
<trkpt lat="34.309880" lon="-117.584019"><ele>1950.2</ele><time>2024-05-15T17:15:48Z</time></trkpt>
<trkpt lat="34.309816" lon="-117.583992"><ele>1950.8</ele><time>2024-05-15T17:15:50Z</time></trkpt>
<trkpt lat="34.309900" lon="-117.583905"><ele>1951.2</ele><time>2024-05-15T17:15:52Z</time></trkpt>
<trkpt lat="34.309859" lon="-117.583810"><ele>1951.8</ele><time>2024-05-15T17:15:57Z</time></trkpt>
<trkpt lat="34.309691" lon="-117.583786"><ele>1953.2</ele><time>2024-05-15T17:16:09Z</time></trkpt>
<trkpt lat="34.309417" lon="-117.583832"><ele>1955.0</ele><time>2024-05-15T17:16:32Z</time></trkpt>
<trkpt lat="34.309232" lon="-117.583944"><ele>1957.0</ele><time>2024-05-15T17:16:56Z</time></trkpt>
<trkpt lat="34.309258" lon="-117.583826"><ele>1957.8</ele><time>2024-05-15T17:17:13Z</time></trkpt>
<trkpt lat="34.308932" lon="-117.584073"><ele>1961.0</ele><time>2024-05-15T17:17:42Z</time></trkpt>
<trkpt lat="34.308752" lon="-117.584376"><ele>1961.2</ele><time>2024-05-15T17:18:08Z</time></trkpt>
<trkpt lat="34.308710" lon="-117.584595"><ele>1959.6</ele><time>2024-05-15T17:18:34Z</time></trkpt>
<trkpt lat="34.308714" lon="-117.585474"><ele>1959.2</ele><time>2024-05-15T17:19:26Z</time></trkpt>
<trkpt lat="34.308841" lon="-117.586258"><ele>1967.4</ele><time>2024-05-15T17:20:49Z</time></trkpt>
<trkpt lat="34.308822" lon="-117.586425"><ele>1967.2</ele><time>2024-05-15T17:21:01Z</time></trkpt>
<trkpt lat="34.309411" lon="-117.587200"><ele>1976.0</ele><time>2024-05-15T17:22:57Z</time></trkpt>
<trkpt lat="34.309824" lon="-117.587619"><ele>1982.4</ele><time>2024-05-15T17:23:44Z</time></trkpt>
<trkpt lat="34.310044" lon="-117.588171"><ele>1986.8</ele><time>2024-05-15T17:24:46Z</time></trkpt>
<trkpt lat="34.310597" lon="-117.588504"><ele>1986.0</ele><time>2024-05-15T17:25:52Z</time></trkpt>
<trkpt lat="34.310752" lon="-117.588486"><ele>1986.2</ele><time>2024-05-15T17:26:03Z</time></trkpt>
<trkpt lat="34.311767" lon="-117.587523"><ele>1980.6</ele><time>2024-05-15T17:27:43Z</time></trkpt>
<trkpt lat="34.311548" lon="-117.587619"><ele>1980.6</ele><time>2024-05-15T17:27:47Z</time></trkpt>
<trkpt lat="34.311910" lon="-117.587578"><ele>1979.8</ele><time>2024-05-15T17:28:06Z</time></trkpt>
<trkpt lat="34.312508" lon="-117.588752"><ele>1973.6</ele><time>2024-05-15T17:29:57Z</time></trkpt>
<trkpt lat="34.312681" lon="-117.588832"><ele>1972.4</ele><time>2024-05-15T17:30:14Z</time></trkpt>
<trkpt lat="34.313081" lon="-117.589192"><ele>1969.0</ele><time>2024-05-15T17:31:04Z</time></trkpt>
<trkpt lat="34.313983" lon="-117.590418"><ele>1974.8</ele><time>2024-05-15T17:35:00Z</time></trkpt>
<trkpt lat="34.314749" lon="-117.591201"><ele>1975.8</ele><time>2024-05-15T17:35:44Z</time></trkpt>
<trkpt lat="34.314386" lon="-117.590799"><ele>1976.0</ele><time>2024-05-15T17:35:46Z</time></trkpt>
<trkpt lat="34.314292" lon="-117.590876"><ele>1976.0</ele><time>2024-05-15T17:35:47Z</time></trkpt>
<trkpt lat="34.314712" lon="-117.591903"><ele>1986.0</ele><time>2024-05-15T17:37:22Z</time></trkpt>
<trkpt lat="34.314851" lon="-117.592371"><ele>1987.6</ele><time>2024-05-15T17:37:45Z</time></trkpt>
<trkpt lat="34.314847" lon="-117.592561"><ele>1988.0</ele><time>2024-05-15T17:37:49Z</time></trkpt>
<trkpt lat="34.314845" lon="-117.592402"><ele>1988.8</ele><time>2024-05-15T17:37:58Z</time></trkpt>
<trkpt lat="34.315134" lon="-117.593052"><ele>1991.6</ele><time>2024-05-15T17:38:41Z</time></trkpt>
<trkpt lat="34.315258" lon="-117.593079"><ele>1992.6</ele><time>2024-05-15T17:38:51Z</time></trkpt>
<trkpt lat="34.315767" lon="-117.594039"><ele>1997.6</ele><time>2024-05-15T17:40:46Z</time></trkpt>
<trkpt lat="34.315781" lon="-117.594172"><ele>1998.4</ele><time>2024-05-15T17:40:52Z</time></trkpt>
<trkpt lat="34.316436" lon="-117.594643"><ele>2008.2</ele><time>2024-05-15T17:43:14Z</time></trkpt>
<trkpt lat="34.316665" lon="-117.594549"><ele>2010.8</ele><time>2024-05-15T17:45:49Z</time></trkpt>
<trkpt lat="34.316945" lon="-117.594630"><ele>2011.8</ele><time>2024-05-15T17:46:10Z</time></trkpt>
<trkpt lat="34.317162" lon="-117.594539"><ele>2013.8</ele><time>2024-05-15T17:46:36Z</time></trkpt>
<trkpt lat="34.317484" lon="-117.594516"><ele>2015.8</ele><time>2024-05-15T17:47:02Z</time></trkpt>
<trkpt lat="34.317513" lon="-117.594701"><ele>2016.8</ele><time>2024-05-15T17:47:24Z</time></trkpt>
<trkpt lat="34.317356" lon="-117.595277"><ele>2024.8</ele><time>2024-05-15T17:48:43Z</time></trkpt>
<trkpt lat="34.317439" lon="-117.595191"><ele>2024.8</ele><time>2024-05-15T17:48:44Z</time></trkpt>
<trkpt lat="34.317479" lon="-117.595297"><ele>2025.6</ele><time>2024-05-15T17:48:48Z</time></trkpt>
<trkpt lat="34.317393" lon="-117.595598"><ele>2027.6</ele><time>2024-05-15T17:49:16Z</time></trkpt>
<trkpt lat="34.317412" lon="-117.595759"><ele>2029.6</ele><time>2024-05-15T17:49:32Z</time></trkpt>
<trkpt lat="34.317565" lon="-117.595914"><ele>2031.8</ele><time>2024-05-15T17:49:50Z</time></trkpt>
<trkpt lat="34.318023" lon="-117.596113"><ele>2036.2</ele><time>2024-05-15T17:50:36Z</time></trkpt>
<trkpt lat="34.318250" lon="-117.596023"><ele>2037.2</ele><time>2024-05-15T17:50:48Z</time></trkpt>
<trkpt lat="34.318217" lon="-117.596255"><ele>2037.8</ele><time>2024-05-15T17:50:57Z</time></trkpt>
<trkpt lat="34.318358" lon="-117.596391"><ele>2039.2</ele><time>2024-05-15T17:51:14Z</time></trkpt>
<trkpt lat="34.318902" lon="-117.596388"><ele>2045.8</ele><time>2024-05-15T17:52:28Z</time></trkpt>
<trkpt lat="34.318937" lon="-117.596423"><ele>2046.0</ele><time>2024-05-15T17:53:24Z</time></trkpt>
<trkpt lat="34.318884" lon="-117.596637"><ele>2046.2</ele><time>2024-05-15T17:53:40Z</time></trkpt>
<trkpt lat="34.318720" lon="-117.597017"><ele>2046.0</ele><time>2024-05-15T17:53:43Z</time></trkpt>
<trkpt lat="34.318948" lon="-117.596621"><ele>2046.0</ele><time>2024-05-15T17:53:45Z</time></trkpt>
<trkpt lat="34.318772" lon="-117.596898"><ele>2045.8</ele><time>2024-05-15T17:54:00Z</time></trkpt>
<trkpt lat="34.318958" lon="-117.596997"><ele>2048.6</ele><time>2024-05-15T17:54:46Z</time></trkpt>
<trkpt lat="34.318961" lon="-117.596848"><ele>2052.4</ele><time>2024-05-15T17:55:24Z</time></trkpt>
<trkpt lat="34.319069" lon="-117.596720"><ele>2053.8</ele><time>2024-05-15T17:55:46Z</time></trkpt>
<trkpt lat="34.319372" lon="-117.595963"><ele>2061.2</ele><time>2024-05-15T17:57:46Z</time></trkpt>
<trkpt lat="34.319374" lon="-117.595710"><ele>2061.0</ele><time>2024-05-15T17:57:52Z</time></trkpt>
<trkpt lat="34.319423" lon="-117.595769"><ele>2061.0</ele><time>2024-05-15T17:57:53Z</time></trkpt>
<trkpt lat="34.320033" lon="-117.595448"><ele>2066.0</ele><time>2024-05-15T17:58:52Z</time></trkpt>
<trkpt lat="34.320648" lon="-117.594989"><ele>2069.0</ele><time>2024-05-15T18:00:00Z</time></trkpt>
<trkpt lat="34.320903" lon="-117.594877"><ele>2072.4</ele><time>2024-05-15T18:00:52Z</time></trkpt>
<trkpt lat="34.321062" lon="-117.594742"><ele>2074.0</ele><time>2024-05-15T18:01:44Z</time></trkpt>
<trkpt lat="34.321084" lon="-117.594605"><ele>2072.4</ele><time>2024-05-15T18:02:00Z</time></trkpt>
<trkpt lat="34.321163" lon="-117.594609"><ele>2069.2</ele><time>2024-05-15T18:03:51Z</time></trkpt>
<trkpt lat="34.321094" lon="-117.595332"><ele>2073.6</ele><time>2024-05-15T18:05:00Z</time></trkpt>
<trkpt lat="34.320859" lon="-117.595935"><ele>2078.6</ele><time>2024-05-15T18:05:51Z</time></trkpt>
<trkpt lat="34.321169" lon="-117.595857"><ele>2080.0</ele><time>2024-05-15T18:06:03Z</time></trkpt>
<trkpt lat="34.320554" lon="-117.597904"><ele>2087.8</ele><time>2024-05-15T18:07:44Z</time></trkpt>
<trkpt lat="34.321085" lon="-117.597298"><ele>2088.4</ele><time>2024-05-15T18:07:54Z</time></trkpt>
<trkpt lat="34.321167" lon="-117.599119"><ele>2099.8</ele><time>2024-05-15T18:09:44Z</time></trkpt>
<trkpt lat="34.321519" lon="-117.598920"><ele>2101.0</ele><time>2024-05-15T18:09:54Z</time></trkpt>
<trkpt lat="34.321569" lon="-117.598992"><ele>2101.4</ele><time>2024-05-15T18:10:03Z</time></trkpt>
<trkpt lat="34.321084" lon="-117.599871"><ele>2105.0</ele><time>2024-05-15T18:12:03Z</time></trkpt>
<trkpt lat="34.320963" lon="-117.600410"><ele>2104.4</ele><time>2024-05-15T18:12:28Z</time></trkpt>
<trkpt lat="34.320875" lon="-117.601066"><ele>2110.6</ele><time>2024-05-15T18:13:45Z</time></trkpt>
<trkpt lat="34.320629" lon="-117.601347"><ele>2111.4</ele><time>2024-05-15T18:14:05Z</time></trkpt>
<trkpt lat="34.320580" lon="-117.601831"><ele>2116.8</ele><time>2024-05-15T18:14:41Z</time></trkpt>
<trkpt lat="34.320618" lon="-117.601799"><ele>2117.4</ele><time>2024-05-15T18:14:45Z</time></trkpt>
<trkpt lat="34.320619" lon="-117.601955"><ele>2118.8</ele><time>2024-05-15T18:14:57Z</time></trkpt>
<trkpt lat="34.320093" lon="-117.604315"><ele>2130.0</ele><time>2024-05-15T18:16:44Z</time></trkpt>
<trkpt lat="34.320295" lon="-117.603806"><ele>2130.4</ele><time>2024-05-15T18:16:50Z</time></trkpt>
<trkpt lat="34.320564" lon="-117.603566"><ele>2130.8</ele><time>2024-05-15T18:16:54Z</time></trkpt>
<trkpt lat="34.320748" lon="-117.603572"><ele>2131.0</ele><time>2024-05-15T18:16:55Z</time></trkpt>
<trkpt lat="34.321061" lon="-117.603393"><ele>2132.0</ele><time>2024-05-15T18:17:02Z</time></trkpt>
<trkpt lat="34.321393" lon="-117.603432"><ele>2137.0</ele><time>2024-05-15T18:17:41Z</time></trkpt>
<trkpt lat="34.321370" lon="-117.603729"><ele>2137.6</ele><time>2024-05-15T18:17:47Z</time></trkpt>
<trkpt lat="34.321478" lon="-117.603888"><ele>2138.8</ele><time>2024-05-15T18:18:03Z</time></trkpt>
<trkpt lat="34.321881" lon="-117.605615"><ele>2148.4</ele><time>2024-05-15T18:19:44Z</time></trkpt>
<trkpt lat="34.321446" lon="-117.605850"><ele>2148.6</ele><time>2024-05-15T18:19:48Z</time></trkpt>
<trkpt lat="34.321642" lon="-117.605513"><ele>2148.8</ele><time>2024-05-15T18:19:49Z</time></trkpt>
<trkpt lat="34.321914" lon="-117.605236"><ele>2149.0</ele><time>2024-05-15T18:19:51Z</time></trkpt>
<trkpt lat="34.322312" lon="-117.604881"><ele>2151.2</ele><time>2024-05-15T18:20:06Z</time></trkpt>
<trkpt lat="34.322422" lon="-117.604860"><ele>2151.8</ele><time>2024-05-15T18:20:15Z</time></trkpt>
<trkpt lat="34.322743" lon="-117.605017"><ele>2154.4</ele><time>2024-05-15T18:20:42Z</time></trkpt>
<trkpt lat="34.322739" lon="-117.605147"><ele>2155.4</ele><time>2024-05-15T18:20:48Z</time></trkpt>
<trkpt lat="34.322860" lon="-117.605290"><ele>2155.8</ele><time>2024-05-15T18:21:03Z</time></trkpt>
<trkpt lat="34.323232" lon="-117.606322"><ele>2160.6</ele><time>2024-05-15T18:22:46Z</time></trkpt>
<trkpt lat="34.323786" lon="-117.605883"><ele>2161.0</ele><time>2024-05-15T18:22:51Z</time></trkpt>
<trkpt lat="34.323712" lon="-117.605985"><ele>2161.0</ele><time>2024-05-15T18:22:52Z</time></trkpt>
<trkpt lat="34.323797" lon="-117.605902"><ele>2161.4</ele><time>2024-05-15T18:22:55Z</time></trkpt>
<trkpt lat="34.324057" lon="-117.605947"><ele>2165.6</ele><time>2024-05-15T18:24:50Z</time></trkpt>
<trkpt lat="34.323955" lon="-117.606095"><ele>2165.8</ele><time>2024-05-15T18:25:00Z</time></trkpt>
<trkpt lat="34.324334" lon="-117.605848"><ele>2165.6</ele><time>2024-05-15T18:26:50Z</time></trkpt>
<trkpt lat="34.324090" lon="-117.606222"><ele>2165.6</ele><time>2024-05-15T18:26:54Z</time></trkpt>
<trkpt lat="34.324522" lon="-117.606451"><ele>2174.8</ele><time>2024-05-15T18:28:20Z</time></trkpt>
<trkpt lat="34.324937" lon="-117.606709"><ele>2175.6</ele><time>2024-05-15T18:28:49Z</time></trkpt>
<trkpt lat="34.324929" lon="-117.606812"><ele>2176.6</ele><time>2024-05-15T18:28:54Z</time></trkpt>
<trkpt lat="34.324998" lon="-117.606869"><ele>2178.4</ele><time>2024-05-15T18:29:03Z</time></trkpt>
<trkpt lat="34.325916" lon="-117.606601"><ele>2186.4</ele><time>2024-05-15T18:30:43Z</time></trkpt>
<trkpt lat="34.325858" lon="-117.606786"><ele>2186.8</ele><time>2024-05-15T18:30:52Z</time></trkpt>
<trkpt lat="34.325902" lon="-117.606762"><ele>2187.6</ele><time>2024-05-15T18:30:58Z</time></trkpt>
<trkpt lat="34.326806" lon="-117.605813"><ele>2196.6</ele><time>2024-05-15T18:32:43Z</time></trkpt>
<trkpt lat="34.326718" lon="-117.605933"><ele>2198.6</ele><time>2024-05-15T18:33:03Z</time></trkpt>
<trkpt lat="34.326267" lon="-117.605710"><ele>2209.0</ele><time>2024-05-15T18:34:40Z</time></trkpt>
<trkpt lat="34.326752" lon="-117.606554"><ele>2209.0</ele><time>2024-05-15T18:34:45Z</time></trkpt>
<trkpt lat="34.326261" lon="-117.605917"><ele>2209.2</ele><time>2024-05-15T18:34:48Z</time></trkpt>
<trkpt lat="34.326521" lon="-117.606025"><ele>2209.2</ele><time>2024-05-15T18:34:50Z</time></trkpt>
<trkpt lat="34.326705" lon="-117.606415"><ele>2209.2</ele><time>2024-05-15T18:34:52Z</time></trkpt>
<trkpt lat="34.326713" lon="-117.607149"><ele>2210.4</ele><time>2024-05-15T18:35:01Z</time></trkpt>
<trkpt lat="34.326689" lon="-117.606933"><ele>2210.6</ele><time>2024-05-15T18:35:02Z</time></trkpt>
<trkpt lat="34.326695" lon="-117.607106"><ele>2210.8</ele><time>2024-05-15T18:35:03Z</time></trkpt>
<trkpt lat="34.326501" lon="-117.607195"><ele>2211.4</ele><time>2024-05-15T18:35:06Z</time></trkpt>
<trkpt lat="34.324741" lon="-117.608875"><ele>2213.0</ele><time>2024-05-15T18:35:20Z</time></trkpt>
<trkpt lat="34.325329" lon="-117.608213"><ele>2218.0</ele><time>2024-05-15T18:36:26Z</time></trkpt>
<trkpt lat="34.325954" lon="-117.607694"><ele>2220.8</ele><time>2024-05-15T18:36:47Z</time></trkpt>
<trkpt lat="34.326127" lon="-117.607999"><ele>2224.8</ele><time>2024-05-15T18:37:30Z</time></trkpt>
<trkpt lat="34.326308" lon="-117.608161"><ele>2226.2</ele><time>2024-05-15T18:38:43Z</time></trkpt>
<trkpt lat="34.326427" lon="-117.608130"><ele>2226.4</ele><time>2024-05-15T18:38:48Z</time></trkpt>
<trkpt lat="34.326602" lon="-117.608218"><ele>2227.6</ele><time>2024-05-15T18:39:01Z</time></trkpt>
<trkpt lat="34.326901" lon="-117.608687"><ele>2233.0</ele><time>2024-05-15T18:39:54Z</time></trkpt>
<trkpt lat="34.326991" lon="-117.608859"><ele>2234.6</ele><time>2024-05-15T18:40:08Z</time></trkpt>
<trkpt lat="34.326992" lon="-117.609017"><ele>2237.2</ele><time>2024-05-15T18:40:43Z</time></trkpt>
<trkpt lat="34.327035" lon="-117.609013"><ele>2237.4</ele><time>2024-05-15T18:40:44Z</time></trkpt>
<trkpt lat="34.326894" lon="-117.609142"><ele>2239.0</ele><time>2024-05-15T18:40:56Z</time></trkpt>
<trkpt lat="34.326477" lon="-117.610197"><ele>2248.6</ele><time>2024-05-15T18:42:42Z</time></trkpt>
<trkpt lat="34.326526" lon="-117.610063"><ele>2249.2</ele><time>2024-05-15T18:42:45Z</time></trkpt>
<trkpt lat="34.326182" lon="-117.610367"><ele>2255.4</ele><time>2024-05-15T18:43:58Z</time></trkpt>
<trkpt lat="34.325259" lon="-117.610478"><ele>2254.8</ele><time>2024-05-15T18:44:59Z</time></trkpt>
<trkpt lat="34.324956" lon="-117.611075"><ele>2259.8</ele><time>2024-05-15T18:46:24Z</time></trkpt>
<trkpt lat="34.324904" lon="-117.611406"><ele>2261.8</ele><time>2024-05-15T18:46:44Z</time></trkpt>
<trkpt lat="34.324724" lon="-117.611534"><ele>2261.4</ele><time>2024-05-15T18:46:58Z</time></trkpt>
<trkpt lat="34.324556" lon="-117.611841"><ele>2263.4</ele><time>2024-05-15T18:47:20Z</time></trkpt>
<trkpt lat="34.324410" lon="-117.611938"><ele>2263.8</ele><time>2024-05-15T18:47:34Z</time></trkpt>
<trkpt lat="34.324060" lon="-117.612594"><ele>2269.4</ele><time>2024-05-15T18:48:43Z</time></trkpt>
<trkpt lat="34.324442" lon="-117.613424"><ele>2276.0</ele><time>2024-05-15T18:49:52Z</time></trkpt>
<trkpt lat="34.324867" lon="-117.614018"><ele>2280.2</ele><time>2024-05-15T18:50:38Z</time></trkpt>
<trkpt lat="34.325386" lon="-117.613855"><ele>2281.0</ele><time>2024-05-15T18:50:44Z</time></trkpt>
<trkpt lat="34.324639" lon="-117.614294"><ele>2281.2</ele><time>2024-05-15T18:50:46Z</time></trkpt>
<trkpt lat="34.324944" lon="-117.613850"><ele>2281.4</ele><time>2024-05-15T18:50:48Z</time></trkpt>
<trkpt lat="34.324853" lon="-117.613941"><ele>2281.8</ele><time>2024-05-15T18:50:50Z</time></trkpt>
<trkpt lat="34.324921" lon="-117.613882"><ele>2282.2</ele><time>2024-05-15T18:51:01Z</time></trkpt>
<trkpt lat="34.325268" lon="-117.613954"><ele>2284.4</ele><time>2024-05-15T18:52:12Z</time></trkpt>
<trkpt lat="34.325435" lon="-117.614115"><ele>2287.4</ele><time>2024-05-15T18:52:46Z</time></trkpt>
<trkpt lat="34.325806" lon="-117.613952"><ele>2289.2</ele><time>2024-05-15T18:53:01Z</time></trkpt>
<trkpt lat="34.326811" lon="-117.613751"><ele>2299.4</ele><time>2024-05-15T18:54:48Z</time></trkpt>
<trkpt lat="34.326843" lon="-117.613687"><ele>2299.4</ele><time>2024-05-15T18:54:50Z</time></trkpt>
<trkpt lat="34.327036" lon="-117.613634"><ele>2300.0</ele><time>2024-05-15T18:54:56Z</time></trkpt>
<trkpt lat="34.327207" lon="-117.613718"><ele>2303.8</ele><time>2024-05-15T18:55:26Z</time></trkpt>
<trkpt lat="34.327449" lon="-117.613626"><ele>2304.2</ele><time>2024-05-15T18:56:49Z</time></trkpt>
<trkpt lat="34.327374" lon="-117.613727"><ele>2304.8</ele><time>2024-05-15T18:57:01Z</time></trkpt>
<trkpt lat="34.327046" lon="-117.613541"><ele>2305.2</ele><time>2024-05-15T18:59:03Z</time></trkpt>
<trkpt lat="34.327451" lon="-117.613723"><ele>2309.6</ele><time>2024-05-15T19:03:03Z</time></trkpt>
<trkpt lat="34.327392" lon="-117.613740"><ele>2310.2</ele><time>2024-05-15T19:03:06Z</time></trkpt>
<trkpt lat="34.327455" lon="-117.614868"><ele>2318.2</ele><time>2024-05-15T19:04:44Z</time></trkpt>
<trkpt lat="34.327504" lon="-117.615062"><ele>2318.8</ele><time>2024-05-15T19:04:54Z</time></trkpt>
<trkpt lat="34.327582" lon="-117.615108"><ele>2319.0</ele><time>2024-05-15T19:05:00Z</time></trkpt>
<trkpt lat="34.327690" lon="-117.615516"><ele>2319.8</ele><time>2024-05-15T19:05:18Z</time></trkpt>
<trkpt lat="34.327662" lon="-117.616078"><ele>2323.2</ele><time>2024-05-15T19:06:00Z</time></trkpt>
<trkpt lat="34.327734" lon="-117.616755"><ele>2327.4</ele><time>2024-05-15T19:07:03Z</time></trkpt>
<trkpt lat="34.327809" lon="-117.617096"><ele>2327.6</ele><time>2024-05-15T19:07:22Z</time></trkpt>
<trkpt lat="34.327995" lon="-117.617508"><ele>2327.2</ele><time>2024-05-15T19:08:16Z</time></trkpt>
<trkpt lat="34.327959" lon="-117.617793"><ele>2326.4</ele><time>2024-05-15T19:08:46Z</time></trkpt>
<trkpt lat="34.328014" lon="-117.617852"><ele>2326.6</ele><time>2024-05-15T19:08:52Z</time></trkpt>
<trkpt lat="34.327627" lon="-117.618548"><ele>2336.4</ele><time>2024-05-15T19:10:24Z</time></trkpt>
<trkpt lat="34.327693" lon="-117.618832"><ele>2338.4</ele><time>2024-05-15T19:10:44Z</time></trkpt>
<trkpt lat="34.327648" lon="-117.618864"><ele>2339.2</ele><time>2024-05-15T19:10:50Z</time></trkpt>
<trkpt lat="34.327732" lon="-117.618851"><ele>2340.0</ele><time>2024-05-15T19:10:56Z</time></trkpt>
<trkpt lat="34.326836" lon="-117.619703"><ele>2346.6</ele><time>2024-05-15T19:12:46Z</time></trkpt>
<trkpt lat="34.326827" lon="-117.619766"><ele>2347.4</ele><time>2024-05-15T19:12:49Z</time></trkpt>
<trkpt lat="34.326926" lon="-117.619729"><ele>2348.6</ele><time>2024-05-15T19:12:54Z</time></trkpt>
<trkpt lat="34.326908" lon="-117.619849"><ele>2350.4</ele><time>2024-05-15T19:13:03Z</time></trkpt>
<trkpt lat="34.326243" lon="-117.620615"><ele>2359.0</ele><time>2024-05-15T19:14:46Z</time></trkpt>
<trkpt lat="34.326252" lon="-117.620674"><ele>2359.2</ele><time>2024-05-15T19:14:47Z</time></trkpt>
<trkpt lat="34.326319" lon="-117.620707"><ele>2360.2</ele><time>2024-05-15T19:14:54Z</time></trkpt>
<trkpt lat="34.326471" lon="-117.621075"><ele>2363.4</ele><time>2024-05-15T19:15:20Z</time></trkpt>
<trkpt lat="34.326644" lon="-117.621263"><ele>2365.6</ele><time>2024-05-15T19:15:44Z</time></trkpt>
<trkpt lat="34.326884" lon="-117.621448"><ele>2369.0</ele><time>2024-05-15T19:16:16Z</time></trkpt>
<trkpt lat="34.327144" lon="-117.621528"><ele>2372.2</ele><time>2024-05-15T19:16:40Z</time></trkpt>
<trkpt lat="34.327265" lon="-117.621671"><ele>2373.6</ele><time>2024-05-15T19:16:57Z</time></trkpt>
<trkpt lat="34.327547" lon="-117.621798"><ele>2376.6</ele><time>2024-05-15T19:17:28Z</time></trkpt>
<trkpt lat="34.328048" lon="-117.621891"><ele>2382.4</ele><time>2024-05-15T19:18:46Z</time></trkpt>
<trkpt lat="34.328263" lon="-117.621642"><ele>2382.8</ele><time>2024-05-15T19:18:52Z</time></trkpt>
<trkpt lat="34.328202" lon="-117.621677"><ele>2383.2</ele><time>2024-05-15T19:18:53Z</time></trkpt>
<trkpt lat="34.328309" lon="-117.621659"><ele>2383.4</ele><time>2024-05-15T19:18:56Z</time></trkpt>
<trkpt lat="34.328199" lon="-117.621976"><ele>2386.4</ele><time>2024-05-15T19:20:46Z</time></trkpt>
<trkpt lat="34.328276" lon="-117.622062"><ele>2387.0</ele><time>2024-05-15T19:20:52Z</time></trkpt>
<trkpt lat="34.328213" lon="-117.622389"><ele>2388.8</ele><time>2024-05-15T19:21:10Z</time></trkpt>
<trkpt lat="34.328334" lon="-117.622683"><ele>2391.4</ele><time>2024-05-15T19:21:38Z</time></trkpt>
<trkpt lat="34.328373" lon="-117.623148"><ele>2396.8</ele><time>2024-05-15T19:22:40Z</time></trkpt>
<trkpt lat="34.328316" lon="-117.623372"><ele>2398.0</ele><time>2024-05-15T19:22:51Z</time></trkpt>
<trkpt lat="34.328266" lon="-117.623323"><ele>2398.8</ele><time>2024-05-15T19:22:56Z</time></trkpt>
<trkpt lat="34.328282" lon="-117.623399"><ele>2399.8</ele><time>2024-05-15T19:23:03Z</time></trkpt>
<trkpt lat="34.327776" lon="-117.623927"><ele>2407.8</ele><time>2024-05-15T19:24:08Z</time></trkpt>
<trkpt lat="34.327691" lon="-117.624347"><ele>2410.0</ele><time>2024-05-15T19:24:40Z</time></trkpt>
<trkpt lat="34.327581" lon="-117.624518"><ele>2410.8</ele><time>2024-05-15T19:24:51Z</time></trkpt>
<trkpt lat="34.327703" lon="-117.624578"><ele>2412.4</ele><time>2024-05-15T19:25:01Z</time></trkpt>
<trkpt lat="34.327712" lon="-117.624860"><ele>2413.8</ele><time>2024-05-15T19:25:52Z</time></trkpt>
<trkpt lat="34.327953" lon="-117.625114"><ele>2417.2</ele><time>2024-05-15T19:26:34Z</time></trkpt>
<trkpt lat="34.328038" lon="-117.625328"><ele>2418.8</ele><time>2024-05-15T19:26:44Z</time></trkpt>
<trkpt lat="34.328235" lon="-117.625375"><ele>2420.4</ele><time>2024-05-15T19:27:00Z</time></trkpt>
<trkpt lat="34.328337" lon="-117.625572"><ele>2422.0</ele><time>2024-05-15T19:27:12Z</time></trkpt>
<trkpt lat="34.328377" lon="-117.625922"><ele>2426.4</ele><time>2024-05-15T19:28:08Z</time></trkpt>
<trkpt lat="34.328493" lon="-117.626151"><ele>2428.6</ele><time>2024-05-15T19:28:30Z</time></trkpt>
<trkpt lat="34.328639" lon="-117.626358"><ele>2429.6</ele><time>2024-05-15T19:28:46Z</time></trkpt>
<trkpt lat="34.328690" lon="-117.626311"><ele>2430.6</ele><time>2024-05-15T19:28:53Z</time></trkpt>
<trkpt lat="34.328834" lon="-117.626411"><ele>2432.8</ele><time>2024-05-15T19:29:08Z</time></trkpt>
<trkpt lat="34.329127" lon="-117.627094"><ele>2441.8</ele><time>2024-05-15T19:30:45Z</time></trkpt>
<trkpt lat="34.329843" lon="-117.628200"><ele>2453.0</ele><time>2024-05-15T19:32:47Z</time></trkpt>
<trkpt lat="34.329709" lon="-117.628193"><ele>2453.8</ele><time>2024-05-15T19:32:52Z</time></trkpt>
<trkpt lat="34.329647" lon="-117.627904"><ele>2454.4</ele><time>2024-05-15T19:33:02Z</time></trkpt>
<trkpt lat="34.329714" lon="-117.627171"><ele>2457.0</ele><time>2024-05-15T19:33:24Z</time></trkpt>
<trkpt lat="34.329859" lon="-117.626559"><ele>2465.0</ele><time>2024-05-15T19:34:48Z</time></trkpt>
<trkpt lat="34.329731" lon="-117.626240"><ele>2466.8</ele><time>2024-05-15T19:35:01Z</time></trkpt>
<trkpt lat="34.329742" lon="-117.625508"><ele>2471.6</ele><time>2024-05-15T19:36:46Z</time></trkpt>
<trkpt lat="34.329547" lon="-117.625467"><ele>2472.0</ele><time>2024-05-15T19:36:51Z</time></trkpt>
<trkpt lat="34.329572" lon="-117.625315"><ele>2472.4</ele><time>2024-05-15T19:37:02Z</time></trkpt>
<trkpt lat="34.329740" lon="-117.625231"><ele>2480.0</ele><time>2024-05-15T19:38:30Z</time></trkpt>
<trkpt lat="34.329905" lon="-117.625384"><ele>2480.8</ele><time>2024-05-15T19:38:55Z</time></trkpt>
<trkpt lat="34.330516" lon="-117.626094"><ele>2487.8</ele><time>2024-05-15T19:40:22Z</time></trkpt>
<trkpt lat="34.330795" lon="-117.626572"><ele>2491.2</ele><time>2024-05-15T19:40:57Z</time></trkpt>
<trkpt lat="34.330834" lon="-117.627399"><ele>2495.8</ele><time>2024-05-15T19:42:43Z</time></trkpt>
<trkpt lat="34.331000" lon="-117.627493"><ele>2497.0</ele><time>2024-05-15T19:42:50Z</time></trkpt>
<trkpt lat="34.330938" lon="-117.627408"><ele>2497.0</ele><time>2024-05-15T19:42:52Z</time></trkpt>
<trkpt lat="34.330908" lon="-117.628762"><ele>2504.2</ele><time>2024-05-15T19:44:49Z</time></trkpt>
<trkpt lat="34.330929" lon="-117.628707"><ele>2504.8</ele><time>2024-05-15T19:44:54Z</time></trkpt>
<trkpt lat="34.330855" lon="-117.628778"><ele>2506.0</ele><time>2024-05-15T19:46:46Z</time></trkpt>
<trkpt lat="34.330869" lon="-117.628882"><ele>2506.8</ele><time>2024-05-15T19:47:03Z</time></trkpt>
<trkpt lat="34.331246" lon="-117.629744"><ele>2513.2</ele><time>2024-05-15T19:48:45Z</time></trkpt>
<trkpt lat="34.331184" lon="-117.630270"><ele>2518.0</ele><time>2024-05-15T19:49:40Z</time></trkpt>
<trkpt lat="34.331219" lon="-117.630397"><ele>2518.8</ele><time>2024-05-15T19:49:52Z</time></trkpt>
<trkpt lat="34.331010" lon="-117.630910"><ele>2523.2</ele><time>2024-05-15T19:50:44Z</time></trkpt>
<trkpt lat="34.330883" lon="-117.631040"><ele>2523.6</ele><time>2024-05-15T19:50:52Z</time></trkpt>
<trkpt lat="34.330885" lon="-117.631302"><ele>2524.8</ele><time>2024-05-15T19:50:57Z</time></trkpt>
<trkpt lat="34.330797" lon="-117.631410"><ele>2525.6</ele><time>2024-05-15T19:51:04Z</time></trkpt>
<trkpt lat="34.330839" lon="-117.631537"><ele>2526.6</ele><time>2024-05-15T19:51:20Z</time></trkpt>
<trkpt lat="34.331227" lon="-117.631903"><ele>2527.8</ele><time>2024-05-15T19:52:16Z</time></trkpt>
<trkpt lat="34.331367" lon="-117.632181"><ele>2529.2</ele><time>2024-05-15T19:52:47Z</time></trkpt>
<trkpt lat="34.331219" lon="-117.632227"><ele>2530.2</ele><time>2024-05-15T19:52:55Z</time></trkpt>
<trkpt lat="34.331218" lon="-117.632324"><ele>2530.4</ele><time>2024-05-15T19:52:59Z</time></trkpt>
<trkpt lat="34.330859" lon="-117.632937"><ele>2532.2</ele><time>2024-05-15T19:54:22Z</time></trkpt>
<trkpt lat="34.330832" lon="-117.633190"><ele>2532.8</ele><time>2024-05-15T19:54:45Z</time></trkpt>
<trkpt lat="34.330908" lon="-117.633396"><ele>2533.4</ele><time>2024-05-15T19:55:00Z</time></trkpt>
<trkpt lat="34.330805" lon="-117.634168"><ele>2537.2</ele><time>2024-05-15T19:55:42Z</time></trkpt>
<trkpt lat="34.330578" lon="-117.634611"><ele>2542.0</ele><time>2024-05-15T19:56:45Z</time></trkpt>
<trkpt lat="34.330632" lon="-117.634665"><ele>2542.2</ele><time>2024-05-15T19:56:46Z</time></trkpt>
<trkpt lat="34.330541" lon="-117.634867"><ele>2543.6</ele><time>2024-05-15T19:56:57Z</time></trkpt>
<trkpt lat="34.330168" lon="-117.635257"><ele>2545.6</ele><time>2024-05-15T19:57:46Z</time></trkpt>
<trkpt lat="34.329920" lon="-117.635408"><ele>2545.0</ele><time>2024-05-15T19:58:20Z</time></trkpt>
<trkpt lat="34.329816" lon="-117.635615"><ele>2545.2</ele><time>2024-05-15T19:58:45Z</time></trkpt>
<trkpt lat="34.329796" lon="-117.635856"><ele>2546.6</ele><time>2024-05-15T19:59:03Z</time></trkpt>
<trkpt lat="34.329945" lon="-117.636410"><ele>2549.0</ele><time>2024-05-15T20:00:20Z</time></trkpt>
<trkpt lat="34.330043" lon="-117.636524"><ele>2549.8</ele><time>2024-05-15T20:00:44Z</time></trkpt>
<trkpt lat="34.330085" lon="-117.636446"><ele>2549.8</ele><time>2024-05-15T20:00:46Z</time></trkpt>
<trkpt lat="34.330259" lon="-117.636537"><ele>2550.2</ele><time>2024-05-15T20:01:03Z</time></trkpt>
<trkpt lat="34.330332" lon="-117.636926"><ele>2551.4</ele><time>2024-05-15T20:02:40Z</time></trkpt>
<trkpt lat="34.330454" lon="-117.636963"><ele>2550.8</ele><time>2024-05-15T20:02:49Z</time></trkpt>
<trkpt lat="34.330540" lon="-117.637077"><ele>2550.8</ele><time>2024-05-15T20:02:51Z</time></trkpt>
<trkpt lat="34.330458" lon="-117.637088"><ele>2550.0</ele><time>2024-05-15T20:03:03Z</time></trkpt>
<trkpt lat="34.331035" lon="-117.636835"><ele>2549.2</ele><time>2024-05-15T20:04:36Z</time></trkpt>
<trkpt lat="34.331169" lon="-117.636598"><ele>2548.0</ele><time>2024-05-15T20:04:49Z</time></trkpt>
<trkpt lat="34.331310" lon="-117.636506"><ele>2547.2</ele><time>2024-05-15T20:05:02Z</time></trkpt>
<trkpt lat="34.332216" lon="-117.636522"><ele>2546.2</ele><time>2024-05-15T20:06:49Z</time></trkpt>
<trkpt lat="34.332244" lon="-117.636823"><ele>2544.6</ele><time>2024-05-15T20:07:01Z</time></trkpt>
<trkpt lat="34.332114" lon="-117.637816"><ele>2541.4</ele><time>2024-05-15T20:08:05Z</time></trkpt>
<trkpt lat="34.332261" lon="-117.638321"><ele>2541.0</ele><time>2024-05-15T20:08:48Z</time></trkpt>
<trkpt lat="34.332326" lon="-117.638334"><ele>2540.8</ele><time>2024-05-15T20:08:53Z</time></trkpt>
<trkpt lat="34.332183" lon="-117.639055"><ele>2536.8</ele><time>2024-05-15T20:09:51Z</time></trkpt>
<trkpt lat="34.332205" lon="-117.639239"><ele>2536.8</ele><time>2024-05-15T20:10:05Z</time></trkpt>
<trkpt lat="34.332522" lon="-117.640048"><ele>2534.0</ele><time>2024-05-15T20:11:02Z</time></trkpt>
<trkpt lat="34.332701" lon="-117.640081"><ele>2534.6</ele><time>2024-05-15T20:11:28Z</time></trkpt>
<trkpt lat="34.333108" lon="-117.639851"><ele>2533.8</ele><time>2024-05-15T20:12:50Z</time></trkpt>
<trkpt lat="34.333165" lon="-117.639880"><ele>2533.8</ele><time>2024-05-15T20:12:51Z</time></trkpt>
<trkpt lat="34.333189" lon="-117.639811"><ele>2534.2</ele><time>2024-05-15T20:12:56Z</time></trkpt>
<trkpt lat="34.333284" lon="-117.639833"><ele>2535.0</ele><time>2024-05-15T20:13:01Z</time></trkpt>
<trkpt lat="34.334634" lon="-117.639417"><ele>2535.6</ele><time>2024-05-15T20:14:55Z</time></trkpt>
<trkpt lat="34.335465" lon="-117.639125"><ele>2529.0</ele><time>2024-05-15T20:16:30Z</time></trkpt>
<trkpt lat="34.335604" lon="-117.639009"><ele>2529.8</ele><time>2024-05-15T20:16:53Z</time></trkpt>
<trkpt lat="34.335633" lon="-117.639107"><ele>2528.8</ele><time>2024-05-15T20:16:59Z</time></trkpt>
<trkpt lat="34.336036" lon="-117.638999"><ele>2519.4</ele><time>2024-05-15T20:18:44Z</time></trkpt>
<trkpt lat="34.336272" lon="-117.639109"><ele>2518.0</ele><time>2024-05-15T20:18:55Z</time></trkpt>
<trkpt lat="34.336403" lon="-117.639518"><ele>2519.0</ele><time>2024-05-15T20:20:04Z</time></trkpt>
<trkpt lat="34.336905" lon="-117.639852"><ele>2519.2</ele><time>2024-05-15T20:20:45Z</time></trkpt>
<trkpt lat="34.336843" lon="-117.639862"><ele>2518.8</ele><time>2024-05-15T20:20:47Z</time></trkpt>
<trkpt lat="34.336753" lon="-117.639644"><ele>2517.8</ele><time>2024-05-15T20:20:52Z</time></trkpt>
<trkpt lat="34.337109" lon="-117.640914"><ele>2517.4</ele><time>2024-05-15T20:23:03Z</time></trkpt>
<trkpt lat="34.336810" lon="-117.641282"><ele>2522.0</ele><time>2024-05-15T20:23:56Z</time></trkpt>
<trkpt lat="34.336456" lon="-117.641622"><ele>2517.6</ele><time>2024-05-15T20:24:38Z</time></trkpt>
<trkpt lat="34.336413" lon="-117.641732"><ele>2516.8</ele><time>2024-05-15T20:24:48Z</time></trkpt>
<trkpt lat="34.336598" lon="-117.641964"><ele>2516.8</ele><time>2024-05-15T20:24:52Z</time></trkpt>
<trkpt lat="34.336611" lon="-117.641915"><ele>2516.8</ele><time>2024-05-15T20:25:01Z</time></trkpt>
<trkpt lat="34.336783" lon="-117.641954"><ele>2516.8</ele><time>2024-05-15T20:26:45Z</time></trkpt>
<trkpt lat="34.336667" lon="-117.641830"><ele>2517.0</ele><time>2024-05-15T20:27:30Z</time></trkpt>
<trkpt lat="34.336712" lon="-117.641823"><ele>2517.6</ele><time>2024-05-15T20:28:56Z</time></trkpt>
<trkpt lat="34.336641" lon="-117.642075"><ele>2518.8</ele><time>2024-05-15T20:31:21Z</time></trkpt>
<trkpt lat="34.336560" lon="-117.642146"><ele>2518.4</ele><time>2024-05-15T20:31:33Z</time></trkpt>
<trkpt lat="34.336491" lon="-117.643787"><ele>2519.8</ele><time>2024-05-15T20:33:36Z</time></trkpt>
<trkpt lat="34.336571" lon="-117.644120"><ele>2519.0</ele><time>2024-05-15T20:33:44Z</time></trkpt>
<trkpt lat="34.336612" lon="-117.644813"><ele>2514.6</ele><time>2024-05-15T20:34:24Z</time></trkpt>
<trkpt lat="34.336866" lon="-117.645527"><ele>2504.8</ele><time>2024-05-15T20:35:48Z</time></trkpt>
<trkpt lat="34.337184" lon="-117.645731"><ele>2499.4</ele><time>2024-05-15T20:36:17Z</time></trkpt>
<trkpt lat="34.337794" lon="-117.646450"><ele>2487.4</ele><time>2024-05-15T20:37:25Z</time></trkpt>
<trkpt lat="34.337859" lon="-117.646869"><ele>2485.4</ele><time>2024-05-15T20:38:05Z</time></trkpt>
<trkpt lat="34.338221" lon="-117.647569"><ele>2485.0</ele><time>2024-05-15T20:38:51Z</time></trkpt>
<trkpt lat="34.338004" lon="-117.648478"><ele>2485.4</ele><time>2024-05-15T20:39:49Z</time></trkpt>
<trkpt lat="34.338201" lon="-117.648901"><ele>2479.2</ele><time>2024-05-15T20:40:12Z</time></trkpt>
<trkpt lat="34.338477" lon="-117.649189"><ele>2475.6</ele><time>2024-05-15T20:40:32Z</time></trkpt>
<trkpt lat="34.338562" lon="-117.649852"><ele>2477.8</ele><time>2024-05-15T20:41:48Z</time></trkpt>
<trkpt lat="34.338669" lon="-117.649829"><ele>2477.6</ele><time>2024-05-15T20:41:53Z</time></trkpt>
<trkpt lat="34.338802" lon="-117.650583"><ele>2477.6</ele><time>2024-05-15T20:43:48Z</time></trkpt>
<trkpt lat="34.338725" lon="-117.650442"><ele>2477.0</ele><time>2024-05-15T20:44:03Z</time></trkpt>
<trkpt lat="34.338811" lon="-117.651122"><ele>2480.8</ele><time>2024-05-15T20:46:01Z</time></trkpt>
<trkpt lat="34.339008" lon="-117.651035"><ele>2484.0</ele><time>2024-05-15T20:47:59Z</time></trkpt>
<trkpt lat="34.339218" lon="-117.651899"><ele>2478.6</ele><time>2024-05-15T20:49:26Z</time></trkpt>
<trkpt lat="34.339464" lon="-117.652170"><ele>2475.0</ele><time>2024-05-15T20:49:46Z</time></trkpt>
<trkpt lat="34.339599" lon="-117.652191"><ele>2472.4</ele><time>2024-05-15T20:49:58Z</time></trkpt>
<trkpt lat="34.340070" lon="-117.652730"><ele>2468.0</ele><time>2024-05-15T20:50:34Z</time></trkpt>
<trkpt lat="34.340424" lon="-117.653131"><ele>2476.0</ele><time>2024-05-15T20:51:46Z</time></trkpt>
<trkpt lat="34.340476" lon="-117.653113"><ele>2476.8</ele><time>2024-05-15T20:51:53Z</time></trkpt>
<trkpt lat="34.340497" lon="-117.653235"><ele>2477.2</ele><time>2024-05-15T20:51:58Z</time></trkpt>
<trkpt lat="34.340852" lon="-117.653471"><ele>2481.8</ele><time>2024-05-15T20:53:46Z</time></trkpt>
<trkpt lat="34.340897" lon="-117.653617"><ele>2482.4</ele><time>2024-05-15T20:53:49Z</time></trkpt>
<trkpt lat="34.341565" lon="-117.654291"><ele>2503.4</ele><time>2024-05-15T20:55:47Z</time></trkpt>
<trkpt lat="34.341527" lon="-117.654484"><ele>2507.2</ele><time>2024-05-15T20:56:04Z</time></trkpt>
<trkpt lat="34.341570" lon="-117.655582"><ele>2518.8</ele><time>2024-05-15T20:57:55Z</time></trkpt>
<trkpt lat="34.341645" lon="-117.655595"><ele>2521.4</ele><time>2024-05-15T20:58:21Z</time></trkpt>
<trkpt lat="34.341988" lon="-117.656236"><ele>2520.0</ele><time>2024-05-15T21:01:32Z</time></trkpt>
<trkpt lat="34.342429" lon="-117.657415"><ele>2528.8</ele><time>2024-05-15T21:03:43Z</time></trkpt>
<trkpt lat="34.342589" lon="-117.657315"><ele>2528.8</ele><time>2024-05-15T21:03:51Z</time></trkpt>
<trkpt lat="34.343243" lon="-117.657928"><ele>2530.8</ele><time>2024-05-15T21:05:57Z</time></trkpt>
<trkpt lat="34.343429" lon="-117.658444"><ele>2532.2</ele><time>2024-05-15T21:06:28Z</time></trkpt>
<trkpt lat="34.343618" lon="-117.659308"><ele>2534.8</ele><time>2024-05-15T21:07:44Z</time></trkpt>
<trkpt lat="34.343714" lon="-117.659389"><ele>2534.0</ele><time>2024-05-15T21:07:48Z</time></trkpt>
<trkpt lat="34.343764" lon="-117.659639"><ele>2533.0</ele><time>2024-05-15T21:08:03Z</time></trkpt>
<trkpt lat="34.343790" lon="-117.659937"><ele>2535.0</ele><time>2024-05-15T21:08:18Z</time></trkpt>
<trkpt lat="34.343722" lon="-117.660284"><ele>2540.2</ele><time>2024-05-15T21:08:54Z</time></trkpt>
<trkpt lat="34.343813" lon="-117.660580"><ele>2541.0</ele><time>2024-05-15T21:09:20Z</time></trkpt>
<trkpt lat="34.343803" lon="-117.661382"><ele>2545.8</ele><time>2024-05-15T21:10:10Z</time></trkpt>
<trkpt lat="34.343946" lon="-117.662033"><ele>2556.6</ele><time>2024-05-15T21:11:43Z</time></trkpt>
<trkpt lat="34.343883" lon="-117.662175"><ele>2557.2</ele><time>2024-05-15T21:12:03Z</time></trkpt>
<trkpt lat="34.344098" lon="-117.662870"><ele>2560.0</ele><time>2024-05-15T21:13:49Z</time></trkpt>
<trkpt lat="34.344160" lon="-117.663295"><ele>2562.2</ele><time>2024-05-15T21:14:33Z</time></trkpt>
<trkpt lat="34.344470" lon="-117.663673"><ele>2559.0</ele><time>2024-05-15T21:15:59Z</time></trkpt>
<trkpt lat="34.344558" lon="-117.663938"><ele>2561.0</ele><time>2024-05-15T21:16:50Z</time></trkpt>
<trkpt lat="34.344885" lon="-117.664564"><ele>2557.2</ele><time>2024-05-15T21:17:52Z</time></trkpt>
<trkpt lat="34.344993" lon="-117.664872"><ele>2558.8</ele><time>2024-05-15T21:19:12Z</time></trkpt>
<trkpt lat="34.344953" lon="-117.664912"><ele>2559.0</ele><time>2024-05-15T21:19:57Z</time></trkpt>
<trkpt lat="34.345009" lon="-117.665105"><ele>2560.0</ele><time>2024-05-15T21:21:47Z</time></trkpt>
<trkpt lat="34.345085" lon="-117.665060"><ele>2560.2</ele><time>2024-05-15T21:21:52Z</time></trkpt>
<trkpt lat="34.345526" lon="-117.665144"><ele>2561.0</ele><time>2024-05-15T21:22:38Z</time></trkpt>
<trkpt lat="34.345696" lon="-117.665040"><ele>2561.0</ele><time>2024-05-15T21:23:08Z</time></trkpt>
<trkpt lat="34.346297" lon="-117.664912"><ele>2563.6</ele><time>2024-05-15T21:23:53Z</time></trkpt>
<trkpt lat="34.347274" lon="-117.665498"><ele>2571.2</ele><time>2024-05-15T21:25:46Z</time></trkpt>
<trkpt lat="34.347225" lon="-117.665486"><ele>2571.4</ele><time>2024-05-15T21:25:48Z</time></trkpt>
<trkpt lat="34.347249" lon="-117.665638"><ele>2572.2</ele><time>2024-05-15T21:26:01Z</time></trkpt>
<trkpt lat="34.347577" lon="-117.665973"><ele>2576.8</ele><time>2024-05-15T21:26:56Z</time></trkpt>
<trkpt lat="34.347722" lon="-117.666606"><ele>2579.2</ele><time>2024-05-15T21:27:44Z</time></trkpt>
<trkpt lat="34.347686" lon="-117.666507"><ele>2579.2</ele><time>2024-05-15T21:27:45Z</time></trkpt>
<trkpt lat="34.347528" lon="-117.666695"><ele>2577.8</ele><time>2024-05-15T21:28:03Z</time></trkpt>
<trkpt lat="34.347502" lon="-117.667959"><ele>2582.0</ele><time>2024-05-15T21:29:49Z</time></trkpt>
<trkpt lat="34.347449" lon="-117.667901"><ele>2582.6</ele><time>2024-05-15T21:29:52Z</time></trkpt>
<trkpt lat="34.347513" lon="-117.667951"><ele>2583.0</ele><time>2024-05-15T21:29:55Z</time></trkpt>
<trkpt lat="34.347656" lon="-117.668723"><ele>2579.8</ele><time>2024-05-15T21:30:40Z</time></trkpt>
<trkpt lat="34.347810" lon="-117.669152"><ele>2576.8</ele><time>2024-05-15T21:31:48Z</time></trkpt>
<trkpt lat="34.347886" lon="-117.669215"><ele>2576.6</ele><time>2024-05-15T21:32:01Z</time></trkpt>
<trkpt lat="34.348047" lon="-117.670231"><ele>2579.6</ele><time>2024-05-15T21:33:43Z</time></trkpt>
<trkpt lat="34.347991" lon="-117.670215"><ele>2579.4</ele><time>2024-05-15T21:33:46Z</time></trkpt>
<trkpt lat="34.348029" lon="-117.670147"><ele>2579.0</ele><time>2024-05-15T21:33:55Z</time></trkpt>
<trkpt lat="34.348213" lon="-117.670267"><ele>2578.0</ele><time>2024-05-15T21:34:12Z</time></trkpt>
<trkpt lat="34.348765" lon="-117.671276"><ele>2574.6</ele><time>2024-05-15T21:35:52Z</time></trkpt>
<trkpt lat="34.350088" lon="-117.671787"><ele>2572.6</ele><time>2024-05-15T21:37:50Z</time></trkpt>
<trkpt lat="34.350143" lon="-117.671950"><ele>2571.2</ele><time>2024-05-15T21:38:01Z</time></trkpt>
<trkpt lat="34.350854" lon="-117.672823"><ele>2568.4</ele><time>2024-05-15T21:39:53Z</time></trkpt>
<trkpt lat="34.351210" lon="-117.672876"><ele>2567.6</ele><time>2024-05-15T21:40:23Z</time></trkpt>
<trkpt lat="34.351466" lon="-117.673073"><ele>2563.4</ele><time>2024-05-15T21:41:05Z</time></trkpt>
<trkpt lat="34.351567" lon="-117.673248"><ele>2561.2</ele><time>2024-05-15T21:41:21Z</time></trkpt>
<trkpt lat="34.351843" lon="-117.673196"><ele>2558.4</ele><time>2024-05-15T21:41:47Z</time></trkpt>
<trkpt lat="34.352326" lon="-117.672816"><ele>2551.2</ele><time>2024-05-15T21:42:25Z</time></trkpt>
<trkpt lat="34.352666" lon="-117.672918"><ele>2548.0</ele><time>2024-05-15T21:42:49Z</time></trkpt>
<trkpt lat="34.353040" lon="-117.673323"><ele>2544.6</ele><time>2024-05-15T21:43:59Z</time></trkpt>
<trkpt lat="34.353598" lon="-117.673468"><ele>2542.4</ele><time>2024-05-15T21:44:46Z</time></trkpt>
<trkpt lat="34.354275" lon="-117.673551"><ele>2534.6</ele><time>2024-05-15T21:45:52Z</time></trkpt>
<trkpt lat="34.354360" lon="-117.673622"><ele>2534.2</ele><time>2024-05-15T21:45:56Z</time></trkpt>
<trkpt lat="34.354386" lon="-117.674026"><ele>2530.4</ele><time>2024-05-15T21:46:36Z</time></trkpt>
<trkpt lat="34.354505" lon="-117.674327"><ele>2526.8</ele><time>2024-05-15T21:47:10Z</time></trkpt>
<trkpt lat="34.354318" lon="-117.674685"><ele>2524.8</ele><time>2024-05-15T21:47:36Z</time></trkpt>
<trkpt lat="34.354279" lon="-117.674930"><ele>2523.2</ele><time>2024-05-15T21:47:49Z</time></trkpt>
<trkpt lat="34.354105" lon="-117.675027"><ele>2522.6</ele><time>2024-05-15T21:48:01Z</time></trkpt>
<trkpt lat="34.354223" lon="-117.675442"><ele>2519.8</ele><time>2024-05-15T21:48:34Z</time></trkpt>
<trkpt lat="34.354676" lon="-117.676511"><ele>2510.8</ele><time>2024-05-15T21:51:52Z</time></trkpt>
<trkpt lat="34.354565" lon="-117.676580"><ele>2510.2</ele><time>2024-05-15T21:52:01Z</time></trkpt>
<trkpt lat="34.355139" lon="-117.677255"><ele>2506.8</ele><time>2024-05-15T21:53:44Z</time></trkpt>
<trkpt lat="34.355228" lon="-117.677523"><ele>2506.0</ele><time>2024-05-15T21:54:01Z</time></trkpt>
<trkpt lat="34.355394" lon="-117.678147"><ele>2503.2</ele><time>2024-05-15T21:54:47Z</time></trkpt>
<trkpt lat="34.355419" lon="-117.678852"><ele>2501.6</ele><time>2024-05-15T21:55:46Z</time></trkpt>
<trkpt lat="34.355288" lon="-117.679008"><ele>2500.0</ele><time>2024-05-15T21:55:58Z</time></trkpt>
<trkpt lat="34.355372" lon="-117.679536"><ele>2494.6</ele><time>2024-05-15T21:56:40Z</time></trkpt>
<trkpt lat="34.355643" lon="-117.679821"><ele>2494.0</ele><time>2024-05-15T21:57:18Z</time></trkpt>
<trkpt lat="34.355989" lon="-117.680652"><ele>2484.6</ele><time>2024-05-15T21:58:22Z</time></trkpt>
<trkpt lat="34.356314" lon="-117.681083"><ele>2479.0</ele><time>2024-05-15T21:59:34Z</time></trkpt>
<trkpt lat="34.356089" lon="-117.681003"><ele>2482.4</ele><time>2024-05-15T22:00:02Z</time></trkpt>
<trkpt lat="34.355860" lon="-117.681051"><ele>2485.6</ele><time>2024-05-15T22:00:18Z</time></trkpt>
<trkpt lat="34.355766" lon="-117.681110"><ele>2490.4</ele><time>2024-05-15T22:00:46Z</time></trkpt>
<trkpt lat="34.355566" lon="-117.681397"><ele>2487.4</ele><time>2024-05-15T22:01:26Z</time></trkpt>
<trkpt lat="34.355342" lon="-117.681535"><ele>2487.6</ele><time>2024-05-15T22:01:43Z</time></trkpt>
<trkpt lat="34.355186" lon="-117.681336"><ele>2487.4</ele><time>2024-05-15T22:01:48Z</time></trkpt>
<trkpt lat="34.355349" lon="-117.681427"><ele>2486.8</ele><time>2024-05-15T22:01:58Z</time></trkpt>
<trkpt lat="34.355305" lon="-117.681404"><ele>2486.6</ele><time>2024-05-15T22:02:03Z</time></trkpt>
<trkpt lat="34.355828" lon="-117.682271"><ele>2480.0</ele><time>2024-05-15T22:03:43Z</time></trkpt>
<trkpt lat="34.355895" lon="-117.682528"><ele>2479.4</ele><time>2024-05-15T22:04:00Z</time></trkpt>
<trkpt lat="34.356721" lon="-117.683611"><ele>2489.4</ele><time>2024-05-15T22:05:49Z</time></trkpt>
<trkpt lat="34.356898" lon="-117.683753"><ele>2487.8</ele><time>2024-05-15T22:06:04Z</time></trkpt>
<trkpt lat="34.357084" lon="-117.683675"><ele>2485.8</ele><time>2024-05-15T22:06:24Z</time></trkpt>
<trkpt lat="34.356930" lon="-117.683849"><ele>2485.0</ele><time>2024-05-15T22:07:49Z</time></trkpt>
<trkpt lat="34.356984" lon="-117.683905"><ele>2484.2</ele><time>2024-05-15T22:09:48Z</time></trkpt>
<trkpt lat="34.356894" lon="-117.683836"><ele>2484.0</ele><time>2024-05-15T22:09:53Z</time></trkpt>
<trkpt lat="34.356949" lon="-117.683815"><ele>2484.0</ele><time>2024-05-15T22:10:00Z</time></trkpt>
<trkpt lat="34.357036" lon="-117.684014"><ele>2485.4</ele><time>2024-05-15T22:11:44Z</time></trkpt>
<trkpt lat="34.357547" lon="-117.684778"><ele>2472.4</ele><time>2024-05-15T22:13:20Z</time></trkpt>
<trkpt lat="34.357836" lon="-117.685029"><ele>2467.6</ele><time>2024-05-15T22:13:45Z</time></trkpt>
<trkpt lat="34.358071" lon="-117.685131"><ele>2463.4</ele><time>2024-05-15T22:14:06Z</time></trkpt>
<trkpt lat="34.359176" lon="-117.685296"><ele>2447.8</ele><time>2024-05-15T22:15:46Z</time></trkpt>
<trkpt lat="34.359114" lon="-117.685464"><ele>2444.8</ele><time>2024-05-15T22:15:59Z</time></trkpt>
<trkpt lat="34.359345" lon="-117.685543"><ele>2440.0</ele><time>2024-05-15T22:16:56Z</time></trkpt>
<trkpt lat="34.359567" lon="-117.685866"><ele>2434.2</ele><time>2024-05-15T22:17:30Z</time></trkpt>
<trkpt lat="34.359530" lon="-117.686064"><ele>2431.2</ele><time>2024-05-15T22:17:45Z</time></trkpt>
<trkpt lat="34.359320" lon="-117.686134"><ele>2430.6</ele><time>2024-05-15T22:17:55Z</time></trkpt>
<trkpt lat="34.359395" lon="-117.686288"><ele>2428.8</ele><time>2024-05-15T22:18:04Z</time></trkpt>
<trkpt lat="34.359629" lon="-117.686460"><ele>2425.4</ele><time>2024-05-15T22:18:26Z</time></trkpt>
<trkpt lat="34.359973" lon="-117.686553"><ele>2420.2</ele><time>2024-05-15T22:18:54Z</time></trkpt>
<trkpt lat="34.360089" lon="-117.686402"><ele>2421.0</ele><time>2024-05-15T22:19:51Z</time></trkpt>
<trkpt lat="34.360062" lon="-117.686335"><ele>2421.4</ele><time>2024-05-15T22:19:57Z</time></trkpt>
<trkpt lat="34.359624" lon="-117.686386"><ele>2425.4</ele><time>2024-05-15T22:20:44Z</time></trkpt>
<trkpt lat="34.359397" lon="-117.686746"><ele>2423.0</ele><time>2024-05-15T22:21:30Z</time></trkpt>
<trkpt lat="34.359111" lon="-117.686994"><ele>2421.4</ele><time>2024-05-15T22:21:46Z</time></trkpt>
<trkpt lat="34.359305" lon="-117.687330"><ele>2417.6</ele><time>2024-05-15T22:22:03Z</time></trkpt>
<trkpt lat="34.359258" lon="-117.687275"><ele>2417.4</ele><time>2024-05-15T22:22:04Z</time></trkpt>
<trkpt lat="34.359664" lon="-117.687706"><ele>2413.6</ele><time>2024-05-15T22:22:33Z</time></trkpt>
<trkpt lat="34.359779" lon="-117.688059"><ele>2411.0</ele><time>2024-05-15T22:23:03Z</time></trkpt>
<trkpt lat="34.360144" lon="-117.688441"><ele>2407.0</ele><time>2024-05-15T22:23:46Z</time></trkpt>
<trkpt lat="34.360155" lon="-117.688546"><ele>2406.8</ele><time>2024-05-15T22:23:54Z</time></trkpt>
<trkpt lat="34.360992" lon="-117.689280"><ele>2413.2</ele><time>2024-05-15T22:25:34Z</time></trkpt>
<trkpt lat="34.361270" lon="-117.689286"><ele>2416.4</ele><time>2024-05-15T22:25:53Z</time></trkpt>
<trkpt lat="34.361814" lon="-117.689120"><ele>2423.0</ele><time>2024-05-15T22:26:42Z</time></trkpt>
<trkpt lat="34.362389" lon="-117.689417"><ele>2430.6</ele><time>2024-05-15T22:27:50Z</time></trkpt>
<trkpt lat="34.363181" lon="-117.690035"><ele>2431.8</ele><time>2024-05-15T22:29:34Z</time></trkpt>
<trkpt lat="34.363417" lon="-117.690169"><ele>2430.8</ele><time>2024-05-15T22:29:44Z</time></trkpt>
<trkpt lat="34.363551" lon="-117.690159"><ele>2429.8</ele><time>2024-05-15T22:29:50Z</time></trkpt>
<trkpt lat="34.363520" lon="-117.690203"><ele>2429.4</ele><time>2024-05-15T22:29:53Z</time></trkpt>
<trkpt lat="34.363610" lon="-117.690283"><ele>2427.6</ele><time>2024-05-15T22:30:04Z</time></trkpt>
<trkpt lat="34.364151" lon="-117.690551"><ele>2422.2</ele><time>2024-05-15T22:30:52Z</time></trkpt>
<trkpt lat="34.364797" lon="-117.690428"><ele>2413.6</ele><time>2024-05-15T22:31:46Z</time></trkpt>
<trkpt lat="34.364702" lon="-117.690570"><ele>2411.6</ele><time>2024-05-15T22:31:57Z</time></trkpt>
<trkpt lat="34.364662" lon="-117.690990"><ele>2408.2</ele><time>2024-05-15T22:32:24Z</time></trkpt>
<trkpt lat="34.364927" lon="-117.691751"><ele>2399.8</ele><time>2024-05-15T22:33:12Z</time></trkpt>
<trkpt lat="34.365163" lon="-117.691928"><ele>2398.8</ele><time>2024-05-15T22:33:32Z</time></trkpt>
<trkpt lat="34.365254" lon="-117.691862"><ele>2399.6</ele><time>2024-05-15T22:33:44Z</time></trkpt>
<trkpt lat="34.365335" lon="-117.691993"><ele>2400.8</ele><time>2024-05-15T22:33:53Z</time></trkpt>
<trkpt lat="34.365927" lon="-117.692401"><ele>2411.0</ele><time>2024-05-15T22:35:28Z</time></trkpt>
<trkpt lat="34.366133" lon="-117.692930"><ele>2403.8</ele><time>2024-05-15T22:36:12Z</time></trkpt>
<trkpt lat="34.366424" lon="-117.693360"><ele>2398.4</ele><time>2024-05-15T22:36:44Z</time></trkpt>
<trkpt lat="34.366570" lon="-117.693913"><ele>2385.8</ele><time>2024-05-15T22:37:50Z</time></trkpt>
<trkpt lat="34.366490" lon="-117.694033"><ele>2383.4</ele><time>2024-05-15T22:38:00Z</time></trkpt>
<trkpt lat="34.366630" lon="-117.694516"><ele>2377.8</ele><time>2024-05-15T22:38:29Z</time></trkpt>
<trkpt lat="34.366711" lon="-117.694800"><ele>2364.2</ele><time>2024-05-15T22:39:47Z</time></trkpt>
<trkpt lat="34.366775" lon="-117.694763"><ele>2363.8</ele><time>2024-05-15T22:39:49Z</time></trkpt>
<trkpt lat="34.367210" lon="-117.695508"><ele>2346.6</ele><time>2024-05-15T22:41:47Z</time></trkpt>
<trkpt lat="34.367240" lon="-117.695440"><ele>2346.0</ele><time>2024-05-15T22:41:54Z</time></trkpt>
<trkpt lat="34.367338" lon="-117.695556"><ele>2345.4</ele><time>2024-05-15T22:42:04Z</time></trkpt>
<trkpt lat="34.367753" lon="-117.695998"><ele>2359.2</ele><time>2024-05-15T22:43:36Z</time></trkpt>
<trkpt lat="34.367850" lon="-117.696111"><ele>2359.4</ele><time>2024-05-15T22:43:46Z</time></trkpt>
<trkpt lat="34.367794" lon="-117.696094"><ele>2360.0</ele><time>2024-05-15T22:43:48Z</time></trkpt>
<trkpt lat="34.367765" lon="-117.696194"><ele>2359.8</ele><time>2024-05-15T22:43:55Z</time></trkpt>
<trkpt lat="34.367726" lon="-117.696105"><ele>2359.6</ele><time>2024-05-15T22:44:00Z</time></trkpt>
<trkpt lat="34.368092" lon="-117.696532"><ele>2365.4</ele><time>2024-05-15T22:45:44Z</time></trkpt>
<trkpt lat="34.368068" lon="-117.696606"><ele>2366.0</ele><time>2024-05-15T22:45:47Z</time></trkpt>
<trkpt lat="34.368198" lon="-117.697028"><ele>2374.6</ele><time>2024-05-15T22:46:56Z</time></trkpt>
<trkpt lat="34.368296" lon="-117.697366"><ele>2370.8</ele><time>2024-05-15T22:47:28Z</time></trkpt>
<trkpt lat="34.368339" lon="-117.697817"><ele>2369.2</ele><time>2024-05-15T22:47:45Z</time></trkpt>
<trkpt lat="34.368406" lon="-117.697716"><ele>2368.8</ele><time>2024-05-15T22:47:49Z</time></trkpt>
<trkpt lat="34.368271" lon="-117.697784"><ele>2367.8</ele><time>2024-05-15T22:47:59Z</time></trkpt>
<trkpt lat="34.368729" lon="-117.698037"><ele>2366.0</ele><time>2024-05-15T22:49:38Z</time></trkpt>
<trkpt lat="34.368469" lon="-117.697991"><ele>2365.6</ele><time>2024-05-15T22:49:53Z</time></trkpt>
<trkpt lat="34.368530" lon="-117.697992"><ele>2365.4</ele><time>2024-05-15T22:49:55Z</time></trkpt>
<trkpt lat="34.368470" lon="-117.697945"><ele>2365.2</ele><time>2024-05-15T22:50:00Z</time></trkpt>
<trkpt lat="34.368505" lon="-117.698351"><ele>2363.0</ele><time>2024-05-15T22:51:06Z</time></trkpt>
<trkpt lat="34.368753" lon="-117.698494"><ele>2364.8</ele><time>2024-05-15T22:51:32Z</time></trkpt>
<trkpt lat="34.368870" lon="-117.698848"><ele>2361.0</ele><time>2024-05-15T22:51:54Z</time></trkpt>
<trkpt lat="34.369017" lon="-117.698850"><ele>2357.4</ele><time>2024-05-15T22:52:08Z</time></trkpt>
<trkpt lat="34.369168" lon="-117.698725"><ele>2356.6</ele><time>2024-05-15T22:52:26Z</time></trkpt>
<trkpt lat="34.369242" lon="-117.698756"><ele>2355.6</ele><time>2024-05-15T22:52:36Z</time></trkpt>
<trkpt lat="34.369289" lon="-117.698975"><ele>2352.2</ele><time>2024-05-15T22:52:50Z</time></trkpt>
<trkpt lat="34.368859" lon="-117.699650"><ele>2340.6</ele><time>2024-05-15T22:53:44Z</time></trkpt>
<trkpt lat="34.368669" lon="-117.699612"><ele>2338.8</ele><time>2024-05-15T22:53:51Z</time></trkpt>
<trkpt lat="34.368511" lon="-117.699655"><ele>2335.0</ele><time>2024-05-15T22:54:30Z</time></trkpt>
<trkpt lat="34.368387" lon="-117.699779"><ele>2332.0</ele><time>2024-05-15T22:54:42Z</time></trkpt>
<trkpt lat="34.369021" lon="-117.700274"><ele>2317.0</ele><time>2024-05-15T22:55:42Z</time></trkpt>
<trkpt lat="34.369112" lon="-117.700154"><ele>2316.6</ele><time>2024-05-15T22:55:44Z</time></trkpt>
<trkpt lat="34.369325" lon="-117.700261"><ele>2313.4</ele><time>2024-05-15T22:56:00Z</time></trkpt>
<trkpt lat="34.369585" lon="-117.700460"><ele>2308.4</ele><time>2024-05-15T22:56:22Z</time></trkpt>
<trkpt lat="34.369579" lon="-117.700561"><ele>2307.4</ele><time>2024-05-15T22:56:28Z</time></trkpt>
<trkpt lat="34.369643" lon="-117.700620"><ele>2306.0</ele><time>2024-05-15T22:56:34Z</time></trkpt>
<trkpt lat="34.369801" lon="-117.700681"><ele>2301.8</ele><time>2024-05-15T22:57:10Z</time></trkpt>
<trkpt lat="34.370323" lon="-117.700569"><ele>2296.4</ele><time>2024-05-15T22:57:49Z</time></trkpt>
<trkpt lat="34.370420" lon="-117.700460"><ele>2295.4</ele><time>2024-05-15T22:57:54Z</time></trkpt>
<trkpt lat="34.370752" lon="-117.700323"><ele>2292.2</ele><time>2024-05-15T22:58:18Z</time></trkpt>
<trkpt lat="34.371783" lon="-117.700411"><ele>2279.6</ele><time>2024-05-15T22:59:50Z</time></trkpt>
<trkpt lat="34.371896" lon="-117.700278"><ele>2278.8</ele><time>2024-05-15T22:59:57Z</time></trkpt>
<trkpt lat="34.371962" lon="-117.700307"><ele>2278.6</ele><time>2024-05-15T23:00:01Z</time></trkpt>
<trkpt lat="34.371783" lon="-117.700941"><ele>2276.8</ele><time>2024-05-15T23:00:54Z</time></trkpt>
<trkpt lat="34.371544" lon="-117.701308"><ele>2273.2</ele><time>2024-05-15T23:01:20Z</time></trkpt>
<trkpt lat="34.371464" lon="-117.701795"><ele>2269.4</ele><time>2024-05-15T23:01:45Z</time></trkpt>
<trkpt lat="34.371325" lon="-117.701811"><ele>2268.4</ele><time>2024-05-15T23:01:50Z</time></trkpt>
<trkpt lat="34.371301" lon="-117.701719"><ele>2267.8</ele><time>2024-05-15T23:01:53Z</time></trkpt>
<trkpt lat="34.371172" lon="-117.701790"><ele>2266.0</ele><time>2024-05-15T23:01:59Z</time></trkpt>
<trkpt lat="34.370886" lon="-117.702614"><ele>2258.4</ele><time>2024-05-15T23:02:51Z</time></trkpt>
<trkpt lat="34.370776" lon="-117.703436"><ele>2256.2</ele><time>2024-05-15T23:03:48Z</time></trkpt>
<trkpt lat="34.370681" lon="-117.703290"><ele>2256.4</ele><time>2024-05-15T23:03:53Z</time></trkpt>
<trkpt lat="34.370546" lon="-117.703317"><ele>2256.4</ele><time>2024-05-15T23:03:56Z</time></trkpt>
<trkpt lat="34.370487" lon="-117.703398"><ele>2256.4</ele><time>2024-05-15T23:04:01Z</time></trkpt>
<trkpt lat="34.370912" lon="-117.703619"><ele>2262.0</ele><time>2024-05-15T23:04:41Z</time></trkpt>
<trkpt lat="34.370775" lon="-117.703594"><ele>2262.2</ele><time>2024-05-15T23:04:43Z</time></trkpt>
<trkpt lat="34.370687" lon="-117.704086"><ele>2263.0</ele><time>2024-05-15T23:05:06Z</time></trkpt>
<trkpt lat="34.370714" lon="-117.704176"><ele>2263.0</ele><time>2024-05-15T23:05:10Z</time></trkpt>
<trkpt lat="34.371589" lon="-117.704247"><ele>2265.2</ele><time>2024-05-15T23:05:41Z</time></trkpt>
<trkpt lat="34.371240" lon="-117.704330"><ele>2264.2</ele><time>2024-05-15T23:05:44Z</time></trkpt>
<trkpt lat="34.371372" lon="-117.704581"><ele>2262.2</ele><time>2024-05-15T23:06:00Z</time></trkpt>
<trkpt lat="34.371274" lon="-117.704842"><ele>2261.2</ele><time>2024-05-15T23:06:12Z</time></trkpt>
<trkpt lat="34.371445" lon="-117.705232"><ele>2260.2</ele><time>2024-05-15T23:06:15Z</time></trkpt>
<trkpt lat="34.371403" lon="-117.705084"><ele>2259.0</ele><time>2024-05-15T23:06:26Z</time></trkpt>
<trkpt lat="34.371441" lon="-117.705369"><ele>2254.2</ele><time>2024-05-15T23:06:46Z</time></trkpt>
<trkpt lat="34.371947" lon="-117.706144"><ele>2258.2</ele><time>2024-05-15T23:07:44Z</time></trkpt>
<trkpt lat="34.372073" lon="-117.706621"><ele>2262.6</ele><time>2024-05-15T23:08:28Z</time></trkpt>
<trkpt lat="34.372195" lon="-117.706778"><ele>2264.0</ele><time>2024-05-15T23:08:47Z</time></trkpt>
<trkpt lat="34.372155" lon="-117.706850"><ele>2264.4</ele><time>2024-05-15T23:08:58Z</time></trkpt>
<trkpt lat="34.372195" lon="-117.707073"><ele>2262.8</ele><time>2024-05-15T23:09:10Z</time></trkpt>
<trkpt lat="34.372457" lon="-117.707827"><ele>2261.4</ele><time>2024-05-15T23:10:01Z</time></trkpt>
<trkpt lat="34.372501" lon="-117.708371"><ele>2262.8</ele><time>2024-05-15T23:10:58Z</time></trkpt>
<trkpt lat="34.372600" lon="-117.708667"><ele>2260.6</ele><time>2024-05-15T23:11:24Z</time></trkpt>
<trkpt lat="34.372615" lon="-117.709481"><ele>2261.2</ele><time>2024-05-15T23:11:52Z</time></trkpt>
<trkpt lat="34.372501" lon="-117.709976"><ele>2254.4</ele><time>2024-05-15T23:12:20Z</time></trkpt>
<trkpt lat="34.372361" lon="-117.710205"><ele>2251.0</ele><time>2024-05-15T23:12:36Z</time></trkpt>
<trkpt lat="34.372352" lon="-117.710322"><ele>2251.0</ele><time>2024-05-15T23:12:52Z</time></trkpt>
<trkpt lat="34.372597" lon="-117.710530"><ele>2251.8</ele><time>2024-05-15T23:13:36Z</time></trkpt>
<trkpt lat="34.372679" lon="-117.710757"><ele>2251.8</ele><time>2024-05-15T23:13:46Z</time></trkpt>
<trkpt lat="34.372530" lon="-117.710826"><ele>2254.2</ele><time>2024-05-15T23:14:02Z</time></trkpt>
<trkpt lat="34.372686" lon="-117.711064"><ele>2256.4</ele><time>2024-05-15T23:14:18Z</time></trkpt>
<trkpt lat="34.373381" lon="-117.711457"><ele>2262.4</ele><time>2024-05-15T23:15:44Z</time></trkpt>
<trkpt lat="34.373418" lon="-117.711545"><ele>2262.8</ele><time>2024-05-15T23:15:49Z</time></trkpt>
<trkpt lat="34.373404" lon="-117.711465"><ele>2263.0</ele><time>2024-05-15T23:15:50Z</time></trkpt>
<trkpt lat="34.373340" lon="-117.711390"><ele>2263.6</ele><time>2024-05-15T23:15:53Z</time></trkpt>
<trkpt lat="34.373525" lon="-117.711834"><ele>2276.2</ele><time>2024-05-15T23:17:28Z</time></trkpt>
<trkpt lat="34.373612" lon="-117.712171"><ele>2278.0</ele><time>2024-05-15T23:17:48Z</time></trkpt>
<trkpt lat="34.373583" lon="-117.712257"><ele>2279.0</ele><time>2024-05-15T23:17:56Z</time></trkpt>
<trkpt lat="34.373623" lon="-117.712210"><ele>2278.8</ele><time>2024-05-15T23:18:03Z</time></trkpt>
<trkpt lat="34.373847" lon="-117.712470"><ele>2277.2</ele><time>2024-05-15T23:18:32Z</time></trkpt>
<trkpt lat="34.374346" lon="-117.713245"><ele>2279.2</ele><time>2024-05-15T23:19:49Z</time></trkpt>
<trkpt lat="34.375002" lon="-117.714875"><ele>2273.8</ele><time>2024-05-15T23:21:43Z</time></trkpt>
<trkpt lat="34.375270" lon="-117.715003"><ele>2271.8</ele><time>2024-05-15T23:22:01Z</time></trkpt>
<trkpt lat="34.374798" lon="-117.715101"><ele>2264.4</ele><time>2024-05-15T23:22:44Z</time></trkpt>
<trkpt lat="34.374587" lon="-117.714924"><ele>2262.0</ele><time>2024-05-15T23:23:02Z</time></trkpt>
<trkpt lat="34.374265" lon="-117.714804"><ele>2257.6</ele><time>2024-05-15T23:23:28Z</time></trkpt>
<trkpt lat="34.374198" lon="-117.714873"><ele>2255.6</ele><time>2024-05-15T23:23:36Z</time></trkpt>
<trkpt lat="34.374301" lon="-117.714930"><ele>2253.0</ele><time>2024-05-15T23:23:45Z</time></trkpt>
<trkpt lat="34.374311" lon="-117.715176"><ele>2250.8</ele><time>2024-05-15T23:24:00Z</time></trkpt>
<trkpt lat="34.374239" lon="-117.716423"><ele>2237.4</ele><time>2024-05-15T23:25:16Z</time></trkpt>
<trkpt lat="34.374178" lon="-117.716716"><ele>2242.8</ele><time>2024-05-15T23:25:44Z</time></trkpt>
<trkpt lat="34.374270" lon="-117.716801"><ele>2244.0</ele><time>2024-05-15T23:25:52Z</time></trkpt>
<trkpt lat="34.374439" lon="-117.718102"><ele>2249.6</ele><time>2024-05-15T23:27:00Z</time></trkpt>
<trkpt lat="34.374562" lon="-117.718351"><ele>2249.0</ele><time>2024-05-15T23:27:16Z</time></trkpt>
<trkpt lat="34.374779" lon="-117.718726"><ele>2248.2</ele><time>2024-05-15T23:27:46Z</time></trkpt>
<trkpt lat="34.375045" lon="-117.718381"><ele>2248.4</ele><time>2024-05-15T23:27:47Z</time></trkpt>
<trkpt lat="34.374685" lon="-117.718461"><ele>2248.6</ele><time>2024-05-15T23:27:54Z</time></trkpt>
<trkpt lat="34.375753" lon="-117.719915"><ele>2249.6</ele><time>2024-05-15T23:29:49Z</time></trkpt>
<trkpt lat="34.376026" lon="-117.720349"><ele>2249.6</ele><time>2024-05-15T23:30:16Z</time></trkpt>
<trkpt lat="34.376110" lon="-117.720600"><ele>2249.4</ele><time>2024-05-15T23:30:56Z</time></trkpt>
<trkpt lat="34.376339" lon="-117.721712"><ele>2240.2</ele><time>2024-05-15T23:32:02Z</time></trkpt>
<trkpt lat="34.375951" lon="-117.722214"><ele>2234.8</ele><time>2024-05-15T23:33:57Z</time></trkpt>
<trkpt lat="34.375848" lon="-117.722057"><ele>2235.8</ele><time>2024-05-15T23:35:48Z</time></trkpt>
<trkpt lat="34.375892" lon="-117.722187"><ele>2235.8</ele><time>2024-05-15T23:35:51Z</time></trkpt>
<trkpt lat="34.375944" lon="-117.722125"><ele>2236.0</ele><time>2024-05-15T23:37:38Z</time></trkpt>
<trkpt lat="34.376029" lon="-117.722360"><ele>2236.0</ele><time>2024-05-15T23:37:54Z</time></trkpt>
<trkpt lat="34.375801" lon="-117.722066"><ele>2237.6</ele><time>2024-05-15T23:39:44Z</time></trkpt>
<trkpt lat="34.375827" lon="-117.721971"><ele>2237.6</ele><time>2024-05-15T23:39:45Z</time></trkpt>
<trkpt lat="34.375815" lon="-117.722106"><ele>2237.6</ele><time>2024-05-15T23:39:48Z</time></trkpt>
<trkpt lat="34.375861" lon="-117.722104"><ele>2238.6</ele><time>2024-05-15T23:39:57Z</time></trkpt>
<trkpt lat="34.375825" lon="-117.722063"><ele>2239.0</ele><time>2024-05-15T23:40:00Z</time></trkpt>
<trkpt lat="34.375864" lon="-117.722132"><ele>2239.4</ele><time>2024-05-15T23:40:34Z</time></trkpt>
<trkpt lat="34.375920" lon="-117.722114"><ele>2239.6</ele><time>2024-05-15T23:41:20Z</time></trkpt>
<trkpt lat="34.376037" lon="-117.722331"><ele>2240.0</ele><time>2024-05-15T23:41:47Z</time></trkpt>
<trkpt lat="34.376053" lon="-117.722133"><ele>2239.8</ele><time>2024-05-15T23:41:51Z</time></trkpt>
<trkpt lat="34.375499" lon="-117.722247"><ele>2239.6</ele><time>2024-05-15T23:43:50Z</time></trkpt>
<trkpt lat="34.375355" lon="-117.722186"><ele>2239.4</ele><time>2024-05-15T23:43:55Z</time></trkpt>
<trkpt lat="34.375956" lon="-117.722053"><ele>2241.0</ele><time>2024-05-15T23:44:44Z</time></trkpt>
<trkpt lat="34.375859" lon="-117.722044"><ele>2241.2</ele><time>2024-05-15T23:46:00Z</time></trkpt>
</trkseg></trk>
</gpx>
