<?xml version="1.0" encoding="UTF-8"?>
<gpx version="1.1" creator="Eric Sichak trip reports" xmlns="http://www.topografix.com/GPX/1/1">
<metadata><name>PCT Day 26- Hwy 2/Mount Williamson</name><time>2024-05-17T13:35:11Z</time></metadata>
<trk><name>PCT Day 26- Hwy 2/Mount Williamson</name><type>hike</type><trkseg>
<trkpt lat="34.357018" lon="-117.851409"><ele>2034.6</ele><time>2024-05-17T13:35:11Z</time></trkpt>
<trkpt lat="34.356941" lon="-117.851305"><ele>2034.4</ele><time>2024-05-17T13:35:42Z</time></trkpt>
<trkpt lat="34.356765" lon="-117.851486"><ele>2035.4</ele><time>2024-05-17T13:35:57Z</time></trkpt>
<trkpt lat="34.356841" lon="-117.851974"><ele>2036.0</ele><time>2024-05-17T13:36:31Z</time></trkpt>
<trkpt lat="34.356751" lon="-117.852444"><ele>2037.4</ele><time>2024-05-17T13:37:07Z</time></trkpt>
<trkpt lat="34.356743" lon="-117.852948"><ele>2039.6</ele><time>2024-05-17T13:37:44Z</time></trkpt>
<trkpt lat="34.356855" lon="-117.853201"><ele>2039.8</ele><time>2024-05-17T13:38:07Z</time></trkpt>
<trkpt lat="34.356890" lon="-117.854975"><ele>2048.0</ele><time>2024-05-17T13:40:55Z</time></trkpt>
<trkpt lat="34.356818" lon="-117.855581"><ele>2051.2</ele><time>2024-05-17T13:41:44Z</time></trkpt>
<trkpt lat="34.356697" lon="-117.855802"><ele>2053.4</ele><time>2024-05-17T13:42:02Z</time></trkpt>
<trkpt lat="34.356617" lon="-117.856931"><ele>2059.6</ele><time>2024-05-17T13:43:33Z</time></trkpt>
<trkpt lat="34.356427" lon="-117.857232"><ele>2061.2</ele><time>2024-05-17T13:43:46Z</time></trkpt>
<trkpt lat="34.356155" lon="-117.858348"><ele>2066.2</ele><time>2024-05-17T13:45:03Z</time></trkpt>
<trkpt lat="34.355878" lon="-117.858924"><ele>2068.2</ele><time>2024-05-17T13:45:58Z</time></trkpt>
<trkpt lat="34.356140" lon="-117.859859"><ele>2070.2</ele><time>2024-05-17T13:47:25Z</time></trkpt>
<trkpt lat="34.356170" lon="-117.860137"><ele>2067.8</ele><time>2024-05-17T13:47:59Z</time></trkpt>
<trkpt lat="34.356234" lon="-117.860119"><ele>2068.6</ele><time>2024-05-17T13:49:37Z</time></trkpt>
<trkpt lat="34.356140" lon="-117.860151"><ele>2067.4</ele><time>2024-05-17T13:51:35Z</time></trkpt>
<trkpt lat="34.356275" lon="-117.859971"><ele>2067.2</ele><time>2024-05-17T13:54:03Z</time></trkpt>
<trkpt lat="34.357023" lon="-117.859906"><ele>2066.8</ele><time>2024-05-17T13:54:45Z</time></trkpt>
<trkpt lat="34.357503" lon="-117.859957"><ele>2065.0</ele><time>2024-05-17T13:55:41Z</time></trkpt>
<trkpt lat="34.357758" lon="-117.859768"><ele>2063.8</ele><time>2024-05-17T13:56:11Z</time></trkpt>
<trkpt lat="34.358395" lon="-117.859075"><ele>2060.0</ele><time>2024-05-17T13:57:39Z</time></trkpt>
<trkpt lat="34.358713" lon="-117.858882"><ele>2060.4</ele><time>2024-05-17T13:58:01Z</time></trkpt>
<trkpt lat="34.359171" lon="-117.858964"><ele>2059.2</ele><time>2024-05-17T13:58:39Z</time></trkpt>
<trkpt lat="34.359504" lon="-117.858948"><ele>2058.6</ele><time>2024-05-17T13:59:05Z</time></trkpt>
<trkpt lat="34.359913" lon="-117.859270"><ele>2058.0</ele><time>2024-05-17T13:59:44Z</time></trkpt>
<trkpt lat="34.360208" lon="-117.859808"><ele>2058.4</ele><time>2024-05-17T14:00:25Z</time></trkpt>
<trkpt lat="34.360328" lon="-117.860416"><ele>2058.0</ele><time>2024-05-17T14:01:17Z</time></trkpt>
<trkpt lat="34.360417" lon="-117.860604"><ele>2058.0</ele><time>2024-05-17T14:01:31Z</time></trkpt>
<trkpt lat="34.360595" lon="-117.860740"><ele>2058.2</ele><time>2024-05-17T14:01:46Z</time></trkpt>
<trkpt lat="34.360695" lon="-117.860915"><ele>2058.4</ele><time>2024-05-17T14:02:00Z</time></trkpt>
<trkpt lat="34.362985" lon="-117.865694"><ele>2055.2</ele><time>2024-05-17T14:07:10Z</time></trkpt>
<trkpt lat="34.362797" lon="-117.865745"><ele>2055.6</ele><time>2024-05-17T14:07:13Z</time></trkpt>
<trkpt lat="34.362484" lon="-117.865102"><ele>2055.8</ele><time>2024-05-17T14:07:20Z</time></trkpt>
<trkpt lat="34.362601" lon="-117.864928"><ele>2055.6</ele><time>2024-05-17T14:07:23Z</time></trkpt>
<trkpt lat="34.362688" lon="-117.864901"><ele>2055.4</ele><time>2024-05-17T14:07:26Z</time></trkpt>
<trkpt lat="34.362451" lon="-117.864950"><ele>2055.2</ele><time>2024-05-17T14:07:53Z</time></trkpt>
<trkpt lat="34.362411" lon="-117.865590"><ele>2054.6</ele><time>2024-05-17T14:08:37Z</time></trkpt>
<trkpt lat="34.362219" lon="-117.865953"><ele>2054.0</ele><time>2024-05-17T14:09:13Z</time></trkpt>
<trkpt lat="34.361678" lon="-117.866437"><ele>2052.8</ele><time>2024-05-17T14:10:05Z</time></trkpt>
<trkpt lat="34.361530" lon="-117.866665"><ele>2052.2</ele><time>2024-05-17T14:10:43Z</time></trkpt>
<trkpt lat="34.361381" lon="-117.867512"><ele>2051.0</ele><time>2024-05-17T14:11:42Z</time></trkpt>
<trkpt lat="34.361468" lon="-117.867862"><ele>2049.8</ele><time>2024-05-17T14:12:11Z</time></trkpt>
<trkpt lat="34.361440" lon="-117.869276"><ele>2048.0</ele><time>2024-05-17T14:14:13Z</time></trkpt>
<trkpt lat="34.361560" lon="-117.869485"><ele>2047.6</ele><time>2024-05-17T14:14:33Z</time></trkpt>
<trkpt lat="34.361748" lon="-117.870122"><ele>2046.4</ele><time>2024-05-17T14:15:15Z</time></trkpt>
<trkpt lat="34.361826" lon="-117.871776"><ele>2046.8</ele><time>2024-05-17T14:17:17Z</time></trkpt>
<trkpt lat="34.361754" lon="-117.872165"><ele>2047.0</ele><time>2024-05-17T14:17:44Z</time></trkpt>
<trkpt lat="34.361535" lon="-117.873015"><ele>2048.6</ele><time>2024-05-17T14:18:53Z</time></trkpt>
<trkpt lat="34.361094" lon="-117.873559"><ele>2050.0</ele><time>2024-05-17T14:19:43Z</time></trkpt>
<trkpt lat="34.360917" lon="-117.873629"><ele>2050.2</ele><time>2024-05-17T14:19:52Z</time></trkpt>
<trkpt lat="34.360598" lon="-117.873899"><ele>2051.0</ele><time>2024-05-17T14:20:19Z</time></trkpt>
<trkpt lat="34.360088" lon="-117.874452"><ele>2052.6</ele><time>2024-05-17T14:21:15Z</time></trkpt>
<trkpt lat="34.359987" lon="-117.874955"><ele>2053.8</ele><time>2024-05-17T14:21:45Z</time></trkpt>
<trkpt lat="34.360094" lon="-117.875058"><ele>2053.8</ele><time>2024-05-17T14:21:53Z</time></trkpt>
<trkpt lat="34.360112" lon="-117.875198"><ele>2054.0</ele><time>2024-05-17T14:22:00Z</time></trkpt>
<trkpt lat="34.360085" lon="-117.875771"><ele>2052.4</ele><time>2024-05-17T14:22:47Z</time></trkpt>
<trkpt lat="34.359694" lon="-117.876388"><ele>2051.4</ele><time>2024-05-17T14:23:33Z</time></trkpt>
<trkpt lat="34.359475" lon="-117.876446"><ele>2050.6</ele><time>2024-05-17T14:23:50Z</time></trkpt>
<trkpt lat="34.359398" lon="-117.876532"><ele>2049.8</ele><time>2024-05-17T14:24:05Z</time></trkpt>
<trkpt lat="34.359155" lon="-117.876428"><ele>2048.2</ele><time>2024-05-17T14:24:25Z</time></trkpt>
<trkpt lat="34.358261" lon="-117.877078"><ele>2042.8</ele><time>2024-05-17T14:25:45Z</time></trkpt>
<trkpt lat="34.358065" lon="-117.877109"><ele>2042.0</ele><time>2024-05-17T14:25:57Z</time></trkpt>
<trkpt lat="34.357023" lon="-117.877727"><ele>2036.6</ele><time>2024-05-17T14:27:42Z</time></trkpt>
<trkpt lat="34.356747" lon="-117.877714"><ele>2034.4</ele><time>2024-05-17T14:28:01Z</time></trkpt>
<trkpt lat="34.356440" lon="-117.877416"><ele>2033.0</ele><time>2024-05-17T14:28:41Z</time></trkpt>
<trkpt lat="34.355632" lon="-117.877253"><ele>2031.2</ele><time>2024-05-17T14:29:43Z</time></trkpt>
<trkpt lat="34.355625" lon="-117.877190"><ele>2031.0</ele><time>2024-05-17T14:29:46Z</time></trkpt>
<trkpt lat="34.355449" lon="-117.877154"><ele>2030.6</ele><time>2024-05-17T14:30:00Z</time></trkpt>
<trkpt lat="34.355247" lon="-117.877412"><ele>2030.6</ele><time>2024-05-17T14:30:17Z</time></trkpt>
<trkpt lat="34.354965" lon="-117.877573"><ele>2031.2</ele><time>2024-05-17T14:31:11Z</time></trkpt>
<trkpt lat="34.354913" lon="-117.877726"><ele>2031.6</ele><time>2024-05-17T14:31:29Z</time></trkpt>
<trkpt lat="34.354559" lon="-117.878013"><ele>2033.0</ele><time>2024-05-17T14:32:00Z</time></trkpt>
<trkpt lat="34.353976" lon="-117.879166"><ele>2037.6</ele><time>2024-05-17T14:33:42Z</time></trkpt>
<trkpt lat="34.353924" lon="-117.879496"><ele>2039.4</ele><time>2024-05-17T14:34:02Z</time></trkpt>
<trkpt lat="34.352925" lon="-117.880317"><ele>2044.8</ele><time>2024-05-17T14:35:43Z</time></trkpt>
<trkpt lat="34.353033" lon="-117.880449"><ele>2045.6</ele><time>2024-05-17T14:35:51Z</time></trkpt>
<trkpt lat="34.351528" lon="-117.880712"><ele>2054.4</ele><time>2024-05-17T14:38:02Z</time></trkpt>
<trkpt lat="34.351120" lon="-117.881194"><ele>2057.4</ele><time>2024-05-17T14:38:47Z</time></trkpt>
<trkpt lat="34.350847" lon="-117.881776"><ele>2062.8</ele><time>2024-05-17T14:39:44Z</time></trkpt>
<trkpt lat="34.350848" lon="-117.883399"><ele>2066.6</ele><time>2024-05-17T14:41:47Z</time></trkpt>
<trkpt lat="34.350961" lon="-117.883554"><ele>2067.0</ele><time>2024-05-17T14:41:51Z</time></trkpt>
<trkpt lat="34.350938" lon="-117.883834"><ele>2068.2</ele><time>2024-05-17T14:42:06Z</time></trkpt>
<trkpt lat="34.351141" lon="-117.884316"><ele>2070.8</ele><time>2024-05-17T14:42:58Z</time></trkpt>
<trkpt lat="34.351071" lon="-117.884903"><ele>2073.4</ele><time>2024-05-17T14:43:41Z</time></trkpt>
<trkpt lat="34.351108" lon="-117.885073"><ele>2074.4</ele><time>2024-05-17T14:43:52Z</time></trkpt>
<trkpt lat="34.351158" lon="-117.885199"><ele>2075.2</ele><time>2024-05-17T14:44:02Z</time></trkpt>
<trkpt lat="34.352178" lon="-117.885995"><ele>2081.2</ele><time>2024-05-17T14:45:48Z</time></trkpt>
<trkpt lat="34.352724" lon="-117.886974"><ele>2088.2</ele><time>2024-05-17T14:47:37Z</time></trkpt>
<trkpt lat="34.352834" lon="-117.887283"><ele>2088.8</ele><time>2024-05-17T14:47:45Z</time></trkpt>
<trkpt lat="34.352762" lon="-117.887298"><ele>2088.8</ele><time>2024-05-17T14:47:47Z</time></trkpt>
<trkpt lat="34.352871" lon="-117.887571"><ele>2089.2</ele><time>2024-05-17T14:47:54Z</time></trkpt>
<trkpt lat="34.352585" lon="-117.887862"><ele>2090.8</ele><time>2024-05-17T14:48:31Z</time></trkpt>
<trkpt lat="34.352102" lon="-117.888659"><ele>2092.0</ele><time>2024-05-17T14:49:43Z</time></trkpt>
<trkpt lat="34.352540" lon="-117.889056"><ele>2093.2</ele><time>2024-05-17T14:49:54Z</time></trkpt>
<trkpt lat="34.352528" lon="-117.889135"><ele>2093.2</ele><time>2024-05-17T14:50:00Z</time></trkpt>
<trkpt lat="34.351346" lon="-117.890135"><ele>2091.0</ele><time>2024-05-17T14:51:27Z</time></trkpt>
<trkpt lat="34.350916" lon="-117.890370"><ele>2090.2</ele><time>2024-05-17T14:51:49Z</time></trkpt>
<trkpt lat="34.351325" lon="-117.890069"><ele>2090.4</ele><time>2024-05-17T14:51:52Z</time></trkpt>
<trkpt lat="34.351363" lon="-117.889887"><ele>2090.4</ele><time>2024-05-17T14:51:55Z</time></trkpt>
<trkpt lat="34.351419" lon="-117.889971"><ele>2090.8</ele><time>2024-05-17T14:52:02Z</time></trkpt>
<trkpt lat="34.351287" lon="-117.889904"><ele>2090.4</ele><time>2024-05-17T14:52:05Z</time></trkpt>
<trkpt lat="34.351147" lon="-117.890089"><ele>2090.4</ele><time>2024-05-17T14:52:09Z</time></trkpt>
<trkpt lat="34.351399" lon="-117.890306"><ele>2090.2</ele><time>2024-05-17T14:52:15Z</time></trkpt>
<trkpt lat="34.351102" lon="-117.890454"><ele>2089.8</ele><time>2024-05-17T14:52:21Z</time></trkpt>
<trkpt lat="34.350847" lon="-117.891194"><ele>2089.6</ele><time>2024-05-17T14:52:43Z</time></trkpt>
<trkpt lat="34.350813" lon="-117.891498"><ele>2089.4</ele><time>2024-05-17T14:53:13Z</time></trkpt>
<trkpt lat="34.350860" lon="-117.891159"><ele>2088.8</ele><time>2024-05-17T14:53:42Z</time></trkpt>
<trkpt lat="34.350978" lon="-117.891233"><ele>2088.6</ele><time>2024-05-17T14:53:43Z</time></trkpt>
<trkpt lat="34.350842" lon="-117.891224"><ele>2088.8</ele><time>2024-05-17T14:53:48Z</time></trkpt>
<trkpt lat="34.350897" lon="-117.891353"><ele>2089.0</ele><time>2024-05-17T14:53:55Z</time></trkpt>
<trkpt lat="34.350052" lon="-117.891666"><ele>2087.2</ele><time>2024-05-17T14:54:47Z</time></trkpt>
<trkpt lat="34.349675" lon="-117.892173"><ele>2087.4</ele><time>2024-05-17T14:55:37Z</time></trkpt>
<trkpt lat="34.349495" lon="-117.892101"><ele>2088.0</ele><time>2024-05-17T14:55:42Z</time></trkpt>
<trkpt lat="34.350178" lon="-117.892618"><ele>2087.2</ele><time>2024-05-17T14:55:51Z</time></trkpt>
<trkpt lat="34.350476" lon="-117.893179"><ele>2085.6</ele><time>2024-05-17T14:56:31Z</time></trkpt>
<trkpt lat="34.350939" lon="-117.893678"><ele>2084.2</ele><time>2024-05-17T14:57:47Z</time></trkpt>
<trkpt lat="34.350883" lon="-117.893817"><ele>2084.0</ele><time>2024-05-17T14:57:49Z</time></trkpt>
<trkpt lat="34.350906" lon="-117.893960"><ele>2083.8</ele><time>2024-05-17T14:57:55Z</time></trkpt>
<trkpt lat="34.352046" lon="-117.894783"><ele>2081.8</ele><time>2024-05-17T14:59:46Z</time></trkpt>
<trkpt lat="34.352123" lon="-117.894722"><ele>2082.0</ele><time>2024-05-17T14:59:50Z</time></trkpt>
<trkpt lat="34.352114" lon="-117.894829"><ele>2082.2</ele><time>2024-05-17T14:59:55Z</time></trkpt>
<trkpt lat="34.352474" lon="-117.895566"><ele>2079.0</ele><time>2024-05-17T15:01:23Z</time></trkpt>
<trkpt lat="34.352597" lon="-117.895971"><ele>2078.2</ele><time>2024-05-17T15:01:43Z</time></trkpt>
<trkpt lat="34.352570" lon="-117.896061"><ele>2078.0</ele><time>2024-05-17T15:01:48Z</time></trkpt>
<trkpt lat="34.352495" lon="-117.896043"><ele>2077.8</ele><time>2024-05-17T15:01:50Z</time></trkpt>
<trkpt lat="34.352463" lon="-117.896192"><ele>2077.0</ele><time>2024-05-17T15:02:02Z</time></trkpt>
<trkpt lat="34.352257" lon="-117.896339"><ele>2075.8</ele><time>2024-05-17T15:02:23Z</time></trkpt>
<trkpt lat="34.351917" lon="-117.896448"><ele>2074.0</ele><time>2024-05-17T15:02:57Z</time></trkpt>
<trkpt lat="34.351737" lon="-117.897144"><ele>2072.4</ele><time>2024-05-17T15:03:47Z</time></trkpt>
<trkpt lat="34.351618" lon="-117.897337"><ele>2071.8</ele><time>2024-05-17T15:04:00Z</time></trkpt>
<trkpt lat="34.351668" lon="-117.897939"><ele>2070.8</ele><time>2024-05-17T15:04:39Z</time></trkpt>
<trkpt lat="34.351914" lon="-117.898387"><ele>2070.4</ele><time>2024-05-17T15:05:21Z</time></trkpt>
<trkpt lat="34.352128" lon="-117.898946"><ele>2070.4</ele><time>2024-05-17T15:05:45Z</time></trkpt>
<trkpt lat="34.352209" lon="-117.898988"><ele>2069.8</ele><time>2024-05-17T15:06:02Z</time></trkpt>
<trkpt lat="34.352576" lon="-117.899982"><ele>2069.4</ele><time>2024-05-17T15:07:54Z</time></trkpt>
<trkpt lat="34.352589" lon="-117.900372"><ele>2069.6</ele><time>2024-05-17T15:08:21Z</time></trkpt>
<trkpt lat="34.352485" lon="-117.900929"><ele>2069.2</ele><time>2024-05-17T15:09:01Z</time></trkpt>
<trkpt lat="34.352403" lon="-117.901176"><ele>2069.0</ele><time>2024-05-17T15:09:19Z</time></trkpt>
<trkpt lat="34.352151" lon="-117.901559"><ele>2066.0</ele><time>2024-05-17T15:10:00Z</time></trkpt>
<trkpt lat="34.351361" lon="-117.902341"><ele>2060.4</ele><time>2024-05-17T15:11:44Z</time></trkpt>
<trkpt lat="34.351074" lon="-117.902789"><ele>2060.0</ele><time>2024-05-17T15:11:46Z</time></trkpt>
<trkpt lat="34.351291" lon="-117.902343"><ele>2060.0</ele><time>2024-05-17T15:11:50Z</time></trkpt>
<trkpt lat="34.350413" lon="-117.902464"><ele>2054.4</ele><time>2024-05-17T15:13:07Z</time></trkpt>
<trkpt lat="34.349564" lon="-117.902859"><ele>2049.2</ele><time>2024-05-17T15:14:45Z</time></trkpt>
<trkpt lat="34.349284" lon="-117.903128"><ele>2047.0</ele><time>2024-05-17T15:15:25Z</time></trkpt>
<trkpt lat="34.349046" lon="-117.903081"><ele>2047.4</ele><time>2024-05-17T15:15:46Z</time></trkpt>
<trkpt lat="34.349028" lon="-117.903173"><ele>2047.4</ele><time>2024-05-17T15:15:51Z</time></trkpt>
<trkpt lat="34.349093" lon="-117.903272"><ele>2047.6</ele><time>2024-05-17T15:15:58Z</time></trkpt>
<trkpt lat="34.349042" lon="-117.903310"><ele>2047.0</ele><time>2024-05-17T15:16:05Z</time></trkpt>
<trkpt lat="34.348983" lon="-117.903637"><ele>2045.6</ele><time>2024-05-17T15:16:29Z</time></trkpt>
<trkpt lat="34.349143" lon="-117.904465"><ele>2042.2</ele><time>2024-05-17T15:17:44Z</time></trkpt>
<trkpt lat="34.348623" lon="-117.905261"><ele>2037.6</ele><time>2024-05-17T15:18:57Z</time></trkpt>
<trkpt lat="34.348161" lon="-117.905573"><ele>2036.4</ele><time>2024-05-17T15:19:43Z</time></trkpt>
<trkpt lat="34.348124" lon="-117.905742"><ele>2036.4</ele><time>2024-05-17T15:19:54Z</time></trkpt>
<trkpt lat="34.347712" lon="-117.906275"><ele>2035.4</ele><time>2024-05-17T15:20:25Z</time></trkpt>
<trkpt lat="34.347700" lon="-117.906488"><ele>2032.4</ele><time>2024-05-17T15:21:01Z</time></trkpt>
<trkpt lat="34.347406" lon="-117.906915"><ele>2030.2</ele><time>2024-05-17T15:21:42Z</time></trkpt>
<trkpt lat="34.347394" lon="-117.907214"><ele>2029.2</ele><time>2024-05-17T15:21:59Z</time></trkpt>
<trkpt lat="34.346746" lon="-117.908582"><ele>2023.6</ele><time>2024-05-17T15:23:48Z</time></trkpt>
<trkpt lat="34.346796" lon="-117.908614"><ele>2023.2</ele><time>2024-05-17T15:23:57Z</time></trkpt>
<trkpt lat="34.346670" lon="-117.908933"><ele>2022.0</ele><time>2024-05-17T15:24:13Z</time></trkpt>
<trkpt lat="34.346584" lon="-117.909449"><ele>2019.8</ele><time>2024-05-17T15:24:45Z</time></trkpt>
<trkpt lat="34.346276" lon="-117.909884"><ele>2017.0</ele><time>2024-05-17T15:25:42Z</time></trkpt>
<trkpt lat="34.346296" lon="-117.910045"><ele>2016.4</ele><time>2024-05-17T15:25:52Z</time></trkpt>
<trkpt lat="34.345199" lon="-117.910267"><ele>2010.4</ele><time>2024-05-17T15:27:44Z</time></trkpt>
<trkpt lat="34.345125" lon="-117.910036"><ele>2010.0</ele><time>2024-05-17T15:27:52Z</time></trkpt>
<trkpt lat="34.344912" lon="-117.909734"><ele>2007.4</ele><time>2024-05-17T15:28:23Z</time></trkpt>
<trkpt lat="34.344558" lon="-117.909575"><ele>2006.2</ele><time>2024-05-17T15:29:19Z</time></trkpt>
<trkpt lat="34.344424" lon="-117.909280"><ele>2004.8</ele><time>2024-05-17T15:29:42Z</time></trkpt>
<trkpt lat="34.344126" lon="-117.909373"><ele>2004.4</ele><time>2024-05-17T15:29:59Z</time></trkpt>
<trkpt lat="34.343698" lon="-117.909824"><ele>2004.0</ele><time>2024-05-17T15:30:15Z</time></trkpt>
<trkpt lat="34.343464" lon="-117.910188"><ele>2003.6</ele><time>2024-05-17T15:31:03Z</time></trkpt>
<trkpt lat="34.343160" lon="-117.911159"><ele>2004.6</ele><time>2024-05-17T15:31:47Z</time></trkpt>
<trkpt lat="34.343087" lon="-117.911110"><ele>2004.8</ele><time>2024-05-17T15:31:50Z</time></trkpt>
<trkpt lat="34.343284" lon="-117.910745"><ele>2004.8</ele><time>2024-05-17T15:31:57Z</time></trkpt>
<trkpt lat="34.343409" lon="-117.910734"><ele>2005.2</ele><time>2024-05-17T15:32:01Z</time></trkpt>
<trkpt lat="34.343368" lon="-117.910771"><ele>2005.6</ele><time>2024-05-17T15:32:03Z</time></trkpt>
<trkpt lat="34.343693" lon="-117.911157"><ele>2006.2</ele><time>2024-05-17T15:32:20Z</time></trkpt>
<trkpt lat="34.344430" lon="-117.911678"><ele>2010.2</ele><time>2024-05-17T15:33:49Z</time></trkpt>
<trkpt lat="34.344306" lon="-117.911803"><ele>2010.4</ele><time>2024-05-17T15:33:51Z</time></trkpt>
<trkpt lat="34.344288" lon="-117.911905"><ele>2010.8</ele><time>2024-05-17T15:33:55Z</time></trkpt>
<trkpt lat="34.344321" lon="-117.912184"><ele>2011.6</ele><time>2024-05-17T15:34:17Z</time></trkpt>
<trkpt lat="34.344238" lon="-117.912966"><ele>2014.6</ele><time>2024-05-17T15:35:27Z</time></trkpt>
<trkpt lat="34.344459" lon="-117.912873"><ele>2014.4</ele><time>2024-05-17T15:35:53Z</time></trkpt>
<trkpt lat="34.344448" lon="-117.914497"><ele>2020.6</ele><time>2024-05-17T15:37:49Z</time></trkpt>
<trkpt lat="34.344575" lon="-117.914412"><ele>2020.8</ele><time>2024-05-17T15:37:51Z</time></trkpt>
<trkpt lat="34.344612" lon="-117.914929"><ele>2023.2</ele><time>2024-05-17T15:39:15Z</time></trkpt>
<trkpt lat="34.344545" lon="-117.915048"><ele>2022.6</ele><time>2024-05-17T15:39:48Z</time></trkpt>
<trkpt lat="34.344613" lon="-117.914980"><ele>2023.0</ele><time>2024-05-17T15:40:02Z</time></trkpt>
<trkpt lat="34.343916" lon="-117.915422"><ele>2024.0</ele><time>2024-05-17T15:41:45Z</time></trkpt>
<trkpt lat="34.343429" lon="-117.915526"><ele>2024.2</ele><time>2024-05-17T15:41:47Z</time></trkpt>
<trkpt lat="34.344197" lon="-117.915441"><ele>2024.4</ele><time>2024-05-17T15:41:48Z</time></trkpt>
<trkpt lat="34.344107" lon="-117.915458"><ele>2024.4</ele><time>2024-05-17T15:41:49Z</time></trkpt>
<trkpt lat="34.344303" lon="-117.915118"><ele>2024.6</ele><time>2024-05-17T15:41:54Z</time></trkpt>
<trkpt lat="34.344410" lon="-117.915215"><ele>2024.8</ele><time>2024-05-17T15:41:56Z</time></trkpt>
<trkpt lat="34.344601" lon="-117.915073"><ele>2024.8</ele><time>2024-05-17T15:41:58Z</time></trkpt>
<trkpt lat="34.344842" lon="-117.915484"><ele>2024.6</ele><time>2024-05-17T15:42:25Z</time></trkpt>
<trkpt lat="34.344825" lon="-117.915569"><ele>2025.0</ele><time>2024-05-17T15:43:13Z</time></trkpt>
<trkpt lat="34.344532" lon="-117.915517"><ele>2026.4</ele><time>2024-05-17T15:43:44Z</time></trkpt>
<trkpt lat="34.344491" lon="-117.915572"><ele>2026.4</ele><time>2024-05-17T15:43:46Z</time></trkpt>
<trkpt lat="34.344275" lon="-117.915903"><ele>2028.2</ele><time>2024-05-17T15:44:02Z</time></trkpt>
<trkpt lat="34.344329" lon="-117.916131"><ele>2029.4</ele><time>2024-05-17T15:44:45Z</time></trkpt>
<trkpt lat="34.344274" lon="-117.916616"><ele>2031.8</ele><time>2024-05-17T15:45:42Z</time></trkpt>
<trkpt lat="34.343843" lon="-117.916887"><ele>2031.8</ele><time>2024-05-17T15:45:45Z</time></trkpt>
<trkpt lat="34.343086" lon="-117.918103"><ele>2037.0</ele><time>2024-05-17T15:47:42Z</time></trkpt>
<trkpt lat="34.343130" lon="-117.918085"><ele>2037.0</ele><time>2024-05-17T15:47:47Z</time></trkpt>
<trkpt lat="34.342758" lon="-117.918287"><ele>2037.2</ele><time>2024-05-17T15:47:52Z</time></trkpt>
<trkpt lat="34.342390" lon="-117.918742"><ele>2039.8</ele><time>2024-05-17T15:48:35Z</time></trkpt>
<trkpt lat="34.341923" lon="-117.919506"><ele>2043.0</ele><time>2024-05-17T15:49:44Z</time></trkpt>
<trkpt lat="34.341613" lon="-117.919801"><ele>2043.2</ele><time>2024-05-17T15:49:48Z</time></trkpt>
<trkpt lat="34.341878" lon="-117.919685"><ele>2044.0</ele><time>2024-05-17T15:49:56Z</time></trkpt>
<trkpt lat="34.341842" lon="-117.919711"><ele>2044.2</ele><time>2024-05-17T15:50:01Z</time></trkpt>
<trkpt lat="34.342263" lon="-117.920921"><ele>2049.2</ele><time>2024-05-17T15:51:43Z</time></trkpt>
<trkpt lat="34.342182" lon="-117.921037"><ele>2049.4</ele><time>2024-05-17T15:51:45Z</time></trkpt>
<trkpt lat="34.342377" lon="-117.920979"><ele>2049.6</ele><time>2024-05-17T15:51:48Z</time></trkpt>
<trkpt lat="34.342247" lon="-117.921057"><ele>2049.8</ele><time>2024-05-17T15:51:55Z</time></trkpt>
<trkpt lat="34.342309" lon="-117.921107"><ele>2050.2</ele><time>2024-05-17T15:52:01Z</time></trkpt>
<trkpt lat="34.342279" lon="-117.921155"><ele>2050.2</ele><time>2024-05-17T15:52:03Z</time></trkpt>
<trkpt lat="34.342331" lon="-117.921151"><ele>2050.8</ele><time>2024-05-17T15:52:07Z</time></trkpt>
<trkpt lat="34.342293" lon="-117.921206"><ele>2051.0</ele><time>2024-05-17T15:52:09Z</time></trkpt>
<trkpt lat="34.342363" lon="-117.921194"><ele>2051.4</ele><time>2024-05-17T15:52:13Z</time></trkpt>
<trkpt lat="34.342537" lon="-117.921357"><ele>2052.8</ele><time>2024-05-17T15:52:37Z</time></trkpt>
<trkpt lat="34.342772" lon="-117.921350"><ele>2053.4</ele><time>2024-05-17T15:52:46Z</time></trkpt>
<trkpt lat="34.342841" lon="-117.921407"><ele>2055.0</ele><time>2024-05-17T15:53:02Z</time></trkpt>
<trkpt lat="34.343469" lon="-117.921279"><ele>2057.0</ele><time>2024-05-17T15:53:55Z</time></trkpt>
<trkpt lat="34.343985" lon="-117.921010"><ele>2059.6</ele><time>2024-05-17T15:54:49Z</time></trkpt>
<trkpt lat="34.344168" lon="-117.921017"><ele>2060.0</ele><time>2024-05-17T15:54:56Z</time></trkpt>
<trkpt lat="34.343908" lon="-117.921002"><ele>2060.2</ele><time>2024-05-17T15:55:01Z</time></trkpt>
<trkpt lat="34.345860" lon="-117.920388"><ele>2065.4</ele><time>2024-05-17T15:56:45Z</time></trkpt>
<trkpt lat="34.345649" lon="-117.920538"><ele>2065.6</ele><time>2024-05-17T15:56:48Z</time></trkpt>
<trkpt lat="34.345352" lon="-117.920925"><ele>2066.6</ele><time>2024-05-17T15:56:59Z</time></trkpt>
<trkpt lat="34.345521" lon="-117.920919"><ele>2067.4</ele><time>2024-05-17T15:57:09Z</time></trkpt>
<trkpt lat="34.345523" lon="-117.921022"><ele>2069.6</ele><time>2024-05-17T15:57:44Z</time></trkpt>
<trkpt lat="34.345670" lon="-117.921012"><ele>2070.4</ele><time>2024-05-17T15:57:53Z</time></trkpt>
<trkpt lat="34.345795" lon="-117.921133"><ele>2071.2</ele><time>2024-05-17T15:58:01Z</time></trkpt>
<trkpt lat="34.347019" lon="-117.921160"><ele>2076.2</ele><time>2024-05-17T15:59:44Z</time></trkpt>
<trkpt lat="34.346797" lon="-117.921356"><ele>2076.4</ele><time>2024-05-17T16:00:00Z</time></trkpt>
<trkpt lat="34.346819" lon="-117.921467"><ele>2076.4</ele><time>2024-05-17T16:00:10Z</time></trkpt>
<trkpt lat="34.346899" lon="-117.921440"><ele>2076.6</ele><time>2024-05-17T16:00:30Z</time></trkpt>
<trkpt lat="34.346830" lon="-117.921403"><ele>2077.8</ele><time>2024-05-17T16:00:40Z</time></trkpt>
<trkpt lat="34.347119" lon="-117.921470"><ele>2078.2</ele><time>2024-05-17T16:00:47Z</time></trkpt>
<trkpt lat="34.347672" lon="-117.921837"><ele>2081.0</ele><time>2024-05-17T16:01:40Z</time></trkpt>
<trkpt lat="34.347847" lon="-117.922111"><ele>2082.6</ele><time>2024-05-17T16:02:04Z</time></trkpt>
<trkpt lat="34.348202" lon="-117.922427"><ele>2084.8</ele><time>2024-05-17T16:02:39Z</time></trkpt>
<trkpt lat="34.348181" lon="-117.922526"><ele>2085.6</ele><time>2024-05-17T16:02:46Z</time></trkpt>
<trkpt lat="34.348648" lon="-117.923187"><ele>2089.4</ele><time>2024-05-17T16:03:51Z</time></trkpt>
<trkpt lat="34.348672" lon="-117.923139"><ele>2089.2</ele><time>2024-05-17T16:03:58Z</time></trkpt>
<trkpt lat="34.348654" lon="-117.923202"><ele>2089.2</ele><time>2024-05-17T16:04:01Z</time></trkpt>
<trkpt lat="34.348793" lon="-117.923342"><ele>2090.0</ele><time>2024-05-17T16:04:11Z</time></trkpt>
<trkpt lat="34.348941" lon="-117.923698"><ele>2092.0</ele><time>2024-05-17T16:04:42Z</time></trkpt>
<trkpt lat="34.349029" lon="-117.923694"><ele>2092.4</ele><time>2024-05-17T16:04:47Z</time></trkpt>
<trkpt lat="34.349054" lon="-117.923590"><ele>2093.0</ele><time>2024-05-17T16:04:51Z</time></trkpt>
<trkpt lat="34.349061" lon="-117.923664"><ele>2093.0</ele><time>2024-05-17T16:04:59Z</time></trkpt>
<trkpt lat="34.350094" lon="-117.924632"><ele>2100.6</ele><time>2024-05-17T16:06:43Z</time></trkpt>
<trkpt lat="34.350130" lon="-117.924567"><ele>2100.6</ele><time>2024-05-17T16:06:46Z</time></trkpt>
<trkpt lat="34.350033" lon="-117.924866"><ele>2101.4</ele><time>2024-05-17T16:06:54Z</time></trkpt>
<trkpt lat="34.350318" lon="-117.925309"><ele>2103.6</ele><time>2024-05-17T16:07:31Z</time></trkpt>
<trkpt lat="34.350571" lon="-117.926029"><ele>2106.8</ele><time>2024-05-17T16:08:43Z</time></trkpt>
<trkpt lat="34.350605" lon="-117.925964"><ele>2106.8</ele><time>2024-05-17T16:08:46Z</time></trkpt>
<trkpt lat="34.350526" lon="-117.926189"><ele>2106.4</ele><time>2024-05-17T16:08:59Z</time></trkpt>
<trkpt lat="34.350335" lon="-117.926270"><ele>2106.6</ele><time>2024-05-17T16:09:13Z</time></trkpt>
<trkpt lat="34.349890" lon="-117.926419"><ele>2108.4</ele><time>2024-05-17T16:10:29Z</time></trkpt>
<trkpt lat="34.349601" lon="-117.926358"><ele>2108.6</ele><time>2024-05-17T16:10:41Z</time></trkpt>
<trkpt lat="34.350170" lon="-117.927244"><ele>2109.0</ele><time>2024-05-17T16:10:49Z</time></trkpt>
<trkpt lat="34.350043" lon="-117.927432"><ele>2109.6</ele><time>2024-05-17T16:11:01Z</time></trkpt>
<trkpt lat="34.349835" lon="-117.928006"><ele>2111.0</ele><time>2024-05-17T16:11:49Z</time></trkpt>
<trkpt lat="34.349781" lon="-117.928455"><ele>2113.0</ele><time>2024-05-17T16:12:44Z</time></trkpt>
<trkpt lat="34.349562" lon="-117.928606"><ele>2114.0</ele><time>2024-05-17T16:12:57Z</time></trkpt>
<trkpt lat="34.349893" lon="-117.929396"><ele>2117.6</ele><time>2024-05-17T16:14:37Z</time></trkpt>
<trkpt lat="34.350023" lon="-117.929568"><ele>2118.2</ele><time>2024-05-17T16:14:45Z</time></trkpt>
<trkpt lat="34.350035" lon="-117.929855"><ele>2119.8</ele><time>2024-05-17T16:15:00Z</time></trkpt>
<trkpt lat="34.350370" lon="-117.930737"><ele>2125.2</ele><time>2024-05-17T16:16:44Z</time></trkpt>
<trkpt lat="34.350606" lon="-117.930622"><ele>2125.8</ele><time>2024-05-17T16:16:52Z</time></trkpt>
<trkpt lat="34.350880" lon="-117.931938"><ele>2130.6</ele><time>2024-05-17T16:18:42Z</time></trkpt>
<trkpt lat="34.350806" lon="-117.932108"><ele>2132.4</ele><time>2024-05-17T16:20:48Z</time></trkpt>
<trkpt lat="34.350813" lon="-117.932057"><ele>2132.6</ele><time>2024-05-17T16:20:49Z</time></trkpt>
<trkpt lat="34.350159" lon="-117.932337"><ele>2133.0</ele><time>2024-05-17T16:20:53Z</time></trkpt>
<trkpt lat="34.350288" lon="-117.932233"><ele>2133.4</ele><time>2024-05-17T16:21:02Z</time></trkpt>
<trkpt lat="34.350820" lon="-117.932060"><ele>2136.0</ele><time>2024-05-17T16:22:44Z</time></trkpt>
<trkpt lat="34.350779" lon="-117.932071"><ele>2136.0</ele><time>2024-05-17T16:22:45Z</time></trkpt>
<trkpt lat="34.350943" lon="-117.931745"><ele>2136.6</ele><time>2024-05-17T16:24:43Z</time></trkpt>
<trkpt lat="34.350816" lon="-117.931937"><ele>2136.0</ele><time>2024-05-17T16:24:56Z</time></trkpt>
<trkpt lat="34.350865" lon="-117.931957"><ele>2136.8</ele><time>2024-05-17T16:25:15Z</time></trkpt>
<trkpt lat="34.350793" lon="-117.932130"><ele>2137.2</ele><time>2024-05-17T16:26:42Z</time></trkpt>
<trkpt lat="34.350790" lon="-117.932362"><ele>2138.0</ele><time>2024-05-17T16:26:58Z</time></trkpt>
<trkpt lat="34.351137" lon="-117.933645"><ele>2143.8</ele><time>2024-05-17T16:28:42Z</time></trkpt>
<trkpt lat="34.351091" lon="-117.933731"><ele>2144.4</ele><time>2024-05-17T16:28:47Z</time></trkpt>
<trkpt lat="34.351123" lon="-117.933891"><ele>2145.4</ele><time>2024-05-17T16:28:57Z</time></trkpt>
<trkpt lat="34.351649" lon="-117.934357"><ele>2142.2</ele><time>2024-05-17T16:30:51Z</time></trkpt>
<trkpt lat="34.351358" lon="-117.934189"><ele>2142.4</ele><time>2024-05-17T16:31:00Z</time></trkpt>
<trkpt lat="34.351471" lon="-117.934189"><ele>2142.0</ele><time>2024-05-17T16:33:02Z</time></trkpt>
<trkpt lat="34.351460" lon="-117.934134"><ele>2142.2</ele><time>2024-05-17T16:33:07Z</time></trkpt>
<trkpt lat="34.351394" lon="-117.934268"><ele>2143.8</ele><time>2024-05-17T16:33:48Z</time></trkpt>
<trkpt lat="34.351555" lon="-117.934214"><ele>2144.2</ele><time>2024-05-17T16:35:48Z</time></trkpt>
<trkpt lat="34.351399" lon="-117.934120"><ele>2144.0</ele><time>2024-05-17T16:36:11Z</time></trkpt>
<trkpt lat="34.351435" lon="-117.934228"><ele>2144.4</ele><time>2024-05-17T16:36:40Z</time></trkpt>
<trkpt lat="34.351539" lon="-117.934175"><ele>2144.0</ele><time>2024-05-17T16:37:03Z</time></trkpt>
<trkpt lat="34.351431" lon="-117.934239"><ele>2145.2</ele><time>2024-05-17T16:37:47Z</time></trkpt>
<trkpt lat="34.351486" lon="-117.934142"><ele>2145.0</ele><time>2024-05-17T16:37:57Z</time></trkpt>
<trkpt lat="34.351558" lon="-117.934215"><ele>2144.4</ele><time>2024-05-17T16:41:07Z</time></trkpt>
<trkpt lat="34.351496" lon="-117.934187"><ele>2144.4</ele><time>2024-05-17T16:41:51Z</time></trkpt>
<trkpt lat="34.351567" lon="-117.934191"><ele>2144.4</ele><time>2024-05-17T16:41:57Z</time></trkpt>
<trkpt lat="34.351629" lon="-117.934016"><ele>2146.6</ele><time>2024-05-17T16:43:43Z</time></trkpt>
<trkpt lat="34.351476" lon="-117.934122"><ele>2146.8</ele><time>2024-05-17T16:43:51Z</time></trkpt>
<trkpt lat="34.351487" lon="-117.934240"><ele>2146.6</ele><time>2024-05-17T16:44:02Z</time></trkpt>
<trkpt lat="34.351441" lon="-117.934121"><ele>2145.2</ele><time>2024-05-17T16:45:51Z</time></trkpt>
<trkpt lat="34.351383" lon="-117.934186"><ele>2144.2</ele><time>2024-05-17T16:47:45Z</time></trkpt>
<trkpt lat="34.351312" lon="-117.934150"><ele>2144.4</ele><time>2024-05-17T16:47:51Z</time></trkpt>
<trkpt lat="34.351406" lon="-117.934116"><ele>2144.4</ele><time>2024-05-17T16:47:55Z</time></trkpt>
<trkpt lat="34.351502" lon="-117.934197"><ele>2144.2</ele><time>2024-05-17T16:48:01Z</time></trkpt>
<trkpt lat="34.351416" lon="-117.934120"><ele>2144.6</ele><time>2024-05-17T16:49:42Z</time></trkpt>
<trkpt lat="34.351526" lon="-117.934173"><ele>2144.4</ele><time>2024-05-17T16:50:02Z</time></trkpt>
<trkpt lat="34.351481" lon="-117.934139"><ele>2145.0</ele><time>2024-05-17T16:51:52Z</time></trkpt>
<trkpt lat="34.351566" lon="-117.934084"><ele>2144.4</ele><time>2024-05-17T16:52:51Z</time></trkpt>
<trkpt lat="34.351458" lon="-117.934183"><ele>2145.0</ele><time>2024-05-17T16:58:00Z</time></trkpt>
<trkpt lat="34.351515" lon="-117.934211"><ele>2145.6</ele><time>2024-05-17T16:58:31Z</time></trkpt>
<trkpt lat="34.351448" lon="-117.935003"><ele>2148.6</ele><time>2024-05-17T16:59:43Z</time></trkpt>
<trkpt lat="34.351109" lon="-117.935436"><ele>2141.6</ele><time>2024-05-17T17:00:55Z</time></trkpt>
<trkpt lat="34.351197" lon="-117.935394"><ele>2136.2</ele><time>2024-05-17T17:01:27Z</time></trkpt>
<trkpt lat="34.351432" lon="-117.935607"><ele>2132.2</ele><time>2024-05-17T17:01:52Z</time></trkpt>
<trkpt lat="34.351372" lon="-117.935645"><ele>2130.4</ele><time>2024-05-17T17:01:58Z</time></trkpt>
<trkpt lat="34.351894" lon="-117.937264"><ele>2113.0</ele><time>2024-05-17T17:04:23Z</time></trkpt>
<trkpt lat="34.352061" lon="-117.937744"><ele>2122.6</ele><time>2024-05-17T17:05:23Z</time></trkpt>
<trkpt lat="34.352188" lon="-117.938215"><ele>2122.0</ele><time>2024-05-17T17:05:44Z</time></trkpt>
<trkpt lat="34.352245" lon="-117.938373"><ele>2119.4</ele><time>2024-05-17T17:05:55Z</time></trkpt>
<trkpt lat="34.352779" lon="-117.938901"><ele>2111.2</ele><time>2024-05-17T17:07:11Z</time></trkpt>
<trkpt lat="34.352898" lon="-117.939255"><ele>2109.0</ele><time>2024-05-17T17:07:33Z</time></trkpt>
<trkpt lat="34.352926" lon="-117.939610"><ele>2107.4</ele><time>2024-05-17T17:07:51Z</time></trkpt>
<trkpt lat="34.352719" lon="-117.939810"><ele>2106.2</ele><time>2024-05-17T17:08:09Z</time></trkpt>
<trkpt lat="34.352162" lon="-117.940159"><ele>2098.8</ele><time>2024-05-17T17:09:09Z</time></trkpt>
<trkpt lat="34.351842" lon="-117.940858"><ele>2091.8</ele><time>2024-05-17T17:10:00Z</time></trkpt>
<trkpt lat="34.352141" lon="-117.942276"><ele>2081.4</ele><time>2024-05-17T17:11:42Z</time></trkpt>
<trkpt lat="34.352178" lon="-117.942225"><ele>2081.2</ele><time>2024-05-17T17:11:44Z</time></trkpt>
<trkpt lat="34.352168" lon="-117.942530"><ele>2079.8</ele><time>2024-05-17T17:11:58Z</time></trkpt>
<trkpt lat="34.352311" lon="-117.943102"><ele>2074.6</ele><time>2024-05-17T17:12:59Z</time></trkpt>
<trkpt lat="34.352322" lon="-117.944114"><ele>2069.2</ele><time>2024-05-17T17:14:01Z</time></trkpt>
<trkpt lat="34.352278" lon="-117.944414"><ele>2065.6</ele><time>2024-05-17T17:14:25Z</time></trkpt>
<trkpt lat="34.352132" lon="-117.944689"><ele>2060.2</ele><time>2024-05-17T17:14:57Z</time></trkpt>
<trkpt lat="34.352146" lon="-117.945026"><ele>2057.0</ele><time>2024-05-17T17:15:17Z</time></trkpt>
<trkpt lat="34.352053" lon="-117.945547"><ele>2056.2</ele><time>2024-05-17T17:16:00Z</time></trkpt>
<trkpt lat="34.352198" lon="-117.946127"><ele>2055.8</ele><time>2024-05-17T17:16:43Z</time></trkpt>
<trkpt lat="34.352261" lon="-117.946207"><ele>2055.0</ele><time>2024-05-17T17:16:49Z</time></trkpt>
<trkpt lat="34.352310" lon="-117.946759"><ele>2050.6</ele><time>2024-05-17T17:17:17Z</time></trkpt>
<trkpt lat="34.352470" lon="-117.947176"><ele>2045.2</ele><time>2024-05-17T17:18:07Z</time></trkpt>
<trkpt lat="34.352703" lon="-117.947738"><ele>2042.8</ele><time>2024-05-17T17:18:43Z</time></trkpt>
<trkpt lat="34.352928" lon="-117.947775"><ele>2041.0</ele><time>2024-05-17T17:19:01Z</time></trkpt>
<trkpt lat="34.352844" lon="-117.947866"><ele>2040.0</ele><time>2024-05-17T17:19:09Z</time></trkpt>
<trkpt lat="34.352356" lon="-117.947772"><ele>2035.8</ele><time>2024-05-17T17:19:59Z</time></trkpt>
<trkpt lat="34.352401" lon="-117.947606"><ele>2031.8</ele><time>2024-05-17T17:20:37Z</time></trkpt>
<trkpt lat="34.352321" lon="-117.947632"><ele>2031.6</ele><time>2024-05-17T17:20:44Z</time></trkpt>
<trkpt lat="34.352196" lon="-117.947503"><ele>2030.2</ele><time>2024-05-17T17:20:59Z</time></trkpt>
<trkpt lat="34.351604" lon="-117.946119"><ele>2020.8</ele><time>2024-05-17T17:22:47Z</time></trkpt>
<trkpt lat="34.351229" lon="-117.945045"><ele>2013.2</ele><time>2024-05-17T17:24:17Z</time></trkpt>
<trkpt lat="34.351164" lon="-117.944585"><ele>2011.2</ele><time>2024-05-17T17:24:44Z</time></trkpt>
<trkpt lat="34.351233" lon="-117.944359"><ele>2010.0</ele><time>2024-05-17T17:24:55Z</time></trkpt>
<trkpt lat="34.350591" lon="-117.943095"><ele>2001.6</ele><time>2024-05-17T17:26:49Z</time></trkpt>
<trkpt lat="34.350596" lon="-117.942783"><ele>2000.6</ele><time>2024-05-17T17:27:02Z</time></trkpt>
<trkpt lat="34.349566" lon="-117.943181"><ele>1990.6</ele><time>2024-05-17T17:29:44Z</time></trkpt>
<trkpt lat="34.349488" lon="-117.943430"><ele>1989.0</ele><time>2024-05-17T17:30:01Z</time></trkpt>
<trkpt lat="34.349514" lon="-117.943952"><ele>1988.4</ele><time>2024-05-17T17:30:23Z</time></trkpt>
<trkpt lat="34.349377" lon="-117.944299"><ele>1983.8</ele><time>2024-05-17T17:31:09Z</time></trkpt>
<trkpt lat="34.349415" lon="-117.944565"><ele>1982.8</ele><time>2024-05-17T17:31:23Z</time></trkpt>
<trkpt lat="34.349296" lon="-117.945064"><ele>1979.6</ele><time>2024-05-17T17:32:01Z</time></trkpt>
<trkpt lat="34.349320" lon="-117.945857"><ele>1973.8</ele><time>2024-05-17T17:32:55Z</time></trkpt>
<trkpt lat="34.349103" lon="-117.946632"><ele>1967.6</ele><time>2024-05-17T17:33:48Z</time></trkpt>
<trkpt lat="34.349160" lon="-117.946811"><ele>1966.8</ele><time>2024-05-17T17:34:00Z</time></trkpt>
<trkpt lat="34.349164" lon="-117.947178"><ele>1965.2</ele><time>2024-05-17T17:34:19Z</time></trkpt>
<trkpt lat="34.349096" lon="-117.947853"><ele>1957.4</ele><time>2024-05-17T17:35:33Z</time></trkpt>
<trkpt lat="34.348953" lon="-117.948210"><ele>1955.8</ele><time>2024-05-17T17:35:48Z</time></trkpt>
<trkpt lat="34.348857" lon="-117.948003"><ele>1955.2</ele><time>2024-05-17T17:35:52Z</time></trkpt>
<trkpt lat="34.348795" lon="-117.947990"><ele>1955.4</ele><time>2024-05-17T17:35:56Z</time></trkpt>
<trkpt lat="34.348506" lon="-117.948410"><ele>1952.2</ele><time>2024-05-17T17:36:37Z</time></trkpt>
<trkpt lat="34.348526" lon="-117.948687"><ele>1951.4</ele><time>2024-05-17T17:36:46Z</time></trkpt>
<trkpt lat="34.348503" lon="-117.948794"><ele>1951.0</ele><time>2024-05-17T17:36:50Z</time></trkpt>
<trkpt lat="34.348417" lon="-117.948850"><ele>1950.8</ele><time>2024-05-17T17:37:00Z</time></trkpt>
<trkpt lat="34.348375" lon="-117.949214"><ele>1948.4</ele><time>2024-05-17T17:37:35Z</time></trkpt>
<trkpt lat="34.348608" lon="-117.949135"><ele>1945.6</ele><time>2024-05-17T17:38:03Z</time></trkpt>
<trkpt lat="34.348747" lon="-117.949254"><ele>1944.0</ele><time>2024-05-17T17:38:21Z</time></trkpt>
<trkpt lat="34.348534" lon="-117.949628"><ele>1941.2</ele><time>2024-05-17T17:38:50Z</time></trkpt>
<trkpt lat="34.348562" lon="-117.949490"><ele>1940.8</ele><time>2024-05-17T17:38:54Z</time></trkpt>
<trkpt lat="34.348496" lon="-117.949506"><ele>1940.2</ele><time>2024-05-17T17:39:01Z</time></trkpt>
<trkpt lat="34.348301" lon="-117.949894"><ele>1937.8</ele><time>2024-05-17T17:39:36Z</time></trkpt>
<trkpt lat="34.348395" lon="-117.950065"><ele>1937.0</ele><time>2024-05-17T17:39:52Z</time></trkpt>
<trkpt lat="34.348550" lon="-117.950153"><ele>1935.0</ele><time>2024-05-17T17:40:36Z</time></trkpt>
<trkpt lat="34.348629" lon="-117.950494"><ele>1932.8</ele><time>2024-05-17T17:41:01Z</time></trkpt>
<trkpt lat="34.349009" lon="-117.951151"><ele>1927.4</ele><time>2024-05-17T17:41:54Z</time></trkpt>
<trkpt lat="34.349448" lon="-117.952123"><ele>1919.8</ele><time>2024-05-17T17:43:09Z</time></trkpt>
<trkpt lat="34.349391" lon="-117.952367"><ele>1917.6</ele><time>2024-05-17T17:43:29Z</time></trkpt>
<trkpt lat="34.349500" lon="-117.952542"><ele>1916.8</ele><time>2024-05-17T17:43:45Z</time></trkpt>
<trkpt lat="34.349743" lon="-117.953269"><ele>1912.6</ele><time>2024-05-17T17:44:29Z</time></trkpt>
<trkpt lat="34.349775" lon="-117.954060"><ele>1906.6</ele><time>2024-05-17T17:45:44Z</time></trkpt>
<trkpt lat="34.349806" lon="-117.954107"><ele>1906.6</ele><time>2024-05-17T17:45:45Z</time></trkpt>
<trkpt lat="34.349877" lon="-117.953978"><ele>1906.6</ele><time>2024-05-17T17:45:52Z</time></trkpt>
<trkpt lat="34.349827" lon="-117.954089"><ele>1905.8</ele><time>2024-05-17T17:46:01Z</time></trkpt>
<trkpt lat="34.350271" lon="-117.954965"><ele>1906.6</ele><time>2024-05-17T17:46:58Z</time></trkpt>
<trkpt lat="34.350398" lon="-117.955426"><ele>1907.4</ele><time>2024-05-17T17:47:52Z</time></trkpt>
<trkpt lat="34.350345" lon="-117.955580"><ele>1908.0</ele><time>2024-05-17T17:48:04Z</time></trkpt>
<trkpt lat="34.350384" lon="-117.955764"><ele>1908.6</ele><time>2024-05-17T17:48:19Z</time></trkpt>
<trkpt lat="34.350673" lon="-117.955872"><ele>1907.6</ele><time>2024-05-17T17:48:36Z</time></trkpt>
<trkpt lat="34.351056" lon="-117.956214"><ele>1911.2</ele><time>2024-05-17T17:49:36Z</time></trkpt>
<trkpt lat="34.351627" lon="-117.956914"><ele>1913.4</ele><time>2024-05-17T17:50:31Z</time></trkpt>
<trkpt lat="34.351680" lon="-117.957110"><ele>1913.6</ele><time>2024-05-17T17:50:43Z</time></trkpt>
<trkpt lat="34.352057" lon="-117.957735"><ele>1917.4</ele><time>2024-05-17T17:52:43Z</time></trkpt>
<trkpt lat="34.352371" lon="-117.958135"><ele>1917.2</ele><time>2024-05-17T17:52:45Z</time></trkpt>
<trkpt lat="34.352228" lon="-117.957935"><ele>1917.4</ele><time>2024-05-17T17:52:52Z</time></trkpt>
<trkpt lat="34.352347" lon="-117.957965"><ele>1917.0</ele><time>2024-05-17T17:53:41Z</time></trkpt>
<trkpt lat="34.352235" lon="-117.957958"><ele>1916.0</ele><time>2024-05-17T17:53:54Z</time></trkpt>
<trkpt lat="34.352186" lon="-117.957841"><ele>1916.0</ele><time>2024-05-17T17:54:01Z</time></trkpt>
<trkpt lat="34.352294" lon="-117.958031"><ele>1916.0</ele><time>2024-05-17T17:54:30Z</time></trkpt>
<trkpt lat="34.352261" lon="-117.958061"><ele>1916.8</ele><time>2024-05-17T17:54:55Z</time></trkpt>
<trkpt lat="34.352410" lon="-117.958129"><ele>1917.2</ele><time>2024-05-17T17:56:20Z</time></trkpt>
<trkpt lat="34.352221" lon="-117.957870"><ele>1917.0</ele><time>2024-05-17T17:56:55Z</time></trkpt>
<trkpt lat="34.352367" lon="-117.958211"><ele>1918.2</ele><time>2024-05-17T17:58:46Z</time></trkpt>
<trkpt lat="34.352403" lon="-117.958164"><ele>1918.0</ele><time>2024-05-17T17:58:48Z</time></trkpt>
<trkpt lat="34.352253" lon="-117.957991"><ele>1918.0</ele><time>2024-05-17T17:58:54Z</time></trkpt>
<trkpt lat="34.352273" lon="-117.957924"><ele>1917.8</ele><time>2024-05-17T17:59:01Z</time></trkpt>
<trkpt lat="34.352338" lon="-117.957929"><ele>1917.8</ele><time>2024-05-17T17:59:05Z</time></trkpt>
<trkpt lat="34.352228" lon="-117.957925"><ele>1917.6</ele><time>2024-05-17T17:59:43Z</time></trkpt>
<trkpt lat="34.352271" lon="-117.957938"><ele>1917.4</ele><time>2024-05-17T18:00:00Z</time></trkpt>
<trkpt lat="34.352200" lon="-117.957995"><ele>1917.4</ele><time>2024-05-17T18:01:46Z</time></trkpt>
<trkpt lat="34.352293" lon="-117.957976"><ele>1917.2</ele><time>2024-05-17T18:02:06Z</time></trkpt>
<trkpt lat="34.352221" lon="-117.957876"><ele>1917.2</ele><time>2024-05-17T18:02:54Z</time></trkpt>
<trkpt lat="34.352272" lon="-117.957987"><ele>1917.8</ele><time>2024-05-17T18:04:48Z</time></trkpt>
<trkpt lat="34.352240" lon="-117.957964"><ele>1917.8</ele><time>2024-05-17T18:04:50Z</time></trkpt>
<trkpt lat="34.352229" lon="-117.957917"><ele>1917.8</ele><time>2024-05-17T18:04:54Z</time></trkpt>
<trkpt lat="34.352306" lon="-117.957958"><ele>1919.4</ele><time>2024-05-17T18:06:44Z</time></trkpt>
<trkpt lat="34.352244" lon="-117.957916"><ele>1919.2</ele><time>2024-05-17T18:06:54Z</time></trkpt>
<trkpt lat="34.352228" lon="-117.957980"><ele>1918.6</ele><time>2024-05-17T18:08:53Z</time></trkpt>
<trkpt lat="34.352210" lon="-117.957844"><ele>1919.4</ele><time>2024-05-17T18:10:50Z</time></trkpt>
<trkpt lat="34.352247" lon="-117.957901"><ele>1919.0</ele><time>2024-05-17T18:10:58Z</time></trkpt>
<trkpt lat="34.352195" lon="-117.957959"><ele>1917.2</ele><time>2024-05-17T18:12:39Z</time></trkpt>
<trkpt lat="34.352172" lon="-117.957909"><ele>1917.4</ele><time>2024-05-17T18:12:45Z</time></trkpt>
<trkpt lat="34.352229" lon="-117.957936"><ele>1917.8</ele><time>2024-05-17T18:12:57Z</time></trkpt>
<trkpt lat="34.351370" lon="-117.959175"><ele>1920.0</ele><time>2024-05-17T18:14:51Z</time></trkpt>
<trkpt lat="34.351587" lon="-117.959073"><ele>1920.0</ele><time>2024-05-17T18:14:53Z</time></trkpt>
<trkpt lat="34.351636" lon="-117.958606"><ele>1920.2</ele><time>2024-05-17T18:14:57Z</time></trkpt>
<trkpt lat="34.350754" lon="-117.959927"><ele>1923.4</ele><time>2024-05-17T18:16:01Z</time></trkpt>
<trkpt lat="34.349923" lon="-117.960977"><ele>1925.0</ele><time>2024-05-17T18:16:46Z</time></trkpt>
<trkpt lat="34.349835" lon="-117.960105"><ele>1925.6</ele><time>2024-05-17T18:16:50Z</time></trkpt>
<trkpt lat="34.350336" lon="-117.960023"><ele>1925.6</ele><time>2024-05-17T18:16:51Z</time></trkpt>
<trkpt lat="34.350855" lon="-117.960155"><ele>1926.4</ele><time>2024-05-17T18:16:59Z</time></trkpt>
<trkpt lat="34.350137" lon="-117.960452"><ele>1926.6</ele><time>2024-05-17T18:17:01Z</time></trkpt>
<trkpt lat="34.350379" lon="-117.961221"><ele>1926.6</ele><time>2024-05-17T18:18:09Z</time></trkpt>
<trkpt lat="34.350641" lon="-117.961615"><ele>1924.8</ele><time>2024-05-17T18:18:43Z</time></trkpt>
<trkpt lat="34.350798" lon="-117.961386"><ele>1924.8</ele><time>2024-05-17T18:18:44Z</time></trkpt>
<trkpt lat="34.350930" lon="-117.961642"><ele>1925.8</ele><time>2024-05-17T18:18:52Z</time></trkpt>
<trkpt lat="34.350903" lon="-117.961735"><ele>1927.0</ele><time>2024-05-17T18:19:00Z</time></trkpt>
<trkpt lat="34.349850" lon="-117.962805"><ele>1939.8</ele><time>2024-05-17T18:20:13Z</time></trkpt>
<trkpt lat="34.349153" lon="-117.963469"><ele>1942.0</ele><time>2024-05-17T18:20:42Z</time></trkpt>
<trkpt lat="34.349482" lon="-117.963250"><ele>1941.8</ele><time>2024-05-17T18:20:45Z</time></trkpt>
<trkpt lat="34.350224" lon="-117.962958"><ele>1941.8</ele><time>2024-05-17T18:20:53Z</time></trkpt>
<trkpt lat="34.349853" lon="-117.963351"><ele>1939.6</ele><time>2024-05-17T18:21:11Z</time></trkpt>
<trkpt lat="34.349528" lon="-117.963883"><ele>1934.4</ele><time>2024-05-17T18:21:37Z</time></trkpt>
<trkpt lat="34.348243" lon="-117.964725"><ele>1924.8</ele><time>2024-05-17T18:22:49Z</time></trkpt>
<trkpt lat="34.349403" lon="-117.964286"><ele>1924.6</ele><time>2024-05-17T18:22:50Z</time></trkpt>
<trkpt lat="34.349551" lon="-117.964114"><ele>1923.6</ele><time>2024-05-17T18:22:55Z</time></trkpt>
<trkpt lat="34.349293" lon="-117.963872"><ele>1919.4</ele><time>2024-05-17T18:23:21Z</time></trkpt>
<trkpt lat="34.349171" lon="-117.963837"><ele>1916.0</ele><time>2024-05-17T18:23:51Z</time></trkpt>
<trkpt lat="34.349154" lon="-117.963708"><ele>1913.8</ele><time>2024-05-17T18:24:01Z</time></trkpt>
<trkpt lat="34.348997" lon="-117.963562"><ele>1910.4</ele><time>2024-05-17T18:24:19Z</time></trkpt>
<trkpt lat="34.348850" lon="-117.963641"><ele>1908.2</ele><time>2024-05-17T18:24:31Z</time></trkpt>
<trkpt lat="34.348704" lon="-117.963510"><ele>1907.2</ele><time>2024-05-17T18:24:44Z</time></trkpt>
<trkpt lat="34.348586" lon="-117.963876"><ele>1907.4</ele><time>2024-05-17T18:24:47Z</time></trkpt>
<trkpt lat="34.348543" lon="-117.963835"><ele>1907.6</ele><time>2024-05-17T18:24:48Z</time></trkpt>
<trkpt lat="34.348553" lon="-117.963913"><ele>1907.6</ele><time>2024-05-17T18:24:49Z</time></trkpt>
<trkpt lat="34.348687" lon="-117.963971"><ele>1908.4</ele><time>2024-05-17T18:25:00Z</time></trkpt>
<trkpt lat="34.348608" lon="-117.963956"><ele>1907.8</ele><time>2024-05-17T18:25:06Z</time></trkpt>
<trkpt lat="34.348334" lon="-117.964368"><ele>1908.8</ele><time>2024-05-17T18:25:42Z</time></trkpt>
<trkpt lat="34.348102" lon="-117.964505"><ele>1910.0</ele><time>2024-05-17T18:26:02Z</time></trkpt>
<trkpt lat="34.347598" lon="-117.965010"><ele>1911.6</ele><time>2024-05-17T18:26:39Z</time></trkpt>
<trkpt lat="34.347085" lon="-117.965626"><ele>1912.6</ele><time>2024-05-17T18:27:42Z</time></trkpt>
<trkpt lat="34.347370" lon="-117.965518"><ele>1912.6</ele><time>2024-05-17T18:27:53Z</time></trkpt>
<trkpt lat="34.347299" lon="-117.965603"><ele>1913.2</ele><time>2024-05-17T18:28:00Z</time></trkpt>
<trkpt lat="34.346635" lon="-117.965987"><ele>1918.2</ele><time>2024-05-17T18:29:05Z</time></trkpt>
<trkpt lat="34.346451" lon="-117.966012"><ele>1917.4</ele><time>2024-05-17T18:29:21Z</time></trkpt>
<trkpt lat="34.346126" lon="-117.966217"><ele>1916.0</ele><time>2024-05-17T18:29:43Z</time></trkpt>
<trkpt lat="34.345919" lon="-117.966270"><ele>1916.2</ele><time>2024-05-17T18:29:48Z</time></trkpt>
<trkpt lat="34.346105" lon="-117.966353"><ele>1916.0</ele><time>2024-05-17T18:29:54Z</time></trkpt>
<trkpt lat="34.345951" lon="-117.966371"><ele>1915.0</ele><time>2024-05-17T18:30:03Z</time></trkpt>
<trkpt lat="34.345697" lon="-117.966680"><ele>1913.4</ele><time>2024-05-17T18:30:25Z</time></trkpt>
<trkpt lat="34.345436" lon="-117.966797"><ele>1910.8</ele><time>2024-05-17T18:30:47Z</time></trkpt>
<trkpt lat="34.345392" lon="-117.967006"><ele>1908.6</ele><time>2024-05-17T18:31:21Z</time></trkpt>
<trkpt lat="34.345227" lon="-117.967272"><ele>1907.0</ele><time>2024-05-17T18:31:44Z</time></trkpt>
<trkpt lat="34.345088" lon="-117.967340"><ele>1907.0</ele><time>2024-05-17T18:31:46Z</time></trkpt>
<trkpt lat="34.345248" lon="-117.967314"><ele>1906.8</ele><time>2024-05-17T18:31:52Z</time></trkpt>
<trkpt lat="34.345333" lon="-117.967376"><ele>1906.4</ele><time>2024-05-17T18:31:57Z</time></trkpt>
<trkpt lat="34.345296" lon="-117.967682"><ele>1904.4</ele><time>2024-05-17T18:32:53Z</time></trkpt>
<trkpt lat="34.345387" lon="-117.967849"><ele>1904.6</ele><time>2024-05-17T18:33:46Z</time></trkpt>
<trkpt lat="34.345278" lon="-117.967875"><ele>1904.6</ele><time>2024-05-17T18:33:47Z</time></trkpt>
<trkpt lat="34.345377" lon="-117.967714"><ele>1904.8</ele><time>2024-05-17T18:33:52Z</time></trkpt>
<trkpt lat="34.345405" lon="-117.967532"><ele>1905.0</ele><time>2024-05-17T18:34:04Z</time></trkpt>
<trkpt lat="34.345358" lon="-117.967079"><ele>1906.4</ele><time>2024-05-17T18:34:29Z</time></trkpt>
<trkpt lat="34.345442" lon="-117.967121"><ele>1906.8</ele><time>2024-05-17T18:34:41Z</time></trkpt>
<trkpt lat="34.345328" lon="-117.967018"><ele>1906.8</ele><time>2024-05-17T18:34:54Z</time></trkpt>
<trkpt lat="34.345493" lon="-117.966865"><ele>1906.8</ele><time>2024-05-17T18:35:02Z</time></trkpt>
<trkpt lat="34.345445" lon="-117.966820"><ele>1906.8</ele><time>2024-05-17T18:35:05Z</time></trkpt>
<trkpt lat="34.345483" lon="-117.966809"><ele>1906.8</ele><time>2024-05-17T18:35:11Z</time></trkpt>
<trkpt lat="34.345445" lon="-117.967057"><ele>1906.6</ele><time>2024-05-17T18:35:44Z</time></trkpt>
<trkpt lat="34.345328" lon="-117.967019"><ele>1907.0</ele><time>2024-05-17T18:36:02Z</time></trkpt>
<trkpt lat="34.345444" lon="-117.966827"><ele>1908.2</ele><time>2024-05-17T18:37:46Z</time></trkpt>
<trkpt lat="34.345483" lon="-117.966847"><ele>1908.2</ele><time>2024-05-17T18:37:48Z</time></trkpt>
<trkpt lat="34.345244" lon="-117.967018"><ele>1908.2</ele><time>2024-05-17T18:37:51Z</time></trkpt>
<trkpt lat="34.345292" lon="-117.967059"><ele>1908.2</ele><time>2024-05-17T18:38:00Z</time></trkpt>
<trkpt lat="34.345268" lon="-117.967012"><ele>1908.6</ele><time>2024-05-17T18:38:10Z</time></trkpt>
<trkpt lat="34.345435" lon="-117.966941"><ele>1910.8</ele><time>2024-05-17T18:38:26Z</time></trkpt>
<trkpt lat="34.345636" lon="-117.966536"><ele>1911.8</ele><time>2024-05-17T18:39:43Z</time></trkpt>
<trkpt lat="34.345599" lon="-117.966552"><ele>1912.0</ele><time>2024-05-17T18:39:56Z</time></trkpt>
<trkpt lat="34.345989" lon="-117.966521"><ele>1908.4</ele><time>2024-05-17T18:41:33Z</time></trkpt>
<trkpt lat="34.345508" lon="-117.966972"><ele>1908.2</ele><time>2024-05-17T18:41:51Z</time></trkpt>
<trkpt lat="34.345585" lon="-117.966988"><ele>1908.0</ele><time>2024-05-17T18:41:55Z</time></trkpt>
<trkpt lat="34.345505" lon="-117.967084"><ele>1908.2</ele><time>2024-05-17T18:42:02Z</time></trkpt>
<trkpt lat="34.345336" lon="-117.967043"><ele>1909.2</ele><time>2024-05-17T18:42:14Z</time></trkpt>
<trkpt lat="34.345391" lon="-117.967098"><ele>1909.6</ele><time>2024-05-17T18:42:31Z</time></trkpt>
<trkpt lat="34.345323" lon="-117.967030"><ele>1909.4</ele><time>2024-05-17T18:42:53Z</time></trkpt>
<trkpt lat="34.345370" lon="-117.967071"><ele>1909.6</ele><time>2024-05-17T18:43:04Z</time></trkpt>
<trkpt lat="34.345534" lon="-117.966997"><ele>1908.8</ele><time>2024-05-17T18:43:41Z</time></trkpt>
<trkpt lat="34.345422" lon="-117.967052"><ele>1908.4</ele><time>2024-05-17T18:43:47Z</time></trkpt>
<trkpt lat="34.345491" lon="-117.967072"><ele>1909.4</ele><time>2024-05-17T18:44:05Z</time></trkpt>
<trkpt lat="34.345365" lon="-117.966989"><ele>1909.8</ele><time>2024-05-17T18:44:55Z</time></trkpt>
<trkpt lat="34.345311" lon="-117.968112"><ele>1905.4</ele><time>2024-05-17T18:46:42Z</time></trkpt>
<trkpt lat="34.345319" lon="-117.968009"><ele>1905.4</ele><time>2024-05-17T18:46:43Z</time></trkpt>
<trkpt lat="34.345066" lon="-117.968091"><ele>1904.2</ele><time>2024-05-17T18:46:54Z</time></trkpt>
<trkpt lat="34.344670" lon="-117.968915"><ele>1900.2</ele><time>2024-05-17T18:48:19Z</time></trkpt>
<trkpt lat="34.344328" lon="-117.969248"><ele>1897.0</ele><time>2024-05-17T18:48:48Z</time></trkpt>
<trkpt lat="34.344000" lon="-117.969370"><ele>1896.0</ele><time>2024-05-17T18:49:00Z</time></trkpt>
<trkpt lat="34.343506" lon="-117.970465"><ele>1888.8</ele><time>2024-05-17T18:50:44Z</time></trkpt>
<trkpt lat="34.343565" lon="-117.970432"><ele>1888.6</ele><time>2024-05-17T18:50:45Z</time></trkpt>
<trkpt lat="34.343245" lon="-117.970648"><ele>1888.2</ele><time>2024-05-17T18:50:59Z</time></trkpt>
<trkpt lat="34.343121" lon="-117.970962"><ele>1886.2</ele><time>2024-05-17T18:51:21Z</time></trkpt>
<trkpt lat="34.343065" lon="-117.971897"><ele>1880.0</ele><time>2024-05-17T18:52:43Z</time></trkpt>
<trkpt lat="34.343162" lon="-117.971898"><ele>1879.8</ele><time>2024-05-17T18:52:45Z</time></trkpt>
<trkpt lat="34.341821" lon="-117.972682"><ele>1874.4</ele><time>2024-05-17T18:54:50Z</time></trkpt>
<trkpt lat="34.341429" lon="-117.973575"><ele>1871.2</ele><time>2024-05-17T18:56:00Z</time></trkpt>
<trkpt lat="34.341433" lon="-117.974241"><ele>1869.6</ele><time>2024-05-17T18:56:44Z</time></trkpt>
<trkpt lat="34.341476" lon="-117.974224"><ele>1869.6</ele><time>2024-05-17T18:56:46Z</time></trkpt>
<trkpt lat="34.341325" lon="-117.974445"><ele>1868.0</ele><time>2024-05-17T18:57:02Z</time></trkpt>
<trkpt lat="34.341546" lon="-117.974707"><ele>1864.6</ele><time>2024-05-17T18:58:03Z</time></trkpt>
<trkpt lat="34.342238" lon="-117.974590"><ele>1861.2</ele><time>2024-05-17T18:58:46Z</time></trkpt>
<trkpt lat="34.342002" lon="-117.974915"><ele>1860.4</ele><time>2024-05-17T18:58:52Z</time></trkpt>
<trkpt lat="34.342061" lon="-117.974974"><ele>1859.8</ele><time>2024-05-17T18:58:59Z</time></trkpt>
<trkpt lat="34.342075" lon="-117.975205"><ele>1857.2</ele><time>2024-05-17T18:59:23Z</time></trkpt>
<trkpt lat="34.341777" lon="-117.975515"><ele>1854.0</ele><time>2024-05-17T19:00:09Z</time></trkpt>
<trkpt lat="34.341809" lon="-117.975667"><ele>1853.4</ele><time>2024-05-17T19:00:17Z</time></trkpt>
<trkpt lat="34.341912" lon="-117.975934"><ele>1852.8</ele><time>2024-05-17T19:00:33Z</time></trkpt>
<trkpt lat="34.342018" lon="-117.975943"><ele>1852.2</ele><time>2024-05-17T19:00:51Z</time></trkpt>
<trkpt lat="34.342138" lon="-117.976148"><ele>1851.4</ele><time>2024-05-17T19:01:12Z</time></trkpt>
<trkpt lat="34.342624" lon="-117.976128"><ele>1849.4</ele><time>2024-05-17T19:01:40Z</time></trkpt>
<trkpt lat="34.342592" lon="-117.976348"><ele>1848.8</ele><time>2024-05-17T19:01:50Z</time></trkpt>
<trkpt lat="34.342755" lon="-117.977034"><ele>1843.4</ele><time>2024-05-17T19:02:55Z</time></trkpt>
<trkpt lat="34.342790" lon="-117.977526"><ele>1838.6</ele><time>2024-05-17T19:03:39Z</time></trkpt>
<trkpt lat="34.342894" lon="-117.977745"><ele>1838.4</ele><time>2024-05-17T19:03:46Z</time></trkpt>
<trkpt lat="34.342948" lon="-117.977690"><ele>1838.4</ele><time>2024-05-17T19:03:47Z</time></trkpt>
<trkpt lat="34.342944" lon="-117.977971"><ele>1838.0</ele><time>2024-05-17T19:03:57Z</time></trkpt>
<trkpt lat="34.343196" lon="-117.978837"><ele>1837.8</ele><time>2024-05-17T19:05:43Z</time></trkpt>
<trkpt lat="34.343174" lon="-117.979035"><ele>1838.4</ele><time>2024-05-17T19:05:54Z</time></trkpt>
<trkpt lat="34.343269" lon="-117.979033"><ele>1838.2</ele><time>2024-05-17T19:05:58Z</time></trkpt>
<trkpt lat="34.343112" lon="-117.979213"><ele>1839.2</ele><time>2024-05-17T19:06:16Z</time></trkpt>
<trkpt lat="34.342683" lon="-117.979467"><ele>1841.8</ele><time>2024-05-17T19:07:24Z</time></trkpt>
<trkpt lat="34.342338" lon="-117.979834"><ele>1837.6</ele><time>2024-05-17T19:07:47Z</time></trkpt>
<trkpt lat="34.342536" lon="-117.980060"><ele>1837.4</ele><time>2024-05-17T19:08:07Z</time></trkpt>
<trkpt lat="34.342709" lon="-117.980498"><ele>1833.2</ele><time>2024-05-17T19:08:43Z</time></trkpt>
<trkpt lat="34.342643" lon="-117.980673"><ele>1831.2</ele><time>2024-05-17T19:08:57Z</time></trkpt>
<trkpt lat="34.342621" lon="-117.981305"><ele>1828.4</ele><time>2024-05-17T19:09:51Z</time></trkpt>
<trkpt lat="34.342549" lon="-117.981356"><ele>1828.4</ele><time>2024-05-17T19:09:59Z</time></trkpt>
<trkpt lat="34.342437" lon="-117.981853"><ele>1829.2</ele><time>2024-05-17T19:10:39Z</time></trkpt>
<trkpt lat="34.342453" lon="-117.982013"><ele>1829.8</ele><time>2024-05-17T19:10:59Z</time></trkpt>
<trkpt lat="34.342421" lon="-117.982295"><ele>1822.4</ele><time>2024-05-17T19:11:45Z</time></trkpt>
<trkpt lat="34.342404" lon="-117.982254"><ele>1822.0</ele><time>2024-05-17T19:11:46Z</time></trkpt>
<trkpt lat="34.342829" lon="-117.982332"><ele>1814.4</ele><time>2024-05-17T19:12:19Z</time></trkpt>
<trkpt lat="34.342720" lon="-117.982546"><ele>1812.2</ele><time>2024-05-17T19:12:35Z</time></trkpt>
<trkpt lat="34.342779" lon="-117.982666"><ele>1809.8</ele><time>2024-05-17T19:12:49Z</time></trkpt>
<trkpt lat="34.342475" lon="-117.982865"><ele>1804.8</ele><time>2024-05-17T19:13:20Z</time></trkpt>
<trkpt lat="34.342429" lon="-117.982993"><ele>1802.6</ele><time>2024-05-17T19:13:34Z</time></trkpt>
<trkpt lat="34.342761" lon="-117.983220"><ele>1799.2</ele><time>2024-05-17T19:14:02Z</time></trkpt>
<trkpt lat="34.342654" lon="-117.983757"><ele>1794.4</ele><time>2024-05-17T19:14:58Z</time></trkpt>
<trkpt lat="34.343294" lon="-117.983126"><ele>1808.4</ele><time>2024-05-17T19:16:43Z</time></trkpt>
<trkpt lat="34.343252" lon="-117.983183"><ele>1809.0</ele><time>2024-05-17T19:16:47Z</time></trkpt>
<trkpt lat="34.343276" lon="-117.983052"><ele>1809.6</ele><time>2024-05-17T19:16:51Z</time></trkpt>
<trkpt lat="34.343460" lon="-117.983316"><ele>1808.2</ele><time>2024-05-17T19:18:45Z</time></trkpt>
<trkpt lat="34.343526" lon="-117.983303"><ele>1807.6</ele><time>2024-05-17T19:18:51Z</time></trkpt>
<trkpt lat="34.343541" lon="-117.983417"><ele>1809.4</ele><time>2024-05-17T19:18:59Z</time></trkpt>
<trkpt lat="34.343819" lon="-117.983391"><ele>1811.6</ele><time>2024-05-17T19:19:31Z</time></trkpt>
<trkpt lat="34.344290" lon="-117.983094"><ele>1814.6</ele><time>2024-05-17T19:20:41Z</time></trkpt>
<trkpt lat="34.344499" lon="-117.983148"><ele>1814.0</ele><time>2024-05-17T19:20:55Z</time></trkpt>
<trkpt lat="34.344560" lon="-117.983077"><ele>1814.6</ele><time>2024-05-17T19:21:02Z</time></trkpt>
<trkpt lat="34.348383" lon="-117.981643"><ele>1817.6</ele><time>2024-05-17T19:27:51Z</time></trkpt>
<trkpt lat="34.348677" lon="-117.981665"><ele>1816.6</ele><time>2024-05-17T19:28:15Z</time></trkpt>
<trkpt lat="34.349222" lon="-117.981528"><ele>1816.6</ele><time>2024-05-17T19:28:44Z</time></trkpt>
<trkpt lat="34.349339" lon="-117.981384"><ele>1816.8</ele><time>2024-05-17T19:28:53Z</time></trkpt>
<trkpt lat="34.349604" lon="-117.981440"><ele>1815.6</ele><time>2024-05-17T19:29:11Z</time></trkpt>
<trkpt lat="34.349764" lon="-117.981593"><ele>1814.6</ele><time>2024-05-17T19:29:39Z</time></trkpt>
<trkpt lat="34.349786" lon="-117.981734"><ele>1814.8</ele><time>2024-05-17T19:30:19Z</time></trkpt>
<trkpt lat="34.349975" lon="-117.981634"><ele>1814.8</ele><time>2024-05-17T19:30:42Z</time></trkpt>
<trkpt lat="34.350078" lon="-117.981461"><ele>1814.6</ele><time>2024-05-17T19:30:50Z</time></trkpt>
<trkpt lat="34.350112" lon="-117.981343"><ele>1814.6</ele><time>2024-05-17T19:30:55Z</time></trkpt>
<trkpt lat="34.350063" lon="-117.981157"><ele>1814.8</ele><time>2024-05-17T19:31:02Z</time></trkpt>
<trkpt lat="34.350818" lon="-117.980996"><ele>1812.4</ele><time>2024-05-17T19:32:19Z</time></trkpt>
<trkpt lat="34.351136" lon="-117.981070"><ele>1812.2</ele><time>2024-05-17T19:32:59Z</time></trkpt>
<trkpt lat="34.353486" lon="-117.980560"><ele>1810.0</ele><time>2024-05-17T19:37:01Z</time></trkpt>
<trkpt lat="34.353462" lon="-117.980507"><ele>1810.0</ele><time>2024-05-17T19:37:02Z</time></trkpt>
<trkpt lat="34.354051" lon="-117.981589"><ele>1808.2</ele><time>2024-05-17T19:39:01Z</time></trkpt>
<trkpt lat="34.354423" lon="-117.982045"><ele>1809.6</ele><time>2024-05-17T19:40:07Z</time></trkpt>
<trkpt lat="34.354587" lon="-117.982443"><ele>1809.4</ele><time>2024-05-17T19:40:47Z</time></trkpt>
<trkpt lat="34.354813" lon="-117.982599"><ele>1809.6</ele><time>2024-05-17T19:40:59Z</time></trkpt>
<trkpt lat="34.354914" lon="-117.982789"><ele>1809.8</ele><time>2024-05-17T19:41:39Z</time></trkpt>
<trkpt lat="34.354632" lon="-117.983286"><ele>1812.4</ele><time>2024-05-17T19:42:43Z</time></trkpt>
<trkpt lat="34.354497" lon="-117.983187"><ele>1813.6</ele><time>2024-05-17T19:42:49Z</time></trkpt>
<trkpt lat="34.354480" lon="-117.983323"><ele>1814.6</ele><time>2024-05-17T19:42:54Z</time></trkpt>
<trkpt lat="34.354095" lon="-117.983781"><ele>1814.2</ele><time>2024-05-17T19:43:49Z</time></trkpt>
<trkpt lat="34.353604" lon="-117.983894"><ele>1813.6</ele><time>2024-05-17T19:44:45Z</time></trkpt>
<trkpt lat="34.353394" lon="-117.984074"><ele>1815.6</ele><time>2024-05-17T19:45:05Z</time></trkpt>
<trkpt lat="34.353658" lon="-117.984324"><ele>1815.2</ele><time>2024-05-17T19:45:27Z</time></trkpt>
<trkpt lat="34.353774" lon="-117.984605"><ele>1815.8</ele><time>2024-05-17T19:45:54Z</time></trkpt>
<trkpt lat="34.353944" lon="-117.984782"><ele>1814.4</ele><time>2024-05-17T19:46:19Z</time></trkpt>
<trkpt lat="34.354029" lon="-117.984983"><ele>1810.6</ele><time>2024-05-17T19:46:49Z</time></trkpt>
<trkpt lat="34.353724" lon="-117.985400"><ele>1806.2</ele><time>2024-05-17T19:47:35Z</time></trkpt>
<trkpt lat="34.353853" lon="-117.985534"><ele>1804.2</ele><time>2024-05-17T19:47:52Z</time></trkpt>
<trkpt lat="34.353948" lon="-117.985522"><ele>1803.4</ele><time>2024-05-17T19:47:58Z</time></trkpt>
<trkpt lat="34.354087" lon="-117.985757"><ele>1803.0</ele><time>2024-05-17T19:48:08Z</time></trkpt>
<trkpt lat="34.354220" lon="-117.985858"><ele>1801.0</ele><time>2024-05-17T19:48:26Z</time></trkpt>
<trkpt lat="34.354460" lon="-117.985905"><ele>1799.2</ele><time>2024-05-17T19:48:46Z</time></trkpt>
<trkpt lat="34.354617" lon="-117.985869"><ele>1797.0</ele><time>2024-05-17T19:48:53Z</time></trkpt>
<trkpt lat="34.354686" lon="-117.985783"><ele>1795.6</ele><time>2024-05-17T19:48:59Z</time></trkpt>
<trkpt lat="34.354713" lon="-117.986114"><ele>1790.2</ele><time>2024-05-17T19:49:27Z</time></trkpt>
<trkpt lat="34.354472" lon="-117.986279"><ele>1785.6</ele><time>2024-05-17T19:50:01Z</time></trkpt>
<trkpt lat="34.354397" lon="-117.986516"><ele>1782.4</ele><time>2024-05-17T19:50:29Z</time></trkpt>
<trkpt lat="34.354144" lon="-117.986779"><ele>1780.4</ele><time>2024-05-17T19:50:47Z</time></trkpt>
<trkpt lat="34.354315" lon="-117.986934"><ele>1780.0</ele><time>2024-05-17T19:50:54Z</time></trkpt>
<trkpt lat="34.354461" lon="-117.986961"><ele>1779.0</ele><time>2024-05-17T19:51:06Z</time></trkpt>
<trkpt lat="34.354421" lon="-117.987211"><ele>1777.6</ele><time>2024-05-17T19:51:14Z</time></trkpt>
<trkpt lat="34.354529" lon="-117.987267"><ele>1776.8</ele><time>2024-05-17T19:51:21Z</time></trkpt>
<trkpt lat="34.354421" lon="-117.987211"><ele>1774.4</ele><time>2024-05-17T19:51:39Z</time></trkpt>
<trkpt lat="34.354616" lon="-117.987473"><ele>1774.2</ele><time>2024-05-17T19:51:41Z</time></trkpt>
<trkpt lat="34.354708" lon="-117.987440"><ele>1773.6</ele><time>2024-05-17T19:51:47Z</time></trkpt>
<trkpt lat="34.354757" lon="-117.987489"><ele>1773.2</ele><time>2024-05-17T19:51:51Z</time></trkpt>
<trkpt lat="34.354544" lon="-117.987853"><ele>1769.2</ele><time>2024-05-17T19:52:15Z</time></trkpt>
<trkpt lat="34.353974" lon="-117.988491"><ele>1760.4</ele><time>2024-05-17T19:53:45Z</time></trkpt>
<trkpt lat="34.353997" lon="-117.988532"><ele>1760.2</ele><time>2024-05-17T19:53:46Z</time></trkpt>
<trkpt lat="34.353910" lon="-117.988375"><ele>1759.4</ele><time>2024-05-17T19:53:52Z</time></trkpt>
<trkpt lat="34.354191" lon="-117.988484"><ele>1758.2</ele><time>2024-05-17T19:53:58Z</time></trkpt>
<trkpt lat="34.353989" lon="-117.988602"><ele>1756.0</ele><time>2024-05-17T19:54:13Z</time></trkpt>
<trkpt lat="34.353933" lon="-117.988727"><ele>1753.8</ele><time>2024-05-17T19:54:23Z</time></trkpt>
<trkpt lat="34.353947" lon="-117.989135"><ele>1750.2</ele><time>2024-05-17T19:54:41Z</time></trkpt>
<trkpt lat="34.354024" lon="-117.989065"><ele>1749.4</ele><time>2024-05-17T19:54:49Z</time></trkpt>
<trkpt lat="34.353473" lon="-117.990093"><ele>1736.8</ele><time>2024-05-17T19:56:19Z</time></trkpt>
<trkpt lat="34.353581" lon="-117.990186"><ele>1734.0</ele><time>2024-05-17T19:56:44Z</time></trkpt>
<trkpt lat="34.353559" lon="-117.990005"><ele>1733.4</ele><time>2024-05-17T19:56:47Z</time></trkpt>
<trkpt lat="34.353628" lon="-117.989786"><ele>1732.2</ele><time>2024-05-17T19:56:55Z</time></trkpt>
<trkpt lat="34.354687" lon="-117.989895"><ele>1726.4</ele><time>2024-05-17T19:58:48Z</time></trkpt>
<trkpt lat="34.354743" lon="-117.990027"><ele>1726.4</ele><time>2024-05-17T19:58:51Z</time></trkpt>
<trkpt lat="34.354853" lon="-117.990024"><ele>1727.2</ele><time>2024-05-17T19:59:01Z</time></trkpt>
<trkpt lat="34.355129" lon="-117.990202"><ele>1728.0</ele><time>2024-05-17T19:59:27Z</time></trkpt>
<trkpt lat="34.355215" lon="-117.990325"><ele>1728.4</ele><time>2024-05-17T19:59:55Z</time></trkpt>
<trkpt lat="34.355121" lon="-117.990901"><ele>1728.8</ele><time>2024-05-17T20:00:48Z</time></trkpt>
<trkpt lat="34.355035" lon="-117.990903"><ele>1728.2</ele><time>2024-05-17T20:01:00Z</time></trkpt>
<trkpt lat="34.355437" lon="-117.991051"><ele>1730.6</ele><time>2024-05-17T20:02:03Z</time></trkpt>
<trkpt lat="34.355456" lon="-117.991513"><ele>1733.2</ele><time>2024-05-17T20:02:39Z</time></trkpt>
<trkpt lat="34.355614" lon="-117.992063"><ele>1732.6</ele><time>2024-05-17T20:03:02Z</time></trkpt>
<trkpt lat="34.355802" lon="-117.991925"><ele>1732.2</ele><time>2024-05-17T20:03:19Z</time></trkpt>
<trkpt lat="34.356011" lon="-117.991629"><ele>1731.0</ele><time>2024-05-17T20:04:15Z</time></trkpt>
<trkpt lat="34.355986" lon="-117.990879"><ele>1728.6</ele><time>2024-05-17T20:04:46Z</time></trkpt>
<trkpt lat="34.356123" lon="-117.990969"><ele>1728.0</ele><time>2024-05-17T20:04:52Z</time></trkpt>
<trkpt lat="34.356384" lon="-117.990631"><ele>1726.2</ele><time>2024-05-17T20:05:21Z</time></trkpt>
<trkpt lat="34.356596" lon="-117.990558"><ele>1724.4</ele><time>2024-05-17T20:05:41Z</time></trkpt>
<trkpt lat="34.357215" lon="-117.990598"><ele>1720.2</ele><time>2024-05-17T20:06:44Z</time></trkpt>
<trkpt lat="34.357182" lon="-117.990562"><ele>1720.0</ele><time>2024-05-17T20:06:46Z</time></trkpt>
<trkpt lat="34.357354" lon="-117.990690"><ele>1719.0</ele><time>2024-05-17T20:06:53Z</time></trkpt>
<trkpt lat="34.358069" lon="-117.990126"><ele>1711.4</ele><time>2024-05-17T20:08:15Z</time></trkpt>
<trkpt lat="34.358312" lon="-117.989645"><ele>1706.4</ele><time>2024-05-17T20:08:48Z</time></trkpt>
<trkpt lat="34.358458" lon="-117.989878"><ele>1706.0</ele><time>2024-05-17T20:08:51Z</time></trkpt>
<trkpt lat="34.358536" lon="-117.989842"><ele>1704.8</ele><time>2024-05-17T20:08:58Z</time></trkpt>
<trkpt lat="34.360168" lon="-117.990870"><ele>1691.8</ele><time>2024-05-17T20:11:43Z</time></trkpt>
<trkpt lat="34.360722" lon="-117.990594"><ele>1687.8</ele><time>2024-05-17T20:12:44Z</time></trkpt>
<trkpt lat="34.360832" lon="-117.990680"><ele>1687.0</ele><time>2024-05-17T20:12:47Z</time></trkpt>
<trkpt lat="34.360882" lon="-117.990609"><ele>1685.8</ele><time>2024-05-17T20:12:56Z</time></trkpt>
<trkpt lat="34.361053" lon="-117.990624"><ele>1685.0</ele><time>2024-05-17T20:13:00Z</time></trkpt>
<trkpt lat="34.361000" lon="-117.990590"><ele>1684.8</ele><time>2024-05-17T20:13:01Z</time></trkpt>
<trkpt lat="34.361424" lon="-117.990252"><ele>1681.6</ele><time>2024-05-17T20:13:35Z</time></trkpt>
<trkpt lat="34.361609" lon="-117.990236"><ele>1680.4</ele><time>2024-05-17T20:13:47Z</time></trkpt>
<trkpt lat="34.361851" lon="-117.990414"><ele>1677.2</ele><time>2024-05-17T20:14:27Z</time></trkpt>
<trkpt lat="34.361976" lon="-117.990330"><ele>1675.2</ele><time>2024-05-17T20:14:43Z</time></trkpt>
<trkpt lat="34.361979" lon="-117.990380"><ele>1675.2</ele><time>2024-05-17T20:14:44Z</time></trkpt>
<trkpt lat="34.362035" lon="-117.990137"><ele>1673.4</ele><time>2024-05-17T20:14:58Z</time></trkpt>
<trkpt lat="34.362440" lon="-117.990138"><ele>1671.6</ele><time>2024-05-17T20:15:51Z</time></trkpt>
<trkpt lat="34.362599" lon="-117.990269"><ele>1670.6</ele><time>2024-05-17T20:16:03Z</time></trkpt>
<trkpt lat="34.362964" lon="-117.990361"><ele>1666.2</ele><time>2024-05-17T20:16:44Z</time></trkpt>
<trkpt lat="34.362750" lon="-117.990333"><ele>1665.0</ele><time>2024-05-17T20:16:53Z</time></trkpt>
<trkpt lat="34.362771" lon="-117.990519"><ele>1664.2</ele><time>2024-05-17T20:17:00Z</time></trkpt>
<trkpt lat="34.363074" lon="-117.990520"><ele>1662.4</ele><time>2024-05-17T20:17:25Z</time></trkpt>
<trkpt lat="34.363497" lon="-117.990407"><ele>1656.0</ele><time>2024-05-17T20:18:17Z</time></trkpt>
<trkpt lat="34.363791" lon="-117.990518"><ele>1654.2</ele><time>2024-05-17T20:18:43Z</time></trkpt>
<trkpt lat="34.363833" lon="-117.990463"><ele>1653.8</ele><time>2024-05-17T20:18:46Z</time></trkpt>
<trkpt lat="34.363833" lon="-117.990620"><ele>1653.0</ele><time>2024-05-17T20:18:51Z</time></trkpt>
<trkpt lat="34.364116" lon="-117.990659"><ele>1648.4</ele><time>2024-05-17T20:19:43Z</time></trkpt>
<trkpt lat="34.364874" lon="-117.990456"><ele>1640.2</ele><time>2024-05-17T20:20:44Z</time></trkpt>
<trkpt lat="34.364888" lon="-117.990537"><ele>1639.6</ele><time>2024-05-17T20:20:47Z</time></trkpt>
<trkpt lat="34.365009" lon="-117.990512"><ele>1638.6</ele><time>2024-05-17T20:20:57Z</time></trkpt>
<trkpt lat="34.365115" lon="-117.990874"><ele>1634.2</ele><time>2024-05-17T20:21:27Z</time></trkpt>
<trkpt lat="34.365334" lon="-117.991281"><ele>1628.8</ele><time>2024-05-17T20:22:39Z</time></trkpt>
<trkpt lat="34.365196" lon="-117.991267"><ele>1627.4</ele><time>2024-05-17T20:22:50Z</time></trkpt>
<trkpt lat="34.365424" lon="-117.991713"><ele>1627.2</ele><time>2024-05-17T20:22:51Z</time></trkpt>
<trkpt lat="34.365427" lon="-117.991896"><ele>1626.8</ele><time>2024-05-17T20:22:57Z</time></trkpt>
<trkpt lat="34.365728" lon="-117.992418"><ele>1623.6</ele><time>2024-05-17T20:23:29Z</time></trkpt>
<trkpt lat="34.365895" lon="-117.992570"><ele>1621.8</ele><time>2024-05-17T20:24:05Z</time></trkpt>
<trkpt lat="34.365899" lon="-117.992737"><ele>1619.4</ele><time>2024-05-17T20:24:23Z</time></trkpt>
<trkpt lat="34.366018" lon="-117.992979"><ele>1618.2</ele><time>2024-05-17T20:26:39Z</time></trkpt>
<trkpt lat="34.365862" lon="-117.992857"><ele>1618.6</ele><time>2024-05-17T20:26:52Z</time></trkpt>
<trkpt lat="34.365921" lon="-117.992913"><ele>1618.6</ele><time>2024-05-17T20:26:55Z</time></trkpt>
<trkpt lat="34.365828" lon="-117.992887"><ele>1618.6</ele><time>2024-05-17T20:26:59Z</time></trkpt>
<trkpt lat="34.365925" lon="-117.992922"><ele>1618.6</ele><time>2024-05-17T20:27:02Z</time></trkpt>
<trkpt lat="34.366056" lon="-117.992704"><ele>1620.0</ele><time>2024-05-17T20:28:35Z</time></trkpt>
<trkpt lat="34.366180" lon="-117.992753"><ele>1620.4</ele><time>2024-05-17T20:28:49Z</time></trkpt>
<trkpt lat="34.366070" lon="-117.992810"><ele>1620.4</ele><time>2024-05-17T20:28:56Z</time></trkpt>
<trkpt lat="34.366033" lon="-117.992654"><ele>1621.4</ele><time>2024-05-17T20:31:03Z</time></trkpt>
<trkpt lat="34.365916" lon="-117.992760"><ele>1622.2</ele><time>2024-05-17T20:31:44Z</time></trkpt>
<trkpt lat="34.365963" lon="-117.992765"><ele>1620.6</ele><time>2024-05-17T20:31:57Z</time></trkpt>
<trkpt lat="34.365891" lon="-117.992391"><ele>1621.0</ele><time>2024-05-17T20:33:47Z</time></trkpt>
<trkpt lat="34.366015" lon="-117.992711"><ele>1621.2</ele><time>2024-05-17T20:33:50Z</time></trkpt>
<trkpt lat="34.365874" lon="-117.992658"><ele>1619.6</ele><time>2024-05-17T20:35:54Z</time></trkpt>
<trkpt lat="34.365928" lon="-117.992695"><ele>1619.6</ele><time>2024-05-17T20:36:11Z</time></trkpt>
<trkpt lat="34.365981" lon="-117.992613"><ele>1621.8</ele><time>2024-05-17T20:36:44Z</time></trkpt>
<trkpt lat="34.366008" lon="-117.992641"><ele>1621.2</ele><time>2024-05-17T20:36:56Z</time></trkpt>
<trkpt lat="34.365945" lon="-117.992681"><ele>1624.2</ele><time>2024-05-17T20:38:46Z</time></trkpt>
<trkpt lat="34.366055" lon="-117.992725"><ele>1623.4</ele><time>2024-05-17T20:38:57Z</time></trkpt>
<trkpt lat="34.365976" lon="-117.992628"><ele>1622.8</ele><time>2024-05-17T20:40:17Z</time></trkpt>
<trkpt lat="34.366047" lon="-117.992569"><ele>1622.2</ele><time>2024-05-17T20:40:48Z</time></trkpt>
<trkpt lat="34.366089" lon="-117.992651"><ele>1622.0</ele><time>2024-05-17T20:40:49Z</time></trkpt>
<trkpt lat="34.366008" lon="-117.992728"><ele>1621.8</ele><time>2024-05-17T20:40:58Z</time></trkpt>
<trkpt lat="34.365946" lon="-117.992618"><ele>1622.0</ele><time>2024-05-17T20:42:44Z</time></trkpt>
<trkpt lat="34.365971" lon="-117.992721"><ele>1622.0</ele><time>2024-05-17T20:42:51Z</time></trkpt>
<trkpt lat="34.366019" lon="-117.992593"><ele>1622.2</ele><time>2024-05-17T20:43:00Z</time></trkpt>
<trkpt lat="34.365994" lon="-117.992748"><ele>1623.0</ele><time>2024-05-17T20:44:46Z</time></trkpt>
<trkpt lat="34.366021" lon="-117.992678"><ele>1623.0</ele><time>2024-05-17T20:44:52Z</time></trkpt>
<trkpt lat="34.365975" lon="-117.992659"><ele>1623.2</ele><time>2024-05-17T20:44:56Z</time></trkpt>
<trkpt lat="34.365953" lon="-117.992694"><ele>1623.4</ele><time>2024-05-17T20:44:59Z</time></trkpt>
<trkpt lat="34.366163" lon="-117.992626"><ele>1624.6</ele><time>2024-05-17T20:47:01Z</time></trkpt>
<trkpt lat="34.366287" lon="-117.992291"><ele>1628.4</ele><time>2024-05-17T20:47:39Z</time></trkpt>
<trkpt lat="34.366268" lon="-117.991933"><ele>1627.6</ele><time>2024-05-17T20:48:27Z</time></trkpt>
<trkpt lat="34.366382" lon="-117.991496"><ele>1623.6</ele><time>2024-05-17T20:48:46Z</time></trkpt>
<trkpt lat="34.366379" lon="-117.991647"><ele>1622.6</ele><time>2024-05-17T20:48:53Z</time></trkpt>
<trkpt lat="34.366778" lon="-117.990778"><ele>1616.2</ele><time>2024-05-17T20:49:59Z</time></trkpt>
<trkpt lat="34.366957" lon="-117.990539"><ele>1618.2</ele><time>2024-05-17T20:50:29Z</time></trkpt>
<trkpt lat="34.367024" lon="-117.990330"><ele>1618.4</ele><time>2024-05-17T20:50:42Z</time></trkpt>
<trkpt lat="34.366914" lon="-117.990365"><ele>1618.8</ele><time>2024-05-17T20:50:50Z</time></trkpt>
<trkpt lat="34.366972" lon="-117.990237"><ele>1617.8</ele><time>2024-05-17T20:50:58Z</time></trkpt>
<trkpt lat="34.367241" lon="-117.990203"><ele>1617.8</ele><time>2024-05-17T20:51:07Z</time></trkpt>
<trkpt lat="34.367670" lon="-117.990267"><ele>1617.2</ele><time>2024-05-17T20:51:45Z</time></trkpt>
<trkpt lat="34.367804" lon="-117.990559"><ele>1619.4</ele><time>2024-05-17T20:52:33Z</time></trkpt>
<trkpt lat="34.367762" lon="-117.990714"><ele>1620.6</ele><time>2024-05-17T20:52:47Z</time></trkpt>
<trkpt lat="34.367702" lon="-117.990741"><ele>1620.8</ele><time>2024-05-17T20:52:48Z</time></trkpt>
<trkpt lat="34.367818" lon="-117.991079"><ele>1622.4</ele><time>2024-05-17T20:53:17Z</time></trkpt>
<trkpt lat="34.367849" lon="-117.991467"><ele>1622.0</ele><time>2024-05-17T20:54:31Z</time></trkpt>
<trkpt lat="34.367957" lon="-117.991807"><ele>1622.4</ele><time>2024-05-17T20:54:50Z</time></trkpt>
<trkpt lat="34.368011" lon="-117.991794"><ele>1621.6</ele><time>2024-05-17T20:54:59Z</time></trkpt>
<trkpt lat="34.368047" lon="-117.991879"><ele>1620.2</ele><time>2024-05-17T20:55:07Z</time></trkpt>
<trkpt lat="34.368237" lon="-117.992812"><ele>1625.4</ele><time>2024-05-17T20:56:49Z</time></trkpt>
<trkpt lat="34.368324" lon="-117.992927"><ele>1625.2</ele><time>2024-05-17T20:56:52Z</time></trkpt>
<trkpt lat="34.368263" lon="-117.992938"><ele>1625.0</ele><time>2024-05-17T20:56:57Z</time></trkpt>
<trkpt lat="34.368502" lon="-117.993094"><ele>1624.2</ele><time>2024-05-17T20:57:08Z</time></trkpt>
<trkpt lat="34.368642" lon="-117.993279"><ele>1623.4</ele><time>2024-05-17T20:57:14Z</time></trkpt>
<trkpt lat="34.368791" lon="-117.993342"><ele>1622.2</ele><time>2024-05-17T20:57:22Z</time></trkpt>
<trkpt lat="34.368825" lon="-117.993258"><ele>1620.4</ele><time>2024-05-17T20:58:06Z</time></trkpt>
<trkpt lat="34.368813" lon="-117.993572"><ele>1621.6</ele><time>2024-05-17T20:58:45Z</time></trkpt>
<trkpt lat="34.368735" lon="-117.993573"><ele>1621.6</ele><time>2024-05-17T20:58:50Z</time></trkpt>
<trkpt lat="34.368906" lon="-117.993494"><ele>1622.4</ele><time>2024-05-17T21:00:57Z</time></trkpt>
<trkpt lat="34.368893" lon="-117.993620"><ele>1622.6</ele><time>2024-05-17T21:01:01Z</time></trkpt>
<trkpt lat="34.369044" lon="-117.994168"><ele>1621.0</ele><time>2024-05-17T21:01:57Z</time></trkpt>
<trkpt lat="34.369229" lon="-117.994196"><ele>1619.4</ele><time>2024-05-17T21:02:15Z</time></trkpt>
<trkpt lat="34.369265" lon="-117.994299"><ele>1617.6</ele><time>2024-05-17T21:02:29Z</time></trkpt>
<trkpt lat="34.369373" lon="-117.994899"><ele>1615.6</ele><time>2024-05-17T21:02:54Z</time></trkpt>
<trkpt lat="34.369660" lon="-117.995149"><ele>1612.8</ele><time>2024-05-17T21:03:15Z</time></trkpt>
<trkpt lat="34.369690" lon="-117.995294"><ele>1612.8</ele><time>2024-05-17T21:03:27Z</time></trkpt>
<trkpt lat="34.369833" lon="-117.995328"><ele>1611.2</ele><time>2024-05-17T21:03:49Z</time></trkpt>
<trkpt lat="34.370010" lon="-117.995466"><ele>1613.2</ele><time>2024-05-17T21:04:27Z</time></trkpt>
<trkpt lat="34.370231" lon="-117.995783"><ele>1614.2</ele><time>2024-05-17T21:04:43Z</time></trkpt>
<trkpt lat="34.370378" lon="-117.996545"><ele>1615.4</ele><time>2024-05-17T21:05:41Z</time></trkpt>
<trkpt lat="34.370542" lon="-117.996716"><ele>1617.6</ele><time>2024-05-17T21:06:05Z</time></trkpt>
<trkpt lat="34.370649" lon="-117.997271"><ele>1620.0</ele><time>2024-05-17T21:06:45Z</time></trkpt>
<trkpt lat="34.370731" lon="-117.997297"><ele>1621.0</ele><time>2024-05-17T21:06:51Z</time></trkpt>
<trkpt lat="34.371031" lon="-117.998249"><ele>1624.2</ele><time>2024-05-17T21:08:25Z</time></trkpt>
<trkpt lat="34.371076" lon="-117.998543"><ele>1625.4</ele><time>2024-05-17T21:08:43Z</time></trkpt>
<trkpt lat="34.371039" lon="-117.998604"><ele>1626.0</ele><time>2024-05-17T21:08:49Z</time></trkpt>
<trkpt lat="34.371168" lon="-117.998663"><ele>1626.2</ele><time>2024-05-17T21:08:51Z</time></trkpt>
<trkpt lat="34.371272" lon="-117.998586"><ele>1629.2</ele><time>2024-05-17T21:09:23Z</time></trkpt>
<trkpt lat="34.371376" lon="-117.999406"><ele>1639.0</ele><time>2024-05-17T21:10:42Z</time></trkpt>
<trkpt lat="34.371530" lon="-117.999450"><ele>1640.2</ele><time>2024-05-17T21:10:52Z</time></trkpt>
<trkpt lat="34.371537" lon="-118.000090"><ele>1647.4</ele><time>2024-05-17T21:12:41Z</time></trkpt>
<trkpt lat="34.371630" lon="-118.000087"><ele>1647.2</ele><time>2024-05-17T21:12:43Z</time></trkpt>
<trkpt lat="34.371572" lon="-118.000031"><ele>1647.2</ele><time>2024-05-17T21:12:48Z</time></trkpt>
<trkpt lat="34.371819" lon="-117.999978"><ele>1647.4</ele><time>2024-05-17T21:12:53Z</time></trkpt>
<trkpt lat="34.371783" lon="-117.999998"><ele>1647.4</ele><time>2024-05-17T21:13:01Z</time></trkpt>
<trkpt lat="34.372110" lon="-118.000617"><ele>1656.2</ele><time>2024-05-17T21:14:44Z</time></trkpt>
<trkpt lat="34.372145" lon="-118.000588"><ele>1656.4</ele><time>2024-05-17T21:14:45Z</time></trkpt>
<trkpt lat="34.372034" lon="-118.000721"><ele>1658.6</ele><time>2024-05-17T21:15:02Z</time></trkpt>
<trkpt lat="34.372177" lon="-118.001036"><ele>1659.4</ele><time>2024-05-17T21:15:15Z</time></trkpt>
<trkpt lat="34.372915" lon="-118.001744"><ele>1667.4</ele><time>2024-05-17T21:17:01Z</time></trkpt>
<trkpt lat="34.372559" lon="-118.002347"><ele>1675.6</ele><time>2024-05-17T21:18:29Z</time></trkpt>
<trkpt lat="34.372417" lon="-118.002385"><ele>1676.8</ele><time>2024-05-17T21:18:42Z</time></trkpt>
<trkpt lat="34.372613" lon="-118.002316"><ele>1677.2</ele><time>2024-05-17T21:18:44Z</time></trkpt>
<trkpt lat="34.372843" lon="-118.002367"><ele>1677.4</ele><time>2024-05-17T21:18:47Z</time></trkpt>
<trkpt lat="34.372942" lon="-118.002622"><ele>1681.6</ele><time>2024-05-17T21:19:27Z</time></trkpt>
<trkpt lat="34.372747" lon="-118.003082"><ele>1685.0</ele><time>2024-05-17T21:20:23Z</time></trkpt>
<trkpt lat="34.372909" lon="-118.003281"><ele>1687.2</ele><time>2024-05-17T21:20:48Z</time></trkpt>
<trkpt lat="34.372899" lon="-118.003355"><ele>1688.0</ele><time>2024-05-17T21:20:54Z</time></trkpt>
<trkpt lat="34.372966" lon="-118.003375"><ele>1688.6</ele><time>2024-05-17T21:21:00Z</time></trkpt>
<trkpt lat="34.373129" lon="-118.003751"><ele>1694.8</ele><time>2024-05-17T21:22:09Z</time></trkpt>
<trkpt lat="34.373255" lon="-118.003790"><ele>1697.0</ele><time>2024-05-17T21:22:35Z</time></trkpt>
<trkpt lat="34.373207" lon="-118.003843"><ele>1698.0</ele><time>2024-05-17T21:22:45Z</time></trkpt>
<trkpt lat="34.373085" lon="-118.003752"><ele>1698.8</ele><time>2024-05-17T21:22:54Z</time></trkpt>
<trkpt lat="34.373084" lon="-118.003668"><ele>1699.2</ele><time>2024-05-17T21:22:59Z</time></trkpt>
<trkpt lat="34.373533" lon="-118.003801"><ele>1700.4</ele><time>2024-05-17T21:23:31Z</time></trkpt>
<trkpt lat="34.373522" lon="-118.003917"><ele>1702.4</ele><time>2024-05-17T21:24:03Z</time></trkpt>
<trkpt lat="34.373732" lon="-118.004225"><ele>1704.6</ele><time>2024-05-17T21:24:43Z</time></trkpt>
<trkpt lat="34.373720" lon="-118.004368"><ele>1705.4</ele><time>2024-05-17T21:24:50Z</time></trkpt>
<trkpt lat="34.373811" lon="-118.004451"><ele>1706.4</ele><time>2024-05-17T21:25:01Z</time></trkpt>
<trkpt lat="34.373253" lon="-118.005758"><ele>1714.4</ele><time>2024-05-17T21:26:51Z</time></trkpt>
<trkpt lat="34.374421" lon="-118.006570"><ele>1712.0</ele><time>2024-05-17T21:28:46Z</time></trkpt>
<trkpt lat="34.374825" lon="-118.006677"><ele>1712.2</ele><time>2024-05-17T21:29:34Z</time></trkpt>
<trkpt lat="34.374833" lon="-118.006907"><ele>1712.6</ele><time>2024-05-17T21:30:20Z</time></trkpt>
<trkpt lat="34.374686" lon="-118.007024"><ele>1714.8</ele><time>2024-05-17T21:30:44Z</time></trkpt>
<trkpt lat="34.374774" lon="-118.006952"><ele>1714.8</ele><time>2024-05-17T21:30:46Z</time></trkpt>
<trkpt lat="34.374849" lon="-118.007014"><ele>1715.4</ele><time>2024-05-17T21:30:49Z</time></trkpt>
<trkpt lat="34.374276" lon="-118.007255"><ele>1719.6</ele><time>2024-05-17T21:31:39Z</time></trkpt>
<trkpt lat="34.374216" lon="-118.007453"><ele>1720.6</ele><time>2024-05-17T21:31:48Z</time></trkpt>
<trkpt lat="34.374089" lon="-118.007450"><ele>1722.0</ele><time>2024-05-17T21:32:00Z</time></trkpt>
<trkpt lat="34.374174" lon="-118.007832"><ele>1725.6</ele><time>2024-05-17T21:32:39Z</time></trkpt>
<trkpt lat="34.374434" lon="-118.008157"><ele>1731.2</ele><time>2024-05-17T21:33:44Z</time></trkpt>
<trkpt lat="34.374397" lon="-118.008220"><ele>1731.4</ele><time>2024-05-17T21:33:52Z</time></trkpt>
<trkpt lat="34.374866" lon="-118.008189"><ele>1731.2</ele><time>2024-05-17T21:35:09Z</time></trkpt>
<trkpt lat="34.375108" lon="-118.008393"><ele>1730.8</ele><time>2024-05-17T21:35:43Z</time></trkpt>
<trkpt lat="34.375069" lon="-118.008616"><ele>1731.4</ele><time>2024-05-17T21:35:58Z</time></trkpt>
<trkpt lat="34.374940" lon="-118.008691"><ele>1731.8</ele><time>2024-05-17T21:36:13Z</time></trkpt>
<trkpt lat="34.374512" lon="-118.009429"><ele>1735.8</ele><time>2024-05-17T21:37:43Z</time></trkpt>
<trkpt lat="34.374428" lon="-118.009480"><ele>1736.2</ele><time>2024-05-17T21:37:48Z</time></trkpt>
<trkpt lat="34.374434" lon="-118.009615"><ele>1737.4</ele><time>2024-05-17T21:37:58Z</time></trkpt>
<trkpt lat="34.374779" lon="-118.010158"><ele>1741.0</ele><time>2024-05-17T21:39:07Z</time></trkpt>
<trkpt lat="34.375046" lon="-118.010734"><ele>1742.6</ele><time>2024-05-17T21:39:50Z</time></trkpt>
<trkpt lat="34.375330" lon="-118.010642"><ele>1745.2</ele><time>2024-05-17T21:40:19Z</time></trkpt>
<trkpt lat="34.375632" lon="-118.010352"><ele>1748.8</ele><time>2024-05-17T21:41:27Z</time></trkpt>
<trkpt lat="34.375621" lon="-118.010416"><ele>1748.4</ele><time>2024-05-17T21:41:43Z</time></trkpt>
<trkpt lat="34.375792" lon="-118.010560"><ele>1748.0</ele><time>2024-05-17T21:41:56Z</time></trkpt>
<trkpt lat="34.375876" lon="-118.010904"><ele>1747.4</ele><time>2024-05-17T21:42:11Z</time></trkpt>
<trkpt lat="34.376016" lon="-118.011171"><ele>1748.6</ele><time>2024-05-17T21:43:01Z</time></trkpt>
<trkpt lat="34.376564" lon="-118.011415"><ele>1751.2</ele><time>2024-05-17T21:43:46Z</time></trkpt>
<trkpt lat="34.376699" lon="-118.011352"><ele>1752.4</ele><time>2024-05-17T21:43:55Z</time></trkpt>
<trkpt lat="34.376771" lon="-118.011410"><ele>1752.6</ele><time>2024-05-17T21:44:02Z</time></trkpt>
<trkpt lat="34.376621" lon="-118.011855"><ele>1753.0</ele><time>2024-05-17T21:44:31Z</time></trkpt>
<trkpt lat="34.376219" lon="-118.011959"><ele>1756.6</ele><time>2024-05-17T21:46:02Z</time></trkpt>
<trkpt lat="34.375952" lon="-118.012396"><ele>1760.2</ele><time>2024-05-17T21:47:01Z</time></trkpt>
<trkpt lat="34.375824" lon="-118.012770"><ele>1762.0</ele><time>2024-05-17T21:47:35Z</time></trkpt>
<trkpt lat="34.375690" lon="-118.012893"><ele>1761.8</ele><time>2024-05-17T21:47:43Z</time></trkpt>
<trkpt lat="34.375522" lon="-118.012858"><ele>1762.4</ele><time>2024-05-17T21:48:02Z</time></trkpt>
<trkpt lat="34.375523" lon="-118.012916"><ele>1763.8</ele><time>2024-05-17T21:49:54Z</time></trkpt>
<trkpt lat="34.375524" lon="-118.012819"><ele>1764.4</ele><time>2024-05-17T21:51:53Z</time></trkpt>
<trkpt lat="34.375559" lon="-118.012877"><ele>1764.4</ele><time>2024-05-17T21:51:58Z</time></trkpt>
<trkpt lat="34.375345" lon="-118.012879"><ele>1766.8</ele><time>2024-05-17T21:53:43Z</time></trkpt>
<trkpt lat="34.375253" lon="-118.013043"><ele>1766.6</ele><time>2024-05-17T21:53:49Z</time></trkpt>
<trkpt lat="34.375061" lon="-118.013119"><ele>1767.4</ele><time>2024-05-17T21:54:00Z</time></trkpt>
<trkpt lat="34.375101" lon="-118.013576"><ele>1769.2</ele><time>2024-05-17T21:54:49Z</time></trkpt>
<trkpt lat="34.375251" lon="-118.013827"><ele>1770.4</ele><time>2024-05-17T21:55:19Z</time></trkpt>
<trkpt lat="34.375393" lon="-118.014348"><ele>1770.8</ele><time>2024-05-17T21:55:54Z</time></trkpt>
<trkpt lat="34.375698" lon="-118.014927"><ele>1773.4</ele><time>2024-05-17T21:56:51Z</time></trkpt>
<trkpt lat="34.375844" lon="-118.015428"><ele>1775.6</ele><time>2024-05-17T21:57:49Z</time></trkpt>
<trkpt lat="34.375838" lon="-118.015802"><ele>1776.2</ele><time>2024-05-17T21:58:21Z</time></trkpt>
<trkpt lat="34.375716" lon="-118.016081"><ele>1782.0</ele><time>2024-05-17T21:59:09Z</time></trkpt>
<trkpt lat="34.375595" lon="-118.016614"><ele>1786.0</ele><time>2024-05-17T21:59:42Z</time></trkpt>
<trkpt lat="34.373067" lon="-118.018357"><ele>1802.8</ele><time>2024-05-17T22:03:42Z</time></trkpt>
<trkpt lat="34.373103" lon="-118.018257"><ele>1802.8</ele><time>2024-05-17T22:03:44Z</time></trkpt>
<trkpt lat="34.372947" lon="-118.018034"><ele>1804.8</ele><time>2024-05-17T22:04:01Z</time></trkpt>
<trkpt lat="34.372547" lon="-118.018134"><ele>1805.8</ele><time>2024-05-17T22:05:09Z</time></trkpt>
<trkpt lat="34.372332" lon="-118.018395"><ele>1807.8</ele><time>2024-05-17T22:05:43Z</time></trkpt>
<trkpt lat="34.372352" lon="-118.018544"><ele>1807.6</ele><time>2024-05-17T22:05:57Z</time></trkpt>
<trkpt lat="34.371408" lon="-118.019475"><ele>1816.4</ele><time>2024-05-17T22:07:47Z</time></trkpt>
<trkpt lat="34.371431" lon="-118.019723"><ele>1817.8</ele><time>2024-05-17T22:08:11Z</time></trkpt>
<trkpt lat="34.371567" lon="-118.019705"><ele>1820.4</ele><time>2024-05-17T22:09:39Z</time></trkpt>
<trkpt lat="34.371699" lon="-118.019873"><ele>1821.8</ele><time>2024-05-17T22:09:55Z</time></trkpt>
<trkpt lat="34.372182" lon="-118.020120"><ele>1826.8</ele><time>2024-05-17T22:10:59Z</time></trkpt>
<trkpt lat="34.372733" lon="-118.020274"><ele>1828.2</ele><time>2024-05-17T22:11:47Z</time></trkpt>
<trkpt lat="34.372650" lon="-118.020331"><ele>1830.0</ele><time>2024-05-17T22:11:58Z</time></trkpt>
<trkpt lat="34.372387" lon="-118.020099"><ele>1833.4</ele><time>2024-05-17T22:12:37Z</time></trkpt>
<trkpt lat="34.372275" lon="-118.020116"><ele>1835.4</ele><time>2024-05-17T22:13:25Z</time></trkpt>
<trkpt lat="34.372106" lon="-118.020466"><ele>1838.6</ele><time>2024-05-17T22:13:43Z</time></trkpt>
<trkpt lat="34.372305" lon="-118.020608"><ele>1840.0</ele><time>2024-05-17T22:14:17Z</time></trkpt>
<trkpt lat="34.372549" lon="-118.020639"><ele>1842.8</ele><time>2024-05-17T22:14:51Z</time></trkpt>
<trkpt lat="34.372954" lon="-118.020913"><ele>1849.6</ele><time>2024-05-17T22:15:46Z</time></trkpt>
<trkpt lat="34.372971" lon="-118.020854"><ele>1850.6</ele><time>2024-05-17T22:15:53Z</time></trkpt>
<trkpt lat="34.373479" lon="-118.021297"><ele>1859.2</ele><time>2024-05-17T22:17:27Z</time></trkpt>
<trkpt lat="34.373663" lon="-118.021548"><ele>1860.4</ele><time>2024-05-17T22:17:43Z</time></trkpt>
<trkpt lat="34.374179" lon="-118.021585"><ele>1866.0</ele><time>2024-05-17T22:18:29Z</time></trkpt>
<trkpt lat="34.374393" lon="-118.021663"><ele>1870.2</ele><time>2024-05-17T22:19:15Z</time></trkpt>
<trkpt lat="34.374794" lon="-118.021594"><ele>1872.6</ele><time>2024-05-17T22:19:45Z</time></trkpt>
<trkpt lat="34.374851" lon="-118.021669"><ele>1873.8</ele><time>2024-05-17T22:19:55Z</time></trkpt>
<trkpt lat="34.374974" lon="-118.021681"><ele>1875.6</ele><time>2024-05-17T22:20:05Z</time></trkpt>
<trkpt lat="34.375223" lon="-118.021958"><ele>1882.6</ele><time>2024-05-17T22:21:39Z</time></trkpt>
<trkpt lat="34.375511" lon="-118.021951"><ele>1882.6</ele><time>2024-05-17T22:21:47Z</time></trkpt>
<trkpt lat="34.375412" lon="-118.021967"><ele>1882.6</ele><time>2024-05-17T22:21:55Z</time></trkpt>
<trkpt lat="34.375453" lon="-118.021955"><ele>1882.6</ele><time>2024-05-17T22:21:58Z</time></trkpt>
<trkpt lat="34.375150" lon="-118.022321"><ele>1887.0</ele><time>2024-05-17T22:23:49Z</time></trkpt>
<trkpt lat="34.375499" lon="-118.021961"><ele>1887.8</ele><time>2024-05-17T22:24:02Z</time></trkpt>
<trkpt lat="34.375709" lon="-118.022421"><ele>1890.8</ele><time>2024-05-17T22:25:46Z</time></trkpt>
<trkpt lat="34.375761" lon="-118.022355"><ele>1891.4</ele><time>2024-05-17T22:25:49Z</time></trkpt>
<trkpt lat="34.375900" lon="-118.022647"><ele>1894.0</ele><time>2024-05-17T22:26:11Z</time></trkpt>
<trkpt lat="34.375938" lon="-118.022608"><ele>1895.2</ele><time>2024-05-17T22:26:21Z</time></trkpt>
<trkpt lat="34.376280" lon="-118.022795"><ele>1899.0</ele><time>2024-05-17T22:26:58Z</time></trkpt>
<trkpt lat="34.376523" lon="-118.022756"><ele>1901.8</ele><time>2024-05-17T22:27:15Z</time></trkpt>
<trkpt lat="34.377018" lon="-118.022384"><ele>1910.6</ele><time>2024-05-17T22:28:43Z</time></trkpt>
<trkpt lat="34.376980" lon="-118.022479"><ele>1910.2</ele><time>2024-05-17T22:28:55Z</time></trkpt>
<trkpt lat="34.377230" lon="-118.022521"><ele>1911.2</ele><time>2024-05-17T22:29:09Z</time></trkpt>
<trkpt lat="34.377923" lon="-118.022900"><ele>1920.0</ele><time>2024-05-17T22:30:47Z</time></trkpt>
<trkpt lat="34.377927" lon="-118.022994"><ele>1922.8</ele><time>2024-05-17T22:31:02Z</time></trkpt>
<trkpt lat="34.378094" lon="-118.023041"><ele>1923.8</ele><time>2024-05-17T22:31:11Z</time></trkpt>
<trkpt lat="34.378905" lon="-118.022969"><ele>1931.2</ele><time>2024-05-17T22:32:44Z</time></trkpt>
<trkpt lat="34.378900" lon="-118.022820"><ele>1932.4</ele><time>2024-05-17T22:32:50Z</time></trkpt>
<trkpt lat="34.378859" lon="-118.022819"><ele>1933.2</ele><time>2024-05-17T22:32:55Z</time></trkpt>
<trkpt lat="34.378936" lon="-118.022830"><ele>1934.6</ele><time>2024-05-17T22:33:02Z</time></trkpt>
<trkpt lat="34.379562" lon="-118.023775"><ele>1941.2</ele><time>2024-05-17T22:34:45Z</time></trkpt>
<trkpt lat="34.379458" lon="-118.023983"><ele>1941.6</ele><time>2024-05-17T22:35:00Z</time></trkpt>
<trkpt lat="34.379476" lon="-118.024475"><ele>1945.6</ele><time>2024-05-17T22:35:49Z</time></trkpt>
<trkpt lat="34.379688" lon="-118.024797"><ele>1947.6</ele><time>2024-05-17T22:36:33Z</time></trkpt>
<trkpt lat="34.379715" lon="-118.025032"><ele>1949.6</ele><time>2024-05-17T22:36:43Z</time></trkpt>
<trkpt lat="34.379775" lon="-118.025065"><ele>1950.2</ele><time>2024-05-17T22:36:46Z</time></trkpt>
<trkpt lat="34.379681" lon="-118.025477"><ele>1953.4</ele><time>2024-05-17T22:37:21Z</time></trkpt>
<trkpt lat="34.379824" lon="-118.025626"><ele>1954.0</ele><time>2024-05-17T22:38:03Z</time></trkpt>
<trkpt lat="34.379811" lon="-118.025514"><ele>1954.0</ele><time>2024-05-17T22:38:46Z</time></trkpt>
<trkpt lat="34.379888" lon="-118.025595"><ele>1954.4</ele><time>2024-05-17T22:39:09Z</time></trkpt>
<trkpt lat="34.380135" lon="-118.026100"><ele>1958.8</ele><time>2024-05-17T22:40:33Z</time></trkpt>
<trkpt lat="34.380572" lon="-118.026657"><ele>1959.4</ele><time>2024-05-17T22:41:11Z</time></trkpt>
<trkpt lat="34.380927" lon="-118.027238"><ele>1959.4</ele><time>2024-05-17T22:42:43Z</time></trkpt>
<trkpt lat="34.380811" lon="-118.027194"><ele>1959.2</ele><time>2024-05-17T22:42:52Z</time></trkpt>
<trkpt lat="34.381045" lon="-118.027229"><ele>1960.8</ele><time>2024-05-17T22:45:06Z</time></trkpt>
<trkpt lat="34.381034" lon="-118.027166"><ele>1961.2</ele><time>2024-05-17T22:45:12Z</time></trkpt>
<trkpt lat="34.381097" lon="-118.027342"><ele>1961.4</ele><time>2024-05-17T22:46:00Z</time></trkpt>
<trkpt lat="34.380823" lon="-118.027150"><ele>1963.0</ele><time>2024-05-17T22:47:47Z</time></trkpt>
<trkpt lat="34.381754" lon="-118.027602"><ele>1965.4</ele><time>2024-05-17T22:49:44Z</time></trkpt>
<trkpt lat="34.381421" lon="-118.027271"><ele>1965.2</ele><time>2024-05-17T22:49:53Z</time></trkpt>
<trkpt lat="34.381409" lon="-118.027141"><ele>1964.6</ele><time>2024-05-17T22:50:01Z</time></trkpt>
<trkpt lat="34.381332" lon="-118.027206"><ele>1964.4</ele><time>2024-05-17T22:50:14Z</time></trkpt>
<trkpt lat="34.381186" lon="-118.026870"><ele>1963.8</ele><time>2024-05-17T22:50:40Z</time></trkpt>
<trkpt lat="34.381420" lon="-118.026885"><ele>1963.6</ele><time>2024-05-17T22:50:52Z</time></trkpt>
<trkpt lat="34.381458" lon="-118.026991"><ele>1963.0</ele><time>2024-05-17T22:50:59Z</time></trkpt>
<trkpt lat="34.381718" lon="-118.026828"><ele>1964.8</ele><time>2024-05-17T22:52:42Z</time></trkpt>
<trkpt lat="34.381691" lon="-118.026696"><ele>1964.6</ele><time>2024-05-17T22:52:48Z</time></trkpt>
<trkpt lat="34.381838" lon="-118.026729"><ele>1965.4</ele><time>2024-05-17T22:53:02Z</time></trkpt>
<trkpt lat="34.382478" lon="-118.026343"><ele>1970.0</ele><time>2024-05-17T22:54:44Z</time></trkpt>
<trkpt lat="34.382389" lon="-118.026292"><ele>1970.2</ele><time>2024-05-17T22:54:45Z</time></trkpt>
<trkpt lat="34.382513" lon="-118.026194"><ele>1971.0</ele><time>2024-05-17T22:54:55Z</time></trkpt>
<trkpt lat="34.382951" lon="-118.026176"><ele>1973.2</ele><time>2024-05-17T22:55:35Z</time></trkpt>
<trkpt lat="34.383088" lon="-118.026372"><ele>1974.0</ele><time>2024-05-17T22:56:19Z</time></trkpt>
<trkpt lat="34.383129" lon="-118.026292"><ele>1975.2</ele><time>2024-05-17T22:56:45Z</time></trkpt>
<trkpt lat="34.383044" lon="-118.026207"><ele>1975.4</ele><time>2024-05-17T22:56:53Z</time></trkpt>
<trkpt lat="34.384027" lon="-118.026410"><ele>1984.2</ele><time>2024-05-17T22:58:55Z</time></trkpt>
<trkpt lat="34.384649" lon="-118.026778"><ele>1989.8</ele><time>2024-05-17T23:00:11Z</time></trkpt>
<trkpt lat="34.385098" lon="-118.027126"><ele>1992.8</ele><time>2024-05-17T23:00:45Z</time></trkpt>
<trkpt lat="34.385082" lon="-118.027210"><ele>1993.0</ele><time>2024-05-17T23:00:48Z</time></trkpt>
<trkpt lat="34.385041" lon="-118.027132"><ele>1993.6</ele><time>2024-05-17T23:00:53Z</time></trkpt>
<trkpt lat="34.385083" lon="-118.027224"><ele>1994.4</ele><time>2024-05-17T23:00:58Z</time></trkpt>
<trkpt lat="34.385268" lon="-118.027339"><ele>1994.8</ele><time>2024-05-17T23:01:11Z</time></trkpt>
<trkpt lat="34.385634" lon="-118.027357"><ele>1996.4</ele><time>2024-05-17T23:01:59Z</time></trkpt>
<trkpt lat="34.386124" lon="-118.027487"><ele>2000.8</ele><time>2024-05-17T23:02:55Z</time></trkpt>
<trkpt lat="34.386827" lon="-118.028011"><ele>2008.0</ele><time>2024-05-17T23:04:23Z</time></trkpt>
<trkpt lat="34.387259" lon="-118.028227"><ele>2010.2</ele><time>2024-05-17T23:04:55Z</time></trkpt>
<trkpt lat="34.387715" lon="-118.029067"><ele>2019.2</ele><time>2024-05-17T23:06:39Z</time></trkpt>
<trkpt lat="34.387903" lon="-118.029224"><ele>2019.4</ele><time>2024-05-17T23:06:50Z</time></trkpt>
<trkpt lat="34.387931" lon="-118.029162"><ele>2019.4</ele><time>2024-05-17T23:06:53Z</time></trkpt>
<trkpt lat="34.388281" lon="-118.029039"><ele>2022.0</ele><time>2024-05-17T23:07:17Z</time></trkpt>
<trkpt lat="34.388669" lon="-118.028666"><ele>2028.8</ele><time>2024-05-17T23:08:21Z</time></trkpt>
<trkpt lat="34.388989" lon="-118.028517"><ele>2031.0</ele><time>2024-05-17T23:08:43Z</time></trkpt>
<trkpt lat="34.389010" lon="-118.028582"><ele>2031.0</ele><time>2024-05-17T23:08:44Z</time></trkpt>
<trkpt lat="34.389161" lon="-118.028610"><ele>2032.0</ele><time>2024-05-17T23:08:56Z</time></trkpt>
<trkpt lat="34.389336" lon="-118.028156"><ele>2032.2</ele><time>2024-05-17T23:10:46Z</time></trkpt>
<trkpt lat="34.389259" lon="-118.028140"><ele>2031.4</ele><time>2024-05-17T23:10:58Z</time></trkpt>
<trkpt lat="34.389224" lon="-118.028200"><ele>2032.6</ele><time>2024-05-17T23:11:37Z</time></trkpt>
<trkpt lat="34.389318" lon="-118.028176"><ele>2033.8</ele><time>2024-05-17T23:11:51Z</time></trkpt>
<trkpt lat="34.389302" lon="-118.028020"><ele>2033.2</ele><time>2024-05-17T23:12:13Z</time></trkpt>
<trkpt lat="34.389254" lon="-118.028057"><ele>2033.4</ele><time>2024-05-17T23:12:42Z</time></trkpt>
<trkpt lat="34.389261" lon="-118.028174"><ele>2033.4</ele><time>2024-05-17T23:12:46Z</time></trkpt>
<trkpt lat="34.389230" lon="-118.028132"><ele>2033.6</ele><time>2024-05-17T23:12:50Z</time></trkpt>
</trkseg></trk>
</gpx>
