<?xml version="1.0" encoding="UTF-8"?>
<gpx version="1.1" creator="Eric Sichak trip reports" xmlns="http://www.topografix.com/GPX/1/1">
<metadata><name>PCT Day 32- Hikertown</name><time>2024-05-23T14:15:39Z</time></metadata>
<trk><name>PCT Day 32- Hikertown</name><type>hike</type><trkseg>
<trkpt lat="34.731440" lon="-118.660775"><ele>1489.2</ele><time>2024-05-23T14:15:39Z</time></trkpt>
<trkpt lat="34.731507" lon="-118.660730"><ele>1488.8</ele><time>2024-05-23T14:15:49Z</time></trkpt>
<trkpt lat="34.731538" lon="-118.660543"><ele>1486.6</ele><time>2024-05-23T14:17:01Z</time></trkpt>
<trkpt lat="34.732051" lon="-118.660205"><ele>1478.8</ele><time>2024-05-23T14:17:42Z</time></trkpt>
<trkpt lat="34.732139" lon="-118.660368"><ele>1478.6</ele><time>2024-05-23T14:18:15Z</time></trkpt>
<trkpt lat="34.732335" lon="-118.660474"><ele>1475.0</ele><time>2024-05-23T14:18:45Z</time></trkpt>
<trkpt lat="34.732450" lon="-118.660337"><ele>1472.2</ele><time>2024-05-23T14:19:42Z</time></trkpt>
<trkpt lat="34.732442" lon="-118.660212"><ele>1471.0</ele><time>2024-05-23T14:19:50Z</time></trkpt>
<trkpt lat="34.732622" lon="-118.659852"><ele>1468.0</ele><time>2024-05-23T14:20:15Z</time></trkpt>
<trkpt lat="34.732896" lon="-118.659466"><ele>1458.8</ele><time>2024-05-23T14:21:05Z</time></trkpt>
<trkpt lat="34.732902" lon="-118.659299"><ele>1455.4</ele><time>2024-05-23T14:21:29Z</time></trkpt>
<trkpt lat="34.733048" lon="-118.659196"><ele>1452.4</ele><time>2024-05-23T14:21:42Z</time></trkpt>
<trkpt lat="34.732996" lon="-118.659142"><ele>1452.0</ele><time>2024-05-23T14:21:43Z</time></trkpt>
<trkpt lat="34.733020" lon="-118.659029"><ele>1450.6</ele><time>2024-05-23T14:21:48Z</time></trkpt>
<trkpt lat="34.733152" lon="-118.659147"><ele>1447.6</ele><time>2024-05-23T14:22:02Z</time></trkpt>
<trkpt lat="34.733388" lon="-118.660071"><ele>1442.8</ele><time>2024-05-23T14:22:57Z</time></trkpt>
<trkpt lat="34.733442" lon="-118.660371"><ele>1439.6</ele><time>2024-05-23T14:23:31Z</time></trkpt>
<trkpt lat="34.733434" lon="-118.660773"><ele>1438.2</ele><time>2024-05-23T14:23:43Z</time></trkpt>
<trkpt lat="34.733521" lon="-118.660580"><ele>1437.4</ele><time>2024-05-23T14:23:46Z</time></trkpt>
<trkpt lat="34.733583" lon="-118.660608"><ele>1436.6</ele><time>2024-05-23T14:23:48Z</time></trkpt>
<trkpt lat="34.733542" lon="-118.660908"><ele>1431.8</ele><time>2024-05-23T14:24:17Z</time></trkpt>
<trkpt lat="34.733762" lon="-118.660567"><ele>1428.8</ele><time>2024-05-23T14:24:41Z</time></trkpt>
<trkpt lat="34.733837" lon="-118.660291"><ele>1426.2</ele><time>2024-05-23T14:25:42Z</time></trkpt>
<trkpt lat="34.733742" lon="-118.659907"><ele>1422.0</ele><time>2024-05-23T14:26:13Z</time></trkpt>
<trkpt lat="34.733757" lon="-118.659597"><ele>1419.2</ele><time>2024-05-23T14:26:45Z</time></trkpt>
<trkpt lat="34.733983" lon="-118.658869"><ele>1414.4</ele><time>2024-05-23T14:27:37Z</time></trkpt>
<trkpt lat="34.733998" lon="-118.658142"><ele>1407.6</ele><time>2024-05-23T14:28:47Z</time></trkpt>
<trkpt lat="34.733894" lon="-118.657902"><ele>1405.0</ele><time>2024-05-23T14:29:39Z</time></trkpt>
<trkpt lat="34.733401" lon="-118.657699"><ele>1400.2</ele><time>2024-05-23T14:30:17Z</time></trkpt>
<trkpt lat="34.733575" lon="-118.657401"><ele>1395.4</ele><time>2024-05-23T14:30:39Z</time></trkpt>
<trkpt lat="34.733871" lon="-118.657226"><ele>1393.0</ele><time>2024-05-23T14:31:05Z</time></trkpt>
<trkpt lat="34.734061" lon="-118.656777"><ele>1389.0</ele><time>2024-05-23T14:31:41Z</time></trkpt>
<trkpt lat="34.734102" lon="-118.656812"><ele>1388.8</ele><time>2024-05-23T14:31:42Z</time></trkpt>
<trkpt lat="34.734029" lon="-118.656375"><ele>1384.4</ele><time>2024-05-23T14:32:13Z</time></trkpt>
<trkpt lat="34.734053" lon="-118.656203"><ele>1381.0</ele><time>2024-05-23T14:32:33Z</time></trkpt>
<trkpt lat="34.734620" lon="-118.656546"><ele>1371.6</ele><time>2024-05-23T14:33:49Z</time></trkpt>
<trkpt lat="34.734577" lon="-118.656525"><ele>1371.2</ele><time>2024-05-23T14:33:59Z</time></trkpt>
<trkpt lat="34.734633" lon="-118.656468"><ele>1370.0</ele><time>2024-05-23T14:34:11Z</time></trkpt>
<trkpt lat="34.734568" lon="-118.656323"><ele>1369.0</ele><time>2024-05-23T14:34:21Z</time></trkpt>
<trkpt lat="34.734248" lon="-118.655768"><ele>1365.6</ele><time>2024-05-23T14:35:13Z</time></trkpt>
<trkpt lat="34.734347" lon="-118.655696"><ele>1362.4</ele><time>2024-05-23T14:35:29Z</time></trkpt>
<trkpt lat="34.734556" lon="-118.655785"><ele>1359.4</ele><time>2024-05-23T14:35:54Z</time></trkpt>
<trkpt lat="34.734979" lon="-118.656273"><ele>1351.4</ele><time>2024-05-23T14:36:59Z</time></trkpt>
<trkpt lat="34.734995" lon="-118.656569"><ele>1349.2</ele><time>2024-05-23T14:37:19Z</time></trkpt>
<trkpt lat="34.734744" lon="-118.656883"><ele>1345.2</ele><time>2024-05-23T14:37:46Z</time></trkpt>
<trkpt lat="34.734818" lon="-118.656920"><ele>1345.0</ele><time>2024-05-23T14:37:47Z</time></trkpt>
<trkpt lat="34.734784" lon="-118.657117"><ele>1344.4</ele><time>2024-05-23T14:37:59Z</time></trkpt>
<trkpt lat="34.734851" lon="-118.657259"><ele>1345.0</ele><time>2024-05-23T14:38:11Z</time></trkpt>
<trkpt lat="34.735542" lon="-118.657460"><ele>1339.6</ele><time>2024-05-23T14:38:57Z</time></trkpt>
<trkpt lat="34.735782" lon="-118.657708"><ele>1334.6</ele><time>2024-05-23T14:39:42Z</time></trkpt>
<trkpt lat="34.736000" lon="-118.657460"><ele>1334.2</ele><time>2024-05-23T14:39:43Z</time></trkpt>
<trkpt lat="34.735772" lon="-118.657757"><ele>1334.0</ele><time>2024-05-23T14:39:44Z</time></trkpt>
<trkpt lat="34.735795" lon="-118.657834"><ele>1333.0</ele><time>2024-05-23T14:39:48Z</time></trkpt>
<trkpt lat="34.736167" lon="-118.658342"><ele>1327.4</ele><time>2024-05-23T14:40:35Z</time></trkpt>
<trkpt lat="34.736342" lon="-118.658776"><ele>1324.4</ele><time>2024-05-23T14:41:11Z</time></trkpt>
<trkpt lat="34.736490" lon="-118.658967"><ele>1324.0</ele><time>2024-05-23T14:41:42Z</time></trkpt>
<trkpt lat="34.736558" lon="-118.658940"><ele>1323.8</ele><time>2024-05-23T14:41:45Z</time></trkpt>
<trkpt lat="34.736472" lon="-118.658910"><ele>1322.2</ele><time>2024-05-23T14:42:13Z</time></trkpt>
<trkpt lat="34.736789" lon="-118.659732"><ele>1312.6</ele><time>2024-05-23T14:43:27Z</time></trkpt>
<trkpt lat="34.736971" lon="-118.659436"><ele>1310.2</ele><time>2024-05-23T14:43:50Z</time></trkpt>
<trkpt lat="34.736975" lon="-118.659211"><ele>1308.4</ele><time>2024-05-23T14:44:07Z</time></trkpt>
<trkpt lat="34.736855" lon="-118.658097"><ele>1296.2</ele><time>2024-05-23T14:45:09Z</time></trkpt>
<trkpt lat="34.736776" lon="-118.657974"><ele>1294.6</ele><time>2024-05-23T14:45:44Z</time></trkpt>
<trkpt lat="34.736828" lon="-118.657650"><ele>1293.8</ele><time>2024-05-23T14:45:54Z</time></trkpt>
<trkpt lat="34.736787" lon="-118.657244"><ele>1292.8</ele><time>2024-05-23T14:46:14Z</time></trkpt>
<trkpt lat="34.736743" lon="-118.657126"><ele>1292.0</ele><time>2024-05-23T14:46:40Z</time></trkpt>
<trkpt lat="34.736455" lon="-118.656830"><ele>1287.6</ele><time>2024-05-23T14:47:04Z</time></trkpt>
<trkpt lat="34.736600" lon="-118.656144"><ele>1284.2</ele><time>2024-05-23T14:47:46Z</time></trkpt>
<trkpt lat="34.736395" lon="-118.656546"><ele>1283.0</ele><time>2024-05-23T14:47:50Z</time></trkpt>
<trkpt lat="34.736262" lon="-118.656502"><ele>1281.8</ele><time>2024-05-23T14:47:54Z</time></trkpt>
<trkpt lat="34.736213" lon="-118.656419"><ele>1279.8</ele><time>2024-05-23T14:48:06Z</time></trkpt>
<trkpt lat="34.736261" lon="-118.655038"><ele>1267.2</ele><time>2024-05-23T14:49:40Z</time></trkpt>
<trkpt lat="34.736325" lon="-118.654903"><ele>1267.0</ele><time>2024-05-23T14:49:44Z</time></trkpt>
<trkpt lat="34.736356" lon="-118.655063"><ele>1267.0</ele><time>2024-05-23T14:49:45Z</time></trkpt>
<trkpt lat="34.736482" lon="-118.655107"><ele>1265.2</ele><time>2024-05-23T14:49:54Z</time></trkpt>
<trkpt lat="34.736566" lon="-118.655258"><ele>1262.6</ele><time>2024-05-23T14:50:09Z</time></trkpt>
<trkpt lat="34.736617" lon="-118.656142"><ele>1257.4</ele><time>2024-05-23T14:51:11Z</time></trkpt>
<trkpt lat="34.736735" lon="-118.656195"><ele>1256.2</ele><time>2024-05-23T14:51:42Z</time></trkpt>
<trkpt lat="34.736648" lon="-118.656363"><ele>1256.4</ele><time>2024-05-23T14:51:53Z</time></trkpt>
<trkpt lat="34.736876" lon="-118.656330"><ele>1257.2</ele><time>2024-05-23T14:52:25Z</time></trkpt>
<trkpt lat="34.737066" lon="-118.656410"><ele>1255.0</ele><time>2024-05-23T14:52:45Z</time></trkpt>
<trkpt lat="34.737511" lon="-118.656305"><ele>1250.8</ele><time>2024-05-23T14:53:15Z</time></trkpt>
<trkpt lat="34.737944" lon="-118.656490"><ele>1250.4</ele><time>2024-05-23T14:53:47Z</time></trkpt>
<trkpt lat="34.738271" lon="-118.657252"><ele>1246.2</ele><time>2024-05-23T14:54:50Z</time></trkpt>
<trkpt lat="34.738559" lon="-118.658145"><ele>1242.0</ele><time>2024-05-23T14:55:42Z</time></trkpt>
<trkpt lat="34.738765" lon="-118.658141"><ele>1240.8</ele><time>2024-05-23T14:55:53Z</time></trkpt>
<trkpt lat="34.738849" lon="-118.658072"><ele>1239.8</ele><time>2024-05-23T14:56:00Z</time></trkpt>
<trkpt lat="34.738954" lon="-118.657808"><ele>1237.6</ele><time>2024-05-23T14:56:17Z</time></trkpt>
<trkpt lat="34.738945" lon="-118.657489"><ele>1235.2</ele><time>2024-05-23T14:56:35Z</time></trkpt>
<trkpt lat="34.738812" lon="-118.656888"><ele>1228.8</ele><time>2024-05-23T14:57:23Z</time></trkpt>
<trkpt lat="34.738461" lon="-118.655974"><ele>1221.6</ele><time>2024-05-23T14:58:47Z</time></trkpt>
<trkpt lat="34.738049" lon="-118.655344"><ele>1216.2</ele><time>2024-05-23T14:59:42Z</time></trkpt>
<trkpt lat="34.737633" lon="-118.655536"><ele>1214.2</ele><time>2024-05-23T14:59:50Z</time></trkpt>
<trkpt lat="34.737489" lon="-118.655499"><ele>1213.2</ele><time>2024-05-23T15:00:02Z</time></trkpt>
<trkpt lat="34.737395" lon="-118.655321"><ele>1212.4</ele><time>2024-05-23T15:00:32Z</time></trkpt>
<trkpt lat="34.737097" lon="-118.654038"><ele>1206.0</ele><time>2024-05-23T15:01:46Z</time></trkpt>
<trkpt lat="34.736958" lon="-118.653933"><ele>1205.4</ele><time>2024-05-23T15:01:59Z</time></trkpt>
<trkpt lat="34.736847" lon="-118.653143"><ele>1199.2</ele><time>2024-05-23T15:02:42Z</time></trkpt>
<trkpt lat="34.736931" lon="-118.652594"><ele>1195.0</ele><time>2024-05-23T15:03:32Z</time></trkpt>
<trkpt lat="34.736758" lon="-118.652394"><ele>1194.0</ele><time>2024-05-23T15:03:45Z</time></trkpt>
<trkpt lat="34.736560" lon="-118.652378"><ele>1194.0</ele><time>2024-05-23T15:03:50Z</time></trkpt>
<trkpt lat="34.736466" lon="-118.652491"><ele>1194.2</ele><time>2024-05-23T15:03:52Z</time></trkpt>
<trkpt lat="34.736381" lon="-118.651759"><ele>1191.2</ele><time>2024-05-23T15:04:47Z</time></trkpt>
<trkpt lat="34.736416" lon="-118.651385"><ele>1188.2</ele><time>2024-05-23T15:05:17Z</time></trkpt>
<trkpt lat="34.736998" lon="-118.650511"><ele>1187.8</ele><time>2024-05-23T15:05:43Z</time></trkpt>
<trkpt lat="34.736451" lon="-118.651193"><ele>1187.8</ele><time>2024-05-23T15:05:44Z</time></trkpt>
<trkpt lat="34.736317" lon="-118.651209"><ele>1188.2</ele><time>2024-05-23T15:05:49Z</time></trkpt>
<trkpt lat="34.736403" lon="-118.651101"><ele>1188.2</ele><time>2024-05-23T15:05:54Z</time></trkpt>
<trkpt lat="34.736568" lon="-118.651089"><ele>1188.2</ele><time>2024-05-23T15:05:57Z</time></trkpt>
<trkpt lat="34.736452" lon="-118.651099"><ele>1188.2</ele><time>2024-05-23T15:06:01Z</time></trkpt>
<trkpt lat="34.736464" lon="-118.650593"><ele>1184.6</ele><time>2024-05-23T15:07:11Z</time></trkpt>
<trkpt lat="34.736282" lon="-118.650215"><ele>1182.2</ele><time>2024-05-23T15:07:45Z</time></trkpt>
<trkpt lat="34.736597" lon="-118.649777"><ele>1180.8</ele><time>2024-05-23T15:08:19Z</time></trkpt>
<trkpt lat="34.736719" lon="-118.649122"><ele>1177.4</ele><time>2024-05-23T15:09:15Z</time></trkpt>
<trkpt lat="34.737052" lon="-118.648783"><ele>1175.0</ele><time>2024-05-23T15:09:42Z</time></trkpt>
<trkpt lat="34.736929" lon="-118.648852"><ele>1174.4</ele><time>2024-05-23T15:09:47Z</time></trkpt>
<trkpt lat="34.737003" lon="-118.648625"><ele>1173.4</ele><time>2024-05-23T15:10:09Z</time></trkpt>
<trkpt lat="34.736581" lon="-118.648035"><ele>1167.2</ele><time>2024-05-23T15:11:05Z</time></trkpt>
<trkpt lat="34.736766" lon="-118.647429"><ele>1162.0</ele><time>2024-05-23T15:11:41Z</time></trkpt>
<trkpt lat="34.736506" lon="-118.647460"><ele>1159.6</ele><time>2024-05-23T15:11:52Z</time></trkpt>
<trkpt lat="34.736527" lon="-118.647182"><ele>1157.6</ele><time>2024-05-23T15:12:07Z</time></trkpt>
<trkpt lat="34.736413" lon="-118.646665"><ele>1153.8</ele><time>2024-05-23T15:13:01Z</time></trkpt>
<trkpt lat="34.736393" lon="-118.646279"><ele>1156.4</ele><time>2024-05-23T15:13:41Z</time></trkpt>
<trkpt lat="34.736261" lon="-118.646297"><ele>1157.0</ele><time>2024-05-23T15:13:45Z</time></trkpt>
<trkpt lat="34.736131" lon="-118.645419"><ele>1157.8</ele><time>2024-05-23T15:14:27Z</time></trkpt>
<trkpt lat="34.736016" lon="-118.644661"><ele>1166.8</ele><time>2024-05-23T15:15:41Z</time></trkpt>
<trkpt lat="34.736095" lon="-118.644603"><ele>1167.0</ele><time>2024-05-23T15:15:43Z</time></trkpt>
<trkpt lat="34.735936" lon="-118.644616"><ele>1166.6</ele><time>2024-05-23T15:15:52Z</time></trkpt>
<trkpt lat="34.735989" lon="-118.643963"><ele>1173.4</ele><time>2024-05-23T15:16:47Z</time></trkpt>
<trkpt lat="34.735816" lon="-118.643450"><ele>1173.2</ele><time>2024-05-23T15:17:35Z</time></trkpt>
<trkpt lat="34.735837" lon="-118.643290"><ele>1173.2</ele><time>2024-05-23T15:17:42Z</time></trkpt>
<trkpt lat="34.735634" lon="-118.643427"><ele>1172.2</ele><time>2024-05-23T15:17:52Z</time></trkpt>
<trkpt lat="34.735741" lon="-118.643208"><ele>1172.6</ele><time>2024-05-23T15:19:42Z</time></trkpt>
<trkpt lat="34.735660" lon="-118.643371"><ele>1173.4</ele><time>2024-05-23T15:20:01Z</time></trkpt>
<trkpt lat="34.735703" lon="-118.643366"><ele>1171.8</ele><time>2024-05-23T15:21:56Z</time></trkpt>
<trkpt lat="34.735616" lon="-118.643352"><ele>1171.8</ele><time>2024-05-23T15:22:02Z</time></trkpt>
<trkpt lat="34.735801" lon="-118.643276"><ele>1172.0</ele><time>2024-05-23T15:23:48Z</time></trkpt>
<trkpt lat="34.735585" lon="-118.643375"><ele>1172.0</ele><time>2024-05-23T15:23:50Z</time></trkpt>
<trkpt lat="34.735714" lon="-118.643356"><ele>1172.2</ele><time>2024-05-23T15:23:59Z</time></trkpt>
<trkpt lat="34.735764" lon="-118.643116"><ele>1173.4</ele><time>2024-05-23T15:25:42Z</time></trkpt>
<trkpt lat="34.735637" lon="-118.643361"><ele>1174.0</ele><time>2024-05-23T15:26:00Z</time></trkpt>
<trkpt lat="34.736207" lon="-118.642163"><ele>1174.4</ele><time>2024-05-23T15:27:43Z</time></trkpt>
<trkpt lat="34.736221" lon="-118.642223"><ele>1174.6</ele><time>2024-05-23T15:27:58Z</time></trkpt>
<trkpt lat="34.736501" lon="-118.642107"><ele>1180.2</ele><time>2024-05-23T15:28:55Z</time></trkpt>
<trkpt lat="34.737823" lon="-118.642655"><ele>1184.2</ele><time>2024-05-23T15:31:46Z</time></trkpt>
<trkpt lat="34.738175" lon="-118.642436"><ele>1191.6</ele><time>2024-05-23T15:32:41Z</time></trkpt>
<trkpt lat="34.738209" lon="-118.642141"><ele>1185.4</ele><time>2024-05-23T15:33:29Z</time></trkpt>
<trkpt lat="34.738434" lon="-118.641895"><ele>1182.2</ele><time>2024-05-23T15:33:42Z</time></trkpt>
<trkpt lat="34.738424" lon="-118.641830"><ele>1182.2</ele><time>2024-05-23T15:33:45Z</time></trkpt>
<trkpt lat="34.738843" lon="-118.641653"><ele>1177.4</ele><time>2024-05-23T15:34:27Z</time></trkpt>
<trkpt lat="34.738910" lon="-118.641548"><ele>1171.4</ele><time>2024-05-23T15:34:55Z</time></trkpt>
<trkpt lat="34.738861" lon="-118.641121"><ele>1164.4</ele><time>2024-05-23T15:35:46Z</time></trkpt>
<trkpt lat="34.739047" lon="-118.641136"><ele>1164.4</ele><time>2024-05-23T15:35:50Z</time></trkpt>
<trkpt lat="34.738998" lon="-118.641103"><ele>1164.2</ele><time>2024-05-23T15:35:53Z</time></trkpt>
<trkpt lat="34.739075" lon="-118.640698"><ele>1159.4</ele><time>2024-05-23T15:36:21Z</time></trkpt>
<trkpt lat="34.739395" lon="-118.640603"><ele>1146.8</ele><time>2024-05-23T15:37:11Z</time></trkpt>
<trkpt lat="34.739470" lon="-118.640641"><ele>1144.6</ele><time>2024-05-23T15:37:33Z</time></trkpt>
<trkpt lat="34.739457" lon="-118.640720"><ele>1143.6</ele><time>2024-05-23T15:37:39Z</time></trkpt>
<trkpt lat="34.739739" lon="-118.640526"><ele>1142.2</ele><time>2024-05-23T15:37:51Z</time></trkpt>
<trkpt lat="34.739659" lon="-118.640528"><ele>1141.4</ele><time>2024-05-23T15:37:57Z</time></trkpt>
<trkpt lat="34.739897" lon="-118.640722"><ele>1138.6</ele><time>2024-05-23T15:38:23Z</time></trkpt>
<trkpt lat="34.740515" lon="-118.640548"><ele>1138.8</ele><time>2024-05-23T15:39:33Z</time></trkpt>
<trkpt lat="34.740689" lon="-118.640592"><ele>1140.6</ele><time>2024-05-23T15:39:45Z</time></trkpt>
<trkpt lat="34.740622" lon="-118.640732"><ele>1141.0</ele><time>2024-05-23T15:39:52Z</time></trkpt>
<trkpt lat="34.740683" lon="-118.640832"><ele>1142.0</ele><time>2024-05-23T15:40:02Z</time></trkpt>
<trkpt lat="34.740912" lon="-118.640772"><ele>1145.6</ele><time>2024-05-23T15:40:37Z</time></trkpt>
<trkpt lat="34.740867" lon="-118.640745"><ele>1146.2</ele><time>2024-05-23T15:40:57Z</time></trkpt>
<trkpt lat="34.740848" lon="-118.640866"><ele>1145.2</ele><time>2024-05-23T15:41:47Z</time></trkpt>
<trkpt lat="34.740858" lon="-118.640797"><ele>1144.2</ele><time>2024-05-23T15:43:45Z</time></trkpt>
<trkpt lat="34.740808" lon="-118.640810"><ele>1143.4</ele><time>2024-05-23T15:43:52Z</time></trkpt>
<trkpt lat="34.740852" lon="-118.640835"><ele>1144.4</ele><time>2024-05-23T15:45:57Z</time></trkpt>
<trkpt lat="34.740822" lon="-118.640905"><ele>1143.2</ele><time>2024-05-23T15:47:09Z</time></trkpt>
<trkpt lat="34.740833" lon="-118.640824"><ele>1142.2</ele><time>2024-05-23T15:47:27Z</time></trkpt>
<trkpt lat="34.740989" lon="-118.640700"><ele>1140.0</ele><time>2024-05-23T15:47:43Z</time></trkpt>
<trkpt lat="34.741603" lon="-118.640878"><ele>1134.8</ele><time>2024-05-23T15:49:43Z</time></trkpt>
<trkpt lat="34.742005" lon="-118.640715"><ele>1130.2</ele><time>2024-05-23T15:50:15Z</time></trkpt>
<trkpt lat="34.742274" lon="-118.640687"><ele>1127.6</ele><time>2024-05-23T15:50:35Z</time></trkpt>
<trkpt lat="34.742435" lon="-118.640866"><ele>1127.4</ele><time>2024-05-23T15:50:59Z</time></trkpt>
<trkpt lat="34.742395" lon="-118.640996"><ele>1129.8</ele><time>2024-05-23T15:51:17Z</time></trkpt>
<trkpt lat="34.742671" lon="-118.640876"><ele>1128.0</ele><time>2024-05-23T15:51:47Z</time></trkpt>
<trkpt lat="34.742785" lon="-118.640927"><ele>1126.2</ele><time>2024-05-23T15:51:56Z</time></trkpt>
<trkpt lat="34.743306" lon="-118.640675"><ele>1122.2</ele><time>2024-05-23T15:52:43Z</time></trkpt>
<trkpt lat="34.744345" lon="-118.640596"><ele>1114.0</ele><time>2024-05-23T15:54:24Z</time></trkpt>
<trkpt lat="34.744398" lon="-118.640741"><ele>1111.6</ele><time>2024-05-23T15:54:34Z</time></trkpt>
<trkpt lat="34.744535" lon="-118.640837"><ele>1110.4</ele><time>2024-05-23T15:54:48Z</time></trkpt>
<trkpt lat="34.744543" lon="-118.641130"><ele>1107.6</ele><time>2024-05-23T15:55:14Z</time></trkpt>
<trkpt lat="34.744860" lon="-118.641048"><ele>1102.2</ele><time>2024-05-23T15:55:45Z</time></trkpt>
<trkpt lat="34.744972" lon="-118.641262"><ele>1100.0</ele><time>2024-05-23T15:56:02Z</time></trkpt>
<trkpt lat="34.745405" lon="-118.641474"><ele>1094.4</ele><time>2024-05-23T15:56:43Z</time></trkpt>
<trkpt lat="34.745451" lon="-118.641369"><ele>1092.0</ele><time>2024-05-23T15:56:51Z</time></trkpt>
<trkpt lat="34.745148" lon="-118.640933"><ele>1090.8</ele><time>2024-05-23T15:57:45Z</time></trkpt>
<trkpt lat="34.745331" lon="-118.641149"><ele>1094.0</ele><time>2024-05-23T15:58:39Z</time></trkpt>
<trkpt lat="34.745574" lon="-118.641220"><ele>1098.8</ele><time>2024-05-23T15:59:13Z</time></trkpt>
<trkpt lat="34.745846" lon="-118.641732"><ele>1103.0</ele><time>2024-05-23T16:00:00Z</time></trkpt>
<trkpt lat="34.746085" lon="-118.641700"><ele>1105.6</ele><time>2024-05-23T16:00:17Z</time></trkpt>
<trkpt lat="34.746282" lon="-118.641473"><ele>1117.0</ele><time>2024-05-23T16:01:25Z</time></trkpt>
<trkpt lat="34.747113" lon="-118.641407"><ele>1128.4</ele><time>2024-05-23T16:03:42Z</time></trkpt>
<trkpt lat="34.747206" lon="-118.641268"><ele>1130.2</ele><time>2024-05-23T16:03:54Z</time></trkpt>
<trkpt lat="34.747288" lon="-118.641293"><ele>1131.2</ele><time>2024-05-23T16:04:01Z</time></trkpt>
<trkpt lat="34.747668" lon="-118.641524"><ele>1138.2</ele><time>2024-05-23T16:04:45Z</time></trkpt>
<trkpt lat="34.747820" lon="-118.641735"><ele>1143.2</ele><time>2024-05-23T16:05:19Z</time></trkpt>
<trkpt lat="34.747958" lon="-118.642127"><ele>1146.0</ele><time>2024-05-23T16:05:53Z</time></trkpt>
<trkpt lat="34.748068" lon="-118.642233"><ele>1149.6</ele><time>2024-05-23T16:06:26Z</time></trkpt>
<trkpt lat="34.748420" lon="-118.641878"><ele>1147.0</ele><time>2024-05-23T16:07:30Z</time></trkpt>
<trkpt lat="34.749076" lon="-118.641796"><ele>1145.2</ele><time>2024-05-23T16:09:47Z</time></trkpt>
<trkpt lat="34.749342" lon="-118.641984"><ele>1140.0</ele><time>2024-05-23T16:10:13Z</time></trkpt>
<trkpt lat="34.749638" lon="-118.641856"><ele>1136.6</ele><time>2024-05-23T16:10:41Z</time></trkpt>
<trkpt lat="34.749999" lon="-118.641981"><ele>1133.0</ele><time>2024-05-23T16:11:11Z</time></trkpt>
<trkpt lat="34.750107" lon="-118.642112"><ele>1131.0</ele><time>2024-05-23T16:11:25Z</time></trkpt>
<trkpt lat="34.750222" lon="-118.642094"><ele>1128.8</ele><time>2024-05-23T16:11:39Z</time></trkpt>
<trkpt lat="34.750304" lon="-118.641965"><ele>1127.8</ele><time>2024-05-23T16:11:49Z</time></trkpt>
<trkpt lat="34.750479" lon="-118.641964"><ele>1126.0</ele><time>2024-05-23T16:12:07Z</time></trkpt>
<trkpt lat="34.750558" lon="-118.642014"><ele>1124.6</ele><time>2024-05-23T16:13:01Z</time></trkpt>
<trkpt lat="34.750468" lon="-118.642282"><ele>1121.4</ele><time>2024-05-23T16:13:19Z</time></trkpt>
<trkpt lat="34.750675" lon="-118.642404"><ele>1116.8</ele><time>2024-05-23T16:13:45Z</time></trkpt>
<trkpt lat="34.751016" lon="-118.642244"><ele>1110.0</ele><time>2024-05-23T16:14:21Z</time></trkpt>
<trkpt lat="34.751160" lon="-118.642048"><ele>1107.6</ele><time>2024-05-23T16:14:49Z</time></trkpt>
<trkpt lat="34.751218" lon="-118.641695"><ele>1099.0</ele><time>2024-05-23T16:15:29Z</time></trkpt>
<trkpt lat="34.751137" lon="-118.641387"><ele>1096.6</ele><time>2024-05-23T16:15:47Z</time></trkpt>
<trkpt lat="34.751253" lon="-118.641486"><ele>1096.4</ele><time>2024-05-23T16:15:56Z</time></trkpt>
<trkpt lat="34.751374" lon="-118.641482"><ele>1093.4</ele><time>2024-05-23T16:16:09Z</time></trkpt>
<trkpt lat="34.752102" lon="-118.641379"><ele>1084.4</ele><time>2024-05-23T16:17:07Z</time></trkpt>
<trkpt lat="34.752403" lon="-118.641228"><ele>1078.2</ele><time>2024-05-23T16:17:42Z</time></trkpt>
<trkpt lat="34.752533" lon="-118.641249"><ele>1077.2</ele><time>2024-05-23T16:17:59Z</time></trkpt>
<trkpt lat="34.752615" lon="-118.640611"><ele>1066.6</ele><time>2024-05-23T16:18:55Z</time></trkpt>
<trkpt lat="34.752588" lon="-118.639954"><ele>1064.4</ele><time>2024-05-23T16:19:42Z</time></trkpt>
<trkpt lat="34.752723" lon="-118.640008"><ele>1064.4</ele><time>2024-05-23T16:19:43Z</time></trkpt>
<trkpt lat="34.752760" lon="-118.639295"><ele>1068.8</ele><time>2024-05-23T16:20:33Z</time></trkpt>
<trkpt lat="34.752863" lon="-118.639024"><ele>1070.0</ele><time>2024-05-23T16:20:51Z</time></trkpt>
<trkpt lat="34.753084" lon="-118.638957"><ele>1075.0</ele><time>2024-05-23T16:21:19Z</time></trkpt>
<trkpt lat="34.753281" lon="-118.638625"><ele>1075.6</ele><time>2024-05-23T16:21:42Z</time></trkpt>
<trkpt lat="34.753211" lon="-118.638438"><ele>1078.4</ele><time>2024-05-23T16:21:59Z</time></trkpt>
<trkpt lat="34.753170" lon="-118.637992"><ele>1084.2</ele><time>2024-05-23T16:22:45Z</time></trkpt>
<trkpt lat="34.753169" lon="-118.637706"><ele>1086.6</ele><time>2024-05-23T16:23:03Z</time></trkpt>
<trkpt lat="34.753275" lon="-118.637495"><ele>1092.4</ele><time>2024-05-23T16:23:44Z</time></trkpt>
<trkpt lat="34.753213" lon="-118.637499"><ele>1092.4</ele><time>2024-05-23T16:23:48Z</time></trkpt>
<trkpt lat="34.753306" lon="-118.637500"><ele>1093.2</ele><time>2024-05-23T16:23:56Z</time></trkpt>
<trkpt lat="34.753444" lon="-118.637609"><ele>1095.4</ele><time>2024-05-23T16:24:41Z</time></trkpt>
<trkpt lat="34.753488" lon="-118.637735"><ele>1096.6</ele><time>2024-05-23T16:24:59Z</time></trkpt>
<trkpt lat="34.753675" lon="-118.637775"><ele>1099.0</ele><time>2024-05-23T16:25:15Z</time></trkpt>
<trkpt lat="34.753833" lon="-118.637957"><ele>1103.6</ele><time>2024-05-23T16:25:44Z</time></trkpt>
<trkpt lat="34.753856" lon="-118.637837"><ele>1104.0</ele><time>2024-05-23T16:25:53Z</time></trkpt>
<trkpt lat="34.753701" lon="-118.637239"><ele>1107.6</ele><time>2024-05-23T16:27:47Z</time></trkpt>
<trkpt lat="34.753764" lon="-118.637240"><ele>1107.4</ele><time>2024-05-23T16:27:50Z</time></trkpt>
<trkpt lat="34.753695" lon="-118.637173"><ele>1107.4</ele><time>2024-05-23T16:27:56Z</time></trkpt>
<trkpt lat="34.753769" lon="-118.636762"><ele>1110.6</ele><time>2024-05-23T16:28:19Z</time></trkpt>
<trkpt lat="34.753913" lon="-118.636498"><ele>1114.0</ele><time>2024-05-23T16:29:03Z</time></trkpt>
<trkpt lat="34.754476" lon="-118.636164"><ele>1119.8</ele><time>2024-05-23T16:29:56Z</time></trkpt>
<trkpt lat="34.753977" lon="-118.635119"><ele>1117.6</ele><time>2024-05-23T16:31:46Z</time></trkpt>
<trkpt lat="34.753903" lon="-118.634890"><ele>1113.4</ele><time>2024-05-23T16:32:11Z</time></trkpt>
<trkpt lat="34.753578" lon="-118.635177"><ele>1109.6</ele><time>2024-05-23T16:32:47Z</time></trkpt>
<trkpt lat="34.753434" lon="-118.635038"><ele>1106.4</ele><time>2024-05-23T16:33:03Z</time></trkpt>
<trkpt lat="34.753415" lon="-118.634714"><ele>1100.8</ele><time>2024-05-23T16:33:23Z</time></trkpt>
<trkpt lat="34.753516" lon="-118.634334"><ele>1096.8</ele><time>2024-05-23T16:33:46Z</time></trkpt>
<trkpt lat="34.753583" lon="-118.633304"><ele>1093.2</ele><time>2024-05-23T16:34:47Z</time></trkpt>
<trkpt lat="34.753636" lon="-118.633178"><ele>1095.6</ele><time>2024-05-23T16:35:29Z</time></trkpt>
<trkpt lat="34.754108" lon="-118.633013"><ele>1099.2</ele><time>2024-05-23T16:36:07Z</time></trkpt>
<trkpt lat="34.754188" lon="-118.632810"><ele>1100.2</ele><time>2024-05-23T16:36:23Z</time></trkpt>
<trkpt lat="34.753730" lon="-118.632535"><ele>1094.8</ele><time>2024-05-23T16:37:03Z</time></trkpt>
<trkpt lat="34.753450" lon="-118.632059"><ele>1090.4</ele><time>2024-05-23T16:37:49Z</time></trkpt>
<trkpt lat="34.753481" lon="-118.632181"><ele>1090.4</ele><time>2024-05-23T16:37:54Z</time></trkpt>
<trkpt lat="34.753531" lon="-118.631551"><ele>1085.8</ele><time>2024-05-23T16:38:49Z</time></trkpt>
<trkpt lat="34.753813" lon="-118.631489"><ele>1089.4</ele><time>2024-05-23T16:39:47Z</time></trkpt>
<trkpt lat="34.753843" lon="-118.631547"><ele>1092.2</ele><time>2024-05-23T16:41:44Z</time></trkpt>
<trkpt lat="34.753883" lon="-118.631417"><ele>1092.6</ele><time>2024-05-23T16:41:50Z</time></trkpt>
<trkpt lat="34.754032" lon="-118.631337"><ele>1094.0</ele><time>2024-05-23T16:41:59Z</time></trkpt>
<trkpt lat="34.754415" lon="-118.630881"><ele>1098.2</ele><time>2024-05-23T16:42:37Z</time></trkpt>
<trkpt lat="34.754631" lon="-118.630591"><ele>1109.4</ele><time>2024-05-23T16:43:33Z</time></trkpt>
<trkpt lat="34.754725" lon="-118.630389"><ele>1110.4</ele><time>2024-05-23T16:43:42Z</time></trkpt>
<trkpt lat="34.754264" lon="-118.630336"><ele>1111.0</ele><time>2024-05-23T16:44:09Z</time></trkpt>
<trkpt lat="34.753394" lon="-118.629813"><ele>1117.2</ele><time>2024-05-23T16:45:42Z</time></trkpt>
<trkpt lat="34.753339" lon="-118.629917"><ele>1117.2</ele><time>2024-05-23T16:45:47Z</time></trkpt>
<trkpt lat="34.753251" lon="-118.629930"><ele>1117.2</ele><time>2024-05-23T16:45:51Z</time></trkpt>
<trkpt lat="34.753013" lon="-118.629579"><ele>1119.8</ele><time>2024-05-23T16:46:57Z</time></trkpt>
<trkpt lat="34.753248" lon="-118.629375"><ele>1116.8</ele><time>2024-05-23T16:47:35Z</time></trkpt>
<trkpt lat="34.753358" lon="-118.629077"><ele>1117.2</ele><time>2024-05-23T16:47:52Z</time></trkpt>
<trkpt lat="34.753315" lon="-118.628427"><ele>1124.6</ele><time>2024-05-23T16:48:55Z</time></trkpt>
<trkpt lat="34.753267" lon="-118.628029"><ele>1128.2</ele><time>2024-05-23T16:49:39Z</time></trkpt>
<trkpt lat="34.753199" lon="-118.627841"><ele>1128.0</ele><time>2024-05-23T16:49:42Z</time></trkpt>
<trkpt lat="34.753037" lon="-118.627773"><ele>1128.4</ele><time>2024-05-23T16:49:55Z</time></trkpt>
<trkpt lat="34.752860" lon="-118.627115"><ele>1127.0</ele><time>2024-05-23T16:50:31Z</time></trkpt>
<trkpt lat="34.752843" lon="-118.626881"><ele>1127.6</ele><time>2024-05-23T16:50:45Z</time></trkpt>
<trkpt lat="34.752980" lon="-118.626572"><ele>1128.2</ele><time>2024-05-23T16:51:21Z</time></trkpt>
<trkpt lat="34.752763" lon="-118.626305"><ele>1127.6</ele><time>2024-05-23T16:51:46Z</time></trkpt>
<trkpt lat="34.752873" lon="-118.626128"><ele>1128.4</ele><time>2024-05-23T16:52:05Z</time></trkpt>
<trkpt lat="34.753299" lon="-118.625817"><ele>1131.4</ele><time>2024-05-23T16:52:57Z</time></trkpt>
<trkpt lat="34.753828" lon="-118.625623"><ele>1131.2</ele><time>2024-05-23T16:53:54Z</time></trkpt>
<trkpt lat="34.754015" lon="-118.625324"><ele>1135.4</ele><time>2024-05-23T16:54:39Z</time></trkpt>
<trkpt lat="34.753946" lon="-118.624707"><ele>1127.2</ele><time>2024-05-23T16:55:31Z</time></trkpt>
<trkpt lat="34.754023" lon="-118.624386"><ele>1124.8</ele><time>2024-05-23T16:55:45Z</time></trkpt>
<trkpt lat="34.753897" lon="-118.623584"><ele>1117.6</ele><time>2024-05-23T16:56:37Z</time></trkpt>
<trkpt lat="34.753538" lon="-118.623852"><ele>1111.8</ele><time>2024-05-23T16:57:25Z</time></trkpt>
<trkpt lat="34.753368" lon="-118.623539"><ele>1106.4</ele><time>2024-05-23T16:57:54Z</time></trkpt>
<trkpt lat="34.753170" lon="-118.623516"><ele>1102.8</ele><time>2024-05-23T16:58:15Z</time></trkpt>
<trkpt lat="34.753244" lon="-118.623158"><ele>1095.6</ele><time>2024-05-23T16:58:39Z</time></trkpt>
<trkpt lat="34.753229" lon="-118.622643"><ele>1090.6</ele><time>2024-05-23T16:59:25Z</time></trkpt>
<trkpt lat="34.752938" lon="-118.622436"><ele>1086.4</ele><time>2024-05-23T16:59:51Z</time></trkpt>
<trkpt lat="34.752831" lon="-118.622489"><ele>1085.4</ele><time>2024-05-23T17:00:03Z</time></trkpt>
<trkpt lat="34.752726" lon="-118.622330"><ele>1082.2</ele><time>2024-05-23T17:00:19Z</time></trkpt>
<trkpt lat="34.752857" lon="-118.621822"><ele>1079.2</ele><time>2024-05-23T17:01:03Z</time></trkpt>
<trkpt lat="34.752941" lon="-118.621684"><ele>1081.6</ele><time>2024-05-23T17:01:25Z</time></trkpt>
<trkpt lat="34.753140" lon="-118.621596"><ele>1079.6</ele><time>2024-05-23T17:01:42Z</time></trkpt>
<trkpt lat="34.753027" lon="-118.621351"><ele>1078.2</ele><time>2024-05-23T17:01:55Z</time></trkpt>
<trkpt lat="34.753207" lon="-118.621101"><ele>1078.2</ele><time>2024-05-23T17:02:41Z</time></trkpt>
<trkpt lat="34.753560" lon="-118.620830"><ele>1076.0</ele><time>2024-05-23T17:03:27Z</time></trkpt>
<trkpt lat="34.753773" lon="-118.620380"><ele>1072.2</ele><time>2024-05-23T17:03:46Z</time></trkpt>
<trkpt lat="34.753717" lon="-118.620206"><ele>1071.4</ele><time>2024-05-23T17:03:52Z</time></trkpt>
<trkpt lat="34.753637" lon="-118.620252"><ele>1069.8</ele><time>2024-05-23T17:03:59Z</time></trkpt>
<trkpt lat="34.753165" lon="-118.620066"><ele>1067.8</ele><time>2024-05-23T17:04:39Z</time></trkpt>
<trkpt lat="34.753061" lon="-118.619817"><ele>1066.6</ele><time>2024-05-23T17:05:19Z</time></trkpt>
<trkpt lat="34.753187" lon="-118.619605"><ele>1071.0</ele><time>2024-05-23T17:05:42Z</time></trkpt>
<trkpt lat="34.753162" lon="-118.619318"><ele>1073.4</ele><time>2024-05-23T17:06:01Z</time></trkpt>
<trkpt lat="34.753266" lon="-118.619094"><ele>1073.8</ele><time>2024-05-23T17:06:21Z</time></trkpt>
<trkpt lat="34.753357" lon="-118.619034"><ele>1076.0</ele><time>2024-05-23T17:06:35Z</time></trkpt>
<trkpt lat="34.753445" lon="-118.618746"><ele>1085.6</ele><time>2024-05-23T17:07:27Z</time></trkpt>
<trkpt lat="34.753429" lon="-118.618362"><ele>1087.2</ele><time>2024-05-23T17:07:42Z</time></trkpt>
<trkpt lat="34.753185" lon="-118.618306"><ele>1088.6</ele><time>2024-05-23T17:08:02Z</time></trkpt>
<trkpt lat="34.752959" lon="-118.617883"><ele>1098.2</ele><time>2024-05-23T17:08:51Z</time></trkpt>
<trkpt lat="34.752927" lon="-118.617543"><ele>1104.8</ele><time>2024-05-23T17:09:37Z</time></trkpt>
<trkpt lat="34.752906" lon="-118.617345"><ele>1105.2</ele><time>2024-05-23T17:09:42Z</time></trkpt>
<trkpt lat="34.752959" lon="-118.617429"><ele>1105.0</ele><time>2024-05-23T17:09:44Z</time></trkpt>
<trkpt lat="34.753075" lon="-118.617185"><ele>1103.0</ele><time>2024-05-23T17:10:02Z</time></trkpt>
<trkpt lat="34.753059" lon="-118.615681"><ele>1100.4</ele><time>2024-05-23T17:11:43Z</time></trkpt>
<trkpt lat="34.753182" lon="-118.615372"><ele>1099.8</ele><time>2024-05-23T17:12:00Z</time></trkpt>
<trkpt lat="34.753339" lon="-118.615205"><ele>1098.8</ele><time>2024-05-23T17:12:19Z</time></trkpt>
<trkpt lat="34.753412" lon="-118.614875"><ele>1096.4</ele><time>2024-05-23T17:12:49Z</time></trkpt>
<trkpt lat="34.753582" lon="-118.614522"><ele>1097.0</ele><time>2024-05-23T17:13:25Z</time></trkpt>
<trkpt lat="34.753614" lon="-118.614305"><ele>1094.2</ele><time>2024-05-23T17:13:42Z</time></trkpt>
<trkpt lat="34.753456" lon="-118.614194"><ele>1094.0</ele><time>2024-05-23T17:13:44Z</time></trkpt>
<trkpt lat="34.753900" lon="-118.613181"><ele>1093.0</ele><time>2024-05-23T17:15:07Z</time></trkpt>
<trkpt lat="34.753912" lon="-118.612564"><ele>1089.2</ele><time>2024-05-23T17:15:44Z</time></trkpt>
<trkpt lat="34.753767" lon="-118.612528"><ele>1087.0</ele><time>2024-05-23T17:15:54Z</time></trkpt>
<trkpt lat="34.753655" lon="-118.612338"><ele>1084.0</ele><time>2024-05-23T17:17:01Z</time></trkpt>
<trkpt lat="34.753886" lon="-118.612277"><ele>1082.4</ele><time>2024-05-23T17:17:21Z</time></trkpt>
<trkpt lat="34.754117" lon="-118.612311"><ele>1080.8</ele><time>2024-05-23T17:17:42Z</time></trkpt>
<trkpt lat="34.754229" lon="-118.612406"><ele>1080.0</ele><time>2024-05-23T17:17:49Z</time></trkpt>
<trkpt lat="34.754440" lon="-118.612788"><ele>1076.8</ele><time>2024-05-23T17:18:31Z</time></trkpt>
<trkpt lat="34.754956" lon="-118.612806"><ele>1082.4</ele><time>2024-05-23T17:19:39Z</time></trkpt>
<trkpt lat="34.755088" lon="-118.612725"><ele>1082.4</ele><time>2024-05-23T17:19:46Z</time></trkpt>
<trkpt lat="34.755150" lon="-118.612555"><ele>1081.8</ele><time>2024-05-23T17:19:54Z</time></trkpt>
<trkpt lat="34.755362" lon="-118.612343"><ele>1073.6</ele><time>2024-05-23T17:20:29Z</time></trkpt>
<trkpt lat="34.755662" lon="-118.611646"><ele>1062.8</ele><time>2024-05-23T17:21:17Z</time></trkpt>
<trkpt lat="34.755661" lon="-118.611252"><ele>1057.4</ele><time>2024-05-23T17:21:43Z</time></trkpt>
<trkpt lat="34.755603" lon="-118.611362"><ele>1057.6</ele><time>2024-05-23T17:21:46Z</time></trkpt>
<trkpt lat="34.755633" lon="-118.611169"><ele>1056.0</ele><time>2024-05-23T17:21:55Z</time></trkpt>
<trkpt lat="34.755549" lon="-118.610890"><ele>1051.4</ele><time>2024-05-23T17:22:33Z</time></trkpt>
<trkpt lat="34.755550" lon="-118.610478"><ele>1047.8</ele><time>2024-05-23T17:23:07Z</time></trkpt>
<trkpt lat="34.755721" lon="-118.609955"><ele>1042.0</ele><time>2024-05-23T17:23:42Z</time></trkpt>
<trkpt lat="34.755865" lon="-118.609847"><ele>1041.0</ele><time>2024-05-23T17:23:48Z</time></trkpt>
<trkpt lat="34.755824" lon="-118.609778"><ele>1040.8</ele><time>2024-05-23T17:23:50Z</time></trkpt>
<trkpt lat="34.755915" lon="-118.609611"><ele>1038.8</ele><time>2024-05-23T17:24:05Z</time></trkpt>
<trkpt lat="34.756776" lon="-118.608799"><ele>1028.0</ele><time>2024-05-23T17:25:37Z</time></trkpt>
<trkpt lat="34.756736" lon="-118.608573"><ele>1027.8</ele><time>2024-05-23T17:25:43Z</time></trkpt>
<trkpt lat="34.756797" lon="-118.608433"><ele>1027.0</ele><time>2024-05-23T17:25:50Z</time></trkpt>
<trkpt lat="34.756861" lon="-118.608411"><ele>1026.2</ele><time>2024-05-23T17:25:56Z</time></trkpt>
<trkpt lat="34.756898" lon="-118.608288"><ele>1024.8</ele><time>2024-05-23T17:26:11Z</time></trkpt>
<trkpt lat="34.757056" lon="-118.608239"><ele>1022.6</ele><time>2024-05-23T17:26:31Z</time></trkpt>
<trkpt lat="34.757210" lon="-118.608005"><ele>1020.0</ele><time>2024-05-23T17:26:49Z</time></trkpt>
<trkpt lat="34.757410" lon="-118.608057"><ele>1021.4</ele><time>2024-05-23T17:27:11Z</time></trkpt>
<trkpt lat="34.757547" lon="-118.608344"><ele>1019.4</ele><time>2024-05-23T17:27:33Z</time></trkpt>
<trkpt lat="34.757931" lon="-118.608362"><ele>1016.6</ele><time>2024-05-23T17:27:58Z</time></trkpt>
<trkpt lat="34.758366" lon="-118.608234"><ele>1019.2</ele><time>2024-05-23T17:29:01Z</time></trkpt>
<trkpt lat="34.758851" lon="-118.608263"><ele>1022.0</ele><time>2024-05-23T17:29:48Z</time></trkpt>
<trkpt lat="34.758878" lon="-118.608431"><ele>1022.8</ele><time>2024-05-23T17:30:00Z</time></trkpt>
<trkpt lat="34.759765" lon="-118.609301"><ele>1033.2</ele><time>2024-05-23T17:31:42Z</time></trkpt>
<trkpt lat="34.759968" lon="-118.608891"><ele>1033.6</ele><time>2024-05-23T17:31:47Z</time></trkpt>
<trkpt lat="34.760416" lon="-118.609494"><ele>1037.0</ele><time>2024-05-23T17:32:43Z</time></trkpt>
<trkpt lat="34.760817" lon="-118.609761"><ele>1036.6</ele><time>2024-05-23T17:33:45Z</time></trkpt>
<trkpt lat="34.760918" lon="-118.609649"><ele>1035.8</ele><time>2024-05-23T17:33:51Z</time></trkpt>
<trkpt lat="34.761033" lon="-118.609916"><ele>1035.0</ele><time>2024-05-23T17:35:23Z</time></trkpt>
<trkpt lat="34.761236" lon="-118.610119"><ele>1036.4</ele><time>2024-05-23T17:35:47Z</time></trkpt>
<trkpt lat="34.761704" lon="-118.609973"><ele>1039.2</ele><time>2024-05-23T17:36:31Z</time></trkpt>
<trkpt lat="34.762401" lon="-118.609903"><ele>1044.2</ele><time>2024-05-23T17:37:48Z</time></trkpt>
<trkpt lat="34.762347" lon="-118.609959"><ele>1046.8</ele><time>2024-05-23T17:39:51Z</time></trkpt>
<trkpt lat="34.762572" lon="-118.610005"><ele>1046.4</ele><time>2024-05-23T17:41:41Z</time></trkpt>
<trkpt lat="34.762575" lon="-118.609868"><ele>1046.4</ele><time>2024-05-23T17:41:43Z</time></trkpt>
<trkpt lat="34.762720" lon="-118.609845"><ele>1047.0</ele><time>2024-05-23T17:41:56Z</time></trkpt>
<trkpt lat="34.762796" lon="-118.609966"><ele>1043.8</ele><time>2024-05-23T17:42:09Z</time></trkpt>
<trkpt lat="34.762779" lon="-118.610038"><ele>1042.6</ele><time>2024-05-23T17:42:15Z</time></trkpt>
<trkpt lat="34.763556" lon="-118.610440"><ele>1029.6</ele><time>2024-05-23T17:43:27Z</time></trkpt>
<trkpt lat="34.763836" lon="-118.610340"><ele>1027.6</ele><time>2024-05-23T17:43:42Z</time></trkpt>
<trkpt lat="34.763786" lon="-118.610393"><ele>1027.4</ele><time>2024-05-23T17:43:44Z</time></trkpt>
<trkpt lat="34.763879" lon="-118.610158"><ele>1023.2</ele><time>2024-05-23T17:43:59Z</time></trkpt>
<trkpt lat="34.764027" lon="-118.609024"><ele>1010.8</ele><time>2024-05-23T17:45:16Z</time></trkpt>
<trkpt lat="34.764184" lon="-118.608907"><ele>1007.6</ele><time>2024-05-23T17:45:42Z</time></trkpt>
<trkpt lat="34.764269" lon="-118.608941"><ele>1007.0</ele><time>2024-05-23T17:45:44Z</time></trkpt>
<trkpt lat="34.764331" lon="-118.608628"><ele>1005.0</ele><time>2024-05-23T17:46:00Z</time></trkpt>
<trkpt lat="34.764655" lon="-118.608323"><ele>1001.4</ele><time>2024-05-23T17:46:35Z</time></trkpt>
<trkpt lat="34.764821" lon="-118.607971"><ele>997.0</ele><time>2024-05-23T17:47:03Z</time></trkpt>
<trkpt lat="34.764770" lon="-118.608449"><ele>993.0</ele><time>2024-05-23T17:47:35Z</time></trkpt>
<trkpt lat="34.764598" lon="-118.608762"><ele>990.6</ele><time>2024-05-23T17:47:48Z</time></trkpt>
<trkpt lat="34.764676" lon="-118.608898"><ele>989.2</ele><time>2024-05-23T17:48:13Z</time></trkpt>
<trkpt lat="34.764883" lon="-118.608993"><ele>983.8</ele><time>2024-05-23T17:48:47Z</time></trkpt>
<trkpt lat="34.765726" lon="-118.609094"><ele>974.8</ele><time>2024-05-23T17:49:43Z</time></trkpt>
<trkpt lat="34.765348" lon="-118.608291"><ele>974.2</ele><time>2024-05-23T17:49:51Z</time></trkpt>
<trkpt lat="34.765690" lon="-118.608160"><ele>970.8</ele><time>2024-05-23T17:50:13Z</time></trkpt>
<trkpt lat="34.766418" lon="-118.607727"><ele>976.2</ele><time>2024-05-23T17:51:42Z</time></trkpt>
<trkpt lat="34.766974" lon="-118.607904"><ele>967.6</ele><time>2024-05-23T17:52:23Z</time></trkpt>
<trkpt lat="34.767271" lon="-118.607684"><ele>960.8</ele><time>2024-05-23T17:52:49Z</time></trkpt>
<trkpt lat="34.768971" lon="-118.607950"><ele>955.0</ele><time>2024-05-23T17:55:01Z</time></trkpt>
<trkpt lat="34.769393" lon="-118.607921"><ele>952.6</ele><time>2024-05-23T17:55:42Z</time></trkpt>
<trkpt lat="34.769558" lon="-118.607785"><ele>951.8</ele><time>2024-05-23T17:55:51Z</time></trkpt>
<trkpt lat="34.770563" lon="-118.607735"><ele>946.2</ele><time>2024-05-23T17:57:11Z</time></trkpt>
<trkpt lat="34.771116" lon="-118.607795"><ele>945.6</ele><time>2024-05-23T17:57:54Z</time></trkpt>
<trkpt lat="34.771574" lon="-118.607688"><ele>944.6</ele><time>2024-05-23T17:58:17Z</time></trkpt>
<trkpt lat="34.772063" lon="-118.607853"><ele>944.4</ele><time>2024-05-23T17:59:15Z</time></trkpt>
<trkpt lat="34.772246" lon="-118.607716"><ele>943.8</ele><time>2024-05-23T17:59:33Z</time></trkpt>
<trkpt lat="34.772500" lon="-118.607798"><ele>942.6</ele><time>2024-05-23T17:59:41Z</time></trkpt>
<trkpt lat="34.772479" lon="-118.608066"><ele>942.6</ele><time>2024-05-23T17:59:46Z</time></trkpt>
<trkpt lat="34.772622" lon="-118.607770"><ele>943.0</ele><time>2024-05-23T17:59:51Z</time></trkpt>
<trkpt lat="34.773039" lon="-118.607744"><ele>941.4</ele><time>2024-05-23T18:00:17Z</time></trkpt>
<trkpt lat="34.773520" lon="-118.607850"><ele>939.2</ele><time>2024-05-23T18:00:49Z</time></trkpt>
<trkpt lat="34.773938" lon="-118.607829"><ele>938.0</ele><time>2024-05-23T18:01:13Z</time></trkpt>
<trkpt lat="34.774212" lon="-118.607951"><ele>937.2</ele><time>2024-05-23T18:01:48Z</time></trkpt>
<trkpt lat="34.774252" lon="-118.607817"><ele>937.2</ele><time>2024-05-23T18:01:50Z</time></trkpt>
<trkpt lat="34.774787" lon="-118.607852"><ele>935.6</ele><time>2024-05-23T18:02:21Z</time></trkpt>
<trkpt lat="34.775696" lon="-118.607746"><ele>936.4</ele><time>2024-05-23T18:03:49Z</time></trkpt>
<trkpt lat="34.775646" lon="-118.607052"><ele>932.0</ele><time>2024-05-23T18:05:11Z</time></trkpt>
<trkpt lat="34.775677" lon="-118.606942"><ele>934.6</ele><time>2024-05-23T18:05:42Z</time></trkpt>
<trkpt lat="34.775616" lon="-118.607024"><ele>935.0</ele><time>2024-05-23T18:05:45Z</time></trkpt>
<trkpt lat="34.775610" lon="-118.606976"><ele>934.4</ele><time>2024-05-23T18:05:54Z</time></trkpt>
<trkpt lat="34.775677" lon="-118.606976"><ele>935.2</ele><time>2024-05-23T18:07:43Z</time></trkpt>
<trkpt lat="34.775692" lon="-118.606903"><ele>934.6</ele><time>2024-05-23T18:08:01Z</time></trkpt>
<trkpt lat="34.775545" lon="-118.607008"><ele>935.2</ele><time>2024-05-23T18:09:45Z</time></trkpt>
<trkpt lat="34.775630" lon="-118.606920"><ele>934.2</ele><time>2024-05-23T18:09:53Z</time></trkpt>
<trkpt lat="34.775657" lon="-118.607044"><ele>934.6</ele><time>2024-05-23T18:13:42Z</time></trkpt>
<trkpt lat="34.775707" lon="-118.606879"><ele>934.8</ele><time>2024-05-23T18:13:47Z</time></trkpt>
<trkpt lat="34.775640" lon="-118.606954"><ele>933.8</ele><time>2024-05-23T18:13:59Z</time></trkpt>
<trkpt lat="34.776444" lon="-118.605964"><ele>924.4</ele><time>2024-05-23T22:16:35Z</time></trkpt>
<trkpt lat="34.776425" lon="-118.606013"><ele>924.6</ele><time>2024-05-23T22:18:02Z</time></trkpt>
<trkpt lat="34.776423" lon="-118.605926"><ele>924.6</ele><time>2024-05-23T22:19:45Z</time></trkpt>
<trkpt lat="34.776396" lon="-118.605985"><ele>924.6</ele><time>2024-05-23T22:19:49Z</time></trkpt>
<trkpt lat="34.776520" lon="-118.606054"><ele>924.4</ele><time>2024-05-23T22:19:56Z</time></trkpt>
<trkpt lat="34.776440" lon="-118.606040"><ele>924.4</ele><time>2024-05-23T22:20:00Z</time></trkpt>
<trkpt lat="34.776434" lon="-118.605982"><ele>925.4</ele><time>2024-05-23T22:22:02Z</time></trkpt>
<trkpt lat="34.776412" lon="-118.606035"><ele>924.8</ele><time>2024-05-23T22:23:46Z</time></trkpt>
<trkpt lat="34.776345" lon="-118.605922"><ele>925.0</ele><time>2024-05-23T22:23:52Z</time></trkpt>
<trkpt lat="34.776329" lon="-118.605589"><ele>925.8</ele><time>2024-05-23T22:24:25Z</time></trkpt>
<trkpt lat="34.776310" lon="-118.605659"><ele>925.4</ele><time>2024-05-23T22:26:01Z</time></trkpt>
<trkpt lat="34.776470" lon="-118.606031"><ele>926.0</ele><time>2024-05-23T22:27:43Z</time></trkpt>
<trkpt lat="34.776417" lon="-118.606025"><ele>926.0</ele><time>2024-05-23T22:27:48Z</time></trkpt>
<trkpt lat="34.776486" lon="-118.606009"><ele>925.6</ele><time>2024-05-23T22:31:47Z</time></trkpt>
<trkpt lat="34.776476" lon="-118.606081"><ele>925.6</ele><time>2024-05-23T22:33:39Z</time></trkpt>
<trkpt lat="34.776357" lon="-118.606081"><ele>925.2</ele><time>2024-05-23T22:34:00Z</time></trkpt>
<trkpt lat="34.776433" lon="-118.606067"><ele>926.4</ele><time>2024-05-23T22:35:48Z</time></trkpt>
<trkpt lat="34.776443" lon="-118.605939"><ele>927.2</ele><time>2024-05-23T22:37:05Z</time></trkpt>
<trkpt lat="34.776495" lon="-118.606063"><ele>927.6</ele><time>2024-05-23T22:37:49Z</time></trkpt>
<trkpt lat="34.776400" lon="-118.606013"><ele>927.4</ele><time>2024-05-23T22:39:46Z</time></trkpt>
<trkpt lat="34.776455" lon="-118.606008"><ele>927.4</ele><time>2024-05-23T22:39:55Z</time></trkpt>
<trkpt lat="34.776412" lon="-118.605940"><ele>928.0</ele><time>2024-05-23T22:41:19Z</time></trkpt>
<trkpt lat="34.776467" lon="-118.606096"><ele>926.6</ele><time>2024-05-23T22:43:46Z</time></trkpt>
<trkpt lat="34.776463" lon="-118.606010"><ele>927.0</ele><time>2024-05-23T22:43:54Z</time></trkpt>
<trkpt lat="34.776449" lon="-118.606091"><ele>926.8</ele><time>2024-05-23T22:45:52Z</time></trkpt>
<trkpt lat="34.776451" lon="-118.606010"><ele>927.8</ele><time>2024-05-23T22:47:50Z</time></trkpt>
<trkpt lat="34.776384" lon="-118.606020"><ele>927.4</ele><time>2024-05-23T22:49:42Z</time></trkpt>
<trkpt lat="34.776476" lon="-118.605967"><ele>928.6</ele><time>2024-05-23T22:49:58Z</time></trkpt>
<trkpt lat="34.776447" lon="-118.606085"><ele>928.0</ele><time>2024-05-23T22:51:44Z</time></trkpt>
<trkpt lat="34.776480" lon="-118.606037"><ele>927.6</ele><time>2024-05-23T22:51:54Z</time></trkpt>
<trkpt lat="34.776395" lon="-118.606084"><ele>927.0</ele><time>2024-05-23T22:53:48Z</time></trkpt>
<trkpt lat="34.776430" lon="-118.605663"><ele>927.0</ele><time>2024-05-23T22:54:57Z</time></trkpt>
<trkpt lat="34.776453" lon="-118.605723"><ele>927.4</ele><time>2024-05-23T22:55:47Z</time></trkpt>
<trkpt lat="34.776329" lon="-118.605587"><ele>927.2</ele><time>2024-05-23T22:55:54Z</time></trkpt>
<trkpt lat="34.776302" lon="-118.605735"><ele>928.4</ele><time>2024-05-23T22:57:42Z</time></trkpt>
<trkpt lat="34.776249" lon="-118.605627"><ele>928.6</ele><time>2024-05-23T22:57:52Z</time></trkpt>
<trkpt lat="34.776295" lon="-118.605689"><ele>928.4</ele><time>2024-05-23T22:58:02Z</time></trkpt>
<trkpt lat="34.776396" lon="-118.605643"><ele>927.8</ele><time>2024-05-23T22:58:25Z</time></trkpt>
<trkpt lat="34.776366" lon="-118.605707"><ele>927.8</ele><time>2024-05-23T22:59:39Z</time></trkpt>
<trkpt lat="34.776479" lon="-118.605886"><ele>927.8</ele><time>2024-05-23T22:59:46Z</time></trkpt>
<trkpt lat="34.776439" lon="-118.605951"><ele>926.8</ele><time>2024-05-23T23:04:02Z</time></trkpt>
<trkpt lat="34.776477" lon="-118.606023"><ele>927.2</ele><time>2024-05-23T23:09:47Z</time></trkpt>
<trkpt lat="34.776446" lon="-118.605917"><ele>927.2</ele><time>2024-05-23T23:11:45Z</time></trkpt>
<trkpt lat="34.776459" lon="-118.605986"><ele>927.4</ele><time>2024-05-23T23:13:05Z</time></trkpt>
<trkpt lat="34.776401" lon="-118.605965"><ele>927.2</ele><time>2024-05-23T23:19:42Z</time></trkpt>
<trkpt lat="34.776423" lon="-118.605888"><ele>927.4</ele><time>2024-05-23T23:19:47Z</time></trkpt>
<trkpt lat="34.776373" lon="-118.605986"><ele>927.0</ele><time>2024-05-23T23:20:21Z</time></trkpt>
<trkpt lat="34.776425" lon="-118.605993"><ele>926.6</ele><time>2024-05-23T23:21:56Z</time></trkpt>
<trkpt lat="34.776282" lon="-118.605685"><ele>927.0</ele><time>2024-05-23T23:23:48Z</time></trkpt>
<trkpt lat="34.776309" lon="-118.605612"><ele>926.8</ele><time>2024-05-23T23:24:00Z</time></trkpt>
<trkpt lat="34.776474" lon="-118.606005"><ele>926.8</ele><time>2024-05-23T23:25:35Z</time></trkpt>
<trkpt lat="34.776397" lon="-118.606015"><ele>928.6</ele><time>2024-05-23T23:27:39Z</time></trkpt>
<trkpt lat="34.776473" lon="-118.605959"><ele>927.4</ele><time>2024-05-23T23:27:57Z</time></trkpt>
<trkpt lat="34.776479" lon="-118.606040"><ele>925.8</ele><time>2024-05-23T23:29:35Z</time></trkpt>
<trkpt lat="34.776439" lon="-118.606032"><ele>925.8</ele><time>2024-05-23T23:29:43Z</time></trkpt>
<trkpt lat="34.776527" lon="-118.605938"><ele>925.8</ele><time>2024-05-23T23:29:52Z</time></trkpt>
<trkpt lat="34.776437" lon="-118.605921"><ele>926.8</ele><time>2024-05-23T23:31:45Z</time></trkpt>
<trkpt lat="34.776496" lon="-118.605947"><ele>926.2</ele><time>2024-05-23T23:35:49Z</time></trkpt>
<trkpt lat="34.776402" lon="-118.606088"><ele>927.2</ele><time>2024-05-23T23:37:37Z</time></trkpt>
<trkpt lat="34.776455" lon="-118.605988"><ele>927.4</ele><time>2024-05-23T23:37:44Z</time></trkpt>
<trkpt lat="34.776419" lon="-118.605972"><ele>927.4</ele><time>2024-05-23T23:37:50Z</time></trkpt>
<trkpt lat="34.776489" lon="-118.605957"><ele>927.4</ele><time>2024-05-23T23:39:33Z</time></trkpt>
<trkpt lat="34.776501" lon="-118.606035"><ele>927.2</ele><time>2024-05-23T23:41:54Z</time></trkpt>
<trkpt lat="34.776438" lon="-118.605960"><ele>927.8</ele><time>2024-05-23T23:43:50Z</time></trkpt>
<trkpt lat="34.776491" lon="-118.606009"><ele>928.4</ele><time>2024-05-23T23:45:44Z</time></trkpt>
<trkpt lat="34.776448" lon="-118.605960"><ele>928.4</ele><time>2024-05-23T23:48:02Z</time></trkpt>
<trkpt lat="34.776295" lon="-118.606242"><ele>929.0</ele><time>2024-05-23T23:49:41Z</time></trkpt>
<trkpt lat="34.776481" lon="-118.605953"><ele>928.4</ele><time>2024-05-23T23:51:27Z</time></trkpt>
<trkpt lat="34.776465" lon="-118.605994"><ele>928.2</ele><time>2024-05-23T23:51:59Z</time></trkpt>
<trkpt lat="34.776349" lon="-118.605654"><ele>928.8</ele><time>2024-05-23T23:53:35Z</time></trkpt>
<trkpt lat="34.776240" lon="-118.605567"><ele>929.0</ele><time>2024-05-23T23:53:43Z</time></trkpt>
<trkpt lat="34.776226" lon="-118.605626"><ele>929.0</ele><time>2024-05-23T23:53:48Z</time></trkpt>
<trkpt lat="34.776332" lon="-118.605644"><ele>929.4</ele><time>2024-05-23T23:54:43Z</time></trkpt>
<trkpt lat="34.776480" lon="-118.605860"><ele>927.6</ele><time>2024-05-23T23:55:35Z</time></trkpt>
<trkpt lat="34.776427" lon="-118.605974"><ele>928.4</ele><time>2024-05-23T23:55:51Z</time></trkpt>
<trkpt lat="34.776547" lon="-118.605898"><ele>928.0</ele><time>2024-05-23T23:57:43Z</time></trkpt>
<trkpt lat="34.776560" lon="-118.605954"><ele>928.0</ele><time>2024-05-23T23:57:45Z</time></trkpt>
<trkpt lat="34.776437" lon="-118.605993"><ele>928.0</ele><time>2024-05-23T23:57:57Z</time></trkpt>
<trkpt lat="34.776525" lon="-118.605985"><ele>928.0</ele><time>2024-05-23T23:59:45Z</time></trkpt>
<trkpt lat="34.776478" lon="-118.605957"><ele>928.0</ele><time>2024-05-23T23:59:51Z</time></trkpt>
<trkpt lat="34.776508" lon="-118.605927"><ele>928.0</ele><time>2024-05-24T00:00:02Z</time></trkpt>
<trkpt lat="34.776452" lon="-118.606006"><ele>928.2</ele><time>2024-05-24T00:01:47Z</time></trkpt>
<trkpt lat="34.776412" lon="-118.605907"><ele>928.2</ele><time>2024-05-24T00:01:58Z</time></trkpt>
<trkpt lat="34.776398" lon="-118.606011"><ele>929.4</ele><time>2024-05-24T00:03:09Z</time></trkpt>
<trkpt lat="34.776440" lon="-118.605941"><ele>929.8</ele><time>2024-05-24T00:03:56Z</time></trkpt>
<trkpt lat="34.776233" lon="-118.606010"><ele>929.6</ele><time>2024-05-24T00:05:44Z</time></trkpt>
<trkpt lat="34.776264" lon="-118.606048"><ele>929.8</ele><time>2024-05-24T00:05:52Z</time></trkpt>
<trkpt lat="34.776672" lon="-118.605851"><ele>928.4</ele><time>2024-05-24T00:07:44Z</time></trkpt>
<trkpt lat="34.776701" lon="-118.605886"><ele>928.4</ele><time>2024-05-24T00:07:59Z</time></trkpt>
<trkpt lat="34.776661" lon="-118.605819"><ele>926.4</ele><time>2024-05-24T00:11:48Z</time></trkpt>
<trkpt lat="34.776682" lon="-118.605856"><ele>926.2</ele><time>2024-05-24T00:12:01Z</time></trkpt>
<trkpt lat="34.776772" lon="-118.605708"><ele>926.8</ele><time>2024-05-24T00:13:39Z</time></trkpt>
<trkpt lat="34.776682" lon="-118.605834"><ele>926.8</ele><time>2024-05-24T00:16:17Z</time></trkpt>
<trkpt lat="34.776722" lon="-118.605844"><ele>927.6</ele><time>2024-05-24T00:17:39Z</time></trkpt>
<trkpt lat="34.776703" lon="-118.605799"><ele>927.6</ele><time>2024-05-24T00:17:54Z</time></trkpt>
<trkpt lat="34.776324" lon="-118.605943"><ele>927.4</ele><time>2024-05-24T00:18:41Z</time></trkpt>
<trkpt lat="34.775802" lon="-118.606329"><ele>928.2</ele><time>2024-05-24T00:19:44Z</time></trkpt>
<trkpt lat="34.775882" lon="-118.606360"><ele>928.2</ele><time>2024-05-24T00:20:02Z</time></trkpt>
<trkpt lat="34.776027" lon="-118.606934"><ele>926.2</ele><time>2024-05-24T00:20:45Z</time></trkpt>
<trkpt lat="34.776091" lon="-118.606968"><ele>927.4</ele><time>2024-05-24T00:21:05Z</time></trkpt>
<trkpt lat="34.776011" lon="-118.606999"><ele>927.8</ele><time>2024-05-24T00:21:21Z</time></trkpt>
<trkpt lat="34.776128" lon="-118.607127"><ele>926.8</ele><time>2024-05-24T00:21:41Z</time></trkpt>
<trkpt lat="34.776076" lon="-118.607076"><ele>925.6</ele><time>2024-05-24T00:21:47Z</time></trkpt>
<trkpt lat="34.776878" lon="-118.606943"><ele>924.4</ele><time>2024-05-24T00:22:39Z</time></trkpt>
<trkpt lat="34.776977" lon="-118.607160"><ele>923.6</ele><time>2024-05-24T00:23:03Z</time></trkpt>
<trkpt lat="34.777553" lon="-118.607007"><ele>922.2</ele><time>2024-05-24T00:23:43Z</time></trkpt>
<trkpt lat="34.777772" lon="-118.607049"><ele>921.8</ele><time>2024-05-24T00:24:00Z</time></trkpt>
<trkpt lat="34.778227" lon="-118.606941"><ele>921.0</ele><time>2024-05-24T00:24:45Z</time></trkpt>
<trkpt lat="34.779208" lon="-118.607029"><ele>917.2</ele><time>2024-05-24T00:26:01Z</time></trkpt>
<trkpt lat="34.779528" lon="-118.607161"><ele>916.2</ele><time>2024-05-24T00:26:27Z</time></trkpt>
<trkpt lat="34.779850" lon="-118.607043"><ele>915.2</ele><time>2024-05-24T00:27:03Z</time></trkpt>
<trkpt lat="34.781038" lon="-118.607027"><ele>913.2</ele><time>2024-05-24T00:29:59Z</time></trkpt>
<trkpt lat="34.781497" lon="-118.607139"><ele>912.0</ele><time>2024-05-24T00:31:21Z</time></trkpt>
<trkpt lat="34.782112" lon="-118.607023"><ele>911.4</ele><time>2024-05-24T00:31:59Z</time></trkpt>
<trkpt lat="34.782850" lon="-118.607391"><ele>910.0</ele><time>2024-05-24T00:32:47Z</time></trkpt>
<trkpt lat="34.783040" lon="-118.607303"><ele>910.2</ele><time>2024-05-24T00:33:15Z</time></trkpt>
<trkpt lat="34.783169" lon="-118.607321"><ele>910.0</ele><time>2024-05-24T00:33:29Z</time></trkpt>
<trkpt lat="34.783464" lon="-118.607478"><ele>909.4</ele><time>2024-05-24T00:33:53Z</time></trkpt>
<trkpt lat="34.784291" lon="-118.607721"><ele>907.8</ele><time>2024-05-24T00:34:57Z</time></trkpt>
<trkpt lat="34.785008" lon="-118.607713"><ele>907.2</ele><time>2024-05-24T00:35:59Z</time></trkpt>
<trkpt lat="34.785114" lon="-118.607615"><ele>906.6</ele><time>2024-05-24T00:36:09Z</time></trkpt>
<trkpt lat="34.785896" lon="-118.607544"><ele>904.2</ele><time>2024-05-24T00:37:07Z</time></trkpt>
<trkpt lat="34.786159" lon="-118.607769"><ele>904.0</ele><time>2024-05-24T00:37:37Z</time></trkpt>
<trkpt lat="34.786500" lon="-118.607711"><ele>903.8</ele><time>2024-05-24T00:37:57Z</time></trkpt>
<trkpt lat="34.786769" lon="-118.607797"><ele>903.6</ele><time>2024-05-24T00:38:13Z</time></trkpt>
<trkpt lat="34.787135" lon="-118.607799"><ele>903.2</ele><time>2024-05-24T00:38:53Z</time></trkpt>
<trkpt lat="34.787839" lon="-118.607684"><ele>902.2</ele><time>2024-05-24T00:39:47Z</time></trkpt>
<trkpt lat="34.787993" lon="-118.607767"><ele>901.8</ele><time>2024-05-24T00:40:00Z</time></trkpt>
<trkpt lat="34.788084" lon="-118.607459"><ele>904.6</ele><time>2024-05-24T00:40:17Z</time></trkpt>
<trkpt lat="34.788053" lon="-118.605927"><ele>903.0</ele><time>2024-05-24T00:42:13Z</time></trkpt>
<trkpt lat="34.787940" lon="-118.605716"><ele>903.0</ele><time>2024-05-24T00:42:27Z</time></trkpt>
<trkpt lat="34.788067" lon="-118.604613"><ele>903.6</ele><time>2024-05-24T00:43:42Z</time></trkpt>
<trkpt lat="34.788020" lon="-118.604501"><ele>904.2</ele><time>2024-05-24T00:43:47Z</time></trkpt>
<trkpt lat="34.787999" lon="-118.599815"><ele>904.0</ele><time>2024-05-24T00:49:53Z</time></trkpt>
<trkpt lat="34.787925" lon="-118.598154"><ele>903.6</ele><time>2024-05-24T00:51:42Z</time></trkpt>
<trkpt lat="34.787958" lon="-118.594407"><ele>902.6</ele><time>2024-05-24T00:55:54Z</time></trkpt>
<trkpt lat="34.787946" lon="-118.593859"><ele>903.4</ele><time>2024-05-24T00:56:35Z</time></trkpt>
<trkpt lat="34.787860" lon="-118.593599"><ele>903.6</ele><time>2024-05-24T00:56:49Z</time></trkpt>
<trkpt lat="34.787952" lon="-118.592965"><ele>903.8</ele><time>2024-05-24T00:57:41Z</time></trkpt>
<trkpt lat="34.787784" lon="-118.590782"><ele>902.4</ele><time>2024-05-24T00:59:58Z</time></trkpt>
<trkpt lat="34.787832" lon="-118.590125"><ele>900.6</ele><time>2024-05-24T01:00:51Z</time></trkpt>
<trkpt lat="34.787952" lon="-118.590111"><ele>902.8</ele><time>2024-05-24T01:01:21Z</time></trkpt>
<trkpt lat="34.787978" lon="-118.589952"><ele>904.0</ele><time>2024-05-24T01:01:42Z</time></trkpt>
<trkpt lat="34.788030" lon="-118.590078"><ele>904.4</ele><time>2024-05-24T01:01:48Z</time></trkpt>
<trkpt lat="34.788148" lon="-118.590022"><ele>904.0</ele><time>2024-05-24T01:02:01Z</time></trkpt>
<trkpt lat="34.788283" lon="-118.589695"><ele>902.2</ele><time>2024-05-24T01:02:25Z</time></trkpt>
<trkpt lat="34.788301" lon="-118.588862"><ele>899.6</ele><time>2024-05-24T01:03:43Z</time></trkpt>
<trkpt lat="34.788245" lon="-118.588472"><ele>899.6</ele><time>2024-05-24T01:04:03Z</time></trkpt>
<trkpt lat="34.787791" lon="-118.587208"><ele>904.8</ele><time>2024-05-24T01:05:44Z</time></trkpt>
<trkpt lat="34.787759" lon="-118.586986"><ele>905.4</ele><time>2024-05-24T01:05:58Z</time></trkpt>
<trkpt lat="34.787992" lon="-118.586827"><ele>905.0</ele><time>2024-05-24T01:06:33Z</time></trkpt>
<trkpt lat="34.788239" lon="-118.586782"><ele>903.4</ele><time>2024-05-24T01:07:23Z</time></trkpt>
<trkpt lat="34.789323" lon="-118.586919"><ele>902.6</ele><time>2024-05-24T01:08:25Z</time></trkpt>
<trkpt lat="34.789780" lon="-118.586848"><ele>902.6</ele><time>2024-05-24T01:09:03Z</time></trkpt>
<trkpt lat="34.790201" lon="-118.586966"><ele>901.8</ele><time>2024-05-24T01:09:42Z</time></trkpt>
<trkpt lat="34.790394" lon="-118.586897"><ele>901.4</ele><time>2024-05-24T01:09:56Z</time></trkpt>
<trkpt lat="34.791777" lon="-118.587013"><ele>899.6</ele><time>2024-05-24T01:11:41Z</time></trkpt>
<trkpt lat="34.792175" lon="-118.586924"><ele>898.4</ele><time>2024-05-24T01:12:09Z</time></trkpt>
<trkpt lat="34.792321" lon="-118.586807"><ele>899.8</ele><time>2024-05-24T01:12:21Z</time></trkpt>
<trkpt lat="34.793430" lon="-118.586968"><ele>897.4</ele><time>2024-05-24T01:13:49Z</time></trkpt>
<trkpt lat="34.794189" lon="-118.586955"><ele>895.8</ele><time>2024-05-24T01:14:49Z</time></trkpt>
<trkpt lat="34.794687" lon="-118.587036"><ele>894.2</ele><time>2024-05-24T01:15:21Z</time></trkpt>
<trkpt lat="34.794922" lon="-118.586968"><ele>894.6</ele><time>2024-05-24T01:15:42Z</time></trkpt>
<trkpt lat="34.795593" lon="-118.587070"><ele>894.2</ele><time>2024-05-24T01:16:29Z</time></trkpt>
<trkpt lat="34.796031" lon="-118.586986"><ele>893.2</ele><time>2024-05-24T01:17:15Z</time></trkpt>
<trkpt lat="34.796959" lon="-118.587061"><ele>891.6</ele><time>2024-05-24T01:18:19Z</time></trkpt>
<trkpt lat="34.797405" lon="-118.586844"><ele>891.2</ele><time>2024-05-24T01:19:03Z</time></trkpt>
<trkpt lat="34.797944" lon="-118.587094"><ele>890.8</ele><time>2024-05-24T01:19:42Z</time></trkpt>
<trkpt lat="34.798429" lon="-118.586978"><ele>890.2</ele><time>2024-05-24T01:20:17Z</time></trkpt>
<trkpt lat="34.799131" lon="-118.587286"><ele>888.4</ele><time>2024-05-24T01:21:19Z</time></trkpt>
<trkpt lat="34.799473" lon="-118.587144"><ele>888.0</ele><time>2024-05-24T01:21:42Z</time></trkpt>
<trkpt lat="34.799788" lon="-118.587143"><ele>887.8</ele><time>2024-05-24T01:22:09Z</time></trkpt>
<trkpt lat="34.799964" lon="-118.587010"><ele>887.6</ele><time>2024-05-24T01:22:21Z</time></trkpt>
<trkpt lat="34.800264" lon="-118.586947"><ele>886.6</ele><time>2024-05-24T01:22:45Z</time></trkpt>
<trkpt lat="34.800976" lon="-118.587163"><ele>885.4</ele><time>2024-05-24T01:23:44Z</time></trkpt>
<trkpt lat="34.802191" lon="-118.587077"><ele>885.0</ele><time>2024-05-24T01:25:03Z</time></trkpt>
<trkpt lat="34.802343" lon="-118.587102"><ele>884.8</ele><time>2024-05-24T01:25:17Z</time></trkpt>
<trkpt lat="34.802365" lon="-118.587178"><ele>885.2</ele><time>2024-05-24T01:25:42Z</time></trkpt>
<trkpt lat="34.802484" lon="-118.587219"><ele>884.8</ele><time>2024-05-24T01:25:48Z</time></trkpt>
<trkpt lat="34.803217" lon="-118.587031"><ele>881.6</ele><time>2024-05-24T01:26:53Z</time></trkpt>
<trkpt lat="34.803451" lon="-118.587265"><ele>882.8</ele><time>2024-05-24T01:27:27Z</time></trkpt>
<trkpt lat="34.803795" lon="-118.587343"><ele>882.0</ele><time>2024-05-24T01:27:44Z</time></trkpt>
<trkpt lat="34.803758" lon="-118.587439"><ele>881.6</ele><time>2024-05-24T01:27:54Z</time></trkpt>
<trkpt lat="34.803565" lon="-118.587515"><ele>879.2</ele><time>2024-05-24T01:29:46Z</time></trkpt>
<trkpt lat="34.803491" lon="-118.587522"><ele>880.0</ele><time>2024-05-24T01:31:43Z</time></trkpt>
<trkpt lat="34.803744" lon="-118.587377"><ele>881.6</ele><time>2024-05-24T01:32:57Z</time></trkpt>
<trkpt lat="34.803851" lon="-118.587193"><ele>878.8</ele><time>2024-05-24T01:33:25Z</time></trkpt>
<trkpt lat="34.804126" lon="-118.587103"><ele>878.8</ele><time>2024-05-24T01:33:42Z</time></trkpt>
<trkpt lat="34.808161" lon="-118.587245"><ele>871.6</ele><time>2024-05-24T01:39:42Z</time></trkpt>
<trkpt lat="34.809009" lon="-118.587115"><ele>871.4</ele><time>2024-05-24T01:40:35Z</time></trkpt>
<trkpt lat="34.809721" lon="-118.587295"><ele>872.8</ele><time>2024-05-24T01:41:57Z</time></trkpt>
<trkpt lat="34.810742" lon="-118.587346"><ele>873.6</ele><time>2024-05-24T01:43:35Z</time></trkpt>
<trkpt lat="34.811092" lon="-118.587277"><ele>873.2</ele><time>2024-05-24T01:43:59Z</time></trkpt>
<trkpt lat="34.813673" lon="-118.587357"><ele>876.2</ele><time>2024-05-24T01:47:42Z</time></trkpt>
<trkpt lat="34.814607" lon="-118.587306"><ele>877.0</ele><time>2024-05-24T01:48:53Z</time></trkpt>
<trkpt lat="34.815048" lon="-118.587418"><ele>877.8</ele><time>2024-05-24T01:49:43Z</time></trkpt>
<trkpt lat="34.816340" lon="-118.587483"><ele>880.6</ele><time>2024-05-24T01:51:41Z</time></trkpt>
<trkpt lat="34.816491" lon="-118.587372"><ele>880.8</ele><time>2024-05-24T01:52:00Z</time></trkpt>
<trkpt lat="34.817798" lon="-118.587461"><ele>884.8</ele><time>2024-05-24T01:53:56Z</time></trkpt>
<trkpt lat="34.819214" lon="-118.587460"><ele>888.6</ele><time>2024-05-24T01:55:59Z</time></trkpt>
<trkpt lat="34.819855" lon="-118.587660"><ele>890.8</ele><time>2024-05-24T01:57:05Z</time></trkpt>
<trkpt lat="34.820555" lon="-118.587596"><ele>893.0</ele><time>2024-05-24T01:57:41Z</time></trkpt>
<trkpt lat="34.820477" lon="-118.587482"><ele>893.4</ele><time>2024-05-24T01:57:47Z</time></trkpt>
<trkpt lat="34.820551" lon="-118.587482"><ele>893.8</ele><time>2024-05-24T01:57:56Z</time></trkpt>
<trkpt lat="34.825542" lon="-118.587663"><ele>913.4</ele><time>2024-05-24T02:05:31Z</time></trkpt>
<trkpt lat="34.827244" lon="-118.587631"><ele>915.8</ele><time>2024-05-24T02:07:44Z</time></trkpt>
<trkpt lat="34.828605" lon="-118.587712"><ele>918.8</ele><time>2024-05-24T02:09:42Z</time></trkpt>
<trkpt lat="34.830670" lon="-118.587512"><ele>923.8</ele><time>2024-05-24T02:12:46Z</time></trkpt>
<trkpt lat="34.830902" lon="-118.587578"><ele>924.6</ele><time>2024-05-24T02:13:08Z</time></trkpt>
<trkpt lat="34.831374" lon="-118.587546"><ele>926.4</ele><time>2024-05-24T02:13:41Z</time></trkpt>
<trkpt lat="34.831316" lon="-118.587606"><ele>927.0</ele><time>2024-05-24T02:13:48Z</time></trkpt>
<trkpt lat="34.831334" lon="-118.587558"><ele>926.8</ele><time>2024-05-24T02:13:56Z</time></trkpt>
<trkpt lat="34.833460" lon="-118.587719"><ele>932.0</ele><time>2024-05-24T02:17:42Z</time></trkpt>
<trkpt lat="34.833652" lon="-118.587694"><ele>932.8</ele><time>2024-05-24T02:18:02Z</time></trkpt>
<trkpt lat="34.833788" lon="-118.587591"><ele>933.8</ele><time>2024-05-24T02:18:15Z</time></trkpt>
<trkpt lat="34.834226" lon="-118.586933"><ele>935.6</ele><time>2024-05-24T02:19:42Z</time></trkpt>
<trkpt lat="34.834326" lon="-118.586352"><ele>935.6</ele><time>2024-05-24T02:20:13Z</time></trkpt>
<trkpt lat="34.834270" lon="-118.585946"><ele>936.2</ele><time>2024-05-24T02:20:49Z</time></trkpt>
<trkpt lat="34.834412" lon="-118.585723"><ele>936.8</ele><time>2024-05-24T02:21:17Z</time></trkpt>
<trkpt lat="34.834831" lon="-118.585554"><ele>936.4</ele><time>2024-05-24T02:21:43Z</time></trkpt>
<trkpt lat="34.834697" lon="-118.585463"><ele>936.2</ele><time>2024-05-24T02:21:46Z</time></trkpt>
<trkpt lat="34.835061" lon="-118.584953"><ele>935.6</ele><time>2024-05-24T02:22:25Z</time></trkpt>
<trkpt lat="34.835374" lon="-118.584126"><ele>935.4</ele><time>2024-05-24T02:23:42Z</time></trkpt>
<trkpt lat="34.836062" lon="-118.581408"><ele>934.4</ele><time>2024-05-24T02:27:05Z</time></trkpt>
<trkpt lat="34.836395" lon="-118.578984"><ele>934.2</ele><time>2024-05-24T02:29:43Z</time></trkpt>
<trkpt lat="34.836554" lon="-118.578824"><ele>934.2</ele><time>2024-05-24T02:29:58Z</time></trkpt>
<trkpt lat="34.837073" lon="-118.577866"><ele>935.2</ele><time>2024-05-24T02:31:33Z</time></trkpt>
<trkpt lat="34.837135" lon="-118.577587"><ele>935.2</ele><time>2024-05-24T02:31:41Z</time></trkpt>
<trkpt lat="34.837048" lon="-118.577590"><ele>935.0</ele><time>2024-05-24T02:31:46Z</time></trkpt>
<trkpt lat="34.836924" lon="-118.577423"><ele>935.2</ele><time>2024-05-24T02:32:00Z</time></trkpt>
<trkpt lat="34.836336" lon="-118.576236"><ele>935.0</ele><time>2024-05-24T02:33:42Z</time></trkpt>
<trkpt lat="34.836608" lon="-118.575647"><ele>934.8</ele><time>2024-05-24T02:34:43Z</time></trkpt>
<trkpt lat="34.836738" lon="-118.574821"><ele>935.6</ele><time>2024-05-24T02:35:33Z</time></trkpt>
<trkpt lat="34.836945" lon="-118.574617"><ele>935.6</ele><time>2024-05-24T02:35:43Z</time></trkpt>
<trkpt lat="34.837162" lon="-118.572669"><ele>935.8</ele><time>2024-05-24T02:37:59Z</time></trkpt>
<trkpt lat="34.837600" lon="-118.571872"><ele>937.0</ele><time>2024-05-24T02:38:57Z</time></trkpt>
<trkpt lat="34.837963" lon="-118.571424"><ele>937.0</ele><time>2024-05-24T02:39:41Z</time></trkpt>
<trkpt lat="34.837735" lon="-118.571291"><ele>937.0</ele><time>2024-05-24T02:39:43Z</time></trkpt>
<trkpt lat="34.838514" lon="-118.569808"><ele>937.0</ele><time>2024-05-24T02:41:41Z</time></trkpt>
<trkpt lat="34.838448" lon="-118.569718"><ele>937.0</ele><time>2024-05-24T02:41:45Z</time></trkpt>
<trkpt lat="34.838477" lon="-118.569604"><ele>936.8</ele><time>2024-05-24T02:41:51Z</time></trkpt>
<trkpt lat="34.838675" lon="-118.569205"><ele>937.0</ele><time>2024-05-24T02:42:11Z</time></trkpt>
<trkpt lat="34.838994" lon="-118.567997"><ele>936.8</ele><time>2024-05-24T02:43:51Z</time></trkpt>
<trkpt lat="34.839079" lon="-118.567159"><ele>940.2</ele><time>2024-05-24T02:47:42Z</time></trkpt>
<trkpt lat="34.839344" lon="-118.565514"><ele>940.2</ele><time>2024-05-24T02:49:44Z</time></trkpt>
<trkpt lat="34.840614" lon="-118.562859"><ele>939.6</ele><time>2024-05-24T02:53:00Z</time></trkpt>
<trkpt lat="34.840835" lon="-118.562506"><ele>940.8</ele><time>2024-05-24T02:53:41Z</time></trkpt>
<trkpt lat="34.840888" lon="-118.562219"><ele>940.8</ele><time>2024-05-24T02:53:59Z</time></trkpt>
<trkpt lat="34.841389" lon="-118.560783"><ele>941.4</ele><time>2024-05-24T02:55:42Z</time></trkpt>
<trkpt lat="34.842619" lon="-118.559295"><ele>941.6</ele><time>2024-05-24T02:58:01Z</time></trkpt>
<trkpt lat="34.844173" lon="-118.556542"><ele>942.4</ele><time>2024-05-24T03:01:43Z</time></trkpt>
<trkpt lat="34.846815" lon="-118.555068"><ele>940.6</ele><time>2024-05-24T03:05:41Z</time></trkpt>
<trkpt lat="34.847097" lon="-118.554987"><ele>940.6</ele><time>2024-05-24T03:06:01Z</time></trkpt>
<trkpt lat="34.848295" lon="-118.554324"><ele>940.4</ele><time>2024-05-24T03:07:43Z</time></trkpt>
<trkpt lat="34.848453" lon="-118.554149"><ele>940.0</ele><time>2024-05-24T03:07:52Z</time></trkpt>
<trkpt lat="34.849151" lon="-118.553773"><ele>939.6</ele><time>2024-05-24T03:09:11Z</time></trkpt>
<trkpt lat="34.849452" lon="-118.553535"><ele>939.0</ele><time>2024-05-24T03:09:42Z</time></trkpt>
<trkpt lat="34.849638" lon="-118.551476"><ele>938.6</ele><time>2024-05-24T03:11:58Z</time></trkpt>
<trkpt lat="34.850263" lon="-118.549808"><ele>939.8</ele><time>2024-05-24T03:14:01Z</time></trkpt>
<trkpt lat="34.850150" lon="-118.548666"><ele>939.8</ele><time>2024-05-24T03:15:17Z</time></trkpt>
<trkpt lat="34.850171" lon="-118.548257"><ele>939.8</ele><time>2024-05-24T03:15:41Z</time></trkpt>
<trkpt lat="34.850053" lon="-118.548263"><ele>939.8</ele><time>2024-05-24T03:15:49Z</time></trkpt>
<trkpt lat="34.850016" lon="-118.548098"><ele>939.6</ele><time>2024-05-24T03:16:00Z</time></trkpt>
<trkpt lat="34.850195" lon="-118.546437"><ele>939.4</ele><time>2024-05-24T03:17:51Z</time></trkpt>
<trkpt lat="34.850645" lon="-118.545346"><ele>939.0</ele><time>2024-05-24T03:19:11Z</time></trkpt>
<trkpt lat="34.850713" lon="-118.544939"><ele>938.8</ele><time>2024-05-24T03:19:39Z</time></trkpt>
<trkpt lat="34.850825" lon="-118.544854"><ele>939.2</ele><time>2024-05-24T03:19:45Z</time></trkpt>
<trkpt lat="34.850851" lon="-118.544695"><ele>939.2</ele><time>2024-05-24T03:19:59Z</time></trkpt>
<trkpt lat="34.850719" lon="-118.542896"><ele>939.8</ele><time>2024-05-24T03:21:56Z</time></trkpt>
<trkpt lat="34.850738" lon="-118.541459"><ele>940.8</ele><time>2024-05-24T03:23:52Z</time></trkpt>
<trkpt lat="34.850700" lon="-118.541337"><ele>942.8</ele><time>2024-05-24T03:25:35Z</time></trkpt>
<trkpt lat="34.850759" lon="-118.541415"><ele>943.0</ele><time>2024-05-24T03:25:43Z</time></trkpt>
<trkpt lat="34.850726" lon="-118.541494"><ele>943.0</ele><time>2024-05-24T03:25:52Z</time></trkpt>
<trkpt lat="34.850760" lon="-118.541387"><ele>941.8</ele><time>2024-05-24T03:25:59Z</time></trkpt>
<trkpt lat="34.850614" lon="-118.539938"><ele>942.0</ele><time>2024-05-24T03:27:35Z</time></trkpt>
<trkpt lat="34.850342" lon="-118.539179"><ele>942.0</ele><time>2024-05-24T03:28:39Z</time></trkpt>
<trkpt lat="34.849985" lon="-118.538760"><ele>942.2</ele><time>2024-05-24T03:29:37Z</time></trkpt>
<trkpt lat="34.849544" lon="-118.537751"><ele>941.6</ele><time>2024-05-24T03:31:42Z</time></trkpt>
<trkpt lat="34.849430" lon="-118.537707"><ele>941.2</ele><time>2024-05-24T03:33:37Z</time></trkpt>
<trkpt lat="34.849635" lon="-118.537549"><ele>940.4</ele><time>2024-05-24T03:37:43Z</time></trkpt>
<trkpt lat="34.849470" lon="-118.537735"><ele>940.2</ele><time>2024-05-24T03:39:31Z</time></trkpt>
<trkpt lat="34.849460" lon="-118.537664"><ele>940.0</ele><time>2024-05-24T03:40:02Z</time></trkpt>
</trkseg></trk>
</gpx>
