<?xml version="1.0" encoding="UTF-8"?>
<gpx version="1.1" creator="Eric Sichak trip reports" xmlns="http://www.topografix.com/GPX/1/1">
<metadata><name>Morning Hike</name><time>2024-05-30T13:56:29Z</time></metadata>
<trk><name>Morning Hike</name><type>hike</type><trkseg>
<trkpt lat="35.356730" lon="-118.295993"><ele>1791.0</ele><time>2024-05-30T13:56:29Z</time></trkpt>
<trkpt lat="35.356860" lon="-118.296247"><ele>1792.2</ele><time>2024-05-30T13:56:57Z</time></trkpt>
<trkpt lat="35.356955" lon="-118.297275"><ele>1788.2</ele><time>2024-05-30T13:59:09Z</time></trkpt>
<trkpt lat="35.357305" lon="-118.297676"><ele>1787.4</ele><time>2024-05-30T14:00:19Z</time></trkpt>
<trkpt lat="35.357736" lon="-118.297953"><ele>1786.2</ele><time>2024-05-30T14:00:48Z</time></trkpt>
<trkpt lat="35.357730" lon="-118.298062"><ele>1786.0</ele><time>2024-05-30T14:00:54Z</time></trkpt>
<trkpt lat="35.358001" lon="-118.298508"><ele>1782.6</ele><time>2024-05-30T14:01:23Z</time></trkpt>
<trkpt lat="35.358450" lon="-118.298983"><ele>1778.6</ele><time>2024-05-30T14:02:35Z</time></trkpt>
<trkpt lat="35.358771" lon="-118.299682"><ele>1771.0</ele><time>2024-05-30T14:03:27Z</time></trkpt>
<trkpt lat="35.358848" lon="-118.299702"><ele>1770.0</ele><time>2024-05-30T14:03:33Z</time></trkpt>
<trkpt lat="35.359229" lon="-118.299513"><ele>1765.2</ele><time>2024-05-30T14:04:09Z</time></trkpt>
<trkpt lat="35.359383" lon="-118.299528"><ele>1761.0</ele><time>2024-05-30T14:04:37Z</time></trkpt>
<trkpt lat="35.359424" lon="-118.299450"><ele>1759.6</ele><time>2024-05-30T14:04:44Z</time></trkpt>
<trkpt lat="35.359301" lon="-118.299345"><ele>1758.4</ele><time>2024-05-30T14:04:48Z</time></trkpt>
<trkpt lat="35.359429" lon="-118.298844"><ele>1753.6</ele><time>2024-05-30T14:05:23Z</time></trkpt>
<trkpt lat="35.360013" lon="-118.298020"><ele>1749.2</ele><time>2024-05-30T14:06:43Z</time></trkpt>
<trkpt lat="35.360060" lon="-118.297877"><ele>1749.0</ele><time>2024-05-30T14:06:52Z</time></trkpt>
<trkpt lat="35.360256" lon="-118.297904"><ele>1747.6</ele><time>2024-05-30T14:07:05Z</time></trkpt>
<trkpt lat="35.360558" lon="-118.297687"><ele>1744.8</ele><time>2024-05-30T14:07:37Z</time></trkpt>
<trkpt lat="35.360852" lon="-118.297294"><ele>1746.2</ele><time>2024-05-30T14:08:09Z</time></trkpt>
<trkpt lat="35.360873" lon="-118.296933"><ele>1744.4</ele><time>2024-05-30T14:08:43Z</time></trkpt>
<trkpt lat="35.360940" lon="-118.296844"><ele>1743.2</ele><time>2024-05-30T14:08:52Z</time></trkpt>
<trkpt lat="35.361234" lon="-118.296781"><ele>1741.4</ele><time>2024-05-30T14:10:07Z</time></trkpt>
<trkpt lat="35.361752" lon="-118.296845"><ele>1744.2</ele><time>2024-05-30T14:10:55Z</time></trkpt>
<trkpt lat="35.362269" lon="-118.296687"><ele>1744.2</ele><time>2024-05-30T14:11:59Z</time></trkpt>
<trkpt lat="35.362787" lon="-118.296267"><ele>1741.4</ele><time>2024-05-30T14:12:42Z</time></trkpt>
<trkpt lat="35.362658" lon="-118.296172"><ele>1741.0</ele><time>2024-05-30T14:12:46Z</time></trkpt>
<trkpt lat="35.362705" lon="-118.296102"><ele>1740.4</ele><time>2024-05-30T14:12:57Z</time></trkpt>
<trkpt lat="35.362865" lon="-118.296087"><ele>1739.4</ele><time>2024-05-30T14:13:11Z</time></trkpt>
<trkpt lat="35.363585" lon="-118.295574"><ele>1731.4</ele><time>2024-05-30T14:14:43Z</time></trkpt>
<trkpt lat="35.363556" lon="-118.295145"><ele>1729.4</ele><time>2024-05-30T14:15:09Z</time></trkpt>
<trkpt lat="35.363497" lon="-118.295090"><ele>1728.6</ele><time>2024-05-30T14:15:21Z</time></trkpt>
<trkpt lat="35.363574" lon="-118.294664"><ele>1723.6</ele><time>2024-05-30T14:15:53Z</time></trkpt>
<trkpt lat="35.363717" lon="-118.294400"><ele>1718.8</ele><time>2024-05-30T14:16:21Z</time></trkpt>
<trkpt lat="35.363876" lon="-118.294255"><ele>1718.2</ele><time>2024-05-30T14:16:33Z</time></trkpt>
<trkpt lat="35.364169" lon="-118.294174"><ele>1722.2</ele><time>2024-05-30T14:16:55Z</time></trkpt>
<trkpt lat="35.364854" lon="-118.293751"><ele>1723.8</ele><time>2024-05-30T14:17:55Z</time></trkpt>
<trkpt lat="35.365136" lon="-118.293652"><ele>1724.8</ele><time>2024-05-30T14:18:43Z</time></trkpt>
<trkpt lat="35.365310" lon="-118.293462"><ele>1728.0</ele><time>2024-05-30T14:19:02Z</time></trkpt>
<trkpt lat="35.366140" lon="-118.293421"><ele>1736.0</ele><time>2024-05-30T14:20:39Z</time></trkpt>
<trkpt lat="35.366366" lon="-118.293442"><ele>1737.2</ele><time>2024-05-30T14:20:46Z</time></trkpt>
<trkpt lat="35.366464" lon="-118.293545"><ele>1739.4</ele><time>2024-05-30T14:20:57Z</time></trkpt>
<trkpt lat="35.366732" lon="-118.293327"><ele>1742.8</ele><time>2024-05-30T14:21:17Z</time></trkpt>
<trkpt lat="35.367192" lon="-118.292763"><ele>1753.8</ele><time>2024-05-30T14:22:43Z</time></trkpt>
<trkpt lat="35.368393" lon="-118.292793"><ele>1768.8</ele><time>2024-05-30T14:24:42Z</time></trkpt>
<trkpt lat="35.368536" lon="-118.292609"><ele>1772.0</ele><time>2024-05-30T14:25:01Z</time></trkpt>
<trkpt lat="35.368647" lon="-118.292204"><ele>1779.4</ele><time>2024-05-30T14:25:59Z</time></trkpt>
<trkpt lat="35.368651" lon="-118.292086"><ele>1786.2</ele><time>2024-05-30T14:26:43Z</time></trkpt>
<trkpt lat="35.369306" lon="-118.291547"><ele>1786.8</ele><time>2024-05-30T14:26:47Z</time></trkpt>
<trkpt lat="35.369204" lon="-118.291551"><ele>1787.6</ele><time>2024-05-30T14:26:50Z</time></trkpt>
<trkpt lat="35.369236" lon="-118.291529"><ele>1788.4</ele><time>2024-05-30T14:26:54Z</time></trkpt>
<trkpt lat="35.369419" lon="-118.291848"><ele>1788.6</ele><time>2024-05-30T14:27:21Z</time></trkpt>
<trkpt lat="35.369358" lon="-118.292623"><ele>1791.6</ele><time>2024-05-30T14:28:11Z</time></trkpt>
<trkpt lat="35.369386" lon="-118.292892"><ele>1792.8</ele><time>2024-05-30T14:28:27Z</time></trkpt>
<trkpt lat="35.369557" lon="-118.293324"><ele>1793.0</ele><time>2024-05-30T14:29:00Z</time></trkpt>
<trkpt lat="35.370483" lon="-118.294404"><ele>1793.2</ele><time>2024-05-30T14:30:41Z</time></trkpt>
<trkpt lat="35.370761" lon="-118.294383"><ele>1794.2</ele><time>2024-05-30T14:31:01Z</time></trkpt>
<trkpt lat="35.370844" lon="-118.294314"><ele>1794.8</ele><time>2024-05-30T14:31:05Z</time></trkpt>
<trkpt lat="35.371289" lon="-118.293584"><ele>1803.2</ele><time>2024-05-30T14:32:42Z</time></trkpt>
<trkpt lat="35.371445" lon="-118.293452"><ele>1803.6</ele><time>2024-05-30T14:32:58Z</time></trkpt>
<trkpt lat="35.371834" lon="-118.293369"><ele>1804.4</ele><time>2024-05-30T14:33:25Z</time></trkpt>
<trkpt lat="35.372631" lon="-118.293462"><ele>1815.6</ele><time>2024-05-30T14:34:43Z</time></trkpt>
<trkpt lat="35.372568" lon="-118.293363"><ele>1815.8</ele><time>2024-05-30T14:34:44Z</time></trkpt>
<trkpt lat="35.372620" lon="-118.293434"><ele>1817.2</ele><time>2024-05-30T14:34:50Z</time></trkpt>
<trkpt lat="35.372838" lon="-118.293253"><ele>1821.6</ele><time>2024-05-30T14:35:31Z</time></trkpt>
<trkpt lat="35.372975" lon="-118.293250"><ele>1824.4</ele><time>2024-05-30T14:35:51Z</time></trkpt>
<trkpt lat="35.373404" lon="-118.292788"><ele>1831.4</ele><time>2024-05-30T14:36:42Z</time></trkpt>
<trkpt lat="35.373345" lon="-118.292767"><ele>1832.6</ele><time>2024-05-30T14:36:46Z</time></trkpt>
<trkpt lat="35.373400" lon="-118.292781"><ele>1833.6</ele><time>2024-05-30T14:36:50Z</time></trkpt>
<trkpt lat="35.373304" lon="-118.292793"><ele>1833.6</ele><time>2024-05-30T14:36:51Z</time></trkpt>
<trkpt lat="35.373372" lon="-118.292860"><ele>1836.2</ele><time>2024-05-30T14:37:02Z</time></trkpt>
<trkpt lat="35.374344" lon="-118.293497"><ele>1849.6</ele><time>2024-05-30T14:38:48Z</time></trkpt>
<trkpt lat="35.374589" lon="-118.294190"><ele>1856.4</ele><time>2024-05-30T14:39:45Z</time></trkpt>
<trkpt lat="35.374830" lon="-118.294412"><ele>1861.6</ele><time>2024-05-30T14:40:25Z</time></trkpt>
<trkpt lat="35.375064" lon="-118.294885"><ele>1866.0</ele><time>2024-05-30T14:40:56Z</time></trkpt>
<trkpt lat="35.375122" lon="-118.294738"><ele>1867.0</ele><time>2024-05-30T14:41:04Z</time></trkpt>
<trkpt lat="35.374964" lon="-118.293847"><ele>1881.2</ele><time>2024-05-30T14:42:44Z</time></trkpt>
<trkpt lat="35.375331" lon="-118.293431"><ele>1882.2</ele><time>2024-05-30T14:42:51Z</time></trkpt>
<trkpt lat="35.375337" lon="-118.293310"><ele>1884.0</ele><time>2024-05-30T14:43:00Z</time></trkpt>
<trkpt lat="35.375724" lon="-118.293324"><ele>1890.4</ele><time>2024-05-30T14:44:04Z</time></trkpt>
<trkpt lat="35.375924" lon="-118.293449"><ele>1896.0</ele><time>2024-05-30T14:44:42Z</time></trkpt>
<trkpt lat="35.375926" lon="-118.293664"><ele>1896.6</ele><time>2024-05-30T14:44:53Z</time></trkpt>
<trkpt lat="35.376015" lon="-118.293840"><ele>1897.6</ele><time>2024-05-30T14:45:10Z</time></trkpt>
<trkpt lat="35.376542" lon="-118.294441"><ele>1896.4</ele><time>2024-05-30T14:46:14Z</time></trkpt>
<trkpt lat="35.376795" lon="-118.294578"><ele>1897.6</ele><time>2024-05-30T14:46:45Z</time></trkpt>
<trkpt lat="35.376919" lon="-118.294724"><ele>1900.6</ele><time>2024-05-30T14:47:01Z</time></trkpt>
<trkpt lat="35.376908" lon="-118.294830"><ele>1902.8</ele><time>2024-05-30T14:47:24Z</time></trkpt>
<trkpt lat="35.377010" lon="-118.294887"><ele>1901.4</ele><time>2024-05-30T14:47:40Z</time></trkpt>
<trkpt lat="35.377750" lon="-118.294512"><ele>1899.4</ele><time>2024-05-30T14:48:47Z</time></trkpt>
<trkpt lat="35.377874" lon="-118.294211"><ele>1899.8</ele><time>2024-05-30T14:48:59Z</time></trkpt>
<trkpt lat="35.378338" lon="-118.293525"><ele>1907.8</ele><time>2024-05-30T14:50:16Z</time></trkpt>
<trkpt lat="35.378611" lon="-118.293380"><ele>1905.6</ele><time>2024-05-30T14:50:38Z</time></trkpt>
<trkpt lat="35.378726" lon="-118.293245"><ele>1905.4</ele><time>2024-05-30T14:50:44Z</time></trkpt>
<trkpt lat="35.378685" lon="-118.293276"><ele>1905.4</ele><time>2024-05-30T14:50:45Z</time></trkpt>
<trkpt lat="35.378782" lon="-118.293362"><ele>1904.0</ele><time>2024-05-30T14:50:58Z</time></trkpt>
<trkpt lat="35.379554" lon="-118.293553"><ele>1904.6</ele><time>2024-05-30T14:52:12Z</time></trkpt>
<trkpt lat="35.379782" lon="-118.293577"><ele>1905.4</ele><time>2024-05-30T14:52:44Z</time></trkpt>
<trkpt lat="35.380052" lon="-118.293394"><ele>1906.6</ele><time>2024-05-30T14:52:50Z</time></trkpt>
<trkpt lat="35.380362" lon="-118.293703"><ele>1910.0</ele><time>2024-05-30T14:53:28Z</time></trkpt>
<trkpt lat="35.381064" lon="-118.293982"><ele>1915.0</ele><time>2024-05-30T14:54:49Z</time></trkpt>
<trkpt lat="35.381599" lon="-118.294376"><ele>1917.2</ele><time>2024-05-30T14:55:42Z</time></trkpt>
<trkpt lat="35.382023" lon="-118.294534"><ele>1917.8</ele><time>2024-05-30T14:56:40Z</time></trkpt>
<trkpt lat="35.382154" lon="-118.294686"><ele>1917.0</ele><time>2024-05-30T14:56:47Z</time></trkpt>
<trkpt lat="35.382127" lon="-118.294806"><ele>1917.2</ele><time>2024-05-30T14:56:52Z</time></trkpt>
<trkpt lat="35.382377" lon="-118.295252"><ele>1916.0</ele><time>2024-05-30T14:57:32Z</time></trkpt>
<trkpt lat="35.382594" lon="-118.295358"><ele>1914.6</ele><time>2024-05-30T14:57:52Z</time></trkpt>
<trkpt lat="35.382936" lon="-118.295772"><ele>1914.0</ele><time>2024-05-30T14:58:46Z</time></trkpt>
<trkpt lat="35.382892" lon="-118.295872"><ele>1913.2</ele><time>2024-05-30T14:58:51Z</time></trkpt>
<trkpt lat="35.382946" lon="-118.296007"><ele>1912.0</ele><time>2024-05-30T14:59:03Z</time></trkpt>
<trkpt lat="35.383193" lon="-118.296349"><ele>1912.4</ele><time>2024-05-30T14:59:22Z</time></trkpt>
<trkpt lat="35.383702" lon="-118.296944"><ele>1918.2</ele><time>2024-05-30T15:00:45Z</time></trkpt>
<trkpt lat="35.383946" lon="-118.297087"><ele>1921.8</ele><time>2024-05-30T15:01:03Z</time></trkpt>
<trkpt lat="35.383952" lon="-118.297425"><ele>1922.0</ele><time>2024-05-30T15:01:28Z</time></trkpt>
<trkpt lat="35.383696" lon="-118.298256"><ele>1916.8</ele><time>2024-05-30T15:02:44Z</time></trkpt>
<trkpt lat="35.383848" lon="-118.298242"><ele>1916.6</ele><time>2024-05-30T15:02:47Z</time></trkpt>
<trkpt lat="35.384355" lon="-118.298914"><ele>1909.8</ele><time>2024-05-30T15:03:30Z</time></trkpt>
<trkpt lat="35.384827" lon="-118.299753"><ele>1920.2</ele><time>2024-05-30T15:05:02Z</time></trkpt>
<trkpt lat="35.385370" lon="-118.300005"><ele>1919.8</ele><time>2024-05-30T15:06:00Z</time></trkpt>
<trkpt lat="35.385851" lon="-118.300091"><ele>1921.2</ele><time>2024-05-30T15:06:43Z</time></trkpt>
<trkpt lat="35.385825" lon="-118.299967"><ele>1922.2</ele><time>2024-05-30T15:06:50Z</time></trkpt>
<trkpt lat="35.385939" lon="-118.299884"><ele>1921.0</ele><time>2024-05-30T15:07:01Z</time></trkpt>
<trkpt lat="35.386014" lon="-118.299921"><ele>1919.8</ele><time>2024-05-30T15:07:06Z</time></trkpt>
<trkpt lat="35.386204" lon="-118.300029"><ele>1920.0</ele><time>2024-05-30T15:07:18Z</time></trkpt>
<trkpt lat="35.386404" lon="-118.300148"><ele>1928.8</ele><time>2024-05-30T15:08:12Z</time></trkpt>
<trkpt lat="35.386869" lon="-118.300449"><ele>1931.0</ele><time>2024-05-30T15:08:43Z</time></trkpt>
<trkpt lat="35.387110" lon="-118.300486"><ele>1933.4</ele><time>2024-05-30T15:08:55Z</time></trkpt>
<trkpt lat="35.387538" lon="-118.301096"><ele>1943.4</ele><time>2024-05-30T15:10:32Z</time></trkpt>
<trkpt lat="35.387719" lon="-118.301111"><ele>1945.8</ele><time>2024-05-30T15:10:44Z</time></trkpt>
<trkpt lat="35.387618" lon="-118.301044"><ele>1948.0</ele><time>2024-05-30T15:10:55Z</time></trkpt>
<trkpt lat="35.387461" lon="-118.299448"><ele>1962.8</ele><time>2024-05-30T15:12:56Z</time></trkpt>
<trkpt lat="35.387966" lon="-118.299559"><ele>1971.4</ele><time>2024-05-30T15:13:58Z</time></trkpt>
<trkpt lat="35.388404" lon="-118.299536"><ele>1980.6</ele><time>2024-05-30T15:14:46Z</time></trkpt>
<trkpt lat="35.388282" lon="-118.299736"><ele>1981.4</ele><time>2024-05-30T15:14:53Z</time></trkpt>
<trkpt lat="35.388853" lon="-118.299531"><ele>1984.0</ele><time>2024-05-30T15:15:24Z</time></trkpt>
<trkpt lat="35.389359" lon="-118.299475"><ele>1997.0</ele><time>2024-05-30T15:16:43Z</time></trkpt>
<trkpt lat="35.389271" lon="-118.299566"><ele>1997.2</ele><time>2024-05-30T15:16:45Z</time></trkpt>
<trkpt lat="35.389486" lon="-118.299395"><ele>1998.2</ele><time>2024-05-30T15:16:52Z</time></trkpt>
<trkpt lat="35.389941" lon="-118.299216"><ele>2008.0</ele><time>2024-05-30T15:18:02Z</time></trkpt>
<trkpt lat="35.390346" lon="-118.299092"><ele>2011.4</ele><time>2024-05-30T15:18:44Z</time></trkpt>
<trkpt lat="35.390390" lon="-118.299166"><ele>2011.6</ele><time>2024-05-30T15:18:46Z</time></trkpt>
<trkpt lat="35.390502" lon="-118.299034"><ele>2011.6</ele><time>2024-05-30T15:18:58Z</time></trkpt>
<trkpt lat="35.390457" lon="-118.298913"><ele>2012.6</ele><time>2024-05-30T15:20:32Z</time></trkpt>
<trkpt lat="35.390920" lon="-118.298975"><ele>2013.2</ele><time>2024-05-30T15:20:44Z</time></trkpt>
<trkpt lat="35.390474" lon="-118.298998"><ele>2013.2</ele><time>2024-05-30T15:21:01Z</time></trkpt>
<trkpt lat="35.390803" lon="-118.298952"><ele>2015.8</ele><time>2024-05-30T15:22:45Z</time></trkpt>
<trkpt lat="35.390558" lon="-118.298989"><ele>2017.6</ele><time>2024-05-30T15:23:46Z</time></trkpt>
<trkpt lat="35.390790" lon="-118.299251"><ele>2013.4</ele><time>2024-05-30T15:24:47Z</time></trkpt>
<trkpt lat="35.391396" lon="-118.299220"><ele>2005.4</ele><time>2024-05-30T15:25:26Z</time></trkpt>
<trkpt lat="35.391558" lon="-118.299431"><ele>2002.0</ele><time>2024-05-30T15:25:42Z</time></trkpt>
<trkpt lat="35.391639" lon="-118.299672"><ele>1998.0</ele><time>2024-05-30T15:26:24Z</time></trkpt>
<trkpt lat="35.391837" lon="-118.299484"><ele>1995.8</ele><time>2024-05-30T15:26:44Z</time></trkpt>
<trkpt lat="35.391787" lon="-118.299367"><ele>1995.2</ele><time>2024-05-30T15:26:52Z</time></trkpt>
<trkpt lat="35.391840" lon="-118.299227"><ele>1994.0</ele><time>2024-05-30T15:26:59Z</time></trkpt>
<trkpt lat="35.392164" lon="-118.298875"><ele>1988.6</ele><time>2024-05-30T15:27:31Z</time></trkpt>
<trkpt lat="35.392560" lon="-118.298756"><ele>1986.6</ele><time>2024-05-30T15:28:09Z</time></trkpt>
<trkpt lat="35.392881" lon="-118.299025"><ele>1981.8</ele><time>2024-05-30T15:28:44Z</time></trkpt>
<trkpt lat="35.393029" lon="-118.299537"><ele>1978.8</ele><time>2024-05-30T15:29:21Z</time></trkpt>
<trkpt lat="35.393240" lon="-118.299666"><ele>1977.0</ele><time>2024-05-30T15:29:51Z</time></trkpt>
<trkpt lat="35.393392" lon="-118.299653"><ele>1975.6</ele><time>2024-05-30T15:30:03Z</time></trkpt>
<trkpt lat="35.393504" lon="-118.299568"><ele>1972.4</ele><time>2024-05-30T15:30:19Z</time></trkpt>
<trkpt lat="35.393440" lon="-118.299479"><ele>1968.4</ele><time>2024-05-30T15:30:37Z</time></trkpt>
<trkpt lat="35.393824" lon="-118.299229"><ele>1964.4</ele><time>2024-05-30T15:31:07Z</time></trkpt>
<trkpt lat="35.394496" lon="-118.299337"><ele>1965.6</ele><time>2024-05-30T15:32:29Z</time></trkpt>
<trkpt lat="35.394739" lon="-118.299519"><ele>1964.6</ele><time>2024-05-30T15:32:44Z</time></trkpt>
<trkpt lat="35.394715" lon="-118.299619"><ele>1964.8</ele><time>2024-05-30T15:32:50Z</time></trkpt>
<trkpt lat="35.394796" lon="-118.299741"><ele>1964.4</ele><time>2024-05-30T15:33:00Z</time></trkpt>
<trkpt lat="35.395866" lon="-118.300161"><ele>1970.0</ele><time>2024-05-30T15:34:46Z</time></trkpt>
<trkpt lat="35.396269" lon="-118.300016"><ele>1970.0</ele><time>2024-05-30T15:35:19Z</time></trkpt>
<trkpt lat="35.396463" lon="-118.299878"><ele>1967.8</ele><time>2024-05-30T15:35:49Z</time></trkpt>
<trkpt lat="35.396907" lon="-118.299820"><ele>1972.0</ele><time>2024-05-30T15:36:44Z</time></trkpt>
<trkpt lat="35.397725" lon="-118.301325"><ele>1978.6</ele><time>2024-05-30T15:38:45Z</time></trkpt>
<trkpt lat="35.397756" lon="-118.301630"><ele>1979.6</ele><time>2024-05-30T15:39:02Z</time></trkpt>
<trkpt lat="35.397950" lon="-118.301954"><ele>1983.8</ele><time>2024-05-30T15:39:33Z</time></trkpt>
<trkpt lat="35.398216" lon="-118.302170"><ele>1984.2</ele><time>2024-05-30T15:40:07Z</time></trkpt>
<trkpt lat="35.398496" lon="-118.302754"><ele>1987.4</ele><time>2024-05-30T15:40:45Z</time></trkpt>
<trkpt lat="35.398579" lon="-118.302595"><ele>1988.2</ele><time>2024-05-30T15:40:47Z</time></trkpt>
<trkpt lat="35.398603" lon="-118.302847"><ele>1991.6</ele><time>2024-05-30T15:41:01Z</time></trkpt>
<trkpt lat="35.398696" lon="-118.302921"><ele>1992.2</ele><time>2024-05-30T15:41:09Z</time></trkpt>
<trkpt lat="35.399031" lon="-118.303045"><ele>1994.2</ele><time>2024-05-30T15:42:27Z</time></trkpt>
<trkpt lat="35.399359" lon="-118.302966"><ele>1993.4</ele><time>2024-05-30T15:42:49Z</time></trkpt>
<trkpt lat="35.399591" lon="-118.303433"><ele>1992.4</ele><time>2024-05-30T15:43:13Z</time></trkpt>
<trkpt lat="35.399835" lon="-118.304252"><ele>1998.6</ele><time>2024-05-30T15:44:47Z</time></trkpt>
<trkpt lat="35.400092" lon="-118.304289"><ele>1999.8</ele><time>2024-05-30T15:45:02Z</time></trkpt>
<trkpt lat="35.400261" lon="-118.304672"><ele>2003.4</ele><time>2024-05-30T15:45:29Z</time></trkpt>
<trkpt lat="35.400428" lon="-118.304834"><ele>2004.0</ele><time>2024-05-30T15:45:57Z</time></trkpt>
<trkpt lat="35.400750" lon="-118.305363"><ele>2003.6</ele><time>2024-05-30T15:46:44Z</time></trkpt>
<trkpt lat="35.400807" lon="-118.305036"><ele>2004.2</ele><time>2024-05-30T15:47:04Z</time></trkpt>
<trkpt lat="35.401230" lon="-118.305029"><ele>2002.0</ele><time>2024-05-30T15:47:41Z</time></trkpt>
<trkpt lat="35.401499" lon="-118.305188"><ele>2004.8</ele><time>2024-05-30T15:48:41Z</time></trkpt>
<trkpt lat="35.401715" lon="-118.305190"><ele>2004.4</ele><time>2024-05-30T15:48:47Z</time></trkpt>
<trkpt lat="35.401739" lon="-118.305336"><ele>2004.8</ele><time>2024-05-30T15:48:52Z</time></trkpt>
<trkpt lat="35.402323" lon="-118.305815"><ele>2002.8</ele><time>2024-05-30T15:50:11Z</time></trkpt>
<trkpt lat="35.402832" lon="-118.306079"><ele>2000.8</ele><time>2024-05-30T15:50:52Z</time></trkpt>
<trkpt lat="35.402923" lon="-118.306052"><ele>1999.2</ele><time>2024-05-30T15:51:01Z</time></trkpt>
<trkpt lat="35.402798" lon="-118.306356"><ele>1996.0</ele><time>2024-05-30T15:51:19Z</time></trkpt>
<trkpt lat="35.402864" lon="-118.306632"><ele>1993.8</ele><time>2024-05-30T15:51:43Z</time></trkpt>
<trkpt lat="35.403051" lon="-118.306831"><ele>1991.6</ele><time>2024-05-30T15:51:59Z</time></trkpt>
<trkpt lat="35.403029" lon="-118.307000"><ele>1992.8</ele><time>2024-05-30T15:52:17Z</time></trkpt>
<trkpt lat="35.403132" lon="-118.307274"><ele>1992.2</ele><time>2024-05-30T15:52:49Z</time></trkpt>
<trkpt lat="35.403702" lon="-118.306852"><ele>1989.2</ele><time>2024-05-30T15:53:32Z</time></trkpt>
<trkpt lat="35.403975" lon="-118.306154"><ele>1983.8</ele><time>2024-05-30T15:54:22Z</time></trkpt>
<trkpt lat="35.404175" lon="-118.305929"><ele>1980.4</ele><time>2024-05-30T15:54:45Z</time></trkpt>
<trkpt lat="35.404570" lon="-118.306120"><ele>1979.4</ele><time>2024-05-30T15:55:11Z</time></trkpt>
<trkpt lat="35.405256" lon="-118.306751"><ele>1977.6</ele><time>2024-05-30T15:56:51Z</time></trkpt>
<trkpt lat="35.405337" lon="-118.306765"><ele>1978.2</ele><time>2024-05-30T15:57:04Z</time></trkpt>
<trkpt lat="35.405610" lon="-118.306244"><ele>1978.2</ele><time>2024-05-30T15:58:11Z</time></trkpt>
<trkpt lat="35.405883" lon="-118.306021"><ele>1974.8</ele><time>2024-05-30T15:58:48Z</time></trkpt>
<trkpt lat="35.406030" lon="-118.306028"><ele>1974.6</ele><time>2024-05-30T15:59:01Z</time></trkpt>
<trkpt lat="35.406523" lon="-118.305753"><ele>1975.2</ele><time>2024-05-30T16:00:45Z</time></trkpt>
<trkpt lat="35.406472" lon="-118.305721"><ele>1975.4</ele><time>2024-05-30T16:00:55Z</time></trkpt>
<trkpt lat="35.406528" lon="-118.305715"><ele>1975.6</ele><time>2024-05-30T16:01:01Z</time></trkpt>
<trkpt lat="35.406505" lon="-118.305177"><ele>1974.6</ele><time>2024-05-30T16:02:48Z</time></trkpt>
<trkpt lat="35.406441" lon="-118.305525"><ele>1975.0</ele><time>2024-05-30T16:02:57Z</time></trkpt>
<trkpt lat="35.406379" lon="-118.305559"><ele>1975.2</ele><time>2024-05-30T16:03:02Z</time></trkpt>
<trkpt lat="35.406664" lon="-118.305410"><ele>1976.0</ele><time>2024-05-30T16:04:47Z</time></trkpt>
<trkpt lat="35.406482" lon="-118.305432"><ele>1976.2</ele><time>2024-05-30T16:04:51Z</time></trkpt>
<trkpt lat="35.406585" lon="-118.305711"><ele>1976.4</ele><time>2024-05-30T16:05:04Z</time></trkpt>
<trkpt lat="35.406633" lon="-118.305481"><ele>1976.4</ele><time>2024-05-30T16:06:44Z</time></trkpt>
<trkpt lat="35.406529" lon="-118.305662"><ele>1977.2</ele><time>2024-05-30T16:06:54Z</time></trkpt>
<trkpt lat="35.407673" lon="-118.305550"><ele>1988.8</ele><time>2024-05-30T16:09:00Z</time></trkpt>
<trkpt lat="35.407829" lon="-118.305815"><ele>1991.4</ele><time>2024-05-30T16:09:27Z</time></trkpt>
<trkpt lat="35.407859" lon="-118.306046"><ele>1998.4</ele><time>2024-05-30T16:10:13Z</time></trkpt>
<trkpt lat="35.407934" lon="-118.306149"><ele>1998.2</ele><time>2024-05-30T16:10:46Z</time></trkpt>
<trkpt lat="35.408314" lon="-118.306214"><ele>1998.2</ele><time>2024-05-30T16:10:48Z</time></trkpt>
<trkpt lat="35.408536" lon="-118.305991"><ele>1998.4</ele><time>2024-05-30T16:10:49Z</time></trkpt>
<trkpt lat="35.408317" lon="-118.306225"><ele>1998.4</ele><time>2024-05-30T16:10:50Z</time></trkpt>
<trkpt lat="35.408315" lon="-118.306329"><ele>1998.4</ele><time>2024-05-30T16:10:52Z</time></trkpt>
<trkpt lat="35.408398" lon="-118.306383"><ele>1999.2</ele><time>2024-05-30T16:10:57Z</time></trkpt>
<trkpt lat="35.409185" lon="-118.305892"><ele>2007.8</ele><time>2024-05-30T16:12:17Z</time></trkpt>
<trkpt lat="35.409186" lon="-118.305977"><ele>2010.2</ele><time>2024-05-30T16:12:44Z</time></trkpt>
<trkpt lat="35.409142" lon="-118.305976"><ele>2010.0</ele><time>2024-05-30T16:12:50Z</time></trkpt>
<trkpt lat="35.409627" lon="-118.306549"><ele>2011.2</ele><time>2024-05-30T16:13:45Z</time></trkpt>
<trkpt lat="35.410011" lon="-118.306854"><ele>2018.0</ele><time>2024-05-30T16:14:45Z</time></trkpt>
<trkpt lat="35.410260" lon="-118.306823"><ele>2020.2</ele><time>2024-05-30T16:15:03Z</time></trkpt>
<trkpt lat="35.410506" lon="-118.306925"><ele>2025.4</ele><time>2024-05-30T16:15:48Z</time></trkpt>
<trkpt lat="35.410915" lon="-118.307184"><ele>2023.8</ele><time>2024-05-30T16:16:24Z</time></trkpt>
<trkpt lat="35.411314" lon="-118.307262"><ele>2023.0</ele><time>2024-05-30T16:16:46Z</time></trkpt>
<trkpt lat="35.411500" lon="-118.307165"><ele>2022.8</ele><time>2024-05-30T16:17:04Z</time></trkpt>
<trkpt lat="35.411792" lon="-118.306816"><ele>2024.0</ele><time>2024-05-30T16:17:31Z</time></trkpt>
<trkpt lat="35.412243" lon="-118.306077"><ele>2030.0</ele><time>2024-05-30T16:18:45Z</time></trkpt>
<trkpt lat="35.412374" lon="-118.306079"><ele>2030.6</ele><time>2024-05-30T16:18:50Z</time></trkpt>
<trkpt lat="35.412449" lon="-118.305877"><ele>2031.2</ele><time>2024-05-30T16:19:03Z</time></trkpt>
<trkpt lat="35.413034" lon="-118.306204"><ele>2038.8</ele><time>2024-05-30T16:20:20Z</time></trkpt>
<trkpt lat="35.413355" lon="-118.306569"><ele>2041.0</ele><time>2024-05-30T16:20:51Z</time></trkpt>
<trkpt lat="35.413484" lon="-118.306606"><ele>2039.6</ele><time>2024-05-30T16:20:59Z</time></trkpt>
<trkpt lat="35.414013" lon="-118.306322"><ele>2038.8</ele><time>2024-05-30T16:21:48Z</time></trkpt>
<trkpt lat="35.414301" lon="-118.306086"><ele>2037.8</ele><time>2024-05-30T16:22:22Z</time></trkpt>
<trkpt lat="35.414374" lon="-118.306137"><ele>2039.4</ele><time>2024-05-30T16:22:38Z</time></trkpt>
<trkpt lat="35.414510" lon="-118.306085"><ele>2041.0</ele><time>2024-05-30T16:22:47Z</time></trkpt>
<trkpt lat="35.414530" lon="-118.306178"><ele>2041.4</ele><time>2024-05-30T16:22:52Z</time></trkpt>
<trkpt lat="35.415297" lon="-118.306087"><ele>2047.2</ele><time>2024-05-30T16:24:20Z</time></trkpt>
<trkpt lat="35.415809" lon="-118.305954"><ele>2046.2</ele><time>2024-05-30T16:24:47Z</time></trkpt>
<trkpt lat="35.416378" lon="-118.304770"><ele>2045.2</ele><time>2024-05-30T16:26:30Z</time></trkpt>
<trkpt lat="35.416558" lon="-118.304577"><ele>2047.0</ele><time>2024-05-30T16:26:45Z</time></trkpt>
<trkpt lat="35.416644" lon="-118.304587"><ele>2047.4</ele><time>2024-05-30T16:26:48Z</time></trkpt>
<trkpt lat="35.416851" lon="-118.304836"><ele>2047.8</ele><time>2024-05-30T16:26:50Z</time></trkpt>
<trkpt lat="35.416688" lon="-118.304672"><ele>2048.4</ele><time>2024-05-30T16:26:53Z</time></trkpt>
<trkpt lat="35.416825" lon="-118.304666"><ele>2049.8</ele><time>2024-05-30T16:27:04Z</time></trkpt>
<trkpt lat="35.416962" lon="-118.304519"><ele>2050.4</ele><time>2024-05-30T16:27:12Z</time></trkpt>
<trkpt lat="35.417164" lon="-118.304146"><ele>2063.4</ele><time>2024-05-30T16:28:32Z</time></trkpt>
<trkpt lat="35.417263" lon="-118.303849"><ele>2065.0</ele><time>2024-05-30T16:28:47Z</time></trkpt>
<trkpt lat="35.417354" lon="-118.303959"><ele>2065.8</ele><time>2024-05-30T16:28:57Z</time></trkpt>
<trkpt lat="35.417357" lon="-118.303876"><ele>2067.0</ele><time>2024-05-30T16:29:04Z</time></trkpt>
<trkpt lat="35.417680" lon="-118.303695"><ele>2073.6</ele><time>2024-05-30T16:29:46Z</time></trkpt>
<trkpt lat="35.418466" lon="-118.303283"><ele>2074.6</ele><time>2024-05-30T16:30:49Z</time></trkpt>
<trkpt lat="35.418723" lon="-118.303408"><ele>2073.6</ele><time>2024-05-30T16:31:10Z</time></trkpt>
<trkpt lat="35.419041" lon="-118.303813"><ele>2073.8</ele><time>2024-05-30T16:32:02Z</time></trkpt>
<trkpt lat="35.419117" lon="-118.304385"><ele>2071.2</ele><time>2024-05-30T16:32:40Z</time></trkpt>
<trkpt lat="35.419272" lon="-118.304481"><ele>2069.8</ele><time>2024-05-30T16:32:47Z</time></trkpt>
<trkpt lat="35.419298" lon="-118.304428"><ele>2069.6</ele><time>2024-05-30T16:32:49Z</time></trkpt>
<trkpt lat="35.419276" lon="-118.304492"><ele>2068.6</ele><time>2024-05-30T16:32:58Z</time></trkpt>
<trkpt lat="35.419808" lon="-118.305037"><ele>2064.2</ele><time>2024-05-30T16:34:06Z</time></trkpt>
<trkpt lat="35.420221" lon="-118.305042"><ele>2061.6</ele><time>2024-05-30T16:34:40Z</time></trkpt>
<trkpt lat="35.420552" lon="-118.305183"><ele>2061.2</ele><time>2024-05-30T16:35:01Z</time></trkpt>
<trkpt lat="35.420714" lon="-118.305172"><ele>2061.4</ele><time>2024-05-30T16:35:12Z</time></trkpt>
<trkpt lat="35.421312" lon="-118.304825"><ele>2056.2</ele><time>2024-05-30T16:36:57Z</time></trkpt>
<trkpt lat="35.422207" lon="-118.304789"><ele>2052.8</ele><time>2024-05-30T16:38:20Z</time></trkpt>
<trkpt lat="35.422709" lon="-118.304626"><ele>2050.2</ele><time>2024-05-30T16:38:57Z</time></trkpt>
<trkpt lat="35.423434" lon="-118.304985"><ele>2047.6</ele><time>2024-05-30T16:40:16Z</time></trkpt>
<trkpt lat="35.423507" lon="-118.305114"><ele>2045.6</ele><time>2024-05-30T16:40:26Z</time></trkpt>
<trkpt lat="35.423790" lon="-118.305296"><ele>2045.2</ele><time>2024-05-30T16:40:45Z</time></trkpt>
<trkpt lat="35.423934" lon="-118.305291"><ele>2043.6</ele><time>2024-05-30T16:40:57Z</time></trkpt>
<trkpt lat="35.423993" lon="-118.305354"><ele>2042.4</ele><time>2024-05-30T16:41:05Z</time></trkpt>
<trkpt lat="35.424112" lon="-118.305876"><ele>2040.6</ele><time>2024-05-30T16:41:54Z</time></trkpt>
<trkpt lat="35.424442" lon="-118.305367"><ele>2032.6</ele><time>2024-05-30T16:42:42Z</time></trkpt>
<trkpt lat="35.424586" lon="-118.304845"><ele>2028.8</ele><time>2024-05-30T16:43:18Z</time></trkpt>
<trkpt lat="35.424659" lon="-118.305273"><ele>2024.4</ele><time>2024-05-30T16:43:54Z</time></trkpt>
<trkpt lat="35.425059" lon="-118.306043"><ele>2018.6</ele><time>2024-05-30T16:44:52Z</time></trkpt>
<trkpt lat="35.425125" lon="-118.306560"><ele>2013.4</ele><time>2024-05-30T16:45:26Z</time></trkpt>
<trkpt lat="35.425238" lon="-118.306933"><ele>2010.2</ele><time>2024-05-30T16:45:48Z</time></trkpt>
<trkpt lat="35.425144" lon="-118.307251"><ele>2006.8</ele><time>2024-05-30T16:46:08Z</time></trkpt>
<trkpt lat="35.424966" lon="-118.307372"><ele>2003.4</ele><time>2024-05-30T16:46:36Z</time></trkpt>
<trkpt lat="35.425360" lon="-118.307468"><ele>2000.6</ele><time>2024-05-30T16:47:02Z</time></trkpt>
<trkpt lat="35.425832" lon="-118.307262"><ele>1993.6</ele><time>2024-05-30T16:47:48Z</time></trkpt>
<trkpt lat="35.425944" lon="-118.307495"><ele>1991.4</ele><time>2024-05-30T16:48:06Z</time></trkpt>
<trkpt lat="35.426398" lon="-118.307781"><ele>1986.4</ele><time>2024-05-30T16:48:48Z</time></trkpt>
<trkpt lat="35.426507" lon="-118.307920"><ele>1986.0</ele><time>2024-05-30T16:48:59Z</time></trkpt>
<trkpt lat="35.427010" lon="-118.308012"><ele>1982.8</ele><time>2024-05-30T16:49:22Z</time></trkpt>
<trkpt lat="35.427303" lon="-118.308173"><ele>1980.6</ele><time>2024-05-30T16:49:42Z</time></trkpt>
<trkpt lat="35.427564" lon="-118.308126"><ele>1979.6</ele><time>2024-05-30T16:50:22Z</time></trkpt>
<trkpt lat="35.428031" lon="-118.307995"><ele>1975.4</ele><time>2024-05-30T16:50:48Z</time></trkpt>
<trkpt lat="35.428017" lon="-118.307616"><ele>1974.2</ele><time>2024-05-30T16:51:05Z</time></trkpt>
<trkpt lat="35.428214" lon="-118.307493"><ele>1972.0</ele><time>2024-05-30T16:51:18Z</time></trkpt>
<trkpt lat="35.428549" lon="-118.307570"><ele>1972.0</ele><time>2024-05-30T16:52:22Z</time></trkpt>
<trkpt lat="35.428695" lon="-118.307784"><ele>1971.6</ele><time>2024-05-30T16:52:53Z</time></trkpt>
<trkpt lat="35.428904" lon="-118.307844"><ele>1968.4</ele><time>2024-05-30T16:53:15Z</time></trkpt>
<trkpt lat="35.429351" lon="-118.308191"><ele>1961.8</ele><time>2024-05-30T16:53:53Z</time></trkpt>
<trkpt lat="35.429921" lon="-118.308529"><ele>1959.2</ele><time>2024-05-30T16:55:03Z</time></trkpt>
<trkpt lat="35.431014" lon="-118.308670"><ele>1955.8</ele><time>2024-05-30T16:56:27Z</time></trkpt>
<trkpt lat="35.431399" lon="-118.308599"><ele>1957.0</ele><time>2024-05-30T16:56:47Z</time></trkpt>
<trkpt lat="35.431377" lon="-118.308388"><ele>1957.4</ele><time>2024-05-30T16:56:57Z</time></trkpt>
<trkpt lat="35.431705" lon="-118.308480"><ele>1958.6</ele><time>2024-05-30T16:57:35Z</time></trkpt>
<trkpt lat="35.431967" lon="-118.308416"><ele>1956.4</ele><time>2024-05-30T16:57:51Z</time></trkpt>
<trkpt lat="35.432178" lon="-118.308730"><ele>1954.6</ele><time>2024-05-30T16:58:27Z</time></trkpt>
<trkpt lat="35.432410" lon="-118.308738"><ele>1954.6</ele><time>2024-05-30T16:58:49Z</time></trkpt>
<trkpt lat="35.432477" lon="-118.308641"><ele>1955.4</ele><time>2024-05-30T16:59:02Z</time></trkpt>
<trkpt lat="35.433271" lon="-118.309010"><ele>1954.8</ele><time>2024-05-30T17:00:51Z</time></trkpt>
<trkpt lat="35.433376" lon="-118.309157"><ele>1954.8</ele><time>2024-05-30T17:00:57Z</time></trkpt>
<trkpt lat="35.433661" lon="-118.309072"><ele>1954.2</ele><time>2024-05-30T17:01:19Z</time></trkpt>
<trkpt lat="35.433837" lon="-118.308913"><ele>1949.0</ele><time>2024-05-30T17:01:45Z</time></trkpt>
<trkpt lat="35.433881" lon="-118.308970"><ele>1946.8</ele><time>2024-05-30T17:02:13Z</time></trkpt>
<trkpt lat="35.433841" lon="-118.309161"><ele>1944.6</ele><time>2024-05-30T17:02:25Z</time></trkpt>
<trkpt lat="35.433746" lon="-118.309318"><ele>1942.4</ele><time>2024-05-30T17:02:46Z</time></trkpt>
<trkpt lat="35.433755" lon="-118.309361"><ele>1942.4</ele><time>2024-05-30T17:02:47Z</time></trkpt>
<trkpt lat="35.433775" lon="-118.309248"><ele>1942.4</ele><time>2024-05-30T17:02:54Z</time></trkpt>
<trkpt lat="35.433847" lon="-118.309302"><ele>1942.2</ele><time>2024-05-30T17:02:59Z</time></trkpt>
<trkpt lat="35.433759" lon="-118.309329"><ele>1941.8</ele><time>2024-05-30T17:04:45Z</time></trkpt>
<trkpt lat="35.433851" lon="-118.309455"><ele>1942.0</ele><time>2024-05-30T17:05:00Z</time></trkpt>
<trkpt lat="35.433693" lon="-118.309303"><ele>1942.0</ele><time>2024-05-30T17:06:54Z</time></trkpt>
<trkpt lat="35.433758" lon="-118.309463"><ele>1942.2</ele><time>2024-05-30T17:07:04Z</time></trkpt>
<trkpt lat="35.433947" lon="-118.309331"><ele>1942.8</ele><time>2024-05-30T17:08:46Z</time></trkpt>
<trkpt lat="35.433817" lon="-118.309441"><ele>1942.6</ele><time>2024-05-30T17:09:06Z</time></trkpt>
<trkpt lat="35.433950" lon="-118.309556"><ele>1941.2</ele><time>2024-05-30T17:09:29Z</time></trkpt>
<trkpt lat="35.434456" lon="-118.309471"><ele>1940.2</ele><time>2024-05-30T17:10:31Z</time></trkpt>
<trkpt lat="35.434513" lon="-118.309356"><ele>1939.8</ele><time>2024-05-30T17:10:50Z</time></trkpt>
<trkpt lat="35.434553" lon="-118.309474"><ele>1941.0</ele><time>2024-05-30T17:11:06Z</time></trkpt>
<trkpt lat="35.434469" lon="-118.309644"><ele>1940.8</ele><time>2024-05-30T17:11:19Z</time></trkpt>
<trkpt lat="35.434331" lon="-118.309639"><ele>1939.0</ele><time>2024-05-30T17:12:01Z</time></trkpt>
<trkpt lat="35.434169" lon="-118.309837"><ele>1938.0</ele><time>2024-05-30T17:12:50Z</time></trkpt>
<trkpt lat="35.434221" lon="-118.309669"><ele>1938.2</ele><time>2024-05-30T17:12:53Z</time></trkpt>
<trkpt lat="35.434328" lon="-118.309860"><ele>1938.0</ele><time>2024-05-30T17:13:05Z</time></trkpt>
<trkpt lat="35.434507" lon="-118.309987"><ele>1937.4</ele><time>2024-05-30T17:13:11Z</time></trkpt>
<trkpt lat="35.435054" lon="-118.310100"><ele>1938.0</ele><time>2024-05-30T17:13:53Z</time></trkpt>
<trkpt lat="35.435366" lon="-118.310295"><ele>1932.0</ele><time>2024-05-30T17:14:35Z</time></trkpt>
<trkpt lat="35.435296" lon="-118.310177"><ele>1929.6</ele><time>2024-05-30T17:14:54Z</time></trkpt>
<trkpt lat="35.435590" lon="-118.309963"><ele>1930.2</ele><time>2024-05-30T17:16:47Z</time></trkpt>
<trkpt lat="35.435386" lon="-118.310009"><ele>1930.2</ele><time>2024-05-30T17:16:48Z</time></trkpt>
<trkpt lat="35.435406" lon="-118.310137"><ele>1930.4</ele><time>2024-05-30T17:16:51Z</time></trkpt>
<trkpt lat="35.435442" lon="-118.310173"><ele>1930.6</ele><time>2024-05-30T17:16:56Z</time></trkpt>
<trkpt lat="35.435461" lon="-118.310111"><ele>1930.8</ele><time>2024-05-30T17:17:03Z</time></trkpt>
<trkpt lat="35.435509" lon="-118.310389"><ele>1929.2</ele><time>2024-05-30T17:18:46Z</time></trkpt>
<trkpt lat="35.435443" lon="-118.310116"><ele>1929.6</ele><time>2024-05-30T17:18:56Z</time></trkpt>
<trkpt lat="35.435365" lon="-118.310125"><ele>1929.6</ele><time>2024-05-30T17:19:01Z</time></trkpt>
<trkpt lat="35.435395" lon="-118.310159"><ele>1929.6</ele><time>2024-05-30T17:19:04Z</time></trkpt>
<trkpt lat="35.435481" lon="-118.310066"><ele>1930.8</ele><time>2024-05-30T17:19:25Z</time></trkpt>
<trkpt lat="35.435620" lon="-118.309823"><ele>1929.0</ele><time>2024-05-30T17:20:49Z</time></trkpt>
<trkpt lat="35.435651" lon="-118.309890"><ele>1929.0</ele><time>2024-05-30T17:20:52Z</time></trkpt>
<trkpt lat="35.435239" lon="-118.310270"><ele>1929.4</ele><time>2024-05-30T17:21:04Z</time></trkpt>
<trkpt lat="35.435747" lon="-118.309788"><ele>1929.0</ele><time>2024-05-30T17:22:50Z</time></trkpt>
<trkpt lat="35.435589" lon="-118.310049"><ele>1928.4</ele><time>2024-05-30T17:22:52Z</time></trkpt>
<trkpt lat="35.435620" lon="-118.310146"><ele>1928.2</ele><time>2024-05-30T17:22:58Z</time></trkpt>
<trkpt lat="35.435692" lon="-118.310122"><ele>1927.4</ele><time>2024-05-30T17:23:04Z</time></trkpt>
<trkpt lat="35.436439" lon="-118.310416"><ele>1923.6</ele><time>2024-05-30T17:24:09Z</time></trkpt>
<trkpt lat="35.436984" lon="-118.310831"><ele>1924.0</ele><time>2024-05-30T17:24:58Z</time></trkpt>
<trkpt lat="35.438366" lon="-118.310770"><ele>1928.0</ele><time>2024-05-30T17:26:48Z</time></trkpt>
<trkpt lat="35.439417" lon="-118.310419"><ele>1931.4</ele><time>2024-05-30T17:28:35Z</time></trkpt>
<trkpt lat="35.439762" lon="-118.310370"><ele>1929.2</ele><time>2024-05-30T17:28:47Z</time></trkpt>
<trkpt lat="35.439747" lon="-118.310546"><ele>1928.2</ele><time>2024-05-30T17:28:54Z</time></trkpt>
<trkpt lat="35.439904" lon="-118.310756"><ele>1926.2</ele><time>2024-05-30T17:29:09Z</time></trkpt>
<trkpt lat="35.440412" lon="-118.310995"><ele>1929.8</ele><time>2024-05-30T17:30:47Z</time></trkpt>
<trkpt lat="35.440362" lon="-118.310956"><ele>1929.2</ele><time>2024-05-30T17:31:01Z</time></trkpt>
<trkpt lat="35.440119" lon="-118.311112"><ele>1929.0</ele><time>2024-05-30T17:32:50Z</time></trkpt>
<trkpt lat="35.440264" lon="-118.310840"><ele>1928.8</ele><time>2024-05-30T17:33:04Z</time></trkpt>
<trkpt lat="35.440248" lon="-118.311029"><ele>1928.2</ele><time>2024-05-30T17:34:50Z</time></trkpt>
<trkpt lat="35.440275" lon="-118.310896"><ele>1928.0</ele><time>2024-05-30T17:35:04Z</time></trkpt>
<trkpt lat="35.440294" lon="-118.310978"><ele>1929.2</ele><time>2024-05-30T17:36:10Z</time></trkpt>
<trkpt lat="35.440610" lon="-118.311217"><ele>1927.8</ele><time>2024-05-30T17:36:47Z</time></trkpt>
<trkpt lat="35.440737" lon="-118.311207"><ele>1928.2</ele><time>2024-05-30T17:36:53Z</time></trkpt>
<trkpt lat="35.441226" lon="-118.311659"><ele>1926.0</ele><time>2024-05-30T17:37:34Z</time></trkpt>
<trkpt lat="35.441484" lon="-118.311684"><ele>1926.0</ele><time>2024-05-30T17:37:56Z</time></trkpt>
<trkpt lat="35.441421" lon="-118.311773"><ele>1927.8</ele><time>2024-05-30T17:38:24Z</time></trkpt>
<trkpt lat="35.441587" lon="-118.312003"><ele>1926.8</ele><time>2024-05-30T17:38:47Z</time></trkpt>
<trkpt lat="35.441656" lon="-118.311995"><ele>1926.8</ele><time>2024-05-30T17:38:50Z</time></trkpt>
<trkpt lat="35.441784" lon="-118.312125"><ele>1926.2</ele><time>2024-05-30T17:39:00Z</time></trkpt>
<trkpt lat="35.442174" lon="-118.312112"><ele>1922.8</ele><time>2024-05-30T17:39:34Z</time></trkpt>
<trkpt lat="35.442401" lon="-118.312188"><ele>1922.4</ele><time>2024-05-30T17:40:06Z</time></trkpt>
<trkpt lat="35.443145" lon="-118.311996"><ele>1921.0</ele><time>2024-05-30T17:40:47Z</time></trkpt>
<trkpt lat="35.443154" lon="-118.312388"><ele>1921.0</ele><time>2024-05-30T17:41:02Z</time></trkpt>
<trkpt lat="35.443284" lon="-118.312528"><ele>1921.0</ele><time>2024-05-30T17:41:12Z</time></trkpt>
<trkpt lat="35.443400" lon="-118.312515"><ele>1920.6</ele><time>2024-05-30T17:41:16Z</time></trkpt>
<trkpt lat="35.443572" lon="-118.312833"><ele>1920.0</ele><time>2024-05-30T17:41:28Z</time></trkpt>
<trkpt lat="35.443820" lon="-118.313684"><ele>1915.0</ele><time>2024-05-30T17:42:30Z</time></trkpt>
<trkpt lat="35.443733" lon="-118.313912"><ele>1913.4</ele><time>2024-05-30T17:42:51Z</time></trkpt>
<trkpt lat="35.443777" lon="-118.314076"><ele>1913.0</ele><time>2024-05-30T17:43:03Z</time></trkpt>
<trkpt lat="35.444449" lon="-118.314288"><ele>1907.6</ele><time>2024-05-30T17:44:12Z</time></trkpt>
<trkpt lat="35.444544" lon="-118.314439"><ele>1906.6</ele><time>2024-05-30T17:44:26Z</time></trkpt>
<trkpt lat="35.444707" lon="-118.314513"><ele>1907.0</ele><time>2024-05-30T17:44:49Z</time></trkpt>
<trkpt lat="35.444597" lon="-118.314571"><ele>1906.2</ele><time>2024-05-30T17:44:57Z</time></trkpt>
<trkpt lat="35.444640" lon="-118.314536"><ele>1906.2</ele><time>2024-05-30T17:45:04Z</time></trkpt>
<trkpt lat="35.444566" lon="-118.314683"><ele>1908.0</ele><time>2024-05-30T17:46:48Z</time></trkpt>
<trkpt lat="35.444638" lon="-118.314577"><ele>1907.6</ele><time>2024-05-30T17:46:54Z</time></trkpt>
<trkpt lat="35.444582" lon="-118.314660"><ele>1908.8</ele><time>2024-05-30T17:48:53Z</time></trkpt>
<trkpt lat="35.444577" lon="-118.314535"><ele>1909.4</ele><time>2024-05-30T17:49:00Z</time></trkpt>
<trkpt lat="35.444830" lon="-118.314648"><ele>1906.6</ele><time>2024-05-30T17:49:28Z</time></trkpt>
<trkpt lat="35.445503" lon="-118.314802"><ele>1911.4</ele><time>2024-05-30T17:50:47Z</time></trkpt>
<trkpt lat="35.445472" lon="-118.314886"><ele>1911.8</ele><time>2024-05-30T17:50:50Z</time></trkpt>
<trkpt lat="35.445523" lon="-118.314861"><ele>1911.8</ele><time>2024-05-30T17:50:53Z</time></trkpt>
<trkpt lat="35.445977" lon="-118.315249"><ele>1917.4</ele><time>2024-05-30T17:51:58Z</time></trkpt>
<trkpt lat="35.446382" lon="-118.315405"><ele>1916.6</ele><time>2024-05-30T17:52:40Z</time></trkpt>
<trkpt lat="35.446480" lon="-118.315512"><ele>1917.6</ele><time>2024-05-30T17:52:47Z</time></trkpt>
<trkpt lat="35.446468" lon="-118.315607"><ele>1918.4</ele><time>2024-05-30T17:52:51Z</time></trkpt>
<trkpt lat="35.446599" lon="-118.315832"><ele>1919.4</ele><time>2024-05-30T17:53:06Z</time></trkpt>
<trkpt lat="35.447614" lon="-118.316284"><ele>1917.2</ele><time>2024-05-30T17:54:48Z</time></trkpt>
<trkpt lat="35.447805" lon="-118.316000"><ele>1916.4</ele><time>2024-05-30T17:55:04Z</time></trkpt>
<trkpt lat="35.447794" lon="-118.315713"><ele>1918.0</ele><time>2024-05-30T17:55:38Z</time></trkpt>
<trkpt lat="35.448197" lon="-118.315791"><ele>1916.6</ele><time>2024-05-30T17:56:42Z</time></trkpt>
<trkpt lat="35.448192" lon="-118.315840"><ele>1916.6</ele><time>2024-05-30T17:56:47Z</time></trkpt>
<trkpt lat="35.448428" lon="-118.315723"><ele>1916.6</ele><time>2024-05-30T17:56:50Z</time></trkpt>
<trkpt lat="35.448497" lon="-118.315883"><ele>1915.8</ele><time>2024-05-30T17:57:04Z</time></trkpt>
<trkpt lat="35.449001" lon="-118.315801"><ele>1913.6</ele><time>2024-05-30T17:57:59Z</time></trkpt>
<trkpt lat="35.449167" lon="-118.315405"><ele>1914.2</ele><time>2024-05-30T17:58:33Z</time></trkpt>
<trkpt lat="35.449256" lon="-118.315363"><ele>1914.0</ele><time>2024-05-30T17:58:48Z</time></trkpt>
<trkpt lat="35.449244" lon="-118.315167"><ele>1914.0</ele><time>2024-05-30T17:59:00Z</time></trkpt>
<trkpt lat="35.449842" lon="-118.314871"><ele>1913.8</ele><time>2024-05-30T18:00:41Z</time></trkpt>
<trkpt lat="35.450007" lon="-118.314868"><ele>1913.8</ele><time>2024-05-30T18:00:48Z</time></trkpt>
<trkpt lat="35.450096" lon="-118.314965"><ele>1913.2</ele><time>2024-05-30T18:00:55Z</time></trkpt>
<trkpt lat="35.450079" lon="-118.314923"><ele>1913.2</ele><time>2024-05-30T18:00:56Z</time></trkpt>
<trkpt lat="35.450249" lon="-118.315703"><ele>1917.6</ele><time>2024-05-30T18:02:02Z</time></trkpt>
<trkpt lat="35.450472" lon="-118.316313"><ele>1918.4</ele><time>2024-05-30T18:02:47Z</time></trkpt>
<trkpt lat="35.450549" lon="-118.316265"><ele>1918.6</ele><time>2024-05-30T18:02:57Z</time></trkpt>
<trkpt lat="35.450820" lon="-118.315810"><ele>1917.0</ele><time>2024-05-30T18:03:20Z</time></trkpt>
<trkpt lat="35.451341" lon="-118.315086"><ele>1922.4</ele><time>2024-05-30T18:04:52Z</time></trkpt>
<trkpt lat="35.451444" lon="-118.314388"><ele>1922.8</ele><time>2024-05-30T18:05:30Z</time></trkpt>
<trkpt lat="35.451659" lon="-118.313606"><ele>1928.8</ele><time>2024-05-30T18:06:49Z</time></trkpt>
<trkpt lat="35.451627" lon="-118.313423"><ele>1928.8</ele><time>2024-05-30T18:06:56Z</time></trkpt>
<trkpt lat="35.452433" lon="-118.312120"><ele>1934.2</ele><time>2024-05-30T18:09:02Z</time></trkpt>
<trkpt lat="35.452548" lon="-118.311011"><ele>1938.2</ele><time>2024-05-30T18:10:30Z</time></trkpt>
<trkpt lat="35.452516" lon="-118.310387"><ele>1937.8</ele><time>2024-05-30T18:10:55Z</time></trkpt>
<trkpt lat="35.452941" lon="-118.309824"><ele>1945.6</ele><time>2024-05-30T18:11:57Z</time></trkpt>
<trkpt lat="35.452987" lon="-118.309587"><ele>1948.4</ele><time>2024-05-30T18:12:13Z</time></trkpt>
<trkpt lat="35.453184" lon="-118.309174"><ele>1949.0</ele><time>2024-05-30T18:12:48Z</time></trkpt>
<trkpt lat="35.453138" lon="-118.308854"><ele>1949.6</ele><time>2024-05-30T18:13:05Z</time></trkpt>
<trkpt lat="35.453418" lon="-118.307385"><ele>1950.6</ele><time>2024-05-30T18:14:49Z</time></trkpt>
<trkpt lat="35.453589" lon="-118.306979"><ele>1951.0</ele><time>2024-05-30T18:15:07Z</time></trkpt>
<trkpt lat="35.453684" lon="-118.306024"><ele>1948.6</ele><time>2024-05-30T18:16:11Z</time></trkpt>
<trkpt lat="35.453653" lon="-118.305398"><ele>1947.0</ele><time>2024-05-30T18:16:48Z</time></trkpt>
<trkpt lat="35.453830" lon="-118.305397"><ele>1947.0</ele><time>2024-05-30T18:16:49Z</time></trkpt>
<trkpt lat="35.453774" lon="-118.305483"><ele>1948.0</ele><time>2024-05-30T18:17:00Z</time></trkpt>
<trkpt lat="35.454155" lon="-118.305138"><ele>1950.8</ele><time>2024-05-30T18:17:39Z</time></trkpt>
<trkpt lat="35.454663" lon="-118.304395"><ele>1955.6</ele><time>2024-05-30T18:18:49Z</time></trkpt>
<trkpt lat="35.454662" lon="-118.304167"><ele>1955.2</ele><time>2024-05-30T18:19:00Z</time></trkpt>
<trkpt lat="35.454911" lon="-118.303799"><ele>1956.2</ele><time>2024-05-30T18:19:35Z</time></trkpt>
<trkpt lat="35.454970" lon="-118.303401"><ele>1955.0</ele><time>2024-05-30T18:20:05Z</time></trkpt>
<trkpt lat="35.454802" lon="-118.302985"><ele>1953.0</ele><time>2024-05-30T18:20:39Z</time></trkpt>
<trkpt lat="35.454768" lon="-118.302726"><ele>1952.6</ele><time>2024-05-30T18:20:48Z</time></trkpt>
<trkpt lat="35.454534" lon="-118.302533"><ele>1954.0</ele><time>2024-05-30T18:21:08Z</time></trkpt>
<trkpt lat="35.454404" lon="-118.301945"><ele>1958.2</ele><time>2024-05-30T18:21:51Z</time></trkpt>
<trkpt lat="35.454336" lon="-118.301221"><ele>1959.0</ele><time>2024-05-30T18:22:54Z</time></trkpt>
<trkpt lat="35.454373" lon="-118.301004"><ele>1959.0</ele><time>2024-05-30T18:23:04Z</time></trkpt>
<trkpt lat="35.454176" lon="-118.300437"><ele>1955.2</ele><time>2024-05-30T18:23:39Z</time></trkpt>
<trkpt lat="35.454101" lon="-118.299915"><ele>1955.4</ele><time>2024-05-30T18:24:09Z</time></trkpt>
<trkpt lat="35.453968" lon="-118.299515"><ele>1957.6</ele><time>2024-05-30T18:24:50Z</time></trkpt>
<trkpt lat="35.454118" lon="-118.298972"><ele>1959.4</ele><time>2024-05-30T18:25:27Z</time></trkpt>
<trkpt lat="35.454259" lon="-118.297857"><ele>1963.6</ele><time>2024-05-30T18:26:47Z</time></trkpt>
<trkpt lat="35.454200" lon="-118.297745"><ele>1964.6</ele><time>2024-05-30T18:26:54Z</time></trkpt>
<trkpt lat="35.454209" lon="-118.297603"><ele>1965.6</ele><time>2024-05-30T18:27:04Z</time></trkpt>
<trkpt lat="35.454314" lon="-118.297064"><ele>1969.8</ele><time>2024-05-30T18:27:41Z</time></trkpt>
<trkpt lat="35.454615" lon="-118.296249"><ele>1973.2</ele><time>2024-05-30T18:28:48Z</time></trkpt>
<trkpt lat="35.454647" lon="-118.295982"><ele>1974.8</ele><time>2024-05-30T18:29:05Z</time></trkpt>
<trkpt lat="35.455118" lon="-118.295494"><ele>1984.2</ele><time>2024-05-30T18:30:27Z</time></trkpt>
<trkpt lat="35.455657" lon="-118.295094"><ele>1988.6</ele><time>2024-05-30T18:31:07Z</time></trkpt>
<trkpt lat="35.456036" lon="-118.294310"><ele>1990.6</ele><time>2024-05-30T18:32:49Z</time></trkpt>
<trkpt lat="35.456112" lon="-118.294041"><ele>1991.0</ele><time>2024-05-30T18:33:08Z</time></trkpt>
<trkpt lat="35.456049" lon="-118.293710"><ele>1993.0</ele><time>2024-05-30T18:33:31Z</time></trkpt>
<trkpt lat="35.456261" lon="-118.293114"><ele>1990.8</ele><time>2024-05-30T18:34:13Z</time></trkpt>
<trkpt lat="35.456184" lon="-118.292761"><ele>1988.4</ele><time>2024-05-30T18:34:35Z</time></trkpt>
<trkpt lat="35.455951" lon="-118.292406"><ele>1986.8</ele><time>2024-05-30T18:35:02Z</time></trkpt>
<trkpt lat="35.456183" lon="-118.291678"><ele>1989.2</ele><time>2024-05-30T18:36:17Z</time></trkpt>
<trkpt lat="35.456145" lon="-118.291383"><ele>1992.2</ele><time>2024-05-30T18:36:51Z</time></trkpt>
<trkpt lat="35.456252" lon="-118.291098"><ele>1997.8</ele><time>2024-05-30T18:37:53Z</time></trkpt>
<trkpt lat="35.456481" lon="-118.290618"><ele>1993.6</ele><time>2024-05-30T18:38:37Z</time></trkpt>
<trkpt lat="35.456574" lon="-118.290223"><ele>1994.8</ele><time>2024-05-30T18:38:56Z</time></trkpt>
<trkpt lat="35.456682" lon="-118.290230"><ele>1995.8</ele><time>2024-05-30T18:39:06Z</time></trkpt>
<trkpt lat="35.456723" lon="-118.289812"><ele>2001.0</ele><time>2024-05-30T18:39:51Z</time></trkpt>
<trkpt lat="35.456816" lon="-118.289649"><ele>2004.8</ele><time>2024-05-30T18:40:21Z</time></trkpt>
<trkpt lat="35.456858" lon="-118.289316"><ele>2008.6</ele><time>2024-05-30T18:40:48Z</time></trkpt>
<trkpt lat="35.456964" lon="-118.289117"><ele>2010.6</ele><time>2024-05-30T18:41:06Z</time></trkpt>
<trkpt lat="35.457213" lon="-118.288208"><ele>2018.2</ele><time>2024-05-30T18:42:27Z</time></trkpt>
<trkpt lat="35.457336" lon="-118.287913"><ele>2018.2</ele><time>2024-05-30T18:42:48Z</time></trkpt>
<trkpt lat="35.457585" lon="-118.287896"><ele>2021.0</ele><time>2024-05-30T18:43:09Z</time></trkpt>
<trkpt lat="35.457708" lon="-118.287527"><ele>2024.6</ele><time>2024-05-30T18:43:53Z</time></trkpt>
<trkpt lat="35.457814" lon="-118.286873"><ele>2027.4</ele><time>2024-05-30T18:44:48Z</time></trkpt>
<trkpt lat="35.457835" lon="-118.286953"><ele>2027.4</ele><time>2024-05-30T18:44:49Z</time></trkpt>
<trkpt lat="35.458141" lon="-118.286363"><ele>2029.2</ele><time>2024-05-30T18:45:25Z</time></trkpt>
<trkpt lat="35.458469" lon="-118.285579"><ele>2039.6</ele><time>2024-05-30T18:46:48Z</time></trkpt>
<trkpt lat="35.458388" lon="-118.285450"><ele>2042.2</ele><time>2024-05-30T18:47:03Z</time></trkpt>
<trkpt lat="35.458231" lon="-118.284150"><ele>2043.6</ele><time>2024-05-30T18:48:48Z</time></trkpt>
<trkpt lat="35.458131" lon="-118.284112"><ele>2043.0</ele><time>2024-05-30T18:48:54Z</time></trkpt>
<trkpt lat="35.458169" lon="-118.283993"><ele>2042.4</ele><time>2024-05-30T18:49:06Z</time></trkpt>
<trkpt lat="35.457998" lon="-118.283472"><ele>2042.6</ele><time>2024-05-30T18:49:39Z</time></trkpt>
<trkpt lat="35.457597" lon="-118.282561"><ele>2041.0</ele><time>2024-05-30T18:51:05Z</time></trkpt>
<trkpt lat="35.457451" lon="-118.282092"><ele>2038.8</ele><time>2024-05-30T18:51:27Z</time></trkpt>
<trkpt lat="35.457451" lon="-118.281380"><ele>2037.6</ele><time>2024-05-30T18:52:11Z</time></trkpt>
<trkpt lat="35.457623" lon="-118.280826"><ele>2041.6</ele><time>2024-05-30T18:52:54Z</time></trkpt>
<trkpt lat="35.457691" lon="-118.280793"><ele>2042.8</ele><time>2024-05-30T18:53:05Z</time></trkpt>
<trkpt lat="35.457752" lon="-118.280593"><ele>2041.6</ele><time>2024-05-30T18:53:41Z</time></trkpt>
<trkpt lat="35.457484" lon="-118.280090"><ele>2036.0</ele><time>2024-05-30T18:54:25Z</time></trkpt>
<trkpt lat="35.457468" lon="-118.279694"><ele>2033.0</ele><time>2024-05-30T18:54:48Z</time></trkpt>
<trkpt lat="35.457203" lon="-118.279596"><ele>2031.6</ele><time>2024-05-30T18:55:09Z</time></trkpt>
<trkpt lat="35.456762" lon="-118.279139"><ele>2027.2</ele><time>2024-05-30T18:56:13Z</time></trkpt>
<trkpt lat="35.456426" lon="-118.278537"><ele>2022.0</ele><time>2024-05-30T18:57:00Z</time></trkpt>
<trkpt lat="35.456371" lon="-118.278339"><ele>2018.8</ele><time>2024-05-30T18:57:26Z</time></trkpt>
<trkpt lat="35.456382" lon="-118.278189"><ele>2017.8</ele><time>2024-05-30T18:58:02Z</time></trkpt>
<trkpt lat="35.456471" lon="-118.278040"><ele>2017.2</ele><time>2024-05-30T18:58:57Z</time></trkpt>
<trkpt lat="35.456394" lon="-118.278009"><ele>2019.0</ele><time>2024-05-30T19:00:48Z</time></trkpt>
<trkpt lat="35.456457" lon="-118.278095"><ele>2018.8</ele><time>2024-05-30T19:01:01Z</time></trkpt>
<trkpt lat="35.456393" lon="-118.278056"><ele>2019.4</ele><time>2024-05-30T19:02:49Z</time></trkpt>
<trkpt lat="35.456440" lon="-118.278063"><ele>2019.2</ele><time>2024-05-30T19:03:02Z</time></trkpt>
<trkpt lat="35.456397" lon="-118.277921"><ele>2019.8</ele><time>2024-05-30T19:04:46Z</time></trkpt>
<trkpt lat="35.456464" lon="-118.278047"><ele>2019.8</ele><time>2024-05-30T19:05:09Z</time></trkpt>
<trkpt lat="35.456440" lon="-118.277931"><ele>2021.0</ele><time>2024-05-30T19:06:48Z</time></trkpt>
<trkpt lat="35.456462" lon="-118.278056"><ele>2022.2</ele><time>2024-05-30T19:07:06Z</time></trkpt>
<trkpt lat="35.456396" lon="-118.277944"><ele>2024.6</ele><time>2024-05-30T19:08:44Z</time></trkpt>
<trkpt lat="35.456461" lon="-118.278023"><ele>2024.0</ele><time>2024-05-30T19:08:57Z</time></trkpt>
<trkpt lat="35.456403" lon="-118.278033"><ele>2023.0</ele><time>2024-05-30T19:10:42Z</time></trkpt>
<trkpt lat="35.456468" lon="-118.278040"><ele>2022.8</ele><time>2024-05-30T19:13:01Z</time></trkpt>
<trkpt lat="35.456433" lon="-118.278059"><ele>2025.4</ele><time>2024-05-30T19:15:08Z</time></trkpt>
<trkpt lat="35.456463" lon="-118.278155"><ele>2022.8</ele><time>2024-05-30T19:16:42Z</time></trkpt>
<trkpt lat="35.456381" lon="-118.278020"><ele>2023.2</ele><time>2024-05-30T19:18:49Z</time></trkpt>
<trkpt lat="35.456472" lon="-118.278053"><ele>2022.2</ele><time>2024-05-30T19:20:57Z</time></trkpt>
<trkpt lat="35.456428" lon="-118.278056"><ele>2021.6</ele><time>2024-05-30T19:21:08Z</time></trkpt>
<trkpt lat="35.456462" lon="-118.278144"><ele>2021.0</ele><time>2024-05-30T19:22:18Z</time></trkpt>
<trkpt lat="35.456499" lon="-118.278106"><ele>2021.0</ele><time>2024-05-30T19:22:54Z</time></trkpt>
<trkpt lat="35.456408" lon="-118.278057"><ele>2021.8</ele><time>2024-05-30T19:23:44Z</time></trkpt>
<trkpt lat="35.456440" lon="-118.278133"><ele>2020.8</ele><time>2024-05-30T19:24:14Z</time></trkpt>
<trkpt lat="35.456527" lon="-118.278149"><ele>2019.6</ele><time>2024-05-30T19:24:20Z</time></trkpt>
<trkpt lat="35.456823" lon="-118.277919"><ele>2015.4</ele><time>2024-05-30T19:24:54Z</time></trkpt>
<trkpt lat="35.456840" lon="-118.277652"><ele>2010.6</ele><time>2024-05-30T19:25:10Z</time></trkpt>
<trkpt lat="35.457056" lon="-118.277218"><ele>2007.0</ele><time>2024-05-30T19:25:36Z</time></trkpt>
<trkpt lat="35.457279" lon="-118.276432"><ele>2000.8</ele><time>2024-05-30T19:26:49Z</time></trkpt>
<trkpt lat="35.457236" lon="-118.276434"><ele>2000.8</ele><time>2024-05-30T19:26:50Z</time></trkpt>
<trkpt lat="35.457184" lon="-118.275614"><ele>1996.6</ele><time>2024-05-30T19:27:32Z</time></trkpt>
<trkpt lat="35.457006" lon="-118.275187"><ele>1991.2</ele><time>2024-05-30T19:28:16Z</time></trkpt>
<trkpt lat="35.456776" lon="-118.274916"><ele>1989.6</ele><time>2024-05-30T19:28:49Z</time></trkpt>
<trkpt lat="35.456475" lon="-118.274695"><ele>1988.8</ele><time>2024-05-30T19:29:09Z</time></trkpt>
<trkpt lat="35.456215" lon="-118.274251"><ele>1985.8</ele><time>2024-05-30T19:29:58Z</time></trkpt>
<trkpt lat="35.456074" lon="-118.273296"><ele>1979.0</ele><time>2024-05-30T19:30:58Z</time></trkpt>
<trkpt lat="35.455886" lon="-118.272987"><ele>1978.2</ele><time>2024-05-30T19:31:28Z</time></trkpt>
<trkpt lat="35.456277" lon="-118.272113"><ele>1974.8</ele><time>2024-05-30T19:32:51Z</time></trkpt>
<trkpt lat="35.456148" lon="-118.271718"><ele>1973.2</ele><time>2024-05-30T19:32:58Z</time></trkpt>
<trkpt lat="35.456331" lon="-118.271112"><ele>1965.6</ele><time>2024-05-30T19:33:38Z</time></trkpt>
<trkpt lat="35.456315" lon="-118.270825"><ele>1965.0</ele><time>2024-05-30T19:34:00Z</time></trkpt>
<trkpt lat="35.456419" lon="-118.270709"><ele>1963.2</ele><time>2024-05-30T19:34:18Z</time></trkpt>
<trkpt lat="35.456448" lon="-118.270563"><ele>1962.2</ele><time>2024-05-30T19:34:28Z</time></trkpt>
<trkpt lat="35.456236" lon="-118.270082"><ele>1959.4</ele><time>2024-05-30T19:34:59Z</time></trkpt>
<trkpt lat="35.456697" lon="-118.269312"><ele>1951.2</ele><time>2024-05-30T19:36:30Z</time></trkpt>
<trkpt lat="35.456901" lon="-118.269089"><ele>1950.0</ele><time>2024-05-30T19:36:53Z</time></trkpt>
<trkpt lat="35.456759" lon="-118.269132"><ele>1950.0</ele><time>2024-05-30T19:36:55Z</time></trkpt>
<trkpt lat="35.456622" lon="-118.268690"><ele>1949.6</ele><time>2024-05-30T19:37:00Z</time></trkpt>
<trkpt lat="35.456419" lon="-118.267188"><ele>1947.2</ele><time>2024-05-30T19:38:52Z</time></trkpt>
<trkpt lat="35.456346" lon="-118.267152"><ele>1947.0</ele><time>2024-05-30T19:38:53Z</time></trkpt>
<trkpt lat="35.456317" lon="-118.266863"><ele>1944.8</ele><time>2024-05-30T19:39:00Z</time></trkpt>
<trkpt lat="35.455945" lon="-118.266466"><ele>1947.0</ele><time>2024-05-30T19:40:05Z</time></trkpt>
<trkpt lat="35.455526" lon="-118.266330"><ele>1942.6</ele><time>2024-05-30T19:40:39Z</time></trkpt>
<trkpt lat="35.454924" lon="-118.265812"><ele>1937.2</ele><time>2024-05-30T19:41:40Z</time></trkpt>
<trkpt lat="35.454135" lon="-118.265549"><ele>1929.8</ele><time>2024-05-30T19:42:53Z</time></trkpt>
<trkpt lat="35.453935" lon="-118.265585"><ele>1926.6</ele><time>2024-05-30T19:43:10Z</time></trkpt>
<trkpt lat="35.453841" lon="-118.265513"><ele>1927.8</ele><time>2024-05-30T19:43:20Z</time></trkpt>
<trkpt lat="35.453929" lon="-118.265225"><ele>1929.8</ele><time>2024-05-30T19:43:58Z</time></trkpt>
<trkpt lat="35.453925" lon="-118.264712"><ele>1932.4</ele><time>2024-05-30T19:44:56Z</time></trkpt>
<trkpt lat="35.453798" lon="-118.264316"><ele>1932.8</ele><time>2024-05-30T19:44:59Z</time></trkpt>
<trkpt lat="35.454218" lon="-118.263554"><ele>1929.8</ele><time>2024-05-30T19:46:19Z</time></trkpt>
<trkpt lat="35.454298" lon="-118.263252"><ele>1926.8</ele><time>2024-05-30T19:46:51Z</time></trkpt>
<trkpt lat="35.454053" lon="-118.262680"><ele>1925.0</ele><time>2024-05-30T19:46:59Z</time></trkpt>
<trkpt lat="35.454818" lon="-118.262609"><ele>1921.8</ele><time>2024-05-30T19:48:07Z</time></trkpt>
<trkpt lat="35.455375" lon="-118.262258"><ele>1916.6</ele><time>2024-05-30T19:48:52Z</time></trkpt>
<trkpt lat="35.455524" lon="-118.262240"><ele>1916.4</ele><time>2024-05-30T19:48:57Z</time></trkpt>
<trkpt lat="35.455254" lon="-118.261869"><ele>1916.4</ele><time>2024-05-30T19:49:00Z</time></trkpt>
<trkpt lat="35.455379" lon="-118.261931"><ele>1918.0</ele><time>2024-05-30T19:49:11Z</time></trkpt>
<trkpt lat="35.455562" lon="-118.261748"><ele>1919.2</ele><time>2024-05-30T19:49:55Z</time></trkpt>
<trkpt lat="35.455455" lon="-118.261512"><ele>1919.0</ele><time>2024-05-30T19:50:23Z</time></trkpt>
<trkpt lat="35.455396" lon="-118.261184"><ele>1921.4</ele><time>2024-05-30T19:50:50Z</time></trkpt>
<trkpt lat="35.455204" lon="-118.260978"><ele>1921.2</ele><time>2024-05-30T19:50:52Z</time></trkpt>
<trkpt lat="35.455275" lon="-118.260916"><ele>1921.2</ele><time>2024-05-30T19:50:55Z</time></trkpt>
<trkpt lat="35.455248" lon="-118.260986"><ele>1921.6</ele><time>2024-05-30T19:53:02Z</time></trkpt>
<trkpt lat="35.455317" lon="-118.261006"><ele>1921.6</ele><time>2024-05-30T19:53:05Z</time></trkpt>
<trkpt lat="35.455107" lon="-118.260294"><ele>1923.8</ele><time>2024-05-30T19:54:51Z</time></trkpt>
<trkpt lat="35.455148" lon="-118.260241"><ele>1923.6</ele><time>2024-05-30T19:54:54Z</time></trkpt>
<trkpt lat="35.455046" lon="-118.260197"><ele>1923.4</ele><time>2024-05-30T19:55:05Z</time></trkpt>
<trkpt lat="35.454868" lon="-118.259766"><ele>1919.8</ele><time>2024-05-30T19:55:29Z</time></trkpt>
<trkpt lat="35.454891" lon="-118.259153"><ele>1917.4</ele><time>2024-05-30T19:56:35Z</time></trkpt>
<trkpt lat="35.454963" lon="-118.258716"><ele>1916.4</ele><time>2024-05-30T19:56:57Z</time></trkpt>
<trkpt lat="35.455062" lon="-118.258487"><ele>1914.4</ele><time>2024-05-30T19:57:11Z</time></trkpt>
<trkpt lat="35.454981" lon="-118.258035"><ele>1911.2</ele><time>2024-05-30T19:57:37Z</time></trkpt>
<trkpt lat="35.454796" lon="-118.257824"><ele>1910.0</ele><time>2024-05-30T19:57:55Z</time></trkpt>
<trkpt lat="35.454612" lon="-118.257454"><ele>1904.8</ele><time>2024-05-30T19:58:41Z</time></trkpt>
<trkpt lat="35.454606" lon="-118.257206"><ele>1902.6</ele><time>2024-05-30T19:58:54Z</time></trkpt>
<trkpt lat="35.455187" lon="-118.256569"><ele>1894.0</ele><time>2024-05-30T20:00:11Z</time></trkpt>
<trkpt lat="35.455312" lon="-118.256153"><ele>1890.6</ele><time>2024-05-30T20:00:53Z</time></trkpt>
<trkpt lat="35.455301" lon="-118.256022"><ele>1890.0</ele><time>2024-05-30T20:00:56Z</time></trkpt>
<trkpt lat="35.455422" lon="-118.255875"><ele>1886.6</ele><time>2024-05-30T20:01:10Z</time></trkpt>
<trkpt lat="35.455540" lon="-118.255486"><ele>1883.2</ele><time>2024-05-30T20:01:33Z</time></trkpt>
<trkpt lat="35.455528" lon="-118.254944"><ele>1879.0</ele><time>2024-05-30T20:02:07Z</time></trkpt>
<trkpt lat="35.455766" lon="-118.254743"><ele>1875.6</ele><time>2024-05-30T20:02:47Z</time></trkpt>
<trkpt lat="35.455791" lon="-118.254798"><ele>1874.2</ele><time>2024-05-30T20:02:53Z</time></trkpt>
<trkpt lat="35.455979" lon="-118.254671"><ele>1873.6</ele><time>2024-05-30T20:02:56Z</time></trkpt>
<trkpt lat="35.456081" lon="-118.254475"><ele>1871.8</ele><time>2024-05-30T20:03:06Z</time></trkpt>
<trkpt lat="35.456072" lon="-118.253953"><ele>1869.2</ele><time>2024-05-30T20:03:39Z</time></trkpt>
<trkpt lat="35.456495" lon="-118.253513"><ele>1864.0</ele><time>2024-05-30T20:04:50Z</time></trkpt>
<trkpt lat="35.456669" lon="-118.253584"><ele>1862.0</ele><time>2024-05-30T20:05:06Z</time></trkpt>
<trkpt lat="35.456930" lon="-118.253365"><ele>1860.0</ele><time>2024-05-30T20:05:33Z</time></trkpt>
<trkpt lat="35.456927" lon="-118.252996"><ele>1857.6</ele><time>2024-05-30T20:05:57Z</time></trkpt>
<trkpt lat="35.456780" lon="-118.252605"><ele>1854.4</ele><time>2024-05-30T20:06:23Z</time></trkpt>
<trkpt lat="35.456650" lon="-118.252474"><ele>1853.2</ele><time>2024-05-30T20:06:52Z</time></trkpt>
<trkpt lat="35.456435" lon="-118.252399"><ele>1852.2</ele><time>2024-05-30T20:07:09Z</time></trkpt>
<trkpt lat="35.456401" lon="-118.252083"><ele>1850.0</ele><time>2024-05-30T20:07:29Z</time></trkpt>
<trkpt lat="35.456528" lon="-118.251849"><ele>1849.0</ele><time>2024-05-30T20:07:45Z</time></trkpt>
<trkpt lat="35.456862" lon="-118.251707"><ele>1847.0</ele><time>2024-05-30T20:08:29Z</time></trkpt>
<trkpt lat="35.456980" lon="-118.251243"><ele>1843.2</ele><time>2024-05-30T20:08:53Z</time></trkpt>
<trkpt lat="35.456498" lon="-118.251341"><ele>1843.0</ele><time>2024-05-30T20:08:55Z</time></trkpt>
<trkpt lat="35.456666" lon="-118.251298"><ele>1843.0</ele><time>2024-05-30T20:08:57Z</time></trkpt>
<trkpt lat="35.456429" lon="-118.251048"><ele>1840.2</ele><time>2024-05-30T20:09:15Z</time></trkpt>
<trkpt lat="35.456253" lon="-118.251001"><ele>1840.4</ele><time>2024-05-30T20:09:49Z</time></trkpt>
<trkpt lat="35.455625" lon="-118.250583"><ele>1832.8</ele><time>2024-05-30T20:10:37Z</time></trkpt>
<trkpt lat="35.455340" lon="-118.250665"><ele>1830.4</ele><time>2024-05-30T20:10:53Z</time></trkpt>
<trkpt lat="35.455449" lon="-118.250771"><ele>1829.4</ele><time>2024-05-30T20:11:00Z</time></trkpt>
<trkpt lat="35.455509" lon="-118.250698"><ele>1829.0</ele><time>2024-05-30T20:11:07Z</time></trkpt>
<trkpt lat="35.455093" lon="-118.250665"><ele>1827.2</ele><time>2024-05-30T20:11:35Z</time></trkpt>
<trkpt lat="35.454941" lon="-118.250700"><ele>1828.0</ele><time>2024-05-30T20:11:52Z</time></trkpt>
<trkpt lat="35.454816" lon="-118.250824"><ele>1830.6</ele><time>2024-05-30T20:12:08Z</time></trkpt>
<trkpt lat="35.454163" lon="-118.250192"><ele>1831.4</ele><time>2024-05-30T20:13:54Z</time></trkpt>
<trkpt lat="35.454185" lon="-118.250092"><ele>1830.0</ele><time>2024-05-30T20:14:00Z</time></trkpt>
<trkpt lat="35.454117" lon="-118.250032"><ele>1828.4</ele><time>2024-05-30T20:14:07Z</time></trkpt>
<trkpt lat="35.454111" lon="-118.249869"><ele>1826.2</ele><time>2024-05-30T20:14:15Z</time></trkpt>
<trkpt lat="35.454165" lon="-118.248649"><ele>1814.4</ele><time>2024-05-30T20:15:35Z</time></trkpt>
<trkpt lat="35.454090" lon="-118.248244"><ele>1812.4</ele><time>2024-05-30T20:15:53Z</time></trkpt>
<trkpt lat="35.453985" lon="-118.248038"><ele>1811.0</ele><time>2024-05-30T20:16:05Z</time></trkpt>
<trkpt lat="35.454023" lon="-118.247937"><ele>1810.0</ele><time>2024-05-30T20:16:19Z</time></trkpt>
<trkpt lat="35.454169" lon="-118.248021"><ele>1807.2</ele><time>2024-05-30T20:16:39Z</time></trkpt>
<trkpt lat="35.454216" lon="-118.248475"><ele>1804.2</ele><time>2024-05-30T20:17:23Z</time></trkpt>
<trkpt lat="35.454280" lon="-118.248700"><ele>1801.2</ele><time>2024-05-30T20:17:47Z</time></trkpt>
<trkpt lat="35.454340" lon="-118.248724"><ele>1799.0</ele><time>2024-05-30T20:17:56Z</time></trkpt>
<trkpt lat="35.454418" lon="-118.248540"><ele>1797.2</ele><time>2024-05-30T20:18:11Z</time></trkpt>
<trkpt lat="35.454528" lon="-118.247051"><ele>1784.2</ele><time>2024-05-30T20:19:57Z</time></trkpt>
<trkpt lat="35.455033" lon="-118.246335"><ele>1779.0</ele><time>2024-05-30T20:20:34Z</time></trkpt>
<trkpt lat="35.455567" lon="-118.245778"><ele>1773.6</ele><time>2024-05-30T20:21:18Z</time></trkpt>
<trkpt lat="35.455871" lon="-118.245128"><ele>1771.4</ele><time>2024-05-30T20:21:52Z</time></trkpt>
<trkpt lat="35.455093" lon="-118.245314"><ele>1771.2</ele><time>2024-05-30T20:21:54Z</time></trkpt>
<trkpt lat="35.454862" lon="-118.245553"><ele>1771.2</ele><time>2024-05-30T20:21:57Z</time></trkpt>
<trkpt lat="35.454685" lon="-118.245314"><ele>1768.6</ele><time>2024-05-30T20:22:16Z</time></trkpt>
<trkpt lat="35.454821" lon="-118.245150"><ele>1766.6</ele><time>2024-05-30T20:22:26Z</time></trkpt>
<trkpt lat="35.455246" lon="-118.245187"><ele>1764.0</ele><time>2024-05-30T20:22:54Z</time></trkpt>
<trkpt lat="35.455200" lon="-118.245206"><ele>1757.4</ele><time>2024-05-30T20:23:52Z</time></trkpt>
<trkpt lat="35.455264" lon="-118.245333"><ele>1759.0</ele><time>2024-05-30T20:24:06Z</time></trkpt>
<trkpt lat="35.455762" lon="-118.245182"><ele>1757.0</ele><time>2024-05-30T20:24:22Z</time></trkpt>
<trkpt lat="35.456585" lon="-118.245261"><ele>1751.4</ele><time>2024-05-30T20:25:10Z</time></trkpt>
<trkpt lat="35.456637" lon="-118.245095"><ele>1749.2</ele><time>2024-05-30T20:25:30Z</time></trkpt>
<trkpt lat="35.456846" lon="-118.244956"><ele>1748.0</ele><time>2024-05-30T20:25:48Z</time></trkpt>
<trkpt lat="35.456915" lon="-118.244825"><ele>1746.8</ele><time>2024-05-30T20:25:54Z</time></trkpt>
<trkpt lat="35.456912" lon="-118.244622"><ele>1746.6</ele><time>2024-05-30T20:25:56Z</time></trkpt>
<trkpt lat="35.456985" lon="-118.244676"><ele>1746.2</ele><time>2024-05-30T20:25:57Z</time></trkpt>
<trkpt lat="35.456508" lon="-118.244943"><ele>1746.0</ele><time>2024-05-30T20:25:58Z</time></trkpt>
<trkpt lat="35.456513" lon="-118.245058"><ele>1745.4</ele><time>2024-05-30T20:25:59Z</time></trkpt>
<trkpt lat="35.455776" lon="-118.245417"><ele>1743.4</ele><time>2024-05-30T20:26:05Z</time></trkpt>
<trkpt lat="35.455755" lon="-118.245312"><ele>1742.2</ele><time>2024-05-30T20:26:10Z</time></trkpt>
<trkpt lat="35.455859" lon="-118.245223"><ele>1740.8</ele><time>2024-05-30T20:26:16Z</time></trkpt>
<trkpt lat="35.455874" lon="-118.244851"><ele>1737.6</ele><time>2024-05-30T20:26:49Z</time></trkpt>
<trkpt lat="35.455339" lon="-118.244598"><ele>1733.4</ele><time>2024-05-30T20:27:34Z</time></trkpt>
<trkpt lat="35.455712" lon="-118.244085"><ele>1727.8</ele><time>2024-05-30T20:28:30Z</time></trkpt>
<trkpt lat="35.455932" lon="-118.243621"><ele>1724.2</ele><time>2024-05-30T20:28:54Z</time></trkpt>
<trkpt lat="35.456021" lon="-118.243585"><ele>1723.6</ele><time>2024-05-30T20:28:59Z</time></trkpt>
<trkpt lat="35.456467" lon="-118.242490"><ele>1711.0</ele><time>2024-05-30T20:30:38Z</time></trkpt>
<trkpt lat="35.456776" lon="-118.242188"><ele>1710.6</ele><time>2024-05-30T20:30:54Z</time></trkpt>
<trkpt lat="35.456797" lon="-118.242057"><ele>1710.8</ele><time>2024-05-30T20:31:02Z</time></trkpt>
<trkpt lat="35.456866" lon="-118.242012"><ele>1710.0</ele><time>2024-05-30T20:31:09Z</time></trkpt>
<trkpt lat="35.456940" lon="-118.241195"><ele>1711.0</ele><time>2024-05-30T20:32:08Z</time></trkpt>
<trkpt lat="35.456845" lon="-118.241036"><ele>1709.8</ele><time>2024-05-30T20:32:42Z</time></trkpt>
<trkpt lat="35.456946" lon="-118.240833"><ele>1709.8</ele><time>2024-05-30T20:32:51Z</time></trkpt>
<trkpt lat="35.456336" lon="-118.241006"><ele>1709.4</ele><time>2024-05-30T20:33:02Z</time></trkpt>
<trkpt lat="35.456377" lon="-118.240888"><ele>1710.4</ele><time>2024-05-30T20:35:07Z</time></trkpt>
<trkpt lat="35.456153" lon="-118.240975"><ele>1710.0</ele><time>2024-05-30T20:36:52Z</time></trkpt>
<trkpt lat="35.456541" lon="-118.240734"><ele>1709.0</ele><time>2024-05-30T20:38:51Z</time></trkpt>
<trkpt lat="35.456392" lon="-118.240667"><ele>1707.8</ele><time>2024-05-30T20:39:00Z</time></trkpt>
<trkpt lat="35.456258" lon="-118.240141"><ele>1701.4</ele><time>2024-05-30T20:39:52Z</time></trkpt>
<trkpt lat="35.456369" lon="-118.239872"><ele>1699.0</ele><time>2024-05-30T20:40:30Z</time></trkpt>
<trkpt lat="35.456630" lon="-118.239642"><ele>1695.4</ele><time>2024-05-30T20:40:54Z</time></trkpt>
<trkpt lat="35.456623" lon="-118.239568"><ele>1694.4</ele><time>2024-05-30T20:41:00Z</time></trkpt>
<trkpt lat="35.457034" lon="-118.239079"><ele>1687.2</ele><time>2024-05-30T20:41:38Z</time></trkpt>
<trkpt lat="35.457332" lon="-118.238317"><ele>1682.4</ele><time>2024-05-30T20:42:32Z</time></trkpt>
<trkpt lat="35.457671" lon="-118.237890"><ele>1675.2</ele><time>2024-05-30T20:43:11Z</time></trkpt>
<trkpt lat="35.457668" lon="-118.237793"><ele>1672.0</ele><time>2024-05-30T20:43:30Z</time></trkpt>
<trkpt lat="35.457438" lon="-118.237578"><ele>1667.8</ele><time>2024-05-30T20:43:50Z</time></trkpt>
<trkpt lat="35.457413" lon="-118.237485"><ele>1661.0</ele><time>2024-05-30T20:44:28Z</time></trkpt>
<trkpt lat="35.457591" lon="-118.237457"><ele>1657.8</ele><time>2024-05-30T20:44:42Z</time></trkpt>
<trkpt lat="35.457687" lon="-118.237319"><ele>1655.4</ele><time>2024-05-30T20:44:54Z</time></trkpt>
<trkpt lat="35.457825" lon="-118.237291"><ele>1655.4</ele><time>2024-05-30T20:44:56Z</time></trkpt>
<trkpt lat="35.457787" lon="-118.237279"><ele>1655.2</ele><time>2024-05-30T20:44:57Z</time></trkpt>
<trkpt lat="35.457900" lon="-118.237079"><ele>1652.4</ele><time>2024-05-30T20:45:06Z</time></trkpt>
<trkpt lat="35.458063" lon="-118.236225"><ele>1642.0</ele><time>2024-05-30T20:45:54Z</time></trkpt>
<trkpt lat="35.458020" lon="-118.235889"><ele>1637.4</ele><time>2024-05-30T20:46:50Z</time></trkpt>
<trkpt lat="35.457885" lon="-118.235807"><ele>1636.4</ele><time>2024-05-30T20:47:00Z</time></trkpt>
<trkpt lat="35.457720" lon="-118.235309"><ele>1632.2</ele><time>2024-05-30T20:47:50Z</time></trkpt>
<trkpt lat="35.457438" lon="-118.234630"><ele>1635.0</ele><time>2024-05-30T20:48:53Z</time></trkpt>
<trkpt lat="35.457448" lon="-118.234578"><ele>1635.0</ele><time>2024-05-30T20:49:10Z</time></trkpt>
<trkpt lat="35.457613" lon="-118.234578"><ele>1635.0</ele><time>2024-05-30T20:52:55Z</time></trkpt>
<trkpt lat="35.457468" lon="-118.234605"><ele>1634.8</ele><time>2024-05-30T20:52:59Z</time></trkpt>
<trkpt lat="35.457102" lon="-118.233702"><ele>1632.2</ele><time>2024-05-30T20:54:53Z</time></trkpt>
<trkpt lat="35.456923" lon="-118.233680"><ele>1630.8</ele><time>2024-05-30T20:55:02Z</time></trkpt>
<trkpt lat="35.456738" lon="-118.233326"><ele>1629.2</ele><time>2024-05-30T20:55:20Z</time></trkpt>
<trkpt lat="35.456710" lon="-118.232576"><ele>1622.8</ele><time>2024-05-30T20:56:06Z</time></trkpt>
<trkpt lat="35.456781" lon="-118.231892"><ele>1618.2</ele><time>2024-05-30T20:56:54Z</time></trkpt>
<trkpt lat="35.456763" lon="-118.231704"><ele>1616.0</ele><time>2024-05-30T20:57:08Z</time></trkpt>
<trkpt lat="35.456628" lon="-118.231487"><ele>1615.4</ele><time>2024-05-30T20:57:26Z</time></trkpt>
<trkpt lat="35.455612" lon="-118.231851"><ele>1606.0</ele><time>2024-05-30T20:59:14Z</time></trkpt>
<trkpt lat="35.455089" lon="-118.231971"><ele>1600.8</ele><time>2024-05-30T21:00:20Z</time></trkpt>
<trkpt lat="35.454568" lon="-118.231979"><ele>1598.8</ele><time>2024-05-30T21:00:51Z</time></trkpt>
<trkpt lat="35.454304" lon="-118.232085"><ele>1597.0</ele><time>2024-05-30T21:01:11Z</time></trkpt>
<trkpt lat="35.454031" lon="-118.231235"><ele>1591.8</ele><time>2024-05-30T21:02:28Z</time></trkpt>
<trkpt lat="35.454067" lon="-118.230785"><ele>1587.2</ele><time>2024-05-30T21:02:57Z</time></trkpt>
<trkpt lat="35.454220" lon="-118.230683"><ele>1586.6</ele><time>2024-05-30T21:03:02Z</time></trkpt>
<trkpt lat="35.454308" lon="-118.230455"><ele>1583.8</ele><time>2024-05-30T21:03:23Z</time></trkpt>
<trkpt lat="35.454357" lon="-118.229786"><ele>1577.6</ele><time>2024-05-30T21:04:13Z</time></trkpt>
<trkpt lat="35.454249" lon="-118.229540"><ele>1575.6</ele><time>2024-05-30T21:04:31Z</time></trkpt>
<trkpt lat="35.454077" lon="-118.229568"><ele>1574.2</ele><time>2024-05-30T21:04:53Z</time></trkpt>
<trkpt lat="35.453994" lon="-118.229662"><ele>1573.8</ele><time>2024-05-30T21:04:59Z</time></trkpt>
<trkpt lat="35.453741" lon="-118.229682"><ele>1573.2</ele><time>2024-05-30T21:05:09Z</time></trkpt>
<trkpt lat="35.453359" lon="-118.229277"><ele>1568.8</ele><time>2024-05-30T21:05:59Z</time></trkpt>
<trkpt lat="35.453029" lon="-118.228761"><ele>1565.8</ele><time>2024-05-30T21:06:45Z</time></trkpt>
<trkpt lat="35.452888" lon="-118.228713"><ele>1565.4</ele><time>2024-05-30T21:06:52Z</time></trkpt>
<trkpt lat="35.452828" lon="-118.228561"><ele>1564.4</ele><time>2024-05-30T21:06:59Z</time></trkpt>
<trkpt lat="35.452766" lon="-118.228589"><ele>1564.4</ele><time>2024-05-30T21:07:03Z</time></trkpt>
<trkpt lat="35.452611" lon="-118.228402"><ele>1561.0</ele><time>2024-05-30T21:07:45Z</time></trkpt>
<trkpt lat="35.451971" lon="-118.228107"><ele>1555.4</ele><time>2024-05-30T21:08:52Z</time></trkpt>
<trkpt lat="35.451704" lon="-118.228132"><ele>1555.2</ele><time>2024-05-30T21:09:00Z</time></trkpt>
<trkpt lat="35.451635" lon="-118.228227"><ele>1556.0</ele><time>2024-05-30T21:09:12Z</time></trkpt>
<trkpt lat="35.451576" lon="-118.227938"><ele>1552.8</ele><time>2024-05-30T21:09:35Z</time></trkpt>
<trkpt lat="35.451662" lon="-118.226990"><ele>1541.2</ele><time>2024-05-30T21:10:59Z</time></trkpt>
<trkpt lat="35.451466" lon="-118.226905"><ele>1539.2</ele><time>2024-05-30T21:11:12Z</time></trkpt>
<trkpt lat="35.451148" lon="-118.226559"><ele>1537.8</ele><time>2024-05-30T21:11:45Z</time></trkpt>
<trkpt lat="35.451059" lon="-118.225707"><ele>1531.0</ele><time>2024-05-30T21:12:52Z</time></trkpt>
<trkpt lat="35.450859" lon="-118.225463"><ele>1526.6</ele><time>2024-05-30T21:13:10Z</time></trkpt>
<trkpt lat="35.451155" lon="-118.224614"><ele>1518.6</ele><time>2024-05-30T21:14:25Z</time></trkpt>
<trkpt lat="35.450973" lon="-118.224362"><ele>1518.6</ele><time>2024-05-30T21:14:47Z</time></trkpt>
<trkpt lat="35.450808" lon="-118.224346"><ele>1519.8</ele><time>2024-05-30T21:14:56Z</time></trkpt>
<trkpt lat="35.450853" lon="-118.224327"><ele>1520.2</ele><time>2024-05-30T21:14:59Z</time></trkpt>
<trkpt lat="35.450783" lon="-118.224305"><ele>1519.8</ele><time>2024-05-30T21:15:04Z</time></trkpt>
<trkpt lat="35.450814" lon="-118.224264"><ele>1516.6</ele><time>2024-05-30T21:17:50Z</time></trkpt>
<trkpt lat="35.450765" lon="-118.224312"><ele>1516.4</ele><time>2024-05-30T21:17:56Z</time></trkpt>
<trkpt lat="35.450813" lon="-118.224278"><ele>1516.0</ele><time>2024-05-30T21:19:55Z</time></trkpt>
<trkpt lat="35.450741" lon="-118.224259"><ele>1518.0</ele><time>2024-05-30T21:21:54Z</time></trkpt>
<trkpt lat="35.450761" lon="-118.223633"><ele>1512.0</ele><time>2024-05-30T21:23:51Z</time></trkpt>
<trkpt lat="35.450605" lon="-118.222994"><ele>1508.6</ele><time>2024-05-30T21:24:23Z</time></trkpt>
<trkpt lat="35.450268" lon="-118.222295"><ele>1505.4</ele><time>2024-05-30T21:25:45Z</time></trkpt>
<trkpt lat="35.450139" lon="-118.222271"><ele>1505.4</ele><time>2024-05-30T21:25:56Z</time></trkpt>
<trkpt lat="35.450017" lon="-118.222144"><ele>1505.0</ele><time>2024-05-30T21:26:05Z</time></trkpt>
<trkpt lat="35.449979" lon="-118.221933"><ele>1506.0</ele><time>2024-05-30T21:26:15Z</time></trkpt>
<trkpt lat="35.449801" lon="-118.221577"><ele>1505.4</ele><time>2024-05-30T21:26:45Z</time></trkpt>
<trkpt lat="35.449280" lon="-118.221063"><ele>1502.4</ele><time>2024-05-30T21:27:52Z</time></trkpt>
<trkpt lat="35.449223" lon="-118.220782"><ele>1501.6</ele><time>2024-05-30T21:28:09Z</time></trkpt>
<trkpt lat="35.448856" lon="-118.220305"><ele>1500.6</ele><time>2024-05-30T21:28:51Z</time></trkpt>
<trkpt lat="35.448556" lon="-118.220041"><ele>1499.4</ele><time>2024-05-30T21:29:52Z</time></trkpt>
<trkpt lat="35.448345" lon="-118.219958"><ele>1496.8</ele><time>2024-05-30T21:30:13Z</time></trkpt>
<trkpt lat="35.448298" lon="-118.219757"><ele>1495.8</ele><time>2024-05-30T21:30:27Z</time></trkpt>
<trkpt lat="35.448568" lon="-118.219318"><ele>1494.8</ele><time>2024-05-30T21:31:03Z</time></trkpt>
<trkpt lat="35.448703" lon="-118.219177"><ele>1494.2</ele><time>2024-05-30T21:31:15Z</time></trkpt>
<trkpt lat="35.449015" lon="-118.219076"><ele>1493.2</ele><time>2024-05-30T21:31:53Z</time></trkpt>
<trkpt lat="35.449156" lon="-118.218950"><ele>1492.0</ele><time>2024-05-30T21:32:07Z</time></trkpt>
<trkpt lat="35.449273" lon="-118.218684"><ele>1489.2</ele><time>2024-05-30T21:32:21Z</time></trkpt>
<trkpt lat="35.449630" lon="-118.218295"><ele>1484.0</ele><time>2024-05-30T21:32:53Z</time></trkpt>
<trkpt lat="35.449671" lon="-118.217779"><ele>1481.8</ele><time>2024-05-30T21:33:54Z</time></trkpt>
<trkpt lat="35.449627" lon="-118.217679"><ele>1481.4</ele><time>2024-05-30T21:34:00Z</time></trkpt>
<trkpt lat="35.449504" lon="-118.217622"><ele>1479.6</ele><time>2024-05-30T21:34:13Z</time></trkpt>
<trkpt lat="35.449456" lon="-118.217466"><ele>1478.4</ele><time>2024-05-30T21:34:21Z</time></trkpt>
<trkpt lat="35.449603" lon="-118.217196"><ele>1477.6</ele><time>2024-05-30T21:34:39Z</time></trkpt>
<trkpt lat="35.449657" lon="-118.216806"><ele>1475.8</ele><time>2024-05-30T21:35:27Z</time></trkpt>
<trkpt lat="35.450123" lon="-118.216312"><ele>1476.6</ele><time>2024-05-30T21:36:11Z</time></trkpt>
<trkpt lat="35.450464" lon="-118.215750"><ele>1473.2</ele><time>2024-05-30T21:37:13Z</time></trkpt>
<trkpt lat="35.450905" lon="-118.215446"><ele>1468.4</ele><time>2024-05-30T21:37:53Z</time></trkpt>
<trkpt lat="35.451128" lon="-118.215411"><ele>1467.2</ele><time>2024-05-30T21:38:09Z</time></trkpt>
<trkpt lat="35.452291" lon="-118.214843"><ele>1453.8</ele><time>2024-05-30T21:39:54Z</time></trkpt>
<trkpt lat="35.452551" lon="-118.214962"><ele>1451.2</ele><time>2024-05-30T21:40:13Z</time></trkpt>
<trkpt lat="35.453047" lon="-118.214690"><ele>1447.8</ele><time>2024-05-30T21:40:55Z</time></trkpt>
<trkpt lat="35.453156" lon="-118.214459"><ele>1445.4</ele><time>2024-05-30T21:41:15Z</time></trkpt>
<trkpt lat="35.453380" lon="-118.214208"><ele>1445.0</ele><time>2024-05-30T21:41:47Z</time></trkpt>
<trkpt lat="35.453331" lon="-118.214072"><ele>1443.0</ele><time>2024-05-30T21:42:22Z</time></trkpt>
<trkpt lat="35.453464" lon="-118.213626"><ele>1439.0</ele><time>2024-05-30T21:43:14Z</time></trkpt>
<trkpt lat="35.453875" lon="-118.213117"><ele>1435.4</ele><time>2024-05-30T21:43:58Z</time></trkpt>
<trkpt lat="35.454064" lon="-118.213064"><ele>1434.0</ele><time>2024-05-30T21:44:13Z</time></trkpt>
<trkpt lat="35.454338" lon="-118.213167"><ele>1431.6</ele><time>2024-05-30T21:44:37Z</time></trkpt>
<trkpt lat="35.454526" lon="-118.213136"><ele>1429.6</ele><time>2024-05-30T21:44:51Z</time></trkpt>
<trkpt lat="35.455089" lon="-118.212816"><ele>1423.0</ele><time>2024-05-30T21:45:57Z</time></trkpt>
<trkpt lat="35.455264" lon="-118.212776"><ele>1424.0</ele><time>2024-05-30T21:46:12Z</time></trkpt>
<trkpt lat="35.455367" lon="-118.212684"><ele>1425.0</ele><time>2024-05-30T21:46:30Z</time></trkpt>
<trkpt lat="35.455564" lon="-118.212236"><ele>1421.8</ele><time>2024-05-30T21:47:18Z</time></trkpt>
<trkpt lat="35.456157" lon="-118.211913"><ele>1416.2</ele><time>2024-05-30T21:48:06Z</time></trkpt>
<trkpt lat="35.456338" lon="-118.211717"><ele>1411.6</ele><time>2024-05-30T21:48:26Z</time></trkpt>
<trkpt lat="35.456354" lon="-118.211337"><ele>1408.6</ele><time>2024-05-30T21:49:20Z</time></trkpt>
<trkpt lat="35.456223" lon="-118.211083"><ele>1404.8</ele><time>2024-05-30T21:49:44Z</time></trkpt>
<trkpt lat="35.455646" lon="-118.210965"><ele>1400.6</ele><time>2024-05-30T21:51:16Z</time></trkpt>
<trkpt lat="35.455204" lon="-118.211144"><ele>1396.6</ele><time>2024-05-30T21:51:57Z</time></trkpt>
<trkpt lat="35.454888" lon="-118.210955"><ele>1395.0</ele><time>2024-05-30T21:52:20Z</time></trkpt>
<trkpt lat="35.454477" lon="-118.211049"><ele>1394.6</ele><time>2024-05-30T21:52:51Z</time></trkpt>
<trkpt lat="35.454451" lon="-118.210941"><ele>1394.0</ele><time>2024-05-30T21:52:53Z</time></trkpt>
<trkpt lat="35.454601" lon="-118.210824"><ele>1395.2</ele><time>2024-05-30T21:53:13Z</time></trkpt>
<trkpt lat="35.454871" lon="-118.210234"><ele>1396.6</ele><time>2024-05-30T21:54:30Z</time></trkpt>
<trkpt lat="35.455123" lon="-118.209870"><ele>1399.2</ele><time>2024-05-30T21:55:07Z</time></trkpt>
<trkpt lat="35.455102" lon="-118.209613"><ele>1402.4</ele><time>2024-05-30T21:55:28Z</time></trkpt>
<trkpt lat="35.455042" lon="-118.209420"><ele>1404.6</ele><time>2024-05-30T21:55:48Z</time></trkpt>
<trkpt lat="35.454591" lon="-118.209262"><ele>1401.2</ele><time>2024-05-30T21:56:50Z</time></trkpt>
<trkpt lat="35.454335" lon="-118.208902"><ele>1400.0</ele><time>2024-05-30T21:57:05Z</time></trkpt>
<trkpt lat="35.454166" lon="-118.208209"><ele>1401.4</ele><time>2024-05-30T21:58:00Z</time></trkpt>
<trkpt lat="35.453909" lon="-118.207579"><ele>1401.4</ele><time>2024-05-30T21:58:53Z</time></trkpt>
<trkpt lat="35.453724" lon="-118.207358"><ele>1400.6</ele><time>2024-05-30T21:59:13Z</time></trkpt>
<trkpt lat="35.453458" lon="-118.206406"><ele>1403.2</ele><time>2024-05-30T22:00:38Z</time></trkpt>
<trkpt lat="35.453269" lon="-118.205966"><ele>1399.0</ele><time>2024-05-30T22:01:06Z</time></trkpt>
<trkpt lat="35.453225" lon="-118.205482"><ele>1396.2</ele><time>2024-05-30T22:01:44Z</time></trkpt>
<trkpt lat="35.453343" lon="-118.204719"><ele>1393.0</ele><time>2024-05-30T22:02:54Z</time></trkpt>
<trkpt lat="35.453135" lon="-118.204558"><ele>1392.6</ele><time>2024-05-30T22:06:50Z</time></trkpt>
<trkpt lat="35.453171" lon="-118.204599"><ele>1393.0</ele><time>2024-05-30T22:06:59Z</time></trkpt>
<trkpt lat="35.453145" lon="-118.204533"><ele>1393.0</ele><time>2024-05-30T22:07:10Z</time></trkpt>
<trkpt lat="35.453251" lon="-118.204238"><ele>1402.6</ele><time>2024-05-30T22:09:01Z</time></trkpt>
<trkpt lat="35.453173" lon="-118.204233"><ele>1404.8</ele><time>2024-05-30T22:09:14Z</time></trkpt>
<trkpt lat="35.453112" lon="-118.204003"><ele>1408.2</ele><time>2024-05-30T22:09:40Z</time></trkpt>
<trkpt lat="35.453089" lon="-118.203488"><ele>1417.8</ele><time>2024-05-30T22:10:52Z</time></trkpt>
<trkpt lat="35.452610" lon="-118.202063"><ele>1425.0</ele><time>2024-05-30T22:12:58Z</time></trkpt>
<trkpt lat="35.452674" lon="-118.201964"><ele>1425.0</ele><time>2024-05-30T22:13:07Z</time></trkpt>
<trkpt lat="35.452843" lon="-118.200995"><ele>1435.2</ele><time>2024-05-30T22:14:53Z</time></trkpt>
<trkpt lat="35.452787" lon="-118.200903"><ele>1436.0</ele><time>2024-05-30T22:14:56Z</time></trkpt>
<trkpt lat="35.452840" lon="-118.200722"><ele>1437.4</ele><time>2024-05-30T22:15:11Z</time></trkpt>
<trkpt lat="35.452727" lon="-118.200100"><ele>1441.0</ele><time>2024-05-30T22:15:44Z</time></trkpt>
<trkpt lat="35.452510" lon="-118.199541"><ele>1449.0</ele><time>2024-05-30T22:16:56Z</time></trkpt>
<trkpt lat="35.452574" lon="-118.199475"><ele>1450.6</ele><time>2024-05-30T22:17:09Z</time></trkpt>
<trkpt lat="35.452299" lon="-118.198689"><ele>1459.2</ele><time>2024-05-30T22:18:52Z</time></trkpt>
<trkpt lat="35.452330" lon="-118.198787"><ele>1459.8</ele><time>2024-05-30T22:19:01Z</time></trkpt>
<trkpt lat="35.451736" lon="-118.197923"><ele>1468.6</ele><time>2024-05-30T22:20:52Z</time></trkpt>
<trkpt lat="35.451684" lon="-118.197931"><ele>1468.6</ele><time>2024-05-30T22:20:58Z</time></trkpt>
<trkpt lat="35.451708" lon="-118.198027"><ele>1468.8</ele><time>2024-05-30T22:21:01Z</time></trkpt>
<trkpt lat="35.451545" lon="-118.197980"><ele>1470.8</ele><time>2024-05-30T22:21:14Z</time></trkpt>
<trkpt lat="35.451005" lon="-118.197548"><ele>1475.6</ele><time>2024-05-30T22:22:56Z</time></trkpt>
<trkpt lat="35.450991" lon="-118.197592"><ele>1475.2</ele><time>2024-05-30T22:23:03Z</time></trkpt>
<trkpt lat="35.451137" lon="-118.197494"><ele>1474.2</ele><time>2024-05-30T22:24:53Z</time></trkpt>
<trkpt lat="35.451061" lon="-118.197619"><ele>1474.0</ele><time>2024-05-30T22:24:54Z</time></trkpt>
<trkpt lat="35.450952" lon="-118.197495"><ele>1474.4</ele><time>2024-05-30T22:25:01Z</time></trkpt>
<trkpt lat="35.450939" lon="-118.197240"><ele>1475.8</ele><time>2024-05-30T22:25:20Z</time></trkpt>
<trkpt lat="35.451134" lon="-118.196723"><ele>1479.4</ele><time>2024-05-30T22:26:28Z</time></trkpt>
<trkpt lat="35.451204" lon="-118.196316"><ele>1478.8</ele><time>2024-05-30T22:26:56Z</time></trkpt>
<trkpt lat="35.451068" lon="-118.196251"><ele>1478.6</ele><time>2024-05-30T22:27:11Z</time></trkpt>
<trkpt lat="35.450809" lon="-118.194723"><ele>1488.4</ele><time>2024-05-30T22:29:01Z</time></trkpt>
<trkpt lat="35.450916" lon="-118.193695"><ele>1495.8</ele><time>2024-05-30T22:30:53Z</time></trkpt>
<trkpt lat="35.451062" lon="-118.193837"><ele>1495.8</ele><time>2024-05-30T22:30:56Z</time></trkpt>
<trkpt lat="35.451020" lon="-118.193805"><ele>1495.4</ele><time>2024-05-30T22:31:07Z</time></trkpt>
<trkpt lat="35.451188" lon="-118.193200"><ele>1499.0</ele><time>2024-05-30T22:32:55Z</time></trkpt>
<trkpt lat="35.451286" lon="-118.193238"><ele>1499.0</ele><time>2024-05-30T22:32:58Z</time></trkpt>
<trkpt lat="35.451241" lon="-118.193177"><ele>1498.8</ele><time>2024-05-30T22:33:11Z</time></trkpt>
<trkpt lat="35.451238" lon="-118.191792"><ele>1507.4</ele><time>2024-05-30T22:34:57Z</time></trkpt>
<trkpt lat="35.451465" lon="-118.191807"><ele>1509.8</ele><time>2024-05-30T22:35:15Z</time></trkpt>
<trkpt lat="35.451851" lon="-118.191962"><ele>1514.2</ele><time>2024-05-30T22:35:45Z</time></trkpt>
<trkpt lat="35.452070" lon="-118.192208"><ele>1517.6</ele><time>2024-05-30T22:36:43Z</time></trkpt>
<trkpt lat="35.452260" lon="-118.192331"><ele>1518.8</ele><time>2024-05-30T22:36:53Z</time></trkpt>
<trkpt lat="35.452389" lon="-118.192315"><ele>1518.8</ele><time>2024-05-30T22:37:02Z</time></trkpt>
<trkpt lat="35.452505" lon="-118.192257"><ele>1519.8</ele><time>2024-05-30T22:37:13Z</time></trkpt>
<trkpt lat="35.452726" lon="-118.191958"><ele>1527.2</ele><time>2024-05-30T22:38:19Z</time></trkpt>
<trkpt lat="35.453033" lon="-118.191446"><ele>1532.2</ele><time>2024-05-30T22:38:53Z</time></trkpt>
<trkpt lat="35.453190" lon="-118.191424"><ele>1534.0</ele><time>2024-05-30T22:39:10Z</time></trkpt>
<trkpt lat="35.453380" lon="-118.190246"><ele>1542.6</ele><time>2024-05-30T22:41:00Z</time></trkpt>
<trkpt lat="35.453482" lon="-118.190443"><ele>1545.0</ele><time>2024-05-30T22:45:04Z</time></trkpt>
<trkpt lat="35.453387" lon="-118.190381"><ele>1544.6</ele><time>2024-05-30T22:46:55Z</time></trkpt>
<trkpt lat="35.453492" lon="-118.190400"><ele>1545.4</ele><time>2024-05-30T22:47:11Z</time></trkpt>
<trkpt lat="35.453777" lon="-118.189505"><ele>1554.0</ele><time>2024-05-30T22:49:08Z</time></trkpt>
<trkpt lat="35.453830" lon="-118.188997"><ele>1555.8</ele><time>2024-05-30T22:49:29Z</time></trkpt>
<trkpt lat="35.454042" lon="-118.188050"><ele>1561.0</ele><time>2024-05-30T22:50:54Z</time></trkpt>
<trkpt lat="35.454182" lon="-118.188101"><ele>1562.0</ele><time>2024-05-30T22:51:02Z</time></trkpt>
<trkpt lat="35.454257" lon="-118.188049"><ele>1563.0</ele><time>2024-05-30T22:51:11Z</time></trkpt>
<trkpt lat="35.454516" lon="-118.187578"><ele>1565.2</ele><time>2024-05-30T22:51:31Z</time></trkpt>
<trkpt lat="35.454865" lon="-118.187142"><ele>1568.2</ele><time>2024-05-30T22:53:01Z</time></trkpt>
<trkpt lat="35.454783" lon="-118.187191"><ele>1567.8</ele><time>2024-05-30T22:53:09Z</time></trkpt>
<trkpt lat="35.454843" lon="-118.186961"><ele>1568.4</ele><time>2024-05-30T22:53:19Z</time></trkpt>
<trkpt lat="35.455383" lon="-118.185915"><ele>1577.2</ele><time>2024-05-30T22:54:55Z</time></trkpt>
<trkpt lat="35.455357" lon="-118.185839"><ele>1577.4</ele><time>2024-05-30T22:54:57Z</time></trkpt>
<trkpt lat="35.455448" lon="-118.185827"><ele>1578.6</ele><time>2024-05-30T22:55:09Z</time></trkpt>
<trkpt lat="35.456045" lon="-118.184735"><ele>1588.0</ele><time>2024-05-30T22:56:54Z</time></trkpt>
<trkpt lat="35.456755" lon="-118.183840"><ele>1598.2</ele><time>2024-05-30T22:58:54Z</time></trkpt>
<trkpt lat="35.456781" lon="-118.183694"><ele>1598.0</ele><time>2024-05-30T22:58:59Z</time></trkpt>
<trkpt lat="35.456861" lon="-118.183653"><ele>1598.0</ele><time>2024-05-30T22:59:10Z</time></trkpt>
<trkpt lat="35.456929" lon="-118.183469"><ele>1597.8</ele><time>2024-05-30T22:59:17Z</time></trkpt>
<trkpt lat="35.457377" lon="-118.182116"><ele>1604.0</ele><time>2024-05-30T23:00:55Z</time></trkpt>
<trkpt lat="35.457500" lon="-118.182176"><ele>1604.4</ele><time>2024-05-30T23:01:03Z</time></trkpt>
<trkpt lat="35.457533" lon="-118.182134"><ele>1604.2</ele><time>2024-05-30T23:01:06Z</time></trkpt>
<trkpt lat="35.458034" lon="-118.180640"><ele>1612.2</ele><time>2024-05-30T23:02:54Z</time></trkpt>
<trkpt lat="35.458006" lon="-118.180680"><ele>1612.2</ele><time>2024-05-30T23:02:57Z</time></trkpt>
<trkpt lat="35.458074" lon="-118.180706"><ele>1612.6</ele><time>2024-05-30T23:03:03Z</time></trkpt>
<trkpt lat="35.458101" lon="-118.180640"><ele>1613.0</ele><time>2024-05-30T23:03:10Z</time></trkpt>
<trkpt lat="35.458464" lon="-118.179213"><ele>1618.0</ele><time>2024-05-30T23:04:54Z</time></trkpt>
<trkpt lat="35.458384" lon="-118.179208"><ele>1617.8</ele><time>2024-05-30T23:04:59Z</time></trkpt>
<trkpt lat="35.458577" lon="-118.178115"><ele>1621.0</ele><time>2024-05-30T23:06:46Z</time></trkpt>
<trkpt lat="35.458501" lon="-118.177777"><ele>1622.6</ele><time>2024-05-30T23:07:11Z</time></trkpt>
<trkpt lat="35.458655" lon="-118.176361"><ele>1626.0</ele><time>2024-05-30T23:08:55Z</time></trkpt>
<trkpt lat="35.458551" lon="-118.176282"><ele>1626.2</ele><time>2024-05-30T23:08:56Z</time></trkpt>
<trkpt lat="35.458555" lon="-118.176159"><ele>1627.6</ele><time>2024-05-30T23:09:11Z</time></trkpt>
<trkpt lat="35.458755" lon="-118.175238"><ele>1631.0</ele><time>2024-05-30T23:10:55Z</time></trkpt>
<trkpt lat="35.458851" lon="-118.175505"><ele>1633.4</ele><time>2024-05-30T23:13:01Z</time></trkpt>
<trkpt lat="35.458775" lon="-118.175653"><ele>1631.6</ele><time>2024-05-30T23:14:56Z</time></trkpt>
<trkpt lat="35.458844" lon="-118.175571"><ele>1631.0</ele><time>2024-05-30T23:15:04Z</time></trkpt>
<trkpt lat="35.458802" lon="-118.175499"><ele>1630.6</ele><time>2024-05-30T23:16:18Z</time></trkpt>
<trkpt lat="35.458813" lon="-118.175603"><ele>1630.2</ele><time>2024-05-30T23:17:12Z</time></trkpt>
<trkpt lat="35.458723" lon="-118.175602"><ele>1630.2</ele><time>2024-05-30T23:18:50Z</time></trkpt>
<trkpt lat="35.458867" lon="-118.175502"><ele>1630.8</ele><time>2024-05-30T23:20:57Z</time></trkpt>
<trkpt lat="35.458845" lon="-118.175572"><ele>1630.4</ele><time>2024-05-30T23:23:10Z</time></trkpt>
</trkseg></trk>
</gpx>
