<?xml version="1.0" encoding="UTF-8"?>
<gpx version="1.1" creator="Eric Sichak trip reports" xmlns="http://www.topografix.com/GPX/1/1">
<metadata><name>Morning Hike</name><time>2024-06-02T13:45:39Z</time></metadata>
<trk><name>Morning Hike</name><type>hike</type><trkseg>
<trkpt lat="35.743324" lon="-118.020867"><ele>1695.4</ele><time>2024-06-02T13:45:39Z</time></trkpt>
<trkpt lat="35.743208" lon="-118.020764"><ele>1699.4</ele><time>2024-06-02T13:46:37Z</time></trkpt>
<trkpt lat="35.743392" lon="-118.021066"><ele>1696.8</ele><time>2024-06-02T13:47:41Z</time></trkpt>
<trkpt lat="35.743153" lon="-118.021623"><ele>1692.2</ele><time>2024-06-02T13:48:17Z</time></trkpt>
<trkpt lat="35.743164" lon="-118.022430"><ele>1688.8</ele><time>2024-06-02T13:49:23Z</time></trkpt>
<trkpt lat="35.742831" lon="-118.023046"><ele>1684.4</ele><time>2024-06-02T13:50:15Z</time></trkpt>
<trkpt lat="35.742971" lon="-118.023588"><ele>1677.4</ele><time>2024-06-02T13:50:55Z</time></trkpt>
<trkpt lat="35.742877" lon="-118.023744"><ele>1674.8</ele><time>2024-06-02T13:51:07Z</time></trkpt>
<trkpt lat="35.743084" lon="-118.024398"><ele>1668.0</ele><time>2024-06-02T13:51:55Z</time></trkpt>
<trkpt lat="35.743080" lon="-118.024536"><ele>1665.0</ele><time>2024-06-02T13:52:19Z</time></trkpt>
<trkpt lat="35.743437" lon="-118.025294"><ele>1655.4</ele><time>2024-06-02T13:53:19Z</time></trkpt>
<trkpt lat="35.743465" lon="-118.025259"><ele>1654.4</ele><time>2024-06-02T13:53:35Z</time></trkpt>
<trkpt lat="35.743519" lon="-118.025526"><ele>1652.6</ele><time>2024-06-02T13:53:51Z</time></trkpt>
<trkpt lat="35.743657" lon="-118.025500"><ele>1649.4</ele><time>2024-06-02T13:54:04Z</time></trkpt>
<trkpt lat="35.743602" lon="-118.026085"><ele>1642.6</ele><time>2024-06-02T13:54:48Z</time></trkpt>
<trkpt lat="35.743653" lon="-118.026283"><ele>1637.0</ele><time>2024-06-02T13:55:16Z</time></trkpt>
<trkpt lat="35.743460" lon="-118.026500"><ele>1630.6</ele><time>2024-06-02T13:55:42Z</time></trkpt>
<trkpt lat="35.743539" lon="-118.026605"><ele>1629.2</ele><time>2024-06-02T13:55:47Z</time></trkpt>
<trkpt lat="35.743489" lon="-118.027327"><ele>1616.0</ele><time>2024-06-02T13:56:52Z</time></trkpt>
<trkpt lat="35.743546" lon="-118.027691"><ele>1609.2</ele><time>2024-06-02T13:57:43Z</time></trkpt>
<trkpt lat="35.743701" lon="-118.027916"><ele>1608.6</ele><time>2024-06-02T13:58:03Z</time></trkpt>
<trkpt lat="35.743749" lon="-118.028444"><ele>1603.0</ele><time>2024-06-02T13:58:34Z</time></trkpt>
<trkpt lat="35.743967" lon="-118.028767"><ele>1597.2</ele><time>2024-06-02T13:59:06Z</time></trkpt>
<trkpt lat="35.744170" lon="-118.028943"><ele>1593.8</ele><time>2024-06-02T13:59:26Z</time></trkpt>
<trkpt lat="35.744247" lon="-118.029246"><ele>1590.8</ele><time>2024-06-02T13:59:47Z</time></trkpt>
<trkpt lat="35.744446" lon="-118.029473"><ele>1589.0</ele><time>2024-06-02T14:00:04Z</time></trkpt>
<trkpt lat="35.744590" lon="-118.029767"><ele>1586.6</ele><time>2024-06-02T14:00:40Z</time></trkpt>
<trkpt lat="35.744981" lon="-118.030060"><ele>1581.2</ele><time>2024-06-02T14:01:43Z</time></trkpt>
<trkpt lat="35.745631" lon="-118.030266"><ele>1583.6</ele><time>2024-06-02T14:02:48Z</time></trkpt>
<trkpt lat="35.745964" lon="-118.030213"><ele>1581.0</ele><time>2024-06-02T14:03:22Z</time></trkpt>
<trkpt lat="35.746283" lon="-118.030288"><ele>1583.0</ele><time>2024-06-02T14:03:43Z</time></trkpt>
<trkpt lat="35.746433" lon="-118.030180"><ele>1583.6</ele><time>2024-06-02T14:03:51Z</time></trkpt>
<trkpt lat="35.746487" lon="-118.030209"><ele>1583.6</ele><time>2024-06-02T14:03:56Z</time></trkpt>
<trkpt lat="35.746266" lon="-118.031048"><ele>1588.0</ele><time>2024-06-02T14:05:00Z</time></trkpt>
<trkpt lat="35.745750" lon="-118.031464"><ele>1580.0</ele><time>2024-06-02T14:05:43Z</time></trkpt>
<trkpt lat="35.745087" lon="-118.032204"><ele>1567.0</ele><time>2024-06-02T14:07:02Z</time></trkpt>
<trkpt lat="35.745038" lon="-118.032342"><ele>1565.8</ele><time>2024-06-02T14:07:10Z</time></trkpt>
<trkpt lat="35.745004" lon="-118.032447"><ele>1564.8</ele><time>2024-06-02T14:07:16Z</time></trkpt>
<trkpt lat="35.745119" lon="-118.032953"><ele>1561.0</ele><time>2024-06-02T14:07:44Z</time></trkpt>
<trkpt lat="35.745383" lon="-118.033532"><ele>1554.8</ele><time>2024-06-02T14:08:20Z</time></trkpt>
<trkpt lat="35.745576" lon="-118.033509"><ele>1552.6</ele><time>2024-06-02T14:08:38Z</time></trkpt>
<trkpt lat="35.745736" lon="-118.033391"><ele>1549.2</ele><time>2024-06-02T14:09:14Z</time></trkpt>
<trkpt lat="35.746034" lon="-118.033391"><ele>1543.4</ele><time>2024-06-02T14:09:40Z</time></trkpt>
<trkpt lat="35.746099" lon="-118.033447"><ele>1542.6</ele><time>2024-06-02T14:09:47Z</time></trkpt>
<trkpt lat="35.746074" lon="-118.033604"><ele>1541.8</ele><time>2024-06-02T14:09:56Z</time></trkpt>
<trkpt lat="35.746417" lon="-118.033819"><ele>1542.0</ele><time>2024-06-02T14:10:16Z</time></trkpt>
<trkpt lat="35.746728" lon="-118.033812"><ele>1542.6</ele><time>2024-06-02T14:10:44Z</time></trkpt>
<trkpt lat="35.747094" lon="-118.033829"><ele>1554.8</ele><time>2024-06-02T14:11:42Z</time></trkpt>
<trkpt lat="35.747644" lon="-118.035012"><ele>1556.8</ele><time>2024-06-02T14:13:26Z</time></trkpt>
<trkpt lat="35.748392" lon="-118.036047"><ele>1572.4</ele><time>2024-06-02T14:15:20Z</time></trkpt>
<trkpt lat="35.748542" lon="-118.036316"><ele>1575.2</ele><time>2024-06-02T14:15:42Z</time></trkpt>
<trkpt lat="35.748465" lon="-118.036458"><ele>1575.6</ele><time>2024-06-02T14:15:54Z</time></trkpt>
<trkpt lat="35.749141" lon="-118.037375"><ele>1588.6</ele><time>2024-06-02T14:17:43Z</time></trkpt>
<trkpt lat="35.749240" lon="-118.037636"><ele>1592.6</ele><time>2024-06-02T14:18:04Z</time></trkpt>
<trkpt lat="35.749945" lon="-118.037646"><ele>1603.8</ele><time>2024-06-02T14:19:50Z</time></trkpt>
<trkpt lat="35.750308" lon="-118.037923"><ele>1612.8</ele><time>2024-06-02T14:20:44Z</time></trkpt>
<trkpt lat="35.750687" lon="-118.038071"><ele>1618.4</ele><time>2024-06-02T14:21:16Z</time></trkpt>
<trkpt lat="35.751041" lon="-118.038116"><ele>1622.4</ele><time>2024-06-02T14:21:43Z</time></trkpt>
<trkpt lat="35.751496" lon="-118.038027"><ele>1632.2</ele><time>2024-06-02T14:23:08Z</time></trkpt>
<trkpt lat="35.751996" lon="-118.037988"><ele>1636.0</ele><time>2024-06-02T14:23:51Z</time></trkpt>
<trkpt lat="35.752067" lon="-118.037909"><ele>1638.0</ele><time>2024-06-02T14:24:00Z</time></trkpt>
<trkpt lat="35.751922" lon="-118.037546"><ele>1641.4</ele><time>2024-06-02T14:24:30Z</time></trkpt>
<trkpt lat="35.751692" lon="-118.037170"><ele>1650.4</ele><time>2024-06-02T14:25:30Z</time></trkpt>
<trkpt lat="35.751596" lon="-118.037075"><ele>1653.4</ele><time>2024-06-02T14:25:44Z</time></trkpt>
<trkpt lat="35.751513" lon="-118.037111"><ele>1653.8</ele><time>2024-06-02T14:25:45Z</time></trkpt>
<trkpt lat="35.751717" lon="-118.037049"><ele>1655.0</ele><time>2024-06-02T14:25:49Z</time></trkpt>
<trkpt lat="35.751818" lon="-118.036937"><ele>1655.4</ele><time>2024-06-02T14:25:51Z</time></trkpt>
<trkpt lat="35.751847" lon="-118.036723"><ele>1655.6</ele><time>2024-06-02T14:25:52Z</time></trkpt>
<trkpt lat="35.751949" lon="-118.036670"><ele>1656.2</ele><time>2024-06-02T14:25:57Z</time></trkpt>
<trkpt lat="35.751991" lon="-118.036552"><ele>1656.4</ele><time>2024-06-02T14:26:01Z</time></trkpt>
<trkpt lat="35.751901" lon="-118.036641"><ele>1656.4</ele><time>2024-06-02T14:26:02Z</time></trkpt>
<trkpt lat="35.751939" lon="-118.036449"><ele>1658.0</ele><time>2024-06-02T14:26:14Z</time></trkpt>
<trkpt lat="35.751896" lon="-118.036219"><ele>1661.6</ele><time>2024-06-02T14:26:34Z</time></trkpt>
<trkpt lat="35.752141" lon="-118.036009"><ele>1665.0</ele><time>2024-06-02T14:27:12Z</time></trkpt>
<trkpt lat="35.752628" lon="-118.035415"><ele>1670.2</ele><time>2024-06-02T14:27:59Z</time></trkpt>
<trkpt lat="35.752469" lon="-118.035372"><ele>1672.4</ele><time>2024-06-02T14:28:16Z</time></trkpt>
<trkpt lat="35.752147" lon="-118.035466"><ele>1682.2</ele><time>2024-06-02T14:29:26Z</time></trkpt>
<trkpt lat="35.751939" lon="-118.035411"><ele>1685.0</ele><time>2024-06-02T14:29:43Z</time></trkpt>
<trkpt lat="35.751965" lon="-118.035244"><ele>1685.6</ele><time>2024-06-02T14:29:46Z</time></trkpt>
<trkpt lat="35.752075" lon="-118.035209"><ele>1686.8</ele><time>2024-06-02T14:29:49Z</time></trkpt>
<trkpt lat="35.752252" lon="-118.034968"><ele>1687.2</ele><time>2024-06-02T14:29:50Z</time></trkpt>
<trkpt lat="35.752941" lon="-118.034435"><ele>1687.8</ele><time>2024-06-02T14:29:54Z</time></trkpt>
<trkpt lat="35.753149" lon="-118.034373"><ele>1689.0</ele><time>2024-06-02T14:29:57Z</time></trkpt>
<trkpt lat="35.753142" lon="-118.034319"><ele>1689.2</ele><time>2024-06-02T14:29:59Z</time></trkpt>
<trkpt lat="35.753119" lon="-118.034353"><ele>1690.0</ele><time>2024-06-02T14:30:02Z</time></trkpt>
<trkpt lat="35.753793" lon="-118.033806"><ele>1691.2</ele><time>2024-06-02T14:30:44Z</time></trkpt>
<trkpt lat="35.754207" lon="-118.033550"><ele>1689.0</ele><time>2024-06-02T14:31:44Z</time></trkpt>
<trkpt lat="35.753839" lon="-118.033736"><ele>1690.2</ele><time>2024-06-02T14:31:55Z</time></trkpt>
<trkpt lat="35.753916" lon="-118.033526"><ele>1692.4</ele><time>2024-06-02T14:32:27Z</time></trkpt>
<trkpt lat="35.754256" lon="-118.033722"><ele>1689.2</ele><time>2024-06-02T14:33:23Z</time></trkpt>
<trkpt lat="35.754405" lon="-118.033744"><ele>1690.4</ele><time>2024-06-02T14:33:43Z</time></trkpt>
<trkpt lat="35.754525" lon="-118.033917"><ele>1692.2</ele><time>2024-06-02T14:33:57Z</time></trkpt>
<trkpt lat="35.754615" lon="-118.035396"><ele>1699.4</ele><time>2024-06-02T14:36:04Z</time></trkpt>
<trkpt lat="35.754936" lon="-118.036168"><ele>1706.6</ele><time>2024-06-02T14:37:09Z</time></trkpt>
<trkpt lat="35.755228" lon="-118.036507"><ele>1710.6</ele><time>2024-06-02T14:37:44Z</time></trkpt>
<trkpt lat="35.755411" lon="-118.036565"><ele>1712.6</ele><time>2024-06-02T14:38:01Z</time></trkpt>
<trkpt lat="35.755675" lon="-118.036441"><ele>1712.8</ele><time>2024-06-02T14:38:25Z</time></trkpt>
<trkpt lat="35.756292" lon="-118.035948"><ele>1724.8</ele><time>2024-06-02T14:39:54Z</time></trkpt>
<trkpt lat="35.756341" lon="-118.035952"><ele>1725.0</ele><time>2024-06-02T14:39:57Z</time></trkpt>
<trkpt lat="35.756370" lon="-118.036415"><ele>1726.8</ele><time>2024-06-02T14:40:47Z</time></trkpt>
<trkpt lat="35.756447" lon="-118.036572"><ele>1728.2</ele><time>2024-06-02T14:41:09Z</time></trkpt>
<trkpt lat="35.756817" lon="-118.036822"><ele>1732.6</ele><time>2024-06-02T14:41:44Z</time></trkpt>
<trkpt lat="35.757385" lon="-118.036677"><ele>1740.8</ele><time>2024-06-02T14:42:47Z</time></trkpt>
<trkpt lat="35.757540" lon="-118.036562"><ele>1743.2</ele><time>2024-06-02T14:43:31Z</time></trkpt>
<trkpt lat="35.758066" lon="-118.036492"><ele>1749.2</ele><time>2024-06-02T14:44:37Z</time></trkpt>
<trkpt lat="35.758098" lon="-118.036532"><ele>1750.6</ele><time>2024-06-02T14:44:41Z</time></trkpt>
<trkpt lat="35.758024" lon="-118.037102"><ele>1750.8</ele><time>2024-06-02T14:45:33Z</time></trkpt>
<trkpt lat="35.758059" lon="-118.037419"><ele>1753.0</ele><time>2024-06-02T14:45:49Z</time></trkpt>
<trkpt lat="35.757961" lon="-118.037678"><ele>1754.6</ele><time>2024-06-02T14:46:04Z</time></trkpt>
<trkpt lat="35.757968" lon="-118.039022"><ele>1767.8</ele><time>2024-06-02T14:47:44Z</time></trkpt>
<trkpt lat="35.757845" lon="-118.038970"><ele>1767.8</ele><time>2024-06-02T14:47:46Z</time></trkpt>
<trkpt lat="35.757890" lon="-118.038999"><ele>1768.0</ele><time>2024-06-02T14:47:50Z</time></trkpt>
<trkpt lat="35.757880" lon="-118.039161"><ele>1768.2</ele><time>2024-06-02T14:47:54Z</time></trkpt>
<trkpt lat="35.758774" lon="-118.039340"><ele>1773.8</ele><time>2024-06-02T14:49:13Z</time></trkpt>
<trkpt lat="35.759173" lon="-118.039686"><ele>1772.6</ele><time>2024-06-02T14:49:46Z</time></trkpt>
<trkpt lat="35.759208" lon="-118.039817"><ele>1773.4</ele><time>2024-06-02T14:49:53Z</time></trkpt>
<trkpt lat="35.759626" lon="-118.040193"><ele>1778.0</ele><time>2024-06-02T14:50:37Z</time></trkpt>
<trkpt lat="35.759780" lon="-118.040322"><ele>1785.2</ele><time>2024-06-02T14:51:13Z</time></trkpt>
<trkpt lat="35.760217" lon="-118.040681"><ele>1787.0</ele><time>2024-06-02T14:51:47Z</time></trkpt>
<trkpt lat="35.760367" lon="-118.040722"><ele>1788.0</ele><time>2024-06-02T14:51:59Z</time></trkpt>
<trkpt lat="35.760573" lon="-118.041038"><ele>1783.4</ele><time>2024-06-02T14:52:33Z</time></trkpt>
<trkpt lat="35.760642" lon="-118.041303"><ele>1779.0</ele><time>2024-06-02T14:53:11Z</time></trkpt>
<trkpt lat="35.760640" lon="-118.041183"><ele>1779.0</ele><time>2024-06-02T14:53:45Z</time></trkpt>
<trkpt lat="35.760846" lon="-118.040961"><ele>1779.2</ele><time>2024-06-02T14:54:00Z</time></trkpt>
<trkpt lat="35.761180" lon="-118.041607"><ele>1773.4</ele><time>2024-06-02T14:55:44Z</time></trkpt>
<trkpt lat="35.761372" lon="-118.041589"><ele>1772.8</ele><time>2024-06-02T14:55:55Z</time></trkpt>
<trkpt lat="35.761798" lon="-118.042584"><ele>1767.0</ele><time>2024-06-02T14:57:48Z</time></trkpt>
<trkpt lat="35.761741" lon="-118.043087"><ele>1761.8</ele><time>2024-06-02T14:58:29Z</time></trkpt>
<trkpt lat="35.761509" lon="-118.043408"><ele>1757.0</ele><time>2024-06-02T14:59:37Z</time></trkpt>
<trkpt lat="35.761558" lon="-118.043470"><ele>1755.2</ele><time>2024-06-02T14:59:47Z</time></trkpt>
<trkpt lat="35.761683" lon="-118.043302"><ele>1753.6</ele><time>2024-06-02T15:00:00Z</time></trkpt>
<trkpt lat="35.761916" lon="-118.043337"><ele>1749.4</ele><time>2024-06-02T15:00:45Z</time></trkpt>
<trkpt lat="35.761735" lon="-118.043588"><ele>1744.2</ele><time>2024-06-02T15:01:13Z</time></trkpt>
<trkpt lat="35.761510" lon="-118.043759"><ele>1738.6</ele><time>2024-06-02T15:01:47Z</time></trkpt>
<trkpt lat="35.761603" lon="-118.043807"><ele>1737.4</ele><time>2024-06-02T15:02:00Z</time></trkpt>
<trkpt lat="35.761362" lon="-118.044366"><ele>1735.4</ele><time>2024-06-02T15:03:57Z</time></trkpt>
<trkpt lat="35.761111" lon="-118.044693"><ele>1732.0</ele><time>2024-06-02T15:04:45Z</time></trkpt>
<trkpt lat="35.761165" lon="-118.044782"><ele>1729.2</ele><time>2024-06-02T15:05:27Z</time></trkpt>
<trkpt lat="35.761386" lon="-118.044684"><ele>1727.6</ele><time>2024-06-02T15:05:44Z</time></trkpt>
<trkpt lat="35.761388" lon="-118.044437"><ele>1727.0</ele><time>2024-06-02T15:06:13Z</time></trkpt>
<trkpt lat="35.761772" lon="-118.043954"><ele>1721.4</ele><time>2024-06-02T15:06:59Z</time></trkpt>
<trkpt lat="35.762073" lon="-118.043721"><ele>1716.8</ele><time>2024-06-02T15:07:31Z</time></trkpt>
<trkpt lat="35.762381" lon="-118.042806"><ele>1713.2</ele><time>2024-06-02T15:08:45Z</time></trkpt>
<trkpt lat="35.762459" lon="-118.042747"><ele>1708.6</ele><time>2024-06-02T15:09:09Z</time></trkpt>
<trkpt lat="35.762658" lon="-118.043001"><ele>1705.2</ele><time>2024-06-02T15:09:31Z</time></trkpt>
<trkpt lat="35.762699" lon="-118.042884"><ele>1702.8</ele><time>2024-06-02T15:09:45Z</time></trkpt>
<trkpt lat="35.762667" lon="-118.042847"><ele>1702.0</ele><time>2024-06-02T15:09:48Z</time></trkpt>
<trkpt lat="35.762868" lon="-118.042278"><ele>1695.6</ele><time>2024-06-02T15:10:29Z</time></trkpt>
<trkpt lat="35.762786" lon="-118.041945"><ele>1694.4</ele><time>2024-06-02T15:11:23Z</time></trkpt>
<trkpt lat="35.762575" lon="-118.041568"><ele>1696.4</ele><time>2024-06-02T15:11:56Z</time></trkpt>
<trkpt lat="35.762433" lon="-118.040746"><ele>1692.2</ele><time>2024-06-02T15:12:53Z</time></trkpt>
<trkpt lat="35.762467" lon="-118.040657"><ele>1690.8</ele><time>2024-06-02T15:13:01Z</time></trkpt>
<trkpt lat="35.762693" lon="-118.040403"><ele>1690.6</ele><time>2024-06-02T15:13:25Z</time></trkpt>
<trkpt lat="35.763039" lon="-118.040361"><ele>1684.6</ele><time>2024-06-02T15:14:11Z</time></trkpt>
<trkpt lat="35.763584" lon="-118.039928"><ele>1681.2</ele><time>2024-06-02T15:15:15Z</time></trkpt>
<trkpt lat="35.763789" lon="-118.039262"><ele>1679.6</ele><time>2024-06-02T15:15:56Z</time></trkpt>
<trkpt lat="35.764505" lon="-118.038368"><ele>1678.2</ele><time>2024-06-02T15:17:44Z</time></trkpt>
<trkpt lat="35.764484" lon="-118.038275"><ele>1675.8</ele><time>2024-06-02T15:17:56Z</time></trkpt>
<trkpt lat="35.764658" lon="-118.038023"><ele>1672.6</ele><time>2024-06-02T15:19:15Z</time></trkpt>
<trkpt lat="35.764831" lon="-118.037582"><ele>1670.0</ele><time>2024-06-02T15:19:44Z</time></trkpt>
<trkpt lat="35.764312" lon="-118.037659"><ele>1669.6</ele><time>2024-06-02T15:19:49Z</time></trkpt>
<trkpt lat="35.763735" lon="-118.037617"><ele>1665.4</ele><time>2024-06-02T15:20:40Z</time></trkpt>
<trkpt lat="35.763375" lon="-118.037442"><ele>1663.4</ele><time>2024-06-02T15:21:16Z</time></trkpt>
<trkpt lat="35.763421" lon="-118.037110"><ele>1658.8</ele><time>2024-06-02T15:21:38Z</time></trkpt>
<trkpt lat="35.763529" lon="-118.037053"><ele>1658.0</ele><time>2024-06-02T15:21:44Z</time></trkpt>
<trkpt lat="35.763439" lon="-118.037008"><ele>1657.8</ele><time>2024-06-02T15:21:47Z</time></trkpt>
<trkpt lat="35.763418" lon="-118.036920"><ele>1657.0</ele><time>2024-06-02T15:21:54Z</time></trkpt>
<trkpt lat="35.763513" lon="-118.036165"><ele>1650.6</ele><time>2024-06-02T15:22:42Z</time></trkpt>
<trkpt lat="35.763496" lon="-118.035889"><ele>1648.0</ele><time>2024-06-02T15:23:00Z</time></trkpt>
<trkpt lat="35.763436" lon="-118.035814"><ele>1645.8</ele><time>2024-06-02T15:23:14Z</time></trkpt>
<trkpt lat="35.763622" lon="-118.035427"><ele>1641.8</ele><time>2024-06-02T15:24:01Z</time></trkpt>
<trkpt lat="35.763697" lon="-118.035023"><ele>1638.2</ele><time>2024-06-02T15:25:41Z</time></trkpt>
<trkpt lat="35.763836" lon="-118.034659"><ele>1637.2</ele><time>2024-06-02T15:25:58Z</time></trkpt>
<trkpt lat="35.764044" lon="-118.034470"><ele>1634.8</ele><time>2024-06-02T15:26:26Z</time></trkpt>
<trkpt lat="35.764603" lon="-118.034228"><ele>1629.8</ele><time>2024-06-02T15:27:20Z</time></trkpt>
<trkpt lat="35.764971" lon="-118.033743"><ele>1626.6</ele><time>2024-06-02T15:27:51Z</time></trkpt>
<trkpt lat="35.765027" lon="-118.033747"><ele>1625.0</ele><time>2024-06-02T15:27:57Z</time></trkpt>
<trkpt lat="35.765009" lon="-118.033650"><ele>1624.4</ele><time>2024-06-02T15:28:02Z</time></trkpt>
<trkpt lat="35.764631" lon="-118.033370"><ele>1620.6</ele><time>2024-06-02T15:28:48Z</time></trkpt>
<trkpt lat="35.764493" lon="-118.033194"><ele>1620.0</ele><time>2024-06-02T15:29:04Z</time></trkpt>
<trkpt lat="35.764365" lon="-118.032794"><ele>1617.8</ele><time>2024-06-02T15:29:38Z</time></trkpt>
<trkpt lat="35.764736" lon="-118.032425"><ele>1613.0</ele><time>2024-06-02T15:30:28Z</time></trkpt>
<trkpt lat="35.765031" lon="-118.031840"><ele>1606.0</ele><time>2024-06-02T15:31:20Z</time></trkpt>
<trkpt lat="35.765525" lon="-118.031465"><ele>1599.8</ele><time>2024-06-02T15:32:02Z</time></trkpt>
<trkpt lat="35.764796" lon="-118.030531"><ele>1593.2</ele><time>2024-06-02T15:33:46Z</time></trkpt>
<trkpt lat="35.764650" lon="-118.030518"><ele>1593.2</ele><time>2024-06-02T15:33:59Z</time></trkpt>
<trkpt lat="35.764547" lon="-118.030284"><ele>1591.6</ele><time>2024-06-02T15:34:24Z</time></trkpt>
<trkpt lat="35.764860" lon="-118.030126"><ele>1590.8</ele><time>2024-06-02T15:35:22Z</time></trkpt>
<trkpt lat="35.765321" lon="-118.029575"><ele>1584.6</ele><time>2024-06-02T15:36:30Z</time></trkpt>
<trkpt lat="35.765518" lon="-118.029147"><ele>1580.2</ele><time>2024-06-02T15:37:02Z</time></trkpt>
<trkpt lat="35.765580" lon="-118.028592"><ele>1576.2</ele><time>2024-06-02T15:37:46Z</time></trkpt>
<trkpt lat="35.765691" lon="-118.028428"><ele>1576.2</ele><time>2024-06-02T15:37:48Z</time></trkpt>
<trkpt lat="35.765550" lon="-118.028286"><ele>1576.4</ele><time>2024-06-02T15:38:05Z</time></trkpt>
<trkpt lat="35.765643" lon="-118.027735"><ele>1572.6</ele><time>2024-06-02T15:38:28Z</time></trkpt>
<trkpt lat="35.765693" lon="-118.027724"><ele>1572.6</ele><time>2024-06-02T15:38:40Z</time></trkpt>
<trkpt lat="35.766445" lon="-118.028460"><ele>1565.0</ele><time>2024-06-02T15:39:58Z</time></trkpt>
<trkpt lat="35.766615" lon="-118.028490"><ele>1564.0</ele><time>2024-06-02T15:40:12Z</time></trkpt>
<trkpt lat="35.767146" lon="-118.028397"><ele>1566.8</ele><time>2024-06-02T15:41:47Z</time></trkpt>
<trkpt lat="35.767287" lon="-118.028271"><ele>1566.2</ele><time>2024-06-02T15:41:59Z</time></trkpt>
<trkpt lat="35.767314" lon="-118.028319"><ele>1565.4</ele><time>2024-06-02T15:42:04Z</time></trkpt>
<trkpt lat="35.767212" lon="-118.028518"><ele>1563.8</ele><time>2024-06-02T15:42:22Z</time></trkpt>
<trkpt lat="35.767286" lon="-118.028699"><ele>1563.0</ele><time>2024-06-02T15:42:36Z</time></trkpt>
<trkpt lat="35.767577" lon="-118.028834"><ele>1562.2</ele><time>2024-06-02T15:43:00Z</time></trkpt>
<trkpt lat="35.768042" lon="-118.029255"><ele>1559.2</ele><time>2024-06-02T15:43:45Z</time></trkpt>
<trkpt lat="35.768813" lon="-118.028175"><ele>1556.6</ele><time>2024-06-02T15:46:16Z</time></trkpt>
<trkpt lat="35.768959" lon="-118.028822"><ele>1558.6</ele><time>2024-06-02T15:47:14Z</time></trkpt>
<trkpt lat="35.768906" lon="-118.029050"><ele>1555.6</ele><time>2024-06-02T15:47:46Z</time></trkpt>
<trkpt lat="35.768790" lon="-118.029242"><ele>1555.4</ele><time>2024-06-02T15:47:57Z</time></trkpt>
<trkpt lat="35.768549" lon="-118.030240"><ele>1561.0</ele><time>2024-06-02T15:49:18Z</time></trkpt>
<trkpt lat="35.768634" lon="-118.031298"><ele>1560.2</ele><time>2024-06-02T15:50:26Z</time></trkpt>
<trkpt lat="35.768750" lon="-118.031406"><ele>1560.8</ele><time>2024-06-02T15:50:36Z</time></trkpt>
<trkpt lat="35.768948" lon="-118.031306"><ele>1562.2</ele><time>2024-06-02T15:51:14Z</time></trkpt>
<trkpt lat="35.769091" lon="-118.031348"><ele>1561.8</ele><time>2024-06-02T15:51:36Z</time></trkpt>
<trkpt lat="35.768963" lon="-118.031501"><ele>1563.2</ele><time>2024-06-02T15:51:53Z</time></trkpt>
<trkpt lat="35.768983" lon="-118.031616"><ele>1563.6</ele><time>2024-06-02T15:52:03Z</time></trkpt>
<trkpt lat="35.769318" lon="-118.031907"><ele>1561.0</ele><time>2024-06-02T15:52:41Z</time></trkpt>
<trkpt lat="35.769677" lon="-118.031312"><ele>1560.2</ele><time>2024-06-02T15:53:46Z</time></trkpt>
<trkpt lat="35.769791" lon="-118.031365"><ele>1559.6</ele><time>2024-06-02T15:53:52Z</time></trkpt>
<trkpt lat="35.770256" lon="-118.031061"><ele>1563.0</ele><time>2024-06-02T15:54:39Z</time></trkpt>
<trkpt lat="35.770723" lon="-118.030905"><ele>1567.4</ele><time>2024-06-02T15:55:49Z</time></trkpt>
<trkpt lat="35.770948" lon="-118.030656"><ele>1569.4</ele><time>2024-06-02T15:56:09Z</time></trkpt>
<trkpt lat="35.771295" lon="-118.030574"><ele>1571.4</ele><time>2024-06-02T15:56:49Z</time></trkpt>
<trkpt lat="35.771708" lon="-118.030150"><ele>1579.2</ele><time>2024-06-02T15:57:51Z</time></trkpt>
<trkpt lat="35.771777" lon="-118.030169"><ele>1579.4</ele><time>2024-06-02T15:57:55Z</time></trkpt>
<trkpt lat="35.771815" lon="-118.030319"><ele>1578.8</ele><time>2024-06-02T15:58:05Z</time></trkpt>
<trkpt lat="35.772139" lon="-118.030277"><ele>1580.2</ele><time>2024-06-02T15:58:47Z</time></trkpt>
<trkpt lat="35.772247" lon="-118.030337"><ele>1583.4</ele><time>2024-06-02T15:59:21Z</time></trkpt>
<trkpt lat="35.772539" lon="-118.030320"><ele>1585.0</ele><time>2024-06-02T15:59:48Z</time></trkpt>
<trkpt lat="35.772648" lon="-118.030123"><ele>1587.4</ele><time>2024-06-02T16:00:01Z</time></trkpt>
<trkpt lat="35.773364" lon="-118.029897"><ele>1599.0</ele><time>2024-06-02T16:01:23Z</time></trkpt>
<trkpt lat="35.773735" lon="-118.029603"><ele>1601.8</ele><time>2024-06-02T16:01:50Z</time></trkpt>
<trkpt lat="35.773737" lon="-118.029472"><ele>1602.0</ele><time>2024-06-02T16:01:58Z</time></trkpt>
<trkpt lat="35.773947" lon="-118.029433"><ele>1602.4</ele><time>2024-06-02T16:05:54Z</time></trkpt>
<trkpt lat="35.773908" lon="-118.029377"><ele>1602.2</ele><time>2024-06-02T16:06:06Z</time></trkpt>
<trkpt lat="35.773850" lon="-118.029823"><ele>1605.4</ele><time>2024-06-02T16:07:23Z</time></trkpt>
<trkpt lat="35.773714" lon="-118.030260"><ele>1607.6</ele><time>2024-06-02T16:07:49Z</time></trkpt>
<trkpt lat="35.773639" lon="-118.030317"><ele>1609.0</ele><time>2024-06-02T16:08:15Z</time></trkpt>
<trkpt lat="35.773554" lon="-118.030278"><ele>1607.6</ele><time>2024-06-02T16:09:46Z</time></trkpt>
<trkpt lat="35.773650" lon="-118.030303"><ele>1608.4</ele><time>2024-06-02T16:10:00Z</time></trkpt>
<trkpt lat="35.773657" lon="-118.030220"><ele>1605.8</ele><time>2024-06-02T16:11:58Z</time></trkpt>
<trkpt lat="35.773573" lon="-118.030473"><ele>1605.2</ele><time>2024-06-02T16:15:49Z</time></trkpt>
<trkpt lat="35.773652" lon="-118.030531"><ele>1605.6</ele><time>2024-06-02T16:15:57Z</time></trkpt>
<trkpt lat="35.773814" lon="-118.030527"><ele>1608.2</ele><time>2024-06-02T16:16:15Z</time></trkpt>
<trkpt lat="35.774363" lon="-118.030172"><ele>1620.0</ele><time>2024-06-02T16:17:33Z</time></trkpt>
<trkpt lat="35.774938" lon="-118.029697"><ele>1635.8</ele><time>2024-06-02T16:19:17Z</time></trkpt>
<trkpt lat="35.775267" lon="-118.029682"><ele>1641.2</ele><time>2024-06-02T16:19:46Z</time></trkpt>
<trkpt lat="35.775666" lon="-118.029902"><ele>1649.6</ele><time>2024-06-02T16:21:53Z</time></trkpt>
<trkpt lat="35.775655" lon="-118.029824"><ele>1649.6</ele><time>2024-06-02T16:21:55Z</time></trkpt>
<trkpt lat="35.775736" lon="-118.029805"><ele>1649.6</ele><time>2024-06-02T16:23:48Z</time></trkpt>
<trkpt lat="35.775718" lon="-118.029847"><ele>1649.8</ele><time>2024-06-02T16:23:55Z</time></trkpt>
<trkpt lat="35.775760" lon="-118.029781"><ele>1650.6</ele><time>2024-06-02T16:25:54Z</time></trkpt>
<trkpt lat="35.775748" lon="-118.029876"><ele>1650.6</ele><time>2024-06-02T16:25:55Z</time></trkpt>
<trkpt lat="35.775578" lon="-118.029690"><ele>1650.8</ele><time>2024-06-02T16:27:52Z</time></trkpt>
<trkpt lat="35.775593" lon="-118.029762"><ele>1651.0</ele><time>2024-06-02T16:27:56Z</time></trkpt>
<trkpt lat="35.775631" lon="-118.029673"><ele>1650.8</ele><time>2024-06-02T16:28:02Z</time></trkpt>
<trkpt lat="35.775584" lon="-118.029594"><ele>1650.8</ele><time>2024-06-02T16:28:06Z</time></trkpt>
<trkpt lat="35.775707" lon="-118.029851"><ele>1651.0</ele><time>2024-06-02T16:30:03Z</time></trkpt>
<trkpt lat="35.775740" lon="-118.029772"><ele>1650.2</ele><time>2024-06-02T16:30:47Z</time></trkpt>
<trkpt lat="35.775690" lon="-118.029891"><ele>1650.6</ele><time>2024-06-02T16:31:55Z</time></trkpt>
<trkpt lat="35.775856" lon="-118.029789"><ele>1650.8</ele><time>2024-06-02T16:33:47Z</time></trkpt>
<trkpt lat="35.775783" lon="-118.029861"><ele>1650.8</ele><time>2024-06-02T16:33:59Z</time></trkpt>
<trkpt lat="35.775763" lon="-118.029811"><ele>1651.2</ele><time>2024-06-02T16:35:47Z</time></trkpt>
<trkpt lat="35.775742" lon="-118.029891"><ele>1651.0</ele><time>2024-06-02T16:35:55Z</time></trkpt>
<trkpt lat="35.775785" lon="-118.029724"><ele>1652.0</ele><time>2024-06-02T16:37:35Z</time></trkpt>
<trkpt lat="35.775797" lon="-118.029771"><ele>1652.0</ele><time>2024-06-02T16:37:53Z</time></trkpt>
<trkpt lat="35.775791" lon="-118.029580"><ele>1652.0</ele><time>2024-06-02T16:37:54Z</time></trkpt>
<trkpt lat="35.775775" lon="-118.029809"><ele>1652.2</ele><time>2024-06-02T16:37:58Z</time></trkpt>
<trkpt lat="35.775706" lon="-118.029904"><ele>1652.2</ele><time>2024-06-02T16:38:01Z</time></trkpt>
<trkpt lat="35.775831" lon="-118.029742"><ele>1653.2</ele><time>2024-06-02T16:39:50Z</time></trkpt>
<trkpt lat="35.775697" lon="-118.029849"><ele>1653.0</ele><time>2024-06-02T16:39:58Z</time></trkpt>
<trkpt lat="35.775789" lon="-118.029710"><ele>1654.4</ele><time>2024-06-02T16:41:54Z</time></trkpt>
<trkpt lat="35.775719" lon="-118.029843"><ele>1654.6</ele><time>2024-06-02T16:42:00Z</time></trkpt>
<trkpt lat="35.775770" lon="-118.029816"><ele>1658.6</ele><time>2024-06-02T16:43:22Z</time></trkpt>
<trkpt lat="35.775734" lon="-118.029861"><ele>1660.0</ele><time>2024-06-02T16:44:00Z</time></trkpt>
<trkpt lat="35.775952" lon="-118.029847"><ele>1664.2</ele><time>2024-06-02T16:45:46Z</time></trkpt>
<trkpt lat="35.775968" lon="-118.030037"><ele>1665.0</ele><time>2024-06-02T16:46:05Z</time></trkpt>
<trkpt lat="35.776198" lon="-118.030345"><ele>1665.4</ele><time>2024-06-02T16:46:30Z</time></trkpt>
<trkpt lat="35.776200" lon="-118.030534"><ele>1671.6</ele><time>2024-06-02T16:47:08Z</time></trkpt>
<trkpt lat="35.776393" lon="-118.030838"><ele>1676.8</ele><time>2024-06-02T16:47:47Z</time></trkpt>
<trkpt lat="35.776413" lon="-118.030791"><ele>1676.6</ele><time>2024-06-02T16:47:51Z</time></trkpt>
<trkpt lat="35.776330" lon="-118.030590"><ele>1677.4</ele><time>2024-06-02T16:48:07Z</time></trkpt>
<trkpt lat="35.776172" lon="-118.029356"><ele>1686.6</ele><time>2024-06-02T16:49:49Z</time></trkpt>
<trkpt lat="35.776096" lon="-118.029227"><ele>1687.4</ele><time>2024-06-02T16:50:00Z</time></trkpt>
<trkpt lat="35.776370" lon="-118.028568"><ele>1694.8</ele><time>2024-06-02T16:50:56Z</time></trkpt>
<trkpt lat="35.776704" lon="-118.027946"><ele>1699.2</ele><time>2024-06-02T16:51:49Z</time></trkpt>
<trkpt lat="35.776785" lon="-118.027961"><ele>1700.0</ele><time>2024-06-02T16:51:56Z</time></trkpt>
<trkpt lat="35.776780" lon="-118.027800"><ele>1701.2</ele><time>2024-06-02T16:52:05Z</time></trkpt>
<trkpt lat="35.776400" lon="-118.027679"><ele>1704.2</ele><time>2024-06-02T16:53:04Z</time></trkpt>
<trkpt lat="35.776041" lon="-118.027848"><ele>1706.6</ele><time>2024-06-02T16:53:47Z</time></trkpt>
<trkpt lat="35.776362" lon="-118.027336"><ele>1706.6</ele><time>2024-06-02T16:53:49Z</time></trkpt>
<trkpt lat="35.776352" lon="-118.027248"><ele>1707.0</ele><time>2024-06-02T16:53:52Z</time></trkpt>
<trkpt lat="35.776179" lon="-118.027097"><ele>1708.0</ele><time>2024-06-02T16:54:04Z</time></trkpt>
<trkpt lat="35.775983" lon="-118.026543"><ele>1709.8</ele><time>2024-06-02T16:54:22Z</time></trkpt>
<trkpt lat="35.776139" lon="-118.026228"><ele>1715.2</ele><time>2024-06-02T16:55:06Z</time></trkpt>
<trkpt lat="35.776117" lon="-118.025947"><ele>1721.0</ele><time>2024-06-02T16:55:50Z</time></trkpt>
<trkpt lat="35.776005" lon="-118.025743"><ele>1723.0</ele><time>2024-06-02T16:56:20Z</time></trkpt>
<trkpt lat="35.776045" lon="-118.025663"><ele>1726.0</ele><time>2024-06-02T16:56:52Z</time></trkpt>
<trkpt lat="35.775650" lon="-118.025204"><ele>1725.8</ele><time>2024-06-02T16:57:55Z</time></trkpt>
<trkpt lat="35.775618" lon="-118.025479"><ele>1726.2</ele><time>2024-06-02T16:57:59Z</time></trkpt>
<trkpt lat="35.775153" lon="-118.026172"><ele>1728.8</ele><time>2024-06-02T16:58:44Z</time></trkpt>
<trkpt lat="35.775046" lon="-118.025893"><ele>1729.0</ele><time>2024-06-02T16:58:45Z</time></trkpt>
<trkpt lat="35.774835" lon="-118.025908"><ele>1731.0</ele><time>2024-06-02T16:59:07Z</time></trkpt>
<trkpt lat="35.773639" lon="-118.026579"><ele>1738.0</ele><time>2024-06-02T17:00:59Z</time></trkpt>
<trkpt lat="35.773375" lon="-118.026387"><ele>1740.0</ele><time>2024-06-02T17:01:26Z</time></trkpt>
<trkpt lat="35.772767" lon="-118.025724"><ele>1749.0</ele><time>2024-06-02T17:02:54Z</time></trkpt>
<trkpt lat="35.772802" lon="-118.025624"><ele>1749.0</ele><time>2024-06-02T17:02:57Z</time></trkpt>
<trkpt lat="35.772763" lon="-118.025511"><ele>1749.8</ele><time>2024-06-02T17:03:06Z</time></trkpt>
<trkpt lat="35.772345" lon="-118.024885"><ele>1761.4</ele><time>2024-06-02T17:04:32Z</time></trkpt>
<trkpt lat="35.772239" lon="-118.024555"><ele>1762.8</ele><time>2024-06-02T17:04:50Z</time></trkpt>
<trkpt lat="35.772963" lon="-118.024695"><ele>1763.2</ele><time>2024-06-02T17:04:51Z</time></trkpt>
<trkpt lat="35.772867" lon="-118.023971"><ele>1763.8</ele><time>2024-06-02T17:04:54Z</time></trkpt>
<trkpt lat="35.772932" lon="-118.023894"><ele>1765.0</ele><time>2024-06-02T17:05:02Z</time></trkpt>
<trkpt lat="35.772957" lon="-118.023955"><ele>1765.4</ele><time>2024-06-02T17:05:05Z</time></trkpt>
<trkpt lat="35.772937" lon="-118.023890"><ele>1765.6</ele><time>2024-06-02T17:05:20Z</time></trkpt>
<trkpt lat="35.773095" lon="-118.023487"><ele>1769.2</ele><time>2024-06-02T17:06:30Z</time></trkpt>
<trkpt lat="35.773262" lon="-118.022540"><ele>1777.8</ele><time>2024-06-02T17:07:28Z</time></trkpt>
<trkpt lat="35.773435" lon="-118.022112"><ele>1783.2</ele><time>2024-06-02T17:08:40Z</time></trkpt>
<trkpt lat="35.773362" lon="-118.021150"><ele>1789.0</ele><time>2024-06-02T17:09:46Z</time></trkpt>
<trkpt lat="35.773057" lon="-118.020536"><ele>1795.4</ele><time>2024-06-02T17:10:47Z</time></trkpt>
<trkpt lat="35.773148" lon="-118.020267"><ele>1797.8</ele><time>2024-06-02T17:11:04Z</time></trkpt>
<trkpt lat="35.773064" lon="-118.020052"><ele>1806.6</ele><time>2024-06-02T17:12:08Z</time></trkpt>
<trkpt lat="35.772946" lon="-118.019688"><ele>1809.4</ele><time>2024-06-02T17:13:03Z</time></trkpt>
<trkpt lat="35.771894" lon="-118.019421"><ele>1813.6</ele><time>2024-06-02T17:14:48Z</time></trkpt>
<trkpt lat="35.771747" lon="-118.019467"><ele>1816.0</ele><time>2024-06-02T17:15:06Z</time></trkpt>
<trkpt lat="35.771653" lon="-118.019246"><ele>1819.2</ele><time>2024-06-02T17:15:24Z</time></trkpt>
<trkpt lat="35.771553" lon="-118.018598"><ele>1830.4</ele><time>2024-06-02T17:16:47Z</time></trkpt>
<trkpt lat="35.771507" lon="-118.018577"><ele>1830.4</ele><time>2024-06-02T17:16:48Z</time></trkpt>
<trkpt lat="35.771584" lon="-118.018438"><ele>1832.4</ele><time>2024-06-02T17:17:02Z</time></trkpt>
<trkpt lat="35.772701" lon="-118.017742"><ele>1847.2</ele><time>2024-06-02T17:19:07Z</time></trkpt>
<trkpt lat="35.772899" lon="-118.017340"><ele>1847.8</ele><time>2024-06-02T17:19:32Z</time></trkpt>
<trkpt lat="35.772977" lon="-118.016697"><ele>1849.0</ele><time>2024-06-02T17:20:28Z</time></trkpt>
<trkpt lat="35.773128" lon="-118.016422"><ele>1851.6</ele><time>2024-06-02T17:20:49Z</time></trkpt>
<trkpt lat="35.773304" lon="-118.016347"><ele>1853.8</ele><time>2024-06-02T17:21:05Z</time></trkpt>
<trkpt lat="35.773459" lon="-118.016148"><ele>1855.0</ele><time>2024-06-02T17:21:17Z</time></trkpt>
<trkpt lat="35.774039" lon="-118.015173"><ele>1858.4</ele><time>2024-06-02T17:23:05Z</time></trkpt>
<trkpt lat="35.773515" lon="-118.015088"><ele>1866.6</ele><time>2024-06-02T17:24:19Z</time></trkpt>
<trkpt lat="35.773239" lon="-118.014982"><ele>1866.4</ele><time>2024-06-02T17:24:50Z</time></trkpt>
<trkpt lat="35.773322" lon="-118.015072"><ele>1866.6</ele><time>2024-06-02T17:24:52Z</time></trkpt>
<trkpt lat="35.773410" lon="-118.014857"><ele>1867.0</ele><time>2024-06-02T17:24:54Z</time></trkpt>
<trkpt lat="35.773538" lon="-118.014745"><ele>1867.4</ele><time>2024-06-02T17:24:57Z</time></trkpt>
<trkpt lat="35.773479" lon="-118.014713"><ele>1867.6</ele><time>2024-06-02T17:25:04Z</time></trkpt>
<trkpt lat="35.772802" lon="-118.014787"><ele>1867.8</ele><time>2024-06-02T17:25:17Z</time></trkpt>
<trkpt lat="35.772488" lon="-118.014254"><ele>1879.2</ele><time>2024-06-02T17:26:49Z</time></trkpt>
<trkpt lat="35.772560" lon="-118.014067"><ele>1880.2</ele><time>2024-06-02T17:26:56Z</time></trkpt>
<trkpt lat="35.772466" lon="-118.014043"><ele>1881.4</ele><time>2024-06-02T17:27:08Z</time></trkpt>
<trkpt lat="35.772338" lon="-118.013438"><ele>1888.4</ele><time>2024-06-02T17:28:49Z</time></trkpt>
<trkpt lat="35.772289" lon="-118.013634"><ele>1888.4</ele><time>2024-06-02T17:28:50Z</time></trkpt>
<trkpt lat="35.772334" lon="-118.013368"><ele>1888.6</ele><time>2024-06-02T17:28:53Z</time></trkpt>
<trkpt lat="35.772247" lon="-118.013618"><ele>1888.4</ele><time>2024-06-02T17:29:02Z</time></trkpt>
<trkpt lat="35.772228" lon="-118.013573"><ele>1888.4</ele><time>2024-06-02T17:29:06Z</time></trkpt>
<trkpt lat="35.772469" lon="-118.013785"><ele>1896.4</ele><time>2024-06-02T17:30:51Z</time></trkpt>
<trkpt lat="35.772536" lon="-118.013669"><ele>1896.0</ele><time>2024-06-02T17:32:55Z</time></trkpt>
<trkpt lat="35.772504" lon="-118.013807"><ele>1896.0</ele><time>2024-06-02T17:34:50Z</time></trkpt>
<trkpt lat="35.772513" lon="-118.013725"><ele>1896.0</ele><time>2024-06-02T17:34:59Z</time></trkpt>
<trkpt lat="35.772570" lon="-118.013709"><ele>1895.0</ele><time>2024-06-02T17:36:31Z</time></trkpt>
<trkpt lat="35.772526" lon="-118.013739"><ele>1895.2</ele><time>2024-06-02T17:37:00Z</time></trkpt>
<trkpt lat="35.772907" lon="-118.013899"><ele>1901.4</ele><time>2024-06-02T17:38:23Z</time></trkpt>
<trkpt lat="35.773283" lon="-118.013942"><ele>1906.6</ele><time>2024-06-02T17:39:04Z</time></trkpt>
<trkpt lat="35.773831" lon="-118.013906"><ele>1918.8</ele><time>2024-06-02T17:40:27Z</time></trkpt>
<trkpt lat="35.774105" lon="-118.013825"><ele>1922.4</ele><time>2024-06-02T17:40:48Z</time></trkpt>
<trkpt lat="35.773911" lon="-118.013838"><ele>1924.6</ele><time>2024-06-02T17:41:02Z</time></trkpt>
<trkpt lat="35.773405" lon="-118.013488"><ele>1938.4</ele><time>2024-06-02T17:42:49Z</time></trkpt>
<trkpt lat="35.773451" lon="-118.013361"><ele>1939.6</ele><time>2024-06-02T17:42:58Z</time></trkpt>
<trkpt lat="35.773945" lon="-118.013513"><ele>1941.2</ele><time>2024-06-02T17:43:49Z</time></trkpt>
<trkpt lat="35.774357" lon="-118.013749"><ele>1941.6</ele><time>2024-06-02T17:44:48Z</time></trkpt>
<trkpt lat="35.774469" lon="-118.013720"><ele>1940.8</ele><time>2024-06-02T17:45:05Z</time></trkpt>
<trkpt lat="35.775121" lon="-118.014347"><ele>1949.0</ele><time>2024-06-02T17:46:50Z</time></trkpt>
<trkpt lat="35.775181" lon="-118.014295"><ele>1949.2</ele><time>2024-06-02T17:46:51Z</time></trkpt>
<trkpt lat="35.775304" lon="-118.014379"><ele>1951.2</ele><time>2024-06-02T17:47:11Z</time></trkpt>
<trkpt lat="35.775462" lon="-118.014936"><ele>1956.4</ele><time>2024-06-02T17:48:21Z</time></trkpt>
<trkpt lat="35.775388" lon="-118.015171"><ele>1955.6</ele><time>2024-06-02T17:48:49Z</time></trkpt>
<trkpt lat="35.775560" lon="-118.015143"><ele>1956.0</ele><time>2024-06-02T17:48:58Z</time></trkpt>
<trkpt lat="35.775328" lon="-118.015851"><ele>1966.2</ele><time>2024-06-02T17:50:21Z</time></trkpt>
<trkpt lat="35.775077" lon="-118.016238"><ele>1967.2</ele><time>2024-06-02T17:51:17Z</time></trkpt>
<trkpt lat="35.774848" lon="-118.016733"><ele>1962.4</ele><time>2024-06-02T17:52:01Z</time></trkpt>
<trkpt lat="35.774718" lon="-118.016860"><ele>1962.6</ele><time>2024-06-02T17:52:29Z</time></trkpt>
<trkpt lat="35.774546" lon="-118.016906"><ele>1962.0</ele><time>2024-06-02T17:52:49Z</time></trkpt>
<trkpt lat="35.774679" lon="-118.016878"><ele>1962.0</ele><time>2024-06-02T17:52:52Z</time></trkpt>
<trkpt lat="35.774738" lon="-118.016947"><ele>1962.0</ele><time>2024-06-02T17:52:54Z</time></trkpt>
<trkpt lat="35.774679" lon="-118.017038"><ele>1963.2</ele><time>2024-06-02T17:53:05Z</time></trkpt>
<trkpt lat="35.774581" lon="-118.017656"><ele>1965.6</ele><time>2024-06-02T17:54:15Z</time></trkpt>
<trkpt lat="35.774723" lon="-118.017802"><ele>1966.8</ele><time>2024-06-02T17:54:53Z</time></trkpt>
<trkpt lat="35.774912" lon="-118.017836"><ele>1969.6</ele><time>2024-06-02T17:55:11Z</time></trkpt>
<trkpt lat="35.774945" lon="-118.017867"><ele>1975.0</ele><time>2024-06-02T17:55:39Z</time></trkpt>
<trkpt lat="35.775123" lon="-118.018052"><ele>1977.4</ele><time>2024-06-02T17:56:47Z</time></trkpt>
<trkpt lat="35.775050" lon="-118.018263"><ele>1977.4</ele><time>2024-06-02T17:56:56Z</time></trkpt>
<trkpt lat="35.775253" lon="-118.018025"><ele>1977.4</ele><time>2024-06-02T17:56:57Z</time></trkpt>
<trkpt lat="35.775224" lon="-118.018102"><ele>1977.6</ele><time>2024-06-02T17:56:59Z</time></trkpt>
<trkpt lat="35.775383" lon="-118.018073"><ele>1978.4</ele><time>2024-06-02T17:57:08Z</time></trkpt>
<trkpt lat="35.775642" lon="-118.018412"><ele>1983.8</ele><time>2024-06-02T17:57:51Z</time></trkpt>
<trkpt lat="35.775752" lon="-118.018888"><ele>1987.4</ele><time>2024-06-02T17:58:41Z</time></trkpt>
<trkpt lat="35.775717" lon="-118.019059"><ele>1988.0</ele><time>2024-06-02T17:58:52Z</time></trkpt>
<trkpt lat="35.775904" lon="-118.018915"><ele>1988.4</ele><time>2024-06-02T17:58:56Z</time></trkpt>
<trkpt lat="35.775863" lon="-118.019066"><ele>1988.2</ele><time>2024-06-02T17:59:05Z</time></trkpt>
<trkpt lat="35.775937" lon="-118.019629"><ele>1989.0</ele><time>2024-06-02T17:59:21Z</time></trkpt>
<trkpt lat="35.776200" lon="-118.019992"><ele>1999.0</ele><time>2024-06-02T18:00:48Z</time></trkpt>
<trkpt lat="35.776245" lon="-118.019728"><ele>2002.0</ele><time>2024-06-02T18:01:08Z</time></trkpt>
<trkpt lat="35.776353" lon="-118.019704"><ele>2006.8</ele><time>2024-06-02T18:01:45Z</time></trkpt>
<trkpt lat="35.776659" lon="-118.019772"><ele>2007.8</ele><time>2024-06-02T18:02:47Z</time></trkpt>
<trkpt lat="35.776670" lon="-118.019823"><ele>2008.0</ele><time>2024-06-02T18:02:48Z</time></trkpt>
<trkpt lat="35.776759" lon="-118.019707"><ele>2008.0</ele><time>2024-06-02T18:02:58Z</time></trkpt>
<trkpt lat="35.777108" lon="-118.019664"><ele>2004.8</ele><time>2024-06-02T18:03:17Z</time></trkpt>
<trkpt lat="35.777763" lon="-118.019333"><ele>2010.6</ele><time>2024-06-02T18:04:49Z</time></trkpt>
<trkpt lat="35.777704" lon="-118.019181"><ele>2011.6</ele><time>2024-06-02T18:04:54Z</time></trkpt>
<trkpt lat="35.777807" lon="-118.019059"><ele>2013.0</ele><time>2024-06-02T18:05:07Z</time></trkpt>
<trkpt lat="35.778150" lon="-118.019143"><ele>2016.0</ele><time>2024-06-02T18:06:01Z</time></trkpt>
<trkpt lat="35.778453" lon="-118.019367"><ele>2016.8</ele><time>2024-06-02T18:06:45Z</time></trkpt>
<trkpt lat="35.778575" lon="-118.019387"><ele>2017.0</ele><time>2024-06-02T18:06:48Z</time></trkpt>
<trkpt lat="35.778556" lon="-118.019434"><ele>2017.0</ele><time>2024-06-02T18:06:50Z</time></trkpt>
<trkpt lat="35.778663" lon="-118.019570"><ele>2017.6</ele><time>2024-06-02T18:07:07Z</time></trkpt>
<trkpt lat="35.779011" lon="-118.019678"><ele>2020.2</ele><time>2024-06-02T18:07:41Z</time></trkpt>
<trkpt lat="35.779433" lon="-118.019993"><ele>2025.2</ele><time>2024-06-02T18:08:54Z</time></trkpt>
<trkpt lat="35.779741" lon="-118.020569"><ele>2028.2</ele><time>2024-06-02T18:09:39Z</time></trkpt>
<trkpt lat="35.779796" lon="-118.020988"><ele>2033.4</ele><time>2024-06-02T18:10:48Z</time></trkpt>
<trkpt lat="35.779872" lon="-118.020905"><ele>2033.4</ele><time>2024-06-02T18:10:57Z</time></trkpt>
<trkpt lat="35.779783" lon="-118.020882"><ele>2039.4</ele><time>2024-06-02T18:12:08Z</time></trkpt>
<trkpt lat="35.779979" lon="-118.020928"><ele>2040.8</ele><time>2024-06-02T18:12:48Z</time></trkpt>
<trkpt lat="35.780389" lon="-118.021375"><ele>2037.2</ele><time>2024-06-02T18:13:28Z</time></trkpt>
<trkpt lat="35.780591" lon="-118.021483"><ele>2040.4</ele><time>2024-06-02T18:14:16Z</time></trkpt>
<trkpt lat="35.780944" lon="-118.022006"><ele>2045.4</ele><time>2024-06-02T18:15:08Z</time></trkpt>
<trkpt lat="35.781925" lon="-118.022391"><ele>2057.0</ele><time>2024-06-02T18:16:49Z</time></trkpt>
<trkpt lat="35.782020" lon="-118.022360"><ele>2057.8</ele><time>2024-06-02T18:16:54Z</time></trkpt>
<trkpt lat="35.782163" lon="-118.022159"><ele>2060.4</ele><time>2024-06-02T18:17:14Z</time></trkpt>
<trkpt lat="35.782066" lon="-118.021647"><ele>2057.2</ele><time>2024-06-02T18:20:08Z</time></trkpt>
<trkpt lat="35.782175" lon="-118.021050"><ele>2054.2</ele><time>2024-06-02T18:20:49Z</time></trkpt>
<trkpt lat="35.782276" lon="-118.019936"><ele>2059.6</ele><time>2024-06-02T18:22:18Z</time></trkpt>
<trkpt lat="35.782408" lon="-118.019469"><ele>2057.2</ele><time>2024-06-02T18:22:49Z</time></trkpt>
<trkpt lat="35.782492" lon="-118.019440"><ele>2057.6</ele><time>2024-06-02T18:22:53Z</time></trkpt>
<trkpt lat="35.782531" lon="-118.019332"><ele>2057.6</ele><time>2024-06-02T18:23:02Z</time></trkpt>
<trkpt lat="35.782552" lon="-118.018963"><ele>2058.6</ele><time>2024-06-02T18:23:24Z</time></trkpt>
<trkpt lat="35.782497" lon="-118.018664"><ele>2060.8</ele><time>2024-06-02T18:23:46Z</time></trkpt>
<trkpt lat="35.782575" lon="-118.017903"><ele>2062.6</ele><time>2024-06-02T18:24:51Z</time></trkpt>
<trkpt lat="35.782461" lon="-118.017119"><ele>2067.4</ele><time>2024-06-02T18:25:48Z</time></trkpt>
<trkpt lat="35.782215" lon="-118.016466"><ele>2069.6</ele><time>2024-06-02T18:26:53Z</time></trkpt>
<trkpt lat="35.782282" lon="-118.016369"><ele>2070.0</ele><time>2024-06-02T18:26:55Z</time></trkpt>
<trkpt lat="35.782135" lon="-118.015096"><ele>2080.4</ele><time>2024-06-02T18:28:51Z</time></trkpt>
<trkpt lat="35.781890" lon="-118.014574"><ele>2084.2</ele><time>2024-06-02T18:29:36Z</time></trkpt>
<trkpt lat="35.781790" lon="-118.013889"><ele>2086.0</ele><time>2024-06-02T18:30:50Z</time></trkpt>
<trkpt lat="35.781252" lon="-118.013265"><ele>2090.4</ele><time>2024-06-02T18:32:10Z</time></trkpt>
<trkpt lat="35.780851" lon="-118.012955"><ele>2092.0</ele><time>2024-06-02T18:32:51Z</time></trkpt>
<trkpt lat="35.780735" lon="-118.012971"><ele>2093.8</ele><time>2024-06-02T18:33:05Z</time></trkpt>
<trkpt lat="35.780419" lon="-118.012690"><ele>2097.4</ele><time>2024-06-02T18:33:42Z</time></trkpt>
<trkpt lat="35.780062" lon="-118.012185"><ele>2102.0</ele><time>2024-06-02T18:34:52Z</time></trkpt>
<trkpt lat="35.780017" lon="-118.012023"><ele>2103.2</ele><time>2024-06-02T18:35:07Z</time></trkpt>
<trkpt lat="35.780131" lon="-118.011413"><ele>2106.2</ele><time>2024-06-02T18:35:54Z</time></trkpt>
<trkpt lat="35.780367" lon="-118.010930"><ele>2108.8</ele><time>2024-06-02T18:36:52Z</time></trkpt>
<trkpt lat="35.780478" lon="-118.010939"><ele>2108.4</ele><time>2024-06-02T18:36:57Z</time></trkpt>
<trkpt lat="35.780675" lon="-118.010453"><ele>2111.2</ele><time>2024-06-02T18:38:12Z</time></trkpt>
<trkpt lat="35.780888" lon="-118.010102"><ele>2110.2</ele><time>2024-06-02T18:38:42Z</time></trkpt>
<trkpt lat="35.780879" lon="-118.009938"><ele>2109.2</ele><time>2024-06-02T18:38:50Z</time></trkpt>
<trkpt lat="35.780799" lon="-118.009930"><ele>2108.8</ele><time>2024-06-02T18:38:56Z</time></trkpt>
<trkpt lat="35.780836" lon="-118.009982"><ele>2108.4</ele><time>2024-06-02T18:39:00Z</time></trkpt>
<trkpt lat="35.780563" lon="-118.008883"><ele>2109.6</ele><time>2024-06-02T18:40:30Z</time></trkpt>
<trkpt lat="35.780463" lon="-118.008630"><ele>2112.4</ele><time>2024-06-02T18:40:49Z</time></trkpt>
<trkpt lat="35.780364" lon="-118.008570"><ele>2112.8</ele><time>2024-06-02T18:40:57Z</time></trkpt>
<trkpt lat="35.780320" lon="-118.008609"><ele>2113.0</ele><time>2024-06-02T18:41:00Z</time></trkpt>
<trkpt lat="35.780302" lon="-118.008511"><ele>2113.8</ele><time>2024-06-02T18:41:08Z</time></trkpt>
<trkpt lat="35.780437" lon="-118.007711"><ele>2115.6</ele><time>2024-06-02T18:42:18Z</time></trkpt>
<trkpt lat="35.780574" lon="-118.007350"><ele>2118.2</ele><time>2024-06-02T18:42:50Z</time></trkpt>
<trkpt lat="35.780523" lon="-118.007247"><ele>2118.2</ele><time>2024-06-02T18:42:54Z</time></trkpt>
<trkpt lat="35.780587" lon="-118.007330"><ele>2118.4</ele><time>2024-06-02T18:43:00Z</time></trkpt>
<trkpt lat="35.780426" lon="-118.006236"><ele>2130.6</ele><time>2024-06-02T18:44:52Z</time></trkpt>
<trkpt lat="35.780366" lon="-118.006176"><ele>2131.0</ele><time>2024-06-02T18:44:55Z</time></trkpt>
<trkpt lat="35.780471" lon="-118.005945"><ele>2132.2</ele><time>2024-06-02T18:45:09Z</time></trkpt>
<trkpt lat="35.780524" lon="-118.005173"><ele>2135.6</ele><time>2024-06-02T18:45:54Z</time></trkpt>
<trkpt lat="35.780440" lon="-118.004723"><ele>2136.8</ele><time>2024-06-02T18:46:38Z</time></trkpt>
<trkpt lat="35.780442" lon="-118.004227"><ele>2137.2</ele><time>2024-06-02T18:47:02Z</time></trkpt>
<trkpt lat="35.780899" lon="-118.003219"><ele>2136.2</ele><time>2024-06-02T18:48:50Z</time></trkpt>
<trkpt lat="35.780850" lon="-118.002976"><ele>2137.2</ele><time>2024-06-02T18:49:06Z</time></trkpt>
<trkpt lat="35.780918" lon="-118.002712"><ele>2138.2</ele><time>2024-06-02T18:49:19Z</time></trkpt>
<trkpt lat="35.781134" lon="-118.002156"><ele>2140.8</ele><time>2024-06-02T18:50:52Z</time></trkpt>
<trkpt lat="35.781200" lon="-118.002253"><ele>2141.2</ele><time>2024-06-02T18:53:03Z</time></trkpt>
<trkpt lat="35.781154" lon="-118.002292"><ele>2141.0</ele><time>2024-06-02T18:54:56Z</time></trkpt>
<trkpt lat="35.781150" lon="-118.002168"><ele>2142.8</ele><time>2024-06-02T18:58:49Z</time></trkpt>
<trkpt lat="35.781179" lon="-118.002262"><ele>2142.6</ele><time>2024-06-02T18:59:03Z</time></trkpt>
<trkpt lat="35.781087" lon="-118.002182"><ele>2143.0</ele><time>2024-06-02T19:00:39Z</time></trkpt>
<trkpt lat="35.781213" lon="-118.002273"><ele>2142.8</ele><time>2024-06-02T19:01:01Z</time></trkpt>
<trkpt lat="35.781076" lon="-118.002004"><ele>2143.8</ele><time>2024-06-02T19:04:51Z</time></trkpt>
<trkpt lat="35.781174" lon="-118.002142"><ele>2143.4</ele><time>2024-06-02T19:05:06Z</time></trkpt>
<trkpt lat="35.781126" lon="-118.002090"><ele>2143.4</ele><time>2024-06-02T19:05:09Z</time></trkpt>
<trkpt lat="35.781173" lon="-118.002169"><ele>2143.4</ele><time>2024-06-02T19:05:10Z</time></trkpt>
<trkpt lat="35.781124" lon="-118.002110"><ele>2143.4</ele><time>2024-06-02T19:05:17Z</time></trkpt>
<trkpt lat="35.781164" lon="-118.002181"><ele>2144.2</ele><time>2024-06-02T19:06:52Z</time></trkpt>
<trkpt lat="35.781109" lon="-118.002179"><ele>2144.2</ele><time>2024-06-02T19:06:57Z</time></trkpt>
<trkpt lat="35.781099" lon="-118.002264"><ele>2144.0</ele><time>2024-06-02T19:07:09Z</time></trkpt>
<trkpt lat="35.781118" lon="-118.002186"><ele>2144.2</ele><time>2024-06-02T19:08:56Z</time></trkpt>
<trkpt lat="35.781127" lon="-118.002266"><ele>2144.0</ele><time>2024-06-02T19:09:01Z</time></trkpt>
<trkpt lat="35.781260" lon="-118.002268"><ele>2148.2</ele><time>2024-06-02T19:18:39Z</time></trkpt>
<trkpt lat="35.781126" lon="-118.002234"><ele>2149.6</ele><time>2024-06-02T19:20:57Z</time></trkpt>
<trkpt lat="35.781203" lon="-118.002191"><ele>2149.6</ele><time>2024-06-02T19:21:09Z</time></trkpt>
<trkpt lat="35.781166" lon="-118.002335"><ele>2151.0</ele><time>2024-06-02T19:22:56Z</time></trkpt>
<trkpt lat="35.781198" lon="-118.002222"><ele>2150.4</ele><time>2024-06-02T19:28:59Z</time></trkpt>
<trkpt lat="35.781193" lon="-118.002329"><ele>2149.6</ele><time>2024-06-02T19:31:07Z</time></trkpt>
<trkpt lat="35.781117" lon="-118.002251"><ele>2148.4</ele><time>2024-06-02T19:32:52Z</time></trkpt>
<trkpt lat="35.781227" lon="-118.002272"><ele>2148.4</ele><time>2024-06-02T19:32:54Z</time></trkpt>
<trkpt lat="35.781192" lon="-118.002297"><ele>2150.0</ele><time>2024-06-02T19:34:56Z</time></trkpt>
<trkpt lat="35.781204" lon="-118.002253"><ele>2148.0</ele><time>2024-06-02T19:37:04Z</time></trkpt>
<trkpt lat="35.781214" lon="-118.002308"><ele>2146.0</ele><time>2024-06-02T19:38:55Z</time></trkpt>
<trkpt lat="35.781157" lon="-118.002160"><ele>2147.4</ele><time>2024-06-02T19:40:46Z</time></trkpt>
<trkpt lat="35.781193" lon="-118.002370"><ele>2147.0</ele><time>2024-06-02T19:40:59Z</time></trkpt>
<trkpt lat="35.781277" lon="-118.002196"><ele>2148.8</ele><time>2024-06-02T19:43:01Z</time></trkpt>
<trkpt lat="35.781223" lon="-118.002106"><ele>2149.2</ele><time>2024-06-02T19:43:08Z</time></trkpt>
<trkpt lat="35.781634" lon="-118.002459"><ele>2145.0</ele><time>2024-06-02T19:44:12Z</time></trkpt>
<trkpt lat="35.782159" lon="-118.002731"><ele>2142.2</ele><time>2024-06-02T19:44:46Z</time></trkpt>
<trkpt lat="35.783437" lon="-118.003036"><ele>2140.0</ele><time>2024-06-02T19:46:52Z</time></trkpt>
<trkpt lat="35.783878" lon="-118.003333"><ele>2138.8</ele><time>2024-06-02T19:47:22Z</time></trkpt>
<trkpt lat="35.784294" lon="-118.004073"><ele>2133.6</ele><time>2024-06-02T19:48:18Z</time></trkpt>
<trkpt lat="35.784554" lon="-118.004342"><ele>2131.2</ele><time>2024-06-02T19:48:42Z</time></trkpt>
<trkpt lat="35.784705" lon="-118.004390"><ele>2128.0</ele><time>2024-06-02T19:49:06Z</time></trkpt>
<trkpt lat="35.784619" lon="-118.004412"><ele>2126.4</ele><time>2024-06-02T19:50:51Z</time></trkpt>
<trkpt lat="35.784694" lon="-118.004383"><ele>2128.6</ele><time>2024-06-02T19:52:57Z</time></trkpt>
<trkpt lat="35.784764" lon="-118.004619"><ele>2126.4</ele><time>2024-06-02T19:53:09Z</time></trkpt>
<trkpt lat="35.785655" lon="-118.006084"><ele>2108.6</ele><time>2024-06-02T19:55:03Z</time></trkpt>
<trkpt lat="35.786414" lon="-118.006908"><ele>2104.4</ele><time>2024-06-02T19:56:30Z</time></trkpt>
<trkpt lat="35.786985" lon="-118.007397"><ele>2096.6</ele><time>2024-06-02T19:57:14Z</time></trkpt>
<trkpt lat="35.787690" lon="-118.007725"><ele>2094.0</ele><time>2024-06-02T19:58:06Z</time></trkpt>
<trkpt lat="35.787946" lon="-118.007762"><ele>2094.8</ele><time>2024-06-02T19:58:44Z</time></trkpt>
<trkpt lat="35.788178" lon="-118.007675"><ele>2096.4</ele><time>2024-06-02T19:58:56Z</time></trkpt>
<trkpt lat="35.788607" lon="-118.007676"><ele>2099.8</ele><time>2024-06-02T19:59:24Z</time></trkpt>
<trkpt lat="35.788836" lon="-118.007760"><ele>2103.0</ele><time>2024-06-02T19:59:54Z</time></trkpt>
<trkpt lat="35.789580" lon="-118.007844"><ele>2106.2</ele><time>2024-06-02T20:00:55Z</time></trkpt>
<trkpt lat="35.790369" lon="-118.008113"><ele>2108.6</ele><time>2024-06-02T20:02:06Z</time></trkpt>
<trkpt lat="35.791778" lon="-118.008714"><ele>2108.2</ele><time>2024-06-02T20:03:58Z</time></trkpt>
<trkpt lat="35.792552" lon="-118.008942"><ele>2106.4</ele><time>2024-06-02T20:05:03Z</time></trkpt>
<trkpt lat="35.793646" lon="-118.009830"><ele>2103.4</ele><time>2024-06-02T20:06:51Z</time></trkpt>
<trkpt lat="35.793861" lon="-118.009891"><ele>2103.2</ele><time>2024-06-02T20:07:11Z</time></trkpt>
<trkpt lat="35.793978" lon="-118.009999"><ele>2102.2</ele><time>2024-06-02T20:07:26Z</time></trkpt>
<trkpt lat="35.794819" lon="-118.011059"><ele>2090.0</ele><time>2024-06-02T20:08:51Z</time></trkpt>
<trkpt lat="35.794885" lon="-118.011019"><ele>2089.6</ele><time>2024-06-02T20:08:55Z</time></trkpt>
<trkpt lat="35.795075" lon="-118.011109"><ele>2088.8</ele><time>2024-06-02T20:09:12Z</time></trkpt>
<trkpt lat="35.795655" lon="-118.011613"><ele>2079.8</ele><time>2024-06-02T20:10:16Z</time></trkpt>
<trkpt lat="35.796158" lon="-118.011644"><ele>2073.2</ele><time>2024-06-02T20:10:52Z</time></trkpt>
<trkpt lat="35.796625" lon="-118.012080"><ele>2066.8</ele><time>2024-06-02T20:11:49Z</time></trkpt>
<trkpt lat="35.796865" lon="-118.012205"><ele>2062.2</ele><time>2024-06-02T20:12:53Z</time></trkpt>
<trkpt lat="35.796893" lon="-118.012397"><ele>2061.4</ele><time>2024-06-02T20:12:57Z</time></trkpt>
<trkpt lat="35.797043" lon="-118.012190"><ele>2061.2</ele><time>2024-06-02T20:12:59Z</time></trkpt>
<trkpt lat="35.797077" lon="-118.011655"><ele>2061.2</ele><time>2024-06-02T20:13:02Z</time></trkpt>
<trkpt lat="35.797807" lon="-118.011188"><ele>2062.2</ele><time>2024-06-02T20:13:49Z</time></trkpt>
<trkpt lat="35.797563" lon="-118.010878"><ele>2062.4</ele><time>2024-06-02T20:13:55Z</time></trkpt>
<trkpt lat="35.797565" lon="-118.010778"><ele>2062.8</ele><time>2024-06-02T20:14:02Z</time></trkpt>
<trkpt lat="35.797847" lon="-118.010218"><ele>2071.0</ele><time>2024-06-02T20:15:20Z</time></trkpt>
<trkpt lat="35.798088" lon="-118.009826"><ele>2071.2</ele><time>2024-06-02T20:16:12Z</time></trkpt>
<trkpt lat="35.798539" lon="-118.009699"><ele>2079.0</ele><time>2024-06-02T20:17:05Z</time></trkpt>
<trkpt lat="35.799115" lon="-118.009468"><ele>2077.2</ele><time>2024-06-02T20:17:56Z</time></trkpt>
<trkpt lat="35.799330" lon="-118.009163"><ele>2076.6</ele><time>2024-06-02T20:18:11Z</time></trkpt>
<trkpt lat="35.800280" lon="-118.008960"><ele>2085.2</ele><time>2024-06-02T20:19:52Z</time></trkpt>
<trkpt lat="35.800396" lon="-118.008849"><ele>2086.0</ele><time>2024-06-02T20:20:00Z</time></trkpt>
<trkpt lat="35.800492" lon="-118.008846"><ele>2087.4</ele><time>2024-06-02T20:20:11Z</time></trkpt>
<trkpt lat="35.800921" lon="-118.008945"><ele>2086.0</ele><time>2024-06-02T20:20:57Z</time></trkpt>
<trkpt lat="35.801073" lon="-118.009110"><ele>2085.0</ele><time>2024-06-02T20:21:13Z</time></trkpt>
<trkpt lat="35.801421" lon="-118.009177"><ele>2084.0</ele><time>2024-06-02T20:21:41Z</time></trkpt>
<trkpt lat="35.801764" lon="-118.009519"><ele>2081.4</ele><time>2024-06-02T20:22:10Z</time></trkpt>
<trkpt lat="35.802400" lon="-118.009874"><ele>2081.6</ele><time>2024-06-02T20:23:35Z</time></trkpt>
<trkpt lat="35.802774" lon="-118.010210"><ele>2083.4</ele><time>2024-06-02T20:24:00Z</time></trkpt>
<trkpt lat="35.802884" lon="-118.010135"><ele>2083.2</ele><time>2024-06-02T20:24:10Z</time></trkpt>
<trkpt lat="35.803202" lon="-118.010390"><ele>2084.0</ele><time>2024-06-02T20:24:29Z</time></trkpt>
<trkpt lat="35.803386" lon="-118.010706"><ele>2093.6</ele><time>2024-06-02T20:25:21Z</time></trkpt>
<trkpt lat="35.803679" lon="-118.011441"><ele>2100.8</ele><time>2024-06-02T20:26:33Z</time></trkpt>
<trkpt lat="35.804039" lon="-118.011797"><ele>2098.6</ele><time>2024-06-02T20:27:19Z</time></trkpt>
<trkpt lat="35.804260" lon="-118.012180"><ele>2100.6</ele><time>2024-06-02T20:27:49Z</time></trkpt>
<trkpt lat="35.804460" lon="-118.012652"><ele>2105.6</ele><time>2024-06-02T20:28:27Z</time></trkpt>
<trkpt lat="35.804668" lon="-118.013288"><ele>2102.4</ele><time>2024-06-02T20:29:23Z</time></trkpt>
<trkpt lat="35.804902" lon="-118.013634"><ele>2099.2</ele><time>2024-06-02T20:29:58Z</time></trkpt>
<trkpt lat="35.805040" lon="-118.013709"><ele>2098.6</ele><time>2024-06-02T20:30:11Z</time></trkpt>
<trkpt lat="35.805271" lon="-118.013632"><ele>2096.0</ele><time>2024-06-02T20:30:33Z</time></trkpt>
<trkpt lat="35.805252" lon="-118.013130"><ele>2091.6</ele><time>2024-06-02T20:31:25Z</time></trkpt>
<trkpt lat="35.805494" lon="-118.012772"><ele>2087.6</ele><time>2024-06-02T20:31:57Z</time></trkpt>
<trkpt lat="35.805742" lon="-118.012603"><ele>2085.8</ele><time>2024-06-02T20:32:10Z</time></trkpt>
<trkpt lat="35.806006" lon="-118.012105"><ele>2082.8</ele><time>2024-06-02T20:32:43Z</time></trkpt>
<trkpt lat="35.806071" lon="-118.011823"><ele>2086.0</ele><time>2024-06-02T20:33:25Z</time></trkpt>
<trkpt lat="35.806092" lon="-118.011289"><ele>2082.8</ele><time>2024-06-02T20:33:56Z</time></trkpt>
<trkpt lat="35.805974" lon="-118.011206"><ele>2080.4</ele><time>2024-06-02T20:34:09Z</time></trkpt>
<trkpt lat="35.805976" lon="-118.011063"><ele>2079.2</ele><time>2024-06-02T20:34:17Z</time></trkpt>
<trkpt lat="35.806037" lon="-118.011032"><ele>2078.2</ele><time>2024-06-02T20:34:23Z</time></trkpt>
<trkpt lat="35.806451" lon="-118.011510"><ele>2066.8</ele><time>2024-06-02T20:35:25Z</time></trkpt>
<trkpt lat="35.806390" lon="-118.011829"><ele>2061.8</ele><time>2024-06-02T20:35:54Z</time></trkpt>
<trkpt lat="35.806543" lon="-118.011885"><ele>2061.2</ele><time>2024-06-02T20:35:59Z</time></trkpt>
<trkpt lat="35.806479" lon="-118.011982"><ele>2059.8</ele><time>2024-06-02T20:36:11Z</time></trkpt>
<trkpt lat="35.806518" lon="-118.012408"><ele>2054.2</ele><time>2024-06-02T20:36:47Z</time></trkpt>
<trkpt lat="35.807223" lon="-118.012006"><ele>2044.0</ele><time>2024-06-02T20:38:09Z</time></trkpt>
<trkpt lat="35.807607" lon="-118.012090"><ele>2039.6</ele><time>2024-06-02T20:38:37Z</time></trkpt>
<trkpt lat="35.808293" lon="-118.012413"><ele>2034.8</ele><time>2024-06-02T20:39:54Z</time></trkpt>
<trkpt lat="35.808490" lon="-118.012411"><ele>2034.4</ele><time>2024-06-02T20:40:01Z</time></trkpt>
<trkpt lat="35.809186" lon="-118.012805"><ele>2027.2</ele><time>2024-06-02T20:41:11Z</time></trkpt>
<trkpt lat="35.809527" lon="-118.012906"><ele>2022.4</ele><time>2024-06-02T20:41:37Z</time></trkpt>
<trkpt lat="35.809758" lon="-118.013093"><ele>2019.4</ele><time>2024-06-02T20:41:57Z</time></trkpt>
<trkpt lat="35.809747" lon="-118.013264"><ele>2019.4</ele><time>2024-06-02T20:42:10Z</time></trkpt>
<trkpt lat="35.810063" lon="-118.013743"><ele>2017.6</ele><time>2024-06-02T20:43:11Z</time></trkpt>
<trkpt lat="35.810348" lon="-118.013915"><ele>2015.0</ele><time>2024-06-02T20:43:37Z</time></trkpt>
<trkpt lat="35.810672" lon="-118.014237"><ele>2012.4</ele><time>2024-06-02T20:44:01Z</time></trkpt>
<trkpt lat="35.811178" lon="-118.014949"><ele>2002.6</ele><time>2024-06-02T20:45:03Z</time></trkpt>
<trkpt lat="35.811759" lon="-118.015244"><ele>1994.8</ele><time>2024-06-02T20:46:12Z</time></trkpt>
<trkpt lat="35.812080" lon="-118.015075"><ele>1990.8</ele><time>2024-06-02T20:46:43Z</time></trkpt>
<trkpt lat="35.811979" lon="-118.015030"><ele>1989.6</ele><time>2024-06-02T20:46:53Z</time></trkpt>
<trkpt lat="35.811556" lon="-118.014531"><ele>1984.4</ele><time>2024-06-02T20:47:43Z</time></trkpt>
<trkpt lat="35.811262" lon="-118.014339"><ele>1984.4</ele><time>2024-06-02T20:48:03Z</time></trkpt>
<trkpt lat="35.810836" lon="-118.013387"><ele>1979.6</ele><time>2024-06-02T20:49:55Z</time></trkpt>
<trkpt lat="35.810812" lon="-118.013182"><ele>1979.6</ele><time>2024-06-02T20:50:03Z</time></trkpt>
<trkpt lat="35.810363" lon="-118.012581"><ele>1975.2</ele><time>2024-06-02T20:51:09Z</time></trkpt>
<trkpt lat="35.810230" lon="-118.012311"><ele>1972.0</ele><time>2024-06-02T20:51:41Z</time></trkpt>
<trkpt lat="35.810081" lon="-118.012323"><ele>1971.8</ele><time>2024-06-02T20:52:05Z</time></trkpt>
<trkpt lat="35.810038" lon="-118.012295"><ele>1971.6</ele><time>2024-06-02T20:52:08Z</time></trkpt>
<trkpt lat="35.810146" lon="-118.012326"><ele>1970.2</ele><time>2024-06-02T20:53:57Z</time></trkpt>
<trkpt lat="35.810062" lon="-118.012245"><ele>1969.8</ele><time>2024-06-02T20:56:07Z</time></trkpt>
<trkpt lat="35.810043" lon="-118.012304"><ele>1970.6</ele><time>2024-06-02T20:57:38Z</time></trkpt>
<trkpt lat="35.810112" lon="-118.012373"><ele>1970.6</ele><time>2024-06-02T20:58:00Z</time></trkpt>
<trkpt lat="35.809995" lon="-118.012288"><ele>1970.0</ele><time>2024-06-02T20:58:07Z</time></trkpt>
<trkpt lat="35.810079" lon="-118.012243"><ele>1971.6</ele><time>2024-06-02T20:59:54Z</time></trkpt>
<trkpt lat="35.809869" lon="-118.012206"><ele>1971.4</ele><time>2024-06-02T21:00:05Z</time></trkpt>
<trkpt lat="35.809697" lon="-118.011748"><ele>1966.8</ele><time>2024-06-02T21:00:40Z</time></trkpt>
<trkpt lat="35.808988" lon="-118.011033"><ele>1959.0</ele><time>2024-06-02T21:02:00Z</time></trkpt>
<trkpt lat="35.808922" lon="-118.011084"><ele>1958.6</ele><time>2024-06-02T21:02:03Z</time></trkpt>
<trkpt lat="35.808995" lon="-118.011067"><ele>1958.6</ele><time>2024-06-02T21:02:08Z</time></trkpt>
<trkpt lat="35.809145" lon="-118.010844"><ele>1956.8</ele><time>2024-06-02T21:02:44Z</time></trkpt>
<trkpt lat="35.809569" lon="-118.010741"><ele>1950.6</ele><time>2024-06-02T21:03:34Z</time></trkpt>
<trkpt lat="35.809910" lon="-118.010524"><ele>1946.2</ele><time>2024-06-02T21:03:56Z</time></trkpt>
<trkpt lat="35.810257" lon="-118.010417"><ele>1943.8</ele><time>2024-06-02T21:04:10Z</time></trkpt>
<trkpt lat="35.810338" lon="-118.010236"><ele>1939.4</ele><time>2024-06-02T21:04:30Z</time></trkpt>
<trkpt lat="35.810792" lon="-118.009770"><ele>1932.0</ele><time>2024-06-02T21:05:18Z</time></trkpt>
<trkpt lat="35.810951" lon="-118.009244"><ele>1927.2</ele><time>2024-06-02T21:05:52Z</time></trkpt>
<trkpt lat="35.810982" lon="-118.008864"><ele>1924.2</ele><time>2024-06-02T21:06:16Z</time></trkpt>
<trkpt lat="35.811349" lon="-118.008519"><ele>1921.0</ele><time>2024-06-02T21:06:56Z</time></trkpt>
<trkpt lat="35.811746" lon="-118.008486"><ele>1917.2</ele><time>2024-06-02T21:07:28Z</time></trkpt>
<trkpt lat="35.811968" lon="-118.008646"><ele>1916.4</ele><time>2024-06-02T21:07:57Z</time></trkpt>
<trkpt lat="35.811935" lon="-118.008920"><ele>1915.2</ele><time>2024-06-02T21:08:09Z</time></trkpt>
<trkpt lat="35.812215" lon="-118.009702"><ele>1911.8</ele><time>2024-06-02T21:09:08Z</time></trkpt>
<trkpt lat="35.812587" lon="-118.010202"><ele>1905.8</ele><time>2024-06-02T21:10:03Z</time></trkpt>
<trkpt lat="35.814612" lon="-118.011548"><ele>1890.6</ele><time>2024-06-02T21:14:14Z</time></trkpt>
<trkpt lat="35.815333" lon="-118.012599"><ele>1878.6</ele><time>2024-06-02T21:15:30Z</time></trkpt>
<trkpt lat="35.815852" lon="-118.013180"><ele>1871.6</ele><time>2024-06-02T21:16:24Z</time></trkpt>
<trkpt lat="35.816119" lon="-118.013351"><ele>1868.4</ele><time>2024-06-02T21:16:46Z</time></trkpt>
<trkpt lat="35.816300" lon="-118.014078"><ele>1862.8</ele><time>2024-06-02T21:17:44Z</time></trkpt>
<trkpt lat="35.816409" lon="-118.014155"><ele>1862.0</ele><time>2024-06-02T21:17:58Z</time></trkpt>
<trkpt lat="35.816472" lon="-118.014734"><ele>1856.6</ele><time>2024-06-02T21:18:34Z</time></trkpt>
<trkpt lat="35.817026" lon="-118.015561"><ele>1847.6</ele><time>2024-06-02T21:19:50Z</time></trkpt>
<trkpt lat="35.817091" lon="-118.015958"><ele>1843.2</ele><time>2024-06-02T21:20:12Z</time></trkpt>
<trkpt lat="35.817519" lon="-118.016503"><ele>1834.8</ele><time>2024-06-02T21:21:06Z</time></trkpt>
<trkpt lat="35.817983" lon="-118.016987"><ele>1834.0</ele><time>2024-06-02T21:22:06Z</time></trkpt>
<trkpt lat="35.818515" lon="-118.017107"><ele>1829.2</ele><time>2024-06-02T21:22:50Z</time></trkpt>
<trkpt lat="35.818669" lon="-118.017035"><ele>1826.0</ele><time>2024-06-02T21:23:16Z</time></trkpt>
<trkpt lat="35.818833" lon="-118.017048"><ele>1827.0</ele><time>2024-06-02T21:23:44Z</time></trkpt>
<trkpt lat="35.818812" lon="-118.017198"><ele>1827.2</ele><time>2024-06-02T21:24:03Z</time></trkpt>
<trkpt lat="35.818438" lon="-118.017818"><ele>1820.6</ele><time>2024-06-02T21:24:54Z</time></trkpt>
<trkpt lat="35.818368" lon="-118.018433"><ele>1818.6</ele><time>2024-06-02T21:25:28Z</time></trkpt>
<trkpt lat="35.818112" lon="-118.018924"><ele>1815.0</ele><time>2024-06-02T21:25:59Z</time></trkpt>
<trkpt lat="35.818019" lon="-118.019509"><ele>1810.6</ele><time>2024-06-02T21:26:40Z</time></trkpt>
<trkpt lat="35.818070" lon="-118.019582"><ele>1810.6</ele><time>2024-06-02T21:26:46Z</time></trkpt>
<trkpt lat="35.818118" lon="-118.020300"><ele>1806.4</ele><time>2024-06-02T21:27:44Z</time></trkpt>
<trkpt lat="35.818214" lon="-118.020468"><ele>1804.8</ele><time>2024-06-02T21:27:54Z</time></trkpt>
<trkpt lat="35.818346" lon="-118.020550"><ele>1804.2</ele><time>2024-06-02T21:28:04Z</time></trkpt>
<trkpt lat="35.818313" lon="-118.020831"><ele>1802.8</ele><time>2024-06-02T21:28:20Z</time></trkpt>
<trkpt lat="35.818371" lon="-118.021074"><ele>1802.0</ele><time>2024-06-02T21:28:34Z</time></trkpt>
<trkpt lat="35.818526" lon="-118.021261"><ele>1800.0</ele><time>2024-06-02T21:28:52Z</time></trkpt>
<trkpt lat="35.818631" lon="-118.021282"><ele>1798.2</ele><time>2024-06-02T21:29:00Z</time></trkpt>
<trkpt lat="35.818629" lon="-118.021662"><ele>1797.2</ele><time>2024-06-02T21:29:44Z</time></trkpt>
<trkpt lat="35.818762" lon="-118.022065"><ele>1794.0</ele><time>2024-06-02T21:29:59Z</time></trkpt>
<trkpt lat="35.818735" lon="-118.022143"><ele>1793.2</ele><time>2024-06-02T21:30:06Z</time></trkpt>
<trkpt lat="35.819284" lon="-118.023460"><ele>1786.0</ele><time>2024-06-02T21:31:55Z</time></trkpt>
<trkpt lat="35.819460" lon="-118.024074"><ele>1781.8</ele><time>2024-06-02T21:32:28Z</time></trkpt>
<trkpt lat="35.819594" lon="-118.024202"><ele>1779.8</ele><time>2024-06-02T21:32:40Z</time></trkpt>
<trkpt lat="35.819557" lon="-118.024670"><ele>1784.2</ele><time>2024-06-02T21:33:56Z</time></trkpt>
<trkpt lat="35.819493" lon="-118.024877"><ele>1782.4</ele><time>2024-06-02T21:34:11Z</time></trkpt>
<trkpt lat="35.819815" lon="-118.026326"><ele>1776.8</ele><time>2024-06-02T21:35:53Z</time></trkpt>
<trkpt lat="35.819943" lon="-118.026344"><ele>1776.4</ele><time>2024-06-02T21:36:04Z</time></trkpt>
<trkpt lat="35.820325" lon="-118.026610"><ele>1777.4</ele><time>2024-06-02T21:38:02Z</time></trkpt>
<trkpt lat="35.820458" lon="-118.026619"><ele>1777.2</ele><time>2024-06-02T21:38:11Z</time></trkpt>
<trkpt lat="35.820477" lon="-118.026669"><ele>1778.2</ele><time>2024-06-02T21:39:37Z</time></trkpt>
<trkpt lat="35.820429" lon="-118.026664"><ele>1778.6</ele><time>2024-06-02T21:40:14Z</time></trkpt>
<trkpt lat="35.820572" lon="-118.026733"><ele>1778.8</ele><time>2024-06-02T21:41:58Z</time></trkpt>
<trkpt lat="35.820438" lon="-118.026726"><ele>1780.0</ele><time>2024-06-02T21:44:02Z</time></trkpt>
<trkpt lat="35.820739" lon="-118.027098"><ele>1779.2</ele><time>2024-06-02T21:45:01Z</time></trkpt>
<trkpt lat="35.821087" lon="-118.027710"><ele>1776.0</ele><time>2024-06-02T21:45:51Z</time></trkpt>
<trkpt lat="35.821224" lon="-118.028298"><ele>1773.8</ele><time>2024-06-02T21:46:51Z</time></trkpt>
<trkpt lat="35.821782" lon="-118.029106"><ele>1774.6</ele><time>2024-06-02T21:47:54Z</time></trkpt>
<trkpt lat="35.821785" lon="-118.029041"><ele>1774.6</ele><time>2024-06-02T21:47:57Z</time></trkpt>
<trkpt lat="35.821880" lon="-118.029135"><ele>1775.2</ele><time>2024-06-02T21:48:07Z</time></trkpt>
<trkpt lat="35.822166" lon="-118.029672"><ele>1773.2</ele><time>2024-06-02T21:48:43Z</time></trkpt>
<trkpt lat="35.822340" lon="-118.029803"><ele>1773.8</ele><time>2024-06-02T21:49:03Z</time></trkpt>
<trkpt lat="35.822368" lon="-118.029963"><ele>1777.2</ele><time>2024-06-02T21:49:23Z</time></trkpt>
<trkpt lat="35.822486" lon="-118.030079"><ele>1779.4</ele><time>2024-06-02T21:49:39Z</time></trkpt>
<trkpt lat="35.822781" lon="-118.030568"><ele>1776.2</ele><time>2024-06-02T21:50:17Z</time></trkpt>
<trkpt lat="35.823366" lon="-118.031807"><ele>1776.6</ele><time>2024-06-02T21:51:56Z</time></trkpt>
<trkpt lat="35.823896" lon="-118.032607"><ele>1773.8</ele><time>2024-06-02T21:53:47Z</time></trkpt>
<trkpt lat="35.824211" lon="-118.033289"><ele>1770.4</ele><time>2024-06-02T21:54:23Z</time></trkpt>
<trkpt lat="35.824997" lon="-118.034308"><ele>1771.6</ele><time>2024-06-02T21:56:07Z</time></trkpt>
<trkpt lat="35.825279" lon="-118.035000"><ele>1771.2</ele><time>2024-06-02T21:56:55Z</time></trkpt>
<trkpt lat="35.825551" lon="-118.035453"><ele>1770.4</ele><time>2024-06-02T21:57:41Z</time></trkpt>
<trkpt lat="35.825871" lon="-118.036283"><ele>1767.2</ele><time>2024-06-02T21:58:27Z</time></trkpt>
<trkpt lat="35.825938" lon="-118.036288"><ele>1766.0</ele><time>2024-06-02T21:58:35Z</time></trkpt>
<trkpt lat="35.826204" lon="-118.036573"><ele>1764.4</ele><time>2024-06-02T22:00:13Z</time></trkpt>
<trkpt lat="35.826277" lon="-118.036723"><ele>1765.0</ele><time>2024-06-02T22:01:56Z</time></trkpt>
<trkpt lat="35.826301" lon="-118.036973"><ele>1763.6</ele><time>2024-06-02T22:02:08Z</time></trkpt>
<trkpt lat="35.826732" lon="-118.037344"><ele>1760.4</ele><time>2024-06-02T22:02:53Z</time></trkpt>
<trkpt lat="35.827396" lon="-118.038151"><ele>1760.6</ele><time>2024-06-02T22:04:00Z</time></trkpt>
<trkpt lat="35.827469" lon="-118.038346"><ele>1759.6</ele><time>2024-06-02T22:04:13Z</time></trkpt>
<trkpt lat="35.827642" lon="-118.038558"><ele>1758.4</ele><time>2024-06-02T22:04:29Z</time></trkpt>
<trkpt lat="35.828009" lon="-118.038761"><ele>1756.0</ele><time>2024-06-02T22:04:59Z</time></trkpt>
<trkpt lat="35.828382" lon="-118.039300"><ele>1759.2</ele><time>2024-06-02T22:05:59Z</time></trkpt>
<trkpt lat="35.828439" lon="-118.039735"><ele>1759.0</ele><time>2024-06-02T22:06:27Z</time></trkpt>
<trkpt lat="35.828834" lon="-118.040002"><ele>1757.0</ele><time>2024-06-02T22:06:57Z</time></trkpt>
<trkpt lat="35.829458" lon="-118.039594"><ele>1756.2</ele><time>2024-06-02T22:07:54Z</time></trkpt>
<trkpt lat="35.829632" lon="-118.039417"><ele>1754.4</ele><time>2024-06-02T22:08:14Z</time></trkpt>
<trkpt lat="35.830421" lon="-118.039557"><ele>1750.2</ele><time>2024-06-02T22:09:35Z</time></trkpt>
<trkpt lat="35.830699" lon="-118.039528"><ele>1749.6</ele><time>2024-06-02T22:09:54Z</time></trkpt>
<trkpt lat="35.830779" lon="-118.039434"><ele>1750.6</ele><time>2024-06-02T22:10:11Z</time></trkpt>
<trkpt lat="35.830964" lon="-118.039440"><ele>1749.4</ele><time>2024-06-02T22:10:21Z</time></trkpt>
<trkpt lat="35.831327" lon="-118.039651"><ele>1747.0</ele><time>2024-06-02T22:10:51Z</time></trkpt>
<trkpt lat="35.831667" lon="-118.039699"><ele>1741.0</ele><time>2024-06-02T22:11:21Z</time></trkpt>
<trkpt lat="35.832065" lon="-118.039987"><ele>1736.2</ele><time>2024-06-02T22:12:02Z</time></trkpt>
<trkpt lat="35.832140" lon="-118.040110"><ele>1735.8</ele><time>2024-06-02T22:12:13Z</time></trkpt>
<trkpt lat="35.832188" lon="-118.040271"><ele>1733.0</ele><time>2024-06-02T22:12:21Z</time></trkpt>
<trkpt lat="35.832124" lon="-118.040442"><ele>1733.2</ele><time>2024-06-02T22:12:37Z</time></trkpt>
<trkpt lat="35.832154" lon="-118.041115"><ele>1732.2</ele><time>2024-06-02T22:13:56Z</time></trkpt>
<trkpt lat="35.832265" lon="-118.041296"><ele>1730.4</ele><time>2024-06-02T22:14:15Z</time></trkpt>
<trkpt lat="35.832401" lon="-118.041357"><ele>1730.0</ele><time>2024-06-02T22:14:33Z</time></trkpt>
<trkpt lat="35.833176" lon="-118.041355"><ele>1724.6</ele><time>2024-06-02T22:15:35Z</time></trkpt>
<trkpt lat="35.833561" lon="-118.041273"><ele>1721.4</ele><time>2024-06-02T22:15:54Z</time></trkpt>
<trkpt lat="35.833622" lon="-118.041250"><ele>1721.6</ele><time>2024-06-02T22:15:56Z</time></trkpt>
<trkpt lat="35.833570" lon="-118.041045"><ele>1721.4</ele><time>2024-06-02T22:16:04Z</time></trkpt>
<trkpt lat="35.833675" lon="-118.041116"><ele>1721.2</ele><time>2024-06-02T22:16:17Z</time></trkpt>
<trkpt lat="35.833857" lon="-118.041092"><ele>1720.2</ele><time>2024-06-02T22:16:37Z</time></trkpt>
<trkpt lat="35.834273" lon="-118.040881"><ele>1715.2</ele><time>2024-06-02T22:17:21Z</time></trkpt>
<trkpt lat="35.834532" lon="-118.041176"><ele>1712.0</ele><time>2024-06-02T22:17:55Z</time></trkpt>
<trkpt lat="35.834413" lon="-118.041327"><ele>1710.8</ele><time>2024-06-02T22:18:02Z</time></trkpt>
<trkpt lat="35.834393" lon="-118.041511"><ele>1710.0</ele><time>2024-06-02T22:18:12Z</time></trkpt>
<trkpt lat="35.834480" lon="-118.041685"><ele>1710.0</ele><time>2024-06-02T22:18:23Z</time></trkpt>
<trkpt lat="35.834488" lon="-118.042001"><ele>1706.6</ele><time>2024-06-02T22:18:57Z</time></trkpt>
<trkpt lat="35.834941" lon="-118.042850"><ele>1703.4</ele><time>2024-06-02T22:19:56Z</time></trkpt>
<trkpt lat="35.834994" lon="-118.043241"><ele>1700.2</ele><time>2024-06-02T22:20:21Z</time></trkpt>
<trkpt lat="35.834845" lon="-118.043464"><ele>1696.8</ele><time>2024-06-02T22:20:39Z</time></trkpt>
<trkpt lat="35.835022" lon="-118.043767"><ele>1693.4</ele><time>2024-06-02T22:21:05Z</time></trkpt>
<trkpt lat="35.835048" lon="-118.043933"><ele>1693.6</ele><time>2024-06-02T22:21:59Z</time></trkpt>
<trkpt lat="35.835041" lon="-118.043815"><ele>1693.0</ele><time>2024-06-02T22:22:08Z</time></trkpt>
<trkpt lat="35.834849" lon="-118.043521"><ele>1692.8</ele><time>2024-06-02T22:23:26Z</time></trkpt>
<trkpt lat="35.833938" lon="-118.042945"><ele>1693.2</ele><time>2024-06-02T22:23:57Z</time></trkpt>
<trkpt lat="35.834710" lon="-118.042881"><ele>1693.2</ele><time>2024-06-02T22:23:58Z</time></trkpt>
<trkpt lat="35.834857" lon="-118.043421"><ele>1693.2</ele><time>2024-06-02T22:23:59Z</time></trkpt>
<trkpt lat="35.834999" lon="-118.043582"><ele>1693.0</ele><time>2024-06-02T22:24:02Z</time></trkpt>
<trkpt lat="35.835025" lon="-118.043924"><ele>1692.8</ele><time>2024-06-02T22:25:54Z</time></trkpt>
<trkpt lat="35.835000" lon="-118.043778"><ele>1692.8</ele><time>2024-06-02T22:26:05Z</time></trkpt>
<trkpt lat="35.835017" lon="-118.043867"><ele>1693.2</ele><time>2024-06-02T22:30:09Z</time></trkpt>
<trkpt lat="35.835419" lon="-118.043875"><ele>1695.4</ele><time>2024-06-02T22:31:16Z</time></trkpt>
<trkpt lat="35.835871" lon="-118.044092"><ele>1697.6</ele><time>2024-06-02T22:32:00Z</time></trkpt>
<trkpt lat="35.835950" lon="-118.044283"><ele>1699.2</ele><time>2024-06-02T22:32:15Z</time></trkpt>
<trkpt lat="35.836282" lon="-118.044123"><ele>1703.6</ele><time>2024-06-02T22:32:50Z</time></trkpt>
<trkpt lat="35.836826" lon="-118.043661"><ele>1711.2</ele><time>2024-06-02T22:33:56Z</time></trkpt>
<trkpt lat="35.836831" lon="-118.043554"><ele>1712.0</ele><time>2024-06-02T22:34:01Z</time></trkpt>
<trkpt lat="35.837048" lon="-118.043356"><ele>1714.2</ele><time>2024-06-02T22:34:20Z</time></trkpt>
<trkpt lat="35.837648" lon="-118.043026"><ele>1726.4</ele><time>2024-06-02T22:35:46Z</time></trkpt>
<trkpt lat="35.837919" lon="-118.042928"><ele>1729.0</ele><time>2024-06-02T22:36:02Z</time></trkpt>
<trkpt lat="35.838006" lon="-118.042982"><ele>1730.4</ele><time>2024-06-02T22:36:11Z</time></trkpt>
<trkpt lat="35.838603" lon="-118.045286"><ele>1757.4</ele><time>2024-06-02T22:39:37Z</time></trkpt>
<trkpt lat="35.838813" lon="-118.045776"><ele>1759.6</ele><time>2024-06-02T22:39:57Z</time></trkpt>
<trkpt lat="35.838755" lon="-118.045837"><ele>1760.6</ele><time>2024-06-02T22:40:03Z</time></trkpt>
<trkpt lat="35.839012" lon="-118.046995"><ele>1769.6</ele><time>2024-06-02T22:41:59Z</time></trkpt>
<trkpt lat="35.838940" lon="-118.047046"><ele>1769.6</ele><time>2024-06-02T22:42:00Z</time></trkpt>
<trkpt lat="35.838986" lon="-118.047031"><ele>1770.2</ele><time>2024-06-02T22:42:03Z</time></trkpt>
<trkpt lat="35.839328" lon="-118.047380"><ele>1769.2</ele><time>2024-06-02T22:42:41Z</time></trkpt>
<trkpt lat="35.839791" lon="-118.047616"><ele>1762.8</ele><time>2024-06-02T22:43:15Z</time></trkpt>
<trkpt lat="35.840166" lon="-118.048057"><ele>1756.4</ele><time>2024-06-02T22:44:05Z</time></trkpt>
<trkpt lat="35.840113" lon="-118.048124"><ele>1756.0</ele><time>2024-06-02T22:44:07Z</time></trkpt>
<trkpt lat="35.840136" lon="-118.048278"><ele>1754.2</ele><time>2024-06-02T22:44:17Z</time></trkpt>
<trkpt lat="35.840479" lon="-118.049033"><ele>1753.2</ele><time>2024-06-02T22:45:29Z</time></trkpt>
<trkpt lat="35.840693" lon="-118.049146"><ele>1753.4</ele><time>2024-06-02T22:45:51Z</time></trkpt>
<trkpt lat="35.840832" lon="-118.049359"><ele>1754.8</ele><time>2024-06-02T22:46:02Z</time></trkpt>
<trkpt lat="35.840899" lon="-118.049341"><ele>1755.6</ele><time>2024-06-02T22:46:09Z</time></trkpt>
<trkpt lat="35.841205" lon="-118.049870"><ele>1766.6</ele><time>2024-06-02T22:47:10Z</time></trkpt>
<trkpt lat="35.841299" lon="-118.049888"><ele>1769.2</ele><time>2024-06-02T22:47:22Z</time></trkpt>
<trkpt lat="35.841456" lon="-118.050078"><ele>1772.4</ele><time>2024-06-02T22:48:02Z</time></trkpt>
<trkpt lat="35.841605" lon="-118.050006"><ele>1774.6</ele><time>2024-06-02T22:48:15Z</time></trkpt>
<trkpt lat="35.841681" lon="-118.050248"><ele>1777.0</ele><time>2024-06-02T22:48:36Z</time></trkpt>
<trkpt lat="35.842031" lon="-118.050545"><ele>1781.4</ele><time>2024-06-02T22:49:46Z</time></trkpt>
<trkpt lat="35.842188" lon="-118.050811"><ele>1782.2</ele><time>2024-06-02T22:50:03Z</time></trkpt>
<trkpt lat="35.842278" lon="-118.050747"><ele>1783.8</ele><time>2024-06-02T22:50:14Z</time></trkpt>
<trkpt lat="35.842439" lon="-118.051192"><ele>1785.0</ele><time>2024-06-02T22:50:42Z</time></trkpt>
<trkpt lat="35.842409" lon="-118.051322"><ele>1787.6</ele><time>2024-06-02T22:51:08Z</time></trkpt>
<trkpt lat="35.842580" lon="-118.051911"><ele>1793.8</ele><time>2024-06-02T22:51:55Z</time></trkpt>
<trkpt lat="35.842681" lon="-118.051897"><ele>1794.6</ele><time>2024-06-02T22:52:03Z</time></trkpt>
<trkpt lat="35.842757" lon="-118.052232"><ele>1800.2</ele><time>2024-06-02T22:52:38Z</time></trkpt>
<trkpt lat="35.842921" lon="-118.052568"><ele>1807.0</ele><time>2024-06-02T22:53:34Z</time></trkpt>
<trkpt lat="35.842975" lon="-118.053011"><ele>1810.2</ele><time>2024-06-02T22:53:56Z</time></trkpt>
<trkpt lat="35.842926" lon="-118.053226"><ele>1812.2</ele><time>2024-06-02T22:54:09Z</time></trkpt>
<trkpt lat="35.843365" lon="-118.054025"><ele>1823.4</ele><time>2024-06-02T22:55:56Z</time></trkpt>
<trkpt lat="35.843364" lon="-118.054308"><ele>1824.8</ele><time>2024-06-02T22:56:06Z</time></trkpt>
<trkpt lat="35.843777" lon="-118.054671"><ele>1834.4</ele><time>2024-06-02T22:57:17Z</time></trkpt>
<trkpt lat="35.844271" lon="-118.055240"><ele>1840.8</ele><time>2024-06-02T22:58:12Z</time></trkpt>
<trkpt lat="35.844756" lon="-118.055245"><ele>1850.0</ele><time>2024-06-02T22:59:20Z</time></trkpt>
<trkpt lat="35.845141" lon="-118.055380"><ele>1854.2</ele><time>2024-06-02T23:00:00Z</time></trkpt>
<trkpt lat="35.845020" lon="-118.055630"><ele>1854.2</ele><time>2024-06-02T23:00:04Z</time></trkpt>
<trkpt lat="35.845076" lon="-118.055541"><ele>1854.4</ele><time>2024-06-02T23:00:20Z</time></trkpt>
<trkpt lat="35.845042" lon="-118.055562"><ele>1854.4</ele><time>2024-06-02T23:00:25Z</time></trkpt>
<trkpt lat="35.845157" lon="-118.055597"><ele>1855.4</ele><time>2024-06-02T23:01:01Z</time></trkpt>
<trkpt lat="35.845607" lon="-118.056523"><ele>1866.4</ele><time>2024-06-02T23:02:22Z</time></trkpt>
<trkpt lat="35.845901" lon="-118.056854"><ele>1867.0</ele><time>2024-06-02T23:02:27Z</time></trkpt>
<trkpt lat="35.845688" lon="-118.056636"><ele>1867.6</ele><time>2024-06-02T23:02:30Z</time></trkpt>
<trkpt lat="35.845939" lon="-118.056935"><ele>1874.4</ele><time>2024-06-02T23:03:07Z</time></trkpt>
<trkpt lat="35.846098" lon="-118.057032"><ele>1876.4</ele><time>2024-06-02T23:03:17Z</time></trkpt>
<trkpt lat="35.846153" lon="-118.057241"><ele>1882.0</ele><time>2024-06-02T23:03:43Z</time></trkpt>
<trkpt lat="35.846104" lon="-118.057536"><ele>1885.2</ele><time>2024-06-02T23:04:23Z</time></trkpt>
<trkpt lat="35.846289" lon="-118.058086"><ele>1889.4</ele><time>2024-06-02T23:04:57Z</time></trkpt>
<trkpt lat="35.846259" lon="-118.058269"><ele>1890.2</ele><time>2024-06-02T23:05:09Z</time></trkpt>
<trkpt lat="35.846755" lon="-118.059081"><ele>1898.6</ele><time>2024-06-02T23:06:31Z</time></trkpt>
<trkpt lat="35.846997" lon="-118.059368"><ele>1901.8</ele><time>2024-06-02T23:06:58Z</time></trkpt>
<trkpt lat="35.847117" lon="-118.059304"><ele>1901.8</ele><time>2024-06-02T23:07:06Z</time></trkpt>
<trkpt lat="35.847648" lon="-118.059379"><ele>1912.4</ele><time>2024-06-02T23:08:29Z</time></trkpt>
<trkpt lat="35.848163" lon="-118.059241"><ele>1916.6</ele><time>2024-06-02T23:09:02Z</time></trkpt>
<trkpt lat="35.848110" lon="-118.059257"><ele>1918.8</ele><time>2024-06-02T23:09:12Z</time></trkpt>
<trkpt lat="35.848252" lon="-118.059249"><ele>1922.2</ele><time>2024-06-02T23:09:36Z</time></trkpt>
<trkpt lat="35.849127" lon="-118.059690"><ele>1940.6</ele><time>2024-06-02T23:12:05Z</time></trkpt>
<trkpt lat="35.849615" lon="-118.059824"><ele>1936.6</ele><time>2024-06-02T23:12:45Z</time></trkpt>
<trkpt lat="35.849875" lon="-118.059984"><ele>1936.6</ele><time>2024-06-02T23:12:57Z</time></trkpt>
<trkpt lat="35.849679" lon="-118.060166"><ele>1936.8</ele><time>2024-06-02T23:12:59Z</time></trkpt>
<trkpt lat="35.849833" lon="-118.060269"><ele>1937.0</ele><time>2024-06-02T23:13:03Z</time></trkpt>
<trkpt lat="35.849795" lon="-118.060320"><ele>1937.2</ele><time>2024-06-02T23:13:06Z</time></trkpt>
<trkpt lat="35.849885" lon="-118.060484"><ele>1940.8</ele><time>2024-06-02T23:13:30Z</time></trkpt>
<trkpt lat="35.850216" lon="-118.060753"><ele>1942.0</ele><time>2024-06-02T23:14:02Z</time></trkpt>
<trkpt lat="35.850292" lon="-118.060891"><ele>1943.0</ele><time>2024-06-02T23:14:16Z</time></trkpt>
<trkpt lat="35.850369" lon="-118.061054"><ele>1944.2</ele><time>2024-06-02T23:14:26Z</time></trkpt>
<trkpt lat="35.850422" lon="-118.061639"><ele>1947.0</ele><time>2024-06-02T23:14:59Z</time></trkpt>
<trkpt lat="35.850383" lon="-118.061710"><ele>1947.2</ele><time>2024-06-02T23:15:04Z</time></trkpt>
<trkpt lat="35.850533" lon="-118.061705"><ele>1947.6</ele><time>2024-06-02T23:15:07Z</time></trkpt>
<trkpt lat="35.850749" lon="-118.062065"><ele>1949.6</ele><time>2024-06-02T23:15:29Z</time></trkpt>
<trkpt lat="35.851108" lon="-118.063063"><ele>1959.6</ele><time>2024-06-02T23:17:00Z</time></trkpt>
<trkpt lat="35.851237" lon="-118.062950"><ele>1959.8</ele><time>2024-06-02T23:17:04Z</time></trkpt>
<trkpt lat="35.851217" lon="-118.062883"><ele>1960.0</ele><time>2024-06-02T23:17:07Z</time></trkpt>
<trkpt lat="35.851381" lon="-118.062811"><ele>1960.0</ele><time>2024-06-02T23:17:27Z</time></trkpt>
<trkpt lat="35.851318" lon="-118.062934"><ele>1960.8</ele><time>2024-06-02T23:17:57Z</time></trkpt>
<trkpt lat="35.851344" lon="-118.063043"><ele>1961.2</ele><time>2024-06-02T23:18:02Z</time></trkpt>
<trkpt lat="35.851703" lon="-118.063456"><ele>1964.0</ele><time>2024-06-02T23:18:37Z</time></trkpt>
<trkpt lat="35.851799" lon="-118.063456"><ele>1963.8</ele><time>2024-06-02T23:18:53Z</time></trkpt>
<trkpt lat="35.852131" lon="-118.064106"><ele>1969.2</ele><time>2024-06-02T23:20:02Z</time></trkpt>
<trkpt lat="35.852216" lon="-118.063916"><ele>1969.6</ele><time>2024-06-02T23:20:05Z</time></trkpt>
<trkpt lat="35.852383" lon="-118.063854"><ele>1969.8</ele><time>2024-06-02T23:20:07Z</time></trkpt>
<trkpt lat="35.852515" lon="-118.063991"><ele>1971.4</ele><time>2024-06-02T23:20:19Z</time></trkpt>
<trkpt lat="35.852948" lon="-118.063750"><ele>1981.2</ele><time>2024-06-02T23:21:45Z</time></trkpt>
<trkpt lat="35.853402" lon="-118.063694"><ele>1983.8</ele><time>2024-06-02T23:21:58Z</time></trkpt>
<trkpt lat="35.853169" lon="-118.063647"><ele>1983.8</ele><time>2024-06-02T23:22:01Z</time></trkpt>
<trkpt lat="35.853281" lon="-118.063630"><ele>1983.6</ele><time>2024-06-02T23:22:04Z</time></trkpt>
<trkpt lat="35.853345" lon="-118.063543"><ele>1983.0</ele><time>2024-06-02T23:22:09Z</time></trkpt>
<trkpt lat="35.853678" lon="-118.063639"><ele>1991.2</ele><time>2024-06-02T23:23:39Z</time></trkpt>
<trkpt lat="35.853787" lon="-118.063761"><ele>1995.2</ele><time>2024-06-02T23:24:00Z</time></trkpt>
<trkpt lat="35.853777" lon="-118.063824"><ele>1995.4</ele><time>2024-06-02T23:24:02Z</time></trkpt>
<trkpt lat="35.854000" lon="-118.063703"><ele>1995.4</ele><time>2024-06-02T23:24:06Z</time></trkpt>
<trkpt lat="35.854970" lon="-118.064091"><ele>2000.0</ele><time>2024-06-02T23:25:59Z</time></trkpt>
<trkpt lat="35.855013" lon="-118.064038"><ele>1999.8</ele><time>2024-06-02T23:26:00Z</time></trkpt>
<trkpt lat="35.854962" lon="-118.064114"><ele>2001.0</ele><time>2024-06-02T23:26:13Z</time></trkpt>
<trkpt lat="35.854995" lon="-118.064190"><ele>2002.4</ele><time>2024-06-02T23:27:58Z</time></trkpt>
<trkpt lat="35.854939" lon="-118.064190"><ele>2002.6</ele><time>2024-06-02T23:28:21Z</time></trkpt>
</trkseg></trk>
</gpx>
