<?xml version="1.0" encoding="UTF-8"?>
<gpx version="1.1" creator="Eric Sichak trip reports" xmlns="http://www.topografix.com/GPX/1/1">
<metadata><name>Morning Hike</name><time>2024-06-03T13:34:55Z</time></metadata>
<trk><name>Morning Hike</name><type>hike</type><trkseg>
<trkpt lat="35.854949" lon="-118.064140"><ele>2000.8</ele><time>2024-06-03T13:34:55Z</time></trkpt>
<trkpt lat="35.856181" lon="-118.064382"><ele>2007.4</ele><time>2024-06-03T13:37:09Z</time></trkpt>
<trkpt lat="35.857193" lon="-118.064461"><ele>2018.2</ele><time>2024-06-03T13:38:43Z</time></trkpt>
<trkpt lat="35.857089" lon="-118.064289"><ele>2018.6</ele><time>2024-06-03T13:38:49Z</time></trkpt>
<trkpt lat="35.857135" lon="-118.064145"><ele>2019.2</ele><time>2024-06-03T13:38:59Z</time></trkpt>
<trkpt lat="35.857895" lon="-118.063219"><ele>2023.8</ele><time>2024-06-03T13:40:42Z</time></trkpt>
<trkpt lat="35.858016" lon="-118.063302"><ele>2024.8</ele><time>2024-06-03T13:40:57Z</time></trkpt>
<trkpt lat="35.858128" lon="-118.063213"><ele>2026.4</ele><time>2024-06-03T13:41:35Z</time></trkpt>
<trkpt lat="35.858662" lon="-118.063239"><ele>2031.6</ele><time>2024-06-03T13:43:02Z</time></trkpt>
<trkpt lat="35.859131" lon="-118.063426"><ele>2036.0</ele><time>2024-06-03T13:43:37Z</time></trkpt>
<trkpt lat="35.859504" lon="-118.063642"><ele>2046.8</ele><time>2024-06-03T13:44:35Z</time></trkpt>
<trkpt lat="35.859967" lon="-118.063994"><ele>2050.8</ele><time>2024-06-03T13:45:04Z</time></trkpt>
<trkpt lat="35.860680" lon="-118.064379"><ele>2063.4</ele><time>2024-06-03T13:46:36Z</time></trkpt>
<trkpt lat="35.861116" lon="-118.064758"><ele>2066.6</ele><time>2024-06-03T13:47:03Z</time></trkpt>
<trkpt lat="35.862030" lon="-118.065329"><ele>2080.0</ele><time>2024-06-03T13:48:42Z</time></trkpt>
<trkpt lat="35.863396" lon="-118.065785"><ele>2094.8</ele><time>2024-06-03T13:50:48Z</time></trkpt>
<trkpt lat="35.864220" lon="-118.066435"><ele>2108.8</ele><time>2024-06-03T13:52:32Z</time></trkpt>
<trkpt lat="35.864447" lon="-118.066717"><ele>2110.4</ele><time>2024-06-03T13:52:50Z</time></trkpt>
<trkpt lat="35.864436" lon="-118.066807"><ele>2111.2</ele><time>2024-06-03T13:52:55Z</time></trkpt>
<trkpt lat="35.864588" lon="-118.067020"><ele>2116.0</ele><time>2024-06-03T13:53:22Z</time></trkpt>
<trkpt lat="35.864604" lon="-118.067249"><ele>2116.4</ele><time>2024-06-03T13:54:46Z</time></trkpt>
<trkpt lat="35.864314" lon="-118.067103"><ele>2115.6</ele><time>2024-06-03T13:56:50Z</time></trkpt>
<trkpt lat="35.864396" lon="-118.067100"><ele>2115.8</ele><time>2024-06-03T13:56:58Z</time></trkpt>
<trkpt lat="35.864417" lon="-118.067190"><ele>2117.0</ele><time>2024-06-03T13:58:40Z</time></trkpt>
<trkpt lat="35.864378" lon="-118.067172"><ele>2117.0</ele><time>2024-06-03T13:58:45Z</time></trkpt>
<trkpt lat="35.864411" lon="-118.067019"><ele>2116.8</ele><time>2024-06-03T14:00:12Z</time></trkpt>
<trkpt lat="35.864681" lon="-118.066848"><ele>2114.6</ele><time>2024-06-03T14:00:46Z</time></trkpt>
<trkpt lat="35.864892" lon="-118.066916"><ele>2118.0</ele><time>2024-06-03T14:01:01Z</time></trkpt>
<trkpt lat="35.865229" lon="-118.066682"><ele>2122.8</ele><time>2024-06-03T14:01:40Z</time></trkpt>
<trkpt lat="35.865673" lon="-118.066203"><ele>2125.8</ele><time>2024-06-03T14:02:44Z</time></trkpt>
<trkpt lat="35.865662" lon="-118.066036"><ele>2127.2</ele><time>2024-06-03T14:02:53Z</time></trkpt>
<trkpt lat="35.865895" lon="-118.065711"><ele>2128.4</ele><time>2024-06-03T14:03:14Z</time></trkpt>
<trkpt lat="35.866181" lon="-118.064797"><ele>2136.6</ele><time>2024-06-03T14:04:36Z</time></trkpt>
<trkpt lat="35.866300" lon="-118.064584"><ele>2137.2</ele><time>2024-06-03T14:04:43Z</time></trkpt>
<trkpt lat="35.866410" lon="-118.064548"><ele>2137.8</ele><time>2024-06-03T14:04:54Z</time></trkpt>
<trkpt lat="35.866397" lon="-118.064098"><ele>2137.6</ele><time>2024-06-03T14:05:14Z</time></trkpt>
<trkpt lat="35.866212" lon="-118.063179"><ele>2142.0</ele><time>2024-06-03T14:06:43Z</time></trkpt>
<trkpt lat="35.866540" lon="-118.062495"><ele>2143.6</ele><time>2024-06-03T14:07:08Z</time></trkpt>
<trkpt lat="35.867031" lon="-118.061582"><ele>2156.4</ele><time>2024-06-03T14:08:43Z</time></trkpt>
<trkpt lat="35.866884" lon="-118.061563"><ele>2157.8</ele><time>2024-06-03T14:08:52Z</time></trkpt>
<trkpt lat="35.866812" lon="-118.061440"><ele>2159.4</ele><time>2024-06-03T14:09:03Z</time></trkpt>
<trkpt lat="35.866952" lon="-118.060877"><ele>2165.8</ele><time>2024-06-03T14:09:46Z</time></trkpt>
<trkpt lat="35.867317" lon="-118.060385"><ele>2169.8</ele><time>2024-06-03T14:10:43Z</time></trkpt>
<trkpt lat="35.867355" lon="-118.060437"><ele>2170.0</ele><time>2024-06-03T14:10:45Z</time></trkpt>
<trkpt lat="35.867415" lon="-118.060283"><ele>2173.4</ele><time>2024-06-03T14:11:01Z</time></trkpt>
<trkpt lat="35.867816" lon="-118.059923"><ele>2176.8</ele><time>2024-06-03T14:11:40Z</time></trkpt>
<trkpt lat="35.868428" lon="-118.059683"><ele>2183.6</ele><time>2024-06-03T14:12:43Z</time></trkpt>
<trkpt lat="35.868385" lon="-118.059889"><ele>2185.0</ele><time>2024-06-03T14:12:50Z</time></trkpt>
<trkpt lat="35.868455" lon="-118.059766"><ele>2185.0</ele><time>2024-06-03T14:12:51Z</time></trkpt>
<trkpt lat="35.868324" lon="-118.059962"><ele>2185.6</ele><time>2024-06-03T14:12:56Z</time></trkpt>
<trkpt lat="35.868484" lon="-118.060752"><ele>2185.8</ele><time>2024-06-03T14:13:42Z</time></trkpt>
<trkpt lat="35.868560" lon="-118.061735"><ele>2194.4</ele><time>2024-06-03T14:14:44Z</time></trkpt>
<trkpt lat="35.868529" lon="-118.061701"><ele>2194.6</ele><time>2024-06-03T14:14:45Z</time></trkpt>
<trkpt lat="35.869158" lon="-118.061404"><ele>2197.0</ele><time>2024-06-03T14:14:54Z</time></trkpt>
<trkpt lat="35.869048" lon="-118.061419"><ele>2198.0</ele><time>2024-06-03T14:14:58Z</time></trkpt>
<trkpt lat="35.869316" lon="-118.061942"><ele>2207.4</ele><time>2024-06-03T14:16:08Z</time></trkpt>
<trkpt lat="35.869404" lon="-118.062222"><ele>2208.0</ele><time>2024-06-03T14:16:51Z</time></trkpt>
<trkpt lat="35.869450" lon="-118.062183"><ele>2208.0</ele><time>2024-06-03T14:16:58Z</time></trkpt>
<trkpt lat="35.869633" lon="-118.062445"><ele>2212.2</ele><time>2024-06-03T14:18:43Z</time></trkpt>
<trkpt lat="35.869317" lon="-118.062822"><ele>2214.6</ele><time>2024-06-03T14:18:58Z</time></trkpt>
<trkpt lat="35.869407" lon="-118.063137"><ele>2215.0</ele><time>2024-06-03T14:19:10Z</time></trkpt>
<trkpt lat="35.870241" lon="-118.063848"><ele>2224.4</ele><time>2024-06-03T14:20:44Z</time></trkpt>
<trkpt lat="35.870313" lon="-118.064080"><ele>2225.8</ele><time>2024-06-03T14:20:59Z</time></trkpt>
<trkpt lat="35.870889" lon="-118.064579"><ele>2231.2</ele><time>2024-06-03T14:21:39Z</time></trkpt>
<trkpt lat="35.871271" lon="-118.064848"><ele>2240.4</ele><time>2024-06-03T14:22:43Z</time></trkpt>
<trkpt lat="35.871212" lon="-118.065214"><ele>2241.4</ele><time>2024-06-03T14:22:52Z</time></trkpt>
<trkpt lat="35.871257" lon="-118.065271"><ele>2242.2</ele><time>2024-06-03T14:22:58Z</time></trkpt>
<trkpt lat="35.872039" lon="-118.065421"><ele>2249.2</ele><time>2024-06-03T14:24:44Z</time></trkpt>
<trkpt lat="35.871889" lon="-118.065539"><ele>2249.8</ele><time>2024-06-03T14:24:58Z</time></trkpt>
<trkpt lat="35.873332" lon="-118.065518"><ele>2254.8</ele><time>2024-06-03T14:26:44Z</time></trkpt>
<trkpt lat="35.872922" lon="-118.065968"><ele>2254.4</ele><time>2024-06-03T14:26:53Z</time></trkpt>
<trkpt lat="35.873008" lon="-118.065943"><ele>2254.8</ele><time>2024-06-03T14:27:00Z</time></trkpt>
<trkpt lat="35.874336" lon="-118.066709"><ele>2261.4</ele><time>2024-06-03T14:28:46Z</time></trkpt>
<trkpt lat="35.874081" lon="-118.066859"><ele>2261.8</ele><time>2024-06-03T14:28:54Z</time></trkpt>
<trkpt lat="35.874140" lon="-118.066812"><ele>2262.4</ele><time>2024-06-03T14:28:59Z</time></trkpt>
<trkpt lat="35.874242" lon="-118.066876"><ele>2263.2</ele><time>2024-06-03T14:29:08Z</time></trkpt>
<trkpt lat="35.874509" lon="-118.067228"><ele>2266.0</ele><time>2024-06-03T14:29:46Z</time></trkpt>
<trkpt lat="35.874792" lon="-118.067739"><ele>2273.6</ele><time>2024-06-03T14:30:44Z</time></trkpt>
<trkpt lat="35.875451" lon="-118.067369"><ele>2273.8</ele><time>2024-06-03T14:30:50Z</time></trkpt>
<trkpt lat="35.875368" lon="-118.067474"><ele>2274.2</ele><time>2024-06-03T14:30:56Z</time></trkpt>
<trkpt lat="35.875424" lon="-118.067500"><ele>2274.8</ele><time>2024-06-03T14:31:03Z</time></trkpt>
<trkpt lat="35.876124" lon="-118.067043"><ele>2275.8</ele><time>2024-06-03T14:31:46Z</time></trkpt>
<trkpt lat="35.876998" lon="-118.066223"><ele>2276.0</ele><time>2024-06-03T14:32:44Z</time></trkpt>
<trkpt lat="35.876802" lon="-118.066261"><ele>2275.8</ele><time>2024-06-03T14:32:50Z</time></trkpt>
<trkpt lat="35.876669" lon="-118.066393"><ele>2276.0</ele><time>2024-06-03T14:32:59Z</time></trkpt>
<trkpt lat="35.877121" lon="-118.066486"><ele>2276.8</ele><time>2024-06-03T14:33:26Z</time></trkpt>
<trkpt lat="35.877260" lon="-118.066652"><ele>2276.6</ele><time>2024-06-03T14:34:00Z</time></trkpt>
<trkpt lat="35.877752" lon="-118.067000"><ele>2276.2</ele><time>2024-06-03T14:34:43Z</time></trkpt>
<trkpt lat="35.877575" lon="-118.067161"><ele>2276.4</ele><time>2024-06-03T14:34:45Z</time></trkpt>
<trkpt lat="35.877868" lon="-118.067097"><ele>2277.2</ele><time>2024-06-03T14:34:54Z</time></trkpt>
<trkpt lat="35.877976" lon="-118.067384"><ele>2279.8</ele><time>2024-06-03T14:35:31Z</time></trkpt>
<trkpt lat="35.878409" lon="-118.068101"><ele>2285.6</ele><time>2024-06-03T14:36:27Z</time></trkpt>
<trkpt lat="35.878884" lon="-118.068088"><ele>2287.2</ele><time>2024-06-03T14:36:47Z</time></trkpt>
<trkpt lat="35.878913" lon="-118.068169"><ele>2287.6</ele><time>2024-06-03T14:36:51Z</time></trkpt>
<trkpt lat="35.878609" lon="-118.068409"><ele>2288.2</ele><time>2024-06-03T14:36:56Z</time></trkpt>
<trkpt lat="35.878987" lon="-118.068689"><ele>2292.8</ele><time>2024-06-03T14:37:37Z</time></trkpt>
<trkpt lat="35.879280" lon="-118.069118"><ele>2298.6</ele><time>2024-06-03T14:38:44Z</time></trkpt>
<trkpt lat="35.879480" lon="-118.069126"><ele>2299.2</ele><time>2024-06-03T14:38:50Z</time></trkpt>
<trkpt lat="35.879725" lon="-118.068999"><ele>2299.2</ele><time>2024-06-03T14:38:54Z</time></trkpt>
<trkpt lat="35.879894" lon="-118.069133"><ele>2300.6</ele><time>2024-06-03T14:39:04Z</time></trkpt>
<trkpt lat="35.881153" lon="-118.069524"><ele>2309.2</ele><time>2024-06-03T14:40:40Z</time></trkpt>
<trkpt lat="35.881359" lon="-118.069743"><ele>2309.6</ele><time>2024-06-03T14:40:50Z</time></trkpt>
<trkpt lat="35.880899" lon="-118.070123"><ele>2309.2</ele><time>2024-06-03T14:40:59Z</time></trkpt>
<trkpt lat="35.881379" lon="-118.070294"><ele>2307.0</ele><time>2024-06-03T14:41:21Z</time></trkpt>
<trkpt lat="35.882564" lon="-118.069901"><ele>2306.4</ele><time>2024-06-03T14:42:49Z</time></trkpt>
<trkpt lat="35.881799" lon="-118.070336"><ele>2306.6</ele><time>2024-06-03T14:42:52Z</time></trkpt>
<trkpt lat="35.882024" lon="-118.070435"><ele>2307.8</ele><time>2024-06-03T14:43:07Z</time></trkpt>
<trkpt lat="35.883046" lon="-118.070588"><ele>2310.2</ele><time>2024-06-03T14:44:47Z</time></trkpt>
<trkpt lat="35.883002" lon="-118.070631"><ele>2310.6</ele><time>2024-06-03T14:44:50Z</time></trkpt>
<trkpt lat="35.883196" lon="-118.070667"><ele>2312.8</ele><time>2024-06-03T14:45:04Z</time></trkpt>
<trkpt lat="35.884114" lon="-118.071508"><ele>2321.6</ele><time>2024-06-03T14:46:50Z</time></trkpt>
<trkpt lat="35.884143" lon="-118.071631"><ele>2322.6</ele><time>2024-06-03T14:46:57Z</time></trkpt>
<trkpt lat="35.884328" lon="-118.071839"><ele>2323.6</ele><time>2024-06-03T14:47:11Z</time></trkpt>
<trkpt lat="35.884931" lon="-118.072814"><ele>2328.8</ele><time>2024-06-03T14:48:46Z</time></trkpt>
<trkpt lat="35.884912" lon="-118.072981"><ele>2330.2</ele><time>2024-06-03T14:48:57Z</time></trkpt>
<trkpt lat="35.885111" lon="-118.073080"><ele>2331.8</ele><time>2024-06-03T14:49:43Z</time></trkpt>
<trkpt lat="35.885593" lon="-118.073486"><ele>2330.8</ele><time>2024-06-03T14:50:27Z</time></trkpt>
<trkpt lat="35.885683" lon="-118.073865"><ele>2333.2</ele><time>2024-06-03T14:50:50Z</time></trkpt>
<trkpt lat="35.885620" lon="-118.074856"><ele>2340.6</ele><time>2024-06-03T14:52:05Z</time></trkpt>
<trkpt lat="35.885693" lon="-118.075525"><ele>2345.4</ele><time>2024-06-03T14:52:44Z</time></trkpt>
<trkpt lat="35.886752" lon="-118.075531"><ele>2350.0</ele><time>2024-06-03T14:54:49Z</time></trkpt>
<trkpt lat="35.886707" lon="-118.075584"><ele>2350.0</ele><time>2024-06-03T14:55:01Z</time></trkpt>
<trkpt lat="35.887291" lon="-118.076193"><ele>2353.0</ele><time>2024-06-03T14:56:43Z</time></trkpt>
<trkpt lat="35.887184" lon="-118.076323"><ele>2353.6</ele><time>2024-06-03T14:56:47Z</time></trkpt>
<trkpt lat="35.887607" lon="-118.077636"><ele>2364.6</ele><time>2024-06-03T14:58:31Z</time></trkpt>
<trkpt lat="35.887686" lon="-118.077814"><ele>2366.2</ele><time>2024-06-03T14:58:44Z</time></trkpt>
<trkpt lat="35.887831" lon="-118.077834"><ele>2368.0</ele><time>2024-06-03T14:58:52Z</time></trkpt>
<trkpt lat="35.888087" lon="-118.078094"><ele>2372.4</ele><time>2024-06-03T14:59:19Z</time></trkpt>
<trkpt lat="35.888101" lon="-118.078716"><ele>2378.6</ele><time>2024-06-03T15:00:44Z</time></trkpt>
<trkpt lat="35.887926" lon="-118.078888"><ele>2380.8</ele><time>2024-06-03T15:00:59Z</time></trkpt>
<trkpt lat="35.887899" lon="-118.079044"><ele>2385.4</ele><time>2024-06-03T15:01:25Z</time></trkpt>
<trkpt lat="35.887907" lon="-118.079314"><ele>2387.6</ele><time>2024-06-03T15:02:17Z</time></trkpt>
<trkpt lat="35.888051" lon="-118.079827"><ele>2390.4</ele><time>2024-06-03T15:02:49Z</time></trkpt>
<trkpt lat="35.888335" lon="-118.080042"><ele>2393.0</ele><time>2024-06-03T15:03:07Z</time></trkpt>
<trkpt lat="35.888998" lon="-118.080745"><ele>2406.0</ele><time>2024-06-03T15:04:44Z</time></trkpt>
<trkpt lat="35.889825" lon="-118.081112"><ele>2413.0</ele><time>2024-06-03T15:06:44Z</time></trkpt>
<trkpt lat="35.889795" lon="-118.081043"><ele>2413.4</ele><time>2024-06-03T15:06:57Z</time></trkpt>
<trkpt lat="35.890267" lon="-118.082203"><ele>2417.8</ele><time>2024-06-03T15:08:45Z</time></trkpt>
<trkpt lat="35.890339" lon="-118.082199"><ele>2418.4</ele><time>2024-06-03T15:08:49Z</time></trkpt>
<trkpt lat="35.890413" lon="-118.082343"><ele>2419.6</ele><time>2024-06-03T15:09:02Z</time></trkpt>
<trkpt lat="35.890719" lon="-118.082570"><ele>2420.2</ele><time>2024-06-03T15:10:05Z</time></trkpt>
<trkpt lat="35.890914" lon="-118.082856"><ele>2421.2</ele><time>2024-06-03T15:10:43Z</time></trkpt>
<trkpt lat="35.890642" lon="-118.082902"><ele>2421.0</ele><time>2024-06-03T15:10:45Z</time></trkpt>
<trkpt lat="35.890410" lon="-118.083189"><ele>2423.2</ele><time>2024-06-03T15:11:04Z</time></trkpt>
<trkpt lat="35.890193" lon="-118.083752"><ele>2429.0</ele><time>2024-06-03T15:11:47Z</time></trkpt>
<trkpt lat="35.890163" lon="-118.084169"><ele>2431.4</ele><time>2024-06-03T15:12:43Z</time></trkpt>
<trkpt lat="35.890044" lon="-118.084346"><ele>2432.0</ele><time>2024-06-03T15:12:49Z</time></trkpt>
<trkpt lat="35.890059" lon="-118.084482"><ele>2431.8</ele><time>2024-06-03T15:12:55Z</time></trkpt>
<trkpt lat="35.890442" lon="-118.084814"><ele>2434.4</ele><time>2024-06-03T15:13:29Z</time></trkpt>
<trkpt lat="35.890881" lon="-118.085619"><ele>2438.4</ele><time>2024-06-03T15:14:44Z</time></trkpt>
<trkpt lat="35.890953" lon="-118.085553"><ele>2438.4</ele><time>2024-06-03T15:14:45Z</time></trkpt>
<trkpt lat="35.890886" lon="-118.085725"><ele>2437.8</ele><time>2024-06-03T15:14:51Z</time></trkpt>
<trkpt lat="35.890988" lon="-118.086498"><ele>2435.6</ele><time>2024-06-03T15:15:55Z</time></trkpt>
<trkpt lat="35.890923" lon="-118.087239"><ele>2436.4</ele><time>2024-06-03T15:16:45Z</time></trkpt>
<trkpt lat="35.890842" lon="-118.087198"><ele>2436.0</ele><time>2024-06-03T15:16:48Z</time></trkpt>
<trkpt lat="35.890580" lon="-118.087369"><ele>2434.2</ele><time>2024-06-03T15:17:00Z</time></trkpt>
<trkpt lat="35.890506" lon="-118.087308"><ele>2433.2</ele><time>2024-06-03T15:17:07Z</time></trkpt>
<trkpt lat="35.890274" lon="-118.087339"><ele>2429.8</ele><time>2024-06-03T15:17:35Z</time></trkpt>
<trkpt lat="35.890283" lon="-118.087514"><ele>2430.4</ele><time>2024-06-03T15:18:50Z</time></trkpt>
<trkpt lat="35.890375" lon="-118.087407"><ele>2430.6</ele><time>2024-06-03T15:18:56Z</time></trkpt>
<trkpt lat="35.890316" lon="-118.087498"><ele>2430.2</ele><time>2024-06-03T15:20:49Z</time></trkpt>
<trkpt lat="35.890304" lon="-118.087451"><ele>2429.8</ele><time>2024-06-03T15:20:58Z</time></trkpt>
<trkpt lat="35.889946" lon="-118.087514"><ele>2429.0</ele><time>2024-06-03T15:22:26Z</time></trkpt>
<trkpt lat="35.889781" lon="-118.087601"><ele>2427.4</ele><time>2024-06-03T15:22:46Z</time></trkpt>
<trkpt lat="35.889917" lon="-118.088581"><ele>2422.2</ele><time>2024-06-03T15:23:48Z</time></trkpt>
<trkpt lat="35.889887" lon="-118.089265"><ele>2418.2</ele><time>2024-06-03T15:24:36Z</time></trkpt>
<trkpt lat="35.890137" lon="-118.090332"><ele>2409.4</ele><time>2024-06-03T15:25:34Z</time></trkpt>
<trkpt lat="35.890319" lon="-118.090952"><ele>2404.2</ele><time>2024-06-03T15:26:24Z</time></trkpt>
<trkpt lat="35.890520" lon="-118.091318"><ele>2402.0</ele><time>2024-06-03T15:26:46Z</time></trkpt>
<trkpt lat="35.890644" lon="-118.091336"><ele>2400.8</ele><time>2024-06-03T15:26:54Z</time></trkpt>
<trkpt lat="35.890740" lon="-118.091452"><ele>2399.6</ele><time>2024-06-03T15:27:03Z</time></trkpt>
<trkpt lat="35.890830" lon="-118.091690"><ele>2399.6</ele><time>2024-06-03T15:27:24Z</time></trkpt>
<trkpt lat="35.891208" lon="-118.092206"><ele>2394.2</ele><time>2024-06-03T15:28:16Z</time></trkpt>
<trkpt lat="35.891368" lon="-118.092709"><ele>2392.0</ele><time>2024-06-03T15:28:42Z</time></trkpt>
<trkpt lat="35.891362" lon="-118.093341"><ele>2388.8</ele><time>2024-06-03T15:29:22Z</time></trkpt>
<trkpt lat="35.891716" lon="-118.094518"><ele>2376.8</ele><time>2024-06-03T15:30:46Z</time></trkpt>
<trkpt lat="35.891951" lon="-118.094515"><ele>2374.4</ele><time>2024-06-03T15:31:04Z</time></trkpt>
<trkpt lat="35.892215" lon="-118.094626"><ele>2372.4</ele><time>2024-06-03T15:31:22Z</time></trkpt>
<trkpt lat="35.892183" lon="-118.094654"><ele>2371.4</ele><time>2024-06-03T15:31:28Z</time></trkpt>
<trkpt lat="35.892250" lon="-118.094743"><ele>2370.4</ele><time>2024-06-03T15:31:48Z</time></trkpt>
<trkpt lat="35.893087" lon="-118.095560"><ele>2359.4</ele><time>2024-06-03T15:32:53Z</time></trkpt>
<trkpt lat="35.893115" lon="-118.095723"><ele>2359.0</ele><time>2024-06-03T15:33:02Z</time></trkpt>
<trkpt lat="35.893458" lon="-118.096446"><ele>2353.0</ele><time>2024-06-03T15:34:02Z</time></trkpt>
<trkpt lat="35.893723" lon="-118.096652"><ele>2349.6</ele><time>2024-06-03T15:34:24Z</time></trkpt>
<trkpt lat="35.894589" lon="-118.098155"><ele>2340.4</ele><time>2024-06-03T15:36:30Z</time></trkpt>
<trkpt lat="35.894754" lon="-118.098556"><ele>2338.4</ele><time>2024-06-03T15:36:47Z</time></trkpt>
<trkpt lat="35.894868" lon="-118.098650"><ele>2337.2</ele><time>2024-06-03T15:36:58Z</time></trkpt>
<trkpt lat="35.895285" lon="-118.099616"><ele>2327.0</ele><time>2024-06-03T15:38:06Z</time></trkpt>
<trkpt lat="35.895330" lon="-118.100295"><ele>2320.4</ele><time>2024-06-03T15:38:46Z</time></trkpt>
<trkpt lat="35.895262" lon="-118.100414"><ele>2317.8</ele><time>2024-06-03T15:38:59Z</time></trkpt>
<trkpt lat="35.895219" lon="-118.100762"><ele>2315.8</ele><time>2024-06-03T15:39:28Z</time></trkpt>
<trkpt lat="35.895180" lon="-118.101711"><ele>2309.6</ele><time>2024-06-03T15:40:44Z</time></trkpt>
<trkpt lat="35.895274" lon="-118.102116"><ele>2305.2</ele><time>2024-06-03T15:41:05Z</time></trkpt>
<trkpt lat="35.895290" lon="-118.102555"><ele>2299.6</ele><time>2024-06-03T15:41:48Z</time></trkpt>
<trkpt lat="35.894754" lon="-118.103057"><ele>2294.0</ele><time>2024-06-03T15:42:46Z</time></trkpt>
<trkpt lat="35.894673" lon="-118.103050"><ele>2294.0</ele><time>2024-06-03T15:42:52Z</time></trkpt>
<trkpt lat="35.894853" lon="-118.103228"><ele>2293.2</ele><time>2024-06-03T15:43:10Z</time></trkpt>
<trkpt lat="35.895116" lon="-118.103630"><ele>2286.4</ele><time>2024-06-03T15:43:42Z</time></trkpt>
<trkpt lat="35.895325" lon="-118.104138"><ele>2279.8</ele><time>2024-06-03T15:44:16Z</time></trkpt>
<trkpt lat="35.895380" lon="-118.104497"><ele>2276.4</ele><time>2024-06-03T15:44:47Z</time></trkpt>
<trkpt lat="35.895516" lon="-118.104450"><ele>2275.6</ele><time>2024-06-03T15:44:57Z</time></trkpt>
<trkpt lat="35.895778" lon="-118.104560"><ele>2272.4</ele><time>2024-06-03T15:45:20Z</time></trkpt>
<trkpt lat="35.896029" lon="-118.104845"><ele>2267.8</ele><time>2024-06-03T15:45:42Z</time></trkpt>
<trkpt lat="35.896100" lon="-118.105577"><ele>2259.2</ele><time>2024-06-03T15:46:30Z</time></trkpt>
<trkpt lat="35.896001" lon="-118.105941"><ele>2256.8</ele><time>2024-06-03T15:46:52Z</time></trkpt>
<trkpt lat="35.896041" lon="-118.106089"><ele>2255.8</ele><time>2024-06-03T15:47:01Z</time></trkpt>
<trkpt lat="35.895981" lon="-118.106352"><ele>2253.6</ele><time>2024-06-03T15:47:28Z</time></trkpt>
<trkpt lat="35.896052" lon="-118.106285"><ele>2253.8</ele><time>2024-06-03T15:48:49Z</time></trkpt>
<trkpt lat="35.896100" lon="-118.106356"><ele>2254.2</ele><time>2024-06-03T15:50:50Z</time></trkpt>
<trkpt lat="35.896005" lon="-118.106316"><ele>2254.2</ele><time>2024-06-03T15:50:54Z</time></trkpt>
<trkpt lat="35.896086" lon="-118.106582"><ele>2251.2</ele><time>2024-06-03T15:53:54Z</time></trkpt>
<trkpt lat="35.896838" lon="-118.108055"><ele>2232.4</ele><time>2024-06-03T15:55:43Z</time></trkpt>
<trkpt lat="35.896926" lon="-118.108464"><ele>2229.0</ele><time>2024-06-03T15:56:07Z</time></trkpt>
<trkpt lat="35.896893" lon="-118.108599"><ele>2227.2</ele><time>2024-06-03T15:56:21Z</time></trkpt>
<trkpt lat="35.897165" lon="-118.108766"><ele>2224.6</ele><time>2024-06-03T15:56:46Z</time></trkpt>
<trkpt lat="35.897467" lon="-118.108772"><ele>2221.4</ele><time>2024-06-03T15:57:11Z</time></trkpt>
<trkpt lat="35.898078" lon="-118.109071"><ele>2212.2</ele><time>2024-06-03T15:58:09Z</time></trkpt>
<trkpt lat="35.898547" lon="-118.109472"><ele>2205.2</ele><time>2024-06-03T15:58:46Z</time></trkpt>
<trkpt lat="35.898787" lon="-118.109527"><ele>2202.8</ele><time>2024-06-03T15:59:06Z</time></trkpt>
<trkpt lat="35.899043" lon="-118.109711"><ele>2201.4</ele><time>2024-06-03T15:59:23Z</time></trkpt>
<trkpt lat="35.899536" lon="-118.110356"><ele>2197.6</ele><time>2024-06-03T16:00:46Z</time></trkpt>
<trkpt lat="35.899637" lon="-118.111127"><ele>2198.8</ele><time>2024-06-03T16:01:29Z</time></trkpt>
<trkpt lat="35.899550" lon="-118.111726"><ele>2200.0</ele><time>2024-06-03T16:02:17Z</time></trkpt>
<trkpt lat="35.899552" lon="-118.112191"><ele>2201.0</ele><time>2024-06-03T16:02:46Z</time></trkpt>
<trkpt lat="35.900015" lon="-118.112558"><ele>2204.8</ele><time>2024-06-03T16:03:31Z</time></trkpt>
<trkpt lat="35.900373" lon="-118.112871"><ele>2200.0</ele><time>2024-06-03T16:04:27Z</time></trkpt>
<trkpt lat="35.900536" lon="-118.113168"><ele>2199.2</ele><time>2024-06-03T16:04:47Z</time></trkpt>
<trkpt lat="35.900523" lon="-118.113255"><ele>2198.8</ele><time>2024-06-03T16:04:50Z</time></trkpt>
<trkpt lat="35.900610" lon="-118.113164"><ele>2198.2</ele><time>2024-06-03T16:04:55Z</time></trkpt>
<trkpt lat="35.900665" lon="-118.113947"><ele>2194.2</ele><time>2024-06-03T16:06:09Z</time></trkpt>
<trkpt lat="35.900866" lon="-118.114701"><ele>2189.2</ele><time>2024-06-03T16:06:46Z</time></trkpt>
<trkpt lat="35.901144" lon="-118.115300"><ele>2185.0</ele><time>2024-06-03T16:07:15Z</time></trkpt>
<trkpt lat="35.900775" lon="-118.116193"><ele>2179.0</ele><time>2024-06-03T16:08:21Z</time></trkpt>
<trkpt lat="35.900673" lon="-118.116729"><ele>2177.2</ele><time>2024-06-03T16:08:46Z</time></trkpt>
<trkpt lat="35.900559" lon="-118.116801"><ele>2177.0</ele><time>2024-06-03T16:08:51Z</time></trkpt>
<trkpt lat="35.900491" lon="-118.116748"><ele>2176.8</ele><time>2024-06-03T16:08:53Z</time></trkpt>
<trkpt lat="35.900513" lon="-118.116611"><ele>2176.6</ele><time>2024-06-03T16:08:54Z</time></trkpt>
<trkpt lat="35.900621" lon="-118.117464"><ele>2170.6</ele><time>2024-06-03T16:09:48Z</time></trkpt>
<trkpt lat="35.900964" lon="-118.118334"><ele>2163.4</ele><time>2024-06-03T16:10:49Z</time></trkpt>
<trkpt lat="35.900870" lon="-118.118525"><ele>2162.8</ele><time>2024-06-03T16:10:52Z</time></trkpt>
<trkpt lat="35.900791" lon="-118.118472"><ele>2162.4</ele><time>2024-06-03T16:10:56Z</time></trkpt>
<trkpt lat="35.900822" lon="-118.118728"><ele>2159.4</ele><time>2024-06-03T16:11:12Z</time></trkpt>
<trkpt lat="35.901049" lon="-118.119086"><ele>2156.2</ele><time>2024-06-03T16:11:38Z</time></trkpt>
<trkpt lat="35.901223" lon="-118.119184"><ele>2154.8</ele><time>2024-06-03T16:11:53Z</time></trkpt>
<trkpt lat="35.901296" lon="-118.119382"><ele>2154.0</ele><time>2024-06-03T16:12:06Z</time></trkpt>
<trkpt lat="35.901194" lon="-118.119598"><ele>2153.6</ele><time>2024-06-03T16:12:18Z</time></trkpt>
<trkpt lat="35.900645" lon="-118.119874"><ele>2151.0</ele><time>2024-06-03T16:13:30Z</time></trkpt>
<trkpt lat="35.900506" lon="-118.120196"><ele>2149.6</ele><time>2024-06-03T16:13:49Z</time></trkpt>
<trkpt lat="35.900896" lon="-118.120403"><ele>2145.2</ele><time>2024-06-03T16:14:18Z</time></trkpt>
<trkpt lat="35.901679" lon="-118.121137"><ele>2139.0</ele><time>2024-06-03T16:15:46Z</time></trkpt>
<trkpt lat="35.901707" lon="-118.121099"><ele>2139.0</ele><time>2024-06-03T16:15:48Z</time></trkpt>
<trkpt lat="35.902002" lon="-118.121294"><ele>2140.4</ele><time>2024-06-03T16:16:10Z</time></trkpt>
<trkpt lat="35.902727" lon="-118.121545"><ele>2137.2</ele><time>2024-06-03T16:17:20Z</time></trkpt>
<trkpt lat="35.903057" lon="-118.121531"><ele>2136.6</ele><time>2024-06-03T16:17:48Z</time></trkpt>
<trkpt lat="35.903028" lon="-118.121259"><ele>2135.6</ele><time>2024-06-03T16:17:56Z</time></trkpt>
<trkpt lat="35.903302" lon="-118.121065"><ele>2132.4</ele><time>2024-06-03T16:18:22Z</time></trkpt>
<trkpt lat="35.903771" lon="-118.121053"><ele>2128.0</ele><time>2024-06-03T16:18:58Z</time></trkpt>
<trkpt lat="35.904185" lon="-118.121209"><ele>2124.0</ele><time>2024-06-03T16:19:47Z</time></trkpt>
<trkpt lat="35.904297" lon="-118.120837"><ele>2123.8</ele><time>2024-06-03T16:19:49Z</time></trkpt>
<trkpt lat="35.904417" lon="-118.120835"><ele>2123.6</ele><time>2024-06-03T16:19:51Z</time></trkpt>
<trkpt lat="35.904555" lon="-118.120722"><ele>2121.8</ele><time>2024-06-03T16:20:06Z</time></trkpt>
<trkpt lat="35.904998" lon="-118.121089"><ele>2116.6</ele><time>2024-06-03T16:20:43Z</time></trkpt>
<trkpt lat="35.904918" lon="-118.121177"><ele>2115.8</ele><time>2024-06-03T16:20:46Z</time></trkpt>
<trkpt lat="35.905063" lon="-118.121295"><ele>2114.8</ele><time>2024-06-03T16:20:56Z</time></trkpt>
<trkpt lat="35.904908" lon="-118.121949"><ele>2111.2</ele><time>2024-06-03T16:21:47Z</time></trkpt>
<trkpt lat="35.904945" lon="-118.122013"><ele>2110.2</ele><time>2024-06-03T16:22:01Z</time></trkpt>
<trkpt lat="35.905376" lon="-118.122416"><ele>2105.8</ele><time>2024-06-03T16:22:55Z</time></trkpt>
<trkpt lat="35.905375" lon="-118.122354"><ele>2105.8</ele><time>2024-06-03T16:22:56Z</time></trkpt>
<trkpt lat="35.905427" lon="-118.122500"><ele>2105.0</ele><time>2024-06-03T16:23:03Z</time></trkpt>
<trkpt lat="35.905855" lon="-118.122906"><ele>2102.2</ele><time>2024-06-03T16:24:34Z</time></trkpt>
<trkpt lat="35.906262" lon="-118.122859"><ele>2102.6</ele><time>2024-06-03T16:24:49Z</time></trkpt>
<trkpt lat="35.906066" lon="-118.122794"><ele>2102.6</ele><time>2024-06-03T16:24:53Z</time></trkpt>
<trkpt lat="35.906137" lon="-118.122646"><ele>2102.4</ele><time>2024-06-03T16:25:01Z</time></trkpt>
<trkpt lat="35.906459" lon="-118.122579"><ele>2100.6</ele><time>2024-06-03T16:25:26Z</time></trkpt>
<trkpt lat="35.906616" lon="-118.122445"><ele>2099.4</ele><time>2024-06-03T16:25:42Z</time></trkpt>
<trkpt lat="35.906489" lon="-118.122153"><ele>2096.8</ele><time>2024-06-03T16:26:00Z</time></trkpt>
<trkpt lat="35.906618" lon="-118.121985"><ele>2095.2</ele><time>2024-06-03T16:26:11Z</time></trkpt>
<trkpt lat="35.906828" lon="-118.121972"><ele>2093.8</ele><time>2024-06-03T16:26:31Z</time></trkpt>
<trkpt lat="35.907037" lon="-118.122028"><ele>2091.6</ele><time>2024-06-03T16:26:44Z</time></trkpt>
<trkpt lat="35.907031" lon="-118.122080"><ele>2091.2</ele><time>2024-06-03T16:26:47Z</time></trkpt>
<trkpt lat="35.907247" lon="-118.121973"><ele>2090.8</ele><time>2024-06-03T16:27:08Z</time></trkpt>
<trkpt lat="35.907176" lon="-118.121390"><ele>2088.2</ele><time>2024-06-03T16:27:44Z</time></trkpt>
<trkpt lat="35.907025" lon="-118.121334"><ele>2087.2</ele><time>2024-06-03T16:27:52Z</time></trkpt>
<trkpt lat="35.906935" lon="-118.120936"><ele>2084.2</ele><time>2024-06-03T16:28:15Z</time></trkpt>
<trkpt lat="35.907083" lon="-118.120492"><ele>2081.0</ele><time>2024-06-03T16:28:46Z</time></trkpt>
<trkpt lat="35.907205" lon="-118.120389"><ele>2080.0</ele><time>2024-06-03T16:28:56Z</time></trkpt>
<trkpt lat="35.907700" lon="-118.120764"><ele>2075.8</ele><time>2024-06-03T16:29:42Z</time></trkpt>
<trkpt lat="35.908022" lon="-118.120813"><ele>2074.4</ele><time>2024-06-03T16:30:03Z</time></trkpt>
<trkpt lat="35.908153" lon="-118.121021"><ele>2073.2</ele><time>2024-06-03T16:30:16Z</time></trkpt>
<trkpt lat="35.908259" lon="-118.121489"><ele>2072.6</ele><time>2024-06-03T16:30:47Z</time></trkpt>
<trkpt lat="35.908342" lon="-118.121549"><ele>2072.4</ele><time>2024-06-03T16:30:55Z</time></trkpt>
<trkpt lat="35.908510" lon="-118.121529"><ele>2071.4</ele><time>2024-06-03T16:31:05Z</time></trkpt>
<trkpt lat="35.908984" lon="-118.121728"><ele>2065.8</ele><time>2024-06-03T16:31:44Z</time></trkpt>
<trkpt lat="35.909117" lon="-118.121620"><ele>2065.0</ele><time>2024-06-03T16:31:55Z</time></trkpt>
<trkpt lat="35.909386" lon="-118.121902"><ele>2062.4</ele><time>2024-06-03T16:32:19Z</time></trkpt>
<trkpt lat="35.909610" lon="-118.122185"><ele>2061.2</ele><time>2024-06-03T16:32:44Z</time></trkpt>
<trkpt lat="35.909508" lon="-118.122697"><ele>2057.6</ele><time>2024-06-03T16:33:15Z</time></trkpt>
<trkpt lat="35.909568" lon="-118.123020"><ele>2056.6</ele><time>2024-06-03T16:33:44Z</time></trkpt>
<trkpt lat="35.909879" lon="-118.123281"><ele>2056.2</ele><time>2024-06-03T16:34:16Z</time></trkpt>
<trkpt lat="35.910241" lon="-118.123296"><ele>2054.0</ele><time>2024-06-03T16:34:44Z</time></trkpt>
<trkpt lat="35.910291" lon="-118.123393"><ele>2053.0</ele><time>2024-06-03T16:34:50Z</time></trkpt>
<trkpt lat="35.910314" lon="-118.123627"><ele>2052.0</ele><time>2024-06-03T16:35:01Z</time></trkpt>
<trkpt lat="35.910142" lon="-118.123971"><ele>2053.0</ele><time>2024-06-03T16:35:23Z</time></trkpt>
<trkpt lat="35.910102" lon="-118.124214"><ele>2053.6</ele><time>2024-06-03T16:35:44Z</time></trkpt>
<trkpt lat="35.910213" lon="-118.124263"><ele>2054.0</ele><time>2024-06-03T16:35:52Z</time></trkpt>
<trkpt lat="35.910471" lon="-118.124861"><ele>2052.2</ele><time>2024-06-03T16:36:38Z</time></trkpt>
<trkpt lat="35.910620" lon="-118.125017"><ele>2051.8</ele><time>2024-06-03T16:36:46Z</time></trkpt>
<trkpt lat="35.910634" lon="-118.125135"><ele>2050.2</ele><time>2024-06-03T16:37:53Z</time></trkpt>
<trkpt lat="35.910601" lon="-118.125079"><ele>2049.6</ele><time>2024-06-03T16:38:56Z</time></trkpt>
<trkpt lat="35.910669" lon="-118.125081"><ele>2049.4</ele><time>2024-06-03T16:39:38Z</time></trkpt>
<trkpt lat="35.910674" lon="-118.125016"><ele>2049.0</ele><time>2024-06-03T16:39:50Z</time></trkpt>
<trkpt lat="35.910572" lon="-118.125104"><ele>2048.6</ele><time>2024-06-03T16:40:00Z</time></trkpt>
<trkpt lat="35.910612" lon="-118.125077"><ele>2048.4</ele><time>2024-06-03T16:40:19Z</time></trkpt>
<trkpt lat="35.910564" lon="-118.125041"><ele>2048.6</ele><time>2024-06-03T16:40:49Z</time></trkpt>
<trkpt lat="35.910622" lon="-118.125021"><ele>2048.2</ele><time>2024-06-03T16:41:03Z</time></trkpt>
<trkpt lat="35.910590" lon="-118.125080"><ele>2048.4</ele><time>2024-06-03T16:41:10Z</time></trkpt>
<trkpt lat="35.910639" lon="-118.125218"><ele>2048.8</ele><time>2024-06-03T16:41:45Z</time></trkpt>
<trkpt lat="35.910637" lon="-118.125102"><ele>2048.0</ele><time>2024-06-03T16:42:16Z</time></trkpt>
<trkpt lat="35.910590" lon="-118.125108"><ele>2048.2</ele><time>2024-06-03T16:42:34Z</time></trkpt>
<trkpt lat="35.910636" lon="-118.125239"><ele>2048.0</ele><time>2024-06-03T16:43:45Z</time></trkpt>
<trkpt lat="35.910655" lon="-118.125118"><ele>2048.0</ele><time>2024-06-03T16:43:51Z</time></trkpt>
<trkpt lat="35.910583" lon="-118.125095"><ele>2047.6</ele><time>2024-06-03T16:44:48Z</time></trkpt>
<trkpt lat="35.910633" lon="-118.125095"><ele>2047.2</ele><time>2024-06-03T16:45:19Z</time></trkpt>
<trkpt lat="35.910600" lon="-118.125046"><ele>2047.2</ele><time>2024-06-03T16:45:49Z</time></trkpt>
<trkpt lat="35.910638" lon="-118.125089"><ele>2046.8</ele><time>2024-06-03T16:46:22Z</time></trkpt>
<trkpt lat="35.910600" lon="-118.125045"><ele>2046.8</ele><time>2024-06-03T16:47:07Z</time></trkpt>
<trkpt lat="35.911269" lon="-118.125612"><ele>2047.6</ele><time>2024-06-03T16:50:52Z</time></trkpt>
<trkpt lat="35.910686" lon="-118.125075"><ele>2047.6</ele><time>2024-06-03T16:50:56Z</time></trkpt>
<trkpt lat="35.910565" lon="-118.125056"><ele>2047.8</ele><time>2024-06-03T16:51:45Z</time></trkpt>
<trkpt lat="35.911228" lon="-118.126134"><ele>2048.8</ele><time>2024-06-03T16:53:49Z</time></trkpt>
<trkpt lat="35.911211" lon="-118.125969"><ele>2048.8</ele><time>2024-06-03T16:53:53Z</time></trkpt>
<trkpt lat="35.910882" lon="-118.125581"><ele>2048.8</ele><time>2024-06-03T16:53:57Z</time></trkpt>
<trkpt lat="35.910615" lon="-118.125121"><ele>2048.2</ele><time>2024-06-03T16:54:03Z</time></trkpt>
<trkpt lat="35.910641" lon="-118.125001"><ele>2048.4</ele><time>2024-06-03T16:54:19Z</time></trkpt>
<trkpt lat="35.910609" lon="-118.125114"><ele>2048.8</ele><time>2024-06-03T16:55:04Z</time></trkpt>
<trkpt lat="35.910409" lon="-118.124954"><ele>2051.0</ele><time>2024-06-03T16:56:48Z</time></trkpt>
<trkpt lat="35.910511" lon="-118.125248"><ele>2051.0</ele><time>2024-06-03T16:56:54Z</time></trkpt>
<trkpt lat="35.910625" lon="-118.125138"><ele>2051.0</ele><time>2024-06-03T16:56:56Z</time></trkpt>
<trkpt lat="35.909943" lon="-118.125472"><ele>2048.0</ele><time>2024-06-03T16:58:47Z</time></trkpt>
<trkpt lat="35.909905" lon="-118.125557"><ele>2047.6</ele><time>2024-06-03T16:58:49Z</time></trkpt>
<trkpt lat="35.909856" lon="-118.125498"><ele>2046.6</ele><time>2024-06-03T16:58:59Z</time></trkpt>
<trkpt lat="35.909763" lon="-118.125555"><ele>2046.0</ele><time>2024-06-03T16:59:07Z</time></trkpt>
<trkpt lat="35.910082" lon="-118.126109"><ele>2043.2</ele><time>2024-06-03T16:59:54Z</time></trkpt>
<trkpt lat="35.910421" lon="-118.126100"><ele>2042.4</ele><time>2024-06-03T17:00:18Z</time></trkpt>
<trkpt lat="35.910816" lon="-118.126318"><ele>2039.6</ele><time>2024-06-03T17:00:49Z</time></trkpt>
<trkpt lat="35.910243" lon="-118.126608"><ele>2039.8</ele><time>2024-06-03T17:00:55Z</time></trkpt>
<trkpt lat="35.910438" lon="-118.126740"><ele>2039.8</ele><time>2024-06-03T17:00:58Z</time></trkpt>
<trkpt lat="35.910427" lon="-118.126882"><ele>2039.6</ele><time>2024-06-03T17:01:00Z</time></trkpt>
<trkpt lat="35.910160" lon="-118.126932"><ele>2039.0</ele><time>2024-06-03T17:01:04Z</time></trkpt>
<trkpt lat="35.910006" lon="-118.127055"><ele>2039.0</ele><time>2024-06-03T17:01:06Z</time></trkpt>
<trkpt lat="35.909840" lon="-118.127217"><ele>2037.6</ele><time>2024-06-03T17:01:19Z</time></trkpt>
<trkpt lat="35.909786" lon="-118.127448"><ele>2038.4</ele><time>2024-06-03T17:01:27Z</time></trkpt>
<trkpt lat="35.909717" lon="-118.127488"><ele>2038.8</ele><time>2024-06-03T17:01:33Z</time></trkpt>
<trkpt lat="35.909989" lon="-118.127634"><ele>2037.2</ele><time>2024-06-03T17:02:03Z</time></trkpt>
<trkpt lat="35.911037" lon="-118.128452"><ele>2035.8</ele><time>2024-06-03T17:03:49Z</time></trkpt>
<trkpt lat="35.911169" lon="-118.128365"><ele>2035.6</ele><time>2024-06-03T17:03:50Z</time></trkpt>
<trkpt lat="35.911290" lon="-118.128425"><ele>2035.4</ele><time>2024-06-03T17:03:51Z</time></trkpt>
<trkpt lat="35.911027" lon="-118.128743"><ele>2034.6</ele><time>2024-06-03T17:03:56Z</time></trkpt>
<trkpt lat="35.911105" lon="-118.128773"><ele>2034.4</ele><time>2024-06-03T17:03:59Z</time></trkpt>
<trkpt lat="35.910990" lon="-118.128773"><ele>2034.2</ele><time>2024-06-03T17:04:02Z</time></trkpt>
<trkpt lat="35.911245" lon="-118.128876"><ele>2029.8</ele><time>2024-06-03T17:04:28Z</time></trkpt>
<trkpt lat="35.911682" lon="-118.128867"><ele>2025.8</ele><time>2024-06-03T17:05:00Z</time></trkpt>
<trkpt lat="35.912006" lon="-118.129177"><ele>2021.0</ele><time>2024-06-03T17:05:32Z</time></trkpt>
<trkpt lat="35.912217" lon="-118.129225"><ele>2018.8</ele><time>2024-06-03T17:05:48Z</time></trkpt>
<trkpt lat="35.912148" lon="-118.129290"><ele>2018.6</ele><time>2024-06-03T17:05:51Z</time></trkpt>
<trkpt lat="35.912286" lon="-118.129416"><ele>2017.8</ele><time>2024-06-03T17:05:55Z</time></trkpt>
<trkpt lat="35.912147" lon="-118.129515"><ele>2017.2</ele><time>2024-06-03T17:05:59Z</time></trkpt>
<trkpt lat="35.912202" lon="-118.129643"><ele>2017.4</ele><time>2024-06-03T17:06:07Z</time></trkpt>
<trkpt lat="35.912460" lon="-118.129743"><ele>2015.8</ele><time>2024-06-03T17:06:34Z</time></trkpt>
<trkpt lat="35.912691" lon="-118.129600"><ele>2014.6</ele><time>2024-06-03T17:07:38Z</time></trkpt>
<trkpt lat="35.912679" lon="-118.129411"><ele>2013.2</ele><time>2024-06-03T17:07:47Z</time></trkpt>
<trkpt lat="35.912806" lon="-118.129471"><ele>2012.6</ele><time>2024-06-03T17:07:52Z</time></trkpt>
<trkpt lat="35.912595" lon="-118.130072"><ele>2012.0</ele><time>2024-06-03T17:07:57Z</time></trkpt>
<trkpt lat="35.912729" lon="-118.130168"><ele>2011.2</ele><time>2024-06-03T17:08:04Z</time></trkpt>
<trkpt lat="35.912739" lon="-118.130067"><ele>2010.2</ele><time>2024-06-03T17:08:10Z</time></trkpt>
<trkpt lat="35.912845" lon="-118.129973"><ele>2009.0</ele><time>2024-06-03T17:08:20Z</time></trkpt>
<trkpt lat="35.913578" lon="-118.129597"><ele>2001.2</ele><time>2024-06-03T17:09:20Z</time></trkpt>
<trkpt lat="35.913872" lon="-118.129528"><ele>1998.0</ele><time>2024-06-03T17:09:48Z</time></trkpt>
<trkpt lat="35.914288" lon="-118.129536"><ele>1995.8</ele><time>2024-06-03T17:10:20Z</time></trkpt>
<trkpt lat="35.914639" lon="-118.129413"><ele>1996.6</ele><time>2024-06-03T17:10:45Z</time></trkpt>
<trkpt lat="35.914726" lon="-118.129595"><ele>1996.8</ele><time>2024-06-03T17:10:54Z</time></trkpt>
<trkpt lat="35.914718" lon="-118.129716"><ele>1996.2</ele><time>2024-06-03T17:11:02Z</time></trkpt>
<trkpt lat="35.915179" lon="-118.129764"><ele>1993.8</ele><time>2024-06-03T17:11:29Z</time></trkpt>
<trkpt lat="35.915366" lon="-118.129861"><ele>1992.6</ele><time>2024-06-03T17:11:57Z</time></trkpt>
<trkpt lat="35.915605" lon="-118.129803"><ele>1992.0</ele><time>2024-06-03T17:12:49Z</time></trkpt>
<trkpt lat="35.915462" lon="-118.130252"><ele>1992.0</ele><time>2024-06-03T17:12:55Z</time></trkpt>
<trkpt lat="35.915142" lon="-118.130750"><ele>1991.4</ele><time>2024-06-03T17:13:02Z</time></trkpt>
<trkpt lat="35.915938" lon="-118.130700"><ele>1988.8</ele><time>2024-06-03T17:14:21Z</time></trkpt>
<trkpt lat="35.916420" lon="-118.131076"><ele>1984.2</ele><time>2024-06-03T17:14:55Z</time></trkpt>
<trkpt lat="35.915968" lon="-118.131343"><ele>1984.0</ele><time>2024-06-03T17:14:56Z</time></trkpt>
<trkpt lat="35.915889" lon="-118.131704"><ele>1981.6</ele><time>2024-06-03T17:15:13Z</time></trkpt>
<trkpt lat="35.916142" lon="-118.131939"><ele>1977.4</ele><time>2024-06-03T17:15:42Z</time></trkpt>
<trkpt lat="35.916278" lon="-118.131952"><ele>1975.6</ele><time>2024-06-03T17:15:54Z</time></trkpt>
<trkpt lat="35.916464" lon="-118.132107"><ele>1973.0</ele><time>2024-06-03T17:16:11Z</time></trkpt>
<trkpt lat="35.916381" lon="-118.132760"><ele>1967.6</ele><time>2024-06-03T17:17:07Z</time></trkpt>
<trkpt lat="35.916446" lon="-118.133427"><ele>1963.6</ele><time>2024-06-03T17:17:43Z</time></trkpt>
<trkpt lat="35.916402" lon="-118.133675"><ele>1962.6</ele><time>2024-06-03T17:17:53Z</time></trkpt>
<trkpt lat="35.916496" lon="-118.133764"><ele>1962.0</ele><time>2024-06-03T17:17:59Z</time></trkpt>
<trkpt lat="35.916601" lon="-118.134081"><ele>1959.0</ele><time>2024-06-03T17:18:29Z</time></trkpt>
<trkpt lat="35.916785" lon="-118.134280"><ele>1956.2</ele><time>2024-06-03T17:18:45Z</time></trkpt>
<trkpt lat="35.916868" lon="-118.134830"><ele>1951.2</ele><time>2024-06-03T17:19:21Z</time></trkpt>
<trkpt lat="35.916743" lon="-118.135200"><ele>1948.0</ele><time>2024-06-03T17:19:49Z</time></trkpt>
<trkpt lat="35.916777" lon="-118.135512"><ele>1946.0</ele><time>2024-06-03T17:20:07Z</time></trkpt>
<trkpt lat="35.917026" lon="-118.135663"><ele>1943.4</ele><time>2024-06-03T17:20:25Z</time></trkpt>
<trkpt lat="35.917730" lon="-118.135568"><ele>1937.2</ele><time>2024-06-03T17:21:13Z</time></trkpt>
<trkpt lat="35.918254" lon="-118.135648"><ele>1934.0</ele><time>2024-06-03T17:21:55Z</time></trkpt>
<trkpt lat="35.918183" lon="-118.135713"><ele>1933.6</ele><time>2024-06-03T17:21:57Z</time></trkpt>
<trkpt lat="35.918595" lon="-118.136018"><ele>1929.8</ele><time>2024-06-03T17:22:33Z</time></trkpt>
<trkpt lat="35.918705" lon="-118.136259"><ele>1927.4</ele><time>2024-06-03T17:22:53Z</time></trkpt>
<trkpt lat="35.918742" lon="-118.136401"><ele>1926.4</ele><time>2024-06-03T17:23:01Z</time></trkpt>
<trkpt lat="35.918661" lon="-118.136683"><ele>1922.8</ele><time>2024-06-03T17:23:23Z</time></trkpt>
<trkpt lat="35.918680" lon="-118.137286"><ele>1922.0</ele><time>2024-06-03T17:24:04Z</time></trkpt>
<trkpt lat="35.919632" lon="-118.137382"><ele>1917.6</ele><time>2024-06-03T17:25:03Z</time></trkpt>
<trkpt lat="35.919900" lon="-118.137518"><ele>1915.2</ele><time>2024-06-03T17:25:23Z</time></trkpt>
<trkpt lat="35.920223" lon="-118.137563"><ele>1913.0</ele><time>2024-06-03T17:25:50Z</time></trkpt>
<trkpt lat="35.920107" lon="-118.137861"><ele>1911.0</ele><time>2024-06-03T17:25:59Z</time></trkpt>
<trkpt lat="35.920133" lon="-118.137961"><ele>1909.6</ele><time>2024-06-03T17:26:05Z</time></trkpt>
<trkpt lat="35.920796" lon="-118.138477"><ele>1901.2</ele><time>2024-06-03T17:27:09Z</time></trkpt>
<trkpt lat="35.920806" lon="-118.138833"><ele>1899.2</ele><time>2024-06-03T17:27:49Z</time></trkpt>
<trkpt lat="35.920665" lon="-118.139096"><ele>1898.2</ele><time>2024-06-03T17:27:56Z</time></trkpt>
<trkpt lat="35.920541" lon="-118.139197"><ele>1898.2</ele><time>2024-06-03T17:27:59Z</time></trkpt>
<trkpt lat="35.920534" lon="-118.139300"><ele>1898.0</ele><time>2024-06-03T17:28:03Z</time></trkpt>
<trkpt lat="35.921115" lon="-118.139562"><ele>1896.8</ele><time>2024-06-03T17:28:38Z</time></trkpt>
<trkpt lat="35.921169" lon="-118.139641"><ele>1897.0</ele><time>2024-06-03T17:29:02Z</time></trkpt>
<trkpt lat="35.921716" lon="-118.139654"><ele>1892.6</ele><time>2024-06-03T17:29:49Z</time></trkpt>
<trkpt lat="35.921760" lon="-118.139811"><ele>1892.0</ele><time>2024-06-03T17:29:55Z</time></trkpt>
<trkpt lat="35.921644" lon="-118.139990"><ele>1891.2</ele><time>2024-06-03T17:30:00Z</time></trkpt>
<trkpt lat="35.921653" lon="-118.140091"><ele>1890.6</ele><time>2024-06-03T17:30:06Z</time></trkpt>
<trkpt lat="35.921799" lon="-118.140290"><ele>1889.6</ele><time>2024-06-03T17:30:17Z</time></trkpt>
<trkpt lat="35.921970" lon="-118.140300"><ele>1888.4</ele><time>2024-06-03T17:30:25Z</time></trkpt>
<trkpt lat="35.922274" lon="-118.140847"><ele>1880.0</ele><time>2024-06-03T17:31:13Z</time></trkpt>
<trkpt lat="35.922426" lon="-118.140888"><ele>1878.4</ele><time>2024-06-03T17:31:25Z</time></trkpt>
<trkpt lat="35.922648" lon="-118.141128"><ele>1872.6</ele><time>2024-06-03T17:31:53Z</time></trkpt>
<trkpt lat="35.922502" lon="-118.141477"><ele>1871.2</ele><time>2024-06-03T17:32:05Z</time></trkpt>
<trkpt lat="35.923260" lon="-118.141782"><ele>1858.8</ele><time>2024-06-03T17:33:21Z</time></trkpt>
<trkpt lat="35.923143" lon="-118.141739"><ele>1857.0</ele><time>2024-06-03T17:33:49Z</time></trkpt>
<trkpt lat="35.923121" lon="-118.141801"><ele>1856.8</ele><time>2024-06-03T17:33:50Z</time></trkpt>
<trkpt lat="35.923192" lon="-118.141845"><ele>1856.6</ele><time>2024-06-03T17:33:53Z</time></trkpt>
<trkpt lat="35.923449" lon="-118.142455"><ele>1856.2</ele><time>2024-06-03T17:34:03Z</time></trkpt>
<trkpt lat="35.923744" lon="-118.142564"><ele>1854.8</ele><time>2024-06-03T17:34:15Z</time></trkpt>
<trkpt lat="35.923850" lon="-118.142686"><ele>1853.4</ele><time>2024-06-03T17:34:31Z</time></trkpt>
<trkpt lat="35.923893" lon="-118.143089"><ele>1849.6</ele><time>2024-06-03T17:35:25Z</time></trkpt>
<trkpt lat="35.924115" lon="-118.143223"><ele>1848.4</ele><time>2024-06-03T17:35:49Z</time></trkpt>
<trkpt lat="35.923730" lon="-118.143929"><ele>1849.4</ele><time>2024-06-03T17:36:07Z</time></trkpt>
<trkpt lat="35.923878" lon="-118.144335"><ele>1848.8</ele><time>2024-06-03T17:36:32Z</time></trkpt>
<trkpt lat="35.924300" lon="-118.145029"><ele>1842.8</ele><time>2024-06-03T17:37:50Z</time></trkpt>
<trkpt lat="35.924418" lon="-118.144838"><ele>1842.4</ele><time>2024-06-03T17:37:52Z</time></trkpt>
<trkpt lat="35.924361" lon="-118.144816"><ele>1841.4</ele><time>2024-06-03T17:37:55Z</time></trkpt>
<trkpt lat="35.924178" lon="-118.145135"><ele>1840.8</ele><time>2024-06-03T17:38:01Z</time></trkpt>
<trkpt lat="35.924075" lon="-118.145189"><ele>1840.0</ele><time>2024-06-03T17:38:08Z</time></trkpt>
<trkpt lat="35.923984" lon="-118.145721"><ele>1833.0</ele><time>2024-06-03T17:38:46Z</time></trkpt>
<trkpt lat="35.923891" lon="-118.145714"><ele>1832.4</ele><time>2024-06-03T17:38:55Z</time></trkpt>
<trkpt lat="35.923799" lon="-118.145941"><ele>1830.0</ele><time>2024-06-03T17:39:15Z</time></trkpt>
<trkpt lat="35.923660" lon="-118.146337"><ele>1826.6</ele><time>2024-06-03T17:39:46Z</time></trkpt>
<trkpt lat="35.923637" lon="-118.146750"><ele>1822.4</ele><time>2024-06-03T17:40:18Z</time></trkpt>
<trkpt lat="35.923467" lon="-118.147171"><ele>1818.0</ele><time>2024-06-03T17:40:46Z</time></trkpt>
<trkpt lat="35.923510" lon="-118.147271"><ele>1816.4</ele><time>2024-06-03T17:40:55Z</time></trkpt>
<trkpt lat="35.923479" lon="-118.147402"><ele>1814.2</ele><time>2024-06-03T17:41:05Z</time></trkpt>
<trkpt lat="35.923103" lon="-118.148035"><ele>1808.0</ele><time>2024-06-03T17:41:43Z</time></trkpt>
<trkpt lat="35.923138" lon="-118.148124"><ele>1807.0</ele><time>2024-06-03T17:41:56Z</time></trkpt>
<trkpt lat="35.923027" lon="-118.148466"><ele>1804.8</ele><time>2024-06-03T17:42:20Z</time></trkpt>
<trkpt lat="35.923021" lon="-118.148701"><ele>1803.8</ele><time>2024-06-03T17:42:39Z</time></trkpt>
<trkpt lat="35.923539" lon="-118.149246"><ele>1798.6</ele><time>2024-06-03T17:43:31Z</time></trkpt>
<trkpt lat="35.923999" lon="-118.149377"><ele>1795.0</ele><time>2024-06-03T17:44:05Z</time></trkpt>
<trkpt lat="35.924298" lon="-118.149363"><ele>1792.2</ele><time>2024-06-03T17:44:27Z</time></trkpt>
<trkpt lat="35.924515" lon="-118.149529"><ele>1789.4</ele><time>2024-06-03T17:44:47Z</time></trkpt>
<trkpt lat="35.924623" lon="-118.149734"><ele>1786.8</ele><time>2024-06-03T17:45:03Z</time></trkpt>
<trkpt lat="35.924644" lon="-118.149525"><ele>1785.6</ele><time>2024-06-03T17:45:17Z</time></trkpt>
<trkpt lat="35.924784" lon="-118.149306"><ele>1783.4</ele><time>2024-06-03T17:45:40Z</time></trkpt>
<trkpt lat="35.924655" lon="-118.149334"><ele>1783.0</ele><time>2024-06-03T17:46:52Z</time></trkpt>
<trkpt lat="35.924734" lon="-118.149337"><ele>1783.0</ele><time>2024-06-03T17:47:10Z</time></trkpt>
<trkpt lat="35.924693" lon="-118.149270"><ele>1782.2</ele><time>2024-06-03T17:47:46Z</time></trkpt>
<trkpt lat="35.924897" lon="-118.149239"><ele>1781.4</ele><time>2024-06-03T17:48:48Z</time></trkpt>
<trkpt lat="35.924890" lon="-118.149193"><ele>1781.4</ele><time>2024-06-03T17:48:50Z</time></trkpt>
<trkpt lat="35.924756" lon="-118.149293"><ele>1781.6</ele><time>2024-06-03T17:49:18Z</time></trkpt>
<trkpt lat="35.924730" lon="-118.149210"><ele>1781.6</ele><time>2024-06-03T17:49:56Z</time></trkpt>
<trkpt lat="35.924642" lon="-118.149356"><ele>1782.0</ele><time>2024-06-03T17:50:01Z</time></trkpt>
<trkpt lat="35.924744" lon="-118.149328"><ele>1782.6</ele><time>2024-06-03T17:50:13Z</time></trkpt>
<trkpt lat="35.924649" lon="-118.149384"><ele>1782.8</ele><time>2024-06-03T17:50:49Z</time></trkpt>
<trkpt lat="35.924829" lon="-118.149315"><ele>1782.8</ele><time>2024-06-03T17:51:40Z</time></trkpt>
<trkpt lat="35.924736" lon="-118.149278"><ele>1782.6</ele><time>2024-06-03T17:51:51Z</time></trkpt>
<trkpt lat="35.924739" lon="-118.149221"><ele>1782.8</ele><time>2024-06-03T17:51:58Z</time></trkpt>
<trkpt lat="35.924897" lon="-118.148977"><ele>1784.4</ele><time>2024-06-03T17:52:24Z</time></trkpt>
<trkpt lat="35.924906" lon="-118.148675"><ele>1786.4</ele><time>2024-06-03T17:52:47Z</time></trkpt>
<trkpt lat="35.924817" lon="-118.148317"><ele>1788.6</ele><time>2024-06-03T17:53:10Z</time></trkpt>
<trkpt lat="35.924931" lon="-118.147853"><ele>1791.8</ele><time>2024-06-03T17:54:11Z</time></trkpt>
<trkpt lat="35.925146" lon="-118.147861"><ele>1795.2</ele><time>2024-06-03T17:54:54Z</time></trkpt>
<trkpt lat="35.925052" lon="-118.148033"><ele>1795.8</ele><time>2024-06-03T17:55:00Z</time></trkpt>
<trkpt lat="35.925074" lon="-118.148088"><ele>1796.2</ele><time>2024-06-03T17:55:06Z</time></trkpt>
<trkpt lat="35.926337" lon="-118.148302"><ele>1803.6</ele><time>2024-06-03T17:56:51Z</time></trkpt>
<trkpt lat="35.926412" lon="-118.148430"><ele>1803.4</ele><time>2024-06-03T17:57:04Z</time></trkpt>
<trkpt lat="35.926387" lon="-118.148505"><ele>1803.4</ele><time>2024-06-03T17:57:08Z</time></trkpt>
<trkpt lat="35.927419" lon="-118.148975"><ele>1810.0</ele><time>2024-06-03T17:58:49Z</time></trkpt>
<trkpt lat="35.927561" lon="-118.148910"><ele>1810.8</ele><time>2024-06-03T17:59:01Z</time></trkpt>
<trkpt lat="35.928164" lon="-118.149131"><ele>1810.0</ele><time>2024-06-03T17:59:39Z</time></trkpt>
<trkpt lat="35.928908" lon="-118.149555"><ele>1810.0</ele><time>2024-06-03T18:00:49Z</time></trkpt>
<trkpt lat="35.929034" lon="-118.149586"><ele>1810.6</ele><time>2024-06-03T18:00:56Z</time></trkpt>
<trkpt lat="35.929633" lon="-118.149474"><ele>1811.4</ele><time>2024-06-03T18:02:49Z</time></trkpt>
<trkpt lat="35.929682" lon="-118.149677"><ele>1810.8</ele><time>2024-06-03T18:02:57Z</time></trkpt>
<trkpt lat="35.929798" lon="-118.149759"><ele>1810.8</ele><time>2024-06-03T18:03:08Z</time></trkpt>
<trkpt lat="35.930067" lon="-118.149741"><ele>1809.6</ele><time>2024-06-03T18:03:40Z</time></trkpt>
<trkpt lat="35.930208" lon="-118.149651"><ele>1809.0</ele><time>2024-06-03T18:04:14Z</time></trkpt>
<trkpt lat="35.930684" lon="-118.149211"><ele>1807.6</ele><time>2024-06-03T18:04:49Z</time></trkpt>
<trkpt lat="35.930690" lon="-118.149113"><ele>1807.4</ele><time>2024-06-03T18:04:56Z</time></trkpt>
<trkpt lat="35.930826" lon="-118.148982"><ele>1806.8</ele><time>2024-06-03T18:05:08Z</time></trkpt>
<trkpt lat="35.931180" lon="-118.148947"><ele>1804.6</ele><time>2024-06-03T18:05:40Z</time></trkpt>
<trkpt lat="35.931564" lon="-118.149013"><ele>1804.4</ele><time>2024-06-03T18:06:06Z</time></trkpt>
<trkpt lat="35.931982" lon="-118.148738"><ele>1804.6</ele><time>2024-06-03T18:06:49Z</time></trkpt>
<trkpt lat="35.932083" lon="-118.148744"><ele>1805.0</ele><time>2024-06-03T18:06:58Z</time></trkpt>
<trkpt lat="35.932190" lon="-118.148870"><ele>1806.0</ele><time>2024-06-03T18:07:08Z</time></trkpt>
<trkpt lat="35.933301" lon="-118.149481"><ele>1802.6</ele><time>2024-06-03T18:08:49Z</time></trkpt>
<trkpt lat="35.933331" lon="-118.149242"><ele>1801.4</ele><time>2024-06-03T18:09:28Z</time></trkpt>
<trkpt lat="35.933440" lon="-118.149106"><ele>1799.2</ele><time>2024-06-03T18:09:40Z</time></trkpt>
<trkpt lat="35.933847" lon="-118.149268"><ele>1797.0</ele><time>2024-06-03T18:10:10Z</time></trkpt>
<trkpt lat="35.934045" lon="-118.149247"><ele>1795.8</ele><time>2024-06-03T18:10:26Z</time></trkpt>
<trkpt lat="35.934541" lon="-118.149733"><ele>1793.6</ele><time>2024-06-03T18:11:06Z</time></trkpt>
<trkpt lat="35.935020" lon="-118.149850"><ele>1791.6</ele><time>2024-06-03T18:11:40Z</time></trkpt>
<trkpt lat="35.935376" lon="-118.149770"><ele>1787.2</ele><time>2024-06-03T18:12:36Z</time></trkpt>
<trkpt lat="35.935709" lon="-118.150031"><ele>1785.6</ele><time>2024-06-03T18:12:52Z</time></trkpt>
<trkpt lat="35.936206" lon="-118.150127"><ele>1781.8</ele><time>2024-06-03T18:13:20Z</time></trkpt>
<trkpt lat="35.937028" lon="-118.150092"><ele>1781.2</ele><time>2024-06-03T18:14:49Z</time></trkpt>
<trkpt lat="35.937075" lon="-118.150253"><ele>1780.8</ele><time>2024-06-03T18:14:55Z</time></trkpt>
<trkpt lat="35.937196" lon="-118.150137"><ele>1779.6</ele><time>2024-06-03T18:15:07Z</time></trkpt>
<trkpt lat="35.937929" lon="-118.150414"><ele>1776.6</ele><time>2024-06-03T18:16:10Z</time></trkpt>
<trkpt lat="35.938437" lon="-118.150522"><ele>1774.8</ele><time>2024-06-03T18:16:48Z</time></trkpt>
<trkpt lat="35.938377" lon="-118.150450"><ele>1774.6</ele><time>2024-06-03T18:16:49Z</time></trkpt>
<trkpt lat="35.939482" lon="-118.150553"><ele>1775.6</ele><time>2024-06-03T18:18:24Z</time></trkpt>
<trkpt lat="35.939944" lon="-118.150685"><ele>1774.8</ele><time>2024-06-03T18:18:49Z</time></trkpt>
<trkpt lat="35.940706" lon="-118.151177"><ele>1773.0</ele><time>2024-06-03T18:19:49Z</time></trkpt>
<trkpt lat="35.941790" lon="-118.152454"><ele>1768.2</ele><time>2024-06-03T18:22:56Z</time></trkpt>
<trkpt lat="35.942336" lon="-118.152422"><ele>1769.2</ele><time>2024-06-03T18:23:44Z</time></trkpt>
<trkpt lat="35.942470" lon="-118.152515"><ele>1769.2</ele><time>2024-06-03T18:24:02Z</time></trkpt>
<trkpt lat="35.943247" lon="-118.152292"><ele>1774.0</ele><time>2024-06-03T18:25:10Z</time></trkpt>
<trkpt lat="35.944335" lon="-118.151680"><ele>1780.4</ele><time>2024-06-03T18:26:49Z</time></trkpt>
<trkpt lat="35.944413" lon="-118.151530"><ele>1780.0</ele><time>2024-06-03T18:26:58Z</time></trkpt>
<trkpt lat="35.945916" lon="-118.150828"><ele>1785.4</ele><time>2024-06-03T18:29:05Z</time></trkpt>
<trkpt lat="35.946426" lon="-118.150705"><ele>1786.0</ele><time>2024-06-03T18:29:37Z</time></trkpt>
<trkpt lat="35.946662" lon="-118.150727"><ele>1785.0</ele><time>2024-06-03T18:30:09Z</time></trkpt>
<trkpt lat="35.946918" lon="-118.150862"><ele>1785.2</ele><time>2024-06-03T18:30:45Z</time></trkpt>
<trkpt lat="35.947127" lon="-118.150849"><ele>1785.0</ele><time>2024-06-03T18:30:56Z</time></trkpt>
<trkpt lat="35.947559" lon="-118.151060"><ele>1786.2</ele><time>2024-06-03T18:31:25Z</time></trkpt>
<trkpt lat="35.948070" lon="-118.151119"><ele>1789.2</ele><time>2024-06-03T18:32:17Z</time></trkpt>
<trkpt lat="35.948041" lon="-118.151074"><ele>1788.8</ele><time>2024-06-03T18:32:53Z</time></trkpt>
<trkpt lat="35.947966" lon="-118.151099"><ele>1788.8</ele><time>2024-06-03T18:32:57Z</time></trkpt>
<trkpt lat="35.948014" lon="-118.151128"><ele>1788.8</ele><time>2024-06-03T18:32:59Z</time></trkpt>
<trkpt lat="35.948003" lon="-118.151277"><ele>1788.4</ele><time>2024-06-03T18:34:52Z</time></trkpt>
<trkpt lat="35.947983" lon="-118.151131"><ele>1788.6</ele><time>2024-06-03T18:36:53Z</time></trkpt>
<trkpt lat="35.948048" lon="-118.151111"><ele>1788.6</ele><time>2024-06-03T18:36:54Z</time></trkpt>
<trkpt lat="35.947999" lon="-118.151214"><ele>1788.6</ele><time>2024-06-03T18:36:55Z</time></trkpt>
<trkpt lat="35.947968" lon="-118.151186"><ele>1788.4</ele><time>2024-06-03T18:38:23Z</time></trkpt>
<trkpt lat="35.947993" lon="-118.151230"><ele>1788.6</ele><time>2024-06-03T18:39:09Z</time></trkpt>
<trkpt lat="35.948029" lon="-118.151162"><ele>1789.8</ele><time>2024-06-03T18:40:55Z</time></trkpt>
<trkpt lat="35.947990" lon="-118.151184"><ele>1789.8</ele><time>2024-06-03T18:41:02Z</time></trkpt>
<trkpt lat="35.948026" lon="-118.151248"><ele>1790.0</ele><time>2024-06-03T18:42:43Z</time></trkpt>
<trkpt lat="35.948046" lon="-118.151130"><ele>1790.4</ele><time>2024-06-03T18:43:08Z</time></trkpt>
<trkpt lat="35.947830" lon="-118.150944"><ele>1790.4</ele><time>2024-06-03T18:44:52Z</time></trkpt>
<trkpt lat="35.948032" lon="-118.151126"><ele>1790.6</ele><time>2024-06-03T18:44:59Z</time></trkpt>
<trkpt lat="35.948061" lon="-118.151224"><ele>1791.2</ele><time>2024-06-03T18:46:50Z</time></trkpt>
<trkpt lat="35.948002" lon="-118.151104"><ele>1793.4</ele><time>2024-06-03T18:48:59Z</time></trkpt>
<trkpt lat="35.948254" lon="-118.151284"><ele>1793.8</ele><time>2024-06-03T18:49:29Z</time></trkpt>
<trkpt lat="35.949076" lon="-118.151582"><ele>1800.8</ele><time>2024-06-03T18:50:50Z</time></trkpt>
<trkpt lat="35.949158" lon="-118.151460"><ele>1801.0</ele><time>2024-06-03T18:50:57Z</time></trkpt>
<trkpt lat="35.949296" lon="-118.151427"><ele>1801.6</ele><time>2024-06-03T18:51:07Z</time></trkpt>
<trkpt lat="35.949841" lon="-118.151545"><ele>1803.8</ele><time>2024-06-03T18:51:51Z</time></trkpt>
<trkpt lat="35.949981" lon="-118.151508"><ele>1804.6</ele><time>2024-06-03T18:52:07Z</time></trkpt>
<trkpt lat="35.950808" lon="-118.151723"><ele>1811.0</ele><time>2024-06-03T18:53:11Z</time></trkpt>
<trkpt lat="35.951097" lon="-118.151876"><ele>1815.4</ele><time>2024-06-03T18:54:01Z</time></trkpt>
<trkpt lat="35.951758" lon="-118.152387"><ele>1812.0</ele><time>2024-06-03T18:54:52Z</time></trkpt>
<trkpt lat="35.951871" lon="-118.152537"><ele>1809.8</ele><time>2024-06-03T18:55:07Z</time></trkpt>
<trkpt lat="35.952173" lon="-118.152603"><ele>1807.0</ele><time>2024-06-03T18:55:29Z</time></trkpt>
<trkpt lat="35.952709" lon="-118.152522"><ele>1804.0</ele><time>2024-06-03T18:56:21Z</time></trkpt>
<trkpt lat="35.952826" lon="-118.152427"><ele>1803.8</ele><time>2024-06-03T18:56:31Z</time></trkpt>
<trkpt lat="35.952911" lon="-118.152167"><ele>1805.0</ele><time>2024-06-03T18:56:47Z</time></trkpt>
<trkpt lat="35.953026" lon="-118.152021"><ele>1804.4</ele><time>2024-06-03T18:56:59Z</time></trkpt>
<trkpt lat="35.953970" lon="-118.151384"><ele>1801.2</ele><time>2024-06-03T18:58:40Z</time></trkpt>
<trkpt lat="35.954034" lon="-118.151431"><ele>1801.6</ele><time>2024-06-03T18:58:51Z</time></trkpt>
<trkpt lat="35.954273" lon="-118.150828"><ele>1801.4</ele><time>2024-06-03T18:59:34Z</time></trkpt>
<trkpt lat="35.954687" lon="-118.150420"><ele>1805.6</ele><time>2024-06-03T19:00:50Z</time></trkpt>
<trkpt lat="35.954690" lon="-118.150323"><ele>1805.6</ele><time>2024-06-03T19:00:53Z</time></trkpt>
<trkpt lat="35.954868" lon="-118.150269"><ele>1806.4</ele><time>2024-06-03T19:01:04Z</time></trkpt>
<trkpt lat="35.955671" lon="-118.150297"><ele>1804.0</ele><time>2024-06-03T19:02:55Z</time></trkpt>
<trkpt lat="35.955855" lon="-118.150380"><ele>1803.4</ele><time>2024-06-03T19:03:11Z</time></trkpt>
<trkpt lat="35.957066" lon="-118.150403"><ele>1798.8</ele><time>2024-06-03T19:04:52Z</time></trkpt>
<trkpt lat="35.957267" lon="-118.150518"><ele>1797.4</ele><time>2024-06-03T19:05:07Z</time></trkpt>
<trkpt lat="35.958063" lon="-118.150593"><ele>1796.6</ele><time>2024-06-03T19:06:18Z</time></trkpt>
<trkpt lat="35.958600" lon="-118.150501"><ele>1799.0</ele><time>2024-06-03T19:06:52Z</time></trkpt>
<trkpt lat="35.958687" lon="-118.150550"><ele>1799.0</ele><time>2024-06-03T19:07:01Z</time></trkpt>
<trkpt lat="35.958756" lon="-118.150495"><ele>1799.4</ele><time>2024-06-03T19:07:08Z</time></trkpt>
<trkpt lat="35.959561" lon="-118.150493"><ele>1801.6</ele><time>2024-06-03T19:08:06Z</time></trkpt>
<trkpt lat="35.959824" lon="-118.150627"><ele>1801.4</ele><time>2024-06-03T19:08:40Z</time></trkpt>
<trkpt lat="35.960214" lon="-118.150705"><ele>1800.8</ele><time>2024-06-03T19:08:59Z</time></trkpt>
<trkpt lat="35.960771" lon="-118.151018"><ele>1801.6</ele><time>2024-06-03T19:09:58Z</time></trkpt>
<trkpt lat="35.961624" lon="-118.151712"><ele>1803.2</ele><time>2024-06-03T19:11:06Z</time></trkpt>
<trkpt lat="35.962089" lon="-118.151795"><ele>1803.6</ele><time>2024-06-03T19:11:22Z</time></trkpt>
<trkpt lat="35.963030" lon="-118.151818"><ele>1808.0</ele><time>2024-06-03T19:12:55Z</time></trkpt>
<trkpt lat="35.963123" lon="-118.151888"><ele>1806.8</ele><time>2024-06-03T19:13:07Z</time></trkpt>
<trkpt lat="35.963918" lon="-118.151513"><ele>1802.8</ele><time>2024-06-03T19:14:14Z</time></trkpt>
<trkpt lat="35.964310" lon="-118.151166"><ele>1803.8</ele><time>2024-06-03T19:14:52Z</time></trkpt>
<trkpt lat="35.964465" lon="-118.151324"><ele>1802.4</ele><time>2024-06-03T19:15:08Z</time></trkpt>
<trkpt lat="35.964834" lon="-118.151411"><ele>1801.6</ele><time>2024-06-03T19:15:44Z</time></trkpt>
<trkpt lat="35.965060" lon="-118.151343"><ele>1799.2</ele><time>2024-06-03T19:16:04Z</time></trkpt>
<trkpt lat="35.965305" lon="-118.151379"><ele>1800.2</ele><time>2024-06-03T19:16:30Z</time></trkpt>
<trkpt lat="35.965539" lon="-118.151545"><ele>1800.6</ele><time>2024-06-03T19:16:52Z</time></trkpt>
<trkpt lat="35.965584" lon="-118.151703"><ele>1801.2</ele><time>2024-06-03T19:17:02Z</time></trkpt>
<trkpt lat="35.965743" lon="-118.151902"><ele>1800.4</ele><time>2024-06-03T19:17:22Z</time></trkpt>
<trkpt lat="35.966300" lon="-118.152130"><ele>1799.0</ele><time>2024-06-03T19:18:54Z</time></trkpt>
<trkpt lat="35.967181" lon="-118.152292"><ele>1798.0</ele><time>2024-06-03T19:20:02Z</time></trkpt>
<trkpt lat="35.967762" lon="-118.152535"><ele>1797.4</ele><time>2024-06-03T19:20:50Z</time></trkpt>
<trkpt lat="35.968889" lon="-118.152593"><ele>1798.4</ele><time>2024-06-03T19:22:48Z</time></trkpt>
<trkpt lat="35.969245" lon="-118.152544"><ele>1796.8</ele><time>2024-06-03T19:23:10Z</time></trkpt>
<trkpt lat="35.969656" lon="-118.152675"><ele>1795.4</ele><time>2024-06-03T19:23:56Z</time></trkpt>
<trkpt lat="35.969892" lon="-118.153031"><ele>1794.4</ele><time>2024-06-03T19:24:50Z</time></trkpt>
<trkpt lat="35.969925" lon="-118.152976"><ele>1794.6</ele><time>2024-06-03T19:24:52Z</time></trkpt>
<trkpt lat="35.970104" lon="-118.153006"><ele>1795.0</ele><time>2024-06-03T19:25:05Z</time></trkpt>
<trkpt lat="35.971108" lon="-118.153948"><ele>1799.2</ele><time>2024-06-03T19:26:50Z</time></trkpt>
<trkpt lat="35.971569" lon="-118.154131"><ele>1802.6</ele><time>2024-06-03T19:27:28Z</time></trkpt>
<trkpt lat="35.972126" lon="-118.154948"><ele>1792.4</ele><time>2024-06-03T19:29:00Z</time></trkpt>
<trkpt lat="35.972418" lon="-118.155140"><ele>1789.6</ele><time>2024-06-03T19:29:32Z</time></trkpt>
<trkpt lat="35.972643" lon="-118.155426"><ele>1786.6</ele><time>2024-06-03T19:30:00Z</time></trkpt>
<trkpt lat="35.972601" lon="-118.155480"><ele>1787.0</ele><time>2024-06-03T19:30:10Z</time></trkpt>
<trkpt lat="35.973196" lon="-118.155563"><ele>1781.0</ele><time>2024-06-03T19:30:56Z</time></trkpt>
<trkpt lat="35.973278" lon="-118.155683"><ele>1779.6</ele><time>2024-06-03T19:31:07Z</time></trkpt>
<trkpt lat="35.973449" lon="-118.155726"><ele>1778.4</ele><time>2024-06-03T19:31:22Z</time></trkpt>
<trkpt lat="35.973650" lon="-118.155549"><ele>1774.2</ele><time>2024-06-03T19:32:24Z</time></trkpt>
<trkpt lat="35.973947" lon="-118.155515"><ele>1774.2</ele><time>2024-06-03T19:32:55Z</time></trkpt>
<trkpt lat="35.974082" lon="-118.155752"><ele>1771.4</ele><time>2024-06-03T19:33:12Z</time></trkpt>
<trkpt lat="35.974413" lon="-118.155960"><ele>1769.8</ele><time>2024-06-03T19:33:54Z</time></trkpt>
<trkpt lat="35.974562" lon="-118.155972"><ele>1768.6</ele><time>2024-06-03T19:34:12Z</time></trkpt>
<trkpt lat="35.974786" lon="-118.155874"><ele>1767.4</ele><time>2024-06-03T19:34:28Z</time></trkpt>
<trkpt lat="35.974999" lon="-118.156000"><ele>1765.0</ele><time>2024-06-03T19:34:52Z</time></trkpt>
<trkpt lat="35.975121" lon="-118.155974"><ele>1764.2</ele><time>2024-06-03T19:35:02Z</time></trkpt>
<trkpt lat="35.975647" lon="-118.155721"><ele>1757.6</ele><time>2024-06-03T19:35:56Z</time></trkpt>
<trkpt lat="35.975941" lon="-118.155685"><ele>1754.0</ele><time>2024-06-03T19:36:18Z</time></trkpt>
<trkpt lat="35.976357" lon="-118.155454"><ele>1753.2</ele><time>2024-06-03T19:36:54Z</time></trkpt>
<trkpt lat="35.976419" lon="-118.155333"><ele>1753.2</ele><time>2024-06-03T19:36:59Z</time></trkpt>
<trkpt lat="35.976641" lon="-118.155197"><ele>1754.0</ele><time>2024-06-03T19:37:18Z</time></trkpt>
<trkpt lat="35.977488" lon="-118.154872"><ele>1758.2</ele><time>2024-06-03T19:38:52Z</time></trkpt>
<trkpt lat="35.977479" lon="-118.154808"><ele>1758.6</ele><time>2024-06-03T19:38:58Z</time></trkpt>
<trkpt lat="35.977629" lon="-118.154743"><ele>1757.4</ele><time>2024-06-03T19:39:09Z</time></trkpt>
<trkpt lat="35.978788" lon="-118.154820"><ele>1756.4</ele><time>2024-06-03T19:40:50Z</time></trkpt>
<trkpt lat="35.979609" lon="-118.154638"><ele>1760.8</ele><time>2024-06-03T19:42:00Z</time></trkpt>
<trkpt lat="35.980154" lon="-118.154392"><ele>1760.6</ele><time>2024-06-03T19:42:52Z</time></trkpt>
<trkpt lat="35.981321" lon="-118.153493"><ele>1762.0</ele><time>2024-06-03T19:44:57Z</time></trkpt>
<trkpt lat="35.981430" lon="-118.153277"><ele>1762.4</ele><time>2024-06-03T19:45:10Z</time></trkpt>
<trkpt lat="35.981741" lon="-118.153149"><ele>1761.6</ele><time>2024-06-03T19:45:29Z</time></trkpt>
<trkpt lat="35.982006" lon="-118.152940"><ele>1764.2</ele><time>2024-06-03T19:46:09Z</time></trkpt>
<trkpt lat="35.982320" lon="-118.152847"><ele>1770.6</ele><time>2024-06-03T19:46:55Z</time></trkpt>
<trkpt lat="35.982428" lon="-118.152689"><ele>1772.8</ele><time>2024-06-03T19:47:08Z</time></trkpt>
<trkpt lat="35.982948" lon="-118.152429"><ele>1781.8</ele><time>2024-06-03T19:48:33Z</time></trkpt>
<trkpt lat="35.983203" lon="-118.152226"><ele>1784.4</ele><time>2024-06-03T19:48:53Z</time></trkpt>
<trkpt lat="35.983347" lon="-118.152035"><ele>1786.8</ele><time>2024-06-03T19:49:10Z</time></trkpt>
<trkpt lat="35.983668" lon="-118.151277"><ele>1798.2</ele><time>2024-06-03T19:50:49Z</time></trkpt>
<trkpt lat="35.983725" lon="-118.151004"><ele>1798.2</ele><time>2024-06-03T19:50:59Z</time></trkpt>
<trkpt lat="35.984149" lon="-118.150482"><ele>1802.6</ele><time>2024-06-03T19:52:03Z</time></trkpt>
<trkpt lat="35.984643" lon="-118.149575"><ele>1795.6</ele><time>2024-06-03T19:52:53Z</time></trkpt>
<trkpt lat="35.984608" lon="-118.149605"><ele>1795.0</ele><time>2024-06-03T19:52:56Z</time></trkpt>
<trkpt lat="35.984660" lon="-118.149454"><ele>1792.4</ele><time>2024-06-03T19:53:10Z</time></trkpt>
<trkpt lat="35.984815" lon="-118.149336"><ele>1789.0</ele><time>2024-06-03T19:53:29Z</time></trkpt>
<trkpt lat="35.984918" lon="-118.148912"><ele>1787.6</ele><time>2024-06-03T19:54:03Z</time></trkpt>
<trkpt lat="35.984816" lon="-118.148768"><ele>1786.2</ele><time>2024-06-03T19:54:37Z</time></trkpt>
<trkpt lat="35.984805" lon="-118.148832"><ele>1787.2</ele><time>2024-06-03T19:54:52Z</time></trkpt>
<trkpt lat="35.984778" lon="-118.148659"><ele>1787.0</ele><time>2024-06-03T19:56:59Z</time></trkpt>
<trkpt lat="35.984724" lon="-118.148749"><ele>1788.8</ele><time>2024-06-03T19:59:09Z</time></trkpt>
<trkpt lat="35.984825" lon="-118.148486"><ele>1792.4</ele><time>2024-06-03T20:00:37Z</time></trkpt>
<trkpt lat="35.984724" lon="-118.148417"><ele>1793.2</ele><time>2024-06-03T20:00:53Z</time></trkpt>
<trkpt lat="35.984923" lon="-118.148362"><ele>1793.0</ele><time>2024-06-03T20:00:55Z</time></trkpt>
<trkpt lat="35.984937" lon="-118.148292"><ele>1792.8</ele><time>2024-06-03T20:01:01Z</time></trkpt>
<trkpt lat="35.984862" lon="-118.148236"><ele>1793.8</ele><time>2024-06-03T20:02:57Z</time></trkpt>
<trkpt lat="35.984960" lon="-118.147987"><ele>1793.4</ele><time>2024-06-03T20:03:12Z</time></trkpt>
<trkpt lat="35.985233" lon="-118.147399"><ele>1791.2</ele><time>2024-06-03T20:03:39Z</time></trkpt>
<trkpt lat="35.985541" lon="-118.146782"><ele>1802.0</ele><time>2024-06-03T20:04:53Z</time></trkpt>
<trkpt lat="35.985554" lon="-118.146827"><ele>1802.6</ele><time>2024-06-03T20:04:56Z</time></trkpt>
<trkpt lat="35.985998" lon="-118.146508"><ele>1797.2</ele><time>2024-06-03T20:05:45Z</time></trkpt>
<trkpt lat="35.986387" lon="-118.146364"><ele>1789.0</ele><time>2024-06-03T20:06:29Z</time></trkpt>
<trkpt lat="35.986786" lon="-118.146285"><ele>1787.6</ele><time>2024-06-03T20:07:06Z</time></trkpt>
<trkpt lat="35.987452" lon="-118.146305"><ele>1789.0</ele><time>2024-06-03T20:08:11Z</time></trkpt>
<trkpt lat="35.988041" lon="-118.146404"><ele>1791.6</ele><time>2024-06-03T20:08:58Z</time></trkpt>
<trkpt lat="35.988422" lon="-118.146656"><ele>1789.2</ele><time>2024-06-03T20:09:35Z</time></trkpt>
<trkpt lat="35.988791" lon="-118.146729"><ele>1798.4</ele><time>2024-06-03T20:10:27Z</time></trkpt>
<trkpt lat="35.989086" lon="-118.146871"><ele>1799.6</ele><time>2024-06-03T20:10:52Z</time></trkpt>
<trkpt lat="35.989349" lon="-118.146800"><ele>1804.4</ele><time>2024-06-03T20:11:25Z</time></trkpt>
<trkpt lat="35.989803" lon="-118.146776"><ele>1801.0</ele><time>2024-06-03T20:12:53Z</time></trkpt>
<trkpt lat="35.989992" lon="-118.146923"><ele>1798.0</ele><time>2024-06-03T20:13:06Z</time></trkpt>
<trkpt lat="35.990322" lon="-118.147069"><ele>1801.4</ele><time>2024-06-03T20:13:37Z</time></trkpt>
<trkpt lat="35.991229" lon="-118.147236"><ele>1809.2</ele><time>2024-06-03T20:14:59Z</time></trkpt>
<trkpt lat="35.991498" lon="-118.146875"><ele>1811.0</ele><time>2024-06-03T20:15:45Z</time></trkpt>
<trkpt lat="35.991805" lon="-118.146191"><ele>1816.4</ele><time>2024-06-03T20:16:49Z</time></trkpt>
<trkpt lat="35.991781" lon="-118.146072"><ele>1816.6</ele><time>2024-06-03T20:16:52Z</time></trkpt>
<trkpt lat="35.991980" lon="-118.145952"><ele>1817.2</ele><time>2024-06-03T20:16:57Z</time></trkpt>
<trkpt lat="35.992519" lon="-118.144560"><ele>1825.2</ele><time>2024-06-03T20:18:52Z</time></trkpt>
<trkpt lat="35.993086" lon="-118.143593"><ele>1835.2</ele><time>2024-06-03T20:20:33Z</time></trkpt>
<trkpt lat="35.993183" lon="-118.143332"><ele>1836.6</ele><time>2024-06-03T20:20:51Z</time></trkpt>
<trkpt lat="35.993820" lon="-118.142349"><ele>1844.0</ele><time>2024-06-03T20:22:41Z</time></trkpt>
<trkpt lat="35.994123" lon="-118.142042"><ele>1844.0</ele><time>2024-06-03T20:23:03Z</time></trkpt>
<trkpt lat="35.995363" lon="-118.141395"><ele>1831.8</ele><time>2024-06-03T20:24:42Z</time></trkpt>
<trkpt lat="35.995739" lon="-118.141530"><ele>1827.2</ele><time>2024-06-03T20:25:11Z</time></trkpt>
<trkpt lat="35.996122" lon="-118.141548"><ele>1825.4</ele><time>2024-06-03T20:26:02Z</time></trkpt>
<trkpt lat="35.996819" lon="-118.141398"><ele>1819.2</ele><time>2024-06-03T20:26:53Z</time></trkpt>
<trkpt lat="35.996962" lon="-118.141312"><ele>1818.0</ele><time>2024-06-03T20:27:03Z</time></trkpt>
<trkpt lat="35.998194" lon="-118.141357"><ele>1807.6</ele><time>2024-06-03T20:28:52Z</time></trkpt>
<trkpt lat="35.998815" lon="-118.141198"><ele>1802.4</ele><time>2024-06-03T20:29:44Z</time></trkpt>
<trkpt lat="35.999041" lon="-118.141191"><ele>1805.0</ele><time>2024-06-03T20:30:24Z</time></trkpt>
<trkpt lat="36.000873" lon="-118.141579"><ele>1817.6</ele><time>2024-06-03T20:32:53Z</time></trkpt>
<trkpt lat="36.001072" lon="-118.141442"><ele>1820.0</ele><time>2024-06-03T20:33:13Z</time></trkpt>
<trkpt lat="36.002185" lon="-118.141386"><ele>1816.8</ele><time>2024-06-03T20:34:54Z</time></trkpt>
<trkpt lat="36.002283" lon="-118.141248"><ele>1816.8</ele><time>2024-06-03T20:35:01Z</time></trkpt>
<trkpt lat="36.002640" lon="-118.139690"><ele>1816.8</ele><time>2024-06-03T20:36:53Z</time></trkpt>
<trkpt lat="36.002765" lon="-118.139460"><ele>1815.2</ele><time>2024-06-03T20:37:08Z</time></trkpt>
<trkpt lat="36.002828" lon="-118.138801"><ele>1814.6</ele><time>2024-06-03T20:37:34Z</time></trkpt>
<trkpt lat="36.003037" lon="-118.137926"><ele>1816.4</ele><time>2024-06-03T20:38:53Z</time></trkpt>
<trkpt lat="36.003371" lon="-118.137295"><ele>1822.4</ele><time>2024-06-03T20:40:04Z</time></trkpt>
<trkpt lat="36.003988" lon="-118.136518"><ele>1819.2</ele><time>2024-06-03T20:41:12Z</time></trkpt>
<trkpt lat="36.004873" lon="-118.135892"><ele>1825.0</ele><time>2024-06-03T20:42:53Z</time></trkpt>
<trkpt lat="36.005443" lon="-118.135848"><ele>1823.4</ele><time>2024-06-03T20:43:40Z</time></trkpt>
<trkpt lat="36.005511" lon="-118.135748"><ele>1823.0</ele><time>2024-06-03T20:43:48Z</time></trkpt>
<trkpt lat="36.006446" lon="-118.136061"><ele>1821.8</ele><time>2024-06-03T20:45:10Z</time></trkpt>
<trkpt lat="36.007150" lon="-118.136176"><ele>1825.2</ele><time>2024-06-03T20:46:53Z</time></trkpt>
<trkpt lat="36.007108" lon="-118.136214"><ele>1825.2</ele><time>2024-06-03T20:50:48Z</time></trkpt>
<trkpt lat="36.007192" lon="-118.136233"><ele>1825.2</ele><time>2024-06-03T20:51:00Z</time></trkpt>
<trkpt lat="36.007093" lon="-118.136178"><ele>1824.8</ele><time>2024-06-03T20:52:57Z</time></trkpt>
<trkpt lat="36.007132" lon="-118.136166"><ele>1824.8</ele><time>2024-06-03T20:53:01Z</time></trkpt>
<trkpt lat="36.008031" lon="-118.136443"><ele>1833.6</ele><time>2024-06-03T20:54:53Z</time></trkpt>
<trkpt lat="36.007976" lon="-118.136482"><ele>1833.6</ele><time>2024-06-03T20:54:56Z</time></trkpt>
<trkpt lat="36.008203" lon="-118.136590"><ele>1834.4</ele><time>2024-06-03T20:55:14Z</time></trkpt>
<trkpt lat="36.008774" lon="-118.136625"><ele>1842.2</ele><time>2024-06-03T20:56:24Z</time></trkpt>
<trkpt lat="36.009294" lon="-118.136561"><ele>1845.0</ele><time>2024-06-03T20:56:55Z</time></trkpt>
<trkpt lat="36.009257" lon="-118.136506"><ele>1845.4</ele><time>2024-06-03T20:56:58Z</time></trkpt>
<trkpt lat="36.009379" lon="-118.136350"><ele>1846.8</ele><time>2024-06-03T20:57:11Z</time></trkpt>
<trkpt lat="36.010032" lon="-118.136163"><ele>1852.0</ele><time>2024-06-03T20:58:40Z</time></trkpt>
<trkpt lat="36.010524" lon="-118.136142"><ele>1852.6</ele><time>2024-06-03T20:59:12Z</time></trkpt>
<trkpt lat="36.011041" lon="-118.135009"><ele>1855.4</ele><time>2024-06-03T21:00:57Z</time></trkpt>
<trkpt lat="36.011206" lon="-118.134798"><ele>1857.4</ele><time>2024-06-03T21:01:19Z</time></trkpt>
<trkpt lat="36.011547" lon="-118.134136"><ele>1855.8</ele><time>2024-06-03T21:02:19Z</time></trkpt>
<trkpt lat="36.011542" lon="-118.133811"><ele>1857.6</ele><time>2024-06-03T21:02:37Z</time></trkpt>
<trkpt lat="36.011803" lon="-118.133176"><ele>1855.4</ele><time>2024-06-03T21:03:12Z</time></trkpt>
<trkpt lat="36.011988" lon="-118.133090"><ele>1854.8</ele><time>2024-06-03T21:03:28Z</time></trkpt>
<trkpt lat="36.012485" lon="-118.133325"><ele>1851.2</ele><time>2024-06-03T21:04:24Z</time></trkpt>
<trkpt lat="36.012734" lon="-118.133703"><ele>1847.6</ele><time>2024-06-03T21:04:54Z</time></trkpt>
<trkpt lat="36.012931" lon="-118.133567"><ele>1846.2</ele><time>2024-06-03T21:05:10Z</time></trkpt>
<trkpt lat="36.013254" lon="-118.133484"><ele>1843.4</ele><time>2024-06-03T21:05:47Z</time></trkpt>
<trkpt lat="36.013291" lon="-118.133237"><ele>1841.0</ele><time>2024-06-03T21:06:05Z</time></trkpt>
<trkpt lat="36.013524" lon="-118.133138"><ele>1835.6</ele><time>2024-06-03T21:06:43Z</time></trkpt>
<trkpt lat="36.013465" lon="-118.133101"><ele>1835.2</ele><time>2024-06-03T21:06:56Z</time></trkpt>
<trkpt lat="36.013472" lon="-118.132542"><ele>1826.6</ele><time>2024-06-03T21:07:45Z</time></trkpt>
<trkpt lat="36.013675" lon="-118.132190"><ele>1823.2</ele><time>2024-06-03T21:08:35Z</time></trkpt>
<trkpt lat="36.014784" lon="-118.131435"><ele>1821.0</ele><time>2024-06-03T21:10:23Z</time></trkpt>
<trkpt lat="36.015082" lon="-118.131406"><ele>1822.2</ele><time>2024-06-03T21:10:59Z</time></trkpt>
<trkpt lat="36.016271" lon="-118.132012"><ele>1823.8</ele><time>2024-06-03T21:12:56Z</time></trkpt>
<trkpt lat="36.017299" lon="-118.133009"><ele>1830.8</ele><time>2024-06-03T21:14:54Z</time></trkpt>
<trkpt lat="36.017397" lon="-118.133287"><ele>1830.2</ele><time>2024-06-03T21:15:14Z</time></trkpt>
<trkpt lat="36.017810" lon="-118.133480"><ele>1834.0</ele><time>2024-06-03T21:16:23Z</time></trkpt>
<trkpt lat="36.018630" lon="-118.133658"><ele>1829.4</ele><time>2024-06-03T21:17:09Z</time></trkpt>
<trkpt lat="36.019627" lon="-118.133591"><ele>1834.4</ele><time>2024-06-03T21:18:41Z</time></trkpt>
<trkpt lat="36.020022" lon="-118.133503"><ele>1833.0</ele><time>2024-06-03T21:19:01Z</time></trkpt>
<trkpt lat="36.020388" lon="-118.133603"><ele>1834.2</ele><time>2024-06-03T21:19:33Z</time></trkpt>
<trkpt lat="36.020495" lon="-118.133728"><ele>1836.6</ele><time>2024-06-03T21:19:49Z</time></trkpt>
<trkpt lat="36.021005" lon="-118.133610"><ele>1836.0</ele><time>2024-06-03T21:20:43Z</time></trkpt>
<trkpt lat="36.021531" lon="-118.133714"><ele>1838.2</ele><time>2024-06-03T21:21:10Z</time></trkpt>
<trkpt lat="36.022178" lon="-118.134154"><ele>1835.0</ele><time>2024-06-03T21:22:15Z</time></trkpt>
<trkpt lat="36.022581" lon="-118.134654"><ele>1832.8</ele><time>2024-06-03T21:22:54Z</time></trkpt>
<trkpt lat="36.022556" lon="-118.134751"><ele>1833.6</ele><time>2024-06-03T21:23:00Z</time></trkpt>
<trkpt lat="36.022526" lon="-118.134727"><ele>1834.4</ele><time>2024-06-03T21:23:04Z</time></trkpt>
<trkpt lat="36.023564" lon="-118.134190"><ele>1841.2</ele><time>2024-06-03T21:24:56Z</time></trkpt>
<trkpt lat="36.023628" lon="-118.134238"><ele>1841.2</ele><time>2024-06-03T21:24:57Z</time></trkpt>
<trkpt lat="36.023578" lon="-118.134121"><ele>1841.0</ele><time>2024-06-03T21:25:03Z</time></trkpt>
<trkpt lat="36.023684" lon="-118.133428"><ele>1842.8</ele><time>2024-06-03T21:25:51Z</time></trkpt>
<trkpt lat="36.023616" lon="-118.133011"><ele>1843.8</ele><time>2024-06-03T21:26:17Z</time></trkpt>
<trkpt lat="36.023397" lon="-118.132788"><ele>1845.4</ele><time>2024-06-03T21:26:45Z</time></trkpt>
<trkpt lat="36.023440" lon="-118.132730"><ele>1845.4</ele><time>2024-06-03T21:26:55Z</time></trkpt>
<trkpt lat="36.023232" lon="-118.132350"><ele>1846.4</ele><time>2024-06-03T21:27:21Z</time></trkpt>
<trkpt lat="36.022873" lon="-118.131936"><ele>1847.6</ele><time>2024-06-03T21:28:23Z</time></trkpt>
<trkpt lat="36.022310" lon="-118.131555"><ele>1850.6</ele><time>2024-06-03T21:29:12Z</time></trkpt>
<trkpt lat="36.021858" lon="-118.131031"><ele>1852.6</ele><time>2024-06-03T21:30:03Z</time></trkpt>
<trkpt lat="36.021790" lon="-118.131052"><ele>1853.6</ele><time>2024-06-03T21:30:09Z</time></trkpt>
<trkpt lat="36.021375" lon="-118.130485"><ele>1855.2</ele><time>2024-06-03T21:31:03Z</time></trkpt>
<trkpt lat="36.020263" lon="-118.128072"><ele>1862.4</ele><time>2024-06-03T21:34:43Z</time></trkpt>
<trkpt lat="36.020093" lon="-118.127973"><ele>1863.2</ele><time>2024-06-03T21:34:55Z</time></trkpt>
<trkpt lat="36.019946" lon="-118.127720"><ele>1864.0</ele><time>2024-06-03T21:35:11Z</time></trkpt>
<trkpt lat="36.019784" lon="-118.127722"><ele>1864.4</ele><time>2024-06-03T21:35:23Z</time></trkpt>
<trkpt lat="36.018797" lon="-118.125990"><ele>1870.4</ele><time>2024-06-03T21:37:51Z</time></trkpt>
<trkpt lat="36.018761" lon="-118.125780"><ele>1870.8</ele><time>2024-06-03T21:38:05Z</time></trkpt>
<trkpt lat="36.018441" lon="-118.125584"><ele>1873.2</ele><time>2024-06-03T21:38:33Z</time></trkpt>
<trkpt lat="36.018317" lon="-118.125232"><ele>1874.0</ele><time>2024-06-03T21:38:58Z</time></trkpt>
<trkpt lat="36.018328" lon="-118.125063"><ele>1874.6</ele><time>2024-06-03T21:39:12Z</time></trkpt>
<trkpt lat="36.018410" lon="-118.124658"><ele>1875.4</ele><time>2024-06-03T21:39:37Z</time></trkpt>
<trkpt lat="36.018677" lon="-118.123895"><ele>1878.4</ele><time>2024-06-03T21:40:39Z</time></trkpt>
<trkpt lat="36.018803" lon="-118.123711"><ele>1879.0</ele><time>2024-06-03T21:40:54Z</time></trkpt>
<trkpt lat="36.018729" lon="-118.123652"><ele>1879.2</ele><time>2024-06-03T21:40:55Z</time></trkpt>
<trkpt lat="36.018870" lon="-118.123681"><ele>1880.4</ele><time>2024-06-03T21:41:07Z</time></trkpt>
<trkpt lat="36.018909" lon="-118.123604"><ele>1881.4</ele><time>2024-06-03T21:41:13Z</time></trkpt>
<trkpt lat="36.018906" lon="-118.123487"><ele>1882.6</ele><time>2024-06-03T21:41:23Z</time></trkpt>
<trkpt lat="36.018867" lon="-118.123495"><ele>1883.6</ele><time>2024-06-03T21:41:31Z</time></trkpt>
<trkpt lat="36.018921" lon="-118.123434"><ele>1885.6</ele><time>2024-06-03T21:42:03Z</time></trkpt>
<trkpt lat="36.018932" lon="-118.123219"><ele>1885.8</ele><time>2024-06-03T21:42:57Z</time></trkpt>
<trkpt lat="36.018866" lon="-118.123145"><ele>1885.8</ele><time>2024-06-03T21:42:58Z</time></trkpt>
<trkpt lat="36.018912" lon="-118.123296"><ele>1885.6</ele><time>2024-06-03T21:43:03Z</time></trkpt>
<trkpt lat="36.019039" lon="-118.123372"><ele>1885.4</ele><time>2024-06-03T21:43:09Z</time></trkpt>
<trkpt lat="36.018999" lon="-118.123358"><ele>1884.8</ele><time>2024-06-03T21:44:48Z</time></trkpt>
<trkpt lat="36.019022" lon="-118.123456"><ele>1885.0</ele><time>2024-06-03T21:45:04Z</time></trkpt>
<trkpt lat="36.018994" lon="-118.123175"><ele>1886.0</ele><time>2024-06-03T21:46:57Z</time></trkpt>
<trkpt lat="36.018948" lon="-118.123301"><ele>1886.0</ele><time>2024-06-03T21:47:06Z</time></trkpt>
<trkpt lat="36.019058" lon="-118.123443"><ele>1886.0</ele><time>2024-06-03T21:47:47Z</time></trkpt>
<trkpt lat="36.019347" lon="-118.123648"><ele>1888.0</ele><time>2024-06-03T21:49:20Z</time></trkpt>
<trkpt lat="36.019164" lon="-118.123410"><ele>1886.8</ele><time>2024-06-03T21:50:04Z</time></trkpt>
<trkpt lat="36.019363" lon="-118.123616"><ele>1890.4</ele><time>2024-06-03T21:51:12Z</time></trkpt>
<trkpt lat="36.019300" lon="-118.123692"><ele>1891.2</ele><time>2024-06-03T21:51:22Z</time></trkpt>
<trkpt lat="36.019317" lon="-118.123760"><ele>1892.0</ele><time>2024-06-03T21:52:06Z</time></trkpt>
<trkpt lat="36.019277" lon="-118.123726"><ele>1891.0</ele><time>2024-06-03T21:53:04Z</time></trkpt>
<trkpt lat="36.020107" lon="-118.123263"><ele>1894.4</ele><time>2024-06-03T21:55:00Z</time></trkpt>
<trkpt lat="36.020233" lon="-118.123285"><ele>1895.6</ele><time>2024-06-03T21:55:20Z</time></trkpt>
<trkpt lat="36.020253" lon="-118.123444"><ele>1893.6</ele><time>2024-06-03T21:55:52Z</time></trkpt>
<trkpt lat="36.020362" lon="-118.123634"><ele>1894.0</ele><time>2024-06-03T21:56:57Z</time></trkpt>
<trkpt lat="36.020214" lon="-118.123456"><ele>1892.6</ele><time>2024-06-03T21:58:58Z</time></trkpt>
<trkpt lat="36.020239" lon="-118.123604"><ele>1892.6</ele><time>2024-06-03T21:59:02Z</time></trkpt>
<trkpt lat="36.020276" lon="-118.123537"><ele>1894.4</ele><time>2024-06-03T22:02:12Z</time></trkpt>
<trkpt lat="36.020331" lon="-118.123606"><ele>1894.2</ele><time>2024-06-03T22:03:00Z</time></trkpt>
<trkpt lat="36.020026" lon="-118.123415"><ele>1894.8</ele><time>2024-06-03T22:07:03Z</time></trkpt>
<trkpt lat="36.019922" lon="-118.123513"><ele>1894.2</ele><time>2024-06-03T22:07:12Z</time></trkpt>
<trkpt lat="36.019642" lon="-118.123557"><ele>1894.4</ele><time>2024-06-03T22:07:42Z</time></trkpt>
<trkpt lat="36.019199" lon="-118.123514"><ele>1891.2</ele><time>2024-06-03T22:08:18Z</time></trkpt>
<trkpt lat="36.019047" lon="-118.123212"><ele>1889.4</ele><time>2024-06-03T22:08:57Z</time></trkpt>
<trkpt lat="36.019018" lon="-118.123316"><ele>1888.6</ele><time>2024-06-03T22:10:22Z</time></trkpt>
</trkseg></trk>
</gpx>
