<?xml version="1.0" encoding="UTF-8"?>
<gpx version="1.1" creator="Eric Sichak trip reports" xmlns="http://www.topografix.com/GPX/1/1">
<metadata><name>Morning Hike</name><time>2024-06-04T17:50:53Z</time></metadata>
<trk><name>Morning Hike</name><type>hike</type><trkseg>
<trkpt lat="36.020085" lon="-118.123702"><ele>1879.4</ele><time>2024-06-04T17:50:53Z</time></trkpt>
<trkpt lat="36.020140" lon="-118.123868"><ele>1879.8</ele><time>2024-06-04T17:51:01Z</time></trkpt>
<trkpt lat="36.020297" lon="-118.123769"><ele>1879.4</ele><time>2024-06-04T17:51:16Z</time></trkpt>
<trkpt lat="36.020654" lon="-118.123847"><ele>1880.6</ele><time>2024-06-04T17:51:54Z</time></trkpt>
<trkpt lat="36.020657" lon="-118.123795"><ele>1877.4</ele><time>2024-06-04T17:52:20Z</time></trkpt>
<trkpt lat="36.020484" lon="-118.123939"><ele>1876.4</ele><time>2024-06-04T17:52:53Z</time></trkpt>
<trkpt lat="36.020466" lon="-118.123874"><ele>1876.4</ele><time>2024-06-04T17:52:56Z</time></trkpt>
<trkpt lat="36.020199" lon="-118.123782"><ele>1880.2</ele><time>2024-06-04T17:53:57Z</time></trkpt>
<trkpt lat="36.019893" lon="-118.123802"><ele>1879.2</ele><time>2024-06-04T17:54:19Z</time></trkpt>
<trkpt lat="36.019636" lon="-118.124142"><ele>1881.0</ele><time>2024-06-04T17:54:42Z</time></trkpt>
<trkpt lat="36.019475" lon="-118.123399"><ele>1880.4</ele><time>2024-06-04T17:54:51Z</time></trkpt>
<trkpt lat="36.019212" lon="-118.123403"><ele>1878.4</ele><time>2024-06-04T17:55:21Z</time></trkpt>
<trkpt lat="36.019107" lon="-118.123527"><ele>1874.0</ele><time>2024-06-04T17:55:43Z</time></trkpt>
<trkpt lat="36.019090" lon="-118.123470"><ele>1872.4</ele><time>2024-06-04T17:56:01Z</time></trkpt>
<trkpt lat="36.018964" lon="-118.123479"><ele>1871.6</ele><time>2024-06-04T17:56:48Z</time></trkpt>
<trkpt lat="36.018962" lon="-118.123549"><ele>1871.6</ele><time>2024-06-04T17:56:52Z</time></trkpt>
<trkpt lat="36.019045" lon="-118.123439"><ele>1873.8</ele><time>2024-06-04T17:58:09Z</time></trkpt>
<trkpt lat="36.019169" lon="-118.123593"><ele>1877.0</ele><time>2024-06-04T17:58:33Z</time></trkpt>
<trkpt lat="36.019313" lon="-118.123557"><ele>1879.0</ele><time>2024-06-04T17:58:42Z</time></trkpt>
<trkpt lat="36.019344" lon="-118.123441"><ele>1879.8</ele><time>2024-06-04T17:58:47Z</time></trkpt>
<trkpt lat="36.019389" lon="-118.123514"><ele>1879.4</ele><time>2024-06-04T17:58:58Z</time></trkpt>
<trkpt lat="36.019203" lon="-118.123469"><ele>1875.2</ele><time>2024-06-04T18:00:39Z</time></trkpt>
<trkpt lat="36.019187" lon="-118.123330"><ele>1874.8</ele><time>2024-06-04T18:00:52Z</time></trkpt>
<trkpt lat="36.019161" lon="-118.123408"><ele>1874.8</ele><time>2024-06-04T18:02:52Z</time></trkpt>
<trkpt lat="36.019177" lon="-118.123341"><ele>1874.4</ele><time>2024-06-04T18:02:56Z</time></trkpt>
<trkpt lat="36.019346" lon="-118.123495"><ele>1870.6</ele><time>2024-06-04T18:04:21Z</time></trkpt>
<trkpt lat="36.019470" lon="-118.123516"><ele>1870.2</ele><time>2024-06-04T18:04:50Z</time></trkpt>
<trkpt lat="36.019440" lon="-118.123617"><ele>1870.0</ele><time>2024-06-04T18:05:03Z</time></trkpt>
<trkpt lat="36.019184" lon="-118.123366"><ele>1875.0</ele><time>2024-06-04T18:06:45Z</time></trkpt>
<trkpt lat="36.019189" lon="-118.123301"><ele>1874.0</ele><time>2024-06-04T18:06:53Z</time></trkpt>
<trkpt lat="36.019158" lon="-118.123365"><ele>1873.4</ele><time>2024-06-04T18:07:00Z</time></trkpt>
<trkpt lat="36.019144" lon="-118.123218"><ele>1873.4</ele><time>2024-06-04T18:08:45Z</time></trkpt>
<trkpt lat="36.019226" lon="-118.123467"><ele>1874.0</ele><time>2024-06-04T18:08:55Z</time></trkpt>
<trkpt lat="36.019162" lon="-118.123531"><ele>1873.4</ele><time>2024-06-04T18:10:26Z</time></trkpt>
<trkpt lat="36.018981" lon="-118.123505"><ele>1874.0</ele><time>2024-06-04T18:10:49Z</time></trkpt>
<trkpt lat="36.019040" lon="-118.123488"><ele>1874.4</ele><time>2024-06-04T18:10:57Z</time></trkpt>
<trkpt lat="36.018829" lon="-118.123303"><ele>1868.2</ele><time>2024-06-04T18:12:49Z</time></trkpt>
<trkpt lat="36.018893" lon="-118.123699"><ele>1868.2</ele><time>2024-06-04T18:15:49Z</time></trkpt>
<trkpt lat="36.018837" lon="-118.123392"><ele>1867.6</ele><time>2024-06-04T18:16:03Z</time></trkpt>
<trkpt lat="36.018808" lon="-118.123510"><ele>1869.4</ele><time>2024-06-04T18:17:46Z</time></trkpt>
<trkpt lat="36.018813" lon="-118.123426"><ele>1869.0</ele><time>2024-06-04T18:18:00Z</time></trkpt>
<trkpt lat="36.019014" lon="-118.123368"><ele>1869.2</ele><time>2024-06-04T18:18:58Z</time></trkpt>
<trkpt lat="36.019359" lon="-118.123370"><ele>1877.8</ele><time>2024-06-04T18:19:44Z</time></trkpt>
<trkpt lat="36.019403" lon="-118.123559"><ele>1878.4</ele><time>2024-06-04T18:19:49Z</time></trkpt>
<trkpt lat="36.019240" lon="-118.123623"><ele>1878.4</ele><time>2024-06-04T18:19:52Z</time></trkpt>
<trkpt lat="36.019449" lon="-118.123526"><ele>1877.8</ele><time>2024-06-04T18:19:59Z</time></trkpt>
<trkpt lat="36.018833" lon="-118.123513"><ele>1872.4</ele><time>2024-06-04T18:21:34Z</time></trkpt>
<trkpt lat="36.018827" lon="-118.123388"><ele>1871.2</ele><time>2024-06-04T18:21:56Z</time></trkpt>
<trkpt lat="36.018882" lon="-118.123416"><ele>1871.4</ele><time>2024-06-04T18:22:01Z</time></trkpt>
<trkpt lat="36.018845" lon="-118.123383"><ele>1871.0</ele><time>2024-06-04T18:22:38Z</time></trkpt>
<trkpt lat="36.018934" lon="-118.123276"><ele>1869.4</ele><time>2024-06-04T18:24:08Z</time></trkpt>
<trkpt lat="36.018852" lon="-118.123485"><ele>1870.8</ele><time>2024-06-04T18:26:52Z</time></trkpt>
<trkpt lat="36.018760" lon="-118.123414"><ele>1870.8</ele><time>2024-06-04T18:27:00Z</time></trkpt>
<trkpt lat="36.018922" lon="-118.123389"><ele>1870.4</ele><time>2024-06-04T18:29:21Z</time></trkpt>
<trkpt lat="36.018981" lon="-118.123533"><ele>1870.8</ele><time>2024-06-04T18:29:31Z</time></trkpt>
<trkpt lat="36.019071" lon="-118.123570"><ele>1870.0</ele><time>2024-06-04T18:32:34Z</time></trkpt>
<trkpt lat="36.018885" lon="-118.123515"><ele>1870.4</ele><time>2024-06-04T18:32:40Z</time></trkpt>
<trkpt lat="36.018917" lon="-118.123578"><ele>1870.2</ele><time>2024-06-04T18:32:49Z</time></trkpt>
<trkpt lat="36.018927" lon="-118.123467"><ele>1870.2</ele><time>2024-06-04T18:33:00Z</time></trkpt>
<trkpt lat="36.018916" lon="-118.123615"><ele>1870.0</ele><time>2024-06-04T18:35:09Z</time></trkpt>
<trkpt lat="36.018852" lon="-118.123636"><ele>1870.0</ele><time>2024-06-04T18:35:10Z</time></trkpt>
<trkpt lat="36.018683" lon="-118.123315"><ele>1869.8</ele><time>2024-06-04T18:35:51Z</time></trkpt>
<trkpt lat="36.018823" lon="-118.123302"><ele>1871.2</ele><time>2024-06-04T18:37:44Z</time></trkpt>
<trkpt lat="36.018750" lon="-118.123248"><ele>1871.2</ele><time>2024-06-04T18:39:58Z</time></trkpt>
<trkpt lat="36.018830" lon="-118.123330"><ele>1873.0</ele><time>2024-06-04T18:41:46Z</time></trkpt>
<trkpt lat="36.018785" lon="-118.123279"><ele>1873.0</ele><time>2024-06-04T18:41:53Z</time></trkpt>
<trkpt lat="36.018836" lon="-118.123272"><ele>1874.0</ele><time>2024-06-04T18:42:01Z</time></trkpt>
<trkpt lat="36.018828" lon="-118.123335"><ele>1872.6</ele><time>2024-06-04T18:43:46Z</time></trkpt>
<trkpt lat="36.018789" lon="-118.123269"><ele>1872.4</ele><time>2024-06-04T18:43:53Z</time></trkpt>
<trkpt lat="36.018840" lon="-118.123330"><ele>1872.8</ele><time>2024-06-04T18:47:41Z</time></trkpt>
<trkpt lat="36.018780" lon="-118.123298"><ele>1871.4</ele><time>2024-06-04T18:49:51Z</time></trkpt>
<trkpt lat="36.018826" lon="-118.123298"><ele>1871.2</ele><time>2024-06-04T18:53:45Z</time></trkpt>
<trkpt lat="36.018776" lon="-118.123286"><ele>1871.8</ele><time>2024-06-04T18:53:57Z</time></trkpt>
<trkpt lat="36.018811" lon="-118.123246"><ele>1871.8</ele><time>2024-06-04T18:55:44Z</time></trkpt>
<trkpt lat="36.018773" lon="-118.123256"><ele>1871.8</ele><time>2024-06-04T18:55:46Z</time></trkpt>
<trkpt lat="36.018829" lon="-118.123319"><ele>1872.2</ele><time>2024-06-04T18:56:00Z</time></trkpt>
<trkpt lat="36.018790" lon="-118.123324"><ele>1872.8</ele><time>2024-06-04T18:57:48Z</time></trkpt>
<trkpt lat="36.018842" lon="-118.123349"><ele>1872.6</ele><time>2024-06-04T18:57:57Z</time></trkpt>
<trkpt lat="36.018757" lon="-118.123197"><ele>1872.0</ele><time>2024-06-04T18:59:50Z</time></trkpt>
<trkpt lat="36.018886" lon="-118.123354"><ele>1870.6</ele><time>2024-06-04T19:01:40Z</time></trkpt>
<trkpt lat="36.018799" lon="-118.123272"><ele>1871.8</ele><time>2024-06-04T19:02:03Z</time></trkpt>
<trkpt lat="36.018854" lon="-118.123320"><ele>1870.8</ele><time>2024-06-04T19:03:49Z</time></trkpt>
<trkpt lat="36.018781" lon="-118.123340"><ele>1870.0</ele><time>2024-06-04T19:03:56Z</time></trkpt>
<trkpt lat="36.018760" lon="-118.123293"><ele>1870.8</ele><time>2024-06-04T19:04:01Z</time></trkpt>
<trkpt lat="36.018870" lon="-118.123308"><ele>1870.8</ele><time>2024-06-04T19:05:54Z</time></trkpt>
<trkpt lat="36.018806" lon="-118.123231"><ele>1871.4</ele><time>2024-06-04T19:07:28Z</time></trkpt>
<trkpt lat="36.018899" lon="-118.123412"><ele>1872.2</ele><time>2024-06-04T19:11:45Z</time></trkpt>
<trkpt lat="36.018807" lon="-118.123288"><ele>1872.0</ele><time>2024-06-04T19:11:51Z</time></trkpt>
<trkpt lat="36.018843" lon="-118.123358"><ele>1871.2</ele><time>2024-06-04T19:12:00Z</time></trkpt>
<trkpt lat="36.019062" lon="-118.123523"><ele>1870.6</ele><time>2024-06-04T19:13:46Z</time></trkpt>
<trkpt lat="36.018861" lon="-118.123312"><ele>1870.4</ele><time>2024-06-04T19:14:03Z</time></trkpt>
<trkpt lat="36.018870" lon="-118.123359"><ele>1871.2</ele><time>2024-06-04T19:17:46Z</time></trkpt>
<trkpt lat="36.018758" lon="-118.123292"><ele>1870.8</ele><time>2024-06-04T19:17:54Z</time></trkpt>
<trkpt lat="36.018928" lon="-118.123412"><ele>1869.6</ele><time>2024-06-04T19:21:49Z</time></trkpt>
<trkpt lat="36.018894" lon="-118.123301"><ele>1869.4</ele><time>2024-06-04T19:22:00Z</time></trkpt>
<trkpt lat="36.018847" lon="-118.123373"><ele>1869.4</ele><time>2024-06-04T19:23:49Z</time></trkpt>
<trkpt lat="36.018768" lon="-118.123309"><ele>1871.8</ele><time>2024-06-04T19:27:45Z</time></trkpt>
<trkpt lat="36.018850" lon="-118.123326"><ele>1872.2</ele><time>2024-06-04T19:30:04Z</time></trkpt>
<trkpt lat="36.018928" lon="-118.123452"><ele>1871.2</ele><time>2024-06-04T19:31:46Z</time></trkpt>
<trkpt lat="36.018793" lon="-118.123288"><ele>1871.4</ele><time>2024-06-04T19:32:03Z</time></trkpt>
<trkpt lat="36.018856" lon="-118.123339"><ele>1872.6</ele><time>2024-06-04T19:33:52Z</time></trkpt>
<trkpt lat="36.018988" lon="-118.123287"><ele>1879.4</ele><time>2024-06-04T19:34:53Z</time></trkpt>
<trkpt lat="36.019080" lon="-118.123351"><ele>1879.4</ele><time>2024-06-04T19:35:29Z</time></trkpt>
<trkpt lat="36.019188" lon="-118.123242"><ele>1878.8</ele><time>2024-06-04T19:35:56Z</time></trkpt>
<trkpt lat="36.019175" lon="-118.123343"><ele>1875.0</ele><time>2024-06-04T19:37:47Z</time></trkpt>
<trkpt lat="36.019214" lon="-118.123290"><ele>1875.0</ele><time>2024-06-04T19:37:58Z</time></trkpt>
<trkpt lat="36.019446" lon="-118.123354"><ele>1879.4</ele><time>2024-06-04T19:39:37Z</time></trkpt>
<trkpt lat="36.019793" lon="-118.123646"><ele>1879.8</ele><time>2024-06-04T19:39:46Z</time></trkpt>
<trkpt lat="36.019469" lon="-118.123251"><ele>1880.0</ele><time>2024-06-04T19:39:47Z</time></trkpt>
<trkpt lat="36.019145" lon="-118.123045"><ele>1880.0</ele><time>2024-06-04T19:39:48Z</time></trkpt>
<trkpt lat="36.019326" lon="-118.123383"><ele>1879.4</ele><time>2024-06-04T19:39:54Z</time></trkpt>
<trkpt lat="36.019296" lon="-118.123280"><ele>1880.8</ele><time>2024-06-04T19:41:48Z</time></trkpt>
<trkpt lat="36.019341" lon="-118.123277"><ele>1875.2</ele><time>2024-06-04T19:41:55Z</time></trkpt>
<trkpt lat="36.019298" lon="-118.123213"><ele>1866.4</ele><time>2024-06-04T19:43:42Z</time></trkpt>
<trkpt lat="36.019293" lon="-118.123203"><ele>1871.0</ele><time>2024-06-04T19:43:52Z</time></trkpt>
<trkpt lat="36.019319" lon="-118.123268"><ele>1871.4</ele><time>2024-06-04T19:43:58Z</time></trkpt>
<trkpt lat="36.019260" lon="-118.123160"><ele>1871.6</ele><time>2024-06-04T19:44:10Z</time></trkpt>
<trkpt lat="36.019325" lon="-118.123315"><ele>1868.8</ele><time>2024-06-04T19:45:12Z</time></trkpt>
<trkpt lat="36.019325" lon="-118.123317"><ele>1862.4</ele><time>2024-06-04T19:45:14Z</time></trkpt>
<trkpt lat="36.019326" lon="-118.123323"><ele>1871.6</ele><time>2024-06-04T19:45:24Z</time></trkpt>
<trkpt lat="36.019375" lon="-118.123333"><ele>1869.0</ele><time>2024-06-04T19:45:47Z</time></trkpt>
<trkpt lat="36.019285" lon="-118.123437"><ele>1870.6</ele><time>2024-06-04T19:45:49Z</time></trkpt>
<trkpt lat="36.019316" lon="-118.123281"><ele>1871.2</ele><time>2024-06-04T19:45:55Z</time></trkpt>
<trkpt lat="36.019330" lon="-118.123276"><ele>1860.2</ele><time>2024-06-04T19:46:30Z</time></trkpt>
<trkpt lat="36.019338" lon="-118.123316"><ele>1870.0</ele><time>2024-06-04T19:47:08Z</time></trkpt>
<trkpt lat="36.019390" lon="-118.123251"><ele>1867.6</ele><time>2024-06-04T19:47:36Z</time></trkpt>
<trkpt lat="36.019349" lon="-118.123338"><ele>1868.2</ele><time>2024-06-04T19:47:53Z</time></trkpt>
<trkpt lat="36.019278" lon="-118.123260"><ele>1868.6</ele><time>2024-06-04T19:48:00Z</time></trkpt>
<trkpt lat="36.019468" lon="-118.123437"><ele>1871.8</ele><time>2024-06-04T19:49:15Z</time></trkpt>
<trkpt lat="36.019574" lon="-118.123401"><ele>1869.6</ele><time>2024-06-04T19:49:39Z</time></trkpt>
<trkpt lat="36.020063" lon="-118.123648"><ele>1869.8</ele><time>2024-06-04T19:49:46Z</time></trkpt>
<trkpt lat="36.019486" lon="-118.123485"><ele>1870.0</ele><time>2024-06-04T19:49:47Z</time></trkpt>
<trkpt lat="36.019309" lon="-118.123268"><ele>1871.2</ele><time>2024-06-04T19:49:52Z</time></trkpt>
<trkpt lat="36.019335" lon="-118.123315"><ele>1872.6</ele><time>2024-06-04T19:49:57Z</time></trkpt>
<trkpt lat="36.018996" lon="-118.123278"><ele>1869.4</ele><time>2024-06-04T19:51:43Z</time></trkpt>
<trkpt lat="36.018652" lon="-118.123165"><ele>1869.2</ele><time>2024-06-04T19:51:48Z</time></trkpt>
<trkpt lat="36.019003" lon="-118.123327"><ele>1869.2</ele><time>2024-06-04T19:51:50Z</time></trkpt>
<trkpt lat="36.019193" lon="-118.123613"><ele>1869.8</ele><time>2024-06-04T19:53:57Z</time></trkpt>
<trkpt lat="36.019142" lon="-118.123504"><ele>1869.8</ele><time>2024-06-04T19:53:59Z</time></trkpt>
<trkpt lat="36.019106" lon="-118.123529"><ele>1870.0</ele><time>2024-06-04T19:54:04Z</time></trkpt>
<trkpt lat="36.019057" lon="-118.123352"><ele>1869.6</ele><time>2024-06-04T19:55:41Z</time></trkpt>
<trkpt lat="36.019033" lon="-118.123408"><ele>1869.2</ele><time>2024-06-04T19:55:57Z</time></trkpt>
<trkpt lat="36.019097" lon="-118.123290"><ele>1869.2</ele><time>2024-06-04T19:56:51Z</time></trkpt>
<trkpt lat="36.019028" lon="-118.123381"><ele>1869.6</ele><time>2024-06-04T19:58:00Z</time></trkpt>
<trkpt lat="36.019150" lon="-118.123446"><ele>1868.2</ele><time>2024-06-04T19:58:31Z</time></trkpt>
<trkpt lat="36.019161" lon="-118.123637"><ele>1870.4</ele><time>2024-06-04T19:59:01Z</time></trkpt>
<trkpt lat="36.019322" lon="-118.123573"><ele>1869.4</ele><time>2024-06-04T19:59:15Z</time></trkpt>
<trkpt lat="36.019516" lon="-118.123811"><ele>1869.8</ele><time>2024-06-04T19:59:48Z</time></trkpt>
<trkpt lat="36.019102" lon="-118.123494"><ele>1870.2</ele><time>2024-06-04T19:59:59Z</time></trkpt>
<trkpt lat="36.019152" lon="-118.123433"><ele>1870.4</ele><time>2024-06-04T20:00:04Z</time></trkpt>
<trkpt lat="36.019106" lon="-118.123439"><ele>1870.4</ele><time>2024-06-04T20:00:05Z</time></trkpt>
<trkpt lat="36.021376" lon="-118.122307"><ele>1870.4</ele><time>2024-06-04T20:01:46Z</time></trkpt>
<trkpt lat="36.021556" lon="-118.123154"><ele>1870.8</ele><time>2024-06-04T20:01:50Z</time></trkpt>
<trkpt lat="36.021276" lon="-118.123969"><ele>1870.8</ele><time>2024-06-04T20:01:51Z</time></trkpt>
<trkpt lat="36.020079" lon="-118.123798"><ele>1870.8</ele><time>2024-06-04T20:01:52Z</time></trkpt>
<trkpt lat="36.019842" lon="-118.123682"><ele>1871.0</ele><time>2024-06-04T20:01:55Z</time></trkpt>
<trkpt lat="36.020367" lon="-118.123824"><ele>1871.0</ele><time>2024-06-04T20:01:56Z</time></trkpt>
<trkpt lat="36.019808" lon="-118.123666"><ele>1871.0</ele><time>2024-06-04T20:01:57Z</time></trkpt>
<trkpt lat="36.019903" lon="-118.123634"><ele>1871.0</ele><time>2024-06-04T20:02:04Z</time></trkpt>
<trkpt lat="36.020369" lon="-118.123802"><ele>1872.2</ele><time>2024-06-04T20:02:13Z</time></trkpt>
<trkpt lat="36.020381" lon="-118.123941"><ele>1872.8</ele><time>2024-06-04T20:02:17Z</time></trkpt>
<trkpt lat="36.020265" lon="-118.123831"><ele>1873.0</ele><time>2024-06-04T20:02:21Z</time></trkpt>
<trkpt lat="36.020509" lon="-118.123851"><ele>1874.0</ele><time>2024-06-04T20:02:27Z</time></trkpt>
<trkpt lat="36.020806" lon="-118.123449"><ele>1874.8</ele><time>2024-06-04T20:02:41Z</time></trkpt>
<trkpt lat="36.020926" lon="-118.123435"><ele>1874.6</ele><time>2024-06-04T20:02:51Z</time></trkpt>
<trkpt lat="36.020907" lon="-118.123559"><ele>1873.8</ele><time>2024-06-04T20:02:57Z</time></trkpt>
<trkpt lat="36.020416" lon="-118.123834"><ele>1875.6</ele><time>2024-06-04T20:03:49Z</time></trkpt>
<trkpt lat="36.020349" lon="-118.123622"><ele>1875.6</ele><time>2024-06-04T20:03:51Z</time></trkpt>
<trkpt lat="36.019962" lon="-118.123554"><ele>1874.8</ele><time>2024-06-04T20:05:03Z</time></trkpt>
<trkpt lat="36.019920" lon="-118.123703"><ele>1873.6</ele><time>2024-06-04T20:05:35Z</time></trkpt>
<trkpt lat="36.019570" lon="-118.123576"><ele>1873.0</ele><time>2024-06-04T20:05:50Z</time></trkpt>
<trkpt lat="36.019466" lon="-118.123624"><ele>1873.0</ele><time>2024-06-04T20:05:51Z</time></trkpt>
<trkpt lat="36.019159" lon="-118.123489"><ele>1869.6</ele><time>2024-06-04T20:06:22Z</time></trkpt>
<trkpt lat="36.019111" lon="-118.123373"><ele>1869.6</ele><time>2024-06-04T20:07:32Z</time></trkpt>
<trkpt lat="36.019088" lon="-118.123452"><ele>1869.6</ele><time>2024-06-04T20:08:06Z</time></trkpt>
<trkpt lat="36.019039" lon="-118.123430"><ele>1869.6</ele><time>2024-06-04T20:08:11Z</time></trkpt>
<trkpt lat="36.018911" lon="-118.123156"><ele>1869.8</ele><time>2024-06-04T20:09:46Z</time></trkpt>
<trkpt lat="36.019013" lon="-118.123380"><ele>1870.2</ele><time>2024-06-04T20:10:02Z</time></trkpt>
<trkpt lat="36.018932" lon="-118.123304"><ele>1870.0</ele><time>2024-06-04T20:11:56Z</time></trkpt>
<trkpt lat="36.019027" lon="-118.123348"><ele>1869.8</ele><time>2024-06-04T20:12:03Z</time></trkpt>
<trkpt lat="36.018947" lon="-118.123233"><ele>1870.6</ele><time>2024-06-04T20:13:48Z</time></trkpt>
<trkpt lat="36.018501" lon="-118.122959"><ele>1870.6</ele><time>2024-06-04T20:13:49Z</time></trkpt>
<trkpt lat="36.018791" lon="-118.122930"><ele>1870.8</ele><time>2024-06-04T20:13:50Z</time></trkpt>
<trkpt lat="36.019043" lon="-118.123405"><ele>1870.2</ele><time>2024-06-04T20:14:03Z</time></trkpt>
<trkpt lat="36.018951" lon="-118.123485"><ele>1870.0</ele><time>2024-06-04T20:15:40Z</time></trkpt>
<trkpt lat="36.018954" lon="-118.123622"><ele>1870.2</ele><time>2024-06-04T20:15:50Z</time></trkpt>
<trkpt lat="36.019073" lon="-118.123384"><ele>1870.2</ele><time>2024-06-04T20:15:52Z</time></trkpt>
<trkpt lat="36.018838" lon="-118.123317"><ele>1869.8</ele><time>2024-06-04T20:17:51Z</time></trkpt>
<trkpt lat="36.019020" lon="-118.123398"><ele>1869.8</ele><time>2024-06-04T20:17:55Z</time></trkpt>
<trkpt lat="36.018955" lon="-118.123367"><ele>1871.6</ele><time>2024-06-04T20:19:49Z</time></trkpt>
<trkpt lat="36.019041" lon="-118.123357"><ele>1869.6</ele><time>2024-06-04T20:21:13Z</time></trkpt>
<trkpt lat="36.018979" lon="-118.123433"><ele>1869.8</ele><time>2024-06-04T20:21:51Z</time></trkpt>
<trkpt lat="36.018988" lon="-118.123352"><ele>1870.4</ele><time>2024-06-04T20:22:00Z</time></trkpt>
<trkpt lat="36.018519" lon="-118.122550"><ele>1869.6</ele><time>2024-06-04T20:23:48Z</time></trkpt>
<trkpt lat="36.018938" lon="-118.122811"><ele>1869.6</ele><time>2024-06-04T20:23:51Z</time></trkpt>
<trkpt lat="36.018846" lon="-118.122923"><ele>1869.6</ele><time>2024-06-04T20:23:54Z</time></trkpt>
<trkpt lat="36.018985" lon="-118.123382"><ele>1869.4</ele><time>2024-06-04T20:23:57Z</time></trkpt>
<trkpt lat="36.019000" lon="-118.123249"><ele>1869.8</ele><time>2024-06-04T20:25:50Z</time></trkpt>
<trkpt lat="36.018990" lon="-118.123346"><ele>1870.4</ele><time>2024-06-04T20:26:05Z</time></trkpt>
<trkpt lat="36.018286" lon="-118.122895"><ele>1870.6</ele><time>2024-06-04T20:27:47Z</time></trkpt>
<trkpt lat="36.018997" lon="-118.123443"><ele>1870.6</ele><time>2024-06-04T20:28:00Z</time></trkpt>
<trkpt lat="36.019044" lon="-118.123389"><ele>1870.8</ele><time>2024-06-04T20:29:50Z</time></trkpt>
<trkpt lat="36.018988" lon="-118.123357"><ele>1871.0</ele><time>2024-06-04T20:30:06Z</time></trkpt>
<trkpt lat="36.019154" lon="-118.123415"><ele>1870.8</ele><time>2024-06-04T20:30:54Z</time></trkpt>
<trkpt lat="36.019448" lon="-118.123156"><ele>1870.8</ele><time>2024-06-04T20:31:51Z</time></trkpt>
<trkpt lat="36.019199" lon="-118.123394"><ele>1870.8</ele><time>2024-06-04T20:31:52Z</time></trkpt>
<trkpt lat="36.019043" lon="-118.123454"><ele>1870.8</ele><time>2024-06-04T20:31:55Z</time></trkpt>
<trkpt lat="36.019000" lon="-118.123366"><ele>1870.8</ele><time>2024-06-04T20:32:04Z</time></trkpt>
<trkpt lat="36.019727" lon="-118.123108"><ele>1872.8</ele><time>2024-06-04T20:33:58Z</time></trkpt>
<trkpt lat="36.019599" lon="-118.122822"><ele>1872.6</ele><time>2024-06-04T20:34:01Z</time></trkpt>
<trkpt lat="36.019372" lon="-118.122907"><ele>1872.6</ele><time>2024-06-04T20:34:03Z</time></trkpt>
<trkpt lat="36.019637" lon="-118.123500"><ele>1872.8</ele><time>2024-06-04T20:34:04Z</time></trkpt>
<trkpt lat="36.019042" lon="-118.123352"><ele>1871.8</ele><time>2024-06-04T20:34:13Z</time></trkpt>
<trkpt lat="36.019005" lon="-118.123371"><ele>1872.0</ele><time>2024-06-04T20:34:18Z</time></trkpt>
<trkpt lat="36.019048" lon="-118.123579"><ele>1873.4</ele><time>2024-06-04T20:34:27Z</time></trkpt>
<trkpt lat="36.019055" lon="-118.123437"><ele>1873.8</ele><time>2024-06-04T20:34:46Z</time></trkpt>
<trkpt lat="36.019028" lon="-118.123366"><ele>1874.0</ele><time>2024-06-04T20:34:53Z</time></trkpt>
<trkpt lat="36.018994" lon="-118.123401"><ele>1873.8</ele><time>2024-06-04T20:35:01Z</time></trkpt>
<trkpt lat="36.019017" lon="-118.123286"><ele>1872.4</ele><time>2024-06-04T20:36:44Z</time></trkpt>
<trkpt lat="36.019099" lon="-118.123231"><ele>1873.4</ele><time>2024-06-04T20:37:12Z</time></trkpt>
<trkpt lat="36.018870" lon="-118.122997"><ele>1874.0</ele><time>2024-06-04T20:37:46Z</time></trkpt>
<trkpt lat="36.018983" lon="-118.123348"><ele>1873.0</ele><time>2024-06-04T20:40:10Z</time></trkpt>
<trkpt lat="36.018944" lon="-118.123258"><ele>1873.2</ele><time>2024-06-04T20:40:12Z</time></trkpt>
<trkpt lat="36.018872" lon="-118.123275"><ele>1873.6</ele><time>2024-06-04T20:40:13Z</time></trkpt>
<trkpt lat="36.018893" lon="-118.123222"><ele>1873.8</ele><time>2024-06-04T20:40:18Z</time></trkpt>
<trkpt lat="36.019020" lon="-118.123361"><ele>1873.8</ele><time>2024-06-04T20:41:05Z</time></trkpt>
<trkpt lat="36.018878" lon="-118.123272"><ele>1875.0</ele><time>2024-06-04T20:42:50Z</time></trkpt>
<trkpt lat="36.018997" lon="-118.123227"><ele>1874.8</ele><time>2024-06-04T20:43:04Z</time></trkpt>
<trkpt lat="36.019036" lon="-118.123360"><ele>1876.6</ele><time>2024-06-04T20:44:46Z</time></trkpt>
<trkpt lat="36.019036" lon="-118.123164"><ele>1885.4</ele><time>2024-06-04T20:46:55Z</time></trkpt>
<trkpt lat="36.018993" lon="-118.123236"><ele>1885.2</ele><time>2024-06-04T20:47:04Z</time></trkpt>
<trkpt lat="36.019036" lon="-118.123328"><ele>1887.0</ele><time>2024-06-04T20:48:58Z</time></trkpt>
<trkpt lat="36.018906" lon="-118.123452"><ele>1886.4</ele><time>2024-06-04T20:49:14Z</time></trkpt>
<trkpt lat="36.019048" lon="-118.123309"><ele>1886.2</ele><time>2024-06-04T20:49:17Z</time></trkpt>
<trkpt lat="36.019053" lon="-118.123393"><ele>1886.2</ele><time>2024-06-04T20:49:25Z</time></trkpt>
<trkpt lat="36.019068" lon="-118.123308"><ele>1885.8</ele><time>2024-06-04T20:49:34Z</time></trkpt>
<trkpt lat="36.019000" lon="-118.123375"><ele>1886.4</ele><time>2024-06-04T20:49:50Z</time></trkpt>
<trkpt lat="36.018889" lon="-118.123363"><ele>1888.4</ele><time>2024-06-04T20:51:30Z</time></trkpt>
<trkpt lat="36.018928" lon="-118.123413"><ele>1888.2</ele><time>2024-06-04T20:51:34Z</time></trkpt>
<trkpt lat="36.019076" lon="-118.123326"><ele>1888.0</ele><time>2024-06-04T20:51:38Z</time></trkpt>
<trkpt lat="36.018958" lon="-118.123539"><ele>1887.0</ele><time>2024-06-04T20:54:42Z</time></trkpt>
<trkpt lat="36.019096" lon="-118.123501"><ele>1888.0</ele><time>2024-06-04T20:54:56Z</time></trkpt>
<trkpt lat="36.019151" lon="-118.123397"><ele>1888.6</ele><time>2024-06-04T20:55:04Z</time></trkpt>
<trkpt lat="36.018945" lon="-118.123379"><ele>1887.2</ele><time>2024-06-04T20:57:08Z</time></trkpt>
<trkpt lat="36.019141" lon="-118.123075"><ele>1885.4</ele><time>2024-06-04T20:59:14Z</time></trkpt>
<trkpt lat="36.019208" lon="-118.122746"><ele>1886.4</ele><time>2024-06-04T20:59:25Z</time></trkpt>
<trkpt lat="36.019212" lon="-118.123140"><ele>1885.6</ele><time>2024-06-04T20:59:45Z</time></trkpt>
<trkpt lat="36.019110" lon="-118.123388"><ele>1886.6</ele><time>2024-06-04T21:01:23Z</time></trkpt>
<trkpt lat="36.019348" lon="-118.123299"><ele>1887.2</ele><time>2024-06-04T21:01:30Z</time></trkpt>
<trkpt lat="36.019078" lon="-118.123458"><ele>1887.2</ele><time>2024-06-04T21:01:32Z</time></trkpt>
<trkpt lat="36.019193" lon="-118.123365"><ele>1887.6</ele><time>2024-06-04T21:02:49Z</time></trkpt>
<trkpt lat="36.019281" lon="-118.123602"><ele>1887.2</ele><time>2024-06-04T21:03:24Z</time></trkpt>
<trkpt lat="36.019082" lon="-118.123134"><ele>1887.0</ele><time>2024-06-04T21:03:25Z</time></trkpt>
<trkpt lat="36.019455" lon="-118.123419"><ele>1886.6</ele><time>2024-06-04T21:03:30Z</time></trkpt>
<trkpt lat="36.019483" lon="-118.123355"><ele>1886.8</ele><time>2024-06-04T21:03:37Z</time></trkpt>
<trkpt lat="36.019273" lon="-118.123376"><ele>1886.2</ele><time>2024-06-04T21:05:09Z</time></trkpt>
<trkpt lat="36.019111" lon="-118.123552"><ele>1886.4</ele><time>2024-06-04T21:05:29Z</time></trkpt>
<trkpt lat="36.019046" lon="-118.123445"><ele>1887.0</ele><time>2024-06-04T21:05:31Z</time></trkpt>
<trkpt lat="36.019143" lon="-118.123348"><ele>1887.0</ele><time>2024-06-04T21:05:33Z</time></trkpt>
<trkpt lat="36.019067" lon="-118.123299"><ele>1886.4</ele><time>2024-06-04T21:05:40Z</time></trkpt>
<trkpt lat="36.019028" lon="-118.123385"><ele>1886.2</ele><time>2024-06-04T21:05:50Z</time></trkpt>
<trkpt lat="36.018940" lon="-118.123373"><ele>1882.8</ele><time>2024-06-04T21:08:31Z</time></trkpt>
<trkpt lat="36.019071" lon="-118.123216"><ele>1883.2</ele><time>2024-06-04T21:09:07Z</time></trkpt>
<trkpt lat="36.019031" lon="-118.123282"><ele>1883.6</ele><time>2024-06-04T21:10:53Z</time></trkpt>
<trkpt lat="36.019064" lon="-118.123337"><ele>1883.2</ele><time>2024-06-04T21:11:10Z</time></trkpt>
<trkpt lat="36.019006" lon="-118.123362"><ele>1882.4</ele><time>2024-06-04T21:11:23Z</time></trkpt>
<trkpt lat="36.019036" lon="-118.123398"><ele>1881.6</ele><time>2024-06-04T21:11:35Z</time></trkpt>
<trkpt lat="36.019510" lon="-118.123509"><ele>1883.0</ele><time>2024-06-04T21:12:29Z</time></trkpt>
<trkpt lat="36.019612" lon="-118.123635"><ele>1887.6</ele><time>2024-06-04T21:12:53Z</time></trkpt>
<trkpt lat="36.019768" lon="-118.123708"><ele>1888.8</ele><time>2024-06-04T21:13:01Z</time></trkpt>
<trkpt lat="36.020200" lon="-118.123712"><ele>1890.4</ele><time>2024-06-04T21:13:18Z</time></trkpt>
<trkpt lat="36.020202" lon="-118.123825"><ele>1890.4</ele><time>2024-06-04T21:13:19Z</time></trkpt>
<trkpt lat="36.019609" lon="-118.124036"><ele>1890.2</ele><time>2024-06-04T21:13:21Z</time></trkpt>
<trkpt lat="36.019923" lon="-118.123735"><ele>1890.2</ele><time>2024-06-04T21:13:22Z</time></trkpt>
<trkpt lat="36.020095" lon="-118.123737"><ele>1889.4</ele><time>2024-06-04T21:13:32Z</time></trkpt>
<trkpt lat="36.020299" lon="-118.123627"><ele>1889.6</ele><time>2024-06-04T21:13:46Z</time></trkpt>
<trkpt lat="36.020037" lon="-118.123669"><ele>1887.6</ele><time>2024-06-04T21:14:08Z</time></trkpt>
<trkpt lat="36.019524" lon="-118.123431"><ele>1883.6</ele><time>2024-06-04T21:15:03Z</time></trkpt>
<trkpt lat="36.019263" lon="-118.123591"><ele>1881.0</ele><time>2024-06-04T21:15:17Z</time></trkpt>
<trkpt lat="36.019252" lon="-118.123545"><ele>1879.0</ele><time>2024-06-04T21:15:39Z</time></trkpt>
<trkpt lat="36.019671" lon="-118.123471"><ele>1879.6</ele><time>2024-06-04T21:15:49Z</time></trkpt>
<trkpt lat="36.019766" lon="-118.123823"><ele>1879.8</ele><time>2024-06-04T21:15:50Z</time></trkpt>
<trkpt lat="36.019066" lon="-118.123504"><ele>1880.0</ele><time>2024-06-04T21:15:52Z</time></trkpt>
<trkpt lat="36.019200" lon="-118.123387"><ele>1880.2</ele><time>2024-06-04T21:17:01Z</time></trkpt>
<trkpt lat="36.019078" lon="-118.123351"><ele>1878.8</ele><time>2024-06-04T21:17:51Z</time></trkpt>
<trkpt lat="36.019099" lon="-118.123440"><ele>1878.8</ele><time>2024-06-04T21:17:55Z</time></trkpt>
<trkpt lat="36.019172" lon="-118.123448"><ele>1878.8</ele><time>2024-06-04T21:18:08Z</time></trkpt>
<trkpt lat="36.019095" lon="-118.123472"><ele>1878.2</ele><time>2024-06-04T21:18:14Z</time></trkpt>
<trkpt lat="36.019164" lon="-118.123526"><ele>1878.2</ele><time>2024-06-04T21:18:20Z</time></trkpt>
<trkpt lat="36.018968" lon="-118.123311"><ele>1878.6</ele><time>2024-06-04T21:19:00Z</time></trkpt>
<trkpt lat="36.019091" lon="-118.123354"><ele>1876.8</ele><time>2024-06-04T21:19:38Z</time></trkpt>
<trkpt lat="36.019088" lon="-118.123487"><ele>1877.4</ele><time>2024-06-04T21:21:51Z</time></trkpt>
<trkpt lat="36.019137" lon="-118.123472"><ele>1877.6</ele><time>2024-06-04T21:21:59Z</time></trkpt>
<trkpt lat="36.019067" lon="-118.123397"><ele>1876.4</ele><time>2024-06-04T21:22:06Z</time></trkpt>
<trkpt lat="36.019135" lon="-118.123455"><ele>1877.2</ele><time>2024-06-04T21:23:20Z</time></trkpt>
<trkpt lat="36.019742" lon="-118.123391"><ele>1877.8</ele><time>2024-06-04T21:23:50Z</time></trkpt>
<trkpt lat="36.019143" lon="-118.123516"><ele>1877.6</ele><time>2024-06-04T21:23:53Z</time></trkpt>
<trkpt lat="36.019057" lon="-118.123388"><ele>1877.8</ele><time>2024-06-04T21:24:04Z</time></trkpt>
<trkpt lat="36.019115" lon="-118.123351"><ele>1877.8</ele><time>2024-06-04T21:24:06Z</time></trkpt>
<trkpt lat="36.019116" lon="-118.123245"><ele>1877.8</ele><time>2024-06-04T21:24:08Z</time></trkpt>
<trkpt lat="36.019108" lon="-118.123494"><ele>1878.2</ele><time>2024-06-04T21:24:18Z</time></trkpt>
<trkpt lat="36.018733" lon="-118.123412"><ele>1877.6</ele><time>2024-06-04T21:24:43Z</time></trkpt>
<trkpt lat="36.018581" lon="-118.123220"><ele>1876.4</ele><time>2024-06-04T21:25:03Z</time></trkpt>
<trkpt lat="36.018731" lon="-118.123212"><ele>1871.8</ele><time>2024-06-04T21:26:52Z</time></trkpt>
<trkpt lat="36.018681" lon="-118.123292"><ele>1871.4</ele><time>2024-06-04T21:27:09Z</time></trkpt>
<trkpt lat="36.015645" lon="-118.121853"><ele>1870.8</ele><time>2024-06-04T21:27:38Z</time></trkpt>
<trkpt lat="36.014810" lon="-118.121466"><ele>1874.4</ele><time>2024-06-04T21:27:58Z</time></trkpt>
<trkpt lat="36.013891" lon="-118.121040"><ele>1888.0</ele><time>2024-06-04T21:28:22Z</time></trkpt>
<trkpt lat="36.011383" lon="-118.119880"><ele>1897.8</ele><time>2024-06-04T21:29:00Z</time></trkpt>
<trkpt lat="36.009883" lon="-118.119920"><ele>1900.8</ele><time>2024-06-04T21:29:03Z</time></trkpt>
<trkpt lat="36.009825" lon="-118.119664"><ele>1901.0</ele><time>2024-06-04T21:29:04Z</time></trkpt>
<trkpt lat="36.009572" lon="-118.119340"><ele>1902.2</ele><time>2024-06-04T21:29:07Z</time></trkpt>
<trkpt lat="36.009370" lon="-118.118443"><ele>1904.4</ele><time>2024-06-04T21:29:09Z</time></trkpt>
<trkpt lat="36.009228" lon="-118.118089"><ele>1906.4</ele><time>2024-06-04T21:29:11Z</time></trkpt>
<trkpt lat="36.009045" lon="-118.117909"><ele>1906.8</ele><time>2024-06-04T21:29:13Z</time></trkpt>
<trkpt lat="36.008757" lon="-118.117387"><ele>1905.8</ele><time>2024-06-04T21:29:17Z</time></trkpt>
<trkpt lat="36.008553" lon="-118.116864"><ele>1901.0</ele><time>2024-06-04T21:29:21Z</time></trkpt>
<trkpt lat="36.001869" lon="-118.105811"><ele>1896.6</ele><time>2024-06-04T21:30:34Z</time></trkpt>
<trkpt lat="36.002054" lon="-118.105790"><ele>1897.0</ele><time>2024-06-04T21:30:35Z</time></trkpt>
<trkpt lat="36.002181" lon="-118.105362"><ele>1897.6</ele><time>2024-06-04T21:30:38Z</time></trkpt>
<trkpt lat="35.989938" lon="-118.100277"><ele>1914.2</ele><time>2024-06-04T21:33:22Z</time></trkpt>
<trkpt lat="35.990043" lon="-118.100148"><ele>1915.2</ele><time>2024-06-04T21:33:35Z</time></trkpt>
<trkpt lat="35.989941" lon="-118.100183"><ele>1917.8</ele><time>2024-06-04T21:34:04Z</time></trkpt>
<trkpt lat="35.990099" lon="-118.100146"><ele>1917.6</ele><time>2024-06-04T21:34:44Z</time></trkpt>
<trkpt lat="35.989730" lon="-118.100060"><ele>1918.8</ele><time>2024-06-04T21:35:31Z</time></trkpt>
<trkpt lat="35.989821" lon="-118.099987"><ele>1919.0</ele><time>2024-06-04T21:35:39Z</time></trkpt>
<trkpt lat="35.988998" lon="-118.099918"><ele>1919.4</ele><time>2024-06-04T21:37:36Z</time></trkpt>
<trkpt lat="35.989145" lon="-118.099462"><ele>1922.8</ele><time>2024-06-04T21:45:49Z</time></trkpt>
<trkpt lat="35.989158" lon="-118.099886"><ele>1921.8</ele><time>2024-06-04T21:46:04Z</time></trkpt>
<trkpt lat="35.989157" lon="-118.099638"><ele>1921.2</ele><time>2024-06-04T21:46:18Z</time></trkpt>
<trkpt lat="35.989244" lon="-118.099637"><ele>1921.6</ele><time>2024-06-04T21:46:22Z</time></trkpt>
<trkpt lat="35.989254" lon="-118.099730"><ele>1922.4</ele><time>2024-06-04T21:47:01Z</time></trkpt>
<trkpt lat="35.989085" lon="-118.099781"><ele>1922.8</ele><time>2024-06-04T21:47:14Z</time></trkpt>
<trkpt lat="35.989088" lon="-118.099721"><ele>1922.2</ele><time>2024-06-04T21:47:24Z</time></trkpt>
<trkpt lat="35.989178" lon="-118.099889"><ele>1922.2</ele><time>2024-06-04T21:47:33Z</time></trkpt>
<trkpt lat="35.989073" lon="-118.099593"><ele>1921.8</ele><time>2024-06-04T21:48:18Z</time></trkpt>
<trkpt lat="35.989149" lon="-118.099670"><ele>1920.4</ele><time>2024-06-04T21:48:40Z</time></trkpt>
<trkpt lat="35.989126" lon="-118.099972"><ele>1920.2</ele><time>2024-06-04T21:49:07Z</time></trkpt>
<trkpt lat="35.988997" lon="-118.099693"><ele>1922.0</ele><time>2024-06-04T22:01:26Z</time></trkpt>
<trkpt lat="35.988979" lon="-118.099401"><ele>1922.6</ele><time>2024-06-04T22:01:49Z</time></trkpt>
<trkpt lat="35.988851" lon="-118.099526"><ele>1922.2</ele><time>2024-06-04T22:01:53Z</time></trkpt>
<trkpt lat="35.989067" lon="-118.099746"><ele>1921.6</ele><time>2024-06-04T22:01:57Z</time></trkpt>
<trkpt lat="35.988940" lon="-118.099514"><ele>1921.6</ele><time>2024-06-04T22:01:58Z</time></trkpt>
<trkpt lat="35.989006" lon="-118.099956"><ele>1921.8</ele><time>2024-06-04T22:02:04Z</time></trkpt>
<trkpt lat="35.988963" lon="-118.099876"><ele>1921.8</ele><time>2024-06-04T22:02:08Z</time></trkpt>
<trkpt lat="35.989204" lon="-118.099998"><ele>1922.6</ele><time>2024-06-04T22:03:50Z</time></trkpt>
<trkpt lat="35.989350" lon="-118.099971"><ele>1922.8</ele><time>2024-06-04T22:04:02Z</time></trkpt>
<trkpt lat="35.989584" lon="-118.100074"><ele>1920.2</ele><time>2024-06-04T22:04:20Z</time></trkpt>
<trkpt lat="35.989806" lon="-118.099965"><ele>1917.6</ele><time>2024-06-04T22:04:55Z</time></trkpt>
<trkpt lat="35.990289" lon="-118.100347"><ele>1915.6</ele><time>2024-06-04T22:07:53Z</time></trkpt>
<trkpt lat="35.990160" lon="-118.100217"><ele>1916.6</ele><time>2024-06-04T22:07:58Z</time></trkpt>
<trkpt lat="35.990166" lon="-118.100383"><ele>1915.4</ele><time>2024-06-04T22:08:09Z</time></trkpt>
<trkpt lat="35.990229" lon="-118.100298"><ele>1913.2</ele><time>2024-06-04T22:08:56Z</time></trkpt>
<trkpt lat="35.990300" lon="-118.100277"><ele>1917.8</ele><time>2024-06-04T22:09:38Z</time></trkpt>
<trkpt lat="35.990494" lon="-118.100312"><ele>1915.8</ele><time>2024-06-04T22:09:54Z</time></trkpt>
<trkpt lat="35.990252" lon="-118.100260"><ele>1919.2</ele><time>2024-06-04T22:11:16Z</time></trkpt>
<trkpt lat="35.990300" lon="-118.100234"><ele>1918.6</ele><time>2024-06-04T22:11:54Z</time></trkpt>
<trkpt lat="35.990239" lon="-118.100233"><ele>1919.0</ele><time>2024-06-04T22:12:08Z</time></trkpt>
<trkpt lat="35.990297" lon="-118.100287"><ele>1915.4</ele><time>2024-06-04T22:16:22Z</time></trkpt>
<trkpt lat="35.990221" lon="-118.100233"><ele>1914.6</ele><time>2024-06-04T22:16:39Z</time></trkpt>
<trkpt lat="35.990312" lon="-118.100198"><ele>1915.4</ele><time>2024-06-04T22:16:46Z</time></trkpt>
<trkpt lat="35.990116" lon="-118.100161"><ele>1915.4</ele><time>2024-06-04T22:16:48Z</time></trkpt>
<trkpt lat="35.990173" lon="-118.100233"><ele>1914.6</ele><time>2024-06-04T22:16:54Z</time></trkpt>
<trkpt lat="35.990252" lon="-118.100182"><ele>1915.4</ele><time>2024-06-04T22:17:07Z</time></trkpt>
<trkpt lat="35.990211" lon="-118.100199"><ele>1915.4</ele><time>2024-06-04T22:17:09Z</time></trkpt>
<trkpt lat="35.990413" lon="-118.100283"><ele>1917.0</ele><time>2024-06-04T22:18:53Z</time></trkpt>
<trkpt lat="35.990323" lon="-118.100178"><ele>1917.0</ele><time>2024-06-04T22:18:55Z</time></trkpt>
<trkpt lat="35.990263" lon="-118.100228"><ele>1917.0</ele><time>2024-06-04T22:19:02Z</time></trkpt>
<trkpt lat="35.990524" lon="-118.100234"><ele>1920.6</ele><time>2024-06-04T22:26:22Z</time></trkpt>
<trkpt lat="35.990579" lon="-118.100222"><ele>1919.2</ele><time>2024-06-04T22:26:54Z</time></trkpt>
<trkpt lat="35.990338" lon="-118.100177"><ele>1918.8</ele><time>2024-06-04T22:27:03Z</time></trkpt>
<trkpt lat="35.991133" lon="-118.100048"><ele>1918.6</ele><time>2024-06-04T22:27:36Z</time></trkpt>
<trkpt lat="35.990439" lon="-118.100237"><ele>1917.4</ele><time>2024-06-04T22:29:12Z</time></trkpt>
<trkpt lat="35.990211" lon="-118.100193"><ele>1917.8</ele><time>2024-06-04T22:29:22Z</time></trkpt>
<trkpt lat="35.990317" lon="-118.100300"><ele>1918.4</ele><time>2024-06-04T22:29:26Z</time></trkpt>
<trkpt lat="35.990490" lon="-118.100278"><ele>1919.0</ele><time>2024-06-04T22:29:37Z</time></trkpt>
<trkpt lat="35.990403" lon="-118.100331"><ele>1918.8</ele><time>2024-06-04T22:29:39Z</time></trkpt>
<trkpt lat="35.990376" lon="-118.100088"><ele>1917.2</ele><time>2024-06-04T22:36:55Z</time></trkpt>
<trkpt lat="35.990204" lon="-118.100318"><ele>1917.2</ele><time>2024-06-04T22:37:04Z</time></trkpt>
<trkpt lat="35.990354" lon="-118.100283"><ele>1917.2</ele><time>2024-06-04T22:37:22Z</time></trkpt>
<trkpt lat="35.990170" lon="-118.099762"><ele>1917.0</ele><time>2024-06-04T22:38:39Z</time></trkpt>
<trkpt lat="35.990494" lon="-118.100197"><ele>1917.0</ele><time>2024-06-04T22:39:07Z</time></trkpt>
<trkpt lat="35.990811" lon="-118.100004"><ele>1917.2</ele><time>2024-06-04T22:40:52Z</time></trkpt>
<trkpt lat="35.990530" lon="-118.100397"><ele>1917.0</ele><time>2024-06-04T22:40:57Z</time></trkpt>
<trkpt lat="35.990566" lon="-118.100370"><ele>1917.0</ele><time>2024-06-04T22:40:58Z</time></trkpt>
<trkpt lat="35.990385" lon="-118.100349"><ele>1916.6</ele><time>2024-06-04T22:41:05Z</time></trkpt>
<trkpt lat="35.990474" lon="-118.100308"><ele>1916.6</ele><time>2024-06-04T22:41:36Z</time></trkpt>
<trkpt lat="35.990514" lon="-118.100093"><ele>1914.8</ele><time>2024-06-04T22:42:52Z</time></trkpt>
<trkpt lat="35.990426" lon="-118.100163"><ele>1914.6</ele><time>2024-06-04T22:42:55Z</time></trkpt>
<trkpt lat="35.990356" lon="-118.100116"><ele>1915.6</ele><time>2024-06-04T22:43:01Z</time></trkpt>
<trkpt lat="35.990544" lon="-118.100102"><ele>1916.6</ele><time>2024-06-04T22:43:19Z</time></trkpt>
<trkpt lat="35.990323" lon="-118.100419"><ele>1917.2</ele><time>2024-06-04T22:43:31Z</time></trkpt>
<trkpt lat="35.990312" lon="-118.100246"><ele>1917.8</ele><time>2024-06-04T22:43:37Z</time></trkpt>
<trkpt lat="35.990277" lon="-118.100274"><ele>1918.0</ele><time>2024-06-04T22:43:41Z</time></trkpt>
<trkpt lat="35.990723" lon="-118.100445"><ele>1920.0</ele><time>2024-06-04T22:46:07Z</time></trkpt>
<trkpt lat="35.990751" lon="-118.100314"><ele>1921.2</ele><time>2024-06-04T22:49:17Z</time></trkpt>
<trkpt lat="35.990756" lon="-118.100423"><ele>1921.2</ele><time>2024-06-04T22:49:18Z</time></trkpt>
<trkpt lat="35.990737" lon="-118.100356"><ele>1921.2</ele><time>2024-06-04T22:49:19Z</time></trkpt>
<trkpt lat="35.990659" lon="-118.100402"><ele>1920.8</ele><time>2024-06-04T22:49:24Z</time></trkpt>
<trkpt lat="35.990548" lon="-118.100282"><ele>1920.6</ele><time>2024-06-04T22:49:35Z</time></trkpt>
<trkpt lat="35.990623" lon="-118.100320"><ele>1921.0</ele><time>2024-06-04T22:49:41Z</time></trkpt>
<trkpt lat="35.990367" lon="-118.100354"><ele>1921.4</ele><time>2024-06-04T22:51:47Z</time></trkpt>
<trkpt lat="35.990286" lon="-118.100449"><ele>1921.4</ele><time>2024-06-04T22:51:58Z</time></trkpt>
<trkpt lat="35.990326" lon="-118.100350"><ele>1921.4</ele><time>2024-06-04T22:52:01Z</time></trkpt>
<trkpt lat="35.990556" lon="-118.100442"><ele>1921.0</ele><time>2024-06-04T22:52:10Z</time></trkpt>
<trkpt lat="35.990437" lon="-118.100430"><ele>1920.8</ele><time>2024-06-04T22:52:14Z</time></trkpt>
<trkpt lat="35.990438" lon="-118.100370"><ele>1920.6</ele><time>2024-06-04T22:52:21Z</time></trkpt>
<trkpt lat="35.990237" lon="-118.100246"><ele>1920.6</ele><time>2024-06-04T22:52:58Z</time></trkpt>
<trkpt lat="35.990196" lon="-118.100333"><ele>1921.0</ele><time>2024-06-04T22:53:05Z</time></trkpt>
<trkpt lat="35.990290" lon="-118.100358"><ele>1921.2</ele><time>2024-06-04T22:53:16Z</time></trkpt>
<trkpt lat="35.990495" lon="-118.100293"><ele>1921.6</ele><time>2024-06-04T22:53:39Z</time></trkpt>
<trkpt lat="35.990447" lon="-118.100372"><ele>1920.0</ele><time>2024-06-04T22:56:07Z</time></trkpt>
<trkpt lat="35.990392" lon="-118.100347"><ele>1920.0</ele><time>2024-06-04T22:56:15Z</time></trkpt>
<trkpt lat="35.990479" lon="-118.100445"><ele>1919.6</ele><time>2024-06-04T22:56:29Z</time></trkpt>
<trkpt lat="35.990523" lon="-118.100354"><ele>1919.6</ele><time>2024-06-04T22:56:36Z</time></trkpt>
<trkpt lat="35.990201" lon="-118.100564"><ele>1920.4</ele><time>2024-06-04T22:59:33Z</time></trkpt>
<trkpt lat="35.990302" lon="-118.100419"><ele>1920.4</ele><time>2024-06-04T22:59:41Z</time></trkpt>
<trkpt lat="35.990298" lon="-118.100521"><ele>1922.0</ele><time>2024-06-04T23:03:25Z</time></trkpt>
<trkpt lat="35.990010" lon="-118.100455"><ele>1921.6</ele><time>2024-06-04T23:04:16Z</time></trkpt>
<trkpt lat="35.990172" lon="-118.100316"><ele>1921.4</ele><time>2024-06-04T23:04:19Z</time></trkpt>
<trkpt lat="35.990361" lon="-118.100374"><ele>1921.4</ele><time>2024-06-04T23:04:20Z</time></trkpt>
<trkpt lat="35.990341" lon="-118.100498"><ele>1918.6</ele><time>2024-06-04T23:04:58Z</time></trkpt>
<trkpt lat="35.990173" lon="-118.100475"><ele>1916.8</ele><time>2024-06-04T23:06:36Z</time></trkpt>
<trkpt lat="35.990129" lon="-118.100397"><ele>1917.8</ele><time>2024-06-04T23:06:59Z</time></trkpt>
<trkpt lat="35.990697" lon="-118.099987"><ele>1917.4</ele><time>2024-06-04T23:08:30Z</time></trkpt>
<trkpt lat="35.990807" lon="-118.099820"><ele>1916.8</ele><time>2024-06-04T23:08:54Z</time></trkpt>
<trkpt lat="35.990465" lon="-118.099944"><ele>1916.6</ele><time>2024-06-04T23:08:59Z</time></trkpt>
<trkpt lat="35.990444" lon="-118.100165"><ele>1917.0</ele><time>2024-06-04T23:09:01Z</time></trkpt>
<trkpt lat="35.990406" lon="-118.100169"><ele>1917.2</ele><time>2024-06-04T23:09:02Z</time></trkpt>
<trkpt lat="35.990440" lon="-118.100109"><ele>1917.6</ele><time>2024-06-04T23:09:06Z</time></trkpt>
<trkpt lat="35.990381" lon="-118.100154"><ele>1917.6</ele><time>2024-06-04T23:09:08Z</time></trkpt>
<trkpt lat="35.989958" lon="-118.099980"><ele>1916.8</ele><time>2024-06-04T23:10:51Z</time></trkpt>
<trkpt lat="35.989940" lon="-118.100025"><ele>1916.8</ele><time>2024-06-04T23:10:52Z</time></trkpt>
<trkpt lat="35.990257" lon="-118.100209"><ele>1916.6</ele><time>2024-06-04T23:10:58Z</time></trkpt>
<trkpt lat="35.990288" lon="-118.100463"><ele>1914.2</ele><time>2024-06-04T23:12:52Z</time></trkpt>
<trkpt lat="35.990288" lon="-118.100343"><ele>1914.2</ele><time>2024-06-04T23:12:53Z</time></trkpt>
<trkpt lat="35.990277" lon="-118.100417"><ele>1916.4</ele><time>2024-06-04T23:13:22Z</time></trkpt>
<trkpt lat="35.990232" lon="-118.100373"><ele>1915.8</ele><time>2024-06-04T23:13:34Z</time></trkpt>
<trkpt lat="35.990283" lon="-118.100332"><ele>1913.8</ele><time>2024-06-04T23:14:04Z</time></trkpt>
<trkpt lat="35.990348" lon="-118.100417"><ele>1914.2</ele><time>2024-06-04T23:15:04Z</time></trkpt>
<trkpt lat="35.990290" lon="-118.100376"><ele>1915.8</ele><time>2024-06-04T23:16:50Z</time></trkpt>
<trkpt lat="35.990314" lon="-118.100291"><ele>1915.6</ele><time>2024-06-04T23:16:57Z</time></trkpt>
<trkpt lat="35.990348" lon="-118.100356"><ele>1915.4</ele><time>2024-06-04T23:17:03Z</time></trkpt>
<trkpt lat="35.990206" lon="-118.100520"><ele>1914.6</ele><time>2024-06-04T23:18:54Z</time></trkpt>
<trkpt lat="35.990188" lon="-118.100310"><ele>1914.4</ele><time>2024-06-04T23:18:56Z</time></trkpt>
<trkpt lat="35.990295" lon="-118.100342"><ele>1914.6</ele><time>2024-06-04T23:19:09Z</time></trkpt>
<trkpt lat="35.990385" lon="-118.100625"><ele>1914.0</ele><time>2024-06-04T23:20:54Z</time></trkpt>
<trkpt lat="35.990310" lon="-118.100471"><ele>1914.2</ele><time>2024-06-04T23:20:59Z</time></trkpt>
<trkpt lat="35.990328" lon="-118.100341"><ele>1914.6</ele><time>2024-06-04T23:21:02Z</time></trkpt>
<trkpt lat="35.990412" lon="-118.100272"><ele>1915.0</ele><time>2024-06-04T23:21:06Z</time></trkpt>
<trkpt lat="35.990272" lon="-118.100723"><ele>1914.8</ele><time>2024-06-04T23:22:56Z</time></trkpt>
<trkpt lat="35.990340" lon="-118.100290"><ele>1914.2</ele><time>2024-06-04T23:23:09Z</time></trkpt>
<trkpt lat="35.990099" lon="-118.100358"><ele>1914.0</ele><time>2024-06-04T23:24:56Z</time></trkpt>
<trkpt lat="35.990270" lon="-118.100397"><ele>1914.4</ele><time>2024-06-04T23:25:05Z</time></trkpt>
<trkpt lat="35.990132" lon="-118.100467"><ele>1915.6</ele><time>2024-06-04T23:26:54Z</time></trkpt>
<trkpt lat="35.990192" lon="-118.100326"><ele>1915.8</ele><time>2024-06-04T23:26:56Z</time></trkpt>
<trkpt lat="35.990240" lon="-118.100400"><ele>1915.8</ele><time>2024-06-04T23:27:02Z</time></trkpt>
<trkpt lat="35.990349" lon="-118.100281"><ele>1916.2</ele><time>2024-06-04T23:28:28Z</time></trkpt>
<trkpt lat="35.990528" lon="-118.099799"><ele>1915.8</ele><time>2024-06-04T23:28:52Z</time></trkpt>
<trkpt lat="35.990349" lon="-118.100293"><ele>1915.8</ele><time>2024-06-04T23:28:54Z</time></trkpt>
<trkpt lat="35.990142" lon="-118.100280"><ele>1916.2</ele><time>2024-06-04T23:28:58Z</time></trkpt>
<trkpt lat="35.990188" lon="-118.100360"><ele>1916.2</ele><time>2024-06-04T23:29:00Z</time></trkpt>
<trkpt lat="35.990137" lon="-118.100368"><ele>1916.0</ele><time>2024-06-04T23:29:05Z</time></trkpt>
<trkpt lat="35.990054" lon="-118.100331"><ele>1915.2</ele><time>2024-06-04T23:30:56Z</time></trkpt>
<trkpt lat="35.990142" lon="-118.100417"><ele>1915.8</ele><time>2024-06-04T23:31:11Z</time></trkpt>
<trkpt lat="35.990269" lon="-118.100155"><ele>1914.8</ele><time>2024-06-04T23:32:56Z</time></trkpt>
<trkpt lat="35.990199" lon="-118.100588"><ele>1915.4</ele><time>2024-06-04T23:34:59Z</time></trkpt>
<trkpt lat="35.990173" lon="-118.100370"><ele>1915.2</ele><time>2024-06-04T23:35:10Z</time></trkpt>
<trkpt lat="35.990215" lon="-118.100309"><ele>1916.2</ele><time>2024-06-04T23:36:31Z</time></trkpt>
<trkpt lat="35.990246" lon="-118.100443"><ele>1917.2</ele><time>2024-06-04T23:36:52Z</time></trkpt>
<trkpt lat="35.990279" lon="-118.100207"><ele>1917.6</ele><time>2024-06-04T23:36:55Z</time></trkpt>
<trkpt lat="35.990302" lon="-118.100259"><ele>1918.2</ele><time>2024-06-04T23:36:58Z</time></trkpt>
<trkpt lat="35.990245" lon="-118.100145"><ele>1917.4</ele><time>2024-06-04T23:37:05Z</time></trkpt>
<trkpt lat="35.990143" lon="-118.100292"><ele>1917.6</ele><time>2024-06-04T23:39:12Z</time></trkpt>
<trkpt lat="35.990425" lon="-118.100149"><ele>1918.4</ele><time>2024-06-04T23:40:27Z</time></trkpt>
<trkpt lat="35.989962" lon="-118.100219"><ele>1917.2</ele><time>2024-06-04T23:41:07Z</time></trkpt>
<trkpt lat="35.990142" lon="-118.100418"><ele>1917.2</ele><time>2024-06-04T23:44:19Z</time></trkpt>
<trkpt lat="35.990086" lon="-118.100452"><ele>1917.4</ele><time>2024-06-04T23:44:24Z</time></trkpt>
<trkpt lat="35.989393" lon="-118.100563"><ele>1917.2</ele><time>2024-06-04T23:45:12Z</time></trkpt>
<trkpt lat="35.989874" lon="-118.100534"><ele>1917.2</ele><time>2024-06-04T23:45:23Z</time></trkpt>
<trkpt lat="35.990018" lon="-118.100398"><ele>1917.0</ele><time>2024-06-04T23:45:35Z</time></trkpt>
<trkpt lat="35.990178" lon="-118.100362"><ele>1917.0</ele><time>2024-06-04T23:45:42Z</time></trkpt>
<trkpt lat="35.989898" lon="-118.100190"><ele>1917.8</ele><time>2024-06-04T23:49:31Z</time></trkpt>
<trkpt lat="35.990031" lon="-118.100274"><ele>1917.6</ele><time>2024-06-04T23:49:40Z</time></trkpt>
<trkpt lat="35.990002" lon="-118.100319"><ele>1917.6</ele><time>2024-06-04T23:50:03Z</time></trkpt>
<trkpt lat="35.990012" lon="-118.100175"><ele>1917.4</ele><time>2024-06-04T23:51:49Z</time></trkpt>
<trkpt lat="35.989884" lon="-118.100069"><ele>1916.6</ele><time>2024-06-04T23:51:57Z</time></trkpt>
<trkpt lat="35.990174" lon="-118.100327"><ele>1916.8</ele><time>2024-06-04T23:51:58Z</time></trkpt>
<trkpt lat="35.990306" lon="-118.100305"><ele>1917.4</ele><time>2024-06-04T23:52:01Z</time></trkpt>
<trkpt lat="35.989991" lon="-118.100221"><ele>1917.2</ele><time>2024-06-04T23:53:33Z</time></trkpt>
<trkpt lat="35.989880" lon="-118.100108"><ele>1916.4</ele><time>2024-06-04T23:53:55Z</time></trkpt>
<trkpt lat="35.990267" lon="-118.100446"><ele>1916.6</ele><time>2024-06-04T23:54:01Z</time></trkpt>
<trkpt lat="35.990223" lon="-118.100500"><ele>1916.4</ele><time>2024-06-04T23:54:03Z</time></trkpt>
<trkpt lat="35.990259" lon="-118.100357"><ele>1916.6</ele><time>2024-06-04T23:54:12Z</time></trkpt>
<trkpt lat="35.989966" lon="-118.100421"><ele>1916.4</ele><time>2024-06-04T23:55:56Z</time></trkpt>
<trkpt lat="35.989954" lon="-118.100212"><ele>1916.4</ele><time>2024-06-04T23:56:00Z</time></trkpt>
<trkpt lat="35.989839" lon="-118.100298"><ele>1916.0</ele><time>2024-06-04T23:56:03Z</time></trkpt>
<trkpt lat="35.989832" lon="-118.100363"><ele>1915.6</ele><time>2024-06-04T23:56:08Z</time></trkpt>
<trkpt lat="35.990230" lon="-118.100426"><ele>1916.4</ele><time>2024-06-04T23:57:53Z</time></trkpt>
<trkpt lat="35.990233" lon="-118.100375"><ele>1916.4</ele><time>2024-06-04T23:57:55Z</time></trkpt>
<trkpt lat="35.990271" lon="-118.100422"><ele>1916.4</ele><time>2024-06-04T23:57:59Z</time></trkpt>
<trkpt lat="35.990103" lon="-118.100605"><ele>1915.4</ele><time>2024-06-04T23:59:57Z</time></trkpt>
<trkpt lat="35.990210" lon="-118.100309"><ele>1916.0</ele><time>2024-06-05T00:01:23Z</time></trkpt>
<trkpt lat="35.990222" lon="-118.100377"><ele>1918.0</ele><time>2024-06-05T00:02:47Z</time></trkpt>
<trkpt lat="35.990231" lon="-118.100343"><ele>1915.4</ele><time>2024-06-05T00:05:53Z</time></trkpt>
<trkpt lat="35.990172" lon="-118.100386"><ele>1915.0</ele><time>2024-06-05T00:06:00Z</time></trkpt>
<trkpt lat="35.990245" lon="-118.100293"><ele>1915.6</ele><time>2024-06-05T00:06:10Z</time></trkpt>
<trkpt lat="35.990241" lon="-118.100365"><ele>1918.0</ele><time>2024-06-05T00:08:00Z</time></trkpt>
<trkpt lat="35.990288" lon="-118.100233"><ele>1917.6</ele><time>2024-06-05T00:08:05Z</time></trkpt>
<trkpt lat="35.990231" lon="-118.100433"><ele>1915.0</ele><time>2024-06-05T00:09:56Z</time></trkpt>
<trkpt lat="35.990195" lon="-118.100195"><ele>1916.0</ele><time>2024-06-05T00:11:54Z</time></trkpt>
<trkpt lat="35.990240" lon="-118.100207"><ele>1915.8</ele><time>2024-06-05T00:11:56Z</time></trkpt>
<trkpt lat="35.990156" lon="-118.100412"><ele>1916.6</ele><time>2024-06-05T00:13:53Z</time></trkpt>
<trkpt lat="35.990276" lon="-118.100386"><ele>1916.8</ele><time>2024-06-05T00:17:54Z</time></trkpt>
<trkpt lat="35.990189" lon="-118.100326"><ele>1917.0</ele><time>2024-06-05T00:18:13Z</time></trkpt>
<trkpt lat="35.990349" lon="-118.100706"><ele>1914.8</ele><time>2024-06-05T00:19:54Z</time></trkpt>
<trkpt lat="35.990217" lon="-118.100591"><ele>1914.4</ele><time>2024-06-05T00:20:13Z</time></trkpt>
<trkpt lat="35.990154" lon="-118.100327"><ele>1917.8</ele><time>2024-06-05T00:21:55Z</time></trkpt>
<trkpt lat="35.990254" lon="-118.100330"><ele>1917.2</ele><time>2024-06-05T00:22:01Z</time></trkpt>
<trkpt lat="35.990180" lon="-118.100177"><ele>1917.4</ele><time>2024-06-05T00:23:55Z</time></trkpt>
<trkpt lat="35.990241" lon="-118.100331"><ele>1917.6</ele><time>2024-06-05T00:23:59Z</time></trkpt>
<trkpt lat="35.990279" lon="-118.100317"><ele>1917.6</ele><time>2024-06-05T00:24:09Z</time></trkpt>
<trkpt lat="35.990236" lon="-118.100217"><ele>1917.8</ele><time>2024-06-05T00:25:55Z</time></trkpt>
<trkpt lat="35.990252" lon="-118.100287"><ele>1917.4</ele><time>2024-06-05T00:25:56Z</time></trkpt>
<trkpt lat="35.990207" lon="-118.100232"><ele>1917.2</ele><time>2024-06-05T00:26:01Z</time></trkpt>
<trkpt lat="35.990245" lon="-118.100265"><ele>1917.2</ele><time>2024-06-05T00:26:14Z</time></trkpt>
<trkpt lat="35.990198" lon="-118.100284"><ele>1916.6</ele><time>2024-06-05T00:27:54Z</time></trkpt>
<trkpt lat="35.990267" lon="-118.100248"><ele>1916.4</ele><time>2024-06-05T00:28:00Z</time></trkpt>
<trkpt lat="35.990151" lon="-118.100200"><ele>1916.4</ele><time>2024-06-05T00:28:09Z</time></trkpt>
<trkpt lat="35.990203" lon="-118.100230"><ele>1916.2</ele><time>2024-06-05T00:28:12Z</time></trkpt>
<trkpt lat="35.990142" lon="-118.100142"><ele>1917.4</ele><time>2024-06-05T00:29:59Z</time></trkpt>
<trkpt lat="35.990177" lon="-118.100060"><ele>1917.4</ele><time>2024-06-05T00:30:01Z</time></trkpt>
<trkpt lat="35.990158" lon="-118.100219"><ele>1917.6</ele><time>2024-06-05T00:31:57Z</time></trkpt>
<trkpt lat="35.990192" lon="-118.100120"><ele>1917.6</ele><time>2024-06-05T00:31:59Z</time></trkpt>
<trkpt lat="35.990194" lon="-118.100202"><ele>1917.6</ele><time>2024-06-05T00:32:03Z</time></trkpt>
<trkpt lat="35.990188" lon="-118.100139"><ele>1918.0</ele><time>2024-06-05T00:32:11Z</time></trkpt>
<trkpt lat="35.990099" lon="-118.100267"><ele>1917.8</ele><time>2024-06-05T00:33:59Z</time></trkpt>
<trkpt lat="35.990152" lon="-118.100264"><ele>1917.8</ele><time>2024-06-05T00:34:01Z</time></trkpt>
<trkpt lat="35.990069" lon="-118.100157"><ele>1918.2</ele><time>2024-06-05T00:35:53Z</time></trkpt>
<trkpt lat="35.990156" lon="-118.100183"><ele>1918.6</ele><time>2024-06-05T00:36:13Z</time></trkpt>
<trkpt lat="35.990116" lon="-118.100214"><ele>1917.4</ele><time>2024-06-05T00:37:59Z</time></trkpt>
<trkpt lat="35.990193" lon="-118.100174"><ele>1917.6</ele><time>2024-06-05T00:38:05Z</time></trkpt>
<trkpt lat="35.990166" lon="-118.100143"><ele>1917.4</ele><time>2024-06-05T00:39:34Z</time></trkpt>
<trkpt lat="35.990142" lon="-118.100254"><ele>1917.0</ele><time>2024-06-05T00:40:05Z</time></trkpt>
<trkpt lat="35.990239" lon="-118.100120"><ele>1917.2</ele><time>2024-06-05T00:45:58Z</time></trkpt>
<trkpt lat="35.990203" lon="-118.100234"><ele>1917.4</ele><time>2024-06-05T00:46:05Z</time></trkpt>
<trkpt lat="35.990116" lon="-118.100258"><ele>1918.0</ele><time>2024-06-05T00:47:57Z</time></trkpt>
<trkpt lat="35.990193" lon="-118.100194"><ele>1918.0</ele><time>2024-06-05T00:49:53Z</time></trkpt>
<trkpt lat="35.990118" lon="-118.100128"><ele>1917.8</ele><time>2024-06-05T00:52:11Z</time></trkpt>
<trkpt lat="35.990172" lon="-118.100258"><ele>1917.6</ele><time>2024-06-05T00:55:31Z</time></trkpt>
<trkpt lat="35.990228" lon="-118.100265"><ele>1918.6</ele><time>2024-06-05T00:56:02Z</time></trkpt>
<trkpt lat="35.990203" lon="-118.100309"><ele>1919.2</ele><time>2024-06-05T00:56:06Z</time></trkpt>
<trkpt lat="35.990188" lon="-118.100235"><ele>1919.2</ele><time>2024-06-05T00:56:11Z</time></trkpt>
<trkpt lat="35.990024" lon="-118.100249"><ele>1917.0</ele><time>2024-06-05T00:57:55Z</time></trkpt>
<trkpt lat="35.990010" lon="-118.100173"><ele>1917.2</ele><time>2024-06-05T00:58:04Z</time></trkpt>
<trkpt lat="35.990069" lon="-118.100194"><ele>1917.2</ele><time>2024-06-05T00:58:14Z</time></trkpt>
<trkpt lat="35.989935" lon="-118.100087"><ele>1915.6</ele><time>2024-06-05T01:00:04Z</time></trkpt>
<trkpt lat="35.990008" lon="-118.100155"><ele>1915.6</ele><time>2024-06-05T01:00:10Z</time></trkpt>
<trkpt lat="35.989948" lon="-118.100168"><ele>1917.0</ele><time>2024-06-05T01:01:25Z</time></trkpt>
<trkpt lat="35.990001" lon="-118.100170"><ele>1916.4</ele><time>2024-06-05T01:01:41Z</time></trkpt>
<trkpt lat="35.990000" lon="-118.100048"><ele>1916.2</ele><time>2024-06-05T01:01:58Z</time></trkpt>
<trkpt lat="35.989997" lon="-118.100126"><ele>1916.6</ele><time>2024-06-05T01:02:04Z</time></trkpt>
<trkpt lat="35.991331" lon="-118.098742"><ele>1914.0</ele><time>2024-06-05T01:04:00Z</time></trkpt>
<trkpt lat="35.992061" lon="-118.098529"><ele>1914.4</ele><time>2024-06-05T01:04:06Z</time></trkpt>
<trkpt lat="35.993069" lon="-118.098651"><ele>1914.0</ele><time>2024-06-05T01:04:14Z</time></trkpt>
<trkpt lat="36.018554" lon="-118.123252"><ele>1866.8</ele><time>2024-06-05T01:08:58Z</time></trkpt>
<trkpt lat="36.018573" lon="-118.123205"><ele>1867.6</ele><time>2024-06-05T01:09:07Z</time></trkpt>
<trkpt lat="36.018789" lon="-118.123505"><ele>1870.4</ele><time>2024-06-05T01:10:11Z</time></trkpt>
<trkpt lat="36.018863" lon="-118.123452"><ele>1872.6</ele><time>2024-06-05T01:10:31Z</time></trkpt>
<trkpt lat="36.018960" lon="-118.123509"><ele>1871.8</ele><time>2024-06-05T01:10:57Z</time></trkpt>
<trkpt lat="36.018970" lon="-118.123415"><ele>1871.8</ele><time>2024-06-05T01:11:06Z</time></trkpt>
<trkpt lat="36.019057" lon="-118.123390"><ele>1871.4</ele><time>2024-06-05T01:13:14Z</time></trkpt>
<trkpt lat="36.018986" lon="-118.123383"><ele>1869.6</ele><time>2024-06-05T01:14:55Z</time></trkpt>
<trkpt lat="36.019034" lon="-118.123448"><ele>1870.4</ele><time>2024-06-05T01:15:14Z</time></trkpt>
<trkpt lat="36.019059" lon="-118.123397"><ele>1871.0</ele><time>2024-06-05T01:17:00Z</time></trkpt>
<trkpt lat="36.019005" lon="-118.123465"><ele>1873.0</ele><time>2024-06-05T01:19:10Z</time></trkpt>
<trkpt lat="36.018877" lon="-118.123249"><ele>1872.8</ele><time>2024-06-05T01:21:14Z</time></trkpt>
<trkpt lat="36.018869" lon="-118.123325"><ele>1872.8</ele><time>2024-06-05T01:21:51Z</time></trkpt>
<trkpt lat="36.018870" lon="-118.123273"><ele>1872.4</ele><time>2024-06-05T01:22:03Z</time></trkpt>
<trkpt lat="36.019132" lon="-118.123495"><ele>1874.2</ele><time>2024-06-05T01:23:56Z</time></trkpt>
<trkpt lat="36.018945" lon="-118.123371"><ele>1873.8</ele><time>2024-06-05T01:24:06Z</time></trkpt>
<trkpt lat="36.019069" lon="-118.123357"><ele>1872.2</ele><time>2024-06-05T01:25:59Z</time></trkpt>
<trkpt lat="36.018990" lon="-118.123313"><ele>1872.2</ele><time>2024-06-05T01:26:12Z</time></trkpt>
</trkseg></trk>
</gpx>
