<?xml version="1.0" encoding="UTF-8"?>
<gpx version="1.1" creator="Eric Sichak trip reports" xmlns="http://www.topografix.com/GPX/1/1">
<metadata><name>Morning Hike</name><time>2024-06-06T13:57:47Z</time></metadata>
<trk><name>Morning Hike</name><type>hike</type><trkseg>
<trkpt lat="36.237103" lon="-118.117513"><ele>3073.0</ele><time>2024-06-06T13:57:47Z</time></trkpt>
<trkpt lat="36.236942" lon="-118.117563"><ele>3074.4</ele><time>2024-06-06T13:58:50Z</time></trkpt>
<trkpt lat="36.237852" lon="-118.117458"><ele>3077.4</ele><time>2024-06-06T14:00:43Z</time></trkpt>
<trkpt lat="36.238014" lon="-118.117670"><ele>3077.6</ele><time>2024-06-06T14:00:57Z</time></trkpt>
<trkpt lat="36.239121" lon="-118.118238"><ele>3082.8</ele><time>2024-06-06T14:02:44Z</time></trkpt>
<trkpt lat="36.239976" lon="-118.117796"><ele>3088.4</ele><time>2024-06-06T14:03:55Z</time></trkpt>
<trkpt lat="36.240266" lon="-118.117806"><ele>3090.8</ele><time>2024-06-06T14:04:17Z</time></trkpt>
<trkpt lat="36.240354" lon="-118.117893"><ele>3091.4</ele><time>2024-06-06T14:04:42Z</time></trkpt>
<trkpt lat="36.240563" lon="-118.117713"><ele>3091.8</ele><time>2024-06-06T14:04:49Z</time></trkpt>
<trkpt lat="36.240938" lon="-118.117874"><ele>3093.2</ele><time>2024-06-06T14:05:23Z</time></trkpt>
<trkpt lat="36.241831" lon="-118.118542"><ele>3091.8</ele><time>2024-06-06T14:06:51Z</time></trkpt>
<trkpt lat="36.242152" lon="-118.118871"><ele>3092.0</ele><time>2024-06-06T14:07:19Z</time></trkpt>
<trkpt lat="36.242500" lon="-118.119376"><ele>3093.4</ele><time>2024-06-06T14:07:57Z</time></trkpt>
<trkpt lat="36.242796" lon="-118.119538"><ele>3095.0</ele><time>2024-06-06T14:08:33Z</time></trkpt>
<trkpt lat="36.242850" lon="-118.119503"><ele>3096.2</ele><time>2024-06-06T14:08:45Z</time></trkpt>
<trkpt lat="36.243949" lon="-118.120415"><ele>3098.0</ele><time>2024-06-06T14:10:43Z</time></trkpt>
<trkpt lat="36.244017" lon="-118.120398"><ele>3098.6</ele><time>2024-06-06T14:10:49Z</time></trkpt>
<trkpt lat="36.244135" lon="-118.120502"><ele>3099.6</ele><time>2024-06-06T14:11:02Z</time></trkpt>
<trkpt lat="36.244620" lon="-118.121522"><ele>3106.2</ele><time>2024-06-06T14:12:42Z</time></trkpt>
<trkpt lat="36.245077" lon="-118.121243"><ele>3107.2</ele><time>2024-06-06T14:12:45Z</time></trkpt>
<trkpt lat="36.245736" lon="-118.122086"><ele>3117.6</ele><time>2024-06-06T14:14:16Z</time></trkpt>
<trkpt lat="36.246127" lon="-118.122408"><ele>3118.6</ele><time>2024-06-06T14:14:51Z</time></trkpt>
<trkpt lat="36.246678" lon="-118.122991"><ele>3125.8</ele><time>2024-06-06T14:16:06Z</time></trkpt>
<trkpt lat="36.246940" lon="-118.123394"><ele>3129.4</ele><time>2024-06-06T14:16:42Z</time></trkpt>
<trkpt lat="36.246968" lon="-118.123644"><ele>3131.4</ele><time>2024-06-06T14:16:57Z</time></trkpt>
<trkpt lat="36.247562" lon="-118.124436"><ele>3137.6</ele><time>2024-06-06T14:18:32Z</time></trkpt>
<trkpt lat="36.247780" lon="-118.124628"><ele>3138.6</ele><time>2024-06-06T14:18:43Z</time></trkpt>
<trkpt lat="36.247787" lon="-118.124795"><ele>3139.8</ele><time>2024-06-06T14:18:50Z</time></trkpt>
<trkpt lat="36.248560" lon="-118.125812"><ele>3152.0</ele><time>2024-06-06T14:20:32Z</time></trkpt>
<trkpt lat="36.248786" lon="-118.126232"><ele>3153.6</ele><time>2024-06-06T14:20:46Z</time></trkpt>
<trkpt lat="36.248670" lon="-118.125904"><ele>3154.0</ele><time>2024-06-06T14:20:49Z</time></trkpt>
<trkpt lat="36.248735" lon="-118.126022"><ele>3154.4</ele><time>2024-06-06T14:20:51Z</time></trkpt>
<trkpt lat="36.248637" lon="-118.126053"><ele>3154.6</ele><time>2024-06-06T14:20:52Z</time></trkpt>
<trkpt lat="36.248649" lon="-118.126118"><ele>3155.4</ele><time>2024-06-06T14:20:56Z</time></trkpt>
<trkpt lat="36.248938" lon="-118.126595"><ele>3164.0</ele><time>2024-06-06T14:22:02Z</time></trkpt>
<trkpt lat="36.249169" lon="-118.126861"><ele>3165.4</ele><time>2024-06-06T14:22:43Z</time></trkpt>
<trkpt lat="36.249820" lon="-118.126391"><ele>3167.2</ele><time>2024-06-06T14:23:03Z</time></trkpt>
<trkpt lat="36.250100" lon="-118.126270"><ele>3170.4</ele><time>2024-06-06T14:23:30Z</time></trkpt>
<trkpt lat="36.251025" lon="-118.126065"><ele>3173.0</ele><time>2024-06-06T14:24:46Z</time></trkpt>
<trkpt lat="36.251002" lon="-118.126171"><ele>3173.4</ele><time>2024-06-06T14:24:56Z</time></trkpt>
<trkpt lat="36.251413" lon="-118.126239"><ele>3173.8</ele><time>2024-06-06T14:25:54Z</time></trkpt>
<trkpt lat="36.251590" lon="-118.126183"><ele>3174.0</ele><time>2024-06-06T14:26:12Z</time></trkpt>
<trkpt lat="36.251815" lon="-118.125848"><ele>3176.0</ele><time>2024-06-06T14:26:42Z</time></trkpt>
<trkpt lat="36.252329" lon="-118.125498"><ele>3175.8</ele><time>2024-06-06T14:26:51Z</time></trkpt>
<trkpt lat="36.252275" lon="-118.125358"><ele>3176.2</ele><time>2024-06-06T14:26:57Z</time></trkpt>
<trkpt lat="36.252634" lon="-118.124923"><ele>3175.8</ele><time>2024-06-06T14:27:24Z</time></trkpt>
<trkpt lat="36.253007" lon="-118.124679"><ele>3182.2</ele><time>2024-06-06T14:28:42Z</time></trkpt>
<trkpt lat="36.252912" lon="-118.124583"><ele>3182.4</ele><time>2024-06-06T14:28:44Z</time></trkpt>
<trkpt lat="36.253321" lon="-118.124249"><ele>3184.2</ele><time>2024-06-06T14:28:58Z</time></trkpt>
<trkpt lat="36.254698" lon="-118.123472"><ele>3190.6</ele><time>2024-06-06T14:30:45Z</time></trkpt>
<trkpt lat="36.254561" lon="-118.123381"><ele>3190.4</ele><time>2024-06-06T14:30:50Z</time></trkpt>
<trkpt lat="36.254588" lon="-118.123479"><ele>3190.6</ele><time>2024-06-06T14:30:53Z</time></trkpt>
<trkpt lat="36.255045" lon="-118.123317"><ele>3197.6</ele><time>2024-06-06T14:31:42Z</time></trkpt>
<trkpt lat="36.255590" lon="-118.123432"><ele>3200.4</ele><time>2024-06-06T14:32:44Z</time></trkpt>
<trkpt lat="36.255919" lon="-118.123208"><ele>3200.4</ele><time>2024-06-06T14:32:47Z</time></trkpt>
<trkpt lat="36.256018" lon="-118.123217"><ele>3200.0</ele><time>2024-06-06T14:32:54Z</time></trkpt>
<trkpt lat="36.257154" lon="-118.124054"><ele>3205.6</ele><time>2024-06-06T14:34:47Z</time></trkpt>
<trkpt lat="36.257064" lon="-118.124117"><ele>3205.8</ele><time>2024-06-06T14:34:50Z</time></trkpt>
<trkpt lat="36.257295" lon="-118.123907"><ele>3206.2</ele><time>2024-06-06T14:34:52Z</time></trkpt>
<trkpt lat="36.257464" lon="-118.123892"><ele>3206.6</ele><time>2024-06-06T14:34:58Z</time></trkpt>
<trkpt lat="36.257842" lon="-118.124415"><ele>3208.2</ele><time>2024-06-06T14:35:41Z</time></trkpt>
<trkpt lat="36.258009" lon="-118.124408"><ele>3208.2</ele><time>2024-06-06T14:35:51Z</time></trkpt>
<trkpt lat="36.258507" lon="-118.124963"><ele>3209.8</ele><time>2024-06-06T14:36:46Z</time></trkpt>
<trkpt lat="36.259145" lon="-118.125365"><ele>3212.2</ele><time>2024-06-06T14:37:20Z</time></trkpt>
<trkpt lat="36.259814" lon="-118.125674"><ele>3215.0</ele><time>2024-06-06T14:38:06Z</time></trkpt>
<trkpt lat="36.260115" lon="-118.125997"><ele>3216.0</ele><time>2024-06-06T14:38:43Z</time></trkpt>
<trkpt lat="36.259932" lon="-118.126109"><ele>3216.4</ele><time>2024-06-06T14:38:46Z</time></trkpt>
<trkpt lat="36.259860" lon="-118.126083"><ele>3216.4</ele><time>2024-06-06T14:38:47Z</time></trkpt>
<trkpt lat="36.259710" lon="-118.126342"><ele>3216.2</ele><time>2024-06-06T14:38:57Z</time></trkpt>
<trkpt lat="36.259806" lon="-118.126822"><ele>3216.4</ele><time>2024-06-06T14:39:54Z</time></trkpt>
<trkpt lat="36.260099" lon="-118.126835"><ele>3213.0</ele><time>2024-06-06T14:40:18Z</time></trkpt>
<trkpt lat="36.260348" lon="-118.127176"><ele>3209.4</ele><time>2024-06-06T14:40:45Z</time></trkpt>
<trkpt lat="36.260205" lon="-118.127273"><ele>3209.0</ele><time>2024-06-06T14:40:48Z</time></trkpt>
<trkpt lat="36.260437" lon="-118.127298"><ele>3207.4</ele><time>2024-06-06T14:40:58Z</time></trkpt>
<trkpt lat="36.260416" lon="-118.128215"><ele>3197.2</ele><time>2024-06-06T14:42:45Z</time></trkpt>
<trkpt lat="36.260575" lon="-118.128132"><ele>3196.2</ele><time>2024-06-06T14:42:52Z</time></trkpt>
<trkpt lat="36.260489" lon="-118.128143"><ele>3198.0</ele><time>2024-06-06T14:44:22Z</time></trkpt>
<trkpt lat="36.260578" lon="-118.128073"><ele>3197.2</ele><time>2024-06-06T14:44:51Z</time></trkpt>
<trkpt lat="36.260434" lon="-118.128211"><ele>3200.6</ele><time>2024-06-06T14:46:48Z</time></trkpt>
<trkpt lat="36.260524" lon="-118.128130"><ele>3200.8</ele><time>2024-06-06T14:46:55Z</time></trkpt>
<trkpt lat="36.260519" lon="-118.128214"><ele>3201.2</ele><time>2024-06-06T14:48:48Z</time></trkpt>
<trkpt lat="36.260543" lon="-118.128095"><ele>3201.0</ele><time>2024-06-06T14:48:54Z</time></trkpt>
<trkpt lat="36.260519" lon="-118.128136"><ele>3201.2</ele><time>2024-06-06T14:48:59Z</time></trkpt>
<trkpt lat="36.260675" lon="-118.128031"><ele>3198.6</ele><time>2024-06-06T14:50:51Z</time></trkpt>
<trkpt lat="36.260793" lon="-118.127844"><ele>3196.8</ele><time>2024-06-06T14:51:03Z</time></trkpt>
<trkpt lat="36.261032" lon="-118.127778"><ele>3195.0</ele><time>2024-06-06T14:51:18Z</time></trkpt>
<trkpt lat="36.261181" lon="-118.127511"><ele>3193.6</ele><time>2024-06-06T14:51:42Z</time></trkpt>
<trkpt lat="36.261343" lon="-118.127483"><ele>3191.4</ele><time>2024-06-06T14:52:06Z</time></trkpt>
<trkpt lat="36.261599" lon="-118.127655"><ele>3188.2</ele><time>2024-06-06T14:52:26Z</time></trkpt>
<trkpt lat="36.261916" lon="-118.127724"><ele>3184.8</ele><time>2024-06-06T14:52:53Z</time></trkpt>
<trkpt lat="36.261838" lon="-118.127712"><ele>3182.6</ele><time>2024-06-06T14:53:04Z</time></trkpt>
<trkpt lat="36.261356" lon="-118.128015"><ele>3178.4</ele><time>2024-06-06T14:53:31Z</time></trkpt>
<trkpt lat="36.261222" lon="-118.128221"><ele>3173.8</ele><time>2024-06-06T14:54:07Z</time></trkpt>
<trkpt lat="36.261047" lon="-118.128708"><ele>3168.4</ele><time>2024-06-06T14:54:33Z</time></trkpt>
<trkpt lat="36.260835" lon="-118.128986"><ele>3167.0</ele><time>2024-06-06T14:54:44Z</time></trkpt>
<trkpt lat="36.260886" lon="-118.129056"><ele>3166.6</ele><time>2024-06-06T14:54:47Z</time></trkpt>
<trkpt lat="36.260808" lon="-118.129165"><ele>3165.4</ele><time>2024-06-06T14:55:02Z</time></trkpt>
<trkpt lat="36.260883" lon="-118.129212"><ele>3163.2</ele><time>2024-06-06T14:55:11Z</time></trkpt>
<trkpt lat="36.261721" lon="-118.128858"><ele>3152.6</ele><time>2024-06-06T14:56:33Z</time></trkpt>
<trkpt lat="36.262067" lon="-118.128802"><ele>3150.6</ele><time>2024-06-06T14:56:51Z</time></trkpt>
<trkpt lat="36.263375" lon="-118.130231"><ele>3134.6</ele><time>2024-06-06T14:59:04Z</time></trkpt>
<trkpt lat="36.264021" lon="-118.131563"><ele>3128.2</ele><time>2024-06-06T15:00:45Z</time></trkpt>
<trkpt lat="36.264114" lon="-118.131596"><ele>3128.2</ele><time>2024-06-06T15:00:48Z</time></trkpt>
<trkpt lat="36.264224" lon="-118.131794"><ele>3127.8</ele><time>2024-06-06T15:01:00Z</time></trkpt>
<trkpt lat="36.264263" lon="-118.132032"><ele>3125.8</ele><time>2024-06-06T15:01:13Z</time></trkpt>
<trkpt lat="36.264138" lon="-118.132517"><ele>3120.6</ele><time>2024-06-06T15:01:59Z</time></trkpt>
<trkpt lat="36.264110" lon="-118.133395"><ele>3115.2</ele><time>2024-06-06T15:02:43Z</time></trkpt>
<trkpt lat="36.264135" lon="-118.133665"><ele>3114.6</ele><time>2024-06-06T15:02:46Z</time></trkpt>
<trkpt lat="36.264212" lon="-118.133637"><ele>3114.2</ele><time>2024-06-06T15:02:49Z</time></trkpt>
<trkpt lat="36.264095" lon="-118.133622"><ele>3113.8</ele><time>2024-06-06T15:02:50Z</time></trkpt>
<trkpt lat="36.263994" lon="-118.133721"><ele>3112.6</ele><time>2024-06-06T15:02:56Z</time></trkpt>
<trkpt lat="36.264156" lon="-118.133785"><ele>3112.0</ele><time>2024-06-06T15:02:59Z</time></trkpt>
<trkpt lat="36.264087" lon="-118.133816"><ele>3111.4</ele><time>2024-06-06T15:03:03Z</time></trkpt>
<trkpt lat="36.264133" lon="-118.134188"><ele>3109.8</ele><time>2024-06-06T15:03:15Z</time></trkpt>
<trkpt lat="36.264472" lon="-118.134715"><ele>3106.6</ele><time>2024-06-06T15:03:37Z</time></trkpt>
<trkpt lat="36.264573" lon="-118.135003"><ele>3104.2</ele><time>2024-06-06T15:03:51Z</time></trkpt>
<trkpt lat="36.264768" lon="-118.135042"><ele>3099.4</ele><time>2024-06-06T15:04:17Z</time></trkpt>
<trkpt lat="36.264806" lon="-118.135226"><ele>3094.6</ele><time>2024-06-06T15:04:39Z</time></trkpt>
<trkpt lat="36.264854" lon="-118.135233"><ele>3093.6</ele><time>2024-06-06T15:04:47Z</time></trkpt>
<trkpt lat="36.264841" lon="-118.135460"><ele>3091.4</ele><time>2024-06-06T15:05:02Z</time></trkpt>
<trkpt lat="36.265172" lon="-118.135385"><ele>3088.4</ele><time>2024-06-06T15:05:20Z</time></trkpt>
<trkpt lat="36.265544" lon="-118.134739"><ele>3081.8</ele><time>2024-06-06T15:06:12Z</time></trkpt>
<trkpt lat="36.265865" lon="-118.134527"><ele>3079.4</ele><time>2024-06-06T15:06:44Z</time></trkpt>
<trkpt lat="36.266030" lon="-118.134557"><ele>3079.4</ele><time>2024-06-06T15:06:52Z</time></trkpt>
<trkpt lat="36.266542" lon="-118.134343"><ele>3074.0</ele><time>2024-06-06T15:07:27Z</time></trkpt>
<trkpt lat="36.266810" lon="-118.134301"><ele>3068.6</ele><time>2024-06-06T15:08:17Z</time></trkpt>
<trkpt lat="36.267353" lon="-118.134019"><ele>3065.6</ele><time>2024-06-06T15:08:52Z</time></trkpt>
<trkpt lat="36.267459" lon="-118.133901"><ele>3065.8</ele><time>2024-06-06T15:09:00Z</time></trkpt>
<trkpt lat="36.268404" lon="-118.133648"><ele>3058.0</ele><time>2024-06-06T15:09:59Z</time></trkpt>
<trkpt lat="36.268568" lon="-118.133673"><ele>3055.4</ele><time>2024-06-06T15:10:43Z</time></trkpt>
<trkpt lat="36.270086" lon="-118.134921"><ele>3037.6</ele><time>2024-06-06T15:12:51Z</time></trkpt>
<trkpt lat="36.270455" lon="-118.135575"><ele>3028.2</ele><time>2024-06-06T15:13:51Z</time></trkpt>
<trkpt lat="36.270973" lon="-118.136093"><ele>3020.8</ele><time>2024-06-06T15:14:33Z</time></trkpt>
<trkpt lat="36.271241" lon="-118.136520"><ele>3015.4</ele><time>2024-06-06T15:15:00Z</time></trkpt>
<trkpt lat="36.271475" lon="-118.136531"><ele>3014.2</ele><time>2024-06-06T15:15:11Z</time></trkpt>
<trkpt lat="36.272218" lon="-118.136764"><ele>3003.2</ele><time>2024-06-06T15:16:19Z</time></trkpt>
<trkpt lat="36.273112" lon="-118.136620"><ele>2996.6</ele><time>2024-06-06T15:17:47Z</time></trkpt>
<trkpt lat="36.273726" lon="-118.137097"><ele>2994.0</ele><time>2024-06-06T15:18:47Z</time></trkpt>
<trkpt lat="36.274244" lon="-118.137826"><ele>2988.0</ele><time>2024-06-06T15:19:41Z</time></trkpt>
<trkpt lat="36.275028" lon="-118.138583"><ele>2980.0</ele><time>2024-06-06T15:20:45Z</time></trkpt>
<trkpt lat="36.275422" lon="-118.139091"><ele>2974.4</ele><time>2024-06-06T15:21:25Z</time></trkpt>
<trkpt lat="36.275779" lon="-118.139353"><ele>2972.4</ele><time>2024-06-06T15:21:55Z</time></trkpt>
<trkpt lat="36.276184" lon="-118.140308"><ele>2961.8</ele><time>2024-06-06T15:22:57Z</time></trkpt>
<trkpt lat="36.276435" lon="-118.140461"><ele>2958.0</ele><time>2024-06-06T15:23:25Z</time></trkpt>
<trkpt lat="36.276557" lon="-118.140657"><ele>2956.2</ele><time>2024-06-06T15:23:41Z</time></trkpt>
<trkpt lat="36.276856" lon="-118.140807"><ele>2954.0</ele><time>2024-06-06T15:24:01Z</time></trkpt>
<trkpt lat="36.277015" lon="-118.140757"><ele>2951.8</ele><time>2024-06-06T15:24:17Z</time></trkpt>
<trkpt lat="36.277524" lon="-118.140389"><ele>2948.0</ele><time>2024-06-06T15:24:47Z</time></trkpt>
<trkpt lat="36.277619" lon="-118.140383"><ele>2947.6</ele><time>2024-06-06T15:24:50Z</time></trkpt>
<trkpt lat="36.277693" lon="-118.140223"><ele>2947.4</ele><time>2024-06-06T15:25:00Z</time></trkpt>
<trkpt lat="36.277788" lon="-118.140216"><ele>2946.4</ele><time>2024-06-06T15:25:05Z</time></trkpt>
<trkpt lat="36.278292" lon="-118.140362"><ele>2943.0</ele><time>2024-06-06T15:25:45Z</time></trkpt>
<trkpt lat="36.278577" lon="-118.140570"><ele>2940.8</ele><time>2024-06-06T15:26:07Z</time></trkpt>
<trkpt lat="36.278620" lon="-118.140691"><ele>2939.4</ele><time>2024-06-06T15:26:15Z</time></trkpt>
<trkpt lat="36.278693" lon="-118.140525"><ele>2938.2</ele><time>2024-06-06T15:26:39Z</time></trkpt>
<trkpt lat="36.279051" lon="-118.140572"><ele>2934.8</ele><time>2024-06-06T15:26:57Z</time></trkpt>
<trkpt lat="36.279480" lon="-118.140764"><ele>2929.2</ele><time>2024-06-06T15:27:39Z</time></trkpt>
<trkpt lat="36.279699" lon="-118.141019"><ele>2924.8</ele><time>2024-06-06T15:28:03Z</time></trkpt>
<trkpt lat="36.280071" lon="-118.141081"><ele>2922.6</ele><time>2024-06-06T15:28:27Z</time></trkpt>
<trkpt lat="36.280299" lon="-118.141196"><ele>2919.4</ele><time>2024-06-06T15:28:47Z</time></trkpt>
<trkpt lat="36.281260" lon="-118.141279"><ele>2913.6</ele><time>2024-06-06T15:29:47Z</time></trkpt>
<trkpt lat="36.281430" lon="-118.141391"><ele>2909.4</ele><time>2024-06-06T15:30:01Z</time></trkpt>
<trkpt lat="36.282802" lon="-118.141514"><ele>2894.4</ele><time>2024-06-06T15:31:39Z</time></trkpt>
<trkpt lat="36.284031" lon="-118.141335"><ele>2881.0</ele><time>2024-06-06T15:33:05Z</time></trkpt>
<trkpt lat="36.284754" lon="-118.140979"><ele>2871.0</ele><time>2024-06-06T15:34:15Z</time></trkpt>
<trkpt lat="36.285386" lon="-118.140873"><ele>2866.6</ele><time>2024-06-06T15:34:49Z</time></trkpt>
<trkpt lat="36.285556" lon="-118.140727"><ele>2867.2</ele><time>2024-06-06T15:35:02Z</time></trkpt>
<trkpt lat="36.286033" lon="-118.140687"><ele>2861.2</ele><time>2024-06-06T15:36:12Z</time></trkpt>
<trkpt lat="36.286764" lon="-118.140738"><ele>2857.6</ele><time>2024-06-06T15:36:46Z</time></trkpt>
<trkpt lat="36.287284" lon="-118.140398"><ele>2851.0</ele><time>2024-06-06T15:37:38Z</time></trkpt>
<trkpt lat="36.287542" lon="-118.140026"><ele>2847.6</ele><time>2024-06-06T15:38:12Z</time></trkpt>
<trkpt lat="36.288064" lon="-118.139696"><ele>2843.4</ele><time>2024-06-06T15:38:47Z</time></trkpt>
<trkpt lat="36.288034" lon="-118.139518"><ele>2841.8</ele><time>2024-06-06T15:39:00Z</time></trkpt>
<trkpt lat="36.288381" lon="-118.138882"><ele>2837.2</ele><time>2024-06-06T15:40:10Z</time></trkpt>
<trkpt lat="36.288519" lon="-118.138462"><ele>2834.0</ele><time>2024-06-06T15:40:32Z</time></trkpt>
<trkpt lat="36.288704" lon="-118.138159"><ele>2831.6</ele><time>2024-06-06T15:40:50Z</time></trkpt>
<trkpt lat="36.288865" lon="-118.138027"><ele>2829.6</ele><time>2024-06-06T15:41:02Z</time></trkpt>
<trkpt lat="36.289076" lon="-118.137128"><ele>2826.8</ele><time>2024-06-06T15:42:12Z</time></trkpt>
<trkpt lat="36.289258" lon="-118.136620"><ele>2828.0</ele><time>2024-06-06T15:42:46Z</time></trkpt>
<trkpt lat="36.289437" lon="-118.136550"><ele>2827.4</ele><time>2024-06-06T15:42:56Z</time></trkpt>
<trkpt lat="36.290055" lon="-118.134860"><ele>2814.6</ele><time>2024-06-06T15:44:48Z</time></trkpt>
<trkpt lat="36.289969" lon="-118.134800"><ele>2814.4</ele><time>2024-06-06T15:44:50Z</time></trkpt>
<trkpt lat="36.290011" lon="-118.134566"><ele>2812.4</ele><time>2024-06-06T15:45:00Z</time></trkpt>
<trkpt lat="36.290192" lon="-118.134472"><ele>2812.2</ele><time>2024-06-06T15:45:20Z</time></trkpt>
<trkpt lat="36.290505" lon="-118.134027"><ele>2808.2</ele><time>2024-06-06T15:46:02Z</time></trkpt>
<trkpt lat="36.291152" lon="-118.133917"><ele>2802.6</ele><time>2024-06-06T15:46:48Z</time></trkpt>
<trkpt lat="36.291188" lon="-118.133965"><ele>2802.2</ele><time>2024-06-06T15:46:49Z</time></trkpt>
<trkpt lat="36.292322" lon="-118.133522"><ele>2792.0</ele><time>2024-06-06T15:48:13Z</time></trkpt>
<trkpt lat="36.292721" lon="-118.133494"><ele>2788.0</ele><time>2024-06-06T15:48:47Z</time></trkpt>
<trkpt lat="36.292879" lon="-118.133284"><ele>2787.8</ele><time>2024-06-06T15:49:04Z</time></trkpt>
<trkpt lat="36.293101" lon="-118.133181"><ele>2787.2</ele><time>2024-06-06T15:49:24Z</time></trkpt>
<trkpt lat="36.294245" lon="-118.133175"><ele>2781.0</ele><time>2024-06-06T15:50:46Z</time></trkpt>
<trkpt lat="36.294157" lon="-118.133028"><ele>2780.8</ele><time>2024-06-06T15:50:48Z</time></trkpt>
<trkpt lat="36.294127" lon="-118.133102"><ele>2780.6</ele><time>2024-06-06T15:50:49Z</time></trkpt>
<trkpt lat="36.294208" lon="-118.133061"><ele>2779.6</ele><time>2024-06-06T15:50:53Z</time></trkpt>
<trkpt lat="36.294394" lon="-118.133164"><ele>2778.0</ele><time>2024-06-06T15:51:07Z</time></trkpt>
<trkpt lat="36.294812" lon="-118.133144"><ele>2773.0</ele><time>2024-06-06T15:51:43Z</time></trkpt>
<trkpt lat="36.294935" lon="-118.132705"><ele>2771.8</ele><time>2024-06-06T15:52:03Z</time></trkpt>
<trkpt lat="36.295288" lon="-118.132694"><ele>2772.8</ele><time>2024-06-06T15:52:37Z</time></trkpt>
<trkpt lat="36.295528" lon="-118.132755"><ele>2768.4</ele><time>2024-06-06T15:52:59Z</time></trkpt>
<trkpt lat="36.295707" lon="-118.132681"><ele>2767.6</ele><time>2024-06-06T15:53:13Z</time></trkpt>
<trkpt lat="36.296265" lon="-118.132706"><ele>2765.6</ele><time>2024-06-06T15:53:48Z</time></trkpt>
<trkpt lat="36.296234" lon="-118.132763"><ele>2765.4</ele><time>2024-06-06T15:53:49Z</time></trkpt>
<trkpt lat="36.296312" lon="-118.132829"><ele>2765.4</ele><time>2024-06-06T15:53:55Z</time></trkpt>
<trkpt lat="36.296396" lon="-118.132794"><ele>2765.4</ele><time>2024-06-06T15:54:04Z</time></trkpt>
<trkpt lat="36.297180" lon="-118.131325"><ele>2758.8</ele><time>2024-06-06T15:55:51Z</time></trkpt>
<trkpt lat="36.297059" lon="-118.131116"><ele>2758.0</ele><time>2024-06-06T15:56:08Z</time></trkpt>
<trkpt lat="36.296690" lon="-118.130869"><ele>2757.4</ele><time>2024-06-06T15:56:52Z</time></trkpt>
<trkpt lat="36.296488" lon="-118.130499"><ele>2758.2</ele><time>2024-06-06T15:57:51Z</time></trkpt>
<trkpt lat="36.296474" lon="-118.130588"><ele>2758.4</ele><time>2024-06-06T16:00:33Z</time></trkpt>
<trkpt lat="36.296367" lon="-118.130424"><ele>2757.2</ele><time>2024-06-06T16:02:26Z</time></trkpt>
<trkpt lat="36.296486" lon="-118.130592"><ele>2758.4</ele><time>2024-06-06T16:04:27Z</time></trkpt>
<trkpt lat="36.296739" lon="-118.130663"><ele>2760.0</ele><time>2024-06-06T16:08:21Z</time></trkpt>
<trkpt lat="36.296560" lon="-118.130612"><ele>2760.2</ele><time>2024-06-06T16:08:29Z</time></trkpt>
<trkpt lat="36.296497" lon="-118.130468"><ele>2760.6</ele><time>2024-06-06T16:10:15Z</time></trkpt>
<trkpt lat="36.296536" lon="-118.130532"><ele>2760.8</ele><time>2024-06-06T16:10:18Z</time></trkpt>
<trkpt lat="36.296494" lon="-118.130610"><ele>2761.2</ele><time>2024-06-06T16:10:50Z</time></trkpt>
<trkpt lat="36.296597" lon="-118.130555"><ele>2761.4</ele><time>2024-06-06T16:10:56Z</time></trkpt>
<trkpt lat="36.296445" lon="-118.130632"><ele>2764.0</ele><time>2024-06-06T16:14:56Z</time></trkpt>
<trkpt lat="36.296459" lon="-118.130444"><ele>2764.2</ele><time>2024-06-06T16:16:45Z</time></trkpt>
<trkpt lat="36.296461" lon="-118.130545"><ele>2764.2</ele><time>2024-06-06T16:16:50Z</time></trkpt>
<trkpt lat="36.296530" lon="-118.130534"><ele>2764.0</ele><time>2024-06-06T16:17:02Z</time></trkpt>
<trkpt lat="36.296495" lon="-118.130599"><ele>2765.8</ele><time>2024-06-06T16:18:48Z</time></trkpt>
<trkpt lat="36.296616" lon="-118.130574"><ele>2765.0</ele><time>2024-06-06T16:19:03Z</time></trkpt>
<trkpt lat="36.296585" lon="-118.130529"><ele>2765.6</ele><time>2024-06-06T16:19:51Z</time></trkpt>
<trkpt lat="36.296450" lon="-118.130630"><ele>2765.0</ele><time>2024-06-06T16:22:51Z</time></trkpt>
<trkpt lat="36.296462" lon="-118.130563"><ele>2764.8</ele><time>2024-06-06T16:22:57Z</time></trkpt>
<trkpt lat="36.296504" lon="-118.130604"><ele>2764.2</ele><time>2024-06-06T16:23:25Z</time></trkpt>
<trkpt lat="36.296476" lon="-118.130552"><ele>2765.2</ele><time>2024-06-06T16:24:49Z</time></trkpt>
<trkpt lat="36.296536" lon="-118.130578"><ele>2764.4</ele><time>2024-06-06T16:25:04Z</time></trkpt>
<trkpt lat="36.296472" lon="-118.130590"><ele>2764.6</ele><time>2024-06-06T16:26:50Z</time></trkpt>
<trkpt lat="36.296495" lon="-118.130529"><ele>2765.0</ele><time>2024-06-06T16:26:56Z</time></trkpt>
<trkpt lat="36.296471" lon="-118.130585"><ele>2765.8</ele><time>2024-06-06T16:28:53Z</time></trkpt>
<trkpt lat="36.296530" lon="-118.130505"><ele>2765.8</ele><time>2024-06-06T16:28:56Z</time></trkpt>
<trkpt lat="36.297048" lon="-118.130467"><ele>2767.2</ele><time>2024-06-06T16:30:35Z</time></trkpt>
<trkpt lat="36.298333" lon="-118.130514"><ele>2756.2</ele><time>2024-06-06T16:32:15Z</time></trkpt>
<trkpt lat="36.298656" lon="-118.130703"><ele>2755.0</ele><time>2024-06-06T16:32:50Z</time></trkpt>
<trkpt lat="36.298619" lon="-118.130876"><ele>2754.0</ele><time>2024-06-06T16:32:55Z</time></trkpt>
<trkpt lat="36.298820" lon="-118.131043"><ele>2750.8</ele><time>2024-06-06T16:33:14Z</time></trkpt>
<trkpt lat="36.299079" lon="-118.131142"><ele>2747.4</ele><time>2024-06-06T16:33:30Z</time></trkpt>
<trkpt lat="36.299860" lon="-118.131235"><ele>2742.0</ele><time>2024-06-06T16:34:28Z</time></trkpt>
<trkpt lat="36.300066" lon="-118.131193"><ele>2740.4</ele><time>2024-06-06T16:34:47Z</time></trkpt>
<trkpt lat="36.300040" lon="-118.131102"><ele>2740.4</ele><time>2024-06-06T16:34:48Z</time></trkpt>
<trkpt lat="36.300139" lon="-118.130881"><ele>2740.4</ele><time>2024-06-06T16:35:03Z</time></trkpt>
<trkpt lat="36.300577" lon="-118.130871"><ele>2739.4</ele><time>2024-06-06T16:35:45Z</time></trkpt>
<trkpt lat="36.300770" lon="-118.130919"><ele>2741.6</ele><time>2024-06-06T16:36:07Z</time></trkpt>
<trkpt lat="36.301038" lon="-118.131138"><ele>2743.4</ele><time>2024-06-06T16:36:43Z</time></trkpt>
<trkpt lat="36.301432" lon="-118.131277"><ele>2742.0</ele><time>2024-06-06T16:37:03Z</time></trkpt>
<trkpt lat="36.301617" lon="-118.131077"><ele>2741.6</ele><time>2024-06-06T16:37:35Z</time></trkpt>
<trkpt lat="36.301708" lon="-118.130822"><ele>2743.2</ele><time>2024-06-06T16:37:53Z</time></trkpt>
<trkpt lat="36.302255" lon="-118.130077"><ele>2747.4</ele><time>2024-06-06T16:38:46Z</time></trkpt>
<trkpt lat="36.302273" lon="-118.129736"><ele>2746.0</ele><time>2024-06-06T16:39:03Z</time></trkpt>
<trkpt lat="36.302605" lon="-118.129019"><ele>2743.4</ele><time>2024-06-06T16:39:35Z</time></trkpt>
<trkpt lat="36.302966" lon="-118.128701"><ele>2741.8</ele><time>2024-06-06T16:40:15Z</time></trkpt>
<trkpt lat="36.303236" lon="-118.128153"><ele>2740.6</ele><time>2024-06-06T16:41:02Z</time></trkpt>
<trkpt lat="36.303116" lon="-118.126851"><ele>2738.4</ele><time>2024-06-06T16:42:21Z</time></trkpt>
<trkpt lat="36.302984" lon="-118.126342"><ele>2741.0</ele><time>2024-06-06T16:42:48Z</time></trkpt>
<trkpt lat="36.302910" lon="-118.126422"><ele>2741.4</ele><time>2024-06-06T16:42:50Z</time></trkpt>
<trkpt lat="36.302764" lon="-118.126375"><ele>2743.0</ele><time>2024-06-06T16:43:01Z</time></trkpt>
<trkpt lat="36.302599" lon="-118.124736"><ele>2743.8</ele><time>2024-06-06T16:44:47Z</time></trkpt>
<trkpt lat="36.302791" lon="-118.124551"><ele>2743.8</ele><time>2024-06-06T16:44:54Z</time></trkpt>
<trkpt lat="36.303189" lon="-118.124412"><ele>2743.0</ele><time>2024-06-06T16:45:23Z</time></trkpt>
<trkpt lat="36.304110" lon="-118.124360"><ele>2747.6</ele><time>2024-06-06T16:47:03Z</time></trkpt>
<trkpt lat="36.304585" lon="-118.124012"><ele>2750.4</ele><time>2024-06-06T16:47:37Z</time></trkpt>
<trkpt lat="36.305041" lon="-118.123841"><ele>2750.0</ele><time>2024-06-06T16:48:25Z</time></trkpt>
<trkpt lat="36.305349" lon="-118.123605"><ele>2751.0</ele><time>2024-06-06T16:48:46Z</time></trkpt>
<trkpt lat="36.305331" lon="-118.123501"><ele>2751.2</ele><time>2024-06-06T16:48:48Z</time></trkpt>
<trkpt lat="36.305538" lon="-118.123348"><ele>2752.8</ele><time>2024-06-06T16:49:06Z</time></trkpt>
<trkpt lat="36.305764" lon="-118.122868"><ele>2754.6</ele><time>2024-06-06T16:49:51Z</time></trkpt>
<trkpt lat="36.306021" lon="-118.122021"><ele>2758.2</ele><time>2024-06-06T16:50:46Z</time></trkpt>
<trkpt lat="36.306201" lon="-118.121692"><ele>2759.6</ele><time>2024-06-06T16:51:02Z</time></trkpt>
<trkpt lat="36.306715" lon="-118.121388"><ele>2758.8</ele><time>2024-06-06T16:51:59Z</time></trkpt>
<trkpt lat="36.307370" lon="-118.121303"><ele>2757.6</ele><time>2024-06-06T16:52:48Z</time></trkpt>
<trkpt lat="36.307576" lon="-118.121185"><ele>2757.0</ele><time>2024-06-06T16:53:01Z</time></trkpt>
<trkpt lat="36.307949" lon="-118.121144"><ele>2757.0</ele><time>2024-06-06T16:53:23Z</time></trkpt>
<trkpt lat="36.308204" lon="-118.120967"><ele>2756.6</ele><time>2024-06-06T16:53:49Z</time></trkpt>
<trkpt lat="36.309076" lon="-118.121081"><ele>2754.8</ele><time>2024-06-06T16:55:00Z</time></trkpt>
<trkpt lat="36.309673" lon="-118.121889"><ele>2756.2</ele><time>2024-06-06T16:56:10Z</time></trkpt>
<trkpt lat="36.309967" lon="-118.122383"><ele>2754.8</ele><time>2024-06-06T16:56:48Z</time></trkpt>
<trkpt lat="36.310086" lon="-118.122394"><ele>2754.8</ele><time>2024-06-06T16:56:51Z</time></trkpt>
<trkpt lat="36.310483" lon="-118.124211"><ele>2748.0</ele><time>2024-06-06T16:58:49Z</time></trkpt>
<trkpt lat="36.310419" lon="-118.124240"><ele>2747.4</ele><time>2024-06-06T16:58:52Z</time></trkpt>
<trkpt lat="36.310419" lon="-118.124430"><ele>2747.4</ele><time>2024-06-06T16:58:58Z</time></trkpt>
<trkpt lat="36.310731" lon="-118.124770"><ele>2746.2</ele><time>2024-06-06T16:59:24Z</time></trkpt>
<trkpt lat="36.310897" lon="-118.125126"><ele>2744.2</ele><time>2024-06-06T17:00:06Z</time></trkpt>
<trkpt lat="36.311361" lon="-118.125814"><ele>2742.4</ele><time>2024-06-06T17:00:51Z</time></trkpt>
<trkpt lat="36.311629" lon="-118.127212"><ele>2741.2</ele><time>2024-06-06T17:02:28Z</time></trkpt>
<trkpt lat="36.311793" lon="-118.127574"><ele>2742.0</ele><time>2024-06-06T17:02:48Z</time></trkpt>
<trkpt lat="36.311970" lon="-118.127615"><ele>2742.4</ele><time>2024-06-06T17:02:54Z</time></trkpt>
<trkpt lat="36.312521" lon="-118.128459"><ele>2741.2</ele><time>2024-06-06T17:04:18Z</time></trkpt>
<trkpt lat="36.313056" lon="-118.128785"><ele>2741.0</ele><time>2024-06-06T17:04:48Z</time></trkpt>
<trkpt lat="36.313103" lon="-118.128706"><ele>2741.2</ele><time>2024-06-06T17:04:57Z</time></trkpt>
<trkpt lat="36.313181" lon="-118.128742"><ele>2741.4</ele><time>2024-06-06T17:05:03Z</time></trkpt>
<trkpt lat="36.314357" lon="-118.129625"><ele>2742.2</ele><time>2024-06-06T17:06:51Z</time></trkpt>
<trkpt lat="36.314390" lon="-118.129759"><ele>2742.8</ele><time>2024-06-06T17:06:58Z</time></trkpt>
<trkpt lat="36.314695" lon="-118.130155"><ele>2746.0</ele><time>2024-06-06T17:07:38Z</time></trkpt>
<trkpt lat="36.314858" lon="-118.130460"><ele>2743.8</ele><time>2024-06-06T17:08:06Z</time></trkpt>
<trkpt lat="36.315381" lon="-118.131019"><ele>2740.0</ele><time>2024-06-06T17:08:47Z</time></trkpt>
<trkpt lat="36.315575" lon="-118.130859"><ele>2738.4</ele><time>2024-06-06T17:09:03Z</time></trkpt>
<trkpt lat="36.317025" lon="-118.130908"><ele>2731.0</ele><time>2024-06-06T17:10:48Z</time></trkpt>
<trkpt lat="36.318254" lon="-118.131672"><ele>2731.6</ele><time>2024-06-06T17:12:47Z</time></trkpt>
<trkpt lat="36.318309" lon="-118.131631"><ele>2731.8</ele><time>2024-06-06T17:12:51Z</time></trkpt>
<trkpt lat="36.318453" lon="-118.131826"><ele>2732.0</ele><time>2024-06-06T17:13:04Z</time></trkpt>
<trkpt lat="36.319915" lon="-118.132043"><ele>2731.2</ele><time>2024-06-06T17:14:48Z</time></trkpt>
<trkpt lat="36.319962" lon="-118.132122"><ele>2730.8</ele><time>2024-06-06T17:14:59Z</time></trkpt>
<trkpt lat="36.320361" lon="-118.131955"><ele>2728.4</ele><time>2024-06-06T17:16:36Z</time></trkpt>
<trkpt lat="36.320529" lon="-118.131684"><ele>2728.6</ele><time>2024-06-06T17:16:55Z</time></trkpt>
<trkpt lat="36.320680" lon="-118.131637"><ele>2729.0</ele><time>2024-06-06T17:17:07Z</time></trkpt>
<trkpt lat="36.321218" lon="-118.131200"><ele>2730.4</ele><time>2024-06-06T17:18:10Z</time></trkpt>
<trkpt lat="36.321593" lon="-118.131133"><ele>2729.8</ele><time>2024-06-06T17:18:48Z</time></trkpt>
<trkpt lat="36.321464" lon="-118.131234"><ele>2729.6</ele><time>2024-06-06T17:18:57Z</time></trkpt>
<trkpt lat="36.321663" lon="-118.131119"><ele>2729.6</ele><time>2024-06-06T17:20:56Z</time></trkpt>
<trkpt lat="36.321600" lon="-118.130924"><ele>2731.6</ele><time>2024-06-06T17:25:07Z</time></trkpt>
<trkpt lat="36.321623" lon="-118.131069"><ele>2731.4</ele><time>2024-06-06T17:27:00Z</time></trkpt>
<trkpt lat="36.321627" lon="-118.130952"><ele>2731.4</ele><time>2024-06-06T17:27:05Z</time></trkpt>
<trkpt lat="36.321539" lon="-118.131004"><ele>2735.4</ele><time>2024-06-06T17:28:50Z</time></trkpt>
<trkpt lat="36.321619" lon="-118.130984"><ele>2734.6</ele><time>2024-06-06T17:28:56Z</time></trkpt>
<trkpt lat="36.321665" lon="-118.131054"><ele>2733.8</ele><time>2024-06-06T17:29:08Z</time></trkpt>
<trkpt lat="36.321635" lon="-118.131296"><ele>2734.6</ele><time>2024-06-06T17:30:45Z</time></trkpt>
<trkpt lat="36.321663" lon="-118.131077"><ele>2735.2</ele><time>2024-06-06T17:30:56Z</time></trkpt>
<trkpt lat="36.321585" lon="-118.131118"><ele>2734.2</ele><time>2024-06-06T17:33:08Z</time></trkpt>
<trkpt lat="36.321696" lon="-118.131084"><ele>2735.2</ele><time>2024-06-06T17:34:52Z</time></trkpt>
<trkpt lat="36.321648" lon="-118.131032"><ele>2735.0</ele><time>2024-06-06T17:35:07Z</time></trkpt>
<trkpt lat="36.321706" lon="-118.131000"><ele>2734.6</ele><time>2024-06-06T17:36:29Z</time></trkpt>
<trkpt lat="36.321595" lon="-118.131077"><ele>2735.6</ele><time>2024-06-06T17:37:08Z</time></trkpt>
<trkpt lat="36.321640" lon="-118.130921"><ele>2736.6</ele><time>2024-06-06T17:38:52Z</time></trkpt>
<trkpt lat="36.321624" lon="-118.131015"><ele>2736.2</ele><time>2024-06-06T17:38:58Z</time></trkpt>
<trkpt lat="36.321710" lon="-118.130976"><ele>2735.8</ele><time>2024-06-06T17:39:05Z</time></trkpt>
<trkpt lat="36.321630" lon="-118.130965"><ele>2734.6</ele><time>2024-06-06T17:39:27Z</time></trkpt>
<trkpt lat="36.321677" lon="-118.130987"><ele>2735.6</ele><time>2024-06-06T17:40:58Z</time></trkpt>
<trkpt lat="36.321580" lon="-118.131042"><ele>2736.8</ele><time>2024-06-06T17:42:51Z</time></trkpt>
<trkpt lat="36.321726" lon="-118.131029"><ele>2734.6</ele><time>2024-06-06T17:46:56Z</time></trkpt>
<trkpt lat="36.321635" lon="-118.131101"><ele>2733.6</ele><time>2024-06-06T17:48:53Z</time></trkpt>
<trkpt lat="36.321637" lon="-118.131010"><ele>2733.6</ele><time>2024-06-06T17:48:58Z</time></trkpt>
<trkpt lat="36.321709" lon="-118.131073"><ele>2733.4</ele><time>2024-06-06T17:49:06Z</time></trkpt>
<trkpt lat="36.321642" lon="-118.131042"><ele>2733.8</ele><time>2024-06-06T17:50:41Z</time></trkpt>
<trkpt lat="36.321618" lon="-118.131112"><ele>2734.0</ele><time>2024-06-06T17:50:54Z</time></trkpt>
<trkpt lat="36.321641" lon="-118.130950"><ele>2735.6</ele><time>2024-06-06T17:52:50Z</time></trkpt>
<trkpt lat="36.321628" lon="-118.131023"><ele>2736.2</ele><time>2024-06-06T17:52:58Z</time></trkpt>
<trkpt lat="36.321588" lon="-118.130998"><ele>2736.4</ele><time>2024-06-06T17:53:01Z</time></trkpt>
<trkpt lat="36.322204" lon="-118.131368"><ele>2738.8</ele><time>2024-06-06T17:54:49Z</time></trkpt>
<trkpt lat="36.322314" lon="-118.131269"><ele>2739.0</ele><time>2024-06-06T17:54:58Z</time></trkpt>
<trkpt lat="36.322752" lon="-118.131336"><ele>2740.6</ele><time>2024-06-06T17:55:17Z</time></trkpt>
<trkpt lat="36.323673" lon="-118.131739"><ele>2745.2</ele><time>2024-06-06T17:56:54Z</time></trkpt>
<trkpt lat="36.324985" lon="-118.131484"><ele>2751.4</ele><time>2024-06-06T17:58:48Z</time></trkpt>
<trkpt lat="36.325190" lon="-118.131511"><ele>2752.4</ele><time>2024-06-06T17:59:05Z</time></trkpt>
<trkpt lat="36.325462" lon="-118.131655"><ele>2755.6</ele><time>2024-06-06T17:59:45Z</time></trkpt>
<trkpt lat="36.325472" lon="-118.131826"><ele>2758.0</ele><time>2024-06-06T18:00:49Z</time></trkpt>
<trkpt lat="36.325406" lon="-118.131807"><ele>2759.0</ele><time>2024-06-06T18:00:55Z</time></trkpt>
<trkpt lat="36.324910" lon="-118.132363"><ele>2762.2</ele><time>2024-06-06T18:01:51Z</time></trkpt>
<trkpt lat="36.324413" lon="-118.133238"><ele>2766.8</ele><time>2024-06-06T18:02:55Z</time></trkpt>
<trkpt lat="36.325110" lon="-118.133211"><ele>2779.4</ele><time>2024-06-06T18:04:31Z</time></trkpt>
<trkpt lat="36.325613" lon="-118.133151"><ele>2781.8</ele><time>2024-06-06T18:04:57Z</time></trkpt>
<trkpt lat="36.325999" lon="-118.133474"><ele>2785.2</ele><time>2024-06-06T18:05:33Z</time></trkpt>
<trkpt lat="36.326476" lon="-118.133789"><ele>2795.2</ele><time>2024-06-06T18:06:50Z</time></trkpt>
<trkpt lat="36.326369" lon="-118.133883"><ele>2796.8</ele><time>2024-06-06T18:07:05Z</time></trkpt>
<trkpt lat="36.326248" lon="-118.134565"><ele>2803.6</ele><time>2024-06-06T18:08:11Z</time></trkpt>
<trkpt lat="36.326345" lon="-118.134711"><ele>2805.2</ele><time>2024-06-06T18:08:25Z</time></trkpt>
<trkpt lat="36.326428" lon="-118.135219"><ele>2809.4</ele><time>2024-06-06T18:09:00Z</time></trkpt>
<trkpt lat="36.326887" lon="-118.134800"><ele>2815.2</ele><time>2024-06-06T18:09:56Z</time></trkpt>
<trkpt lat="36.327135" lon="-118.134698"><ele>2818.4</ele><time>2024-06-06T18:10:30Z</time></trkpt>
<trkpt lat="36.327503" lon="-118.134360"><ele>2821.0</ele><time>2024-06-06T18:10:52Z</time></trkpt>
<trkpt lat="36.327572" lon="-118.134134"><ele>2822.2</ele><time>2024-06-06T18:11:08Z</time></trkpt>
<trkpt lat="36.327602" lon="-118.133449"><ele>2829.8</ele><time>2024-06-06T18:12:49Z</time></trkpt>
<trkpt lat="36.327689" lon="-118.133384"><ele>2831.0</ele><time>2024-06-06T18:13:01Z</time></trkpt>
<trkpt lat="36.327778" lon="-118.133393"><ele>2832.6</ele><time>2024-06-06T18:13:12Z</time></trkpt>
<trkpt lat="36.327979" lon="-118.133618"><ele>2833.8</ele><time>2024-06-06T18:13:42Z</time></trkpt>
<trkpt lat="36.328354" lon="-118.133727"><ele>2839.6</ele><time>2024-06-06T18:14:26Z</time></trkpt>
<trkpt lat="36.328408" lon="-118.133604"><ele>2840.4</ele><time>2024-06-06T18:14:44Z</time></trkpt>
<trkpt lat="36.328517" lon="-118.133590"><ele>2841.4</ele><time>2024-06-06T18:14:50Z</time></trkpt>
<trkpt lat="36.328461" lon="-118.133484"><ele>2841.6</ele><time>2024-06-06T18:14:51Z</time></trkpt>
<trkpt lat="36.328475" lon="-118.133350"><ele>2842.4</ele><time>2024-06-06T18:14:55Z</time></trkpt>
<trkpt lat="36.328608" lon="-118.133259"><ele>2844.2</ele><time>2024-06-06T18:15:08Z</time></trkpt>
<trkpt lat="36.329207" lon="-118.134018"><ele>2857.2</ele><time>2024-06-06T18:16:52Z</time></trkpt>
<trkpt lat="36.329196" lon="-118.133860"><ele>2858.8</ele><time>2024-06-06T18:17:01Z</time></trkpt>
<trkpt lat="36.329471" lon="-118.132883"><ele>2863.0</ele><time>2024-06-06T18:18:08Z</time></trkpt>
<trkpt lat="36.329732" lon="-118.132367"><ele>2868.6</ele><time>2024-06-06T18:18:58Z</time></trkpt>
<trkpt lat="36.330429" lon="-118.132416"><ele>2875.8</ele><time>2024-06-06T18:20:16Z</time></trkpt>
<trkpt lat="36.331025" lon="-118.132755"><ele>2878.2</ele><time>2024-06-06T18:20:51Z</time></trkpt>
<trkpt lat="36.331090" lon="-118.132996"><ele>2879.0</ele><time>2024-06-06T18:21:07Z</time></trkpt>
<trkpt lat="36.331530" lon="-118.133299"><ele>2881.4</ele><time>2024-06-06T18:21:58Z</time></trkpt>
<trkpt lat="36.332180" lon="-118.133617"><ele>2888.4</ele><time>2024-06-06T18:22:52Z</time></trkpt>
<trkpt lat="36.332209" lon="-118.133575"><ele>2888.6</ele><time>2024-06-06T18:22:54Z</time></trkpt>
<trkpt lat="36.332231" lon="-118.133790"><ele>2890.2</ele><time>2024-06-06T18:23:09Z</time></trkpt>
<trkpt lat="36.332312" lon="-118.133812"><ele>2891.4</ele><time>2024-06-06T18:23:16Z</time></trkpt>
<trkpt lat="36.332138" lon="-118.133852"><ele>2892.0</ele><time>2024-06-06T18:25:03Z</time></trkpt>
<trkpt lat="36.332171" lon="-118.133732"><ele>2892.8</ele><time>2024-06-06T18:26:56Z</time></trkpt>
<trkpt lat="36.332251" lon="-118.133864"><ele>2893.2</ele><time>2024-06-06T18:28:30Z</time></trkpt>
<trkpt lat="36.332180" lon="-118.133882"><ele>2894.0</ele><time>2024-06-06T18:28:56Z</time></trkpt>
<trkpt lat="36.332168" lon="-118.133804"><ele>2896.6</ele><time>2024-06-06T18:30:55Z</time></trkpt>
<trkpt lat="36.332305" lon="-118.133809"><ele>2898.4</ele><time>2024-06-06T18:32:30Z</time></trkpt>
<trkpt lat="36.332213" lon="-118.133848"><ele>2898.4</ele><time>2024-06-06T18:32:56Z</time></trkpt>
<trkpt lat="36.332115" lon="-118.134112"><ele>2896.8</ele><time>2024-06-06T18:35:06Z</time></trkpt>
<trkpt lat="36.332228" lon="-118.133828"><ele>2900.0</ele><time>2024-06-06T18:37:07Z</time></trkpt>
<trkpt lat="36.332230" lon="-118.133891"><ele>2899.8</ele><time>2024-06-06T18:38:53Z</time></trkpt>
<trkpt lat="36.332162" lon="-118.133866"><ele>2899.8</ele><time>2024-06-06T18:39:03Z</time></trkpt>
<trkpt lat="36.332647" lon="-118.134115"><ele>2902.6</ele><time>2024-06-06T18:40:49Z</time></trkpt>
<trkpt lat="36.332758" lon="-118.134112"><ele>2903.2</ele><time>2024-06-06T18:40:57Z</time></trkpt>
<trkpt lat="36.333649" lon="-118.133461"><ele>2910.4</ele><time>2024-06-06T18:42:28Z</time></trkpt>
<trkpt lat="36.333728" lon="-118.133283"><ele>2912.8</ele><time>2024-06-06T18:42:50Z</time></trkpt>
<trkpt lat="36.334135" lon="-118.133610"><ele>2919.0</ele><time>2024-06-06T18:43:32Z</time></trkpt>
<trkpt lat="36.334492" lon="-118.133753"><ele>2923.6</ele><time>2024-06-06T18:44:48Z</time></trkpt>
<trkpt lat="36.334420" lon="-118.133657"><ele>2923.4</ele><time>2024-06-06T18:44:49Z</time></trkpt>
<trkpt lat="36.334668" lon="-118.133614"><ele>2924.6</ele><time>2024-06-06T18:45:07Z</time></trkpt>
<trkpt lat="36.334910" lon="-118.133450"><ele>2925.4</ele><time>2024-06-06T18:45:22Z</time></trkpt>
<trkpt lat="36.335208" lon="-118.133228"><ele>2933.2</ele><time>2024-06-06T18:46:22Z</time></trkpt>
<trkpt lat="36.335447" lon="-118.132980"><ele>2934.4</ele><time>2024-06-06T18:46:49Z</time></trkpt>
<trkpt lat="36.335621" lon="-118.133101"><ele>2934.6</ele><time>2024-06-06T18:46:57Z</time></trkpt>
<trkpt lat="36.335739" lon="-118.133034"><ele>2935.2</ele><time>2024-06-06T18:47:09Z</time></trkpt>
<trkpt lat="36.336680" lon="-118.132132"><ele>2931.8</ele><time>2024-06-06T18:48:52Z</time></trkpt>
<trkpt lat="36.336921" lon="-118.132224"><ele>2932.2</ele><time>2024-06-06T18:48:58Z</time></trkpt>
<trkpt lat="36.337485" lon="-118.132168"><ele>2933.0</ele><time>2024-06-06T18:49:26Z</time></trkpt>
<trkpt lat="36.337874" lon="-118.132012"><ele>2935.2</ele><time>2024-06-06T18:50:10Z</time></trkpt>
<trkpt lat="36.338083" lon="-118.131737"><ele>2938.6</ele><time>2024-06-06T18:50:50Z</time></trkpt>
<trkpt lat="36.338064" lon="-118.131573"><ele>2938.6</ele><time>2024-06-06T18:50:54Z</time></trkpt>
<trkpt lat="36.338162" lon="-118.131503"><ele>2939.4</ele><time>2024-06-06T18:51:04Z</time></trkpt>
<trkpt lat="36.338800" lon="-118.130349"><ele>2952.2</ele><time>2024-06-06T18:52:49Z</time></trkpt>
<trkpt lat="36.338957" lon="-118.130421"><ele>2952.4</ele><time>2024-06-06T18:52:55Z</time></trkpt>
<trkpt lat="36.339272" lon="-118.130048"><ele>2959.4</ele><time>2024-06-06T18:53:50Z</time></trkpt>
<trkpt lat="36.339363" lon="-118.129833"><ele>2961.8</ele><time>2024-06-06T18:54:08Z</time></trkpt>
<trkpt lat="36.339789" lon="-118.129484"><ele>2965.0</ele><time>2024-06-06T18:54:49Z</time></trkpt>
<trkpt lat="36.339642" lon="-118.129240"><ele>2965.2</ele><time>2024-06-06T18:54:50Z</time></trkpt>
<trkpt lat="36.339730" lon="-118.129321"><ele>2965.4</ele><time>2024-06-06T18:54:53Z</time></trkpt>
<trkpt lat="36.339839" lon="-118.129255"><ele>2967.0</ele><time>2024-06-06T18:55:04Z</time></trkpt>
<trkpt lat="36.339871" lon="-118.129298"><ele>2967.6</ele><time>2024-06-06T18:55:07Z</time></trkpt>
<trkpt lat="36.339804" lon="-118.129797"><ele>2971.6</ele><time>2024-06-06T18:55:57Z</time></trkpt>
<trkpt lat="36.339793" lon="-118.130634"><ele>2977.8</ele><time>2024-06-06T18:56:56Z</time></trkpt>
<trkpt lat="36.339878" lon="-118.130783"><ele>2978.0</ele><time>2024-06-06T18:57:01Z</time></trkpt>
<trkpt lat="36.339838" lon="-118.130883"><ele>2978.6</ele><time>2024-06-06T18:57:09Z</time></trkpt>
<trkpt lat="36.340094" lon="-118.130982"><ele>2979.6</ele><time>2024-06-06T18:57:23Z</time></trkpt>
<trkpt lat="36.340213" lon="-118.130843"><ele>2982.4</ele><time>2024-06-06T18:58:35Z</time></trkpt>
<trkpt lat="36.340075" lon="-118.130638"><ele>2985.4</ele><time>2024-06-06T18:58:54Z</time></trkpt>
<trkpt lat="36.340080" lon="-118.130555"><ele>2986.0</ele><time>2024-06-06T18:58:56Z</time></trkpt>
<trkpt lat="36.340248" lon="-118.130756"><ele>2986.2</ele><time>2024-06-06T18:58:59Z</time></trkpt>
<trkpt lat="36.340348" lon="-118.130757"><ele>2986.4</ele><time>2024-06-06T18:59:04Z</time></trkpt>
<trkpt lat="36.340521" lon="-118.130443"><ele>2987.6</ele><time>2024-06-06T18:59:31Z</time></trkpt>
<trkpt lat="36.340935" lon="-118.130299"><ele>2987.8</ele><time>2024-06-06T19:00:07Z</time></trkpt>
<trkpt lat="36.341934" lon="-118.129404"><ele>2992.6</ele><time>2024-06-06T19:01:51Z</time></trkpt>
<trkpt lat="36.341910" lon="-118.129355"><ele>2993.0</ele><time>2024-06-06T19:01:54Z</time></trkpt>
<trkpt lat="36.342081" lon="-118.129498"><ele>2994.4</ele><time>2024-06-06T19:02:00Z</time></trkpt>
<trkpt lat="36.342642" lon="-118.129482"><ele>2999.2</ele><time>2024-06-06T19:02:57Z</time></trkpt>
<trkpt lat="36.342745" lon="-118.129690"><ele>3003.8</ele><time>2024-06-06T19:03:27Z</time></trkpt>
<trkpt lat="36.343235" lon="-118.129715"><ele>3009.0</ele><time>2024-06-06T19:04:08Z</time></trkpt>
<trkpt lat="36.343614" lon="-118.129539"><ele>3012.4</ele><time>2024-06-06T19:04:37Z</time></trkpt>
<trkpt lat="36.343867" lon="-118.129301"><ele>3017.0</ele><time>2024-06-06T19:05:29Z</time></trkpt>
<trkpt lat="36.344097" lon="-118.128749"><ele>3020.4</ele><time>2024-06-06T19:05:57Z</time></trkpt>
<trkpt lat="36.344290" lon="-118.128540"><ele>3023.8</ele><time>2024-06-06T19:06:17Z</time></trkpt>
<trkpt lat="36.344424" lon="-118.127822"><ele>3031.4</ele><time>2024-06-06T19:07:33Z</time></trkpt>
<trkpt lat="36.344492" lon="-118.127998"><ele>3035.0</ele><time>2024-06-06T19:08:00Z</time></trkpt>
<trkpt lat="36.344659" lon="-118.128082"><ele>3038.2</ele><time>2024-06-06T19:08:23Z</time></trkpt>
<trkpt lat="36.344715" lon="-118.128248"><ele>3041.6</ele><time>2024-06-06T19:08:47Z</time></trkpt>
<trkpt lat="36.344838" lon="-118.128283"><ele>3045.4</ele><time>2024-06-06T19:09:17Z</time></trkpt>
<trkpt lat="36.345013" lon="-118.128191"><ele>3047.6</ele><time>2024-06-06T19:09:43Z</time></trkpt>
<trkpt lat="36.345088" lon="-118.128068"><ele>3048.4</ele><time>2024-06-06T19:09:51Z</time></trkpt>
<trkpt lat="36.345056" lon="-118.128127"><ele>3048.6</ele><time>2024-06-06T19:09:54Z</time></trkpt>
<trkpt lat="36.345069" lon="-118.127965"><ele>3049.0</ele><time>2024-06-06T19:10:00Z</time></trkpt>
<trkpt lat="36.345142" lon="-118.127966"><ele>3050.0</ele><time>2024-06-06T19:10:07Z</time></trkpt>
<trkpt lat="36.345632" lon="-118.127109"><ele>3062.2</ele><time>2024-06-06T19:11:53Z</time></trkpt>
<trkpt lat="36.345565" lon="-118.126978"><ele>3062.4</ele><time>2024-06-06T19:11:55Z</time></trkpt>
<trkpt lat="36.345728" lon="-118.127281"><ele>3062.8</ele><time>2024-06-06T19:11:57Z</time></trkpt>
<trkpt lat="36.345650" lon="-118.127181"><ele>3064.2</ele><time>2024-06-06T19:12:08Z</time></trkpt>
<trkpt lat="36.345656" lon="-118.127088"><ele>3064.8</ele><time>2024-06-06T19:12:13Z</time></trkpt>
<trkpt lat="36.345830" lon="-118.126821"><ele>3071.4</ele><time>2024-06-06T19:13:21Z</time></trkpt>
<trkpt lat="36.346002" lon="-118.126655"><ele>3074.6</ele><time>2024-06-06T19:13:50Z</time></trkpt>
<trkpt lat="36.346068" lon="-118.126737"><ele>3077.0</ele><time>2024-06-06T19:14:08Z</time></trkpt>
<trkpt lat="36.346136" lon="-118.126688"><ele>3079.0</ele><time>2024-06-06T19:14:21Z</time></trkpt>
<trkpt lat="36.346438" lon="-118.126281"><ele>3088.2</ele><time>2024-06-06T19:15:56Z</time></trkpt>
<trkpt lat="36.346372" lon="-118.126238"><ele>3088.6</ele><time>2024-06-06T19:15:59Z</time></trkpt>
<trkpt lat="36.346455" lon="-118.126266"><ele>3089.2</ele><time>2024-06-06T19:16:07Z</time></trkpt>
<trkpt lat="36.346502" lon="-118.125747"><ele>3096.6</ele><time>2024-06-06T19:16:57Z</time></trkpt>
<trkpt lat="36.346670" lon="-118.124717"><ele>3095.4</ele><time>2024-06-06T19:17:51Z</time></trkpt>
<trkpt lat="36.346805" lon="-118.124768"><ele>3095.2</ele><time>2024-06-06T19:17:52Z</time></trkpt>
<trkpt lat="36.347110" lon="-118.125268"><ele>3095.0</ele><time>2024-06-06T19:18:00Z</time></trkpt>
<trkpt lat="36.347584" lon="-118.125309"><ele>3093.4</ele><time>2024-06-06T19:18:31Z</time></trkpt>
<trkpt lat="36.347733" lon="-118.125409"><ele>3094.0</ele><time>2024-06-06T19:18:45Z</time></trkpt>
<trkpt lat="36.347934" lon="-118.125639"><ele>3096.4</ele><time>2024-06-06T19:19:21Z</time></trkpt>
<trkpt lat="36.348228" lon="-118.126141"><ele>3098.8</ele><time>2024-06-06T19:19:59Z</time></trkpt>
<trkpt lat="36.348694" lon="-118.125908"><ele>3102.4</ele><time>2024-06-06T19:20:41Z</time></trkpt>
<trkpt lat="36.349054" lon="-118.125532"><ele>3110.2</ele><time>2024-06-06T19:21:51Z</time></trkpt>
<trkpt lat="36.349238" lon="-118.126045"><ele>3111.0</ele><time>2024-06-06T19:21:56Z</time></trkpt>
<trkpt lat="36.349202" lon="-118.125862"><ele>3112.2</ele><time>2024-06-06T19:22:03Z</time></trkpt>
<trkpt lat="36.350033" lon="-118.125165"><ele>3122.8</ele><time>2024-06-06T19:23:50Z</time></trkpt>
<trkpt lat="36.350074" lon="-118.125028"><ele>3124.4</ele><time>2024-06-06T19:23:58Z</time></trkpt>
<trkpt lat="36.350191" lon="-118.125042"><ele>3126.4</ele><time>2024-06-06T19:24:09Z</time></trkpt>
<trkpt lat="36.350405" lon="-118.124937"><ele>3132.0</ele><time>2024-06-06T19:24:55Z</time></trkpt>
<trkpt lat="36.350794" lon="-118.124695"><ele>3135.0</ele><time>2024-06-06T19:25:56Z</time></trkpt>
<trkpt lat="36.350898" lon="-118.124523"><ele>3136.2</ele><time>2024-06-06T19:26:08Z</time></trkpt>
<trkpt lat="36.351918" lon="-118.123971"><ele>3146.2</ele><time>2024-06-06T19:27:53Z</time></trkpt>
<trkpt lat="36.351980" lon="-118.123995"><ele>3146.8</ele><time>2024-06-06T19:28:00Z</time></trkpt>
<trkpt lat="36.352736" lon="-118.123425"><ele>3154.8</ele><time>2024-06-06T19:29:52Z</time></trkpt>
<trkpt lat="36.352754" lon="-118.123304"><ele>3155.6</ele><time>2024-06-06T19:29:59Z</time></trkpt>
<trkpt lat="36.352836" lon="-118.123261"><ele>3158.0</ele><time>2024-06-06T19:30:10Z</time></trkpt>
<trkpt lat="36.353342" lon="-118.123243"><ele>3165.8</ele><time>2024-06-06T19:31:13Z</time></trkpt>
<trkpt lat="36.354035" lon="-118.123116"><ele>3173.0</ele><time>2024-06-06T19:32:11Z</time></trkpt>
<trkpt lat="36.354220" lon="-118.123179"><ele>3178.6</ele><time>2024-06-06T19:32:57Z</time></trkpt>
<trkpt lat="36.354462" lon="-118.123378"><ele>3175.4</ele><time>2024-06-06T19:33:25Z</time></trkpt>
<trkpt lat="36.354899" lon="-118.123511"><ele>3170.6</ele><time>2024-06-06T19:33:57Z</time></trkpt>
<trkpt lat="36.355779" lon="-118.123368"><ele>3166.4</ele><time>2024-06-06T19:35:51Z</time></trkpt>
<trkpt lat="36.355733" lon="-118.123475"><ele>3167.2</ele><time>2024-06-06T19:37:43Z</time></trkpt>
<trkpt lat="36.355804" lon="-118.123278"><ele>3168.8</ele><time>2024-06-06T19:39:53Z</time></trkpt>
<trkpt lat="36.355804" lon="-118.123402"><ele>3168.6</ele><time>2024-06-06T19:39:58Z</time></trkpt>
<trkpt lat="36.355743" lon="-118.123378"><ele>3168.2</ele><time>2024-06-06T19:40:08Z</time></trkpt>
<trkpt lat="36.355772" lon="-118.123466"><ele>3169.6</ele><time>2024-06-06T19:42:02Z</time></trkpt>
<trkpt lat="36.355806" lon="-118.123479"><ele>3171.6</ele><time>2024-06-06T19:43:42Z</time></trkpt>
<trkpt lat="36.355756" lon="-118.123422"><ele>3171.0</ele><time>2024-06-06T19:45:54Z</time></trkpt>
<trkpt lat="36.355830" lon="-118.123435"><ele>3171.2</ele><time>2024-06-06T19:46:02Z</time></trkpt>
<trkpt lat="36.355753" lon="-118.123404"><ele>3173.8</ele><time>2024-06-06T19:50:22Z</time></trkpt>
<trkpt lat="36.355782" lon="-118.123473"><ele>3173.6</ele><time>2024-06-06T19:51:58Z</time></trkpt>
<trkpt lat="36.355486" lon="-118.124107"><ele>3171.4</ele><time>2024-06-06T19:53:52Z</time></trkpt>
<trkpt lat="36.355548" lon="-118.123810"><ele>3171.4</ele><time>2024-06-06T19:53:54Z</time></trkpt>
<trkpt lat="36.355778" lon="-118.123341"><ele>3171.4</ele><time>2024-06-06T19:53:55Z</time></trkpt>
<trkpt lat="36.355723" lon="-118.123459"><ele>3171.2</ele><time>2024-06-06T19:55:52Z</time></trkpt>
<trkpt lat="36.355757" lon="-118.123394"><ele>3171.4</ele><time>2024-06-06T19:59:26Z</time></trkpt>
<trkpt lat="36.355445" lon="-118.123374"><ele>3171.6</ele><time>2024-06-06T19:59:53Z</time></trkpt>
<trkpt lat="36.355774" lon="-118.123360"><ele>3171.6</ele><time>2024-06-06T19:59:55Z</time></trkpt>
<trkpt lat="36.355832" lon="-118.123450"><ele>3171.2</ele><time>2024-06-06T20:01:44Z</time></trkpt>
<trkpt lat="36.355787" lon="-118.123398"><ele>3171.2</ele><time>2024-06-06T20:02:09Z</time></trkpt>
<trkpt lat="36.355754" lon="-118.123463"><ele>3170.6</ele><time>2024-06-06T20:03:57Z</time></trkpt>
<trkpt lat="36.355789" lon="-118.123492"><ele>3170.6</ele><time>2024-06-06T20:04:07Z</time></trkpt>
<trkpt lat="36.355753" lon="-118.123362"><ele>3171.4</ele><time>2024-06-06T20:06:03Z</time></trkpt>
<trkpt lat="36.355829" lon="-118.123510"><ele>3171.0</ele><time>2024-06-06T20:07:55Z</time></trkpt>
<trkpt lat="36.355745" lon="-118.123312"><ele>3170.0</ele><time>2024-06-06T20:10:09Z</time></trkpt>
<trkpt lat="36.355723" lon="-118.123428"><ele>3170.4</ele><time>2024-06-06T20:11:57Z</time></trkpt>
<trkpt lat="36.355775" lon="-118.123393"><ele>3170.4</ele><time>2024-06-06T20:12:03Z</time></trkpt>
<trkpt lat="36.355790" lon="-118.123460"><ele>3171.0</ele><time>2024-06-06T20:13:55Z</time></trkpt>
<trkpt lat="36.355776" lon="-118.123412"><ele>3170.8</ele><time>2024-06-06T20:14:08Z</time></trkpt>
<trkpt lat="36.355896" lon="-118.123389"><ele>3169.6</ele><time>2024-06-06T20:15:55Z</time></trkpt>
<trkpt lat="36.355790" lon="-118.123408"><ele>3169.4</ele><time>2024-06-06T20:16:11Z</time></trkpt>
<trkpt lat="36.355950" lon="-118.123297"><ele>3171.0</ele><time>2024-06-06T20:17:52Z</time></trkpt>
<trkpt lat="36.355718" lon="-118.123410"><ele>3169.4</ele><time>2024-06-06T20:18:12Z</time></trkpt>
<trkpt lat="36.355912" lon="-118.123346"><ele>3168.6</ele><time>2024-06-06T20:19:54Z</time></trkpt>
<trkpt lat="36.355753" lon="-118.123403"><ele>3169.4</ele><time>2024-06-06T20:21:54Z</time></trkpt>
<trkpt lat="36.355802" lon="-118.123429"><ele>3168.8</ele><time>2024-06-06T20:24:01Z</time></trkpt>
<trkpt lat="36.355739" lon="-118.123400"><ele>3168.2</ele><time>2024-06-06T20:27:31Z</time></trkpt>
<trkpt lat="36.355810" lon="-118.123398"><ele>3167.6</ele><time>2024-06-06T20:30:01Z</time></trkpt>
<trkpt lat="36.355763" lon="-118.123439"><ele>3168.4</ele><time>2024-06-06T20:31:52Z</time></trkpt>
<trkpt lat="36.355821" lon="-118.123469"><ele>3169.0</ele><time>2024-06-06T20:33:57Z</time></trkpt>
<trkpt lat="36.355732" lon="-118.123483"><ele>3169.0</ele><time>2024-06-06T20:35:55Z</time></trkpt>
<trkpt lat="36.355816" lon="-118.123377"><ele>3168.8</ele><time>2024-06-06T20:42:00Z</time></trkpt>
<trkpt lat="36.355872" lon="-118.123428"><ele>3167.8</ele><time>2024-06-06T20:42:51Z</time></trkpt>
<trkpt lat="36.355848" lon="-118.123381"><ele>3167.8</ele><time>2024-06-06T20:43:49Z</time></trkpt>
<trkpt lat="36.355780" lon="-118.123390"><ele>3168.2</ele><time>2024-06-06T20:43:57Z</time></trkpt>
<trkpt lat="36.355875" lon="-118.123467"><ele>3166.6</ele><time>2024-06-06T20:45:58Z</time></trkpt>
<trkpt lat="36.355787" lon="-118.123554"><ele>3165.2</ele><time>2024-06-06T20:46:29Z</time></trkpt>
<trkpt lat="36.355769" lon="-118.123386"><ele>3165.4</ele><time>2024-06-06T20:46:35Z</time></trkpt>
<trkpt lat="36.355897" lon="-118.123383"><ele>3166.4</ele><time>2024-06-06T20:52:54Z</time></trkpt>
<trkpt lat="36.355801" lon="-118.123401"><ele>3167.6</ele><time>2024-06-06T20:53:11Z</time></trkpt>
<trkpt lat="36.355887" lon="-118.123489"><ele>3167.0</ele><time>2024-06-06T20:57:10Z</time></trkpt>
<trkpt lat="36.355785" lon="-118.123459"><ele>3166.8</ele><time>2024-06-06T20:59:03Z</time></trkpt>
<trkpt lat="36.355852" lon="-118.123379"><ele>3167.6</ele><time>2024-06-06T21:01:03Z</time></trkpt>
<trkpt lat="36.355751" lon="-118.123448"><ele>3168.6</ele><time>2024-06-06T21:02:54Z</time></trkpt>
<trkpt lat="36.355798" lon="-118.123364"><ele>3169.8</ele><time>2024-06-06T21:03:10Z</time></trkpt>
<trkpt lat="36.355868" lon="-118.123431"><ele>3170.8</ele><time>2024-06-06T21:03:54Z</time></trkpt>
<trkpt lat="36.355782" lon="-118.123420"><ele>3169.2</ele><time>2024-06-06T21:05:11Z</time></trkpt>
<trkpt lat="36.355807" lon="-118.123380"><ele>3171.0</ele><time>2024-06-06T21:06:37Z</time></trkpt>
<trkpt lat="36.355778" lon="-118.123423"><ele>3170.4</ele><time>2024-06-06T21:07:11Z</time></trkpt>
<trkpt lat="36.355846" lon="-118.123422"><ele>3169.8</ele><time>2024-06-06T21:09:50Z</time></trkpt>
<trkpt lat="36.355777" lon="-118.123374"><ele>3167.4</ele><time>2024-06-06T21:10:58Z</time></trkpt>
<trkpt lat="36.355862" lon="-118.123425"><ele>3169.4</ele><time>2024-06-06T21:12:32Z</time></trkpt>
<trkpt lat="36.355739" lon="-118.123468"><ele>3169.2</ele><time>2024-06-06T21:12:57Z</time></trkpt>
<trkpt lat="36.355734" lon="-118.123392"><ele>3169.0</ele><time>2024-06-06T21:13:00Z</time></trkpt>
<trkpt lat="36.355786" lon="-118.123432"><ele>3167.6</ele><time>2024-06-06T21:13:11Z</time></trkpt>
<trkpt lat="36.355879" lon="-118.123380"><ele>3169.6</ele><time>2024-06-06T21:14:12Z</time></trkpt>
<trkpt lat="36.355777" lon="-118.123416"><ele>3171.2</ele><time>2024-06-06T21:17:02Z</time></trkpt>
<trkpt lat="36.356250" lon="-118.124150"><ele>3172.4</ele><time>2024-06-06T21:18:56Z</time></trkpt>
<trkpt lat="36.356256" lon="-118.124380"><ele>3174.0</ele><time>2024-06-06T21:19:11Z</time></trkpt>
<trkpt lat="36.356396" lon="-118.124747"><ele>3175.0</ele><time>2024-06-06T21:19:32Z</time></trkpt>
<trkpt lat="36.356604" lon="-118.125518"><ele>3185.4</ele><time>2024-06-06T21:20:58Z</time></trkpt>
<trkpt lat="36.356692" lon="-118.125641"><ele>3187.6</ele><time>2024-06-06T21:21:13Z</time></trkpt>
<trkpt lat="36.356864" lon="-118.125636"><ele>3191.0</ele><time>2024-06-06T21:21:38Z</time></trkpt>
<trkpt lat="36.357000" lon="-118.125520"><ele>3194.6</ele><time>2024-06-06T21:22:28Z</time></trkpt>
<trkpt lat="36.357115" lon="-118.125112"><ele>3196.6</ele><time>2024-06-06T21:22:54Z</time></trkpt>
<trkpt lat="36.357235" lon="-118.125227"><ele>3198.2</ele><time>2024-06-06T21:23:00Z</time></trkpt>
<trkpt lat="36.357207" lon="-118.125110"><ele>3199.8</ele><time>2024-06-06T21:23:10Z</time></trkpt>
<trkpt lat="36.357619" lon="-118.124409"><ele>3204.4</ele><time>2024-06-06T21:24:22Z</time></trkpt>
<trkpt lat="36.357714" lon="-118.125920"><ele>3223.8</ele><time>2024-06-06T21:26:54Z</time></trkpt>
<trkpt lat="36.357788" lon="-118.125948"><ele>3223.8</ele><time>2024-06-06T21:26:55Z</time></trkpt>
<trkpt lat="36.357746" lon="-118.125870"><ele>3224.4</ele><time>2024-06-06T21:26:58Z</time></trkpt>
<trkpt lat="36.357808" lon="-118.125884"><ele>3225.0</ele><time>2024-06-06T21:27:01Z</time></trkpt>
<trkpt lat="36.357863" lon="-118.125783"><ele>3226.6</ele><time>2024-06-06T21:27:13Z</time></trkpt>
<trkpt lat="36.358160" lon="-118.125802"><ele>3232.2</ele><time>2024-06-06T21:28:04Z</time></trkpt>
<trkpt lat="36.358224" lon="-118.125811"><ele>3240.4</ele><time>2024-06-06T21:28:57Z</time></trkpt>
<trkpt lat="36.358171" lon="-118.125800"><ele>3240.0</ele><time>2024-06-06T21:29:02Z</time></trkpt>
<trkpt lat="36.358234" lon="-118.125787"><ele>3241.6</ele><time>2024-06-06T21:29:07Z</time></trkpt>
<trkpt lat="36.358660" lon="-118.125875"><ele>3244.8</ele><time>2024-06-06T21:29:48Z</time></trkpt>
<trkpt lat="36.359452" lon="-118.125907"><ele>3246.4</ele><time>2024-06-06T21:30:58Z</time></trkpt>
<trkpt lat="36.359987" lon="-118.126353"><ele>3240.2</ele><time>2024-06-06T21:32:18Z</time></trkpt>
<trkpt lat="36.360367" lon="-118.126351"><ele>3237.6</ele><time>2024-06-06T21:32:42Z</time></trkpt>
<trkpt lat="36.360661" lon="-118.126446"><ele>3235.0</ele><time>2024-06-06T21:33:06Z</time></trkpt>
<trkpt lat="36.360763" lon="-118.126582"><ele>3234.8</ele><time>2024-06-06T21:33:16Z</time></trkpt>
<trkpt lat="36.360995" lon="-118.126702"><ele>3237.0</ele><time>2024-06-06T21:33:56Z</time></trkpt>
<trkpt lat="36.361074" lon="-118.126835"><ele>3239.0</ele><time>2024-06-06T21:34:10Z</time></trkpt>
<trkpt lat="36.361505" lon="-118.126528"><ele>3240.4</ele><time>2024-06-06T21:35:05Z</time></trkpt>
<trkpt lat="36.361465" lon="-118.126922"><ele>3239.8</ele><time>2024-06-06T21:36:58Z</time></trkpt>
<trkpt lat="36.361470" lon="-118.126854"><ele>3239.4</ele><time>2024-06-06T21:37:03Z</time></trkpt>
<trkpt lat="36.361739" lon="-118.127201"><ele>3243.8</ele><time>2024-06-06T21:37:52Z</time></trkpt>
<trkpt lat="36.361720" lon="-118.127404"><ele>3243.6</ele><time>2024-06-06T21:38:10Z</time></trkpt>
<trkpt lat="36.362209" lon="-118.127562"><ele>3241.4</ele><time>2024-06-06T21:38:54Z</time></trkpt>
<trkpt lat="36.362170" lon="-118.127470"><ele>3241.0</ele><time>2024-06-06T21:39:00Z</time></trkpt>
<trkpt lat="36.362298" lon="-118.127520"><ele>3240.4</ele><time>2024-06-06T21:39:06Z</time></trkpt>
<trkpt lat="36.362287" lon="-118.127443"><ele>3240.2</ele><time>2024-06-06T21:39:10Z</time></trkpt>
<trkpt lat="36.362345" lon="-118.127447"><ele>3240.8</ele><time>2024-06-06T21:39:20Z</time></trkpt>
<trkpt lat="36.362489" lon="-118.127646"><ele>3237.2</ele><time>2024-06-06T21:39:48Z</time></trkpt>
<trkpt lat="36.362632" lon="-118.128139"><ele>3235.4</ele><time>2024-06-06T21:40:24Z</time></trkpt>
<trkpt lat="36.362712" lon="-118.128858"><ele>3237.0</ele><time>2024-06-06T21:41:02Z</time></trkpt>
<trkpt lat="36.362694" lon="-118.129677"><ele>3237.4</ele><time>2024-06-06T21:41:56Z</time></trkpt>
<trkpt lat="36.363009" lon="-118.130789"><ele>3234.0</ele><time>2024-06-06T21:43:00Z</time></trkpt>
<trkpt lat="36.363064" lon="-118.131218"><ele>3229.6</ele><time>2024-06-06T21:43:29Z</time></trkpt>
<trkpt lat="36.363295" lon="-118.131607"><ele>3227.0</ele><time>2024-06-06T21:44:01Z</time></trkpt>
<trkpt lat="36.364429" lon="-118.131848"><ele>3223.6</ele><time>2024-06-06T21:45:24Z</time></trkpt>
<trkpt lat="36.365293" lon="-118.132169"><ele>3218.0</ele><time>2024-06-06T21:46:30Z</time></trkpt>
<trkpt lat="36.365828" lon="-118.132143"><ele>3217.0</ele><time>2024-06-06T21:47:11Z</time></trkpt>
<trkpt lat="36.367233" lon="-118.132438"><ele>3201.0</ele><time>2024-06-06T21:48:55Z</time></trkpt>
<trkpt lat="36.367445" lon="-118.132407"><ele>3199.4</ele><time>2024-06-06T21:49:13Z</time></trkpt>
<trkpt lat="36.368840" lon="-118.132951"><ele>3185.0</ele><time>2024-06-06T21:50:59Z</time></trkpt>
<trkpt lat="36.369355" lon="-118.133351"><ele>3179.8</ele><time>2024-06-06T21:51:49Z</time></trkpt>
<trkpt lat="36.369475" lon="-118.133389"><ele>3181.0</ele><time>2024-06-06T21:51:57Z</time></trkpt>
<trkpt lat="36.369700" lon="-118.134428"><ele>3177.0</ele><time>2024-06-06T21:53:05Z</time></trkpt>
<trkpt lat="36.369483" lon="-118.135422"><ele>3170.0</ele><time>2024-06-06T21:53:57Z</time></trkpt>
<trkpt lat="36.369231" lon="-118.136109"><ele>3165.2</ele><time>2024-06-06T21:54:49Z</time></trkpt>
<trkpt lat="36.369267" lon="-118.136285"><ele>3164.8</ele><time>2024-06-06T21:54:57Z</time></trkpt>
<trkpt lat="36.369338" lon="-118.136336"><ele>3164.6</ele><time>2024-06-06T21:54:58Z</time></trkpt>
<trkpt lat="36.369313" lon="-118.136212"><ele>3164.4</ele><time>2024-06-06T21:55:00Z</time></trkpt>
<trkpt lat="36.369375" lon="-118.136234"><ele>3164.2</ele><time>2024-06-06T21:55:06Z</time></trkpt>
<trkpt lat="36.369474" lon="-118.136476"><ele>3162.4</ele><time>2024-06-06T21:55:24Z</time></trkpt>
<trkpt lat="36.369772" lon="-118.136851"><ele>3159.4</ele><time>2024-06-06T21:55:53Z</time></trkpt>
<trkpt lat="36.369881" lon="-118.137145"><ele>3159.2</ele><time>2024-06-06T21:56:12Z</time></trkpt>
<trkpt lat="36.369895" lon="-118.137426"><ele>3159.0</ele><time>2024-06-06T21:56:29Z</time></trkpt>
<trkpt lat="36.369847" lon="-118.138279"><ele>3162.2</ele><time>2024-06-06T21:57:25Z</time></trkpt>
<trkpt lat="36.369753" lon="-118.138798"><ele>3163.6</ele><time>2024-06-06T21:57:58Z</time></trkpt>
<trkpt lat="36.369683" lon="-118.138724"><ele>3164.2</ele><time>2024-06-06T21:58:01Z</time></trkpt>
<trkpt lat="36.369654" lon="-118.138791"><ele>3164.4</ele><time>2024-06-06T21:58:06Z</time></trkpt>
<trkpt lat="36.369063" lon="-118.141453"><ele>3176.2</ele><time>2024-06-06T22:01:09Z</time></trkpt>
<trkpt lat="36.369098" lon="-118.142057"><ele>3177.6</ele><time>2024-06-06T22:01:57Z</time></trkpt>
<trkpt lat="36.369492" lon="-118.142864"><ele>3180.8</ele><time>2024-06-06T22:03:13Z</time></trkpt>
<trkpt lat="36.369960" lon="-118.143580"><ele>3181.0</ele><time>2024-06-06T22:03:56Z</time></trkpt>
<trkpt lat="36.371150" lon="-118.144801"><ele>3188.8</ele><time>2024-06-06T22:06:07Z</time></trkpt>
<trkpt lat="36.371372" lon="-118.145103"><ele>3192.6</ele><time>2024-06-06T22:06:35Z</time></trkpt>
<trkpt lat="36.371903" lon="-118.145514"><ele>3193.0</ele><time>2024-06-06T22:07:23Z</time></trkpt>
<trkpt lat="36.372178" lon="-118.145921"><ele>3193.6</ele><time>2024-06-06T22:07:56Z</time></trkpt>
<trkpt lat="36.372184" lon="-118.146014"><ele>3194.0</ele><time>2024-06-06T22:08:06Z</time></trkpt>
<trkpt lat="36.372245" lon="-118.146021"><ele>3194.4</ele><time>2024-06-06T22:08:11Z</time></trkpt>
<trkpt lat="36.372481" lon="-118.146923"><ele>3195.4</ele><time>2024-06-06T22:09:13Z</time></trkpt>
<trkpt lat="36.372556" lon="-118.147922"><ele>3191.4</ele><time>2024-06-06T22:10:14Z</time></trkpt>
<trkpt lat="36.372982" lon="-118.149083"><ele>3194.2</ele><time>2024-06-06T22:11:54Z</time></trkpt>
<trkpt lat="36.373234" lon="-118.149130"><ele>3194.0</ele><time>2024-06-06T22:12:09Z</time></trkpt>
<trkpt lat="36.373389" lon="-118.149440"><ele>3191.2</ele><time>2024-06-06T22:12:29Z</time></trkpt>
<trkpt lat="36.373809" lon="-118.149690"><ele>3186.8</ele><time>2024-06-06T22:13:09Z</time></trkpt>
<trkpt lat="36.373945" lon="-118.149571"><ele>3186.0</ele><time>2024-06-06T22:13:29Z</time></trkpt>
<trkpt lat="36.374478" lon="-118.149671"><ele>3185.2</ele><time>2024-06-06T22:14:08Z</time></trkpt>
<trkpt lat="36.375807" lon="-118.149207"><ele>3189.4</ele><time>2024-06-06T22:16:04Z</time></trkpt>
<trkpt lat="36.376437" lon="-118.149321"><ele>3191.8</ele><time>2024-06-06T22:16:57Z</time></trkpt>
<trkpt lat="36.377176" lon="-118.149625"><ele>3195.2</ele><time>2024-06-06T22:17:58Z</time></trkpt>
<trkpt lat="36.377234" lon="-118.149591"><ele>3195.6</ele><time>2024-06-06T22:18:02Z</time></trkpt>
<trkpt lat="36.377925" lon="-118.149834"><ele>3197.2</ele><time>2024-06-06T22:18:53Z</time></trkpt>
<trkpt lat="36.378581" lon="-118.150277"><ele>3200.8</ele><time>2024-06-06T22:20:00Z</time></trkpt>
<trkpt lat="36.379414" lon="-118.150331"><ele>3201.0</ele><time>2024-06-06T22:21:15Z</time></trkpt>
<trkpt lat="36.379950" lon="-118.150160"><ele>3200.2</ele><time>2024-06-06T22:21:55Z</time></trkpt>
<trkpt lat="36.380173" lon="-118.149897"><ele>3199.0</ele><time>2024-06-06T22:22:13Z</time></trkpt>
<trkpt lat="36.380598" lon="-118.149619"><ele>3197.2</ele><time>2024-06-06T22:22:58Z</time></trkpt>
<trkpt lat="36.381146" lon="-118.149380"><ele>3193.6</ele><time>2024-06-06T22:23:44Z</time></trkpt>
<trkpt lat="36.381652" lon="-118.149212"><ele>3191.8</ele><time>2024-06-06T22:24:12Z</time></trkpt>
<trkpt lat="36.382259" lon="-118.149375"><ele>3186.2</ele><time>2024-06-06T22:25:10Z</time></trkpt>
<trkpt lat="36.382282" lon="-118.149444"><ele>3185.0</ele><time>2024-06-06T22:25:18Z</time></trkpt>
<trkpt lat="36.381939" lon="-118.149732"><ele>3182.0</ele><time>2024-06-06T22:25:58Z</time></trkpt>
<trkpt lat="36.381850" lon="-118.149905"><ele>3180.2</ele><time>2024-06-06T22:26:11Z</time></trkpt>
<trkpt lat="36.381740" lon="-118.150343"><ele>3177.4</ele><time>2024-06-06T22:26:32Z</time></trkpt>
<trkpt lat="36.381755" lon="-118.150669"><ele>3172.0</ele><time>2024-06-06T22:27:14Z</time></trkpt>
<trkpt lat="36.382071" lon="-118.151323"><ele>3165.8</ele><time>2024-06-06T22:27:58Z</time></trkpt>
<trkpt lat="36.382031" lon="-118.151397"><ele>3165.6</ele><time>2024-06-06T22:27:59Z</time></trkpt>
<trkpt lat="36.382378" lon="-118.152040"><ele>3159.0</ele><time>2024-06-06T22:28:44Z</time></trkpt>
<trkpt lat="36.382460" lon="-118.152832"><ele>3152.6</ele><time>2024-06-06T22:29:38Z</time></trkpt>
<trkpt lat="36.382591" lon="-118.153146"><ele>3151.2</ele><time>2024-06-06T22:30:05Z</time></trkpt>
<trkpt lat="36.382740" lon="-118.153395"><ele>3148.8</ele><time>2024-06-06T22:30:20Z</time></trkpt>
<trkpt lat="36.382962" lon="-118.153425"><ele>3146.2</ele><time>2024-06-06T22:30:42Z</time></trkpt>
<trkpt lat="36.383109" lon="-118.153691"><ele>3143.0</ele><time>2024-06-06T22:31:06Z</time></trkpt>
<trkpt lat="36.383402" lon="-118.153919"><ele>3141.6</ele><time>2024-06-06T22:31:30Z</time></trkpt>
<trkpt lat="36.383685" lon="-118.154417"><ele>3137.4</ele><time>2024-06-06T22:31:59Z</time></trkpt>
<trkpt lat="36.383708" lon="-118.154704"><ele>3136.0</ele><time>2024-06-06T22:32:10Z</time></trkpt>
<trkpt lat="36.383596" lon="-118.154791"><ele>3137.2</ele><time>2024-06-06T22:32:40Z</time></trkpt>
<trkpt lat="36.383975" lon="-118.154575"><ele>3135.0</ele><time>2024-06-06T22:34:14Z</time></trkpt>
<trkpt lat="36.383837" lon="-118.154714"><ele>3134.8</ele><time>2024-06-06T22:34:18Z</time></trkpt>
<trkpt lat="36.383854" lon="-118.154608"><ele>3134.4</ele><time>2024-06-06T22:34:22Z</time></trkpt>
<trkpt lat="36.383849" lon="-118.154700"><ele>3134.2</ele><time>2024-06-06T22:34:25Z</time></trkpt>
<trkpt lat="36.383814" lon="-118.154634"><ele>3137.2</ele><time>2024-06-06T22:34:48Z</time></trkpt>
<trkpt lat="36.383818" lon="-118.154773"><ele>3135.0</ele><time>2024-06-06T22:35:13Z</time></trkpt>
<trkpt lat="36.383858" lon="-118.154651"><ele>3137.6</ele><time>2024-06-06T22:36:58Z</time></trkpt>
<trkpt lat="36.383890" lon="-118.154745"><ele>3137.8</ele><time>2024-06-06T22:37:12Z</time></trkpt>
<trkpt lat="36.384037" lon="-118.154696"><ele>3137.0</ele><time>2024-06-06T22:37:46Z</time></trkpt>
<trkpt lat="36.384086" lon="-118.154747"><ele>3138.6</ele><time>2024-06-06T22:38:22Z</time></trkpt>
<trkpt lat="36.384524" lon="-118.154598"><ele>3137.6</ele><time>2024-06-06T22:39:09Z</time></trkpt>
<trkpt lat="36.384618" lon="-118.154872"><ele>3135.8</ele><time>2024-06-06T22:40:10Z</time></trkpt>
<trkpt lat="36.384761" lon="-118.154982"><ele>3134.4</ele><time>2024-06-06T22:40:56Z</time></trkpt>
<trkpt lat="36.384703" lon="-118.154959"><ele>3134.6</ele><time>2024-06-06T22:41:05Z</time></trkpt>
<trkpt lat="36.384745" lon="-118.154820"><ele>3135.0</ele><time>2024-06-06T22:41:13Z</time></trkpt>
<trkpt lat="36.384718" lon="-118.154873"><ele>3134.6</ele><time>2024-06-06T22:41:22Z</time></trkpt>
<trkpt lat="36.384668" lon="-118.154587"><ele>3137.0</ele><time>2024-06-06T22:43:03Z</time></trkpt>
<trkpt lat="36.384763" lon="-118.154602"><ele>3137.4</ele><time>2024-06-06T22:43:07Z</time></trkpt>
<trkpt lat="36.384618" lon="-118.154587"><ele>3136.0</ele><time>2024-06-06T22:43:26Z</time></trkpt>
<trkpt lat="36.384201" lon="-118.154244"><ele>3134.8</ele><time>2024-06-06T22:44:02Z</time></trkpt>
<trkpt lat="36.384082" lon="-118.154245"><ele>3134.4</ele><time>2024-06-06T22:44:14Z</time></trkpt>
<trkpt lat="36.383925" lon="-118.154579"><ele>3134.6</ele><time>2024-06-06T22:44:59Z</time></trkpt>
<trkpt lat="36.383854" lon="-118.154545"><ele>3135.2</ele><time>2024-06-06T22:45:01Z</time></trkpt>
<trkpt lat="36.383880" lon="-118.154493"><ele>3135.8</ele><time>2024-06-06T22:45:07Z</time></trkpt>
<trkpt lat="36.383802" lon="-118.154604"><ele>3135.0</ele><time>2024-06-06T22:45:44Z</time></trkpt>
<trkpt lat="36.384321" lon="-118.153988"><ele>3132.6</ele><time>2024-06-06T22:46:18Z</time></trkpt>
<trkpt lat="36.384765" lon="-118.153623"><ele>3128.0</ele><time>2024-06-06T22:46:52Z</time></trkpt>
<trkpt lat="36.384780" lon="-118.153748"><ele>3125.2</ele><time>2024-06-06T22:47:02Z</time></trkpt>
<trkpt lat="36.384902" lon="-118.153664"><ele>3123.0</ele><time>2024-06-06T22:47:14Z</time></trkpt>
<trkpt lat="36.385245" lon="-118.153080"><ele>3114.0</ele><time>2024-06-06T22:48:11Z</time></trkpt>
<trkpt lat="36.385287" lon="-118.152857"><ele>3111.6</ele><time>2024-06-06T22:48:21Z</time></trkpt>
<trkpt lat="36.385206" lon="-118.152641"><ele>3109.2</ele><time>2024-06-06T22:48:31Z</time></trkpt>
<trkpt lat="36.384712" lon="-118.152470"><ele>3110.2</ele><time>2024-06-06T22:49:13Z</time></trkpt>
<trkpt lat="36.384957" lon="-118.152328"><ele>3107.8</ele><time>2024-06-06T22:50:56Z</time></trkpt>
<trkpt lat="36.385163" lon="-118.152400"><ele>3107.8</ele><time>2024-06-06T22:51:01Z</time></trkpt>
<trkpt lat="36.384842" lon="-118.152207"><ele>3107.6</ele><time>2024-06-06T22:51:05Z</time></trkpt>
<trkpt lat="36.384725" lon="-118.152223"><ele>3107.8</ele><time>2024-06-06T22:51:12Z</time></trkpt>
<trkpt lat="36.384813" lon="-118.152375"><ele>3110.8</ele><time>2024-06-06T22:52:56Z</time></trkpt>
<trkpt lat="36.384767" lon="-118.152561"><ele>3112.0</ele><time>2024-06-06T22:53:02Z</time></trkpt>
<trkpt lat="36.384727" lon="-118.152486"><ele>3113.0</ele><time>2024-06-06T22:53:06Z</time></trkpt>
<trkpt lat="36.384629" lon="-118.152937"><ele>3116.0</ele><time>2024-06-06T22:53:46Z</time></trkpt>
<trkpt lat="36.384510" lon="-118.152980"><ele>3117.8</ele><time>2024-06-06T22:53:56Z</time></trkpt>
<trkpt lat="36.384570" lon="-118.153131"><ele>3124.8</ele><time>2024-06-06T22:54:28Z</time></trkpt>
<trkpt lat="36.384319" lon="-118.153750"><ele>3128.0</ele><time>2024-06-06T22:55:06Z</time></trkpt>
<trkpt lat="36.384330" lon="-118.153835"><ele>3128.0</ele><time>2024-06-06T22:55:13Z</time></trkpt>
<trkpt lat="36.383868" lon="-118.154724"><ele>3137.0</ele><time>2024-06-06T22:56:52Z</time></trkpt>
<trkpt lat="36.383836" lon="-118.154695"><ele>3137.6</ele><time>2024-06-06T22:56:59Z</time></trkpt>
<trkpt lat="36.383772" lon="-118.154813"><ele>3137.2</ele><time>2024-06-06T22:59:10Z</time></trkpt>
<trkpt lat="36.383502" lon="-118.154867"><ele>3136.6</ele><time>2024-06-06T23:01:01Z</time></trkpt>
<trkpt lat="36.383794" lon="-118.154639"><ele>3136.2</ele><time>2024-06-06T23:01:03Z</time></trkpt>
<trkpt lat="36.383936" lon="-118.154685"><ele>3136.2</ele><time>2024-06-06T23:03:16Z</time></trkpt>
<trkpt lat="36.383945" lon="-118.154540"><ele>3135.4</ele><time>2024-06-06T23:04:58Z</time></trkpt>
<trkpt lat="36.383837" lon="-118.154583"><ele>3135.4</ele><time>2024-06-06T23:05:03Z</time></trkpt>
<trkpt lat="36.383819" lon="-118.154721"><ele>3136.2</ele><time>2024-06-06T23:05:11Z</time></trkpt>
<trkpt lat="36.383890" lon="-118.154664"><ele>3135.8</ele><time>2024-06-06T23:06:55Z</time></trkpt>
<trkpt lat="36.383845" lon="-118.154627"><ele>3136.2</ele><time>2024-06-06T23:07:00Z</time></trkpt>
<trkpt lat="36.383799" lon="-118.154702"><ele>3135.8</ele><time>2024-06-06T23:07:14Z</time></trkpt>
<trkpt lat="36.383742" lon="-118.154642"><ele>3136.2</ele><time>2024-06-06T23:09:07Z</time></trkpt>
<trkpt lat="36.383821" lon="-118.154765"><ele>3136.0</ele><time>2024-06-06T23:09:12Z</time></trkpt>
<trkpt lat="36.383800" lon="-118.154693"><ele>3135.8</ele><time>2024-06-06T23:09:15Z</time></trkpt>
<trkpt lat="36.383758" lon="-118.154789"><ele>3135.2</ele><time>2024-06-06T23:10:44Z</time></trkpt>
<trkpt lat="36.383792" lon="-118.154703"><ele>3134.8</ele><time>2024-06-06T23:11:09Z</time></trkpt>
<trkpt lat="36.383753" lon="-118.154667"><ele>3134.4</ele><time>2024-06-06T23:11:17Z</time></trkpt>
<trkpt lat="36.383861" lon="-118.154763"><ele>3134.0</ele><time>2024-06-06T23:11:41Z</time></trkpt>
<trkpt lat="36.383799" lon="-118.154691"><ele>3134.2</ele><time>2024-06-06T23:13:35Z</time></trkpt>
<trkpt lat="36.383817" lon="-118.154752"><ele>3134.0</ele><time>2024-06-06T23:13:39Z</time></trkpt>
<trkpt lat="36.383638" lon="-118.154916"><ele>3134.6</ele><time>2024-06-06T23:15:30Z</time></trkpt>
<trkpt lat="36.383807" lon="-118.154972"><ele>3135.0</ele><time>2024-06-06T23:15:44Z</time></trkpt>
<trkpt lat="36.383894" lon="-118.154725"><ele>3135.6</ele><time>2024-06-06T23:17:27Z</time></trkpt>
<trkpt lat="36.383789" lon="-118.154653"><ele>3135.0</ele><time>2024-06-06T23:17:41Z</time></trkpt>
<trkpt lat="36.383846" lon="-118.154820"><ele>3135.2</ele><time>2024-06-06T23:18:41Z</time></trkpt>
<trkpt lat="36.383822" lon="-118.154975"><ele>3135.0</ele><time>2024-06-06T23:19:27Z</time></trkpt>
<trkpt lat="36.383928" lon="-118.154962"><ele>3135.0</ele><time>2024-06-06T23:19:29Z</time></trkpt>
<trkpt lat="36.383729" lon="-118.154953"><ele>3133.8</ele><time>2024-06-06T23:19:46Z</time></trkpt>
<trkpt lat="36.383702" lon="-118.154858"><ele>3136.0</ele><time>2024-06-06T23:21:58Z</time></trkpt>
<trkpt lat="36.383849" lon="-118.154762"><ele>3135.8</ele><time>2024-06-06T23:22:08Z</time></trkpt>
<trkpt lat="36.383885" lon="-118.154625"><ele>3136.0</ele><time>2024-06-06T23:23:58Z</time></trkpt>
<trkpt lat="36.383735" lon="-118.154653"><ele>3135.8</ele><time>2024-06-06T23:24:07Z</time></trkpt>
<trkpt lat="36.383864" lon="-118.154647"><ele>3135.2</ele><time>2024-06-06T23:24:14Z</time></trkpt>
<trkpt lat="36.383802" lon="-118.154761"><ele>3134.6</ele><time>2024-06-06T23:26:09Z</time></trkpt>
<trkpt lat="36.383911" lon="-118.154793"><ele>3135.8</ele><time>2024-06-06T23:27:31Z</time></trkpt>
<trkpt lat="36.383884" lon="-118.154739"><ele>3134.8</ele><time>2024-06-06T23:28:02Z</time></trkpt>
<trkpt lat="36.383759" lon="-118.154806"><ele>3135.2</ele><time>2024-06-06T23:28:15Z</time></trkpt>
<trkpt lat="36.383803" lon="-118.154695"><ele>3135.0</ele><time>2024-06-06T23:30:09Z</time></trkpt>
<trkpt lat="36.383892" lon="-118.154706"><ele>3133.6</ele><time>2024-06-06T23:32:13Z</time></trkpt>
<trkpt lat="36.383787" lon="-118.154730"><ele>3134.4</ele><time>2024-06-06T23:34:07Z</time></trkpt>
<trkpt lat="36.383805" lon="-118.154653"><ele>3134.2</ele><time>2024-06-06T23:34:14Z</time></trkpt>
<trkpt lat="36.383888" lon="-118.154738"><ele>3133.0</ele><time>2024-06-06T23:36:11Z</time></trkpt>
<trkpt lat="36.383787" lon="-118.154680"><ele>3132.0</ele><time>2024-06-06T23:37:31Z</time></trkpt>
<trkpt lat="36.383822" lon="-118.154777"><ele>3132.8</ele><time>2024-06-06T23:38:08Z</time></trkpt>
<trkpt lat="36.383814" lon="-118.154690"><ele>3132.8</ele><time>2024-06-06T23:40:03Z</time></trkpt>
<trkpt lat="36.383852" lon="-118.154739"><ele>3132.2</ele><time>2024-06-06T23:42:12Z</time></trkpt>
<trkpt lat="36.383752" lon="-118.154766"><ele>3132.0</ele><time>2024-06-06T23:44:03Z</time></trkpt>
<trkpt lat="36.383788" lon="-118.154800"><ele>3132.0</ele><time>2024-06-06T23:44:13Z</time></trkpt>
<trkpt lat="36.383896" lon="-118.154703"><ele>3133.6</ele><time>2024-06-06T23:45:57Z</time></trkpt>
<trkpt lat="36.383762" lon="-118.154691"><ele>3134.8</ele><time>2024-06-06T23:47:01Z</time></trkpt>
<trkpt lat="36.383829" lon="-118.154738"><ele>3133.8</ele><time>2024-06-06T23:48:01Z</time></trkpt>
<trkpt lat="36.383853" lon="-118.154691"><ele>3133.6</ele><time>2024-06-06T23:48:03Z</time></trkpt>
<trkpt lat="36.383805" lon="-118.154741"><ele>3132.8</ele><time>2024-06-06T23:48:16Z</time></trkpt>
<trkpt lat="36.384011" lon="-118.155504"><ele>3133.2</ele><time>2024-06-06T23:49:45Z</time></trkpt>
<trkpt lat="36.384291" lon="-118.155869"><ele>3131.4</ele><time>2024-06-06T23:50:01Z</time></trkpt>
<trkpt lat="36.384455" lon="-118.155936"><ele>3130.8</ele><time>2024-06-06T23:50:15Z</time></trkpt>
<trkpt lat="36.384925" lon="-118.156615"><ele>3129.0</ele><time>2024-06-06T23:51:09Z</time></trkpt>
<trkpt lat="36.385432" lon="-118.157192"><ele>3124.2</ele><time>2024-06-06T23:52:01Z</time></trkpt>
<trkpt lat="36.385412" lon="-118.157299"><ele>3122.8</ele><time>2024-06-06T23:52:06Z</time></trkpt>
<trkpt lat="36.385866" lon="-118.157845"><ele>3117.4</ele><time>2024-06-06T23:52:55Z</time></trkpt>
<trkpt lat="36.386105" lon="-118.158441"><ele>3110.8</ele><time>2024-06-06T23:53:45Z</time></trkpt>
<trkpt lat="36.386379" lon="-118.158747"><ele>3107.4</ele><time>2024-06-06T23:54:10Z</time></trkpt>
<trkpt lat="36.387838" lon="-118.159170"><ele>3103.0</ele><time>2024-06-06T23:56:06Z</time></trkpt>
<trkpt lat="36.388461" lon="-118.159813"><ele>3097.2</ele><time>2024-06-06T23:57:08Z</time></trkpt>
<trkpt lat="36.388803" lon="-118.159991"><ele>3095.2</ele><time>2024-06-06T23:57:40Z</time></trkpt>
<trkpt lat="36.389034" lon="-118.160332"><ele>3094.8</ele><time>2024-06-06T23:58:01Z</time></trkpt>
<trkpt lat="36.389128" lon="-118.160353"><ele>3094.8</ele><time>2024-06-06T23:58:07Z</time></trkpt>
<trkpt lat="36.389156" lon="-118.160445"><ele>3095.0</ele><time>2024-06-06T23:58:13Z</time></trkpt>
<trkpt lat="36.390442" lon="-118.161701"><ele>3092.4</ele><time>2024-06-07T00:00:16Z</time></trkpt>
<trkpt lat="36.391770" lon="-118.161994"><ele>3092.2</ele><time>2024-06-07T00:01:59Z</time></trkpt>
<trkpt lat="36.393245" lon="-118.161345"><ele>3092.6</ele><time>2024-06-07T00:03:57Z</time></trkpt>
<trkpt lat="36.393751" lon="-118.161189"><ele>3091.0</ele><time>2024-06-07T00:04:34Z</time></trkpt>
<trkpt lat="36.394837" lon="-118.161162"><ele>3083.4</ele><time>2024-06-07T00:05:58Z</time></trkpt>
<trkpt lat="36.395075" lon="-118.161256"><ele>3083.2</ele><time>2024-06-07T00:06:13Z</time></trkpt>
<trkpt lat="36.395678" lon="-118.161014"><ele>3085.6</ele><time>2024-06-07T00:07:08Z</time></trkpt>
<trkpt lat="36.396274" lon="-118.160559"><ele>3087.2</ele><time>2024-06-07T00:07:59Z</time></trkpt>
<trkpt lat="36.396624" lon="-118.160513"><ele>3088.6</ele><time>2024-06-07T00:08:26Z</time></trkpt>
<trkpt lat="36.396798" lon="-118.160413"><ele>3089.0</ele><time>2024-06-07T00:08:40Z</time></trkpt>
<trkpt lat="36.397205" lon="-118.159546"><ele>3085.4</ele><time>2024-06-07T00:09:40Z</time></trkpt>
<trkpt lat="36.397248" lon="-118.159342"><ele>3085.8</ele><time>2024-06-07T00:09:57Z</time></trkpt>
<trkpt lat="36.397219" lon="-118.158957"><ele>3084.4</ele><time>2024-06-07T00:10:14Z</time></trkpt>
<trkpt lat="36.397354" lon="-118.158649"><ele>3083.4</ele><time>2024-06-07T00:10:30Z</time></trkpt>
<trkpt lat="36.397757" lon="-118.158126"><ele>3083.6</ele><time>2024-06-07T00:11:34Z</time></trkpt>
<trkpt lat="36.397967" lon="-118.157590"><ele>3084.0</ele><time>2024-06-07T00:11:57Z</time></trkpt>
<trkpt lat="36.397926" lon="-118.157519"><ele>3084.0</ele><time>2024-06-07T00:12:01Z</time></trkpt>
<trkpt lat="36.398018" lon="-118.156709"><ele>3087.0</ele><time>2024-06-07T00:12:42Z</time></trkpt>
<trkpt lat="36.397990" lon="-118.155469"><ele>3086.8</ele><time>2024-06-07T00:14:08Z</time></trkpt>
<trkpt lat="36.398182" lon="-118.153633"><ele>3081.6</ele><time>2024-06-07T00:16:03Z</time></trkpt>
<trkpt lat="36.398491" lon="-118.153091"><ele>3078.2</ele><time>2024-06-07T00:16:46Z</time></trkpt>
<trkpt lat="36.399038" lon="-118.152857"><ele>3071.4</ele><time>2024-06-07T00:17:24Z</time></trkpt>
<trkpt lat="36.399383" lon="-118.152490"><ele>3069.2</ele><time>2024-06-07T00:17:59Z</time></trkpt>
<trkpt lat="36.399417" lon="-118.152188"><ele>3067.2</ele><time>2024-06-07T00:18:18Z</time></trkpt>
<trkpt lat="36.399988" lon="-118.151540"><ele>3060.6</ele><time>2024-06-07T00:19:23Z</time></trkpt>
<trkpt lat="36.400228" lon="-118.151464"><ele>3058.2</ele><time>2024-06-07T00:19:41Z</time></trkpt>
<trkpt lat="36.400495" lon="-118.151520"><ele>3055.4</ele><time>2024-06-07T00:19:59Z</time></trkpt>
<trkpt lat="36.400555" lon="-118.151469"><ele>3055.0</ele><time>2024-06-07T00:20:03Z</time></trkpt>
<trkpt lat="36.400653" lon="-118.151046"><ele>3053.6</ele><time>2024-06-07T00:20:38Z</time></trkpt>
<trkpt lat="36.400583" lon="-118.150734"><ele>3051.8</ele><time>2024-06-07T00:20:56Z</time></trkpt>
<trkpt lat="36.400632" lon="-118.150325"><ele>3049.6</ele><time>2024-06-07T00:21:18Z</time></trkpt>
<trkpt lat="36.400569" lon="-118.149752"><ele>3043.6</ele><time>2024-06-07T00:21:59Z</time></trkpt>
<trkpt lat="36.400727" lon="-118.149778"><ele>3044.0</ele><time>2024-06-07T00:22:08Z</time></trkpt>
<trkpt lat="36.400723" lon="-118.149724"><ele>3043.4</ele><time>2024-06-07T00:22:12Z</time></trkpt>
<trkpt lat="36.401561" lon="-118.149412"><ele>3037.2</ele><time>2024-06-07T00:23:06Z</time></trkpt>
<trkpt lat="36.402288" lon="-118.149196"><ele>3033.4</ele><time>2024-06-07T00:24:15Z</time></trkpt>
<trkpt lat="36.402930" lon="-118.148636"><ele>3029.6</ele><time>2024-06-07T00:24:50Z</time></trkpt>
<trkpt lat="36.403427" lon="-118.148276"><ele>3021.6</ele><time>2024-06-07T00:25:57Z</time></trkpt>
<trkpt lat="36.403418" lon="-118.148325"><ele>3021.0</ele><time>2024-06-07T00:26:00Z</time></trkpt>
<trkpt lat="36.403476" lon="-118.148148"><ele>3020.4</ele><time>2024-06-07T00:26:03Z</time></trkpt>
<trkpt lat="36.403609" lon="-118.148124"><ele>3019.6</ele><time>2024-06-07T00:26:06Z</time></trkpt>
<trkpt lat="36.403558" lon="-118.148093"><ele>3019.4</ele><time>2024-06-07T00:26:14Z</time></trkpt>
<trkpt lat="36.403944" lon="-118.148292"><ele>3016.6</ele><time>2024-06-07T00:26:50Z</time></trkpt>
<trkpt lat="36.404192" lon="-118.148820"><ele>3012.8</ele><time>2024-06-07T00:27:24Z</time></trkpt>
<trkpt lat="36.404322" lon="-118.149275"><ele>3009.6</ele><time>2024-06-07T00:27:52Z</time></trkpt>
<trkpt lat="36.404411" lon="-118.149301"><ele>3008.6</ele><time>2024-06-07T00:27:58Z</time></trkpt>
<trkpt lat="36.404352" lon="-118.149447"><ele>3007.6</ele><time>2024-06-07T00:28:05Z</time></trkpt>
<trkpt lat="36.404427" lon="-118.149507"><ele>3006.8</ele><time>2024-06-07T00:28:11Z</time></trkpt>
<trkpt lat="36.404731" lon="-118.149494"><ele>3004.0</ele><time>2024-06-07T00:28:30Z</time></trkpt>
<trkpt lat="36.405287" lon="-118.149344"><ele>2996.4</ele><time>2024-06-07T00:29:28Z</time></trkpt>
<trkpt lat="36.405729" lon="-118.149660"><ele>2993.8</ele><time>2024-06-07T00:29:58Z</time></trkpt>
<trkpt lat="36.405727" lon="-118.149853"><ele>2993.0</ele><time>2024-06-07T00:30:11Z</time></trkpt>
<trkpt lat="36.405936" lon="-118.150144"><ele>2992.8</ele><time>2024-06-07T00:30:31Z</time></trkpt>
<trkpt lat="36.406233" lon="-118.150226"><ele>2991.0</ele><time>2024-06-07T00:31:05Z</time></trkpt>
<trkpt lat="36.406632" lon="-118.150225"><ele>2987.4</ele><time>2024-06-07T00:31:31Z</time></trkpt>
<trkpt lat="36.406988" lon="-118.150442"><ele>2985.2</ele><time>2024-06-07T00:32:00Z</time></trkpt>
<trkpt lat="36.407486" lon="-118.150479"><ele>2981.8</ele><time>2024-06-07T00:32:33Z</time></trkpt>
<trkpt lat="36.407973" lon="-118.150666"><ele>2983.8</ele><time>2024-06-07T00:33:27Z</time></trkpt>
<trkpt lat="36.408321" lon="-118.150549"><ele>2985.8</ele><time>2024-06-07T00:33:58Z</time></trkpt>
<trkpt lat="36.408467" lon="-118.149007"><ele>2983.0</ele><time>2024-06-07T00:35:33Z</time></trkpt>
<trkpt lat="36.408633" lon="-118.148523"><ele>2981.4</ele><time>2024-06-07T00:36:03Z</time></trkpt>
<trkpt lat="36.408616" lon="-118.148233"><ele>2980.6</ele><time>2024-06-07T00:36:16Z</time></trkpt>
<trkpt lat="36.408777" lon="-118.147925"><ele>2981.8</ele><time>2024-06-07T00:36:41Z</time></trkpt>
<trkpt lat="36.409526" lon="-118.146997"><ele>2978.6</ele><time>2024-06-07T00:37:58Z</time></trkpt>
<trkpt lat="36.409496" lon="-118.146699"><ele>2977.8</ele><time>2024-06-07T00:38:08Z</time></trkpt>
<trkpt lat="36.409931" lon="-118.145449"><ele>2973.2</ele><time>2024-06-07T00:39:41Z</time></trkpt>
<trkpt lat="36.410181" lon="-118.144965"><ele>2971.8</ele><time>2024-06-07T00:40:04Z</time></trkpt>
<trkpt lat="36.410172" lon="-118.144852"><ele>2971.6</ele><time>2024-06-07T00:40:10Z</time></trkpt>
<trkpt lat="36.410510" lon="-118.143901"><ele>2970.6</ele><time>2024-06-07T00:41:21Z</time></trkpt>
<trkpt lat="36.410472" lon="-118.143126"><ele>2968.8</ele><time>2024-06-07T00:42:00Z</time></trkpt>
<trkpt lat="36.410528" lon="-118.143107"><ele>2968.6</ele><time>2024-06-07T00:42:03Z</time></trkpt>
<trkpt lat="36.410470" lon="-118.142877"><ele>2968.6</ele><time>2024-06-07T00:42:15Z</time></trkpt>
<trkpt lat="36.410885" lon="-118.142368"><ele>2966.8</ele><time>2024-06-07T00:43:16Z</time></trkpt>
<trkpt lat="36.412251" lon="-118.141653"><ele>2957.6</ele><time>2024-06-07T00:44:43Z</time></trkpt>
<trkpt lat="36.412538" lon="-118.141146"><ele>2956.6</ele><time>2024-06-07T00:45:31Z</time></trkpt>
<trkpt lat="36.412898" lon="-118.140887"><ele>2955.4</ele><time>2024-06-07T00:46:00Z</time></trkpt>
<trkpt lat="36.412828" lon="-118.140710"><ele>2954.6</ele><time>2024-06-07T00:46:09Z</time></trkpt>
<trkpt lat="36.412950" lon="-118.139823"><ele>2955.4</ele><time>2024-06-07T00:47:05Z</time></trkpt>
<trkpt lat="36.412968" lon="-118.139263"><ele>2956.8</ele><time>2024-06-07T00:47:59Z</time></trkpt>
<trkpt lat="36.413037" lon="-118.139312"><ele>2957.2</ele><time>2024-06-07T00:48:05Z</time></trkpt>
<trkpt lat="36.413483" lon="-118.138639"><ele>2956.4</ele><time>2024-06-07T00:49:15Z</time></trkpt>
<trkpt lat="36.414278" lon="-118.138741"><ele>2956.0</ele><time>2024-06-07T00:50:19Z</time></trkpt>
<trkpt lat="36.415391" lon="-118.138686"><ele>2962.4</ele><time>2024-06-07T00:52:05Z</time></trkpt>
<trkpt lat="36.416309" lon="-118.138907"><ele>2959.0</ele><time>2024-06-07T00:53:21Z</time></trkpt>
<trkpt lat="36.416553" lon="-118.138870"><ele>2957.6</ele><time>2024-06-07T00:53:45Z</time></trkpt>
<trkpt lat="36.416634" lon="-118.138968"><ele>2957.2</ele><time>2024-06-07T00:56:03Z</time></trkpt>
<trkpt lat="36.418136" lon="-118.139068"><ele>2959.6</ele><time>2024-06-07T00:58:06Z</time></trkpt>
<trkpt lat="36.418662" lon="-118.139570"><ele>2962.2</ele><time>2024-06-07T00:58:55Z</time></trkpt>
<trkpt lat="36.419118" lon="-118.140141"><ele>2966.2</ele><time>2024-06-07T00:59:59Z</time></trkpt>
<trkpt lat="36.419749" lon="-118.140977"><ele>2968.0</ele><time>2024-06-07T01:01:09Z</time></trkpt>
<trkpt lat="36.420054" lon="-118.141468"><ele>2974.2</ele><time>2024-06-07T01:02:03Z</time></trkpt>
<trkpt lat="36.420163" lon="-118.141730"><ele>2973.2</ele><time>2024-06-07T01:02:19Z</time></trkpt>
<trkpt lat="36.420340" lon="-118.141852"><ele>2972.8</ele><time>2024-06-07T01:02:31Z</time></trkpt>
<trkpt lat="36.420508" lon="-118.141882"><ele>2976.8</ele><time>2024-06-07T01:03:03Z</time></trkpt>
<trkpt lat="36.420658" lon="-118.142607"><ele>2982.8</ele><time>2024-06-07T01:04:03Z</time></trkpt>
<trkpt lat="36.420912" lon="-118.143091"><ele>2988.0</ele><time>2024-06-07T01:04:45Z</time></trkpt>
<trkpt lat="36.421503" lon="-118.143746"><ele>2991.0</ele><time>2024-06-07T01:06:01Z</time></trkpt>
<trkpt lat="36.421563" lon="-118.143898"><ele>2990.8</ele><time>2024-06-07T01:06:07Z</time></trkpt>
<trkpt lat="36.421739" lon="-118.144039"><ele>2989.4</ele><time>2024-06-07T01:06:21Z</time></trkpt>
<trkpt lat="36.422007" lon="-118.144459"><ele>2988.0</ele><time>2024-06-07T01:06:59Z</time></trkpt>
<trkpt lat="36.422385" lon="-118.145323"><ele>2990.8</ele><time>2024-06-07T01:08:17Z</time></trkpt>
<trkpt lat="36.422908" lon="-118.145838"><ele>2992.6</ele><time>2024-06-07T01:09:00Z</time></trkpt>
<trkpt lat="36.423506" lon="-118.146303"><ele>2999.2</ele><time>2024-06-07T01:10:15Z</time></trkpt>
<trkpt lat="36.424201" lon="-118.147119"><ele>3002.0</ele><time>2024-06-07T01:12:02Z</time></trkpt>
<trkpt lat="36.424246" lon="-118.147215"><ele>3003.4</ele><time>2024-06-07T01:12:10Z</time></trkpt>
<trkpt lat="36.424216" lon="-118.147304"><ele>3004.8</ele><time>2024-06-07T01:12:17Z</time></trkpt>
<trkpt lat="36.424371" lon="-118.147485"><ele>3006.4</ele><time>2024-06-07T01:12:30Z</time></trkpt>
<trkpt lat="36.424530" lon="-118.147577"><ele>3012.4</ele><time>2024-06-07T01:13:10Z</time></trkpt>
<trkpt lat="36.425040" lon="-118.147795"><ele>3018.4</ele><time>2024-06-07T01:14:00Z</time></trkpt>
<trkpt lat="36.424914" lon="-118.147692"><ele>3018.6</ele><time>2024-06-07T01:14:02Z</time></trkpt>
<trkpt lat="36.424926" lon="-118.147618"><ele>3019.2</ele><time>2024-06-07T01:14:08Z</time></trkpt>
<trkpt lat="36.426027" lon="-118.147844"><ele>3029.8</ele><time>2024-06-07T01:16:01Z</time></trkpt>
<trkpt lat="36.426144" lon="-118.147629"><ele>3031.0</ele><time>2024-06-07T01:16:19Z</time></trkpt>
<trkpt lat="36.427094" lon="-118.146939"><ele>3040.0</ele><time>2024-06-07T01:17:59Z</time></trkpt>
<trkpt lat="36.427170" lon="-118.147051"><ele>3040.0</ele><time>2024-06-07T01:18:00Z</time></trkpt>
<trkpt lat="36.427032" lon="-118.147006"><ele>3040.8</ele><time>2024-06-07T01:18:13Z</time></trkpt>
<trkpt lat="36.427339" lon="-118.147370"><ele>3043.0</ele><time>2024-06-07T01:19:24Z</time></trkpt>
<trkpt lat="36.427394" lon="-118.147584"><ele>3044.2</ele><time>2024-06-07T01:19:34Z</time></trkpt>
<trkpt lat="36.427764" lon="-118.147975"><ele>3041.4</ele><time>2024-06-07T01:20:02Z</time></trkpt>
<trkpt lat="36.427816" lon="-118.147900"><ele>3040.8</ele><time>2024-06-07T01:20:08Z</time></trkpt>
<trkpt lat="36.428196" lon="-118.147796"><ele>3037.4</ele><time>2024-06-07T01:20:33Z</time></trkpt>
<trkpt lat="36.428475" lon="-118.147791"><ele>3036.2</ele><time>2024-06-07T01:20:53Z</time></trkpt>
<trkpt lat="36.428674" lon="-118.147598"><ele>3033.2</ele><time>2024-06-07T01:22:08Z</time></trkpt>
<trkpt lat="36.428490" lon="-118.147379"><ele>3032.0</ele><time>2024-06-07T01:22:21Z</time></trkpt>
<trkpt lat="36.427930" lon="-118.147153"><ele>3032.2</ele><time>2024-06-07T01:22:43Z</time></trkpt>
<trkpt lat="36.427170" lon="-118.146506"><ele>3031.0</ele><time>2024-06-07T01:23:59Z</time></trkpt>
<trkpt lat="36.428666" lon="-118.146969"><ele>3031.0</ele><time>2024-06-07T01:24:04Z</time></trkpt>
<trkpt lat="36.428650" lon="-118.147025"><ele>3031.6</ele><time>2024-06-07T01:24:13Z</time></trkpt>
<trkpt lat="36.428583" lon="-118.146962"><ele>3029.8</ele><time>2024-06-07T01:25:46Z</time></trkpt>
<trkpt lat="36.428674" lon="-118.146952"><ele>3029.8</ele><time>2024-06-07T01:26:00Z</time></trkpt>
<trkpt lat="36.428606" lon="-118.147035"><ele>3029.8</ele><time>2024-06-07T01:26:14Z</time></trkpt>
<trkpt lat="36.428647" lon="-118.146923"><ele>3030.6</ele><time>2024-06-07T01:27:59Z</time></trkpt>
<trkpt lat="36.428638" lon="-118.147000"><ele>3030.2</ele><time>2024-06-07T01:30:04Z</time></trkpt>
<trkpt lat="36.428695" lon="-118.146935"><ele>3031.4</ele><time>2024-06-07T01:32:09Z</time></trkpt>
<trkpt lat="36.428496" lon="-118.147828"><ele>3037.8</ele><time>2024-06-07T01:33:59Z</time></trkpt>
<trkpt lat="36.428590" lon="-118.147659"><ele>3038.0</ele><time>2024-06-07T01:34:03Z</time></trkpt>
<trkpt lat="36.428636" lon="-118.147700"><ele>3038.4</ele><time>2024-06-07T01:34:17Z</time></trkpt>
<trkpt lat="36.428533" lon="-118.147622"><ele>3037.8</ele><time>2024-06-07T01:36:02Z</time></trkpt>
<trkpt lat="36.428535" lon="-118.147698"><ele>3038.4</ele><time>2024-06-07T01:36:16Z</time></trkpt>
<trkpt lat="36.429398" lon="-118.146853"><ele>3039.0</ele><time>2024-06-07T01:38:03Z</time></trkpt>
<trkpt lat="36.429466" lon="-118.146589"><ele>3039.0</ele><time>2024-06-07T01:38:04Z</time></trkpt>
<trkpt lat="36.429099" lon="-118.147403"><ele>3039.0</ele><time>2024-06-07T01:38:07Z</time></trkpt>
<trkpt lat="36.429428" lon="-118.146787"><ele>3039.0</ele><time>2024-06-07T01:38:08Z</time></trkpt>
<trkpt lat="36.429072" lon="-118.147562"><ele>3039.0</ele><time>2024-06-07T01:38:10Z</time></trkpt>
<trkpt lat="36.429006" lon="-118.147629"><ele>3039.0</ele><time>2024-06-07T01:38:11Z</time></trkpt>
<trkpt lat="36.428734" lon="-118.147609"><ele>3039.0</ele><time>2024-06-07T01:38:16Z</time></trkpt>
<trkpt lat="36.428887" lon="-118.147556"><ele>3038.8</ele><time>2024-06-07T01:38:18Z</time></trkpt>
<trkpt lat="36.428635" lon="-118.147765"><ele>3038.2</ele><time>2024-06-07T01:40:06Z</time></trkpt>
<trkpt lat="36.428665" lon="-118.147823"><ele>3038.2</ele><time>2024-06-07T01:40:20Z</time></trkpt>
<trkpt lat="36.429194" lon="-118.147121"><ele>3036.0</ele><time>2024-06-07T01:43:43Z</time></trkpt>
</trkseg></trk>
</gpx>
