<?xml version="1.0" encoding="UTF-8"?>
<gpx version="1.1" creator="Eric Sichak trip reports" xmlns="http://www.topografix.com/GPX/1/1">
<metadata><name>Morning Hike</name><time>2024-06-19T13:19:24Z</time></metadata>
<trk><name>Morning Hike</name><type>hike</type><trkseg>
<trkpt lat="37.563643" lon="-119.034251"><ele>2776.6</ele><time>2024-06-19T13:19:24Z</time></trkpt>
<trkpt lat="37.563599" lon="-119.034422"><ele>2777.4</ele><time>2024-06-19T13:21:46Z</time></trkpt>
<trkpt lat="37.563553" lon="-119.034349"><ele>2777.0</ele><time>2024-06-19T13:21:55Z</time></trkpt>
<trkpt lat="37.563567" lon="-119.034410"><ele>2777.0</ele><time>2024-06-19T13:21:57Z</time></trkpt>
<trkpt lat="37.564000" lon="-119.033732"><ele>2778.0</ele><time>2024-06-19T13:23:43Z</time></trkpt>
<trkpt lat="37.564171" lon="-119.033913"><ele>2778.0</ele><time>2024-06-19T13:23:44Z</time></trkpt>
<trkpt lat="37.563670" lon="-119.034279"><ele>2778.2</ele><time>2024-06-19T13:23:49Z</time></trkpt>
<trkpt lat="37.563568" lon="-119.034276"><ele>2778.2</ele><time>2024-06-19T13:23:54Z</time></trkpt>
<trkpt lat="37.563698" lon="-119.034325"><ele>2779.4</ele><time>2024-06-19T13:24:54Z</time></trkpt>
<trkpt lat="37.563949" lon="-119.034610"><ele>2780.2</ele><time>2024-06-19T13:25:22Z</time></trkpt>
<trkpt lat="37.564178" lon="-119.035008"><ele>2782.4</ele><time>2024-06-19T13:25:49Z</time></trkpt>
<trkpt lat="37.563948" lon="-119.036204"><ele>2784.6</ele><time>2024-06-19T13:27:10Z</time></trkpt>
<trkpt lat="37.563739" lon="-119.036905"><ele>2784.6</ele><time>2024-06-19T13:27:43Z</time></trkpt>
<trkpt lat="37.563883" lon="-119.036930"><ele>2785.0</ele><time>2024-06-19T13:27:54Z</time></trkpt>
<trkpt lat="37.563655" lon="-119.037997"><ele>2786.6</ele><time>2024-06-19T13:29:12Z</time></trkpt>
<trkpt lat="37.563699" lon="-119.038482"><ele>2789.2</ele><time>2024-06-19T13:29:45Z</time></trkpt>
<trkpt lat="37.563842" lon="-119.038687"><ele>2790.0</ele><time>2024-06-19T13:30:02Z</time></trkpt>
<trkpt lat="37.564486" lon="-119.038917"><ele>2798.8</ele><time>2024-06-19T13:31:06Z</time></trkpt>
<trkpt lat="37.565085" lon="-119.039004"><ele>2803.4</ele><time>2024-06-19T13:31:43Z</time></trkpt>
<trkpt lat="37.564891" lon="-119.039213"><ele>2803.6</ele><time>2024-06-19T13:31:45Z</time></trkpt>
<trkpt lat="37.564964" lon="-119.039315"><ele>2805.4</ele><time>2024-06-19T13:31:57Z</time></trkpt>
<trkpt lat="37.565922" lon="-119.039360"><ele>2808.6</ele><time>2024-06-19T13:33:26Z</time></trkpt>
<trkpt lat="37.566219" lon="-119.039452"><ele>2808.0</ele><time>2024-06-19T13:33:44Z</time></trkpt>
<trkpt lat="37.566447" lon="-119.039305"><ele>2807.6</ele><time>2024-06-19T13:33:48Z</time></trkpt>
<trkpt lat="37.566902" lon="-119.039668"><ele>2805.0</ele><time>2024-06-19T13:34:24Z</time></trkpt>
<trkpt lat="37.567294" lon="-119.040083"><ele>2804.2</ele><time>2024-06-19T13:35:16Z</time></trkpt>
<trkpt lat="37.567794" lon="-119.040272"><ele>2803.6</ele><time>2024-06-19T13:35:43Z</time></trkpt>
<trkpt lat="37.568706" lon="-119.040447"><ele>2801.6</ele><time>2024-06-19T13:36:51Z</time></trkpt>
<trkpt lat="37.569365" lon="-119.040377"><ele>2803.8</ele><time>2024-06-19T13:37:51Z</time></trkpt>
<trkpt lat="37.570415" lon="-119.039866"><ele>2806.4</ele><time>2024-06-19T13:39:09Z</time></trkpt>
<trkpt lat="37.571183" lon="-119.039586"><ele>2805.8</ele><time>2024-06-19T13:40:02Z</time></trkpt>
<trkpt lat="37.571821" lon="-119.039666"><ele>2805.4</ele><time>2024-06-19T13:40:43Z</time></trkpt>
<trkpt lat="37.572428" lon="-119.039847"><ele>2810.2</ele><time>2024-06-19T13:41:57Z</time></trkpt>
<trkpt lat="37.572994" lon="-119.040233"><ele>2809.8</ele><time>2024-06-19T13:42:51Z</time></trkpt>
<trkpt lat="37.573417" lon="-119.040954"><ele>2808.4</ele><time>2024-06-19T13:43:44Z</time></trkpt>
<trkpt lat="37.573771" lon="-119.041412"><ele>2810.4</ele><time>2024-06-19T13:44:15Z</time></trkpt>
<trkpt lat="37.574168" lon="-119.042213"><ele>2804.4</ele><time>2024-06-19T13:45:07Z</time></trkpt>
<trkpt lat="37.574300" lon="-119.042683"><ele>2802.6</ele><time>2024-06-19T13:45:46Z</time></trkpt>
<trkpt lat="37.574249" lon="-119.042734"><ele>2802.2</ele><time>2024-06-19T13:45:50Z</time></trkpt>
<trkpt lat="37.574331" lon="-119.042799"><ele>2803.8</ele><time>2024-06-19T13:45:59Z</time></trkpt>
<trkpt lat="37.574377" lon="-119.043450"><ele>2801.2</ele><time>2024-06-19T13:46:39Z</time></trkpt>
<trkpt lat="37.574949" lon="-119.044333"><ele>2795.8</ele><time>2024-06-19T13:47:47Z</time></trkpt>
<trkpt lat="37.576163" lon="-119.045193"><ele>2792.6</ele><time>2024-06-19T13:49:34Z</time></trkpt>
<trkpt lat="37.577092" lon="-119.045654"><ele>2786.0</ele><time>2024-06-19T13:50:47Z</time></trkpt>
<trkpt lat="37.578492" lon="-119.045772"><ele>2781.0</ele><time>2024-06-19T13:52:19Z</time></trkpt>
<trkpt lat="37.579052" lon="-119.045877"><ele>2779.0</ele><time>2024-06-19T13:53:05Z</time></trkpt>
<trkpt lat="37.579390" lon="-119.046023"><ele>2774.0</ele><time>2024-06-19T13:53:47Z</time></trkpt>
<trkpt lat="37.579426" lon="-119.046617"><ele>2773.4</ele><time>2024-06-19T13:54:25Z</time></trkpt>
<trkpt lat="37.579750" lon="-119.047153"><ele>2768.8</ele><time>2024-06-19T13:55:03Z</time></trkpt>
<trkpt lat="37.580346" lon="-119.047599"><ele>2763.4</ele><time>2024-06-19T13:55:51Z</time></trkpt>
<trkpt lat="37.581293" lon="-119.048106"><ele>2751.4</ele><time>2024-06-19T13:57:14Z</time></trkpt>
<trkpt lat="37.581511" lon="-119.048396"><ele>2747.0</ele><time>2024-06-19T13:57:45Z</time></trkpt>
<trkpt lat="37.581793" lon="-119.048315"><ele>2742.4</ele><time>2024-06-19T13:58:12Z</time></trkpt>
<trkpt lat="37.581793" lon="-119.048477"><ele>2740.2</ele><time>2024-06-19T13:58:24Z</time></trkpt>
<trkpt lat="37.581677" lon="-119.048661"><ele>2738.2</ele><time>2024-06-19T13:58:40Z</time></trkpt>
<trkpt lat="37.582004" lon="-119.048825"><ele>2733.8</ele><time>2024-06-19T13:59:18Z</time></trkpt>
<trkpt lat="37.582049" lon="-119.048994"><ele>2731.6</ele><time>2024-06-19T13:59:34Z</time></trkpt>
<trkpt lat="37.582153" lon="-119.049025"><ele>2729.8</ele><time>2024-06-19T13:59:44Z</time></trkpt>
<trkpt lat="37.582170" lon="-119.048963"><ele>2729.6</ele><time>2024-06-19T13:59:46Z</time></trkpt>
<trkpt lat="37.582256" lon="-119.049189"><ele>2727.6</ele><time>2024-06-19T14:00:01Z</time></trkpt>
<trkpt lat="37.582645" lon="-119.049323"><ele>2726.4</ele><time>2024-06-19T14:00:23Z</time></trkpt>
<trkpt lat="37.582918" lon="-119.049493"><ele>2730.0</ele><time>2024-06-19T14:01:01Z</time></trkpt>
<trkpt lat="37.583282" lon="-119.049331"><ele>2730.4</ele><time>2024-06-19T14:01:33Z</time></trkpt>
<trkpt lat="37.583523" lon="-119.049406"><ele>2728.8</ele><time>2024-06-19T14:01:45Z</time></trkpt>
<trkpt lat="37.583555" lon="-119.049541"><ele>2728.2</ele><time>2024-06-19T14:01:55Z</time></trkpt>
<trkpt lat="37.584503" lon="-119.049975"><ele>2723.8</ele><time>2024-06-19T14:03:09Z</time></trkpt>
<trkpt lat="37.584895" lon="-119.050332"><ele>2719.8</ele><time>2024-06-19T14:03:46Z</time></trkpt>
<trkpt lat="37.584962" lon="-119.050536"><ele>2719.4</ele><time>2024-06-19T14:03:57Z</time></trkpt>
<trkpt lat="37.585360" lon="-119.051064"><ele>2718.6</ele><time>2024-06-19T14:04:29Z</time></trkpt>
<trkpt lat="37.585644" lon="-119.051319"><ele>2720.2</ele><time>2024-06-19T14:05:09Z</time></trkpt>
<trkpt lat="37.586128" lon="-119.051443"><ele>2715.2</ele><time>2024-06-19T14:05:47Z</time></trkpt>
<trkpt lat="37.586185" lon="-119.051405"><ele>2715.4</ele><time>2024-06-19T14:05:51Z</time></trkpt>
<trkpt lat="37.586222" lon="-119.051579"><ele>2716.8</ele><time>2024-06-19T14:06:01Z</time></trkpt>
<trkpt lat="37.586421" lon="-119.051501"><ele>2721.0</ele><time>2024-06-19T14:06:34Z</time></trkpt>
<trkpt lat="37.586570" lon="-119.051349"><ele>2727.0</ele><time>2024-06-19T14:07:18Z</time></trkpt>
<trkpt lat="37.586677" lon="-119.051151"><ele>2729.2</ele><time>2024-06-19T14:07:36Z</time></trkpt>
<trkpt lat="37.586916" lon="-119.050930"><ele>2730.0</ele><time>2024-06-19T14:07:54Z</time></trkpt>
<trkpt lat="37.587010" lon="-119.050516"><ele>2732.2</ele><time>2024-06-19T14:08:24Z</time></trkpt>
<trkpt lat="37.587159" lon="-119.050318"><ele>2740.0</ele><time>2024-06-19T14:09:20Z</time></trkpt>
<trkpt lat="37.587334" lon="-119.050014"><ele>2741.2</ele><time>2024-06-19T14:09:45Z</time></trkpt>
<trkpt lat="37.587259" lon="-119.049732"><ele>2744.0</ele><time>2024-06-19T14:10:05Z</time></trkpt>
<trkpt lat="37.587556" lon="-119.049571"><ele>2753.6</ele><time>2024-06-19T14:11:08Z</time></trkpt>
<trkpt lat="37.587689" lon="-119.049277"><ele>2758.0</ele><time>2024-06-19T14:11:36Z</time></trkpt>
<trkpt lat="37.587973" lon="-119.049007"><ele>2761.0</ele><time>2024-06-19T14:11:56Z</time></trkpt>
<trkpt lat="37.587959" lon="-119.048918"><ele>2761.2</ele><time>2024-06-19T14:12:34Z</time></trkpt>
<trkpt lat="37.588028" lon="-119.048878"><ele>2760.6</ele><time>2024-06-19T14:12:58Z</time></trkpt>
<trkpt lat="37.587905" lon="-119.048771"><ele>2761.6</ele><time>2024-06-19T14:13:46Z</time></trkpt>
<trkpt lat="37.587892" lon="-119.048589"><ele>2763.2</ele><time>2024-06-19T14:13:59Z</time></trkpt>
<trkpt lat="37.588536" lon="-119.047144"><ele>2774.4</ele><time>2024-06-19T14:15:56Z</time></trkpt>
<trkpt lat="37.588852" lon="-119.047118"><ele>2775.6</ele><time>2024-06-19T14:16:26Z</time></trkpt>
<trkpt lat="37.589287" lon="-119.047217"><ele>2769.8</ele><time>2024-06-19T14:17:12Z</time></trkpt>
<trkpt lat="37.589546" lon="-119.047071"><ele>2767.0</ele><time>2024-06-19T14:17:46Z</time></trkpt>
<trkpt lat="37.589611" lon="-119.046857"><ele>2765.6</ele><time>2024-06-19T14:17:55Z</time></trkpt>
<trkpt lat="37.589577" lon="-119.046252"><ele>2762.8</ele><time>2024-06-19T14:18:24Z</time></trkpt>
<trkpt lat="37.589627" lon="-119.046017"><ele>2761.8</ele><time>2024-06-19T14:18:36Z</time></trkpt>
<trkpt lat="37.589673" lon="-119.045985"><ele>2755.4</ele><time>2024-06-19T14:19:28Z</time></trkpt>
<trkpt lat="37.589892" lon="-119.045543"><ele>2751.4</ele><time>2024-06-19T14:19:59Z</time></trkpt>
<trkpt lat="37.590769" lon="-119.045067"><ele>2747.8</ele><time>2024-06-19T14:21:28Z</time></trkpt>
<trkpt lat="37.591122" lon="-119.045054"><ele>2746.8</ele><time>2024-06-19T14:21:49Z</time></trkpt>
<trkpt lat="37.591342" lon="-119.045142"><ele>2744.0</ele><time>2024-06-19T14:22:05Z</time></trkpt>
<trkpt lat="37.591787" lon="-119.044882"><ele>2740.8</ele><time>2024-06-19T14:22:28Z</time></trkpt>
<trkpt lat="37.592248" lon="-119.044815"><ele>2741.4</ele><time>2024-06-19T14:23:22Z</time></trkpt>
<trkpt lat="37.592363" lon="-119.044739"><ele>2743.8</ele><time>2024-06-19T14:23:38Z</time></trkpt>
<trkpt lat="37.592961" lon="-119.044770"><ele>2752.8</ele><time>2024-06-19T14:24:30Z</time></trkpt>
<trkpt lat="37.593112" lon="-119.044676"><ele>2761.4</ele><time>2024-06-19T14:25:24Z</time></trkpt>
<trkpt lat="37.593643" lon="-119.044757"><ele>2771.4</ele><time>2024-06-19T14:26:12Z</time></trkpt>
<trkpt lat="37.593982" lon="-119.044966"><ele>2779.6</ele><time>2024-06-19T14:27:46Z</time></trkpt>
<trkpt lat="37.593955" lon="-119.044858"><ele>2779.6</ele><time>2024-06-19T14:27:52Z</time></trkpt>
<trkpt lat="37.593976" lon="-119.044915"><ele>2779.4</ele><time>2024-06-19T14:28:05Z</time></trkpt>
<trkpt lat="37.594481" lon="-119.044925"><ele>2774.6</ele><time>2024-06-19T14:29:51Z</time></trkpt>
<trkpt lat="37.594639" lon="-119.045069"><ele>2771.8</ele><time>2024-06-19T14:30:06Z</time></trkpt>
<trkpt lat="37.595319" lon="-119.045084"><ele>2767.8</ele><time>2024-06-19T14:30:58Z</time></trkpt>
<trkpt lat="37.595773" lon="-119.045288"><ele>2767.6</ele><time>2024-06-19T14:31:45Z</time></trkpt>
<trkpt lat="37.595939" lon="-119.045415"><ele>2767.0</ele><time>2024-06-19T14:32:00Z</time></trkpt>
<trkpt lat="37.596203" lon="-119.046031"><ele>2763.8</ele><time>2024-06-19T14:32:30Z</time></trkpt>
<trkpt lat="37.596631" lon="-119.046275"><ele>2763.4</ele><time>2024-06-19T14:33:24Z</time></trkpt>
<trkpt lat="37.596961" lon="-119.046564"><ele>2763.4</ele><time>2024-06-19T14:33:45Z</time></trkpt>
<trkpt lat="37.597917" lon="-119.047780"><ele>2768.0</ele><time>2024-06-19T14:35:47Z</time></trkpt>
<trkpt lat="37.598041" lon="-119.047799"><ele>2768.4</ele><time>2024-06-19T14:35:56Z</time></trkpt>
<trkpt lat="37.598209" lon="-119.048053"><ele>2768.4</ele><time>2024-06-19T14:36:14Z</time></trkpt>
<trkpt lat="37.598609" lon="-119.048329"><ele>2770.4</ele><time>2024-06-19T14:36:46Z</time></trkpt>
<trkpt lat="37.598723" lon="-119.048480"><ele>2771.6</ele><time>2024-06-19T14:36:58Z</time></trkpt>
<trkpt lat="37.598942" lon="-119.049180"><ele>2770.6</ele><time>2024-06-19T14:37:48Z</time></trkpt>
<trkpt lat="37.599885" lon="-119.049617"><ele>2759.2</ele><time>2024-06-19T14:39:05Z</time></trkpt>
<trkpt lat="37.600272" lon="-119.049541"><ele>2750.4</ele><time>2024-06-19T14:39:45Z</time></trkpt>
<trkpt lat="37.600703" lon="-119.049097"><ele>2743.4</ele><time>2024-06-19T14:40:17Z</time></trkpt>
<trkpt lat="37.601002" lon="-119.048988"><ele>2739.0</ele><time>2024-06-19T14:40:41Z</time></trkpt>
<trkpt lat="37.601794" lon="-119.049058"><ele>2733.8</ele><time>2024-06-19T14:41:47Z</time></trkpt>
<trkpt lat="37.602045" lon="-119.049202"><ele>2732.4</ele><time>2024-06-19T14:42:05Z</time></trkpt>
<trkpt lat="37.602451" lon="-119.049142"><ele>2733.6</ele><time>2024-06-19T14:42:31Z</time></trkpt>
<trkpt lat="37.603136" lon="-119.048933"><ele>2737.8</ele><time>2024-06-19T14:43:37Z</time></trkpt>
<trkpt lat="37.603671" lon="-119.048852"><ele>2741.2</ele><time>2024-06-19T14:44:15Z</time></trkpt>
<trkpt lat="37.605406" lon="-119.048122"><ele>2749.0</ele><time>2024-06-19T14:46:39Z</time></trkpt>
<trkpt lat="37.605946" lon="-119.047556"><ele>2758.8</ele><time>2024-06-19T14:47:50Z</time></trkpt>
<trkpt lat="37.606020" lon="-119.047567"><ele>2760.0</ele><time>2024-06-19T14:47:55Z</time></trkpt>
<trkpt lat="37.606103" lon="-119.047389"><ele>2763.0</ele><time>2024-06-19T14:48:09Z</time></trkpt>
<trkpt lat="37.606374" lon="-119.047126"><ele>2773.8</ele><time>2024-06-19T14:49:13Z</time></trkpt>
<trkpt lat="37.606714" lon="-119.046620"><ele>2780.0</ele><time>2024-06-19T14:49:51Z</time></trkpt>
<trkpt lat="37.606808" lon="-119.046575"><ele>2780.4</ele><time>2024-06-19T14:50:02Z</time></trkpt>
<trkpt lat="37.606952" lon="-119.046652"><ele>2779.4</ele><time>2024-06-19T14:51:55Z</time></trkpt>
<trkpt lat="37.607043" lon="-119.046330"><ele>2783.6</ele><time>2024-06-19T14:53:35Z</time></trkpt>
<trkpt lat="37.607298" lon="-119.046128"><ele>2785.8</ele><time>2024-06-19T14:53:58Z</time></trkpt>
<trkpt lat="37.607653" lon="-119.045497"><ele>2790.8</ele><time>2024-06-19T14:54:37Z</time></trkpt>
<trkpt lat="37.607843" lon="-119.045161"><ele>2801.0</ele><time>2024-06-19T14:55:39Z</time></trkpt>
<trkpt lat="37.608051" lon="-119.044844"><ele>2800.6</ele><time>2024-06-19T14:55:53Z</time></trkpt>
<trkpt lat="37.608059" lon="-119.044624"><ele>2801.0</ele><time>2024-06-19T14:56:03Z</time></trkpt>
<trkpt lat="37.608274" lon="-119.043826"><ele>2812.4</ele><time>2024-06-19T14:57:13Z</time></trkpt>
<trkpt lat="37.608485" lon="-119.043340"><ele>2810.8</ele><time>2024-06-19T14:57:47Z</time></trkpt>
<trkpt lat="37.608619" lon="-119.042450"><ele>2813.6</ele><time>2024-06-19T14:58:57Z</time></trkpt>
<trkpt lat="37.608733" lon="-119.042175"><ele>2814.6</ele><time>2024-06-19T14:59:13Z</time></trkpt>
<trkpt lat="37.608683" lon="-119.041444"><ele>2820.6</ele><time>2024-06-19T14:59:49Z</time></trkpt>
<trkpt lat="37.608533" lon="-119.041289"><ele>2821.6</ele><time>2024-06-19T15:00:02Z</time></trkpt>
<trkpt lat="37.608518" lon="-119.040973"><ele>2819.4</ele><time>2024-06-19T15:00:17Z</time></trkpt>
<trkpt lat="37.608586" lon="-119.040485"><ele>2819.2</ele><time>2024-06-19T15:00:43Z</time></trkpt>
<trkpt lat="37.608413" lon="-119.040032"><ele>2821.6</ele><time>2024-06-19T15:01:11Z</time></trkpt>
<trkpt lat="37.608349" lon="-119.039679"><ele>2828.0</ele><time>2024-06-19T15:01:47Z</time></trkpt>
<trkpt lat="37.608440" lon="-119.039532"><ele>2828.0</ele><time>2024-06-19T15:01:59Z</time></trkpt>
<trkpt lat="37.608708" lon="-119.038520"><ele>2840.8</ele><time>2024-06-19T15:03:25Z</time></trkpt>
<trkpt lat="37.608874" lon="-119.038022"><ele>2841.4</ele><time>2024-06-19T15:03:48Z</time></trkpt>
<trkpt lat="37.608856" lon="-119.037767"><ele>2842.4</ele><time>2024-06-19T15:04:01Z</time></trkpt>
<trkpt lat="37.609128" lon="-119.035893"><ele>2846.0</ele><time>2024-06-19T15:05:46Z</time></trkpt>
<trkpt lat="37.609065" lon="-119.035956"><ele>2846.0</ele><time>2024-06-19T15:05:49Z</time></trkpt>
<trkpt lat="37.608856" lon="-119.035682"><ele>2846.6</ele><time>2024-06-19T15:06:17Z</time></trkpt>
<trkpt lat="37.608763" lon="-119.034753"><ele>2850.8</ele><time>2024-06-19T15:07:11Z</time></trkpt>
<trkpt lat="37.608575" lon="-119.033634"><ele>2851.0</ele><time>2024-06-19T15:08:17Z</time></trkpt>
<trkpt lat="37.608607" lon="-119.032523"><ele>2840.8</ele><time>2024-06-19T15:09:21Z</time></trkpt>
<trkpt lat="37.608567" lon="-119.031453"><ele>2840.8</ele><time>2024-06-19T15:10:47Z</time></trkpt>
<trkpt lat="37.608622" lon="-119.031167"><ele>2840.8</ele><time>2024-06-19T15:11:07Z</time></trkpt>
<trkpt lat="37.608996" lon="-119.030506"><ele>2840.4</ele><time>2024-06-19T15:12:09Z</time></trkpt>
<trkpt lat="37.609266" lon="-119.029863"><ele>2839.2</ele><time>2024-06-19T15:12:47Z</time></trkpt>
<trkpt lat="37.609256" lon="-119.029753"><ele>2839.4</ele><time>2024-06-19T15:12:54Z</time></trkpt>
<trkpt lat="37.609171" lon="-119.029753"><ele>2839.0</ele><time>2024-06-19T15:13:02Z</time></trkpt>
<trkpt lat="37.609184" lon="-119.029636"><ele>2838.2</ele><time>2024-06-19T15:13:20Z</time></trkpt>
<trkpt lat="37.609538" lon="-119.028496"><ele>2836.2</ele><time>2024-06-19T15:14:48Z</time></trkpt>
<trkpt lat="37.609784" lon="-119.028091"><ele>2825.0</ele><time>2024-06-19T15:15:30Z</time></trkpt>
<trkpt lat="37.610478" lon="-119.027390"><ele>2811.8</ele><time>2024-06-19T15:16:50Z</time></trkpt>
<trkpt lat="37.610446" lon="-119.027258"><ele>2811.2</ele><time>2024-06-19T15:16:56Z</time></trkpt>
<trkpt lat="37.610919" lon="-119.027090"><ele>2806.6</ele><time>2024-06-19T15:17:36Z</time></trkpt>
<trkpt lat="37.611274" lon="-119.027165"><ele>2804.2</ele><time>2024-06-19T15:18:02Z</time></trkpt>
<trkpt lat="37.611361" lon="-119.027109"><ele>2802.0</ele><time>2024-06-19T15:18:12Z</time></trkpt>
<trkpt lat="37.611831" lon="-119.027088"><ele>2799.8</ele><time>2024-06-19T15:18:47Z</time></trkpt>
<trkpt lat="37.611910" lon="-119.026885"><ele>2798.8</ele><time>2024-06-19T15:18:55Z</time></trkpt>
<trkpt lat="37.611811" lon="-119.026696"><ele>2798.8</ele><time>2024-06-19T15:19:02Z</time></trkpt>
<trkpt lat="37.611887" lon="-119.026671"><ele>2797.4</ele><time>2024-06-19T15:19:10Z</time></trkpt>
<trkpt lat="37.612392" lon="-119.025263"><ele>2787.6</ele><time>2024-06-19T15:20:53Z</time></trkpt>
<trkpt lat="37.612343" lon="-119.024738"><ele>2783.6</ele><time>2024-06-19T15:21:19Z</time></trkpt>
<trkpt lat="37.612406" lon="-119.024227"><ele>2776.4</ele><time>2024-06-19T15:22:01Z</time></trkpt>
<trkpt lat="37.612348" lon="-119.023836"><ele>2771.8</ele><time>2024-06-19T15:22:27Z</time></trkpt>
<trkpt lat="37.612373" lon="-119.023554"><ele>2768.4</ele><time>2024-06-19T15:22:50Z</time></trkpt>
<trkpt lat="37.612680" lon="-119.023375"><ele>2768.0</ele><time>2024-06-19T15:22:51Z</time></trkpt>
<trkpt lat="37.612542" lon="-119.023337"><ele>2767.8</ele><time>2024-06-19T15:23:05Z</time></trkpt>
<trkpt lat="37.613038" lon="-119.022836"><ele>2760.2</ele><time>2024-06-19T15:23:51Z</time></trkpt>
<trkpt lat="37.612995" lon="-119.022187"><ele>2753.4</ele><time>2024-06-19T15:24:31Z</time></trkpt>
<trkpt lat="37.612950" lon="-119.021973"><ele>2745.8</ele><time>2024-06-19T15:24:57Z</time></trkpt>
<trkpt lat="37.613037" lon="-119.021885"><ele>2743.8</ele><time>2024-06-19T15:25:09Z</time></trkpt>
<trkpt lat="37.613052" lon="-119.021708"><ele>2742.4</ele><time>2024-06-19T15:25:19Z</time></trkpt>
<trkpt lat="37.612947" lon="-119.021519"><ele>2741.6</ele><time>2024-06-19T15:25:26Z</time></trkpt>
<trkpt lat="37.612870" lon="-119.021091"><ele>2739.0</ele><time>2024-06-19T15:26:16Z</time></trkpt>
<trkpt lat="37.613087" lon="-119.021388"><ele>2739.4</ele><time>2024-06-19T15:27:45Z</time></trkpt>
<trkpt lat="37.612901" lon="-119.021171"><ele>2739.4</ele><time>2024-06-19T15:28:00Z</time></trkpt>
<trkpt lat="37.612976" lon="-119.021084"><ele>2741.0</ele><time>2024-06-19T15:29:00Z</time></trkpt>
<trkpt lat="37.612901" lon="-119.021163"><ele>2741.6</ele><time>2024-06-19T15:30:05Z</time></trkpt>
<trkpt lat="37.612825" lon="-119.021079"><ele>2740.2</ele><time>2024-06-19T15:31:46Z</time></trkpt>
<trkpt lat="37.612884" lon="-119.021271"><ele>2740.2</ele><time>2024-06-19T15:31:53Z</time></trkpt>
<trkpt lat="37.612828" lon="-119.021291"><ele>2741.2</ele><time>2024-06-19T15:32:05Z</time></trkpt>
<trkpt lat="37.612845" lon="-119.021031"><ele>2740.2</ele><time>2024-06-19T15:33:47Z</time></trkpt>
<trkpt lat="37.612887" lon="-119.021179"><ele>2739.8</ele><time>2024-06-19T15:34:00Z</time></trkpt>
<trkpt lat="37.612978" lon="-119.021233"><ele>2740.0</ele><time>2024-06-19T15:35:50Z</time></trkpt>
<trkpt lat="37.612890" lon="-119.021164"><ele>2740.2</ele><time>2024-06-19T15:36:04Z</time></trkpt>
<trkpt lat="37.641131" lon="-118.966012"><ele>2399.2</ele><time>2024-06-19T16:59:41Z</time></trkpt>
<trkpt lat="37.641295" lon="-118.966247"><ele>2399.2</ele><time>2024-06-19T17:01:11Z</time></trkpt>
<trkpt lat="37.641062" lon="-118.966365"><ele>2398.8</ele><time>2024-06-19T17:02:02Z</time></trkpt>
<trkpt lat="37.641013" lon="-118.965848"><ele>2402.4</ele><time>2024-06-19T17:04:09Z</time></trkpt>
<trkpt lat="37.640946" lon="-118.965794"><ele>2402.0</ele><time>2024-06-19T17:04:27Z</time></trkpt>
<trkpt lat="37.641048" lon="-118.965862"><ele>2402.0</ele><time>2024-06-19T17:04:29Z</time></trkpt>
<trkpt lat="37.640982" lon="-118.965799"><ele>2402.0</ele><time>2024-06-19T17:04:30Z</time></trkpt>
<trkpt lat="37.640728" lon="-118.966051"><ele>2402.2</ele><time>2024-06-19T17:07:09Z</time></trkpt>
<trkpt lat="37.640837" lon="-118.966094"><ele>2401.8</ele><time>2024-06-19T17:07:46Z</time></trkpt>
<trkpt lat="37.640739" lon="-118.965999"><ele>2401.6</ele><time>2024-06-19T17:07:58Z</time></trkpt>
<trkpt lat="37.640859" lon="-118.966037"><ele>2401.2</ele><time>2024-06-19T17:08:09Z</time></trkpt>
<trkpt lat="37.640669" lon="-118.966082"><ele>2401.4</ele><time>2024-06-19T17:08:46Z</time></trkpt>
<trkpt lat="37.640846" lon="-118.966029"><ele>2402.0</ele><time>2024-06-19T17:08:57Z</time></trkpt>
<trkpt lat="37.640991" lon="-118.965731"><ele>2402.2</ele><time>2024-06-19T17:11:44Z</time></trkpt>
<trkpt lat="37.640979" lon="-118.965821"><ele>2402.2</ele><time>2024-06-19T17:11:49Z</time></trkpt>
<trkpt lat="37.640930" lon="-118.965784"><ele>2402.4</ele><time>2024-06-19T17:12:03Z</time></trkpt>
<trkpt lat="37.641000" lon="-118.966416"><ele>2402.6</ele><time>2024-06-19T17:14:02Z</time></trkpt>
<trkpt lat="37.641441" lon="-118.965797"><ele>2402.0</ele><time>2024-06-19T17:16:49Z</time></trkpt>
<trkpt lat="37.640896" lon="-118.965923"><ele>2402.0</ele><time>2024-06-19T17:16:51Z</time></trkpt>
<trkpt lat="37.640906" lon="-118.966027"><ele>2402.2</ele><time>2024-06-19T17:16:59Z</time></trkpt>
<trkpt lat="37.640975" lon="-118.965958"><ele>2402.4</ele><time>2024-06-19T17:18:50Z</time></trkpt>
<trkpt lat="37.640929" lon="-118.965883"><ele>2402.2</ele><time>2024-06-19T17:19:01Z</time></trkpt>
<trkpt lat="37.641019" lon="-118.965859"><ele>2401.6</ele><time>2024-06-19T17:19:07Z</time></trkpt>
<trkpt lat="37.640961" lon="-118.965840"><ele>2401.6</ele><time>2024-06-19T17:19:12Z</time></trkpt>
<trkpt lat="37.641050" lon="-118.965675"><ele>2403.0</ele><time>2024-06-19T17:20:03Z</time></trkpt>
<trkpt lat="37.640812" lon="-118.965794"><ele>2401.0</ele><time>2024-06-19T17:25:14Z</time></trkpt>
<trkpt lat="37.640960" lon="-118.965875"><ele>2400.8</ele><time>2024-06-19T17:25:27Z</time></trkpt>
<trkpt lat="37.640964" lon="-118.965717"><ele>2400.6</ele><time>2024-06-19T17:27:29Z</time></trkpt>
<trkpt lat="37.640984" lon="-118.965936"><ele>2401.4</ele><time>2024-06-19T17:29:30Z</time></trkpt>
<trkpt lat="37.640967" lon="-118.965849"><ele>2401.4</ele><time>2024-06-19T17:31:21Z</time></trkpt>
<trkpt lat="37.641086" lon="-118.965940"><ele>2402.0</ele><time>2024-06-19T17:31:27Z</time></trkpt>
<trkpt lat="37.640848" lon="-118.965810"><ele>2402.0</ele><time>2024-06-19T17:31:33Z</time></trkpt>
<trkpt lat="37.641033" lon="-118.965976"><ele>2401.8</ele><time>2024-06-19T17:34:31Z</time></trkpt>
<trkpt lat="37.640935" lon="-118.965966"><ele>2401.0</ele><time>2024-06-19T17:36:28Z</time></trkpt>
<trkpt lat="37.640938" lon="-118.966026"><ele>2401.0</ele><time>2024-06-19T17:36:30Z</time></trkpt>
<trkpt lat="37.640905" lon="-118.965670"><ele>2402.0</ele><time>2024-06-19T17:38:38Z</time></trkpt>
<trkpt lat="37.640978" lon="-118.965715"><ele>2401.8</ele><time>2024-06-19T17:38:41Z</time></trkpt>
<trkpt lat="37.641080" lon="-118.966094"><ele>2402.6</ele><time>2024-06-19T17:38:58Z</time></trkpt>
<trkpt lat="37.640873" lon="-118.965754"><ele>2402.6</ele><time>2024-06-19T17:41:04Z</time></trkpt>
<trkpt lat="37.640967" lon="-118.965874"><ele>2402.8</ele><time>2024-06-19T17:41:43Z</time></trkpt>
<trkpt lat="37.640943" lon="-118.965836"><ele>2402.8</ele><time>2024-06-19T17:41:51Z</time></trkpt>
<trkpt lat="37.640995" lon="-118.965813"><ele>2402.4</ele><time>2024-06-19T17:43:55Z</time></trkpt>
<trkpt lat="37.640987" lon="-118.966033"><ele>2402.4</ele><time>2024-06-19T17:44:27Z</time></trkpt>
<trkpt lat="37.641117" lon="-118.966164"><ele>2402.6</ele><time>2024-06-19T17:45:59Z</time></trkpt>
<trkpt lat="37.640919" lon="-118.965898"><ele>2403.0</ele><time>2024-06-19T17:49:56Z</time></trkpt>
<trkpt lat="37.640967" lon="-118.965669"><ele>2402.6</ele><time>2024-06-19T17:52:15Z</time></trkpt>
<trkpt lat="37.640971" lon="-118.965897"><ele>2401.6</ele><time>2024-06-19T17:54:04Z</time></trkpt>
<trkpt lat="37.641066" lon="-118.966167"><ele>2401.8</ele><time>2024-06-19T17:55:41Z</time></trkpt>
<trkpt lat="37.641010" lon="-118.966137"><ele>2401.8</ele><time>2024-06-19T17:55:51Z</time></trkpt>
<trkpt lat="37.641082" lon="-118.966258"><ele>2401.8</ele><time>2024-06-19T17:55:58Z</time></trkpt>
<trkpt lat="37.641066" lon="-118.966113"><ele>2401.2</ele><time>2024-06-19T17:58:03Z</time></trkpt>
<trkpt lat="37.641128" lon="-118.966226"><ele>2403.0</ele><time>2024-06-19T17:59:59Z</time></trkpt>
<trkpt lat="37.640799" lon="-118.966377"><ele>2400.0</ele><time>2024-06-19T18:06:35Z</time></trkpt>
<trkpt lat="37.640831" lon="-118.966310"><ele>2399.6</ele><time>2024-06-19T18:06:48Z</time></trkpt>
<trkpt lat="37.640791" lon="-118.966292"><ele>2399.4</ele><time>2024-06-19T18:08:39Z</time></trkpt>
<trkpt lat="37.640918" lon="-118.966390"><ele>2400.2</ele><time>2024-06-19T18:08:53Z</time></trkpt>
<trkpt lat="37.640835" lon="-118.966335"><ele>2399.4</ele><time>2024-06-19T18:11:17Z</time></trkpt>
<trkpt lat="37.640808" lon="-118.966427"><ele>2399.0</ele><time>2024-06-19T18:11:32Z</time></trkpt>
<trkpt lat="37.640880" lon="-118.966358"><ele>2399.2</ele><time>2024-06-19T18:13:13Z</time></trkpt>
<trkpt lat="37.640632" lon="-118.966256"><ele>2399.2</ele><time>2024-06-19T18:13:20Z</time></trkpt>
<trkpt lat="37.640884" lon="-118.966341"><ele>2399.2</ele><time>2024-06-19T18:13:21Z</time></trkpt>
<trkpt lat="37.640778" lon="-118.966319"><ele>2399.2</ele><time>2024-06-19T18:13:24Z</time></trkpt>
<trkpt lat="37.640908" lon="-118.966471"><ele>2398.8</ele><time>2024-06-19T18:15:18Z</time></trkpt>
<trkpt lat="37.640760" lon="-118.966333"><ele>2399.4</ele><time>2024-06-19T18:15:46Z</time></trkpt>
<trkpt lat="37.640745" lon="-118.966217"><ele>2399.2</ele><time>2024-06-19T18:15:52Z</time></trkpt>
<trkpt lat="37.640780" lon="-118.966177"><ele>2399.2</ele><time>2024-06-19T18:15:59Z</time></trkpt>
<trkpt lat="37.640820" lon="-118.966331"><ele>2399.6</ele><time>2024-06-19T18:17:27Z</time></trkpt>
<trkpt lat="37.640984" lon="-118.966345"><ele>2399.8</ele><time>2024-06-19T18:17:56Z</time></trkpt>
<trkpt lat="37.640881" lon="-118.966184"><ele>2402.8</ele><time>2024-06-19T18:18:15Z</time></trkpt>
<trkpt lat="37.640895" lon="-118.966063"><ele>2403.8</ele><time>2024-06-19T18:18:37Z</time></trkpt>
<trkpt lat="37.640999" lon="-118.966174"><ele>2403.4</ele><time>2024-06-19T18:19:49Z</time></trkpt>
<trkpt lat="37.640990" lon="-118.965857"><ele>2403.8</ele><time>2024-06-19T18:20:09Z</time></trkpt>
<trkpt lat="37.640955" lon="-118.965907"><ele>2403.8</ele><time>2024-06-19T18:20:10Z</time></trkpt>
<trkpt lat="37.641017" lon="-118.966137"><ele>2403.6</ele><time>2024-06-19T18:20:17Z</time></trkpt>
<trkpt lat="37.640915" lon="-118.965704"><ele>2403.2</ele><time>2024-06-19T18:21:02Z</time></trkpt>
<trkpt lat="37.641014" lon="-118.965966"><ele>2403.6</ele><time>2024-06-19T18:22:43Z</time></trkpt>
<trkpt lat="37.640947" lon="-118.965968"><ele>2403.2</ele><time>2024-06-19T18:23:03Z</time></trkpt>
<trkpt lat="37.641076" lon="-118.966246"><ele>2403.2</ele><time>2024-06-19T18:23:04Z</time></trkpt>
<trkpt lat="37.640993" lon="-118.966144"><ele>2402.6</ele><time>2024-06-19T18:23:16Z</time></trkpt>
<trkpt lat="37.640991" lon="-118.965950"><ele>2403.0</ele><time>2024-06-19T18:23:55Z</time></trkpt>
<trkpt lat="37.641081" lon="-118.965993"><ele>2401.2</ele><time>2024-06-19T18:27:59Z</time></trkpt>
<trkpt lat="37.641030" lon="-118.965843"><ele>2400.8</ele><time>2024-06-19T18:29:46Z</time></trkpt>
<trkpt lat="37.641136" lon="-118.965925"><ele>2400.2</ele><time>2024-06-19T18:29:59Z</time></trkpt>
<trkpt lat="37.641054" lon="-118.965829"><ele>2400.0</ele><time>2024-06-19T18:30:04Z</time></trkpt>
<trkpt lat="37.641017" lon="-118.966021"><ele>2400.2</ele><time>2024-06-19T18:34:58Z</time></trkpt>
<trkpt lat="37.640946" lon="-118.965957"><ele>2400.0</ele><time>2024-06-19T18:35:58Z</time></trkpt>
<trkpt lat="37.640979" lon="-118.965925"><ele>2400.2</ele><time>2024-06-19T18:37:59Z</time></trkpt>
<trkpt lat="37.641003" lon="-118.965997"><ele>2399.6</ele><time>2024-06-19T18:39:08Z</time></trkpt>
<trkpt lat="37.640955" lon="-118.965857"><ele>2399.4</ele><time>2024-06-19T18:41:52Z</time></trkpt>
<trkpt lat="37.640953" lon="-118.966169"><ele>2401.2</ele><time>2024-06-19T18:46:01Z</time></trkpt>
<trkpt lat="37.640949" lon="-118.965960"><ele>2401.6</ele><time>2024-06-19T18:46:19Z</time></trkpt>
<trkpt lat="37.640861" lon="-118.965743"><ele>2400.4</ele><time>2024-06-19T18:47:01Z</time></trkpt>
<trkpt lat="37.640930" lon="-118.965639"><ele>2400.2</ele><time>2024-06-19T18:47:59Z</time></trkpt>
<trkpt lat="37.640783" lon="-118.965372"><ele>2400.8</ele><time>2024-06-19T18:49:48Z</time></trkpt>
<trkpt lat="37.640895" lon="-118.965490"><ele>2401.0</ele><time>2024-06-19T18:49:49Z</time></trkpt>
<trkpt lat="37.640921" lon="-118.965654"><ele>2401.8</ele><time>2024-06-19T18:50:02Z</time></trkpt>
<trkpt lat="37.640863" lon="-118.965680"><ele>2400.6</ele><time>2024-06-19T18:53:49Z</time></trkpt>
<trkpt lat="37.640893" lon="-118.965597"><ele>2400.4</ele><time>2024-06-19T18:53:55Z</time></trkpt>
<trkpt lat="37.640877" lon="-118.965675"><ele>2399.8</ele><time>2024-06-19T18:54:02Z</time></trkpt>
<trkpt lat="37.640921" lon="-118.965651"><ele>2401.8</ele><time>2024-06-19T18:55:24Z</time></trkpt>
<trkpt lat="37.640941" lon="-118.965713"><ele>2401.6</ele><time>2024-06-19T18:55:51Z</time></trkpt>
<trkpt lat="37.640885" lon="-118.965638"><ele>2402.0</ele><time>2024-06-19T18:55:59Z</time></trkpt>
<trkpt lat="37.640797" lon="-118.965746"><ele>2400.4</ele><time>2024-06-19T18:57:40Z</time></trkpt>
<trkpt lat="37.640783" lon="-118.965692"><ele>2400.4</ele><time>2024-06-19T18:57:48Z</time></trkpt>
<trkpt lat="37.640858" lon="-118.965694"><ele>2401.2</ele><time>2024-06-19T18:57:54Z</time></trkpt>
<trkpt lat="37.640613" lon="-118.965901"><ele>2400.4</ele><time>2024-06-19T18:59:52Z</time></trkpt>
<trkpt lat="37.641056" lon="-118.965961"><ele>2400.4</ele><time>2024-06-19T18:59:54Z</time></trkpt>
<trkpt lat="37.641156" lon="-118.965809"><ele>2400.2</ele><time>2024-06-19T18:59:58Z</time></trkpt>
<trkpt lat="37.641014" lon="-118.965654"><ele>2400.2</ele><time>2024-06-19T19:00:03Z</time></trkpt>
<trkpt lat="37.640888" lon="-118.965707"><ele>2399.6</ele><time>2024-06-19T19:01:56Z</time></trkpt>
<trkpt lat="37.640590" lon="-118.965614"><ele>2400.4</ele><time>2024-06-19T19:03:48Z</time></trkpt>
<trkpt lat="37.640858" lon="-118.965582"><ele>2400.2</ele><time>2024-06-19T19:03:57Z</time></trkpt>
<trkpt lat="37.640809" lon="-118.965607"><ele>2399.6</ele><time>2024-06-19T19:04:03Z</time></trkpt>
<trkpt lat="37.640862" lon="-118.965670"><ele>2399.4</ele><time>2024-06-19T19:06:03Z</time></trkpt>
<trkpt lat="37.640770" lon="-118.965703"><ele>2399.0</ele><time>2024-06-19T19:07:54Z</time></trkpt>
<trkpt lat="37.640868" lon="-118.965663"><ele>2399.4</ele><time>2024-06-19T19:08:06Z</time></trkpt>
<trkpt lat="37.640769" lon="-118.965606"><ele>2400.0</ele><time>2024-06-19T19:09:50Z</time></trkpt>
<trkpt lat="37.640900" lon="-118.965647"><ele>2399.8</ele><time>2024-06-19T19:10:00Z</time></trkpt>
<trkpt lat="37.640978" lon="-118.965947"><ele>2400.0</ele><time>2024-06-19T19:11:46Z</time></trkpt>
<trkpt lat="37.640963" lon="-118.966104"><ele>2399.0</ele><time>2024-06-19T19:12:00Z</time></trkpt>
<trkpt lat="37.640925" lon="-118.965788"><ele>2399.0</ele><time>2024-06-19T19:12:11Z</time></trkpt>
<trkpt lat="37.641029" lon="-118.965903"><ele>2398.6</ele><time>2024-06-19T19:12:20Z</time></trkpt>
<trkpt lat="37.641042" lon="-118.966049"><ele>2398.6</ele><time>2024-06-19T19:12:25Z</time></trkpt>
<trkpt lat="37.641084" lon="-118.966046"><ele>2399.2</ele><time>2024-06-19T19:12:27Z</time></trkpt>
<trkpt lat="37.640763" lon="-118.965770"><ele>2397.0</ele><time>2024-06-19T19:14:19Z</time></trkpt>
<trkpt lat="37.640871" lon="-118.965710"><ele>2398.0</ele><time>2024-06-19T19:14:51Z</time></trkpt>
<trkpt lat="37.640873" lon="-118.965631"><ele>2400.0</ele><time>2024-06-19T19:16:47Z</time></trkpt>
<trkpt lat="37.640912" lon="-118.965665"><ele>2400.2</ele><time>2024-06-19T19:16:53Z</time></trkpt>
<trkpt lat="37.640852" lon="-118.965675"><ele>2400.0</ele><time>2024-06-19T19:17:00Z</time></trkpt>
<trkpt lat="37.640962" lon="-118.965633"><ele>2400.6</ele><time>2024-06-19T19:18:47Z</time></trkpt>
<trkpt lat="37.640859" lon="-118.965691"><ele>2400.6</ele><time>2024-06-19T19:19:03Z</time></trkpt>
<trkpt lat="37.640882" lon="-118.965544"><ele>2399.6</ele><time>2024-06-19T19:21:04Z</time></trkpt>
<trkpt lat="37.640831" lon="-118.965674"><ele>2400.2</ele><time>2024-06-19T19:22:35Z</time></trkpt>
<trkpt lat="37.640765" lon="-118.965669"><ele>2400.4</ele><time>2024-06-19T19:22:50Z</time></trkpt>
<trkpt lat="37.640872" lon="-118.965634"><ele>2400.2</ele><time>2024-06-19T19:22:58Z</time></trkpt>
<trkpt lat="37.640942" lon="-118.965507"><ele>2400.0</ele><time>2024-06-19T19:24:54Z</time></trkpt>
<trkpt lat="37.640856" lon="-118.965514"><ele>2400.8</ele><time>2024-06-19T19:25:06Z</time></trkpt>
<trkpt lat="37.640870" lon="-118.965407"><ele>2399.2</ele><time>2024-06-19T19:27:00Z</time></trkpt>
<trkpt lat="37.641092" lon="-118.965579"><ele>2399.6</ele><time>2024-06-19T19:28:54Z</time></trkpt>
<trkpt lat="37.640889" lon="-118.965458"><ele>2399.6</ele><time>2024-06-19T19:28:55Z</time></trkpt>
<trkpt lat="37.640944" lon="-118.965592"><ele>2399.2</ele><time>2024-06-19T19:30:15Z</time></trkpt>
<trkpt lat="37.640901" lon="-118.965670"><ele>2399.2</ele><time>2024-06-19T19:30:55Z</time></trkpt>
<trkpt lat="37.640862" lon="-118.965678"><ele>2398.4</ele><time>2024-06-19T19:31:04Z</time></trkpt>
<trkpt lat="37.640872" lon="-118.965603"><ele>2401.0</ele><time>2024-06-19T19:32:58Z</time></trkpt>
<trkpt lat="37.640779" lon="-118.965666"><ele>2400.2</ele><time>2024-06-19T19:34:50Z</time></trkpt>
<trkpt lat="37.640897" lon="-118.965708"><ele>2400.0</ele><time>2024-06-19T19:35:02Z</time></trkpt>
<trkpt lat="37.640921" lon="-118.965549"><ele>2400.0</ele><time>2024-06-19T19:38:55Z</time></trkpt>
<trkpt lat="37.640857" lon="-118.965734"><ele>2400.4</ele><time>2024-06-19T19:40:50Z</time></trkpt>
<trkpt lat="37.640787" lon="-118.965741"><ele>2400.4</ele><time>2024-06-19T19:41:07Z</time></trkpt>
<trkpt lat="37.640830" lon="-118.965652"><ele>2400.8</ele><time>2024-06-19T19:42:53Z</time></trkpt>
<trkpt lat="37.640786" lon="-118.965650"><ele>2400.8</ele><time>2024-06-19T19:43:01Z</time></trkpt>
<trkpt lat="37.640937" lon="-118.965646"><ele>2402.4</ele><time>2024-06-19T19:46:54Z</time></trkpt>
<trkpt lat="37.640722" lon="-118.965646"><ele>2401.4</ele><time>2024-06-19T19:50:48Z</time></trkpt>
<trkpt lat="37.640918" lon="-118.965617"><ele>2401.8</ele><time>2024-06-19T19:52:54Z</time></trkpt>
<trkpt lat="37.640825" lon="-118.965645"><ele>2402.0</ele><time>2024-06-19T19:53:04Z</time></trkpt>
<trkpt lat="37.640825" lon="-118.965721"><ele>2401.2</ele><time>2024-06-19T19:54:57Z</time></trkpt>
<trkpt lat="37.640875" lon="-118.965590"><ele>2400.6</ele><time>2024-06-19T19:56:55Z</time></trkpt>
<trkpt lat="37.640867" lon="-118.965733"><ele>2401.6</ele><time>2024-06-19T19:59:02Z</time></trkpt>
<trkpt lat="37.640906" lon="-118.965693"><ele>2401.6</ele><time>2024-06-19T20:00:48Z</time></trkpt>
<trkpt lat="37.640830" lon="-118.965669"><ele>2401.2</ele><time>2024-06-19T20:00:56Z</time></trkpt>
<trkpt lat="37.641058" lon="-118.965526"><ele>2403.2</ele><time>2024-06-19T20:02:47Z</time></trkpt>
<trkpt lat="37.640905" lon="-118.965484"><ele>2403.0</ele><time>2024-06-19T20:02:58Z</time></trkpt>
<trkpt lat="37.640819" lon="-118.966113"><ele>2403.2</ele><time>2024-06-19T20:04:50Z</time></trkpt>
<trkpt lat="37.640868" lon="-118.966312"><ele>2403.2</ele><time>2024-06-19T20:05:01Z</time></trkpt>
<trkpt lat="37.640987" lon="-118.966400"><ele>2402.2</ele><time>2024-06-19T20:05:24Z</time></trkpt>
<trkpt lat="37.641117" lon="-118.966369"><ele>2401.4</ele><time>2024-06-19T20:05:36Z</time></trkpt>
<trkpt lat="37.641376" lon="-118.966153"><ele>2401.0</ele><time>2024-06-19T20:06:12Z</time></trkpt>
<trkpt lat="37.642013" lon="-118.966214"><ele>2400.0</ele><time>2024-06-19T20:06:59Z</time></trkpt>
<trkpt lat="37.642878" lon="-118.966056"><ele>2399.4</ele><time>2024-06-19T20:08:00Z</time></trkpt>
<trkpt lat="37.642943" lon="-118.966113"><ele>2398.8</ele><time>2024-06-19T20:08:08Z</time></trkpt>
<trkpt lat="37.643422" lon="-118.966107"><ele>2399.4</ele><time>2024-06-19T20:09:06Z</time></trkpt>
<trkpt lat="37.643677" lon="-118.966201"><ele>2398.6</ele><time>2024-06-19T20:09:32Z</time></trkpt>
<trkpt lat="37.644780" lon="-118.966205"><ele>2395.8</ele><time>2024-06-19T20:10:51Z</time></trkpt>
<trkpt lat="37.644749" lon="-118.966031"><ele>2395.6</ele><time>2024-06-19T20:10:55Z</time></trkpt>
<trkpt lat="37.644841" lon="-118.966662"><ele>2396.0</ele><time>2024-06-19T20:11:36Z</time></trkpt>
<trkpt lat="37.645022" lon="-118.967251"><ele>2397.6</ele><time>2024-06-19T20:12:28Z</time></trkpt>
<trkpt lat="37.645026" lon="-118.967697"><ele>2398.4</ele><time>2024-06-19T20:12:51Z</time></trkpt>
<trkpt lat="37.645096" lon="-118.967916"><ele>2398.6</ele><time>2024-06-19T20:13:07Z</time></trkpt>
<trkpt lat="37.646192" lon="-118.967777"><ele>2395.0</ele><time>2024-06-19T20:14:49Z</time></trkpt>
<trkpt lat="37.646348" lon="-118.967625"><ele>2394.2</ele><time>2024-06-19T20:15:05Z</time></trkpt>
<trkpt lat="37.646800" lon="-118.967816"><ele>2392.6</ele><time>2024-06-19T20:15:34Z</time></trkpt>
<trkpt lat="37.646804" lon="-118.968023"><ele>2392.8</ele><time>2024-06-19T20:15:56Z</time></trkpt>
<trkpt lat="37.647105" lon="-118.968330"><ele>2393.4</ele><time>2024-06-19T20:16:49Z</time></trkpt>
<trkpt lat="37.647221" lon="-118.969294"><ele>2396.4</ele><time>2024-06-19T20:18:12Z</time></trkpt>
<trkpt lat="37.647565" lon="-118.970273"><ele>2397.6</ele><time>2024-06-19T20:19:24Z</time></trkpt>
<trkpt lat="37.647757" lon="-118.971602"><ele>2400.6</ele><time>2024-06-19T20:20:51Z</time></trkpt>
<trkpt lat="37.647701" lon="-118.971850"><ele>2400.6</ele><time>2024-06-19T20:21:06Z</time></trkpt>
<trkpt lat="37.647823" lon="-118.971820"><ele>2399.8</ele><time>2024-06-19T20:36:20Z</time></trkpt>
<trkpt lat="37.647920" lon="-118.971638"><ele>2399.4</ele><time>2024-06-19T20:36:59Z</time></trkpt>
<trkpt lat="37.647925" lon="-118.972041"><ele>2400.4</ele><time>2024-06-19T20:37:33Z</time></trkpt>
<trkpt lat="37.647500" lon="-118.972485"><ele>2402.8</ele><time>2024-06-19T20:38:35Z</time></trkpt>
<trkpt lat="37.647495" lon="-118.972589"><ele>2402.2</ele><time>2024-06-19T20:39:03Z</time></trkpt>
<trkpt lat="37.647452" lon="-118.972498"><ele>2402.8</ele><time>2024-06-19T20:42:45Z</time></trkpt>
<trkpt lat="37.647533" lon="-118.972513"><ele>2402.4</ele><time>2024-06-19T20:43:05Z</time></trkpt>
<trkpt lat="37.647501" lon="-118.972628"><ele>2402.8</ele><time>2024-06-19T20:45:02Z</time></trkpt>
<trkpt lat="37.647651" lon="-118.972600"><ele>2402.8</ele><time>2024-06-19T20:46:17Z</time></trkpt>
<trkpt lat="37.647683" lon="-118.972524"><ele>2403.4</ele><time>2024-06-19T20:46:37Z</time></trkpt>
<trkpt lat="37.647546" lon="-118.972463"><ele>2403.0</ele><time>2024-06-19T20:46:59Z</time></trkpt>
<trkpt lat="37.647650" lon="-118.972559"><ele>2402.4</ele><time>2024-06-19T20:50:54Z</time></trkpt>
<trkpt lat="37.647597" lon="-118.972422"><ele>2402.4</ele><time>2024-06-19T20:50:59Z</time></trkpt>
<trkpt lat="37.647611" lon="-118.972501"><ele>2402.4</ele><time>2024-06-19T20:52:37Z</time></trkpt>
<trkpt lat="37.647430" lon="-118.972539"><ele>2402.6</ele><time>2024-06-19T20:54:51Z</time></trkpt>
<trkpt lat="37.647546" lon="-118.972638"><ele>2403.2</ele><time>2024-06-19T20:55:02Z</time></trkpt>
<trkpt lat="37.647479" lon="-118.972586"><ele>2403.0</ele><time>2024-06-19T20:56:36Z</time></trkpt>
<trkpt lat="37.647476" lon="-118.972448"><ele>2403.2</ele><time>2024-06-19T20:56:55Z</time></trkpt>
<trkpt lat="37.647476" lon="-118.972557"><ele>2403.0</ele><time>2024-06-19T20:57:04Z</time></trkpt>
<trkpt lat="37.647500" lon="-118.972505"><ele>2402.8</ele><time>2024-06-19T20:58:12Z</time></trkpt>
<trkpt lat="37.647530" lon="-118.972586"><ele>2403.4</ele><time>2024-06-19T20:58:59Z</time></trkpt>
<trkpt lat="37.647430" lon="-118.972505"><ele>2402.6</ele><time>2024-06-19T21:05:09Z</time></trkpt>
<trkpt lat="37.647619" lon="-118.972703"><ele>2402.6</ele><time>2024-06-19T21:06:57Z</time></trkpt>
<trkpt lat="37.647526" lon="-118.972623"><ele>2402.6</ele><time>2024-06-19T21:07:24Z</time></trkpt>
<trkpt lat="37.647611" lon="-118.972639"><ele>2402.4</ele><time>2024-06-19T21:09:07Z</time></trkpt>
<trkpt lat="37.647352" lon="-118.972573"><ele>2402.4</ele><time>2024-06-19T21:10:51Z</time></trkpt>
<trkpt lat="37.647582" lon="-118.972677"><ele>2402.4</ele><time>2024-06-19T21:10:55Z</time></trkpt>
<trkpt lat="37.647521" lon="-118.972562"><ele>2402.4</ele><time>2024-06-19T21:11:06Z</time></trkpt>
<trkpt lat="37.647568" lon="-118.972533"><ele>2402.2</ele><time>2024-06-19T21:11:38Z</time></trkpt>
<trkpt lat="37.647525" lon="-118.972520"><ele>2400.6</ele><time>2024-06-19T21:12:51Z</time></trkpt>
<trkpt lat="37.647559" lon="-118.972572"><ele>2400.4</ele><time>2024-06-19T21:12:54Z</time></trkpt>
<trkpt lat="37.647552" lon="-118.972496"><ele>2400.6</ele><time>2024-06-19T21:13:00Z</time></trkpt>
<trkpt lat="37.647532" lon="-118.972635"><ele>2401.2</ele><time>2024-06-19T21:14:50Z</time></trkpt>
<trkpt lat="37.647522" lon="-118.972563"><ele>2401.4</ele><time>2024-06-19T21:15:03Z</time></trkpt>
<trkpt lat="37.647577" lon="-118.972576"><ele>2401.4</ele><time>2024-06-19T21:16:49Z</time></trkpt>
<trkpt lat="37.647427" lon="-118.972489"><ele>2401.6</ele><time>2024-06-19T21:18:53Z</time></trkpt>
<trkpt lat="37.647536" lon="-118.972696"><ele>2401.2</ele><time>2024-06-19T21:20:50Z</time></trkpt>
<trkpt lat="37.647542" lon="-118.972527"><ele>2401.4</ele><time>2024-06-19T21:21:02Z</time></trkpt>
<trkpt lat="37.647537" lon="-118.972649"><ele>2400.8</ele><time>2024-06-19T21:22:57Z</time></trkpt>
<trkpt lat="37.647548" lon="-118.972542"><ele>2400.8</ele><time>2024-06-19T21:22:58Z</time></trkpt>
<trkpt lat="37.647588" lon="-118.972559"><ele>2400.6</ele><time>2024-06-19T21:23:07Z</time></trkpt>
<trkpt lat="37.647536" lon="-118.972650"><ele>2401.0</ele><time>2024-06-19T21:24:53Z</time></trkpt>
<trkpt lat="37.647559" lon="-118.972560"><ele>2401.0</ele><time>2024-06-19T21:25:01Z</time></trkpt>
<trkpt lat="37.647537" lon="-118.972605"><ele>2400.6</ele><time>2024-06-19T21:25:09Z</time></trkpt>
<trkpt lat="37.647655" lon="-118.972561"><ele>2400.8</ele><time>2024-06-19T21:27:05Z</time></trkpt>
<trkpt lat="37.647595" lon="-118.972594"><ele>2400.6</ele><time>2024-06-19T21:27:22Z</time></trkpt>
<trkpt lat="37.647277" lon="-118.972431"><ele>2401.4</ele><time>2024-06-19T21:30:57Z</time></trkpt>
<trkpt lat="37.647498" lon="-118.972537"><ele>2401.4</ele><time>2024-06-19T21:31:07Z</time></trkpt>
<trkpt lat="37.647447" lon="-118.972435"><ele>2401.2</ele><time>2024-06-19T21:31:12Z</time></trkpt>
<trkpt lat="37.647550" lon="-118.972197"><ele>2401.0</ele><time>2024-06-19T21:32:56Z</time></trkpt>
<trkpt lat="37.647506" lon="-118.972375"><ele>2401.2</ele><time>2024-06-19T21:33:04Z</time></trkpt>
<trkpt lat="37.647566" lon="-118.972443"><ele>2401.2</ele><time>2024-06-19T21:34:50Z</time></trkpt>
<trkpt lat="37.647490" lon="-118.972546"><ele>2401.6</ele><time>2024-06-19T21:34:56Z</time></trkpt>
<trkpt lat="37.647511" lon="-118.972645"><ele>2401.2</ele><time>2024-06-19T21:35:03Z</time></trkpt>
<trkpt lat="37.647426" lon="-118.972588"><ele>2400.4</ele><time>2024-06-19T21:36:52Z</time></trkpt>
<trkpt lat="37.647489" lon="-118.972602"><ele>2400.2</ele><time>2024-06-19T21:38:38Z</time></trkpt>
<trkpt lat="37.647509" lon="-118.972508"><ele>2400.2</ele><time>2024-06-19T21:40:56Z</time></trkpt>
<trkpt lat="37.647459" lon="-118.972546"><ele>2399.6</ele><time>2024-06-19T21:41:05Z</time></trkpt>
<trkpt lat="37.647491" lon="-118.972740"><ele>2400.2</ele><time>2024-06-19T21:42:44Z</time></trkpt>
<trkpt lat="37.647565" lon="-118.972723"><ele>2400.0</ele><time>2024-06-19T21:42:52Z</time></trkpt>
<trkpt lat="37.647582" lon="-118.972578"><ele>2399.8</ele><time>2024-06-19T21:42:59Z</time></trkpt>
<trkpt lat="37.647588" lon="-118.972625"><ele>2399.6</ele><time>2024-06-19T21:43:05Z</time></trkpt>
<trkpt lat="37.647507" lon="-118.972555"><ele>2400.4</ele><time>2024-06-19T21:45:09Z</time></trkpt>
<trkpt lat="37.647569" lon="-118.972466"><ele>2399.8</ele><time>2024-06-19T21:46:54Z</time></trkpt>
<trkpt lat="37.647500" lon="-118.972562"><ele>2399.8</ele><time>2024-06-19T21:46:58Z</time></trkpt>
<trkpt lat="37.647475" lon="-118.972416"><ele>2398.2</ele><time>2024-06-19T21:50:53Z</time></trkpt>
<trkpt lat="37.647389" lon="-118.972561"><ele>2398.2</ele><time>2024-06-19T21:50:56Z</time></trkpt>
<trkpt lat="37.647460" lon="-118.972580"><ele>2398.0</ele><time>2024-06-19T21:51:04Z</time></trkpt>
<trkpt lat="37.647465" lon="-118.972511"><ele>2398.2</ele><time>2024-06-19T21:51:10Z</time></trkpt>
<trkpt lat="37.648035" lon="-118.972216"><ele>2399.0</ele><time>2024-06-19T21:52:52Z</time></trkpt>
<trkpt lat="37.647554" lon="-118.972474"><ele>2398.8</ele><time>2024-06-19T21:52:53Z</time></trkpt>
<trkpt lat="37.647478" lon="-118.972617"><ele>2398.8</ele><time>2024-06-19T21:52:56Z</time></trkpt>
<trkpt lat="37.647466" lon="-118.972515"><ele>2398.8</ele><time>2024-06-19T21:53:07Z</time></trkpt>
<trkpt lat="37.647513" lon="-118.972510"><ele>2399.0</ele><time>2024-06-19T21:55:01Z</time></trkpt>
<trkpt lat="37.647394" lon="-118.972614"><ele>2399.2</ele><time>2024-06-19T21:56:54Z</time></trkpt>
<trkpt lat="37.647514" lon="-118.972582"><ele>2399.2</ele><time>2024-06-19T21:56:57Z</time></trkpt>
<trkpt lat="37.647495" lon="-118.972638"><ele>2399.2</ele><time>2024-06-19T21:56:59Z</time></trkpt>
<trkpt lat="37.647579" lon="-118.972506"><ele>2399.0</ele><time>2024-06-19T21:58:57Z</time></trkpt>
<trkpt lat="37.647528" lon="-118.972577"><ele>2399.2</ele><time>2024-06-19T22:00:59Z</time></trkpt>
<trkpt lat="37.647476" lon="-118.972541"><ele>2398.8</ele><time>2024-06-19T22:02:59Z</time></trkpt>
<trkpt lat="37.647504" lon="-118.972631"><ele>2400.4</ele><time>2024-06-19T22:04:25Z</time></trkpt>
<trkpt lat="37.647330" lon="-118.972814"><ele>2400.2</ele><time>2024-06-19T22:04:51Z</time></trkpt>
<trkpt lat="37.647564" lon="-118.972601"><ele>2400.0</ele><time>2024-06-19T22:04:53Z</time></trkpt>
<trkpt lat="37.647488" lon="-118.972635"><ele>2400.4</ele><time>2024-06-19T22:06:57Z</time></trkpt>
<trkpt lat="37.647479" lon="-118.972519"><ele>2400.4</ele><time>2024-06-19T22:07:10Z</time></trkpt>
<trkpt lat="37.647321" lon="-118.972656"><ele>2400.6</ele><time>2024-06-19T22:08:52Z</time></trkpt>
<trkpt lat="37.647439" lon="-118.972493"><ele>2401.0</ele><time>2024-06-19T22:09:08Z</time></trkpt>
<trkpt lat="37.647424" lon="-118.972737"><ele>2401.2</ele><time>2024-06-19T22:10:54Z</time></trkpt>
<trkpt lat="37.647470" lon="-118.972513"><ele>2401.2</ele><time>2024-06-19T22:10:57Z</time></trkpt>
<trkpt lat="37.647509" lon="-118.972515"><ele>2401.2</ele><time>2024-06-19T22:11:03Z</time></trkpt>
<trkpt lat="37.647469" lon="-118.972658"><ele>2402.6</ele><time>2024-06-19T22:12:25Z</time></trkpt>
<trkpt lat="37.647553" lon="-118.972738"><ele>2403.0</ele><time>2024-06-19T22:12:53Z</time></trkpt>
<trkpt lat="37.647653" lon="-118.972410"><ele>2402.8</ele><time>2024-06-19T22:12:59Z</time></trkpt>
<trkpt lat="37.647700" lon="-118.972405"><ele>2402.6</ele><time>2024-06-19T22:13:06Z</time></trkpt>
<trkpt lat="37.647434" lon="-118.971671"><ele>2401.6</ele><time>2024-06-19T22:21:33Z</time></trkpt>
<trkpt lat="37.647870" lon="-118.971792"><ele>2401.6</ele><time>2024-06-19T22:29:40Z</time></trkpt>
<trkpt lat="37.647813" lon="-118.971810"><ele>2400.6</ele><time>2024-06-19T22:29:45Z</time></trkpt>
<trkpt lat="37.647824" lon="-118.971866"><ele>2401.4</ele><time>2024-06-19T22:29:52Z</time></trkpt>
<trkpt lat="37.647979" lon="-118.971773"><ele>2401.2</ele><time>2024-06-19T22:30:07Z</time></trkpt>
<trkpt lat="37.648500" lon="-118.971980"><ele>2407.6</ele><time>2024-06-19T22:31:13Z</time></trkpt>
<trkpt lat="37.648726" lon="-118.972333"><ele>2408.8</ele><time>2024-06-19T22:32:19Z</time></trkpt>
<trkpt lat="37.648718" lon="-118.972586"><ele>2407.4</ele><time>2024-06-19T22:33:03Z</time></trkpt>
<trkpt lat="37.648666" lon="-118.972403"><ele>2407.2</ele><time>2024-06-19T22:33:24Z</time></trkpt>
<trkpt lat="37.648769" lon="-118.972230"><ele>2408.0</ele><time>2024-06-19T22:33:36Z</time></trkpt>
<trkpt lat="37.648588" lon="-118.972042"><ele>2407.4</ele><time>2024-06-19T22:33:57Z</time></trkpt>
<trkpt lat="37.648553" lon="-118.971790"><ele>2403.6</ele><time>2024-06-19T22:34:29Z</time></trkpt>
<trkpt lat="37.648355" lon="-118.971470"><ele>2402.6</ele><time>2024-06-19T22:34:53Z</time></trkpt>
<trkpt lat="37.648061" lon="-118.971235"><ele>2401.6</ele><time>2024-06-19T22:35:21Z</time></trkpt>
<trkpt lat="37.647927" lon="-118.971298"><ele>2401.6</ele><time>2024-06-19T22:35:31Z</time></trkpt>
<trkpt lat="37.647722" lon="-118.971166"><ele>2401.2</ele><time>2024-06-19T22:35:49Z</time></trkpt>
<trkpt lat="37.647631" lon="-118.970997"><ele>2400.4</ele><time>2024-06-19T22:36:03Z</time></trkpt>
<trkpt lat="37.647420" lon="-118.971003"><ele>2400.4</ele><time>2024-06-19T22:36:21Z</time></trkpt>
<trkpt lat="37.647267" lon="-118.971126"><ele>2395.6</ele><time>2024-06-19T22:37:56Z</time></trkpt>
<trkpt lat="37.647392" lon="-118.970877"><ele>2395.4</ele><time>2024-06-19T22:38:05Z</time></trkpt>
<trkpt lat="37.647357" lon="-118.970892"><ele>2395.0</ele><time>2024-06-19T22:38:10Z</time></trkpt>
<trkpt lat="37.647363" lon="-118.970776"><ele>2395.6</ele><time>2024-06-19T22:40:00Z</time></trkpt>
<trkpt lat="37.647509" lon="-118.970776"><ele>2398.2</ele><time>2024-06-19T22:41:15Z</time></trkpt>
<trkpt lat="37.647498" lon="-118.970660"><ele>2399.0</ele><time>2024-06-19T22:42:04Z</time></trkpt>
<trkpt lat="37.647547" lon="-118.970605"><ele>2397.2</ele><time>2024-06-19T22:42:33Z</time></trkpt>
<trkpt lat="37.647583" lon="-118.970425"><ele>2396.2</ele><time>2024-06-19T22:43:51Z</time></trkpt>
<trkpt lat="37.647511" lon="-118.970336"><ele>2395.0</ele><time>2024-06-19T22:44:09Z</time></trkpt>
<trkpt lat="37.647611" lon="-118.969481"><ele>2394.8</ele><time>2024-06-19T22:45:00Z</time></trkpt>
<trkpt lat="37.647237" lon="-118.968788"><ele>2394.4</ele><time>2024-06-19T22:45:54Z</time></trkpt>
<trkpt lat="37.647093" lon="-118.968299"><ele>2395.4</ele><time>2024-06-19T22:46:20Z</time></trkpt>
<trkpt lat="37.646689" lon="-118.967431"><ele>2392.4</ele><time>2024-06-19T22:47:22Z</time></trkpt>
<trkpt lat="37.646671" lon="-118.967333"><ele>2389.6</ele><time>2024-06-19T22:47:30Z</time></trkpt>
<trkpt lat="37.646715" lon="-118.967314"><ele>2386.8</ele><time>2024-06-19T22:47:36Z</time></trkpt>
<trkpt lat="37.646756" lon="-118.967119"><ele>2384.8</ele><time>2024-06-19T22:47:59Z</time></trkpt>
<trkpt lat="37.646687" lon="-118.967043"><ele>2384.8</ele><time>2024-06-19T22:48:10Z</time></trkpt>
<trkpt lat="37.646770" lon="-118.967035"><ele>2384.6</ele><time>2024-06-19T22:48:34Z</time></trkpt>
<trkpt lat="37.646645" lon="-118.967071"><ele>2384.4</ele><time>2024-06-19T22:49:16Z</time></trkpt>
<trkpt lat="37.646514" lon="-118.966949"><ele>2384.4</ele><time>2024-06-19T22:49:30Z</time></trkpt>
<trkpt lat="37.646446" lon="-118.966698"><ele>2384.0</ele><time>2024-06-19T22:49:51Z</time></trkpt>
<trkpt lat="37.646384" lon="-118.966723"><ele>2383.6</ele><time>2024-06-19T22:49:54Z</time></trkpt>
<trkpt lat="37.646335" lon="-118.966535"><ele>2384.8</ele><time>2024-06-19T22:50:01Z</time></trkpt>
<trkpt lat="37.645954" lon="-118.966014"><ele>2387.6</ele><time>2024-06-19T22:51:00Z</time></trkpt>
<trkpt lat="37.645577" lon="-118.965756"><ele>2388.6</ele><time>2024-06-19T22:52:00Z</time></trkpt>
<trkpt lat="37.645623" lon="-118.965797"><ele>2388.2</ele><time>2024-06-19T22:52:05Z</time></trkpt>
<trkpt lat="37.645552" lon="-118.965615"><ele>2387.4</ele><time>2024-06-19T22:53:35Z</time></trkpt>
<trkpt lat="37.645665" lon="-118.965599"><ele>2388.6</ele><time>2024-06-19T22:54:58Z</time></trkpt>
<trkpt lat="37.645698" lon="-118.965683"><ele>2388.4</ele><time>2024-06-19T22:55:54Z</time></trkpt>
<trkpt lat="37.645773" lon="-118.965519"><ele>2388.0</ele><time>2024-06-19T22:58:05Z</time></trkpt>
<trkpt lat="37.645868" lon="-118.965728"><ele>2389.8</ele><time>2024-06-19T22:59:57Z</time></trkpt>
<trkpt lat="37.645792" lon="-118.965686"><ele>2389.6</ele><time>2024-06-19T23:00:11Z</time></trkpt>
<trkpt lat="37.645849" lon="-118.965647"><ele>2389.0</ele><time>2024-06-19T23:00:28Z</time></trkpt>
<trkpt lat="37.645811" lon="-118.965584"><ele>2388.4</ele><time>2024-06-19T23:02:01Z</time></trkpt>
<trkpt lat="37.645809" lon="-118.965817"><ele>2388.4</ele><time>2024-06-19T23:04:01Z</time></trkpt>
<trkpt lat="37.645736" lon="-118.965796"><ele>2388.8</ele><time>2024-06-19T23:04:09Z</time></trkpt>
<trkpt lat="37.645930" lon="-118.965693"><ele>2389.0</ele><time>2024-06-19T23:06:07Z</time></trkpt>
<trkpt lat="37.645866" lon="-118.965744"><ele>2391.2</ele><time>2024-06-19T23:07:55Z</time></trkpt>
<trkpt lat="37.645905" lon="-118.965715"><ele>2390.8</ele><time>2024-06-19T23:07:58Z</time></trkpt>
<trkpt lat="37.645864" lon="-118.965652"><ele>2391.6</ele><time>2024-06-19T23:10:08Z</time></trkpt>
<trkpt lat="37.645970" lon="-118.965719"><ele>2393.0</ele><time>2024-06-19T23:11:51Z</time></trkpt>
<trkpt lat="37.645860" lon="-118.965666"><ele>2392.0</ele><time>2024-06-19T23:12:04Z</time></trkpt>
<trkpt lat="37.646033" lon="-118.965622"><ele>2391.6</ele><time>2024-06-19T23:13:53Z</time></trkpt>
<trkpt lat="37.645863" lon="-118.965766"><ele>2391.6</ele><time>2024-06-19T23:13:59Z</time></trkpt>
<trkpt lat="37.645834" lon="-118.965651"><ele>2392.0</ele><time>2024-06-19T23:15:53Z</time></trkpt>
<trkpt lat="37.645846" lon="-118.965828"><ele>2392.0</ele><time>2024-06-19T23:15:56Z</time></trkpt>
<trkpt lat="37.645844" lon="-118.965697"><ele>2391.6</ele><time>2024-06-19T23:16:10Z</time></trkpt>
<trkpt lat="37.645950" lon="-118.965655"><ele>2393.0</ele><time>2024-06-19T23:17:59Z</time></trkpt>
<trkpt lat="37.645913" lon="-118.965627"><ele>2392.2</ele><time>2024-06-19T23:19:52Z</time></trkpt>
<trkpt lat="37.645859" lon="-118.965774"><ele>2393.0</ele><time>2024-06-19T23:20:02Z</time></trkpt>
<trkpt lat="37.645898" lon="-118.965657"><ele>2392.6</ele><time>2024-06-19T23:20:18Z</time></trkpt>
<trkpt lat="37.645749" lon="-118.965583"><ele>2392.4</ele><time>2024-06-19T23:23:07Z</time></trkpt>
<trkpt lat="37.645779" lon="-118.965717"><ele>2392.0</ele><time>2024-06-19T23:23:58Z</time></trkpt>
<trkpt lat="37.645951" lon="-118.965718"><ele>2393.0</ele><time>2024-06-19T23:26:05Z</time></trkpt>
<trkpt lat="37.645945" lon="-118.965654"><ele>2393.0</ele><time>2024-06-19T23:27:11Z</time></trkpt>
<trkpt lat="37.645830" lon="-118.966048"><ele>2394.2</ele><time>2024-06-19T23:27:56Z</time></trkpt>
<trkpt lat="37.645315" lon="-118.966062"><ele>2395.6</ele><time>2024-06-19T23:28:25Z</time></trkpt>
<trkpt lat="37.645086" lon="-118.966235"><ele>2397.8</ele><time>2024-06-19T23:28:49Z</time></trkpt>
<trkpt lat="37.644343" lon="-118.966257"><ele>2400.2</ele><time>2024-06-19T23:30:01Z</time></trkpt>
<trkpt lat="37.643876" lon="-118.966037"><ele>2401.8</ele><time>2024-06-19T23:30:57Z</time></trkpt>
<trkpt lat="37.643847" lon="-118.965961"><ele>2401.6</ele><time>2024-06-19T23:31:09Z</time></trkpt>
<trkpt lat="37.643706" lon="-118.965957"><ele>2401.0</ele><time>2024-06-19T23:31:53Z</time></trkpt>
<trkpt lat="37.643710" lon="-118.966241"><ele>2400.4</ele><time>2024-06-19T23:32:01Z</time></trkpt>
<trkpt lat="37.643720" lon="-118.966165"><ele>2400.0</ele><time>2024-06-19T23:32:07Z</time></trkpt>
<trkpt lat="37.643842" lon="-118.966276"><ele>2400.8</ele><time>2024-06-19T23:34:01Z</time></trkpt>
<trkpt lat="37.643759" lon="-118.966285"><ele>2401.2</ele><time>2024-06-19T23:34:04Z</time></trkpt>
<trkpt lat="37.643687" lon="-118.966174"><ele>2400.6</ele><time>2024-06-19T23:35:55Z</time></trkpt>
<trkpt lat="37.643732" lon="-118.966235"><ele>2400.6</ele><time>2024-06-19T23:36:10Z</time></trkpt>
<trkpt lat="37.643685" lon="-118.966178"><ele>2401.4</ele><time>2024-06-19T23:37:39Z</time></trkpt>
<trkpt lat="37.643742" lon="-118.966223"><ele>2402.8</ele><time>2024-06-19T23:38:03Z</time></trkpt>
<trkpt lat="37.643784" lon="-118.966161"><ele>2403.4</ele><time>2024-06-19T23:38:12Z</time></trkpt>
<trkpt lat="37.643707" lon="-118.966259"><ele>2401.0</ele><time>2024-06-19T23:40:07Z</time></trkpt>
<trkpt lat="37.643664" lon="-118.965996"><ele>2400.2</ele><time>2024-06-19T23:41:58Z</time></trkpt>
<trkpt lat="37.643698" lon="-118.966182"><ele>2400.6</ele><time>2024-06-19T23:42:08Z</time></trkpt>
<trkpt lat="37.643790" lon="-118.965977"><ele>2400.0</ele><time>2024-06-19T23:43:59Z</time></trkpt>
<trkpt lat="37.643602" lon="-118.965956"><ele>2399.6</ele><time>2024-06-19T23:44:05Z</time></trkpt>
<trkpt lat="37.643655" lon="-118.966194"><ele>2399.6</ele><time>2024-06-19T23:44:11Z</time></trkpt>
<trkpt lat="37.643685" lon="-118.966166"><ele>2399.6</ele><time>2024-06-19T23:44:19Z</time></trkpt>
<trkpt lat="37.643665" lon="-118.966109"><ele>2399.8</ele><time>2024-06-19T23:44:24Z</time></trkpt>
<trkpt lat="37.643537" lon="-118.966166"><ele>2400.4</ele><time>2024-06-19T23:44:52Z</time></trkpt>
<trkpt lat="37.643702" lon="-118.966192"><ele>2401.0</ele><time>2024-06-19T23:45:03Z</time></trkpt>
<trkpt lat="37.643803" lon="-118.966312"><ele>2400.8</ele><time>2024-06-19T23:45:13Z</time></trkpt>
<trkpt lat="37.643334" lon="-118.967249"><ele>2402.4</ele><time>2024-06-19T23:50:43Z</time></trkpt>
<trkpt lat="37.643589" lon="-118.967307"><ele>2402.0</ele><time>2024-06-20T00:04:39Z</time></trkpt>
<trkpt lat="37.643485" lon="-118.967252"><ele>2401.8</ele><time>2024-06-20T00:09:04Z</time></trkpt>
<trkpt lat="37.643476" lon="-118.967172"><ele>2401.4</ele><time>2024-06-20T00:09:46Z</time></trkpt>
<trkpt lat="37.643648" lon="-118.967427"><ele>2401.4</ele><time>2024-06-20T00:11:01Z</time></trkpt>
<trkpt lat="37.643574" lon="-118.967434"><ele>2401.4</ele><time>2024-06-20T00:11:15Z</time></trkpt>
<trkpt lat="37.643480" lon="-118.967314"><ele>2401.4</ele><time>2024-06-20T00:11:21Z</time></trkpt>
<trkpt lat="37.643430" lon="-118.967373"><ele>2401.4</ele><time>2024-06-20T00:11:28Z</time></trkpt>
<trkpt lat="37.643382" lon="-118.967266"><ele>2401.4</ele><time>2024-06-20T00:11:45Z</time></trkpt>
<trkpt lat="37.643500" lon="-118.967377"><ele>2401.6</ele><time>2024-06-20T00:12:09Z</time></trkpt>
<trkpt lat="37.643816" lon="-118.966883"><ele>2399.6</ele><time>2024-06-20T00:57:02Z</time></trkpt>
<trkpt lat="37.643755" lon="-118.966904"><ele>2399.6</ele><time>2024-06-20T00:57:03Z</time></trkpt>
<trkpt lat="37.643792" lon="-118.966859"><ele>2399.6</ele><time>2024-06-20T00:57:05Z</time></trkpt>
<trkpt lat="37.643724" lon="-118.966146"><ele>2397.2</ele><time>2024-06-20T00:57:59Z</time></trkpt>
<trkpt lat="37.642925" lon="-118.966312"><ele>2399.2</ele><time>2024-06-20T00:59:11Z</time></trkpt>
<trkpt lat="37.642525" lon="-118.966225"><ele>2399.6</ele><time>2024-06-20T00:59:45Z</time></trkpt>
<trkpt lat="37.641760" lon="-118.966215"><ele>2400.0</ele><time>2024-06-20T01:00:47Z</time></trkpt>
<trkpt lat="37.641608" lon="-118.966330"><ele>2400.0</ele><time>2024-06-20T01:00:57Z</time></trkpt>
<trkpt lat="37.640169" lon="-118.966696"><ele>2401.6</ele><time>2024-06-20T01:02:55Z</time></trkpt>
<trkpt lat="37.640257" lon="-118.966669"><ele>2401.4</ele><time>2024-06-20T01:03:03Z</time></trkpt>
<trkpt lat="37.639642" lon="-118.966621"><ele>2401.2</ele><time>2024-06-20T01:04:15Z</time></trkpt>
<trkpt lat="37.639277" lon="-118.966166"><ele>2400.8</ele><time>2024-06-20T01:04:58Z</time></trkpt>
<trkpt lat="37.638961" lon="-118.964928"><ele>2399.2</ele><time>2024-06-20T01:35:21Z</time></trkpt>
<trkpt lat="37.639031" lon="-118.964894"><ele>2399.2</ele><time>2024-06-20T01:35:24Z</time></trkpt>
<trkpt lat="37.638971" lon="-118.964799"><ele>2400.2</ele><time>2024-06-20T01:35:29Z</time></trkpt>
<trkpt lat="37.638957" lon="-118.964440"><ele>2401.4</ele><time>2024-06-20T01:35:53Z</time></trkpt>
<trkpt lat="37.639164" lon="-118.964523"><ele>2401.8</ele><time>2024-06-20T01:36:00Z</time></trkpt>
<trkpt lat="37.639687" lon="-118.964331"><ele>2402.4</ele><time>2024-06-20T01:36:39Z</time></trkpt>
<trkpt lat="37.639809" lon="-118.964349"><ele>2402.6</ele><time>2024-06-20T01:36:51Z</time></trkpt>
<trkpt lat="37.639788" lon="-118.964416"><ele>2402.8</ele><time>2024-06-20T01:37:05Z</time></trkpt>
<trkpt lat="37.640033" lon="-118.964424"><ele>2403.0</ele><time>2024-06-20T01:37:33Z</time></trkpt>
<trkpt lat="37.640260" lon="-118.964743"><ele>2404.6</ele><time>2024-06-20T01:37:56Z</time></trkpt>
<trkpt lat="37.640292" lon="-118.964894"><ele>2403.8</ele><time>2024-06-20T01:38:06Z</time></trkpt>
<trkpt lat="37.640902" lon="-118.964892"><ele>2403.2</ele><time>2024-06-20T01:38:42Z</time></trkpt>
<trkpt lat="37.641516" lon="-118.965007"><ele>2399.4</ele><time>2024-06-20T01:39:36Z</time></trkpt>
<trkpt lat="37.641616" lon="-118.964909"><ele>2398.8</ele><time>2024-06-20T01:39:52Z</time></trkpt>
<trkpt lat="37.642769" lon="-118.965016"><ele>2397.2</ele><time>2024-06-20T01:41:40Z</time></trkpt>
<trkpt lat="37.643174" lon="-118.964985"><ele>2397.2</ele><time>2024-06-20T01:41:58Z</time></trkpt>
<trkpt lat="37.643310" lon="-118.964904"><ele>2397.0</ele><time>2024-06-20T01:42:11Z</time></trkpt>
<trkpt lat="37.644784" lon="-118.964886"><ele>2392.8</ele><time>2024-06-20T01:44:01Z</time></trkpt>
<trkpt lat="37.644800" lon="-118.965234"><ele>2393.4</ele><time>2024-06-20T01:44:24Z</time></trkpt>
<trkpt lat="37.644967" lon="-118.965509"><ele>2395.8</ele><time>2024-06-20T01:45:10Z</time></trkpt>
<trkpt lat="37.645035" lon="-118.966265"><ele>2397.4</ele><time>2024-06-20T01:45:50Z</time></trkpt>
<trkpt lat="37.645021" lon="-118.966427"><ele>2397.8</ele><time>2024-06-20T01:45:56Z</time></trkpt>
<trkpt lat="37.644908" lon="-118.966498"><ele>2395.4</ele><time>2024-06-20T01:47:59Z</time></trkpt>
<trkpt lat="37.644915" lon="-118.966647"><ele>2396.8</ele><time>2024-06-20T01:48:11Z</time></trkpt>
<trkpt lat="37.644572" lon="-118.966556"><ele>2395.2</ele><time>2024-06-20T01:49:04Z</time></trkpt>
<trkpt lat="37.644239" lon="-118.966178"><ele>2397.8</ele><time>2024-06-20T01:49:56Z</time></trkpt>
<trkpt lat="37.643982" lon="-118.966241"><ele>2398.4</ele><time>2024-06-20T01:50:16Z</time></trkpt>
<trkpt lat="37.643632" lon="-118.967141"><ele>2398.8</ele><time>2024-06-20T01:52:43Z</time></trkpt>
<trkpt lat="37.643678" lon="-118.967220"><ele>2398.6</ele><time>2024-06-20T01:52:46Z</time></trkpt>
<trkpt lat="37.643337" lon="-118.967266"><ele>2397.6</ele><time>2024-06-20T02:01:03Z</time></trkpt>
<trkpt lat="37.643487" lon="-118.967363"><ele>2397.4</ele><time>2024-06-20T02:01:11Z</time></trkpt>
<trkpt lat="37.643324" lon="-118.967216"><ele>2397.2</ele><time>2024-06-20T02:03:32Z</time></trkpt>
<trkpt lat="37.643548" lon="-118.967129"><ele>2396.6</ele><time>2024-06-20T02:05:59Z</time></trkpt>
<trkpt lat="37.643704" lon="-118.967193"><ele>2397.0</ele><time>2024-06-20T02:13:07Z</time></trkpt>
<trkpt lat="37.643363" lon="-118.967325"><ele>2396.0</ele><time>2024-06-20T02:16:19Z</time></trkpt>
<trkpt lat="37.643454" lon="-118.967407"><ele>2395.8</ele><time>2024-06-20T02:18:10Z</time></trkpt>
<trkpt lat="37.643930" lon="-118.967218"><ele>2395.0</ele><time>2024-06-20T02:19:59Z</time></trkpt>
<trkpt lat="37.644128" lon="-118.967267"><ele>2395.4</ele><time>2024-06-20T02:20:23Z</time></trkpt>
<trkpt lat="37.644170" lon="-118.967202"><ele>2395.4</ele><time>2024-06-20T02:20:24Z</time></trkpt>
<trkpt lat="37.644090" lon="-118.967098"><ele>2395.2</ele><time>2024-06-20T02:20:27Z</time></trkpt>
<trkpt lat="37.643580" lon="-118.967376"><ele>2395.0</ele><time>2024-06-20T02:20:44Z</time></trkpt>
<trkpt lat="37.643382" lon="-118.967290"><ele>2395.2</ele><time>2024-06-20T02:27:08Z</time></trkpt>
<trkpt lat="37.643718" lon="-118.967306"><ele>2395.2</ele><time>2024-06-20T02:27:26Z</time></trkpt>
<trkpt lat="37.643700" lon="-118.967258"><ele>2395.4</ele><time>2024-06-20T02:27:27Z</time></trkpt>
<trkpt lat="37.643266" lon="-118.967228"><ele>2395.0</ele><time>2024-06-20T02:33:03Z</time></trkpt>
<trkpt lat="37.643408" lon="-118.967285"><ele>2395.2</ele><time>2024-06-20T02:33:13Z</time></trkpt>
<trkpt lat="37.643471" lon="-118.967390"><ele>2395.4</ele><time>2024-06-20T02:35:20Z</time></trkpt>
<trkpt lat="37.643577" lon="-118.967223"><ele>2395.2</ele><time>2024-06-20T02:35:31Z</time></trkpt>
<trkpt lat="37.643689" lon="-118.967270"><ele>2395.4</ele><time>2024-06-20T02:35:40Z</time></trkpt>
<trkpt lat="37.643884" lon="-118.967221"><ele>2395.0</ele><time>2024-06-20T02:41:10Z</time></trkpt>
<trkpt lat="37.643667" lon="-118.967115"><ele>2397.2</ele><time>2024-06-20T02:43:03Z</time></trkpt>
<trkpt lat="37.643753" lon="-118.967151"><ele>2397.4</ele><time>2024-06-20T02:43:07Z</time></trkpt>
<trkpt lat="37.643807" lon="-118.967086"><ele>2396.8</ele><time>2024-06-20T02:43:15Z</time></trkpt>
<trkpt lat="37.643683" lon="-118.967163"><ele>2398.6</ele><time>2024-06-20T02:43:40Z</time></trkpt>
<trkpt lat="37.643510" lon="-118.967499"><ele>2400.2</ele><time>2024-06-20T02:45:02Z</time></trkpt>
<trkpt lat="37.642860" lon="-118.967427"><ele>2402.0</ele><time>2024-06-20T02:46:19Z</time></trkpt>
<trkpt lat="37.642906" lon="-118.967509"><ele>2400.6</ele><time>2024-06-20T02:47:07Z</time></trkpt>
<trkpt lat="37.642852" lon="-118.967536"><ele>2400.4</ele><time>2024-06-20T02:47:13Z</time></trkpt>
<trkpt lat="37.643004" lon="-118.967411"><ele>2400.4</ele><time>2024-06-20T02:47:43Z</time></trkpt>
<trkpt lat="37.643382" lon="-118.967575"><ele>2398.6</ele><time>2024-06-20T02:48:23Z</time></trkpt>
<trkpt lat="37.643246" lon="-118.967359"><ele>2399.0</ele><time>2024-06-20T02:49:04Z</time></trkpt>
<trkpt lat="37.643306" lon="-118.966875"><ele>2398.0</ele><time>2024-06-20T02:49:48Z</time></trkpt>
<trkpt lat="37.643133" lon="-118.966999"><ele>2397.0</ele><time>2024-06-20T02:50:30Z</time></trkpt>
<trkpt lat="37.643215" lon="-118.966956"><ele>2396.8</ele><time>2024-06-20T02:51:04Z</time></trkpt>
<trkpt lat="37.643194" lon="-118.966803"><ele>2397.0</ele><time>2024-06-20T02:52:26Z</time></trkpt>
<trkpt lat="37.643247" lon="-118.966987"><ele>2397.6</ele><time>2024-06-20T02:52:54Z</time></trkpt>
<trkpt lat="37.643169" lon="-118.967135"><ele>2397.2</ele><time>2024-06-20T02:53:01Z</time></trkpt>
<trkpt lat="37.643220" lon="-118.967328"><ele>2397.2</ele><time>2024-06-20T02:53:07Z</time></trkpt>
<trkpt lat="37.643524" lon="-118.967728"><ele>2400.0</ele><time>2024-06-20T02:53:52Z</time></trkpt>
<trkpt lat="37.643013" lon="-118.967543"><ele>2402.2</ele><time>2024-06-20T02:54:36Z</time></trkpt>
<trkpt lat="37.642895" lon="-118.967593"><ele>2401.0</ele><time>2024-06-20T02:54:54Z</time></trkpt>
<trkpt lat="37.643001" lon="-118.967433"><ele>2400.6</ele><time>2024-06-20T02:55:09Z</time></trkpt>
<trkpt lat="37.642860" lon="-118.967714"><ele>2400.4</ele><time>2024-06-20T02:55:11Z</time></trkpt>
<trkpt lat="37.642906" lon="-118.967697"><ele>2400.4</ele><time>2024-06-20T02:55:15Z</time></trkpt>
<trkpt lat="37.642822" lon="-118.967470"><ele>2401.0</ele><time>2024-06-20T02:56:40Z</time></trkpt>
<trkpt lat="37.642827" lon="-118.967308"><ele>2399.8</ele><time>2024-06-20T02:57:04Z</time></trkpt>
<trkpt lat="37.642686" lon="-118.967424"><ele>2399.8</ele><time>2024-06-20T02:57:09Z</time></trkpt>
<trkpt lat="37.642819" lon="-118.967560"><ele>2400.4</ele><time>2024-06-20T02:57:16Z</time></trkpt>
</trkseg></trk>
</gpx>
