<?xml version="1.0" encoding="UTF-8"?>
<gpx version="1.1" creator="Eric Sichak trip reports" xmlns="http://www.topografix.com/GPX/1/1">
<metadata><name>Morning Hike</name><time>2024-06-25T13:19:19Z</time></metadata>
<trk><name>Morning Hike</name><type>hike</type><trkseg>
<trkpt lat="38.177147" lon="-119.592522"><ele>2870.8</ele><time>2024-06-25T13:19:19Z</time></trkpt>
<trkpt lat="38.177163" lon="-119.592256"><ele>2875.6</ele><time>2024-06-25T13:20:42Z</time></trkpt>
<trkpt lat="38.177230" lon="-119.592258"><ele>2875.8</ele><time>2024-06-25T13:20:45Z</time></trkpt>
<trkpt lat="38.177145" lon="-119.592329"><ele>2875.6</ele><time>2024-06-25T13:20:56Z</time></trkpt>
<trkpt lat="38.177131" lon="-119.592423"><ele>2878.0</ele><time>2024-06-25T13:21:25Z</time></trkpt>
<trkpt lat="38.177195" lon="-119.591922"><ele>2875.2</ele><time>2024-06-25T13:22:43Z</time></trkpt>
<trkpt lat="38.177313" lon="-119.591745"><ele>2875.4</ele><time>2024-06-25T13:22:49Z</time></trkpt>
<trkpt lat="38.177786" lon="-119.590440"><ele>2875.0</ele><time>2024-06-25T13:24:42Z</time></trkpt>
<trkpt lat="38.178287" lon="-119.589823"><ele>2872.2</ele><time>2024-06-25T13:25:41Z</time></trkpt>
<trkpt lat="38.178497" lon="-119.589091"><ele>2871.4</ele><time>2024-06-25T13:26:42Z</time></trkpt>
<trkpt lat="38.178601" lon="-119.589019"><ele>2870.8</ele><time>2024-06-25T13:26:50Z</time></trkpt>
<trkpt lat="38.178628" lon="-119.589076"><ele>2870.4</ele><time>2024-06-25T13:26:59Z</time></trkpt>
<trkpt lat="38.178686" lon="-119.588294"><ele>2872.8</ele><time>2024-06-25T13:28:20Z</time></trkpt>
<trkpt lat="38.178692" lon="-119.587891"><ele>2871.6</ele><time>2024-06-25T13:28:42Z</time></trkpt>
<trkpt lat="38.178614" lon="-119.587890"><ele>2871.2</ele><time>2024-06-25T13:28:46Z</time></trkpt>
<trkpt lat="38.178644" lon="-119.587673"><ele>2869.6</ele><time>2024-06-25T13:29:02Z</time></trkpt>
<trkpt lat="38.179030" lon="-119.586550"><ele>2870.6</ele><time>2024-06-25T13:30:55Z</time></trkpt>
<trkpt lat="38.179079" lon="-119.585976"><ele>2870.2</ele><time>2024-06-25T13:31:22Z</time></trkpt>
<trkpt lat="38.179314" lon="-119.585089"><ele>2871.8</ele><time>2024-06-25T13:32:44Z</time></trkpt>
<trkpt lat="38.179255" lon="-119.585096"><ele>2872.4</ele><time>2024-06-25T13:32:48Z</time></trkpt>
<trkpt lat="38.179270" lon="-119.584969"><ele>2873.0</ele><time>2024-06-25T13:32:58Z</time></trkpt>
<trkpt lat="38.179550" lon="-119.584027"><ele>2885.4</ele><time>2024-06-25T13:34:44Z</time></trkpt>
<trkpt lat="38.179581" lon="-119.583533"><ele>2890.4</ele><time>2024-06-25T13:35:22Z</time></trkpt>
<trkpt lat="38.179529" lon="-119.583517"><ele>2891.4</ele><time>2024-06-25T13:35:40Z</time></trkpt>
<trkpt lat="38.179765" lon="-119.581943"><ele>2908.2</ele><time>2024-06-25T13:38:44Z</time></trkpt>
<trkpt lat="38.179827" lon="-119.581958"><ele>2907.8</ele><time>2024-06-25T13:38:53Z</time></trkpt>
<trkpt lat="38.179783" lon="-119.581882"><ele>2908.4</ele><time>2024-06-25T13:39:26Z</time></trkpt>
<trkpt lat="38.179839" lon="-119.581990"><ele>2906.8</ele><time>2024-06-25T13:40:46Z</time></trkpt>
<trkpt lat="38.179799" lon="-119.581921"><ele>2907.4</ele><time>2024-06-25T13:40:57Z</time></trkpt>
<trkpt lat="38.179775" lon="-119.582123"><ele>2907.2</ele><time>2024-06-25T13:42:59Z</time></trkpt>
<trkpt lat="38.180260" lon="-119.581542"><ele>2909.2</ele><time>2024-06-25T13:44:43Z</time></trkpt>
<trkpt lat="38.180159" lon="-119.581618"><ele>2909.2</ele><time>2024-06-25T13:44:45Z</time></trkpt>
<trkpt lat="38.180523" lon="-119.581096"><ele>2907.4</ele><time>2024-06-25T13:45:36Z</time></trkpt>
<trkpt lat="38.181058" lon="-119.580697"><ele>2906.8</ele><time>2024-06-25T13:46:43Z</time></trkpt>
<trkpt lat="38.181222" lon="-119.580827"><ele>2906.8</ele><time>2024-06-25T13:46:56Z</time></trkpt>
<trkpt lat="38.181600" lon="-119.580741"><ele>2906.4</ele><time>2024-06-25T13:47:42Z</time></trkpt>
<trkpt lat="38.182120" lon="-119.580375"><ele>2906.6</ele><time>2024-06-25T13:48:43Z</time></trkpt>
<trkpt lat="38.182328" lon="-119.580330"><ele>2905.6</ele><time>2024-06-25T13:48:59Z</time></trkpt>
<trkpt lat="38.182537" lon="-119.579767"><ele>2906.4</ele><time>2024-06-25T13:49:52Z</time></trkpt>
<trkpt lat="38.182881" lon="-119.579223"><ele>2906.0</ele><time>2024-06-25T13:50:42Z</time></trkpt>
<trkpt lat="38.183149" lon="-119.578237"><ele>2907.4</ele><time>2024-06-25T13:52:08Z</time></trkpt>
<trkpt lat="38.183473" lon="-119.577659"><ele>2908.4</ele><time>2024-06-25T13:52:44Z</time></trkpt>
<trkpt lat="38.183605" lon="-119.577643"><ele>2907.8</ele><time>2024-06-25T13:52:52Z</time></trkpt>
<trkpt lat="38.183945" lon="-119.577283"><ele>2902.2</ele><time>2024-06-25T13:54:34Z</time></trkpt>
<trkpt lat="38.183926" lon="-119.577131"><ele>2902.4</ele><time>2024-06-25T13:54:43Z</time></trkpt>
<trkpt lat="38.183791" lon="-119.577092"><ele>2902.6</ele><time>2024-06-25T13:54:50Z</time></trkpt>
<trkpt lat="38.183812" lon="-119.576954"><ele>2901.0</ele><time>2024-06-25T13:55:03Z</time></trkpt>
<trkpt lat="38.183589" lon="-119.576029"><ele>2897.8</ele><time>2024-06-25T13:56:49Z</time></trkpt>
<trkpt lat="38.183598" lon="-119.575872"><ele>2898.4</ele><time>2024-06-25T13:57:01Z</time></trkpt>
<trkpt lat="38.183787" lon="-119.575792"><ele>2897.2</ele><time>2024-06-25T13:58:43Z</time></trkpt>
<trkpt lat="38.183719" lon="-119.575684"><ele>2897.6</ele><time>2024-06-25T13:58:52Z</time></trkpt>
<trkpt lat="38.183870" lon="-119.575177"><ele>2896.4</ele><time>2024-06-25T13:59:28Z</time></trkpt>
<trkpt lat="38.184826" lon="-119.574416"><ele>2884.2</ele><time>2024-06-25T14:01:34Z</time></trkpt>
<trkpt lat="38.184948" lon="-119.574146"><ele>2881.6</ele><time>2024-06-25T14:02:10Z</time></trkpt>
<trkpt lat="38.185344" lon="-119.573797"><ele>2879.0</ele><time>2024-06-25T14:02:50Z</time></trkpt>
<trkpt lat="38.185612" lon="-119.573074"><ele>2873.6</ele><time>2024-06-25T14:04:15Z</time></trkpt>
<trkpt lat="38.185606" lon="-119.572704"><ele>2867.8</ele><time>2024-06-25T14:04:47Z</time></trkpt>
<trkpt lat="38.185790" lon="-119.572599"><ele>2864.6</ele><time>2024-06-25T14:05:02Z</time></trkpt>
<trkpt lat="38.186528" lon="-119.572602"><ele>2856.6</ele><time>2024-06-25T14:06:09Z</time></trkpt>
<trkpt lat="38.186958" lon="-119.572515"><ele>2856.4</ele><time>2024-06-25T14:06:47Z</time></trkpt>
<trkpt lat="38.186931" lon="-119.572355"><ele>2856.4</ele><time>2024-06-25T14:06:53Z</time></trkpt>
<trkpt lat="38.187025" lon="-119.572170"><ele>2857.2</ele><time>2024-06-25T14:07:03Z</time></trkpt>
<trkpt lat="38.187088" lon="-119.571749"><ele>2852.4</ele><time>2024-06-25T14:07:51Z</time></trkpt>
<trkpt lat="38.187055" lon="-119.571466"><ele>2849.0</ele><time>2024-06-25T14:08:09Z</time></trkpt>
<trkpt lat="38.187012" lon="-119.571416"><ele>2847.8</ele><time>2024-06-25T14:08:21Z</time></trkpt>
<trkpt lat="38.186918" lon="-119.571567"><ele>2845.6</ele><time>2024-06-25T14:08:43Z</time></trkpt>
<trkpt lat="38.186627" lon="-119.571493"><ele>2843.6</ele><time>2024-06-25T14:09:09Z</time></trkpt>
<trkpt lat="38.186542" lon="-119.571380"><ele>2841.4</ele><time>2024-06-25T14:09:31Z</time></trkpt>
<trkpt lat="38.186563" lon="-119.571115"><ele>2839.2</ele><time>2024-06-25T14:09:55Z</time></trkpt>
<trkpt lat="38.186439" lon="-119.571077"><ele>2834.8</ele><time>2024-06-25T14:10:29Z</time></trkpt>
<trkpt lat="38.186379" lon="-119.570899"><ele>2832.6</ele><time>2024-06-25T14:10:44Z</time></trkpt>
<trkpt lat="38.186448" lon="-119.570678"><ele>2831.2</ele><time>2024-06-25T14:10:56Z</time></trkpt>
<trkpt lat="38.186737" lon="-119.570135"><ele>2816.2</ele><time>2024-06-25T14:12:49Z</time></trkpt>
<trkpt lat="38.187004" lon="-119.569999"><ele>2817.2</ele><time>2024-06-25T14:13:13Z</time></trkpt>
<trkpt lat="38.187965" lon="-119.569913"><ele>2814.0</ele><time>2024-06-25T14:14:50Z</time></trkpt>
<trkpt lat="38.188064" lon="-119.569783"><ele>2813.4</ele><time>2024-06-25T14:15:02Z</time></trkpt>
<trkpt lat="38.188401" lon="-119.569653"><ele>2813.6</ele><time>2024-06-25T14:15:37Z</time></trkpt>
<trkpt lat="38.189126" lon="-119.569683"><ele>2805.4</ele><time>2024-06-25T14:16:43Z</time></trkpt>
<trkpt lat="38.189103" lon="-119.569618"><ele>2802.6</ele><time>2024-06-25T14:16:54Z</time></trkpt>
<trkpt lat="38.189185" lon="-119.569650"><ele>2802.2</ele><time>2024-06-25T14:17:00Z</time></trkpt>
<trkpt lat="38.189180" lon="-119.569479"><ele>2799.6</ele><time>2024-06-25T14:17:33Z</time></trkpt>
<trkpt lat="38.189069" lon="-119.569379"><ele>2801.2</ele><time>2024-06-25T14:18:44Z</time></trkpt>
<trkpt lat="38.189095" lon="-119.569496"><ele>2802.0</ele><time>2024-06-25T14:19:02Z</time></trkpt>
<trkpt lat="38.189287" lon="-119.569371"><ele>2799.6</ele><time>2024-06-25T14:20:05Z</time></trkpt>
<trkpt lat="38.189283" lon="-119.569247"><ele>2802.6</ele><time>2024-06-25T14:20:49Z</time></trkpt>
<trkpt lat="38.189369" lon="-119.569174"><ele>2802.2</ele><time>2024-06-25T14:20:56Z</time></trkpt>
<trkpt lat="38.189532" lon="-119.569230"><ele>2802.4</ele><time>2024-06-25T14:21:12Z</time></trkpt>
<trkpt lat="38.189700" lon="-119.569399"><ele>2800.4</ele><time>2024-06-25T14:21:46Z</time></trkpt>
<trkpt lat="38.189776" lon="-119.569252"><ele>2799.6</ele><time>2024-06-25T14:22:18Z</time></trkpt>
<trkpt lat="38.189975" lon="-119.569351"><ele>2796.6</ele><time>2024-06-25T14:22:46Z</time></trkpt>
<trkpt lat="38.190054" lon="-119.569467"><ele>2794.4</ele><time>2024-06-25T14:23:04Z</time></trkpt>
<trkpt lat="38.190199" lon="-119.569469"><ele>2793.4</ele><time>2024-06-25T14:23:11Z</time></trkpt>
<trkpt lat="38.190250" lon="-119.569563"><ele>2792.0</ele><time>2024-06-25T14:23:19Z</time></trkpt>
<trkpt lat="38.190419" lon="-119.569615"><ele>2788.8</ele><time>2024-06-25T14:23:57Z</time></trkpt>
<trkpt lat="38.190634" lon="-119.569562"><ele>2789.6</ele><time>2024-06-25T14:24:13Z</time></trkpt>
<trkpt lat="38.190765" lon="-119.569285"><ele>2788.6</ele><time>2024-06-25T14:24:48Z</time></trkpt>
<trkpt lat="38.190684" lon="-119.569278"><ele>2788.4</ele><time>2024-06-25T14:24:53Z</time></trkpt>
<trkpt lat="38.191072" lon="-119.569260"><ele>2788.2</ele><time>2024-06-25T14:26:09Z</time></trkpt>
<trkpt lat="38.191096" lon="-119.569454"><ele>2785.6</ele><time>2024-06-25T14:26:21Z</time></trkpt>
<trkpt lat="38.191235" lon="-119.569594"><ele>2784.4</ele><time>2024-06-25T14:26:35Z</time></trkpt>
<trkpt lat="38.191378" lon="-119.569553"><ele>2784.8</ele><time>2024-06-25T14:26:45Z</time></trkpt>
<trkpt lat="38.191532" lon="-119.569603"><ele>2784.4</ele><time>2024-06-25T14:26:59Z</time></trkpt>
<trkpt lat="38.191517" lon="-119.569658"><ele>2783.2</ele><time>2024-06-25T14:27:04Z</time></trkpt>
<trkpt lat="38.191777" lon="-119.569508"><ele>2781.2</ele><time>2024-06-25T14:27:25Z</time></trkpt>
<trkpt lat="38.192302" lon="-119.569363"><ele>2777.8</ele><time>2024-06-25T14:28:39Z</time></trkpt>
<trkpt lat="38.192474" lon="-119.569398"><ele>2775.6</ele><time>2024-06-25T14:28:53Z</time></trkpt>
<trkpt lat="38.192422" lon="-119.569476"><ele>2775.6</ele><time>2024-06-25T14:29:04Z</time></trkpt>
<trkpt lat="38.192673" lon="-119.569690"><ele>2772.4</ele><time>2024-06-25T14:29:29Z</time></trkpt>
<trkpt lat="38.193355" lon="-119.569709"><ele>2769.8</ele><time>2024-06-25T14:30:46Z</time></trkpt>
<trkpt lat="38.193762" lon="-119.569625"><ele>2766.8</ele><time>2024-06-25T14:31:53Z</time></trkpt>
<trkpt lat="38.193488" lon="-119.569676"><ele>2768.2</ele><time>2024-06-25T14:32:46Z</time></trkpt>
<trkpt lat="38.193463" lon="-119.569592"><ele>2768.0</ele><time>2024-06-25T14:32:52Z</time></trkpt>
<trkpt lat="38.193796" lon="-119.569871"><ele>2764.2</ele><time>2024-06-25T14:34:47Z</time></trkpt>
<trkpt lat="38.193779" lon="-119.570032"><ele>2763.6</ele><time>2024-06-25T14:34:57Z</time></trkpt>
<trkpt lat="38.193956" lon="-119.570148"><ele>2759.0</ele><time>2024-06-25T14:35:15Z</time></trkpt>
<trkpt lat="38.194022" lon="-119.570394"><ele>2753.4</ele><time>2024-06-25T14:35:41Z</time></trkpt>
<trkpt lat="38.194595" lon="-119.570776"><ele>2752.2</ele><time>2024-06-25T14:36:45Z</time></trkpt>
<trkpt lat="38.194733" lon="-119.570783"><ele>2753.0</ele><time>2024-06-25T14:36:56Z</time></trkpt>
<trkpt lat="38.195688" lon="-119.571758"><ele>2754.6</ele><time>2024-06-25T14:38:47Z</time></trkpt>
<trkpt lat="38.195719" lon="-119.571581"><ele>2754.6</ele><time>2024-06-25T14:38:55Z</time></trkpt>
<trkpt lat="38.196082" lon="-119.571281"><ele>2750.2</ele><time>2024-06-25T14:39:25Z</time></trkpt>
<trkpt lat="38.196701" lon="-119.570474"><ele>2747.4</ele><time>2024-06-25T14:40:44Z</time></trkpt>
<trkpt lat="38.196840" lon="-119.570444"><ele>2748.4</ele><time>2024-06-25T14:40:51Z</time></trkpt>
<trkpt lat="38.196774" lon="-119.570366"><ele>2748.8</ele><time>2024-06-25T14:40:55Z</time></trkpt>
<trkpt lat="38.196887" lon="-119.570430"><ele>2750.0</ele><time>2024-06-25T14:41:04Z</time></trkpt>
<trkpt lat="38.197453" lon="-119.570328"><ele>2751.6</ele><time>2024-06-25T14:42:07Z</time></trkpt>
<trkpt lat="38.198167" lon="-119.570331"><ele>2753.2</ele><time>2024-06-25T14:42:44Z</time></trkpt>
<trkpt lat="38.198178" lon="-119.570127"><ele>2754.4</ele><time>2024-06-25T14:42:56Z</time></trkpt>
<trkpt lat="38.198293" lon="-119.570073"><ele>2753.4</ele><time>2024-06-25T14:43:03Z</time></trkpt>
<trkpt lat="38.198419" lon="-119.569841"><ele>2751.4</ele><time>2024-06-25T14:43:14Z</time></trkpt>
<trkpt lat="38.198674" lon="-119.569810"><ele>2750.8</ele><time>2024-06-25T14:43:42Z</time></trkpt>
<trkpt lat="38.199114" lon="-119.569529"><ele>2748.2</ele><time>2024-06-25T14:44:26Z</time></trkpt>
<trkpt lat="38.199760" lon="-119.569001"><ele>2747.8</ele><time>2024-06-25T14:45:15Z</time></trkpt>
<trkpt lat="38.200063" lon="-119.568626"><ele>2747.8</ele><time>2024-06-25T14:45:45Z</time></trkpt>
<trkpt lat="38.200430" lon="-119.568414"><ele>2747.0</ele><time>2024-06-25T14:46:15Z</time></trkpt>
<trkpt lat="38.200640" lon="-119.568333"><ele>2749.4</ele><time>2024-06-25T14:46:37Z</time></trkpt>
<trkpt lat="38.200731" lon="-119.568487"><ele>2750.2</ele><time>2024-06-25T14:46:50Z</time></trkpt>
<trkpt lat="38.200693" lon="-119.568413"><ele>2751.4</ele><time>2024-06-25T14:46:55Z</time></trkpt>
<trkpt lat="38.201069" lon="-119.568537"><ele>2752.6</ele><time>2024-06-25T14:47:15Z</time></trkpt>
<trkpt lat="38.201352" lon="-119.568289"><ele>2754.6</ele><time>2024-06-25T14:47:35Z</time></trkpt>
<trkpt lat="38.201854" lon="-119.567990"><ele>2754.6</ele><time>2024-06-25T14:48:33Z</time></trkpt>
<trkpt lat="38.202084" lon="-119.567714"><ele>2754.8</ele><time>2024-06-25T14:48:53Z</time></trkpt>
<trkpt lat="38.202719" lon="-119.567952"><ele>2758.2</ele><time>2024-06-25T14:49:52Z</time></trkpt>
<trkpt lat="38.202923" lon="-119.568328"><ele>2757.8</ele><time>2024-06-25T14:50:28Z</time></trkpt>
<trkpt lat="38.203179" lon="-119.568575"><ele>2758.2</ele><time>2024-06-25T14:50:49Z</time></trkpt>
<trkpt lat="38.203326" lon="-119.568631"><ele>2758.8</ele><time>2024-06-25T14:51:02Z</time></trkpt>
<trkpt lat="38.203721" lon="-119.569486"><ele>2759.2</ele><time>2024-06-25T14:51:51Z</time></trkpt>
<trkpt lat="38.204129" lon="-119.570052"><ele>2758.2</ele><time>2024-06-25T14:52:47Z</time></trkpt>
<trkpt lat="38.204284" lon="-119.570123"><ele>2756.6</ele><time>2024-06-25T14:52:57Z</time></trkpt>
<trkpt lat="38.204358" lon="-119.570273"><ele>2755.8</ele><time>2024-06-25T14:53:09Z</time></trkpt>
<trkpt lat="38.204640" lon="-119.570411"><ele>2755.4</ele><time>2024-06-25T14:53:33Z</time></trkpt>
<trkpt lat="38.204733" lon="-119.570374"><ele>2754.8</ele><time>2024-06-25T14:53:47Z</time></trkpt>
<trkpt lat="38.205241" lon="-119.570526"><ele>2754.4</ele><time>2024-06-25T14:54:33Z</time></trkpt>
<trkpt lat="38.205434" lon="-119.570700"><ele>2752.2</ele><time>2024-06-25T14:54:49Z</time></trkpt>
<trkpt lat="38.205440" lon="-119.570944"><ele>2749.0</ele><time>2024-06-25T14:55:06Z</time></trkpt>
<trkpt lat="38.205677" lon="-119.571244"><ele>2745.6</ele><time>2024-06-25T14:55:44Z</time></trkpt>
<trkpt lat="38.205685" lon="-119.571613"><ele>2743.4</ele><time>2024-06-25T14:56:04Z</time></trkpt>
<trkpt lat="38.205943" lon="-119.571637"><ele>2739.8</ele><time>2024-06-25T14:56:26Z</time></trkpt>
<trkpt lat="38.206157" lon="-119.571826"><ele>2739.2</ele><time>2024-06-25T14:56:47Z</time></trkpt>
<trkpt lat="38.206186" lon="-119.571886"><ele>2738.6</ele><time>2024-06-25T14:56:52Z</time></trkpt>
<trkpt lat="38.206139" lon="-119.571913"><ele>2738.2</ele><time>2024-06-25T14:56:54Z</time></trkpt>
<trkpt lat="38.206225" lon="-119.571965"><ele>2736.6</ele><time>2024-06-25T14:57:03Z</time></trkpt>
<trkpt lat="38.206289" lon="-119.572213"><ele>2734.4</ele><time>2024-06-25T14:57:22Z</time></trkpt>
<trkpt lat="38.206479" lon="-119.572228"><ele>2731.0</ele><time>2024-06-25T14:57:46Z</time></trkpt>
<trkpt lat="38.205936" lon="-119.572393"><ele>2723.8</ele><time>2024-06-25T14:58:47Z</time></trkpt>
<trkpt lat="38.206074" lon="-119.572539"><ele>2723.8</ele><time>2024-06-25T14:58:48Z</time></trkpt>
<trkpt lat="38.205971" lon="-119.572621"><ele>2723.2</ele><time>2024-06-25T14:58:52Z</time></trkpt>
<trkpt lat="38.205901" lon="-119.572593"><ele>2724.2</ele><time>2024-06-25T14:59:00Z</time></trkpt>
<trkpt lat="38.205839" lon="-119.572946"><ele>2723.2</ele><time>2024-06-25T14:59:24Z</time></trkpt>
<trkpt lat="38.205867" lon="-119.573301"><ele>2720.0</ele><time>2024-06-25T14:59:42Z</time></trkpt>
<trkpt lat="38.205767" lon="-119.573996"><ele>2718.8</ele><time>2024-06-25T15:00:30Z</time></trkpt>
<trkpt lat="38.205860" lon="-119.574346"><ele>2719.0</ele><time>2024-06-25T15:00:51Z</time></trkpt>
<trkpt lat="38.205775" lon="-119.574303"><ele>2719.6</ele><time>2024-06-25T15:00:59Z</time></trkpt>
<trkpt lat="38.205866" lon="-119.574300"><ele>2721.0</ele><time>2024-06-25T15:01:05Z</time></trkpt>
<trkpt lat="38.206248" lon="-119.574782"><ele>2725.6</ele><time>2024-06-25T15:02:02Z</time></trkpt>
<trkpt lat="38.206591" lon="-119.575084"><ele>2726.6</ele><time>2024-06-25T15:02:36Z</time></trkpt>
<trkpt lat="38.206909" lon="-119.575277"><ele>2725.0</ele><time>2024-06-25T15:02:48Z</time></trkpt>
<trkpt lat="38.206836" lon="-119.575236"><ele>2724.4</ele><time>2024-06-25T15:02:50Z</time></trkpt>
<trkpt lat="38.207014" lon="-119.575097"><ele>2723.8</ele><time>2024-06-25T15:03:00Z</time></trkpt>
<trkpt lat="38.207307" lon="-119.575404"><ele>2720.2</ele><time>2024-06-25T15:03:31Z</time></trkpt>
<trkpt lat="38.207383" lon="-119.575596"><ele>2719.2</ele><time>2024-06-25T15:03:57Z</time></trkpt>
<trkpt lat="38.207678" lon="-119.575854"><ele>2718.0</ele><time>2024-06-25T15:04:23Z</time></trkpt>
<trkpt lat="38.208927" lon="-119.575700"><ele>2717.0</ele><time>2024-06-25T15:06:12Z</time></trkpt>
<trkpt lat="38.209324" lon="-119.575435"><ele>2716.0</ele><time>2024-06-25T15:06:47Z</time></trkpt>
<trkpt lat="38.209348" lon="-119.575256"><ele>2716.4</ele><time>2024-06-25T15:06:52Z</time></trkpt>
<trkpt lat="38.209162" lon="-119.575153"><ele>2717.0</ele><time>2024-06-25T15:06:57Z</time></trkpt>
<trkpt lat="38.209551" lon="-119.574965"><ele>2716.0</ele><time>2024-06-25T15:07:16Z</time></trkpt>
<trkpt lat="38.210021" lon="-119.574953"><ele>2716.0</ele><time>2024-06-25T15:08:14Z</time></trkpt>
<trkpt lat="38.210385" lon="-119.574828"><ele>2715.4</ele><time>2024-06-25T15:08:45Z</time></trkpt>
<trkpt lat="38.210436" lon="-119.574900"><ele>2715.0</ele><time>2024-06-25T15:08:47Z</time></trkpt>
<trkpt lat="38.210574" lon="-119.574905"><ele>2714.0</ele><time>2024-06-25T15:08:52Z</time></trkpt>
<trkpt lat="38.210899" lon="-119.574732"><ele>2710.6</ele><time>2024-06-25T15:10:14Z</time></trkpt>
<trkpt lat="38.211454" lon="-119.574793"><ele>2709.2</ele><time>2024-06-25T15:10:54Z</time></trkpt>
<trkpt lat="38.211786" lon="-119.574959"><ele>2705.2</ele><time>2024-06-25T15:11:22Z</time></trkpt>
<trkpt lat="38.212647" lon="-119.575890"><ele>2710.4</ele><time>2024-06-25T15:13:04Z</time></trkpt>
<trkpt lat="38.212974" lon="-119.575788"><ele>2708.2</ele><time>2024-06-25T15:13:44Z</time></trkpt>
<trkpt lat="38.213262" lon="-119.575554"><ele>2705.4</ele><time>2024-06-25T15:14:06Z</time></trkpt>
<trkpt lat="38.213814" lon="-119.575392"><ele>2703.6</ele><time>2024-06-25T15:14:49Z</time></trkpt>
<trkpt lat="38.213967" lon="-119.575257"><ele>2703.6</ele><time>2024-06-25T15:15:02Z</time></trkpt>
<trkpt lat="38.214546" lon="-119.575612"><ele>2705.2</ele><time>2024-06-25T15:15:56Z</time></trkpt>
<trkpt lat="38.214879" lon="-119.575691"><ele>2701.4</ele><time>2024-06-25T15:16:20Z</time></trkpt>
<trkpt lat="38.215036" lon="-119.575939"><ele>2702.4</ele><time>2024-06-25T15:17:02Z</time></trkpt>
<trkpt lat="38.215775" lon="-119.575866"><ele>2697.2</ele><time>2024-06-25T15:17:52Z</time></trkpt>
<trkpt lat="38.216396" lon="-119.575794"><ele>2708.4</ele><time>2024-06-25T15:19:02Z</time></trkpt>
<trkpt lat="38.216838" lon="-119.575945"><ele>2708.2</ele><time>2024-06-25T15:19:36Z</time></trkpt>
<trkpt lat="38.216876" lon="-119.576087"><ele>2708.6</ele><time>2024-06-25T15:19:50Z</time></trkpt>
<trkpt lat="38.217360" lon="-119.576757"><ele>2711.2</ele><time>2024-06-25T15:20:47Z</time></trkpt>
<trkpt lat="38.217291" lon="-119.576623"><ele>2711.4</ele><time>2024-06-25T15:20:53Z</time></trkpt>
<trkpt lat="38.217385" lon="-119.576647"><ele>2712.2</ele><time>2024-06-25T15:21:01Z</time></trkpt>
<trkpt lat="38.217578" lon="-119.577551"><ele>2716.0</ele><time>2024-06-25T15:22:03Z</time></trkpt>
<trkpt lat="38.217944" lon="-119.578239"><ele>2719.0</ele><time>2024-06-25T15:22:53Z</time></trkpt>
<trkpt lat="38.218029" lon="-119.578736"><ele>2722.8</ele><time>2024-06-25T15:23:45Z</time></trkpt>
<trkpt lat="38.217995" lon="-119.578812"><ele>2723.4</ele><time>2024-06-25T15:23:51Z</time></trkpt>
<trkpt lat="38.218292" lon="-119.579030"><ele>2721.2</ele><time>2024-06-25T15:24:15Z</time></trkpt>
<trkpt lat="38.218018" lon="-119.580272"><ele>2718.8</ele><time>2024-06-25T15:24:47Z</time></trkpt>
<trkpt lat="38.218193" lon="-119.579704"><ele>2718.8</ele><time>2024-06-25T15:24:48Z</time></trkpt>
<trkpt lat="38.217783" lon="-119.579571"><ele>2718.2</ele><time>2024-06-25T15:24:50Z</time></trkpt>
<trkpt lat="38.217650" lon="-119.579706"><ele>2719.8</ele><time>2024-06-25T15:25:04Z</time></trkpt>
<trkpt lat="38.217546" lon="-119.580171"><ele>2715.0</ele><time>2024-06-25T15:25:55Z</time></trkpt>
<trkpt lat="38.217566" lon="-119.580283"><ele>2715.0</ele><time>2024-06-25T15:26:09Z</time></trkpt>
<trkpt lat="38.217667" lon="-119.580363"><ele>2715.4</ele><time>2024-06-25T15:26:29Z</time></trkpt>
<trkpt lat="38.217872" lon="-119.580894"><ele>2713.8</ele><time>2024-06-25T15:27:05Z</time></trkpt>
<trkpt lat="38.218311" lon="-119.581196"><ele>2711.2</ele><time>2024-06-25T15:27:51Z</time></trkpt>
<trkpt lat="38.218320" lon="-119.581535"><ele>2710.2</ele><time>2024-06-25T15:28:23Z</time></trkpt>
<trkpt lat="38.218461" lon="-119.581819"><ele>2711.6</ele><time>2024-06-25T15:28:47Z</time></trkpt>
<trkpt lat="38.218577" lon="-119.581825"><ele>2712.2</ele><time>2024-06-25T15:28:53Z</time></trkpt>
<trkpt lat="38.218383" lon="-119.582065"><ele>2715.2</ele><time>2024-06-25T15:29:33Z</time></trkpt>
<trkpt lat="38.218446" lon="-119.582163"><ele>2714.8</ele><time>2024-06-25T15:29:41Z</time></trkpt>
<trkpt lat="38.218704" lon="-119.582209"><ele>2711.2</ele><time>2024-06-25T15:30:05Z</time></trkpt>
<trkpt lat="38.219139" lon="-119.582203"><ele>2705.4</ele><time>2024-06-25T15:30:39Z</time></trkpt>
<trkpt lat="38.219343" lon="-119.582096"><ele>2704.0</ele><time>2024-06-25T15:30:49Z</time></trkpt>
<trkpt lat="38.219236" lon="-119.581967"><ele>2702.2</ele><time>2024-06-25T15:30:58Z</time></trkpt>
<trkpt lat="38.219425" lon="-119.582006"><ele>2698.8</ele><time>2024-06-25T15:31:19Z</time></trkpt>
<trkpt lat="38.219740" lon="-119.581802"><ele>2691.0</ele><time>2024-06-25T15:32:03Z</time></trkpt>
<trkpt lat="38.219785" lon="-119.581616"><ele>2690.6</ele><time>2024-06-25T15:32:17Z</time></trkpt>
<trkpt lat="38.220175" lon="-119.580980"><ele>2691.2</ele><time>2024-06-25T15:32:53Z</time></trkpt>
<trkpt lat="38.220260" lon="-119.580934"><ele>2690.0</ele><time>2024-06-25T15:33:06Z</time></trkpt>
<trkpt lat="38.221223" lon="-119.580865"><ele>2680.4</ele><time>2024-06-25T15:34:13Z</time></trkpt>
<trkpt lat="38.221871" lon="-119.580914"><ele>2675.4</ele><time>2024-06-25T15:34:49Z</time></trkpt>
<trkpt lat="38.221533" lon="-119.580356"><ele>2673.6</ele><time>2024-06-25T15:35:02Z</time></trkpt>
<trkpt lat="38.222045" lon="-119.580333"><ele>2666.8</ele><time>2024-06-25T15:35:42Z</time></trkpt>
<trkpt lat="38.222217" lon="-119.580261"><ele>2665.4</ele><time>2024-06-25T15:35:54Z</time></trkpt>
<trkpt lat="38.222927" lon="-119.580308"><ele>2664.0</ele><time>2024-06-25T15:36:47Z</time></trkpt>
<trkpt lat="38.222640" lon="-119.579635"><ele>2663.8</ele><time>2024-06-25T15:36:52Z</time></trkpt>
<trkpt lat="38.222624" lon="-119.579301"><ele>2663.6</ele><time>2024-06-25T15:36:56Z</time></trkpt>
<trkpt lat="38.222720" lon="-119.579218"><ele>2662.4</ele><time>2024-06-25T15:37:05Z</time></trkpt>
<trkpt lat="38.223093" lon="-119.579221"><ele>2660.2</ele><time>2024-06-25T15:37:21Z</time></trkpt>
<trkpt lat="38.223614" lon="-119.579472"><ele>2657.8</ele><time>2024-06-25T15:38:07Z</time></trkpt>
<trkpt lat="38.223678" lon="-119.579560"><ele>2656.6</ele><time>2024-06-25T15:38:13Z</time></trkpt>
<trkpt lat="38.224278" lon="-119.579674"><ele>2649.6</ele><time>2024-06-25T15:38:47Z</time></trkpt>
<trkpt lat="38.224326" lon="-119.579635"><ele>2649.4</ele><time>2024-06-25T15:38:48Z</time></trkpt>
<trkpt lat="38.224215" lon="-119.579306"><ele>2648.0</ele><time>2024-06-25T15:38:53Z</time></trkpt>
<trkpt lat="38.223985" lon="-119.579013"><ele>2646.4</ele><time>2024-06-25T15:38:59Z</time></trkpt>
<trkpt lat="38.223980" lon="-119.578894"><ele>2645.4</ele><time>2024-06-25T15:39:03Z</time></trkpt>
<trkpt lat="38.224170" lon="-119.579026"><ele>2644.2</ele><time>2024-06-25T15:39:09Z</time></trkpt>
<trkpt lat="38.224705" lon="-119.578398"><ele>2638.4</ele><time>2024-06-25T15:39:49Z</time></trkpt>
<trkpt lat="38.224853" lon="-119.578084"><ele>2635.0</ele><time>2024-06-25T15:40:11Z</time></trkpt>
<trkpt lat="38.224896" lon="-119.577815"><ele>2635.0</ele><time>2024-06-25T15:40:33Z</time></trkpt>
<trkpt lat="38.225057" lon="-119.577740"><ele>2631.8</ele><time>2024-06-25T15:40:53Z</time></trkpt>
<trkpt lat="38.225022" lon="-119.577325"><ele>2631.4</ele><time>2024-06-25T15:41:07Z</time></trkpt>
<trkpt lat="38.225528" lon="-119.576906"><ele>2627.2</ele><time>2024-06-25T15:41:44Z</time></trkpt>
<trkpt lat="38.225540" lon="-119.577004"><ele>2627.2</ele><time>2024-06-25T15:41:45Z</time></trkpt>
<trkpt lat="38.225608" lon="-119.576962"><ele>2626.4</ele><time>2024-06-25T15:41:51Z</time></trkpt>
<trkpt lat="38.225756" lon="-119.576749"><ele>2625.2</ele><time>2024-06-25T15:42:08Z</time></trkpt>
<trkpt lat="38.226086" lon="-119.576791"><ele>2621.8</ele><time>2024-06-25T15:42:33Z</time></trkpt>
<trkpt lat="38.226206" lon="-119.576533"><ele>2620.4</ele><time>2024-06-25T15:42:48Z</time></trkpt>
<trkpt lat="38.226311" lon="-119.576457"><ele>2619.8</ele><time>2024-06-25T15:42:54Z</time></trkpt>
<trkpt lat="38.226646" lon="-119.577061"><ele>2620.2</ele><time>2024-06-25T15:43:25Z</time></trkpt>
<trkpt lat="38.226748" lon="-119.577577"><ele>2620.2</ele><time>2024-06-25T15:43:53Z</time></trkpt>
<trkpt lat="38.227297" lon="-119.578340"><ele>2624.8</ele><time>2024-06-25T15:44:48Z</time></trkpt>
<trkpt lat="38.227349" lon="-119.578254"><ele>2624.6</ele><time>2024-06-25T15:44:51Z</time></trkpt>
<trkpt lat="38.226937" lon="-119.577251"><ele>2624.2</ele><time>2024-06-25T15:44:56Z</time></trkpt>
<trkpt lat="38.227247" lon="-119.577796"><ele>2623.6</ele><time>2024-06-25T15:45:17Z</time></trkpt>
<trkpt lat="38.227437" lon="-119.578412"><ele>2621.8</ele><time>2024-06-25T15:45:43Z</time></trkpt>
<trkpt lat="38.227411" lon="-119.578809"><ele>2621.6</ele><time>2024-06-25T15:46:03Z</time></trkpt>
<trkpt lat="38.227599" lon="-119.579311"><ele>2619.8</ele><time>2024-06-25T15:46:33Z</time></trkpt>
<trkpt lat="38.227697" lon="-119.579788"><ele>2619.4</ele><time>2024-06-25T15:46:47Z</time></trkpt>
<trkpt lat="38.227731" lon="-119.579718"><ele>2619.2</ele><time>2024-06-25T15:46:48Z</time></trkpt>
<trkpt lat="38.227629" lon="-119.578510"><ele>2618.6</ele><time>2024-06-25T15:46:53Z</time></trkpt>
<trkpt lat="38.227564" lon="-119.578842"><ele>2617.2</ele><time>2024-06-25T15:47:18Z</time></trkpt>
<trkpt lat="38.227767" lon="-119.578988"><ele>2615.2</ele><time>2024-06-25T15:47:41Z</time></trkpt>
<trkpt lat="38.227797" lon="-119.579204"><ele>2615.6</ele><time>2024-06-25T15:47:49Z</time></trkpt>
<trkpt lat="38.227710" lon="-119.579442"><ele>2616.0</ele><time>2024-06-25T15:48:02Z</time></trkpt>
<trkpt lat="38.227819" lon="-119.579891"><ele>2615.4</ele><time>2024-06-25T15:48:35Z</time></trkpt>
<trkpt lat="38.227780" lon="-119.580131"><ele>2616.4</ele><time>2024-06-25T15:48:44Z</time></trkpt>
<trkpt lat="38.227707" lon="-119.580050"><ele>2617.0</ele><time>2024-06-25T15:48:47Z</time></trkpt>
<trkpt lat="38.227664" lon="-119.580182"><ele>2618.6</ele><time>2024-06-25T15:48:54Z</time></trkpt>
<trkpt lat="38.227398" lon="-119.580439"><ele>2620.2</ele><time>2024-06-25T15:49:24Z</time></trkpt>
<trkpt lat="38.227257" lon="-119.580691"><ele>2621.0</ele><time>2024-06-25T15:49:46Z</time></trkpt>
<trkpt lat="38.227368" lon="-119.580819"><ele>2621.8</ele><time>2024-06-25T15:49:59Z</time></trkpt>
<trkpt lat="38.227605" lon="-119.580905"><ele>2622.8</ele><time>2024-06-25T15:50:20Z</time></trkpt>
<trkpt lat="38.227840" lon="-119.581327"><ele>2623.8</ele><time>2024-06-25T15:50:44Z</time></trkpt>
<trkpt lat="38.228606" lon="-119.580839"><ele>2619.4</ele><time>2024-06-25T15:51:35Z</time></trkpt>
<trkpt lat="38.229249" lon="-119.580329"><ele>2612.6</ele><time>2024-06-25T15:52:48Z</time></trkpt>
<trkpt lat="38.229446" lon="-119.580066"><ele>2612.6</ele><time>2024-06-25T15:52:51Z</time></trkpt>
<trkpt lat="38.229381" lon="-119.580130"><ele>2612.2</ele><time>2024-06-25T15:52:54Z</time></trkpt>
<trkpt lat="38.229448" lon="-119.580236"><ele>2611.4</ele><time>2024-06-25T15:53:05Z</time></trkpt>
<trkpt lat="38.229606" lon="-119.580148"><ele>2611.4</ele><time>2024-06-25T15:53:15Z</time></trkpt>
<trkpt lat="38.230102" lon="-119.580129"><ele>2611.0</ele><time>2024-06-25T15:54:02Z</time></trkpt>
<trkpt lat="38.230825" lon="-119.580545"><ele>2609.8</ele><time>2024-06-25T15:55:01Z</time></trkpt>
<trkpt lat="38.231361" lon="-119.581040"><ele>2611.8</ele><time>2024-06-25T15:55:57Z</time></trkpt>
<trkpt lat="38.231862" lon="-119.581194"><ele>2612.8</ele><time>2024-06-25T15:56:25Z</time></trkpt>
<trkpt lat="38.231983" lon="-119.581335"><ele>2614.0</ele><time>2024-06-25T15:56:43Z</time></trkpt>
<trkpt lat="38.232381" lon="-119.581493"><ele>2616.0</ele><time>2024-06-25T15:57:35Z</time></trkpt>
<trkpt lat="38.232654" lon="-119.581433"><ele>2616.6</ele><time>2024-06-25T15:57:51Z</time></trkpt>
<trkpt lat="38.232699" lon="-119.581602"><ele>2616.6</ele><time>2024-06-25T15:57:58Z</time></trkpt>
<trkpt lat="38.234289" lon="-119.581595"><ele>2617.4</ele><time>2024-06-25T15:59:57Z</time></trkpt>
<trkpt lat="38.234603" lon="-119.581854"><ele>2618.8</ele><time>2024-06-25T16:01:11Z</time></trkpt>
<trkpt lat="38.234666" lon="-119.581626"><ele>2617.0</ele><time>2024-06-25T16:01:50Z</time></trkpt>
<trkpt lat="38.234663" lon="-119.581827"><ele>2617.0</ele><time>2024-06-25T16:01:56Z</time></trkpt>
<trkpt lat="38.235027" lon="-119.581647"><ele>2615.8</ele><time>2024-06-25T16:02:17Z</time></trkpt>
<trkpt lat="38.235455" lon="-119.581563"><ele>2616.4</ele><time>2024-06-25T16:03:01Z</time></trkpt>
<trkpt lat="38.236038" lon="-119.581332"><ele>2618.0</ele><time>2024-06-25T16:03:49Z</time></trkpt>
<trkpt lat="38.236197" lon="-119.581319"><ele>2618.4</ele><time>2024-06-25T16:03:53Z</time></trkpt>
<trkpt lat="38.236161" lon="-119.581456"><ele>2618.6</ele><time>2024-06-25T16:03:58Z</time></trkpt>
<trkpt lat="38.236814" lon="-119.581124"><ele>2619.2</ele><time>2024-06-25T16:04:45Z</time></trkpt>
<trkpt lat="38.237290" lon="-119.580729"><ele>2621.4</ele><time>2024-06-25T16:05:39Z</time></trkpt>
<trkpt lat="38.237784" lon="-119.580158"><ele>2619.0</ele><time>2024-06-25T16:06:27Z</time></trkpt>
<trkpt lat="38.238884" lon="-119.579142"><ele>2610.2</ele><time>2024-06-25T16:08:09Z</time></trkpt>
<trkpt lat="38.239088" lon="-119.579048"><ele>2612.0</ele><time>2024-06-25T16:08:33Z</time></trkpt>
<trkpt lat="38.239488" lon="-119.578706"><ele>2611.6</ele><time>2024-06-25T16:09:03Z</time></trkpt>
<trkpt lat="38.240983" lon="-119.578002"><ele>2608.4</ele><time>2024-06-25T16:10:57Z</time></trkpt>
<trkpt lat="38.241270" lon="-119.577797"><ele>2603.8</ele><time>2024-06-25T16:11:23Z</time></trkpt>
<trkpt lat="38.241406" lon="-119.577573"><ele>2600.8</ele><time>2024-06-25T16:12:07Z</time></trkpt>
<trkpt lat="38.241800" lon="-119.577349"><ele>2602.0</ele><time>2024-06-25T16:12:48Z</time></trkpt>
<trkpt lat="38.241783" lon="-119.577745"><ele>2603.4</ele><time>2024-06-25T16:13:02Z</time></trkpt>
<trkpt lat="38.241868" lon="-119.577637"><ele>2603.6</ele><time>2024-06-25T16:13:05Z</time></trkpt>
<trkpt lat="38.242811" lon="-119.577358"><ele>2608.8</ele><time>2024-06-25T16:14:30Z</time></trkpt>
<trkpt lat="38.243184" lon="-119.577022"><ele>2606.6</ele><time>2024-06-25T16:14:52Z</time></trkpt>
<trkpt lat="38.243243" lon="-119.577059"><ele>2606.4</ele><time>2024-06-25T16:14:55Z</time></trkpt>
<trkpt lat="38.243275" lon="-119.577006"><ele>2605.6</ele><time>2024-06-25T16:14:58Z</time></trkpt>
<trkpt lat="38.243283" lon="-119.577266"><ele>2605.6</ele><time>2024-06-25T16:15:03Z</time></trkpt>
<trkpt lat="38.243771" lon="-119.577024"><ele>2607.2</ele><time>2024-06-25T16:15:29Z</time></trkpt>
<trkpt lat="38.244649" lon="-119.576447"><ele>2610.0</ele><time>2024-06-25T16:16:57Z</time></trkpt>
<trkpt lat="38.244693" lon="-119.576590"><ele>2609.4</ele><time>2024-06-25T16:17:03Z</time></trkpt>
<trkpt lat="38.246124" lon="-119.576517"><ele>2613.4</ele><time>2024-06-25T16:18:57Z</time></trkpt>
<trkpt lat="38.246100" lon="-119.576469"><ele>2613.6</ele><time>2024-06-25T16:18:59Z</time></trkpt>
<trkpt lat="38.246158" lon="-119.576548"><ele>2614.2</ele><time>2024-06-25T16:19:09Z</time></trkpt>
<trkpt lat="38.246721" lon="-119.576066"><ele>2612.2</ele><time>2024-06-25T16:19:58Z</time></trkpt>
<trkpt lat="38.247197" lon="-119.575914"><ele>2606.6</ele><time>2024-06-25T16:20:28Z</time></trkpt>
<trkpt lat="38.247452" lon="-119.575754"><ele>2607.8</ele><time>2024-06-25T16:21:00Z</time></trkpt>
<trkpt lat="38.247852" lon="-119.575711"><ele>2615.6</ele><time>2024-06-25T16:21:49Z</time></trkpt>
<trkpt lat="38.248438" lon="-119.576191"><ele>2622.8</ele><time>2024-06-25T16:22:42Z</time></trkpt>
<trkpt lat="38.248861" lon="-119.576756"><ele>2628.8</ele><time>2024-06-25T16:23:51Z</time></trkpt>
<trkpt lat="38.249105" lon="-119.576737"><ele>2629.4</ele><time>2024-06-25T16:24:04Z</time></trkpt>
<trkpt lat="38.249827" lon="-119.577692"><ele>2642.4</ele><time>2024-06-25T16:26:07Z</time></trkpt>
<trkpt lat="38.250095" lon="-119.578209"><ele>2644.0</ele><time>2024-06-25T16:26:36Z</time></trkpt>
<trkpt lat="38.250247" lon="-119.578757"><ele>2653.2</ele><time>2024-06-25T16:27:32Z</time></trkpt>
<trkpt lat="38.250411" lon="-119.579066"><ele>2656.0</ele><time>2024-06-25T16:27:49Z</time></trkpt>
<trkpt lat="38.250374" lon="-119.579064"><ele>2656.0</ele><time>2024-06-25T16:27:50Z</time></trkpt>
<trkpt lat="38.250425" lon="-119.579098"><ele>2657.0</ele><time>2024-06-25T16:27:56Z</time></trkpt>
<trkpt lat="38.250478" lon="-119.579037"><ele>2657.8</ele><time>2024-06-25T16:28:01Z</time></trkpt>
<trkpt lat="38.250478" lon="-119.579116"><ele>2658.2</ele><time>2024-06-25T16:28:05Z</time></trkpt>
<trkpt lat="38.250311" lon="-119.579272"><ele>2659.2</ele><time>2024-06-25T16:28:48Z</time></trkpt>
<trkpt lat="38.250169" lon="-119.579175"><ele>2660.2</ele><time>2024-06-25T16:29:04Z</time></trkpt>
<trkpt lat="38.250061" lon="-119.579217"><ele>2663.4</ele><time>2024-06-25T16:29:32Z</time></trkpt>
<trkpt lat="38.250000" lon="-119.579485"><ele>2664.6</ele><time>2024-06-25T16:29:54Z</time></trkpt>
<trkpt lat="38.249860" lon="-119.579670"><ele>2663.4</ele><time>2024-06-25T16:30:05Z</time></trkpt>
<trkpt lat="38.250454" lon="-119.581234"><ele>2673.4</ele><time>2024-06-25T16:32:17Z</time></trkpt>
<trkpt lat="38.250935" lon="-119.581636"><ele>2681.4</ele><time>2024-06-25T16:33:08Z</time></trkpt>
<trkpt lat="38.251087" lon="-119.581937"><ele>2684.6</ele><time>2024-06-25T16:33:33Z</time></trkpt>
<trkpt lat="38.251281" lon="-119.582046"><ele>2684.8</ele><time>2024-06-25T16:33:45Z</time></trkpt>
<trkpt lat="38.251227" lon="-119.582187"><ele>2684.8</ele><time>2024-06-25T16:33:46Z</time></trkpt>
<trkpt lat="38.251542" lon="-119.582327"><ele>2687.0</ele><time>2024-06-25T16:34:13Z</time></trkpt>
<trkpt lat="38.251738" lon="-119.582812"><ele>2687.6</ele><time>2024-06-25T16:34:41Z</time></trkpt>
<trkpt lat="38.251956" lon="-119.582661"><ele>2688.2</ele><time>2024-06-25T16:34:47Z</time></trkpt>
<trkpt lat="38.252037" lon="-119.582682"><ele>2688.8</ele><time>2024-06-25T16:34:56Z</time></trkpt>
<trkpt lat="38.252105" lon="-119.582807"><ele>2689.0</ele><time>2024-06-25T16:35:03Z</time></trkpt>
<trkpt lat="38.252090" lon="-119.583139"><ele>2690.8</ele><time>2024-06-25T16:35:18Z</time></trkpt>
<trkpt lat="38.251992" lon="-119.583543"><ele>2698.2</ele><time>2024-06-25T16:36:08Z</time></trkpt>
<trkpt lat="38.251976" lon="-119.584163"><ele>2702.2</ele><time>2024-06-25T16:36:50Z</time></trkpt>
<trkpt lat="38.252158" lon="-119.584397"><ele>2704.2</ele><time>2024-06-25T16:37:10Z</time></trkpt>
<trkpt lat="38.252053" lon="-119.584955"><ele>2709.4</ele><time>2024-06-25T16:37:49Z</time></trkpt>
<trkpt lat="38.252106" lon="-119.584979"><ele>2710.2</ele><time>2024-06-25T16:37:55Z</time></trkpt>
<trkpt lat="38.252104" lon="-119.585232"><ele>2713.2</ele><time>2024-06-25T16:38:10Z</time></trkpt>
<trkpt lat="38.252257" lon="-119.585863"><ele>2721.2</ele><time>2024-06-25T16:39:04Z</time></trkpt>
<trkpt lat="38.252384" lon="-119.586038"><ele>2724.0</ele><time>2024-06-25T16:39:32Z</time></trkpt>
<trkpt lat="38.252493" lon="-119.586422"><ele>2727.0</ele><time>2024-06-25T16:39:54Z</time></trkpt>
<trkpt lat="38.252661" lon="-119.586720"><ele>2732.0</ele><time>2024-06-25T16:40:32Z</time></trkpt>
<trkpt lat="38.253401" lon="-119.587653"><ele>2737.2</ele><time>2024-06-25T16:41:47Z</time></trkpt>
<trkpt lat="38.253298" lon="-119.588246"><ele>2739.0</ele><time>2024-06-25T16:42:17Z</time></trkpt>
<trkpt lat="38.253263" lon="-119.589308"><ele>2744.4</ele><time>2024-06-25T16:43:41Z</time></trkpt>
<trkpt lat="38.253173" lon="-119.589748"><ele>2746.2</ele><time>2024-06-25T16:43:57Z</time></trkpt>
<trkpt lat="38.252859" lon="-119.590552"><ele>2751.8</ele><time>2024-06-25T16:44:50Z</time></trkpt>
<trkpt lat="38.252867" lon="-119.591086"><ele>2756.0</ele><time>2024-06-25T16:45:44Z</time></trkpt>
<trkpt lat="38.252912" lon="-119.591152"><ele>2756.4</ele><time>2024-06-25T16:45:53Z</time></trkpt>
<trkpt lat="38.252800" lon="-119.591303"><ele>2756.4</ele><time>2024-06-25T16:45:57Z</time></trkpt>
<trkpt lat="38.252862" lon="-119.591459"><ele>2756.2</ele><time>2024-06-25T16:46:08Z</time></trkpt>
<trkpt lat="38.252893" lon="-119.591767"><ele>2755.0</ele><time>2024-06-25T16:46:24Z</time></trkpt>
<trkpt lat="38.252841" lon="-119.591916"><ele>2755.0</ele><time>2024-06-25T16:46:44Z</time></trkpt>
<trkpt lat="38.252919" lon="-119.592118"><ele>2753.2</ele><time>2024-06-25T16:47:04Z</time></trkpt>
<trkpt lat="38.252926" lon="-119.592513"><ele>2750.8</ele><time>2024-06-25T16:47:30Z</time></trkpt>
<trkpt lat="38.252796" lon="-119.592944"><ele>2751.0</ele><time>2024-06-25T16:47:53Z</time></trkpt>
<trkpt lat="38.252681" lon="-119.593006"><ele>2752.4</ele><time>2024-06-25T16:47:59Z</time></trkpt>
<trkpt lat="38.252758" lon="-119.594773"><ele>2755.6</ele><time>2024-06-25T16:49:49Z</time></trkpt>
<trkpt lat="38.252871" lon="-119.594876"><ele>2754.2</ele><time>2024-06-25T16:50:00Z</time></trkpt>
<trkpt lat="38.253346" lon="-119.596507"><ele>2762.2</ele><time>2024-06-25T16:51:48Z</time></trkpt>
<trkpt lat="38.253219" lon="-119.597390"><ele>2765.8</ele><time>2024-06-25T16:52:51Z</time></trkpt>
<trkpt lat="38.253265" lon="-119.598051"><ele>2760.2</ele><time>2024-06-25T16:53:41Z</time></trkpt>
<trkpt lat="38.253117" lon="-119.598312"><ele>2760.2</ele><time>2024-06-25T16:53:58Z</time></trkpt>
<trkpt lat="38.253183" lon="-119.598335"><ele>2761.2</ele><time>2024-06-25T16:54:08Z</time></trkpt>
<trkpt lat="38.253399" lon="-119.598867"><ele>2766.8</ele><time>2024-06-25T16:55:11Z</time></trkpt>
<trkpt lat="38.253433" lon="-119.599361"><ele>2769.0</ele><time>2024-06-25T16:55:37Z</time></trkpt>
<trkpt lat="38.253555" lon="-119.599818"><ele>2770.4</ele><time>2024-06-25T16:56:05Z</time></trkpt>
<trkpt lat="38.253399" lon="-119.601538"><ele>2777.6</ele><time>2024-06-25T16:57:50Z</time></trkpt>
<trkpt lat="38.253477" lon="-119.601601"><ele>2778.0</ele><time>2024-06-25T16:57:58Z</time></trkpt>
<trkpt lat="38.253566" lon="-119.603209"><ele>2792.6</ele><time>2024-06-25T16:59:52Z</time></trkpt>
<trkpt lat="38.253393" lon="-119.603284"><ele>2792.8</ele><time>2024-06-25T17:00:03Z</time></trkpt>
<trkpt lat="38.253343" lon="-119.603579"><ele>2793.6</ele><time>2024-06-25T17:00:25Z</time></trkpt>
<trkpt lat="38.253139" lon="-119.604100"><ele>2799.6</ele><time>2024-06-25T17:01:25Z</time></trkpt>
<trkpt lat="38.252776" lon="-119.604621"><ele>2803.2</ele><time>2024-06-25T17:02:02Z</time></trkpt>
<trkpt lat="38.252774" lon="-119.604754"><ele>2803.6</ele><time>2024-06-25T17:04:13Z</time></trkpt>
<trkpt lat="38.252699" lon="-119.604759"><ele>2804.8</ele><time>2024-06-25T17:05:53Z</time></trkpt>
<trkpt lat="38.252704" lon="-119.604834"><ele>2804.6</ele><time>2024-06-25T17:07:37Z</time></trkpt>
<trkpt lat="38.252758" lon="-119.604790"><ele>2805.2</ele><time>2024-06-25T17:07:55Z</time></trkpt>
<trkpt lat="38.252719" lon="-119.604836"><ele>2804.0</ele><time>2024-06-25T17:09:56Z</time></trkpt>
<trkpt lat="38.252813" lon="-119.604875"><ele>2803.2</ele><time>2024-06-25T17:11:48Z</time></trkpt>
<trkpt lat="38.252739" lon="-119.604870"><ele>2803.4</ele><time>2024-06-25T17:12:01Z</time></trkpt>
<trkpt lat="38.252797" lon="-119.604763"><ele>2802.2</ele><time>2024-06-25T17:15:51Z</time></trkpt>
<trkpt lat="38.252681" lon="-119.604905"><ele>2802.0</ele><time>2024-06-25T17:15:57Z</time></trkpt>
<trkpt lat="38.252816" lon="-119.604674"><ele>2802.0</ele><time>2024-06-25T17:17:51Z</time></trkpt>
<trkpt lat="38.252770" lon="-119.604792"><ele>2802.2</ele><time>2024-06-25T17:18:03Z</time></trkpt>
<trkpt lat="38.252674" lon="-119.604810"><ele>2801.8</ele><time>2024-06-25T17:19:29Z</time></trkpt>
<trkpt lat="38.252679" lon="-119.604762"><ele>2802.4</ele><time>2024-06-25T17:19:56Z</time></trkpt>
<trkpt lat="38.252819" lon="-119.604862"><ele>2802.4</ele><time>2024-06-25T17:21:03Z</time></trkpt>
<trkpt lat="38.252732" lon="-119.604810"><ele>2802.8</ele><time>2024-06-25T17:21:52Z</time></trkpt>
<trkpt lat="38.252669" lon="-119.604898"><ele>2803.2</ele><time>2024-06-25T17:22:03Z</time></trkpt>
<trkpt lat="38.252782" lon="-119.604839"><ele>2812.4</ele><time>2024-06-25T17:23:57Z</time></trkpt>
<trkpt lat="38.252759" lon="-119.604752"><ele>2814.0</ele><time>2024-06-25T17:25:57Z</time></trkpt>
<trkpt lat="38.252296" lon="-119.605529"><ele>2820.4</ele><time>2024-06-25T17:27:59Z</time></trkpt>
<trkpt lat="38.251606" lon="-119.606205"><ele>2827.2</ele><time>2024-06-25T17:29:35Z</time></trkpt>
<trkpt lat="38.251361" lon="-119.606278"><ele>2829.0</ele><time>2024-06-25T17:29:49Z</time></trkpt>
<trkpt lat="38.251333" lon="-119.606481"><ele>2828.6</ele><time>2024-06-25T17:29:59Z</time></trkpt>
<trkpt lat="38.251244" lon="-119.606544"><ele>2827.2</ele><time>2024-06-25T17:30:09Z</time></trkpt>
<trkpt lat="38.251073" lon="-119.606606"><ele>2828.2</ele><time>2024-06-25T17:30:34Z</time></trkpt>
<trkpt lat="38.250965" lon="-119.606529"><ele>2831.8</ele><time>2024-06-25T17:30:56Z</time></trkpt>
<trkpt lat="38.250812" lon="-119.606571"><ele>2834.2</ele><time>2024-06-25T17:31:14Z</time></trkpt>
<trkpt lat="38.250569" lon="-119.606796"><ele>2838.6</ele><time>2024-06-25T17:31:46Z</time></trkpt>
<trkpt lat="38.250480" lon="-119.606790"><ele>2839.4</ele><time>2024-06-25T17:31:51Z</time></trkpt>
<trkpt lat="38.250561" lon="-119.606944"><ele>2840.2</ele><time>2024-06-25T17:31:58Z</time></trkpt>
<trkpt lat="38.250439" lon="-119.606885"><ele>2842.0</ele><time>2024-06-25T17:32:08Z</time></trkpt>
<trkpt lat="38.250291" lon="-119.606928"><ele>2844.0</ele><time>2024-06-25T17:32:28Z</time></trkpt>
<trkpt lat="38.249513" lon="-119.607456"><ele>2854.8</ele><time>2024-06-25T17:33:51Z</time></trkpt>
<trkpt lat="38.249616" lon="-119.607651"><ele>2855.4</ele><time>2024-06-25T17:33:58Z</time></trkpt>
<trkpt lat="38.248914" lon="-119.608164"><ele>2866.2</ele><time>2024-06-25T17:35:23Z</time></trkpt>
<trkpt lat="38.248621" lon="-119.608262"><ele>2868.4</ele><time>2024-06-25T17:35:53Z</time></trkpt>
<trkpt lat="38.248710" lon="-119.608460"><ele>2868.4</ele><time>2024-06-25T17:35:59Z</time></trkpt>
<trkpt lat="38.248513" lon="-119.608496"><ele>2870.4</ele><time>2024-06-25T17:36:18Z</time></trkpt>
<trkpt lat="38.248199" lon="-119.608861"><ele>2875.6</ele><time>2024-06-25T17:37:10Z</time></trkpt>
<trkpt lat="38.247750" lon="-119.609105"><ele>2879.8</ele><time>2024-06-25T17:37:53Z</time></trkpt>
<trkpt lat="38.247751" lon="-119.609181"><ele>2879.6</ele><time>2024-06-25T17:37:55Z</time></trkpt>
<trkpt lat="38.247897" lon="-119.609293"><ele>2880.0</ele><time>2024-06-25T17:38:07Z</time></trkpt>
<trkpt lat="38.247813" lon="-119.609226"><ele>2880.2</ele><time>2024-06-25T17:38:11Z</time></trkpt>
<trkpt lat="38.247780" lon="-119.609370"><ele>2880.8</ele><time>2024-06-25T17:38:21Z</time></trkpt>
<trkpt lat="38.247615" lon="-119.609512"><ele>2885.6</ele><time>2024-06-25T17:38:48Z</time></trkpt>
<trkpt lat="38.247450" lon="-119.609865"><ele>2890.2</ele><time>2024-06-25T17:39:19Z</time></trkpt>
<trkpt lat="38.247415" lon="-119.610103"><ele>2893.0</ele><time>2024-06-25T17:39:46Z</time></trkpt>
<trkpt lat="38.247074" lon="-119.610598"><ele>2898.2</ele><time>2024-06-25T17:40:40Z</time></trkpt>
<trkpt lat="38.246963" lon="-119.610993"><ele>2904.8</ele><time>2024-06-25T17:41:30Z</time></trkpt>
<trkpt lat="38.246684" lon="-119.611440"><ele>2907.8</ele><time>2024-06-25T17:41:55Z</time></trkpt>
<trkpt lat="38.246983" lon="-119.611235"><ele>2908.0</ele><time>2024-06-25T17:41:56Z</time></trkpt>
<trkpt lat="38.247016" lon="-119.611329"><ele>2908.2</ele><time>2024-06-25T17:41:57Z</time></trkpt>
<trkpt lat="38.247015" lon="-119.611744"><ele>2910.2</ele><time>2024-06-25T17:42:13Z</time></trkpt>
<trkpt lat="38.246742" lon="-119.612305"><ele>2912.4</ele><time>2024-06-25T17:42:30Z</time></trkpt>
<trkpt lat="38.246858" lon="-119.612107"><ele>2915.0</ele><time>2024-06-25T17:42:51Z</time></trkpt>
<trkpt lat="38.246770" lon="-119.612230"><ele>2918.6</ele><time>2024-06-25T17:43:14Z</time></trkpt>
<trkpt lat="38.246801" lon="-119.612594"><ele>2928.8</ele><time>2024-06-25T17:44:20Z</time></trkpt>
<trkpt lat="38.246490" lon="-119.612768"><ele>2929.6</ele><time>2024-06-25T17:45:01Z</time></trkpt>
<trkpt lat="38.246286" lon="-119.613127"><ele>2933.8</ele><time>2024-06-25T17:45:47Z</time></trkpt>
<trkpt lat="38.246220" lon="-119.613054"><ele>2933.6</ele><time>2024-06-25T17:45:58Z</time></trkpt>
<trkpt lat="38.246166" lon="-119.613225"><ele>2935.8</ele><time>2024-06-25T17:46:17Z</time></trkpt>
<trkpt lat="38.245926" lon="-119.613395"><ele>2940.6</ele><time>2024-06-25T17:46:47Z</time></trkpt>
<trkpt lat="38.245582" lon="-119.613932"><ele>2953.6</ele><time>2024-06-25T17:47:47Z</time></trkpt>
<trkpt lat="38.245560" lon="-119.614168"><ele>2954.4</ele><time>2024-06-25T17:48:10Z</time></trkpt>
<trkpt lat="38.246250" lon="-119.614086"><ele>2960.4</ele><time>2024-06-25T17:49:51Z</time></trkpt>
<trkpt lat="38.247452" lon="-119.614393"><ele>2971.4</ele><time>2024-06-25T17:52:07Z</time></trkpt>
<trkpt lat="38.248596" lon="-119.614215"><ele>2983.2</ele><time>2024-06-25T17:54:02Z</time></trkpt>
<trkpt lat="38.249640" lon="-119.614426"><ele>2995.2</ele><time>2024-06-25T17:55:52Z</time></trkpt>
<trkpt lat="38.250035" lon="-119.615336"><ele>3002.6</ele><time>2024-06-25T17:57:06Z</time></trkpt>
<trkpt lat="38.250094" lon="-119.615621"><ele>3006.6</ele><time>2024-06-25T17:57:50Z</time></trkpt>
<trkpt lat="38.251085" lon="-119.617139"><ele>3024.2</ele><time>2024-06-25T18:00:58Z</time></trkpt>
<trkpt lat="38.251297" lon="-119.617355"><ele>3028.6</ele><time>2024-06-25T18:01:32Z</time></trkpt>
<trkpt lat="38.251585" lon="-119.617506"><ele>3031.4</ele><time>2024-06-25T18:01:59Z</time></trkpt>
<trkpt lat="38.252523" lon="-119.617716"><ele>3041.6</ele><time>2024-06-25T18:03:52Z</time></trkpt>
<trkpt lat="38.252539" lon="-119.617632"><ele>3043.6</ele><time>2024-06-25T18:04:03Z</time></trkpt>
<trkpt lat="38.253259" lon="-119.617405"><ele>3058.0</ele><time>2024-06-25T18:05:49Z</time></trkpt>
<trkpt lat="38.253180" lon="-119.617466"><ele>3058.4</ele><time>2024-06-25T18:05:51Z</time></trkpt>
<trkpt lat="38.253185" lon="-119.617360"><ele>3062.0</ele><time>2024-06-25T18:06:08Z</time></trkpt>
<trkpt lat="38.253584" lon="-119.617134"><ele>3072.6</ele><time>2024-06-25T18:07:38Z</time></trkpt>
<trkpt lat="38.253907" lon="-119.617072"><ele>3075.2</ele><time>2024-06-25T18:08:03Z</time></trkpt>
<trkpt lat="38.254624" lon="-119.616802"><ele>3088.8</ele><time>2024-06-25T18:09:48Z</time></trkpt>
<trkpt lat="38.254629" lon="-119.616885"><ele>3089.2</ele><time>2024-06-25T18:09:53Z</time></trkpt>
<trkpt lat="38.254906" lon="-119.616760"><ele>3093.4</ele><time>2024-06-25T18:10:24Z</time></trkpt>
<trkpt lat="38.255326" lon="-119.616572"><ele>3106.4</ele><time>2024-06-25T18:11:52Z</time></trkpt>
<trkpt lat="38.255359" lon="-119.616439"><ele>3109.8</ele><time>2024-06-25T18:12:09Z</time></trkpt>
<trkpt lat="38.256043" lon="-119.616203"><ele>3131.6</ele><time>2024-06-25T18:14:40Z</time></trkpt>
<trkpt lat="38.256340" lon="-119.616063"><ele>3135.8</ele><time>2024-06-25T18:15:48Z</time></trkpt>
<trkpt lat="38.256304" lon="-119.616107"><ele>3136.6</ele><time>2024-06-25T18:15:53Z</time></trkpt>
<trkpt lat="38.256403" lon="-119.615985"><ele>3138.2</ele><time>2024-06-25T18:16:00Z</time></trkpt>
<trkpt lat="38.256442" lon="-119.615997"><ele>3146.0</ele><time>2024-06-25T18:16:50Z</time></trkpt>
<trkpt lat="38.256490" lon="-119.616297"><ele>3145.6</ele><time>2024-06-25T18:17:55Z</time></trkpt>
<trkpt lat="38.256349" lon="-119.616611"><ele>3150.8</ele><time>2024-06-25T18:18:19Z</time></trkpt>
<trkpt lat="38.256286" lon="-119.616804"><ele>3164.8</ele><time>2024-06-25T18:19:33Z</time></trkpt>
<trkpt lat="38.256296" lon="-119.617064"><ele>3167.2</ele><time>2024-06-25T18:19:51Z</time></trkpt>
<trkpt lat="38.256959" lon="-119.616617"><ele>3180.6</ele><time>2024-06-25T18:21:27Z</time></trkpt>
<trkpt lat="38.257274" lon="-119.616182"><ele>3184.8</ele><time>2024-06-25T18:22:09Z</time></trkpt>
<trkpt lat="38.257796" lon="-119.616047"><ele>3194.6</ele><time>2024-06-25T18:23:41Z</time></trkpt>
<trkpt lat="38.257868" lon="-119.616227"><ele>3195.0</ele><time>2024-06-25T18:23:50Z</time></trkpt>
<trkpt lat="38.257890" lon="-119.615764"><ele>3195.2</ele><time>2024-06-25T18:23:54Z</time></trkpt>
<trkpt lat="38.258052" lon="-119.615588"><ele>3196.4</ele><time>2024-06-25T18:24:07Z</time></trkpt>
<trkpt lat="38.257765" lon="-119.615199"><ele>3193.8</ele><time>2024-06-25T18:25:07Z</time></trkpt>
<trkpt lat="38.257624" lon="-119.614746"><ele>3193.0</ele><time>2024-06-25T18:25:52Z</time></trkpt>
<trkpt lat="38.257879" lon="-119.614570"><ele>3193.0</ele><time>2024-06-25T18:25:53Z</time></trkpt>
<trkpt lat="38.258045" lon="-119.614679"><ele>3192.8</ele><time>2024-06-25T18:25:55Z</time></trkpt>
<trkpt lat="38.258416" lon="-119.614301"><ele>3192.2</ele><time>2024-06-25T18:26:01Z</time></trkpt>
<trkpt lat="38.258581" lon="-119.614268"><ele>3192.2</ele><time>2024-06-25T18:26:06Z</time></trkpt>
<trkpt lat="38.258060" lon="-119.614664"><ele>3192.2</ele><time>2024-06-25T18:27:51Z</time></trkpt>
<trkpt lat="38.258249" lon="-119.614966"><ele>3192.2</ele><time>2024-06-25T18:27:53Z</time></trkpt>
<trkpt lat="38.258477" lon="-119.614259"><ele>3192.4</ele><time>2024-06-25T18:27:57Z</time></trkpt>
<trkpt lat="38.258566" lon="-119.614266"><ele>3192.6</ele><time>2024-06-25T18:28:02Z</time></trkpt>
<trkpt lat="38.258530" lon="-119.614257"><ele>3192.8</ele><time>2024-06-25T18:28:10Z</time></trkpt>
<trkpt lat="38.258569" lon="-119.614417"><ele>3192.4</ele><time>2024-06-25T18:28:17Z</time></trkpt>
<trkpt lat="38.258527" lon="-119.614322"><ele>3199.0</ele><time>2024-06-25T18:29:56Z</time></trkpt>
<trkpt lat="38.258551" lon="-119.614239"><ele>3199.2</ele><time>2024-06-25T18:29:59Z</time></trkpt>
<trkpt lat="38.259442" lon="-119.614118"><ele>3212.4</ele><time>2024-06-25T18:31:50Z</time></trkpt>
<trkpt lat="38.260564" lon="-119.614436"><ele>3228.2</ele><time>2024-06-25T18:33:53Z</time></trkpt>
<trkpt lat="38.260577" lon="-119.614500"><ele>3228.2</ele><time>2024-06-25T18:33:56Z</time></trkpt>
<trkpt lat="38.260802" lon="-119.614470"><ele>3229.8</ele><time>2024-06-25T18:34:45Z</time></trkpt>
<trkpt lat="38.260827" lon="-119.614469"><ele>3234.8</ele><time>2024-06-25T18:35:50Z</time></trkpt>
<trkpt lat="38.260731" lon="-119.614467"><ele>3234.8</ele><time>2024-06-25T18:36:09Z</time></trkpt>
<trkpt lat="38.260872" lon="-119.614712"><ele>3234.4</ele><time>2024-06-25T18:37:50Z</time></trkpt>
<trkpt lat="38.260974" lon="-119.614765"><ele>3232.4</ele><time>2024-06-25T18:37:59Z</time></trkpt>
<trkpt lat="38.261459" lon="-119.615332"><ele>3240.0</ele><time>2024-06-25T18:39:27Z</time></trkpt>
<trkpt lat="38.261713" lon="-119.615647"><ele>3233.8</ele><time>2024-06-25T18:39:52Z</time></trkpt>
<trkpt lat="38.261858" lon="-119.615687"><ele>3234.6</ele><time>2024-06-25T18:40:01Z</time></trkpt>
<trkpt lat="38.262671" lon="-119.616603"><ele>3233.2</ele><time>2024-06-25T18:41:50Z</time></trkpt>
<trkpt lat="38.262611" lon="-119.616573"><ele>3233.2</ele><time>2024-06-25T18:41:52Z</time></trkpt>
<trkpt lat="38.262616" lon="-119.616655"><ele>3235.2</ele><time>2024-06-25T18:42:53Z</time></trkpt>
<trkpt lat="38.262670" lon="-119.616623"><ele>3233.8</ele><time>2024-06-25T18:44:03Z</time></trkpt>
<trkpt lat="38.262949" lon="-119.616881"><ele>3230.2</ele><time>2024-06-25T18:45:58Z</time></trkpt>
<trkpt lat="38.262891" lon="-119.616794"><ele>3232.8</ele><time>2024-06-25T18:46:31Z</time></trkpt>
<trkpt lat="38.263206" lon="-119.616945"><ele>3231.4</ele><time>2024-06-25T18:47:15Z</time></trkpt>
<trkpt lat="38.263641" lon="-119.617389"><ele>3230.4</ele><time>2024-06-25T18:48:00Z</time></trkpt>
<trkpt lat="38.263720" lon="-119.617758"><ele>3228.6</ele><time>2024-06-25T18:49:27Z</time></trkpt>
<trkpt lat="38.263717" lon="-119.618026"><ele>3230.8</ele><time>2024-06-25T18:50:10Z</time></trkpt>
<trkpt lat="38.263771" lon="-119.618377"><ele>3222.8</ele><time>2024-06-25T18:50:39Z</time></trkpt>
<trkpt lat="38.263856" lon="-119.618522"><ele>3223.2</ele><time>2024-06-25T18:50:55Z</time></trkpt>
<trkpt lat="38.263859" lon="-119.618652"><ele>3221.6</ele><time>2024-06-25T18:51:03Z</time></trkpt>
<trkpt lat="38.264016" lon="-119.618964"><ele>3212.8</ele><time>2024-06-25T18:51:23Z</time></trkpt>
<trkpt lat="38.264279" lon="-119.619311"><ele>3207.0</ele><time>2024-06-25T18:51:50Z</time></trkpt>
<trkpt lat="38.264374" lon="-119.619658"><ele>3202.2</ele><time>2024-06-25T18:52:09Z</time></trkpt>
<trkpt lat="38.264441" lon="-119.620288"><ele>3198.0</ele><time>2024-06-25T18:52:49Z</time></trkpt>
<trkpt lat="38.264628" lon="-119.620834"><ele>3197.6</ele><time>2024-06-25T18:53:25Z</time></trkpt>
<trkpt lat="38.264814" lon="-119.621083"><ele>3198.4</ele><time>2024-06-25T18:53:50Z</time></trkpt>
<trkpt lat="38.265213" lon="-119.622533"><ele>3199.2</ele><time>2024-06-25T18:55:39Z</time></trkpt>
<trkpt lat="38.265435" lon="-119.623173"><ele>3203.8</ele><time>2024-06-25T18:56:10Z</time></trkpt>
<trkpt lat="38.265419" lon="-119.623093"><ele>3204.0</ele><time>2024-06-25T18:56:11Z</time></trkpt>
<trkpt lat="38.265495" lon="-119.624460"><ele>3208.8</ele><time>2024-06-25T18:57:51Z</time></trkpt>
<trkpt lat="38.265649" lon="-119.624442"><ele>3208.0</ele><time>2024-06-25T18:58:01Z</time></trkpt>
<trkpt lat="38.266011" lon="-119.625836"><ele>3205.0</ele><time>2024-06-25T18:59:50Z</time></trkpt>
<trkpt lat="38.266515" lon="-119.626950"><ele>3209.0</ele><time>2024-06-25T19:02:02Z</time></trkpt>
<trkpt lat="38.266874" lon="-119.627537"><ele>3208.0</ele><time>2024-06-25T19:02:40Z</time></trkpt>
<trkpt lat="38.267103" lon="-119.628085"><ele>3213.0</ele><time>2024-06-25T19:03:55Z</time></trkpt>
<trkpt lat="38.267200" lon="-119.628057"><ele>3212.6</ele><time>2024-06-25T19:03:59Z</time></trkpt>
<trkpt lat="38.267280" lon="-119.628138"><ele>3212.2</ele><time>2024-06-25T19:04:07Z</time></trkpt>
<trkpt lat="38.267533" lon="-119.628605"><ele>3212.4</ele><time>2024-06-25T19:04:50Z</time></trkpt>
<trkpt lat="38.268120" lon="-119.629345"><ele>3206.0</ele><time>2024-06-25T19:05:51Z</time></trkpt>
<trkpt lat="38.268469" lon="-119.629702"><ele>3207.2</ele><time>2024-06-25T19:06:22Z</time></trkpt>
<trkpt lat="38.268559" lon="-119.629891"><ele>3210.8</ele><time>2024-06-25T19:06:40Z</time></trkpt>
<trkpt lat="38.268670" lon="-119.630730"><ele>3204.6</ele><time>2024-06-25T19:07:42Z</time></trkpt>
<trkpt lat="38.268763" lon="-119.630937"><ele>3204.2</ele><time>2024-06-25T19:07:51Z</time></trkpt>
<trkpt lat="38.268935" lon="-119.631103"><ele>3207.2</ele><time>2024-06-25T19:08:11Z</time></trkpt>
<trkpt lat="38.269027" lon="-119.631390"><ele>3204.4</ele><time>2024-06-25T19:08:38Z</time></trkpt>
<trkpt lat="38.269015" lon="-119.632209"><ele>3203.0</ele><time>2024-06-25T19:09:50Z</time></trkpt>
<trkpt lat="38.269339" lon="-119.632858"><ele>3202.6</ele><time>2024-06-25T19:10:40Z</time></trkpt>
<trkpt lat="38.269699" lon="-119.633497"><ele>3209.4</ele><time>2024-06-25T19:11:52Z</time></trkpt>
<trkpt lat="38.270149" lon="-119.633707"><ele>3211.4</ele><time>2024-06-25T19:12:34Z</time></trkpt>
<trkpt lat="38.270290" lon="-119.633688"><ele>3206.6</ele><time>2024-06-25T19:13:06Z</time></trkpt>
<trkpt lat="38.270639" lon="-119.633704"><ele>3208.8</ele><time>2024-06-25T19:13:53Z</time></trkpt>
<trkpt lat="38.271277" lon="-119.634228"><ele>3207.8</ele><time>2024-06-25T19:16:00Z</time></trkpt>
<trkpt lat="38.271262" lon="-119.634283"><ele>3209.8</ele><time>2024-06-25T19:18:01Z</time></trkpt>
<trkpt lat="38.271307" lon="-119.634231"><ele>3209.4</ele><time>2024-06-25T19:20:05Z</time></trkpt>
<trkpt lat="38.271237" lon="-119.634227"><ele>3211.0</ele><time>2024-06-25T19:21:51Z</time></trkpt>
<trkpt lat="38.271311" lon="-119.634206"><ele>3210.8</ele><time>2024-06-25T19:22:04Z</time></trkpt>
<trkpt lat="38.271336" lon="-119.634250"><ele>3210.6</ele><time>2024-06-25T19:23:26Z</time></trkpt>
<trkpt lat="38.271269" lon="-119.634281"><ele>3211.0</ele><time>2024-06-25T19:25:53Z</time></trkpt>
<trkpt lat="38.271279" lon="-119.634205"><ele>3210.4</ele><time>2024-06-25T19:27:55Z</time></trkpt>
<trkpt lat="38.271326" lon="-119.634286"><ele>3210.6</ele><time>2024-06-25T19:29:18Z</time></trkpt>
<trkpt lat="38.271322" lon="-119.634166"><ele>3212.2</ele><time>2024-06-25T19:30:28Z</time></trkpt>
<trkpt lat="38.271327" lon="-119.634265"><ele>3211.2</ele><time>2024-06-25T19:31:00Z</time></trkpt>
<trkpt lat="38.271520" lon="-119.634527"><ele>3208.8</ele><time>2024-06-25T19:31:24Z</time></trkpt>
<trkpt lat="38.271555" lon="-119.634704"><ele>3207.0</ele><time>2024-06-25T19:31:40Z</time></trkpt>
<trkpt lat="38.271620" lon="-119.634751"><ele>3205.2</ele><time>2024-06-25T19:31:54Z</time></trkpt>
<trkpt lat="38.271762" lon="-119.634721"><ele>3206.6</ele><time>2024-06-25T19:32:11Z</time></trkpt>
<trkpt lat="38.272516" lon="-119.635530"><ele>3200.2</ele><time>2024-06-25T19:33:58Z</time></trkpt>
<trkpt lat="38.273784" lon="-119.636253"><ele>3202.4</ele><time>2024-06-25T19:35:51Z</time></trkpt>
<trkpt lat="38.273859" lon="-119.636131"><ele>3200.6</ele><time>2024-06-25T19:36:10Z</time></trkpt>
<trkpt lat="38.274107" lon="-119.636007"><ele>3201.6</ele><time>2024-06-25T19:36:40Z</time></trkpt>
<trkpt lat="38.274464" lon="-119.635927"><ele>3207.4</ele><time>2024-06-25T19:37:26Z</time></trkpt>
<trkpt lat="38.274924" lon="-119.635966"><ele>3208.2</ele><time>2024-06-25T19:38:03Z</time></trkpt>
<trkpt lat="38.275272" lon="-119.636095"><ele>3211.4</ele><time>2024-06-25T19:38:47Z</time></trkpt>
<trkpt lat="38.275352" lon="-119.635910"><ele>3210.6</ele><time>2024-06-25T19:39:13Z</time></trkpt>
<trkpt lat="38.275363" lon="-119.635905"><ele>3216.2</ele><time>2024-06-25T19:39:19Z</time></trkpt>
<trkpt lat="38.275479" lon="-119.635853"><ele>3218.4</ele><time>2024-06-25T19:39:52Z</time></trkpt>
<trkpt lat="38.275436" lon="-119.635974"><ele>3218.4</ele><time>2024-06-25T19:40:00Z</time></trkpt>
<trkpt lat="38.275436" lon="-119.636135"><ele>3209.2</ele><time>2024-06-25T19:40:10Z</time></trkpt>
<trkpt lat="38.276048" lon="-119.637823"><ele>3209.0</ele><time>2024-06-25T19:42:09Z</time></trkpt>
<trkpt lat="38.276397" lon="-119.639309"><ele>3209.6</ele><time>2024-06-25T19:43:52Z</time></trkpt>
<trkpt lat="38.277139" lon="-119.641144"><ele>3211.2</ele><time>2024-06-25T19:46:05Z</time></trkpt>
<trkpt lat="38.278289" lon="-119.642880"><ele>3225.2</ele><time>2024-06-25T19:49:52Z</time></trkpt>
<trkpt lat="38.278924" lon="-119.643423"><ele>3235.0</ele><time>2024-06-25T19:51:11Z</time></trkpt>
<trkpt lat="38.279221" lon="-119.643562"><ele>3246.0</ele><time>2024-06-25T19:51:52Z</time></trkpt>
<trkpt lat="38.279571" lon="-119.643548"><ele>3242.4</ele><time>2024-06-25T19:52:19Z</time></trkpt>
<trkpt lat="38.280124" lon="-119.643646"><ele>3245.8</ele><time>2024-06-25T19:53:59Z</time></trkpt>
<trkpt lat="38.280067" lon="-119.643714"><ele>3244.8</ele><time>2024-06-25T19:54:10Z</time></trkpt>
<trkpt lat="38.281162" lon="-119.644234"><ele>3258.2</ele><time>2024-06-25T19:56:57Z</time></trkpt>
<trkpt lat="38.281185" lon="-119.644245"><ele>3264.4</ele><time>2024-06-25T19:57:15Z</time></trkpt>
<trkpt lat="38.281375" lon="-119.644312"><ele>3265.8</ele><time>2024-06-25T19:57:54Z</time></trkpt>
<trkpt lat="38.281384" lon="-119.644374"><ele>3265.2</ele><time>2024-06-25T19:58:10Z</time></trkpt>
<trkpt lat="38.281625" lon="-119.644506"><ele>3269.8</ele><time>2024-06-25T19:59:05Z</time></trkpt>
<trkpt lat="38.281883" lon="-119.644666"><ele>3264.0</ele><time>2024-06-25T20:00:03Z</time></trkpt>
<trkpt lat="38.281930" lon="-119.644646"><ele>3266.6</ele><time>2024-06-25T20:00:12Z</time></trkpt>
<trkpt lat="38.282114" lon="-119.644833"><ele>3267.2</ele><time>2024-06-25T20:01:45Z</time></trkpt>
<trkpt lat="38.282216" lon="-119.644804"><ele>3269.8</ele><time>2024-06-25T20:01:55Z</time></trkpt>
<trkpt lat="38.282129" lon="-119.644957"><ele>3268.6</ele><time>2024-06-25T20:02:06Z</time></trkpt>
<trkpt lat="38.282223" lon="-119.644839"><ele>3267.8</ele><time>2024-06-25T20:02:16Z</time></trkpt>
<trkpt lat="38.282207" lon="-119.644891"><ele>3267.8</ele><time>2024-06-25T20:02:22Z</time></trkpt>
<trkpt lat="38.282310" lon="-119.644852"><ele>3269.4</ele><time>2024-06-25T20:02:52Z</time></trkpt>
<trkpt lat="38.282188" lon="-119.644855"><ele>3270.6</ele><time>2024-06-25T20:03:03Z</time></trkpt>
<trkpt lat="38.283043" lon="-119.645286"><ele>3275.4</ele><time>2024-06-25T20:05:01Z</time></trkpt>
<trkpt lat="38.284183" lon="-119.644523"><ele>3280.2</ele><time>2024-06-25T20:06:52Z</time></trkpt>
<trkpt lat="38.284128" lon="-119.644395"><ele>3280.6</ele><time>2024-06-25T20:07:01Z</time></trkpt>
<trkpt lat="38.285109" lon="-119.643056"><ele>3285.4</ele><time>2024-06-25T20:09:06Z</time></trkpt>
<trkpt lat="38.285654" lon="-119.641985"><ele>3288.8</ele><time>2024-06-25T20:10:53Z</time></trkpt>
<trkpt lat="38.285621" lon="-119.642025"><ele>3289.0</ele><time>2024-06-25T20:10:56Z</time></trkpt>
<trkpt lat="38.285705" lon="-119.642112"><ele>3289.0</ele><time>2024-06-25T20:11:02Z</time></trkpt>
<trkpt lat="38.285693" lon="-119.642048"><ele>3289.2</ele><time>2024-06-25T20:11:04Z</time></trkpt>
<trkpt lat="38.286693" lon="-119.641069"><ele>3296.2</ele><time>2024-06-25T20:12:51Z</time></trkpt>
<trkpt lat="38.286686" lon="-119.640935"><ele>3297.6</ele><time>2024-06-25T20:12:58Z</time></trkpt>
<trkpt lat="38.286651" lon="-119.640965"><ele>3297.6</ele><time>2024-06-25T20:12:59Z</time></trkpt>
<trkpt lat="38.286776" lon="-119.640902"><ele>3298.8</ele><time>2024-06-25T20:13:12Z</time></trkpt>
<trkpt lat="38.287031" lon="-119.640829"><ele>3302.0</ele><time>2024-06-25T20:13:48Z</time></trkpt>
<trkpt lat="38.287446" lon="-119.640898"><ele>3304.0</ele><time>2024-06-25T20:14:55Z</time></trkpt>
<trkpt lat="38.287764" lon="-119.641334"><ele>3300.2</ele><time>2024-06-25T20:15:36Z</time></trkpt>
<trkpt lat="38.288097" lon="-119.641687"><ele>3290.4</ele><time>2024-06-25T20:17:22Z</time></trkpt>
<trkpt lat="38.288284" lon="-119.641342"><ele>3284.4</ele><time>2024-06-25T20:17:52Z</time></trkpt>
<trkpt lat="38.288386" lon="-119.640951"><ele>3280.0</ele><time>2024-06-25T20:18:20Z</time></trkpt>
<trkpt lat="38.288689" lon="-119.640893"><ele>3275.0</ele><time>2024-06-25T20:18:55Z</time></trkpt>
<trkpt lat="38.289225" lon="-119.641334"><ele>3264.4</ele><time>2024-06-25T20:20:44Z</time></trkpt>
<trkpt lat="38.289267" lon="-119.641450"><ele>3264.4</ele><time>2024-06-25T20:20:59Z</time></trkpt>
<trkpt lat="38.289728" lon="-119.641703"><ele>3260.0</ele><time>2024-06-25T20:21:46Z</time></trkpt>
<trkpt lat="38.290361" lon="-119.642425"><ele>3261.8</ele><time>2024-06-25T20:23:11Z</time></trkpt>
<trkpt lat="38.291046" lon="-119.642272"><ele>3261.2</ele><time>2024-06-25T20:24:24Z</time></trkpt>
<trkpt lat="38.291205" lon="-119.642015"><ele>3259.0</ele><time>2024-06-25T20:24:46Z</time></trkpt>
<trkpt lat="38.291339" lon="-119.641927"><ele>3258.2</ele><time>2024-06-25T20:24:52Z</time></trkpt>
<trkpt lat="38.291286" lon="-119.641825"><ele>3258.0</ele><time>2024-06-25T20:24:55Z</time></trkpt>
<trkpt lat="38.291358" lon="-119.641714"><ele>3257.0</ele><time>2024-06-25T20:25:01Z</time></trkpt>
<trkpt lat="38.291899" lon="-119.641500"><ele>3254.6</ele><time>2024-06-25T20:25:21Z</time></trkpt>
<trkpt lat="38.292386" lon="-119.641060"><ele>3250.0</ele><time>2024-06-25T20:26:35Z</time></trkpt>
<trkpt lat="38.292413" lon="-119.640676"><ele>3251.2</ele><time>2024-06-25T20:27:09Z</time></trkpt>
<trkpt lat="38.292740" lon="-119.639785"><ele>3254.8</ele><time>2024-06-25T20:28:47Z</time></trkpt>
<trkpt lat="38.292773" lon="-119.639649"><ele>3254.8</ele><time>2024-06-25T20:28:52Z</time></trkpt>
<trkpt lat="38.292730" lon="-119.639547"><ele>3255.8</ele><time>2024-06-25T20:28:58Z</time></trkpt>
<trkpt lat="38.293055" lon="-119.638559"><ele>3264.2</ele><time>2024-06-25T20:30:40Z</time></trkpt>
<trkpt lat="38.293144" lon="-119.638205"><ele>3265.8</ele><time>2024-06-25T20:30:53Z</time></trkpt>
<trkpt lat="38.293097" lon="-119.638148"><ele>3266.4</ele><time>2024-06-25T20:30:55Z</time></trkpt>
<trkpt lat="38.293861" lon="-119.637141"><ele>3279.0</ele><time>2024-06-25T20:33:13Z</time></trkpt>
<trkpt lat="38.293994" lon="-119.637171"><ele>3283.0</ele><time>2024-06-25T20:33:42Z</time></trkpt>
<trkpt lat="38.294332" lon="-119.637259"><ele>3274.0</ele><time>2024-06-25T20:34:54Z</time></trkpt>
<trkpt lat="38.294421" lon="-119.637380"><ele>3269.4</ele><time>2024-06-25T20:35:30Z</time></trkpt>
<trkpt lat="38.295191" lon="-119.637744"><ele>3249.4</ele><time>2024-06-25T20:36:54Z</time></trkpt>
<trkpt lat="38.295282" lon="-119.637652"><ele>3245.6</ele><time>2024-06-25T20:37:10Z</time></trkpt>
<trkpt lat="38.295430" lon="-119.637685"><ele>3240.0</ele><time>2024-06-25T20:37:38Z</time></trkpt>
<trkpt lat="38.295818" lon="-119.637622"><ele>3234.2</ele><time>2024-06-25T20:38:08Z</time></trkpt>
<trkpt lat="38.296198" lon="-119.637758"><ele>3229.8</ele><time>2024-06-25T20:38:52Z</time></trkpt>
<trkpt lat="38.296336" lon="-119.637518"><ele>3228.8</ele><time>2024-06-25T20:39:07Z</time></trkpt>
<trkpt lat="38.296392" lon="-119.637563"><ele>3227.4</ele><time>2024-06-25T20:39:11Z</time></trkpt>
<trkpt lat="38.296662" lon="-119.638071"><ele>3221.8</ele><time>2024-06-25T20:39:44Z</time></trkpt>
<trkpt lat="38.296676" lon="-119.638342"><ele>3219.4</ele><time>2024-06-25T20:40:00Z</time></trkpt>
<trkpt lat="38.296764" lon="-119.638387"><ele>3218.0</ele><time>2024-06-25T20:40:08Z</time></trkpt>
<trkpt lat="38.296866" lon="-119.639168"><ele>3221.2</ele><time>2024-06-25T20:40:57Z</time></trkpt>
<trkpt lat="38.297454" lon="-119.639737"><ele>3223.2</ele><time>2024-06-25T20:42:02Z</time></trkpt>
<trkpt lat="38.297596" lon="-119.639936"><ele>3232.2</ele><time>2024-06-25T20:42:40Z</time></trkpt>
<trkpt lat="38.297754" lon="-119.640114"><ele>3232.2</ele><time>2024-06-25T20:42:52Z</time></trkpt>
<trkpt lat="38.297792" lon="-119.640266"><ele>3232.2</ele><time>2024-06-25T20:42:58Z</time></trkpt>
<trkpt lat="38.297956" lon="-119.640326"><ele>3230.2</ele><time>2024-06-25T20:43:11Z</time></trkpt>
<trkpt lat="38.298026" lon="-119.640927"><ele>3228.2</ele><time>2024-06-25T20:43:36Z</time></trkpt>
<trkpt lat="38.298181" lon="-119.641750"><ele>3236.6</ele><time>2024-06-25T20:44:57Z</time></trkpt>
<trkpt lat="38.298145" lon="-119.641934"><ele>3238.2</ele><time>2024-06-25T20:45:13Z</time></trkpt>
<trkpt lat="38.298561" lon="-119.642805"><ele>3239.2</ele><time>2024-06-25T20:46:57Z</time></trkpt>
<trkpt lat="38.298548" lon="-119.642755"><ele>3239.6</ele><time>2024-06-25T20:47:03Z</time></trkpt>
<trkpt lat="38.299187" lon="-119.643235"><ele>3249.2</ele><time>2024-06-25T20:48:53Z</time></trkpt>
<trkpt lat="38.299168" lon="-119.643186"><ele>3249.6</ele><time>2024-06-25T20:48:56Z</time></trkpt>
<trkpt lat="38.299269" lon="-119.643322"><ele>3252.6</ele><time>2024-06-25T20:49:14Z</time></trkpt>
<trkpt lat="38.299938" lon="-119.643407"><ele>3263.2</ele><time>2024-06-25T20:50:54Z</time></trkpt>
<trkpt lat="38.299990" lon="-119.643308"><ele>3263.2</ele><time>2024-06-25T20:50:57Z</time></trkpt>
<trkpt lat="38.300081" lon="-119.643458"><ele>3263.2</ele><time>2024-06-25T20:51:02Z</time></trkpt>
<trkpt lat="38.300189" lon="-119.643372"><ele>3264.6</ele><time>2024-06-25T20:51:21Z</time></trkpt>
<trkpt lat="38.300392" lon="-119.643528"><ele>3272.4</ele><time>2024-06-25T20:52:53Z</time></trkpt>
<trkpt lat="38.300285" lon="-119.643794"><ele>3274.6</ele><time>2024-06-25T20:53:10Z</time></trkpt>
<trkpt lat="38.300386" lon="-119.644020"><ele>3279.6</ele><time>2024-06-25T20:53:24Z</time></trkpt>
<trkpt lat="38.300455" lon="-119.644112"><ele>3287.8</ele><time>2024-06-25T20:53:42Z</time></trkpt>
<trkpt lat="38.300493" lon="-119.644233"><ele>3286.8</ele><time>2024-06-25T20:53:58Z</time></trkpt>
<trkpt lat="38.300959" lon="-119.644777"><ele>3278.4</ele><time>2024-06-25T20:54:53Z</time></trkpt>
<trkpt lat="38.301084" lon="-119.644825"><ele>3278.2</ele><time>2024-06-25T20:55:04Z</time></trkpt>
<trkpt lat="38.302247" lon="-119.645133"><ele>3282.8</ele><time>2024-06-25T20:56:54Z</time></trkpt>
<trkpt lat="38.302240" lon="-119.645100"><ele>3287.4</ele><time>2024-06-25T20:57:11Z</time></trkpt>
<trkpt lat="38.302502" lon="-119.645033"><ele>3288.6</ele><time>2024-06-25T20:57:51Z</time></trkpt>
<trkpt lat="38.303332" lon="-119.645337"><ele>3285.2</ele><time>2024-06-25T20:58:54Z</time></trkpt>
<trkpt lat="38.303428" lon="-119.645467"><ele>3286.6</ele><time>2024-06-25T20:59:04Z</time></trkpt>
<trkpt lat="38.304474" lon="-119.645620"><ele>3288.4</ele><time>2024-06-25T21:00:47Z</time></trkpt>
<trkpt lat="38.304726" lon="-119.645546"><ele>3289.8</ele><time>2024-06-25T21:00:57Z</time></trkpt>
<trkpt lat="38.305182" lon="-119.645536"><ele>3290.6</ele><time>2024-06-25T21:01:39Z</time></trkpt>
<trkpt lat="38.305362" lon="-119.645600"><ele>3290.2</ele><time>2024-06-25T21:01:51Z</time></trkpt>
<trkpt lat="38.305766" lon="-119.645480"><ele>3288.4</ele><time>2024-06-25T21:02:21Z</time></trkpt>
<trkpt lat="38.306068" lon="-119.645492"><ele>3289.6</ele><time>2024-06-25T21:02:54Z</time></trkpt>
<trkpt lat="38.306545" lon="-119.645333"><ele>3289.4</ele><time>2024-06-25T21:03:33Z</time></trkpt>
<trkpt lat="38.307217" lon="-119.644887"><ele>3289.4</ele><time>2024-06-25T21:04:54Z</time></trkpt>
<trkpt lat="38.308006" lon="-119.644641"><ele>3291.2</ele><time>2024-06-25T21:05:57Z</time></trkpt>
<trkpt lat="38.308138" lon="-119.644494"><ele>3292.2</ele><time>2024-06-25T21:06:19Z</time></trkpt>
<trkpt lat="38.308724" lon="-119.644190"><ele>3293.4</ele><time>2024-06-25T21:06:54Z</time></trkpt>
<trkpt lat="38.308826" lon="-119.644069"><ele>3293.0</ele><time>2024-06-25T21:07:06Z</time></trkpt>
<trkpt lat="38.309356" lon="-119.643815"><ele>3294.4</ele><time>2024-06-25T21:07:55Z</time></trkpt>
<trkpt lat="38.310135" lon="-119.643597"><ele>3294.4</ele><time>2024-06-25T21:08:59Z</time></trkpt>
<trkpt lat="38.310478" lon="-119.643232"><ele>3300.0</ele><time>2024-06-25T21:09:41Z</time></trkpt>
<trkpt lat="38.310641" lon="-119.642756"><ele>3300.8</ele><time>2024-06-25T21:10:54Z</time></trkpt>
<trkpt lat="38.310735" lon="-119.642931"><ele>3301.0</ele><time>2024-06-25T21:11:10Z</time></trkpt>
<trkpt lat="38.311092" lon="-119.643232"><ele>3299.6</ele><time>2024-06-25T21:11:35Z</time></trkpt>
<trkpt lat="38.311701" lon="-119.643595"><ele>3300.8</ele><time>2024-06-25T21:12:53Z</time></trkpt>
<trkpt lat="38.311935" lon="-119.643649"><ele>3303.2</ele><time>2024-06-25T21:13:13Z</time></trkpt>
<trkpt lat="38.312469" lon="-119.643957"><ele>3300.6</ele><time>2024-06-25T21:14:09Z</time></trkpt>
<trkpt lat="38.313030" lon="-119.644202"><ele>3304.6</ele><time>2024-06-25T21:14:54Z</time></trkpt>
<trkpt lat="38.312942" lon="-119.644144"><ele>3306.6</ele><time>2024-06-25T21:15:05Z</time></trkpt>
<trkpt lat="38.312937" lon="-119.644061"><ele>3306.8</ele><time>2024-06-25T21:16:41Z</time></trkpt>
<trkpt lat="38.312909" lon="-119.644105"><ele>3304.8</ele><time>2024-06-25T21:17:07Z</time></trkpt>
<trkpt lat="38.313031" lon="-119.644119"><ele>3303.6</ele><time>2024-06-25T21:18:54Z</time></trkpt>
<trkpt lat="38.312937" lon="-119.644130"><ele>3303.4</ele><time>2024-06-25T21:19:12Z</time></trkpt>
<trkpt lat="38.312966" lon="-119.644069"><ele>3304.6</ele><time>2024-06-25T21:20:45Z</time></trkpt>
<trkpt lat="38.312963" lon="-119.644143"><ele>3304.2</ele><time>2024-06-25T21:20:58Z</time></trkpt>
<trkpt lat="38.312869" lon="-119.644129"><ele>3304.2</ele><time>2024-06-25T21:21:00Z</time></trkpt>
<trkpt lat="38.312954" lon="-119.644096"><ele>3303.4</ele><time>2024-06-25T21:21:11Z</time></trkpt>
<trkpt lat="38.312893" lon="-119.644050"><ele>3301.8</ele><time>2024-06-25T21:22:54Z</time></trkpt>
<trkpt lat="38.313234" lon="-119.644282"><ele>3299.0</ele><time>2024-06-25T21:26:13Z</time></trkpt>
<trkpt lat="38.313254" lon="-119.644148"><ele>3299.0</ele><time>2024-06-25T21:27:09Z</time></trkpt>
<trkpt lat="38.313525" lon="-119.644183"><ele>3300.6</ele><time>2024-06-25T21:29:06Z</time></trkpt>
<trkpt lat="38.314809" lon="-119.643653"><ele>3309.0</ele><time>2024-06-25T21:31:11Z</time></trkpt>
<trkpt lat="38.316316" lon="-119.643821"><ele>3311.2</ele><time>2024-06-25T21:33:44Z</time></trkpt>
<trkpt lat="38.316700" lon="-119.643710"><ele>3310.0</ele><time>2024-06-25T21:34:44Z</time></trkpt>
<trkpt lat="38.316983" lon="-119.643856"><ele>3304.2</ele><time>2024-06-25T21:35:03Z</time></trkpt>
<trkpt lat="38.317190" lon="-119.643622"><ele>3298.8</ele><time>2024-06-25T21:35:30Z</time></trkpt>
<trkpt lat="38.317986" lon="-119.643584"><ele>3285.4</ele><time>2024-06-25T21:36:46Z</time></trkpt>
<trkpt lat="38.318154" lon="-119.643631"><ele>3284.0</ele><time>2024-06-25T21:36:56Z</time></trkpt>
<trkpt lat="38.318178" lon="-119.643749"><ele>3283.2</ele><time>2024-06-25T21:37:00Z</time></trkpt>
<trkpt lat="38.318001" lon="-119.644069"><ele>3282.4</ele><time>2024-06-25T21:37:05Z</time></trkpt>
<trkpt lat="38.318300" lon="-119.644777"><ele>3274.2</ele><time>2024-06-25T21:37:50Z</time></trkpt>
<trkpt lat="38.318881" lon="-119.644841"><ele>3266.0</ele><time>2024-06-25T21:38:52Z</time></trkpt>
<trkpt lat="38.318923" lon="-119.644782"><ele>3264.8</ele><time>2024-06-25T21:38:56Z</time></trkpt>
<trkpt lat="38.319108" lon="-119.644969"><ele>3263.0</ele><time>2024-06-25T21:39:15Z</time></trkpt>
<trkpt lat="38.319326" lon="-119.644723"><ele>3259.6</ele><time>2024-06-25T21:40:10Z</time></trkpt>
<trkpt lat="38.319718" lon="-119.644483"><ele>3254.6</ele><time>2024-06-25T21:40:55Z</time></trkpt>
<trkpt lat="38.319855" lon="-119.644527"><ele>3253.8</ele><time>2024-06-25T21:41:00Z</time></trkpt>
<trkpt lat="38.319694" lon="-119.644782"><ele>3252.6</ele><time>2024-06-25T21:41:04Z</time></trkpt>
<trkpt lat="38.319863" lon="-119.644678"><ele>3248.0</ele><time>2024-06-25T21:41:18Z</time></trkpt>
<trkpt lat="38.319963" lon="-119.644470"><ele>3247.8</ele><time>2024-06-25T21:41:30Z</time></trkpt>
<trkpt lat="38.320306" lon="-119.644384"><ele>3243.8</ele><time>2024-06-25T21:41:50Z</time></trkpt>
<trkpt lat="38.320684" lon="-119.644147"><ele>3239.2</ele><time>2024-06-25T21:42:18Z</time></trkpt>
<trkpt lat="38.321195" lon="-119.644174"><ele>3233.6</ele><time>2024-06-25T21:42:48Z</time></trkpt>
<trkpt lat="38.321431" lon="-119.644112"><ele>3231.0</ele><time>2024-06-25T21:42:57Z</time></trkpt>
<trkpt lat="38.321502" lon="-119.644210"><ele>3229.8</ele><time>2024-06-25T21:43:02Z</time></trkpt>
<trkpt lat="38.321255" lon="-119.644666"><ele>3228.8</ele><time>2024-06-25T21:43:05Z</time></trkpt>
<trkpt lat="38.321206" lon="-119.644623"><ele>3227.2</ele><time>2024-06-25T21:43:11Z</time></trkpt>
<trkpt lat="38.321759" lon="-119.644428"><ele>3219.8</ele><time>2024-06-25T21:44:10Z</time></trkpt>
<trkpt lat="38.321604" lon="-119.644094"><ele>3212.6</ele><time>2024-06-25T21:44:56Z</time></trkpt>
<trkpt lat="38.321362" lon="-119.644197"><ele>3208.8</ele><time>2024-06-25T21:45:12Z</time></trkpt>
<trkpt lat="38.321136" lon="-119.643916"><ele>3205.8</ele><time>2024-06-25T21:45:58Z</time></trkpt>
<trkpt lat="38.320830" lon="-119.643954"><ele>3201.4</ele><time>2024-06-25T21:46:22Z</time></trkpt>
<trkpt lat="38.320635" lon="-119.643811"><ele>3202.2</ele><time>2024-06-25T21:46:54Z</time></trkpt>
<trkpt lat="38.320543" lon="-119.643849"><ele>3203.2</ele><time>2024-06-25T21:47:14Z</time></trkpt>
<trkpt lat="38.320376" lon="-119.643164"><ele>3197.2</ele><time>2024-06-25T21:48:55Z</time></trkpt>
<trkpt lat="38.320219" lon="-119.643434"><ele>3196.8</ele><time>2024-06-25T21:49:13Z</time></trkpt>
<trkpt lat="38.320294" lon="-119.643327"><ele>3195.6</ele><time>2024-06-25T21:50:57Z</time></trkpt>
<trkpt lat="38.320242" lon="-119.643417"><ele>3195.4</ele><time>2024-06-25T21:51:04Z</time></trkpt>
<trkpt lat="38.320202" lon="-119.643393"><ele>3193.8</ele><time>2024-06-25T21:51:26Z</time></trkpt>
<trkpt lat="38.319723" lon="-119.642945"><ele>3189.8</ele><time>2024-06-25T21:52:40Z</time></trkpt>
<trkpt lat="38.319581" lon="-119.642955"><ele>3189.0</ele><time>2024-06-25T21:52:58Z</time></trkpt>
<trkpt lat="38.319385" lon="-119.643110"><ele>3189.2</ele><time>2024-06-25T21:53:08Z</time></trkpt>
<trkpt lat="38.318813" lon="-119.642584"><ele>3188.8</ele><time>2024-06-25T21:54:55Z</time></trkpt>
<trkpt lat="38.318628" lon="-119.642730"><ele>3188.8</ele><time>2024-06-25T21:55:05Z</time></trkpt>
<trkpt lat="38.318236" lon="-119.641868"><ele>3183.6</ele><time>2024-06-25T21:56:55Z</time></trkpt>
<trkpt lat="38.318176" lon="-119.641886"><ele>3183.4</ele><time>2024-06-25T21:56:57Z</time></trkpt>
<trkpt lat="38.318216" lon="-119.641791"><ele>3183.4</ele><time>2024-06-25T21:57:02Z</time></trkpt>
<trkpt lat="38.318188" lon="-119.641884"><ele>3183.0</ele><time>2024-06-25T21:57:07Z</time></trkpt>
<trkpt lat="38.318018" lon="-119.640429"><ele>3168.8</ele><time>2024-06-25T21:58:59Z</time></trkpt>
<trkpt lat="38.317945" lon="-119.640574"><ele>3167.6</ele><time>2024-06-25T21:59:05Z</time></trkpt>
<trkpt lat="38.317878" lon="-119.640498"><ele>3166.4</ele><time>2024-06-25T21:59:14Z</time></trkpt>
<trkpt lat="38.317614" lon="-119.639453"><ele>3161.0</ele><time>2024-06-25T22:00:58Z</time></trkpt>
<trkpt lat="38.317543" lon="-119.639528"><ele>3161.4</ele><time>2024-06-25T22:01:08Z</time></trkpt>
<trkpt lat="38.317494" lon="-119.639413"><ele>3159.8</ele><time>2024-06-25T22:01:22Z</time></trkpt>
<trkpt lat="38.317529" lon="-119.639162"><ele>3158.6</ele><time>2024-06-25T22:01:48Z</time></trkpt>
<trkpt lat="38.317412" lon="-119.638824"><ele>3155.0</ele><time>2024-06-25T22:02:07Z</time></trkpt>
<trkpt lat="38.317511" lon="-119.637972"><ele>3147.2</ele><time>2024-06-25T22:03:57Z</time></trkpt>
<trkpt lat="38.317533" lon="-119.637868"><ele>3147.0</ele><time>2024-06-25T22:04:01Z</time></trkpt>
<trkpt lat="38.317511" lon="-119.638009"><ele>3146.2</ele><time>2024-06-25T22:04:05Z</time></trkpt>
<trkpt lat="38.317587" lon="-119.638028"><ele>3145.8</ele><time>2024-06-25T22:04:18Z</time></trkpt>
<trkpt lat="38.317914" lon="-119.637673"><ele>3139.0</ele><time>2024-06-25T22:04:54Z</time></trkpt>
<trkpt lat="38.318017" lon="-119.637634"><ele>3139.0</ele><time>2024-06-25T22:05:07Z</time></trkpt>
<trkpt lat="38.318102" lon="-119.637483"><ele>3136.8</ele><time>2024-06-25T22:05:23Z</time></trkpt>
<trkpt lat="38.318384" lon="-119.637357"><ele>3133.8</ele><time>2024-06-25T22:05:53Z</time></trkpt>
<trkpt lat="38.318779" lon="-119.636784"><ele>3126.6</ele><time>2024-06-25T22:06:38Z</time></trkpt>
<trkpt lat="38.319009" lon="-119.636608"><ele>3118.6</ele><time>2024-06-25T22:07:50Z</time></trkpt>
<trkpt lat="38.319129" lon="-119.636423"><ele>3115.6</ele><time>2024-06-25T22:08:11Z</time></trkpt>
<trkpt lat="38.319114" lon="-119.636502"><ele>3115.2</ele><time>2024-06-25T22:08:20Z</time></trkpt>
<trkpt lat="38.319173" lon="-119.636480"><ele>3115.2</ele><time>2024-06-25T22:08:24Z</time></trkpt>
<trkpt lat="38.319133" lon="-119.636462"><ele>3115.2</ele><time>2024-06-25T22:08:28Z</time></trkpt>
<trkpt lat="38.319144" lon="-119.636109"><ele>3115.2</ele><time>2024-06-25T22:09:21Z</time></trkpt>
<trkpt lat="38.319342" lon="-119.635756"><ele>3111.4</ele><time>2024-06-25T22:10:00Z</time></trkpt>
<trkpt lat="38.319558" lon="-119.635617"><ele>3107.8</ele><time>2024-06-25T22:10:29Z</time></trkpt>
<trkpt lat="38.319668" lon="-119.635793"><ele>3105.6</ele><time>2024-06-25T22:10:47Z</time></trkpt>
<trkpt lat="38.319701" lon="-119.635681"><ele>3105.2</ele><time>2024-06-25T22:11:03Z</time></trkpt>
<trkpt lat="38.319755" lon="-119.635829"><ele>3104.4</ele><time>2024-06-25T22:11:18Z</time></trkpt>
<trkpt lat="38.320154" lon="-119.635860"><ele>3100.8</ele><time>2024-06-25T22:11:58Z</time></trkpt>
<trkpt lat="38.320478" lon="-119.636031"><ele>3096.2</ele><time>2024-06-25T22:12:24Z</time></trkpt>
<trkpt lat="38.320545" lon="-119.636116"><ele>3098.4</ele><time>2024-06-25T22:12:38Z</time></trkpt>
<trkpt lat="38.320565" lon="-119.636439"><ele>3093.6</ele><time>2024-06-25T22:13:30Z</time></trkpt>
<trkpt lat="38.320676" lon="-119.636518"><ele>3088.4</ele><time>2024-06-25T22:13:55Z</time></trkpt>
<trkpt lat="38.320772" lon="-119.636452"><ele>3087.2</ele><time>2024-06-25T22:14:01Z</time></trkpt>
<trkpt lat="38.320816" lon="-119.636490"><ele>3086.6</ele><time>2024-06-25T22:14:07Z</time></trkpt>
<trkpt lat="38.321260" lon="-119.636259"><ele>3079.8</ele><time>2024-06-25T22:14:54Z</time></trkpt>
<trkpt lat="38.321964" lon="-119.636147"><ele>3069.8</ele><time>2024-06-25T22:15:58Z</time></trkpt>
<trkpt lat="38.321965" lon="-119.636049"><ele>3069.2</ele><time>2024-06-25T22:16:04Z</time></trkpt>
<trkpt lat="38.322084" lon="-119.635974"><ele>3066.4</ele><time>2024-06-25T22:16:14Z</time></trkpt>
<trkpt lat="38.322234" lon="-119.635243"><ele>3057.0</ele><time>2024-06-25T22:17:29Z</time></trkpt>
<trkpt lat="38.322332" lon="-119.635144"><ele>3052.4</ele><time>2024-06-25T22:17:45Z</time></trkpt>
<trkpt lat="38.322622" lon="-119.635077"><ele>3047.6</ele><time>2024-06-25T22:18:02Z</time></trkpt>
<trkpt lat="38.322671" lon="-119.635111"><ele>3046.4</ele><time>2024-06-25T22:18:06Z</time></trkpt>
<trkpt lat="38.322689" lon="-119.635336"><ele>3044.2</ele><time>2024-06-25T22:18:19Z</time></trkpt>
<trkpt lat="38.322488" lon="-119.635673"><ele>3039.6</ele><time>2024-06-25T22:18:41Z</time></trkpt>
<trkpt lat="38.322559" lon="-119.635898"><ele>3036.4</ele><time>2024-06-25T22:19:03Z</time></trkpt>
<trkpt lat="38.322557" lon="-119.636343"><ele>3032.6</ele><time>2024-06-25T22:19:57Z</time></trkpt>
<trkpt lat="38.322470" lon="-119.636385"><ele>3032.2</ele><time>2024-06-25T22:19:58Z</time></trkpt>
<trkpt lat="38.322516" lon="-119.636355"><ele>3032.0</ele><time>2024-06-25T22:19:59Z</time></trkpt>
<trkpt lat="38.322428" lon="-119.637103"><ele>3024.2</ele><time>2024-06-25T22:21:07Z</time></trkpt>
<trkpt lat="38.322357" lon="-119.637271"><ele>3021.8</ele><time>2024-06-25T22:21:19Z</time></trkpt>
<trkpt lat="38.322102" lon="-119.637505"><ele>3017.2</ele><time>2024-06-25T22:21:41Z</time></trkpt>
<trkpt lat="38.322144" lon="-119.637693"><ele>3015.0</ele><time>2024-06-25T22:21:59Z</time></trkpt>
<trkpt lat="38.322159" lon="-119.637651"><ele>3014.6</ele><time>2024-06-25T22:22:01Z</time></trkpt>
<trkpt lat="38.322122" lon="-119.637667"><ele>3014.0</ele><time>2024-06-25T22:22:08Z</time></trkpt>
<trkpt lat="38.322411" lon="-119.637497"><ele>3011.6</ele><time>2024-06-25T22:23:05Z</time></trkpt>
<trkpt lat="38.322877" lon="-119.637533"><ele>3004.0</ele><time>2024-06-25T22:23:59Z</time></trkpt>
<trkpt lat="38.322889" lon="-119.637739"><ele>3002.2</ele><time>2024-06-25T22:24:14Z</time></trkpt>
<trkpt lat="38.322750" lon="-119.637825"><ele>2996.2</ele><time>2024-06-25T22:25:15Z</time></trkpt>
<trkpt lat="38.322668" lon="-119.637886"><ele>3000.0</ele><time>2024-06-25T22:25:56Z</time></trkpt>
<trkpt lat="38.322708" lon="-119.637978"><ele>2999.8</ele><time>2024-06-25T22:25:58Z</time></trkpt>
<trkpt lat="38.322614" lon="-119.637995"><ele>2999.8</ele><time>2024-06-25T22:26:06Z</time></trkpt>
<trkpt lat="38.322690" lon="-119.638199"><ele>2997.6</ele><time>2024-06-25T22:27:01Z</time></trkpt>
<trkpt lat="38.322674" lon="-119.638404"><ele>2998.0</ele><time>2024-06-25T22:28:02Z</time></trkpt>
<trkpt lat="38.322758" lon="-119.638434"><ele>2998.0</ele><time>2024-06-25T22:28:11Z</time></trkpt>
<trkpt lat="38.322721" lon="-119.638372"><ele>2996.8</ele><time>2024-06-25T22:29:51Z</time></trkpt>
<trkpt lat="38.322758" lon="-119.638373"><ele>2997.0</ele><time>2024-06-25T22:30:16Z</time></trkpt>
<trkpt lat="38.322801" lon="-119.638503"><ele>2997.6</ele><time>2024-06-25T22:31:51Z</time></trkpt>
<trkpt lat="38.322708" lon="-119.638410"><ele>2999.4</ele><time>2024-06-25T22:32:39Z</time></trkpt>
<trkpt lat="38.322735" lon="-119.638363"><ele>2999.6</ele><time>2024-06-25T22:33:33Z</time></trkpt>
<trkpt lat="38.322778" lon="-119.638412"><ele>3001.4</ele><time>2024-06-25T22:34:04Z</time></trkpt>
<trkpt lat="38.322779" lon="-119.638365"><ele>3001.8</ele><time>2024-06-25T22:34:19Z</time></trkpt>
<trkpt lat="38.322982" lon="-119.638376"><ele>3003.6</ele><time>2024-06-25T22:36:01Z</time></trkpt>
<trkpt lat="38.323451" lon="-119.637671"><ele>3000.6</ele><time>2024-06-25T22:37:31Z</time></trkpt>
<trkpt lat="38.323756" lon="-119.637477"><ele>3000.0</ele><time>2024-06-25T22:37:56Z</time></trkpt>
<trkpt lat="38.323848" lon="-119.637486"><ele>2999.4</ele><time>2024-06-25T22:38:05Z</time></trkpt>
<trkpt lat="38.323869" lon="-119.637675"><ele>2999.8</ele><time>2024-06-25T22:38:16Z</time></trkpt>
<trkpt lat="38.324301" lon="-119.638666"><ele>3004.8</ele><time>2024-06-25T22:39:59Z</time></trkpt>
<trkpt lat="38.324316" lon="-119.638901"><ele>3004.2</ele><time>2024-06-25T22:40:10Z</time></trkpt>
<trkpt lat="38.324579" lon="-119.639106"><ele>2999.4</ele><time>2024-06-25T22:40:47Z</time></trkpt>
<trkpt lat="38.324937" lon="-119.639252"><ele>2998.2</ele><time>2024-06-25T22:41:37Z</time></trkpt>
<trkpt lat="38.325140" lon="-119.639233"><ele>3001.4</ele><time>2024-06-25T22:42:16Z</time></trkpt>
<trkpt lat="38.325372" lon="-119.639584"><ele>3011.8</ele><time>2024-06-25T22:43:43Z</time></trkpt>
<trkpt lat="38.325530" lon="-119.639703"><ele>3011.4</ele><time>2024-06-25T22:43:58Z</time></trkpt>
<trkpt lat="38.325571" lon="-119.639657"><ele>3011.0</ele><time>2024-06-25T22:44:02Z</time></trkpt>
<trkpt lat="38.325513" lon="-119.639609"><ele>3011.4</ele><time>2024-06-25T22:44:14Z</time></trkpt>
<trkpt lat="38.325483" lon="-119.639670"><ele>3012.6</ele><time>2024-06-25T22:45:57Z</time></trkpt>
<trkpt lat="38.325531" lon="-119.639646"><ele>3013.0</ele><time>2024-06-25T22:46:00Z</time></trkpt>
<trkpt lat="38.325543" lon="-119.639707"><ele>3013.8</ele><time>2024-06-25T22:46:05Z</time></trkpt>
<trkpt lat="38.325586" lon="-119.639645"><ele>3014.0</ele><time>2024-06-25T22:46:09Z</time></trkpt>
<trkpt lat="38.325491" lon="-119.639760"><ele>3011.2</ele><time>2024-06-25T22:48:14Z</time></trkpt>
<trkpt lat="38.325474" lon="-119.639650"><ele>3013.4</ele><time>2024-06-25T22:51:58Z</time></trkpt>
<trkpt lat="38.325493" lon="-119.639757"><ele>3013.6</ele><time>2024-06-25T22:54:03Z</time></trkpt>
<trkpt lat="38.325404" lon="-119.639743"><ele>3014.4</ele><time>2024-06-25T22:54:53Z</time></trkpt>
<trkpt lat="38.325350" lon="-119.639820"><ele>3014.6</ele><time>2024-06-25T22:55:31Z</time></trkpt>
<trkpt lat="38.325549" lon="-119.639757"><ele>3014.4</ele><time>2024-06-25T22:56:02Z</time></trkpt>
<trkpt lat="38.325418" lon="-119.639663"><ele>3016.0</ele><time>2024-06-25T22:59:26Z</time></trkpt>
<trkpt lat="38.325408" lon="-119.639599"><ele>3013.2</ele><time>2024-06-25T23:00:02Z</time></trkpt>
<trkpt lat="38.325477" lon="-119.639704"><ele>3013.4</ele><time>2024-06-25T23:00:07Z</time></trkpt>
<trkpt lat="38.325503" lon="-119.639633"><ele>3014.0</ele><time>2024-06-25T23:01:57Z</time></trkpt>
<trkpt lat="38.325472" lon="-119.639741"><ele>3011.6</ele><time>2024-06-25T23:02:13Z</time></trkpt>
<trkpt lat="38.325509" lon="-119.639690"><ele>3013.4</ele><time>2024-06-25T23:03:40Z</time></trkpt>
<trkpt lat="38.325473" lon="-119.639735"><ele>3012.8</ele><time>2024-06-25T23:04:17Z</time></trkpt>
<trkpt lat="38.325421" lon="-119.639593"><ele>3011.2</ele><time>2024-06-25T23:08:00Z</time></trkpt>
<trkpt lat="38.325454" lon="-119.639693"><ele>3010.6</ele><time>2024-06-25T23:08:26Z</time></trkpt>
<trkpt lat="38.325368" lon="-119.639683"><ele>3010.8</ele><time>2024-06-25T23:09:10Z</time></trkpt>
<trkpt lat="38.325423" lon="-119.639646"><ele>3009.0</ele><time>2024-06-25T23:10:17Z</time></trkpt>
</trkseg></trk>
</gpx>
