<?xml version="1.0" encoding="UTF-8"?>
<gpx version="1.1" creator="Eric Sichak trip reports" xmlns="http://www.topografix.com/GPX/1/1">
<metadata><name>Morning Hike</name><time>2024-06-30T15:49:31Z</time></metadata>
<trk><name>Morning Hike</name><type>hike</type><trkseg>
<trkpt lat="39.195280" lon="-119.927596"><ele>1905.6</ele><time>2024-06-30T15:49:31Z</time></trkpt>
<trkpt lat="39.195282" lon="-119.927544"><ele>1904.8</ele><time>2024-06-30T15:49:41Z</time></trkpt>
<trkpt lat="39.195322" lon="-119.927758"><ele>1904.6</ele><time>2024-06-30T15:50:28Z</time></trkpt>
<trkpt lat="39.195230" lon="-119.927867"><ele>1903.8</ele><time>2024-06-30T15:50:43Z</time></trkpt>
<trkpt lat="39.194756" lon="-119.927662"><ele>1904.6</ele><time>2024-06-30T15:51:35Z</time></trkpt>
<trkpt lat="39.194689" lon="-119.927848"><ele>1903.2</ele><time>2024-06-30T15:51:58Z</time></trkpt>
<trkpt lat="39.194804" lon="-119.927719"><ele>1902.2</ele><time>2024-06-30T15:53:43Z</time></trkpt>
<trkpt lat="39.194734" lon="-119.927758"><ele>1902.0</ele><time>2024-06-30T15:53:47Z</time></trkpt>
<trkpt lat="39.194715" lon="-119.927811"><ele>1902.0</ele><time>2024-06-30T15:53:50Z</time></trkpt>
<trkpt lat="39.194896" lon="-119.927687"><ele>1902.0</ele><time>2024-06-30T15:55:48Z</time></trkpt>
<trkpt lat="39.194788" lon="-119.927886"><ele>1901.8</ele><time>2024-06-30T15:57:05Z</time></trkpt>
<trkpt lat="39.194712" lon="-119.927898"><ele>1904.0</ele><time>2024-06-30T15:59:45Z</time></trkpt>
<trkpt lat="39.194725" lon="-119.927850"><ele>1903.8</ele><time>2024-06-30T15:59:53Z</time></trkpt>
<trkpt lat="39.194404" lon="-119.927934"><ele>1903.6</ele><time>2024-06-30T16:01:44Z</time></trkpt>
<trkpt lat="39.194733" lon="-119.927886"><ele>1903.2</ele><time>2024-06-30T16:03:51Z</time></trkpt>
<trkpt lat="39.194723" lon="-119.927826"><ele>1903.4</ele><time>2024-06-30T16:04:00Z</time></trkpt>
<trkpt lat="39.194786" lon="-119.927972"><ele>1903.0</ele><time>2024-06-30T16:05:45Z</time></trkpt>
<trkpt lat="39.194691" lon="-119.927918"><ele>1902.6</ele><time>2024-06-30T16:05:55Z</time></trkpt>
<trkpt lat="39.194905" lon="-119.927772"><ele>1903.6</ele><time>2024-06-30T16:07:42Z</time></trkpt>
<trkpt lat="39.194742" lon="-119.927880"><ele>1902.2</ele><time>2024-06-30T16:09:47Z</time></trkpt>
<trkpt lat="39.194781" lon="-119.927889"><ele>1902.0</ele><time>2024-06-30T16:09:56Z</time></trkpt>
<trkpt lat="39.194722" lon="-119.927798"><ele>1902.4</ele><time>2024-06-30T16:11:47Z</time></trkpt>
<trkpt lat="39.194902" lon="-119.927878"><ele>1902.2</ele><time>2024-06-30T16:13:44Z</time></trkpt>
<trkpt lat="39.194761" lon="-119.927822"><ele>1901.6</ele><time>2024-06-30T16:15:48Z</time></trkpt>
<trkpt lat="39.194731" lon="-119.927882"><ele>1901.4</ele><time>2024-06-30T16:15:57Z</time></trkpt>
<trkpt lat="39.194750" lon="-119.927798"><ele>1901.2</ele><time>2024-06-30T16:17:49Z</time></trkpt>
<trkpt lat="39.194692" lon="-119.927927"><ele>1902.6</ele><time>2024-06-30T16:19:43Z</time></trkpt>
<trkpt lat="39.194761" lon="-119.927807"><ele>1901.8</ele><time>2024-06-30T16:21:43Z</time></trkpt>
<trkpt lat="39.194729" lon="-119.927851"><ele>1901.6</ele><time>2024-06-30T16:21:59Z</time></trkpt>
<trkpt lat="39.194708" lon="-119.927789"><ele>1901.6</ele><time>2024-06-30T16:23:47Z</time></trkpt>
<trkpt lat="39.194751" lon="-119.927901"><ele>1902.0</ele><time>2024-06-30T16:27:44Z</time></trkpt>
<trkpt lat="39.194717" lon="-119.927860"><ele>1902.0</ele><time>2024-06-30T16:27:48Z</time></trkpt>
<trkpt lat="39.194763" lon="-119.927775"><ele>1901.2</ele><time>2024-06-30T16:29:48Z</time></trkpt>
<trkpt lat="39.194726" lon="-119.927892"><ele>1900.8</ele><time>2024-06-30T16:31:42Z</time></trkpt>
<trkpt lat="39.194614" lon="-119.927835"><ele>1901.0</ele><time>2024-06-30T16:33:42Z</time></trkpt>
<trkpt lat="39.194729" lon="-119.927914"><ele>1901.6</ele><time>2024-06-30T16:33:56Z</time></trkpt>
<trkpt lat="39.194714" lon="-119.927811"><ele>1901.4</ele><time>2024-06-30T16:37:50Z</time></trkpt>
<trkpt lat="39.194744" lon="-119.927922"><ele>1901.2</ele><time>2024-06-30T16:43:44Z</time></trkpt>
<trkpt lat="39.194712" lon="-119.927822"><ele>1901.2</ele><time>2024-06-30T16:45:01Z</time></trkpt>
<trkpt lat="39.194683" lon="-119.927877"><ele>1901.8</ele><time>2024-06-30T16:45:57Z</time></trkpt>
<trkpt lat="39.194706" lon="-119.927793"><ele>1901.4</ele><time>2024-06-30T16:47:47Z</time></trkpt>
<trkpt lat="39.194671" lon="-119.927817"><ele>1901.4</ele><time>2024-06-30T16:47:57Z</time></trkpt>
<trkpt lat="39.194750" lon="-119.927891"><ele>1900.6</ele><time>2024-06-30T16:49:54Z</time></trkpt>
<trkpt lat="39.194724" lon="-119.927800"><ele>1900.8</ele><time>2024-06-30T16:51:59Z</time></trkpt>
<trkpt lat="39.194768" lon="-119.927978"><ele>1899.6</ele><time>2024-06-30T16:53:43Z</time></trkpt>
<trkpt lat="39.194762" lon="-119.927880"><ele>1899.6</ele><time>2024-06-30T16:53:51Z</time></trkpt>
<trkpt lat="39.194680" lon="-119.927829"><ele>1899.8</ele><time>2024-06-30T16:59:07Z</time></trkpt>
<trkpt lat="39.194743" lon="-119.927819"><ele>1900.0</ele><time>2024-06-30T17:00:00Z</time></trkpt>
<trkpt lat="39.194527" lon="-119.927793"><ele>1900.2</ele><time>2024-06-30T17:01:49Z</time></trkpt>
<trkpt lat="39.194764" lon="-119.928015"><ele>1900.8</ele><time>2024-06-30T17:03:43Z</time></trkpt>
<trkpt lat="39.194778" lon="-119.927914"><ele>1900.6</ele><time>2024-06-30T17:03:49Z</time></trkpt>
<trkpt lat="39.194847" lon="-119.927917"><ele>1900.6</ele><time>2024-06-30T17:03:51Z</time></trkpt>
<trkpt lat="39.194792" lon="-119.927910"><ele>1900.6</ele><time>2024-06-30T17:03:52Z</time></trkpt>
<trkpt lat="39.194782" lon="-119.927824"><ele>1900.6</ele><time>2024-06-30T17:03:58Z</time></trkpt>
<trkpt lat="39.194701" lon="-119.927833"><ele>1900.4</ele><time>2024-06-30T17:05:59Z</time></trkpt>
<trkpt lat="39.194700" lon="-119.927902"><ele>1899.6</ele><time>2024-06-30T17:07:44Z</time></trkpt>
<trkpt lat="39.194678" lon="-119.927812"><ele>1899.6</ele><time>2024-06-30T17:09:47Z</time></trkpt>
<trkpt lat="39.194737" lon="-119.927856"><ele>1899.6</ele><time>2024-06-30T17:10:03Z</time></trkpt>
<trkpt lat="39.194702" lon="-119.927926"><ele>1902.0</ele><time>2024-06-30T17:11:45Z</time></trkpt>
<trkpt lat="39.194714" lon="-119.927827"><ele>1902.0</ele><time>2024-06-30T17:11:48Z</time></trkpt>
<trkpt lat="39.194789" lon="-119.927934"><ele>1900.2</ele><time>2024-06-30T17:13:46Z</time></trkpt>
<trkpt lat="39.194646" lon="-119.927674"><ele>1900.2</ele><time>2024-06-30T17:15:49Z</time></trkpt>
<trkpt lat="39.194721" lon="-119.927882"><ele>1900.6</ele><time>2024-06-30T17:18:02Z</time></trkpt>
<trkpt lat="39.194786" lon="-119.927860"><ele>1901.0</ele><time>2024-06-30T17:18:56Z</time></trkpt>
<trkpt lat="39.194699" lon="-119.927789"><ele>1900.4</ele><time>2024-06-30T17:19:54Z</time></trkpt>
<trkpt lat="39.194735" lon="-119.927866"><ele>1899.4</ele><time>2024-06-30T17:21:02Z</time></trkpt>
<trkpt lat="39.194676" lon="-119.927858"><ele>1899.2</ele><time>2024-06-30T17:21:59Z</time></trkpt>
<trkpt lat="39.194731" lon="-119.927894"><ele>1899.4</ele><time>2024-06-30T17:23:46Z</time></trkpt>
<trkpt lat="39.194687" lon="-119.927843"><ele>1900.4</ele><time>2024-06-30T17:25:43Z</time></trkpt>
<trkpt lat="39.194778" lon="-119.927776"><ele>1900.2</ele><time>2024-06-30T17:25:55Z</time></trkpt>
<trkpt lat="39.194767" lon="-119.927843"><ele>1900.0</ele><time>2024-06-30T17:26:00Z</time></trkpt>
<trkpt lat="39.194676" lon="-119.927850"><ele>1900.2</ele><time>2024-06-30T17:29:57Z</time></trkpt>
<trkpt lat="39.194769" lon="-119.927890"><ele>1899.6</ele><time>2024-06-30T17:31:53Z</time></trkpt>
<trkpt lat="39.194636" lon="-119.927841"><ele>1899.6</ele><time>2024-06-30T17:33:54Z</time></trkpt>
<trkpt lat="39.194691" lon="-119.927851"><ele>1899.6</ele><time>2024-06-30T17:34:01Z</time></trkpt>
<trkpt lat="39.194688" lon="-119.927920"><ele>1899.8</ele><time>2024-06-30T17:35:06Z</time></trkpt>
<trkpt lat="39.194637" lon="-119.927858"><ele>1899.8</ele><time>2024-06-30T17:35:51Z</time></trkpt>
<trkpt lat="39.194726" lon="-119.927877"><ele>1899.8</ele><time>2024-06-30T17:36:03Z</time></trkpt>
<trkpt lat="39.194682" lon="-119.927937"><ele>1900.6</ele><time>2024-06-30T17:37:32Z</time></trkpt>
<trkpt lat="39.194742" lon="-119.927822"><ele>1900.8</ele><time>2024-06-30T17:37:54Z</time></trkpt>
<trkpt lat="39.194766" lon="-119.927952"><ele>1900.8</ele><time>2024-06-30T17:39:38Z</time></trkpt>
<trkpt lat="39.194720" lon="-119.927853"><ele>1900.4</ele><time>2024-06-30T17:39:59Z</time></trkpt>
<trkpt lat="39.194685" lon="-119.927913"><ele>1898.8</ele><time>2024-06-30T17:41:51Z</time></trkpt>
<trkpt lat="39.194669" lon="-119.927837"><ele>1898.8</ele><time>2024-06-30T17:41:57Z</time></trkpt>
<trkpt lat="39.194723" lon="-119.927802"><ele>1898.6</ele><time>2024-06-30T17:44:02Z</time></trkpt>
<trkpt lat="39.194627" lon="-119.927806"><ele>1898.4</ele><time>2024-06-30T17:45:59Z</time></trkpt>
<trkpt lat="39.194801" lon="-119.927916"><ele>1902.2</ele><time>2024-06-30T17:47:48Z</time></trkpt>
<trkpt lat="39.194747" lon="-119.927815"><ele>1901.2</ele><time>2024-06-30T17:49:55Z</time></trkpt>
<trkpt lat="39.194801" lon="-119.927883"><ele>1901.6</ele><time>2024-06-30T17:51:36Z</time></trkpt>
<trkpt lat="39.194752" lon="-119.927819"><ele>1901.8</ele><time>2024-06-30T17:51:53Z</time></trkpt>
<trkpt lat="39.194741" lon="-119.927882"><ele>1902.6</ele><time>2024-06-30T17:53:54Z</time></trkpt>
<trkpt lat="39.194866" lon="-119.927697"><ele>1906.0</ele><time>2024-06-30T17:55:43Z</time></trkpt>
<trkpt lat="39.195223" lon="-119.927846"><ele>1905.0</ele><time>2024-06-30T17:56:54Z</time></trkpt>
<trkpt lat="39.195078" lon="-119.927838"><ele>1904.4</ele><time>2024-06-30T17:57:56Z</time></trkpt>
<trkpt lat="39.194970" lon="-119.927696"><ele>1904.4</ele><time>2024-06-30T17:58:14Z</time></trkpt>
<trkpt lat="39.194712" lon="-119.927829"><ele>1902.8</ele><time>2024-06-30T17:59:26Z</time></trkpt>
<trkpt lat="39.194699" lon="-119.927772"><ele>1902.2</ele><time>2024-06-30T17:59:44Z</time></trkpt>
<trkpt lat="39.194731" lon="-119.927918"><ele>1901.6</ele><time>2024-06-30T17:59:51Z</time></trkpt>
<trkpt lat="39.194576" lon="-119.927622"><ele>1900.2</ele><time>2024-06-30T18:01:43Z</time></trkpt>
<trkpt lat="39.194658" lon="-119.928010"><ele>1900.4</ele><time>2024-06-30T18:01:51Z</time></trkpt>
<trkpt lat="39.194615" lon="-119.927963"><ele>1900.2</ele><time>2024-06-30T18:02:03Z</time></trkpt>
<trkpt lat="39.194045" lon="-119.928221"><ele>1899.6</ele><time>2024-06-30T18:03:47Z</time></trkpt>
<trkpt lat="39.193275" lon="-119.928373"><ele>1898.8</ele><time>2024-06-30T18:05:42Z</time></trkpt>
<trkpt lat="39.193266" lon="-119.928463"><ele>1898.4</ele><time>2024-06-30T18:05:48Z</time></trkpt>
<trkpt lat="39.192608" lon="-119.928369"><ele>1897.4</ele><time>2024-06-30T18:07:43Z</time></trkpt>
<trkpt lat="39.192577" lon="-119.928500"><ele>1897.0</ele><time>2024-06-30T18:07:51Z</time></trkpt>
<trkpt lat="39.191136" lon="-119.928530"><ele>1897.0</ele><time>2024-06-30T18:11:43Z</time></trkpt>
<trkpt lat="39.190349" lon="-119.928442"><ele>1896.4</ele><time>2024-06-30T18:13:43Z</time></trkpt>
<trkpt lat="39.190368" lon="-119.928510"><ele>1896.4</ele><time>2024-06-30T18:13:50Z</time></trkpt>
<trkpt lat="39.190315" lon="-119.928541"><ele>1897.0</ele><time>2024-06-30T18:13:57Z</time></trkpt>
<trkpt lat="39.189644" lon="-119.928471"><ele>1897.2</ele><time>2024-06-30T18:15:43Z</time></trkpt>
<trkpt lat="39.187038" lon="-119.928858"><ele>1894.4</ele><time>2024-06-30T18:23:43Z</time></trkpt>
<trkpt lat="39.186963" lon="-119.928982"><ele>1894.4</ele><time>2024-06-30T18:24:01Z</time></trkpt>
<trkpt lat="39.186416" lon="-119.929303"><ele>1894.2</ele><time>2024-06-30T18:25:43Z</time></trkpt>
<trkpt lat="39.186323" lon="-119.929245"><ele>1894.4</ele><time>2024-06-30T18:26:01Z</time></trkpt>
<trkpt lat="39.185698" lon="-119.929257"><ele>1893.6</ele><time>2024-06-30T18:27:46Z</time></trkpt>
<trkpt lat="39.185630" lon="-119.929192"><ele>1893.8</ele><time>2024-06-30T18:27:54Z</time></trkpt>
<trkpt lat="39.184897" lon="-119.929244"><ele>1894.0</ele><time>2024-06-30T18:29:54Z</time></trkpt>
<trkpt lat="39.184216" lon="-119.928938"><ele>1893.4</ele><time>2024-06-30T18:31:42Z</time></trkpt>
<trkpt lat="39.184125" lon="-119.928960"><ele>1893.4</ele><time>2024-06-30T18:32:01Z</time></trkpt>
<trkpt lat="39.183525" lon="-119.928553"><ele>1891.6</ele><time>2024-06-30T18:33:43Z</time></trkpt>
<trkpt lat="39.183394" lon="-119.928609"><ele>1892.2</ele><time>2024-06-30T18:33:49Z</time></trkpt>
<trkpt lat="39.182641" lon="-119.928246"><ele>1894.4</ele><time>2024-06-30T18:35:52Z</time></trkpt>
<trkpt lat="39.182510" lon="-119.927675"><ele>1893.6</ele><time>2024-06-30T18:37:43Z</time></trkpt>
<trkpt lat="39.182601" lon="-119.927587"><ele>1894.0</ele><time>2024-06-30T18:37:54Z</time></trkpt>
<trkpt lat="39.182627" lon="-119.927887"><ele>1893.0</ele><time>2024-06-30T18:41:43Z</time></trkpt>
<trkpt lat="39.182835" lon="-119.928026"><ele>1894.2</ele><time>2024-06-30T18:43:46Z</time></trkpt>
<trkpt lat="39.182909" lon="-119.928273"><ele>1894.6</ele><time>2024-06-30T18:45:47Z</time></trkpt>
<trkpt lat="39.183015" lon="-119.928255"><ele>1894.2</ele><time>2024-06-30T18:46:03Z</time></trkpt>
<trkpt lat="39.183181" lon="-119.928618"><ele>1893.4</ele><time>2024-06-30T18:47:58Z</time></trkpt>
<trkpt lat="39.183283" lon="-119.929024"><ele>1893.4</ele><time>2024-06-30T18:49:43Z</time></trkpt>
<trkpt lat="39.183452" lon="-119.929235"><ele>1894.0</ele><time>2024-06-30T18:51:56Z</time></trkpt>
<trkpt lat="39.183588" lon="-119.929284"><ele>1894.8</ele><time>2024-06-30T18:53:40Z</time></trkpt>
<trkpt lat="39.183581" lon="-119.929415"><ele>1894.4</ele><time>2024-06-30T18:53:50Z</time></trkpt>
<trkpt lat="39.183817" lon="-119.929530"><ele>1895.8</ele><time>2024-06-30T18:56:04Z</time></trkpt>
<trkpt lat="39.184560" lon="-119.929529"><ele>1895.2</ele><time>2024-06-30T18:57:51Z</time></trkpt>
<trkpt lat="39.185318" lon="-119.929406"><ele>1894.0</ele><time>2024-06-30T18:59:44Z</time></trkpt>
<trkpt lat="39.186352" lon="-119.929056"><ele>1894.4</ele><time>2024-06-30T19:01:51Z</time></trkpt>
<trkpt lat="39.187487" lon="-119.929000"><ele>1892.8</ele><time>2024-06-30T19:04:01Z</time></trkpt>
<trkpt lat="39.188316" lon="-119.928785"><ele>1893.2</ele><time>2024-06-30T19:05:44Z</time></trkpt>
<trkpt lat="39.188421" lon="-119.928814"><ele>1894.2</ele><time>2024-06-30T19:06:02Z</time></trkpt>
<trkpt lat="39.189255" lon="-119.928500"><ele>1895.8</ele><time>2024-06-30T19:07:45Z</time></trkpt>
<trkpt lat="39.190392" lon="-119.928438"><ele>1896.0</ele><time>2024-06-30T19:10:04Z</time></trkpt>
<trkpt lat="39.191177" lon="-119.928237"><ele>1896.4</ele><time>2024-06-30T19:11:44Z</time></trkpt>
<trkpt lat="39.191272" lon="-119.928294"><ele>1896.4</ele><time>2024-06-30T19:11:53Z</time></trkpt>
<trkpt lat="39.193425" lon="-119.928039"><ele>1894.6</ele><time>2024-06-30T19:15:47Z</time></trkpt>
<trkpt lat="39.194512" lon="-119.927993"><ele>1894.0</ele><time>2024-06-30T19:17:44Z</time></trkpt>
<trkpt lat="39.194683" lon="-119.927869"><ele>1892.6</ele><time>2024-06-30T19:18:21Z</time></trkpt>
<trkpt lat="39.194843" lon="-119.927846"><ele>1895.8</ele><time>2024-06-30T19:19:52Z</time></trkpt>
<trkpt lat="39.194651" lon="-119.927808"><ele>1896.8</ele><time>2024-06-30T19:21:45Z</time></trkpt>
<trkpt lat="39.194788" lon="-119.927827"><ele>1896.8</ele><time>2024-06-30T19:21:55Z</time></trkpt>
<trkpt lat="39.194663" lon="-119.927891"><ele>1897.2</ele><time>2024-06-30T19:23:49Z</time></trkpt>
<trkpt lat="39.194744" lon="-119.927842"><ele>1897.4</ele><time>2024-06-30T19:25:47Z</time></trkpt>
<trkpt lat="39.194615" lon="-119.927794"><ele>1897.6</ele><time>2024-06-30T19:26:00Z</time></trkpt>
<trkpt lat="39.194924" lon="-119.927657"><ele>1898.0</ele><time>2024-06-30T19:27:54Z</time></trkpt>
<trkpt lat="39.194705" lon="-119.927933"><ele>1898.8</ele><time>2024-06-30T19:29:54Z</time></trkpt>
<trkpt lat="39.194699" lon="-119.927866"><ele>1898.8</ele><time>2024-06-30T19:29:58Z</time></trkpt>
<trkpt lat="39.194742" lon="-119.927961"><ele>1901.2</ele><time>2024-06-30T19:31:45Z</time></trkpt>
<trkpt lat="39.194726" lon="-119.927869"><ele>1901.2</ele><time>2024-06-30T19:31:52Z</time></trkpt>
<trkpt lat="39.194769" lon="-119.927861"><ele>1900.6</ele><time>2024-06-30T19:31:56Z</time></trkpt>
<trkpt lat="39.194704" lon="-119.927830"><ele>1899.0</ele><time>2024-06-30T19:33:23Z</time></trkpt>
<trkpt lat="39.194713" lon="-119.927889"><ele>1899.8</ele><time>2024-06-30T19:34:47Z</time></trkpt>
<trkpt lat="39.194758" lon="-119.927829"><ele>1899.2</ele><time>2024-06-30T19:36:01Z</time></trkpt>
<trkpt lat="39.194698" lon="-119.927834"><ele>1899.2</ele><time>2024-06-30T19:37:52Z</time></trkpt>
<trkpt lat="39.194722" lon="-119.927871"><ele>1900.0</ele><time>2024-06-30T19:38:02Z</time></trkpt>
<trkpt lat="39.194693" lon="-119.927791"><ele>1899.2</ele><time>2024-06-30T19:41:49Z</time></trkpt>
<trkpt lat="39.194843" lon="-119.927870"><ele>1900.0</ele><time>2024-06-30T19:43:49Z</time></trkpt>
<trkpt lat="39.194696" lon="-119.927899"><ele>1899.8</ele><time>2024-06-30T19:45:56Z</time></trkpt>
<trkpt lat="39.194810" lon="-119.927933"><ele>1900.2</ele><time>2024-06-30T19:47:44Z</time></trkpt>
<trkpt lat="39.194632" lon="-119.927961"><ele>1901.0</ele><time>2024-06-30T19:47:54Z</time></trkpt>
<trkpt lat="39.194734" lon="-119.927856"><ele>1901.8</ele><time>2024-06-30T19:50:00Z</time></trkpt>
<trkpt lat="39.194670" lon="-119.927823"><ele>1902.2</ele><time>2024-06-30T19:51:46Z</time></trkpt>
<trkpt lat="39.194756" lon="-119.927807"><ele>1901.8</ele><time>2024-06-30T19:51:54Z</time></trkpt>
<trkpt lat="39.194679" lon="-119.927769"><ele>1902.4</ele><time>2024-06-30T19:53:45Z</time></trkpt>
<trkpt lat="39.194765" lon="-119.927852"><ele>1902.8</ele><time>2024-06-30T19:58:00Z</time></trkpt>
<trkpt lat="39.194725" lon="-119.927890"><ele>1902.4</ele><time>2024-06-30T20:01:51Z</time></trkpt>
<trkpt lat="39.194729" lon="-119.927784"><ele>1900.0</ele><time>2024-06-30T20:07:48Z</time></trkpt>
<trkpt lat="39.194687" lon="-119.927826"><ele>1899.8</ele><time>2024-06-30T20:07:54Z</time></trkpt>
<trkpt lat="39.194785" lon="-119.927843"><ele>1900.2</ele><time>2024-06-30T20:10:01Z</time></trkpt>
<trkpt lat="39.194781" lon="-119.927757"><ele>1902.0</ele><time>2024-06-30T20:11:47Z</time></trkpt>
<trkpt lat="39.194734" lon="-119.927842"><ele>1902.0</ele><time>2024-06-30T20:11:55Z</time></trkpt>
<trkpt lat="39.194802" lon="-119.927881"><ele>1901.0</ele><time>2024-06-30T20:13:48Z</time></trkpt>
<trkpt lat="39.194685" lon="-119.927835"><ele>1900.6</ele><time>2024-06-30T20:17:49Z</time></trkpt>
<trkpt lat="39.194741" lon="-119.927878"><ele>1900.4</ele><time>2024-06-30T20:17:58Z</time></trkpt>
<trkpt lat="39.194756" lon="-119.927782"><ele>1900.8</ele><time>2024-06-30T20:19:46Z</time></trkpt>
<trkpt lat="39.194804" lon="-119.927830"><ele>1900.6</ele><time>2024-06-30T20:19:52Z</time></trkpt>
<trkpt lat="39.194710" lon="-119.927796"><ele>1901.4</ele><time>2024-06-30T20:21:47Z</time></trkpt>
<trkpt lat="39.194717" lon="-119.927898"><ele>1899.6</ele><time>2024-06-30T20:23:52Z</time></trkpt>
<trkpt lat="39.194734" lon="-119.927775"><ele>1899.0</ele><time>2024-06-30T20:27:45Z</time></trkpt>
<trkpt lat="39.194719" lon="-119.927873"><ele>1897.4</ele><time>2024-06-30T20:29:58Z</time></trkpt>
<trkpt lat="39.194799" lon="-119.927913"><ele>1897.6</ele><time>2024-06-30T20:31:47Z</time></trkpt>
<trkpt lat="39.194691" lon="-119.927904"><ele>1897.8</ele><time>2024-06-30T20:31:49Z</time></trkpt>
<trkpt lat="39.194724" lon="-119.927872"><ele>1897.6</ele><time>2024-06-30T20:31:59Z</time></trkpt>
<trkpt lat="39.194763" lon="-119.928015"><ele>1897.2</ele><time>2024-06-30T20:33:45Z</time></trkpt>
<trkpt lat="39.194770" lon="-119.927897"><ele>1897.2</ele><time>2024-06-30T20:33:52Z</time></trkpt>
<trkpt lat="39.194705" lon="-119.927840"><ele>1899.0</ele><time>2024-06-30T20:36:02Z</time></trkpt>
<trkpt lat="39.194754" lon="-119.927868"><ele>1898.2</ele><time>2024-06-30T20:37:50Z</time></trkpt>
<trkpt lat="39.194743" lon="-119.927954"><ele>1898.0</ele><time>2024-06-30T20:37:58Z</time></trkpt>
<trkpt lat="39.194817" lon="-119.927851"><ele>1897.2</ele><time>2024-06-30T20:39:56Z</time></trkpt>
<trkpt lat="39.194701" lon="-119.927772"><ele>1897.0</ele><time>2024-06-30T20:41:45Z</time></trkpt>
<trkpt lat="39.194751" lon="-119.927870"><ele>1898.6</ele><time>2024-06-30T20:41:57Z</time></trkpt>
<trkpt lat="39.194652" lon="-119.927840"><ele>1898.0</ele><time>2024-06-30T20:44:57Z</time></trkpt>
<trkpt lat="39.194795" lon="-119.927823"><ele>1899.4</ele><time>2024-06-30T20:46:46Z</time></trkpt>
<trkpt lat="39.194748" lon="-119.927867"><ele>1899.6</ele><time>2024-06-30T20:46:53Z</time></trkpt>
<trkpt lat="39.194746" lon="-119.927767"><ele>1898.6</ele><time>2024-06-30T20:49:51Z</time></trkpt>
<trkpt lat="39.194670" lon="-119.927861"><ele>1900.0</ele><time>2024-06-30T20:52:21Z</time></trkpt>
<trkpt lat="39.194553" lon="-119.927824"><ele>1900.2</ele><time>2024-06-30T20:52:29Z</time></trkpt>
<trkpt lat="39.194653" lon="-119.927924"><ele>1900.2</ele><time>2024-06-30T20:52:36Z</time></trkpt>
<trkpt lat="39.194728" lon="-119.927880"><ele>1900.0</ele><time>2024-06-30T20:52:51Z</time></trkpt>
<trkpt lat="39.194634" lon="-119.927870"><ele>1900.0</ele><time>2024-06-30T20:52:56Z</time></trkpt>
<trkpt lat="39.194732" lon="-119.927840"><ele>1898.6</ele><time>2024-06-30T20:54:49Z</time></trkpt>
<trkpt lat="39.194554" lon="-119.927764"><ele>1899.0</ele><time>2024-06-30T20:56:44Z</time></trkpt>
<trkpt lat="39.194778" lon="-119.927841"><ele>1898.6</ele><time>2024-06-30T20:58:50Z</time></trkpt>
<trkpt lat="39.194698" lon="-119.927760"><ele>1899.0</ele><time>2024-06-30T21:01:01Z</time></trkpt>
<trkpt lat="39.194772" lon="-119.927770"><ele>1899.4</ele><time>2024-06-30T21:02:35Z</time></trkpt>
<trkpt lat="39.194454" lon="-119.928175"><ele>1900.4</ele><time>2024-06-30T21:06:44Z</time></trkpt>
<trkpt lat="39.194722" lon="-119.927820"><ele>1900.6</ele><time>2024-06-30T21:06:46Z</time></trkpt>
<trkpt lat="39.194731" lon="-119.927869"><ele>1900.6</ele><time>2024-06-30T21:07:01Z</time></trkpt>
<trkpt lat="39.194722" lon="-119.927791"><ele>1900.8</ele><time>2024-06-30T21:08:50Z</time></trkpt>
<trkpt lat="39.194784" lon="-119.927797"><ele>1900.4</ele><time>2024-06-30T21:10:44Z</time></trkpt>
<trkpt lat="39.194731" lon="-119.927822"><ele>1899.8</ele><time>2024-06-30T21:12:57Z</time></trkpt>
<trkpt lat="39.194715" lon="-119.927746"><ele>1899.6</ele><time>2024-06-30T21:14:48Z</time></trkpt>
<trkpt lat="39.194745" lon="-119.927809"><ele>1899.8</ele><time>2024-06-30T21:15:04Z</time></trkpt>
<trkpt lat="39.194778" lon="-119.927714"><ele>1900.2</ele><time>2024-06-30T21:18:49Z</time></trkpt>
<trkpt lat="39.194693" lon="-119.927769"><ele>1900.2</ele><time>2024-06-30T21:20:49Z</time></trkpt>
<trkpt lat="39.194788" lon="-119.927719"><ele>1900.0</ele><time>2024-06-30T21:22:35Z</time></trkpt>
<trkpt lat="39.194750" lon="-119.927770"><ele>1900.0</ele><time>2024-06-30T21:22:51Z</time></trkpt>
<trkpt lat="39.194742" lon="-119.927632"><ele>1899.0</ele><time>2024-06-30T21:28:15Z</time></trkpt>
<trkpt lat="39.194719" lon="-119.927738"><ele>1898.6</ele><time>2024-06-30T21:29:03Z</time></trkpt>
<trkpt lat="39.194637" lon="-119.927779"><ele>1900.4</ele><time>2024-06-30T21:30:45Z</time></trkpt>
<trkpt lat="39.194852" lon="-119.927899"><ele>1902.0</ele><time>2024-06-30T21:32:49Z</time></trkpt>
<trkpt lat="39.194819" lon="-119.927774"><ele>1901.8</ele><time>2024-06-30T21:32:53Z</time></trkpt>
<trkpt lat="39.194689" lon="-119.927800"><ele>1902.2</ele><time>2024-06-30T21:34:57Z</time></trkpt>
<trkpt lat="39.194907" lon="-119.927648"><ele>1902.6</ele><time>2024-06-30T21:36:47Z</time></trkpt>
<trkpt lat="39.194732" lon="-119.927749"><ele>1902.4</ele><time>2024-06-30T21:37:05Z</time></trkpt>
<trkpt lat="39.194821" lon="-119.927794"><ele>1902.0</ele><time>2024-06-30T21:38:26Z</time></trkpt>
<trkpt lat="39.194794" lon="-119.927725"><ele>1901.2</ele><time>2024-06-30T21:40:46Z</time></trkpt>
<trkpt lat="39.194748" lon="-119.927733"><ele>1901.6</ele><time>2024-06-30T21:41:02Z</time></trkpt>
<trkpt lat="39.194768" lon="-119.927797"><ele>1902.4</ele><time>2024-06-30T21:42:38Z</time></trkpt>
<trkpt lat="39.194801" lon="-119.927775"><ele>1901.8</ele><time>2024-06-30T21:43:04Z</time></trkpt>
<trkpt lat="39.194692" lon="-119.927754"><ele>1902.6</ele><time>2024-06-30T21:44:55Z</time></trkpt>
<trkpt lat="39.194786" lon="-119.927833"><ele>1901.6</ele><time>2024-06-30T21:46:18Z</time></trkpt>
<trkpt lat="39.194740" lon="-119.927812"><ele>1902.4</ele><time>2024-06-30T21:46:55Z</time></trkpt>
<trkpt lat="39.194835" lon="-119.927705"><ele>1903.8</ele><time>2024-06-30T21:48:48Z</time></trkpt>
<trkpt lat="39.194837" lon="-119.927784"><ele>1903.4</ele><time>2024-06-30T21:48:54Z</time></trkpt>
<trkpt lat="39.194777" lon="-119.927779"><ele>1903.0</ele><time>2024-06-30T21:49:01Z</time></trkpt>
<trkpt lat="39.194816" lon="-119.927704"><ele>1901.2</ele><time>2024-06-30T21:50:55Z</time></trkpt>
<trkpt lat="39.194780" lon="-119.927763"><ele>1901.2</ele><time>2024-06-30T21:51:03Z</time></trkpt>
<trkpt lat="39.194851" lon="-119.927605"><ele>1900.6</ele><time>2024-06-30T21:52:47Z</time></trkpt>
<trkpt lat="39.194780" lon="-119.927731"><ele>1900.8</ele><time>2024-06-30T21:52:55Z</time></trkpt>
<trkpt lat="39.194824" lon="-119.927785"><ele>1904.4</ele><time>2024-06-30T21:54:57Z</time></trkpt>
<trkpt lat="39.194709" lon="-119.927765"><ele>1903.2</ele><time>2024-06-30T21:56:55Z</time></trkpt>
<trkpt lat="39.194801" lon="-119.927749"><ele>1903.0</ele><time>2024-06-30T21:57:02Z</time></trkpt>
<trkpt lat="39.194707" lon="-119.927897"><ele>1902.0</ele><time>2024-06-30T22:15:00Z</time></trkpt>
<trkpt lat="39.194439" lon="-119.928064"><ele>1903.2</ele><time>2024-06-30T22:16:51Z</time></trkpt>
<trkpt lat="39.194900" lon="-119.927553"><ele>1901.4</ele><time>2024-06-30T22:18:47Z</time></trkpt>
<trkpt lat="39.194645" lon="-119.927903"><ele>1901.8</ele><time>2024-06-30T22:19:01Z</time></trkpt>
<trkpt lat="39.194748" lon="-119.927774"><ele>1902.6</ele><time>2024-06-30T22:24:57Z</time></trkpt>
<trkpt lat="39.194725" lon="-119.927712"><ele>1900.8</ele><time>2024-06-30T22:45:18Z</time></trkpt>
<trkpt lat="39.194790" lon="-119.927832"><ele>1901.0</ele><time>2024-06-30T22:46:49Z</time></trkpt>
<trkpt lat="39.194717" lon="-119.927827"><ele>1901.4</ele><time>2024-06-30T22:46:57Z</time></trkpt>
<trkpt lat="39.194761" lon="-119.927869"><ele>1900.2</ele><time>2024-06-30T22:47:12Z</time></trkpt>
<trkpt lat="39.194705" lon="-119.927930"><ele>1900.0</ele><time>2024-06-30T22:48:46Z</time></trkpt>
<trkpt lat="39.194706" lon="-119.927828"><ele>1896.8</ele><time>2024-06-30T22:49:32Z</time></trkpt>
<trkpt lat="39.195114" lon="-119.927856"><ele>1895.4</ele><time>2024-06-30T22:50:26Z</time></trkpt>
<trkpt lat="39.195293" lon="-119.927682"><ele>1894.4</ele><time>2024-06-30T22:50:51Z</time></trkpt>
<trkpt lat="39.195298" lon="-119.927525"><ele>1892.4</ele><time>2024-06-30T22:52:20Z</time></trkpt>
<trkpt lat="39.195285" lon="-119.927568"><ele>1895.8</ele><time>2024-06-30T22:52:53Z</time></trkpt>
<trkpt lat="39.195247" lon="-119.927514"><ele>1894.4</ele><time>2024-06-30T22:54:00Z</time></trkpt>
<trkpt lat="39.195245" lon="-119.927510"><ele>1899.6</ele><time>2024-06-30T22:54:28Z</time></trkpt>
<trkpt lat="39.195295" lon="-119.927647"><ele>1894.6</ele><time>2024-06-30T22:56:47Z</time></trkpt>
<trkpt lat="39.195264" lon="-119.927678"><ele>1895.8</ele><time>2024-06-30T22:56:49Z</time></trkpt>
<trkpt lat="39.195231" lon="-119.927527"><ele>1894.6</ele><time>2024-06-30T22:58:51Z</time></trkpt>
<trkpt lat="39.195242" lon="-119.927572"><ele>1896.2</ele><time>2024-06-30T22:59:06Z</time></trkpt>
</trkseg></trk>
</gpx>
