<?xml version="1.0" encoding="UTF-8"?>
<gpx version="1.1" creator="Eric Sichak trip reports" xmlns="http://www.topografix.com/GPX/1/1">
<metadata><name>Morning Hike</name><time>2024-07-02T14:10:38Z</time></metadata>
<trk><name>Morning Hike</name><type>hike</type><trkseg>
<trkpt lat="38.834213" lon="-120.042292"><ele>2286.2</ele><time>2024-07-02T14:10:38Z</time></trkpt>
<trkpt lat="38.834172" lon="-120.042292"><ele>2285.6</ele><time>2024-07-02T14:10:49Z</time></trkpt>
<trkpt lat="38.834181" lon="-120.042371"><ele>2285.8</ele><time>2024-07-02T14:10:59Z</time></trkpt>
<trkpt lat="38.834151" lon="-120.042332"><ele>2286.4</ele><time>2024-07-02T14:12:53Z</time></trkpt>
<trkpt lat="38.834233" lon="-120.042392"><ele>2287.4</ele><time>2024-07-02T14:14:57Z</time></trkpt>
<trkpt lat="38.834193" lon="-120.042412"><ele>2287.8</ele><time>2024-07-02T14:15:03Z</time></trkpt>
<trkpt lat="38.834516" lon="-120.042809"><ele>2282.4</ele><time>2024-07-02T14:16:28Z</time></trkpt>
<trkpt lat="38.834451" lon="-120.042854"><ele>2279.4</ele><time>2024-07-02T14:16:48Z</time></trkpt>
<trkpt lat="38.834487" lon="-120.043153"><ele>2273.0</ele><time>2024-07-02T14:17:26Z</time></trkpt>
<trkpt lat="38.834571" lon="-120.043495"><ele>2270.8</ele><time>2024-07-02T14:17:42Z</time></trkpt>
<trkpt lat="38.834655" lon="-120.043583"><ele>2270.2</ele><time>2024-07-02T14:17:48Z</time></trkpt>
<trkpt lat="38.834659" lon="-120.043906"><ele>2264.6</ele><time>2024-07-02T14:18:32Z</time></trkpt>
<trkpt lat="38.834536" lon="-120.043998"><ele>2264.2</ele><time>2024-07-02T14:18:44Z</time></trkpt>
<trkpt lat="38.834668" lon="-120.044151"><ele>2264.2</ele><time>2024-07-02T14:19:01Z</time></trkpt>
<trkpt lat="38.834946" lon="-120.044328"><ele>2262.2</ele><time>2024-07-02T14:19:30Z</time></trkpt>
<trkpt lat="38.834945" lon="-120.044257"><ele>2262.2</ele><time>2024-07-02T14:19:50Z</time></trkpt>
<trkpt lat="38.835144" lon="-120.044477"><ele>2262.2</ele><time>2024-07-02T14:20:26Z</time></trkpt>
<trkpt lat="38.835407" lon="-120.044599"><ele>2262.4</ele><time>2024-07-02T14:20:46Z</time></trkpt>
<trkpt lat="38.835402" lon="-120.044405"><ele>2263.4</ele><time>2024-07-02T14:20:59Z</time></trkpt>
<trkpt lat="38.835618" lon="-120.044167"><ele>2266.4</ele><time>2024-07-02T14:21:22Z</time></trkpt>
<trkpt lat="38.835698" lon="-120.044026"><ele>2272.8</ele><time>2024-07-02T14:22:30Z</time></trkpt>
<trkpt lat="38.835849" lon="-120.043968"><ele>2274.8</ele><time>2024-07-02T14:22:42Z</time></trkpt>
<trkpt lat="38.835743" lon="-120.044238"><ele>2277.6</ele><time>2024-07-02T14:22:58Z</time></trkpt>
<trkpt lat="38.835920" lon="-120.044718"><ele>2280.4</ele><time>2024-07-02T14:23:38Z</time></trkpt>
<trkpt lat="38.835832" lon="-120.045039"><ele>2278.4</ele><time>2024-07-02T14:24:00Z</time></trkpt>
<trkpt lat="38.835961" lon="-120.045652"><ele>2278.2</ele><time>2024-07-02T14:24:43Z</time></trkpt>
<trkpt lat="38.836317" lon="-120.046282"><ele>2278.0</ele><time>2024-07-02T14:25:10Z</time></trkpt>
<trkpt lat="38.836774" lon="-120.047328"><ele>2280.8</ele><time>2024-07-02T14:26:48Z</time></trkpt>
<trkpt lat="38.836760" lon="-120.047512"><ele>2282.6</ele><time>2024-07-02T14:27:02Z</time></trkpt>
<trkpt lat="38.836926" lon="-120.047933"><ele>2284.8</ele><time>2024-07-02T14:27:30Z</time></trkpt>
<trkpt lat="38.837054" lon="-120.048111"><ele>2289.0</ele><time>2024-07-02T14:27:56Z</time></trkpt>
<trkpt lat="38.837266" lon="-120.049081"><ele>2290.4</ele><time>2024-07-02T14:29:00Z</time></trkpt>
<trkpt lat="38.837535" lon="-120.049803"><ele>2288.2</ele><time>2024-07-02T14:30:00Z</time></trkpt>
<trkpt lat="38.837873" lon="-120.050275"><ele>2287.4</ele><time>2024-07-02T14:30:38Z</time></trkpt>
<trkpt lat="38.837995" lon="-120.050604"><ele>2288.4</ele><time>2024-07-02T14:30:58Z</time></trkpt>
<trkpt lat="38.838302" lon="-120.050878"><ele>2286.4</ele><time>2024-07-02T14:31:18Z</time></trkpt>
<trkpt lat="38.838547" lon="-120.051398"><ele>2285.8</ele><time>2024-07-02T14:32:26Z</time></trkpt>
<trkpt lat="38.839356" lon="-120.052149"><ele>2286.0</ele><time>2024-07-02T14:33:38Z</time></trkpt>
<trkpt lat="38.839521" lon="-120.052209"><ele>2287.8</ele><time>2024-07-02T14:34:06Z</time></trkpt>
<trkpt lat="38.839831" lon="-120.052539"><ele>2289.0</ele><time>2024-07-02T14:34:44Z</time></trkpt>
<trkpt lat="38.840225" lon="-120.053120"><ele>2287.0</ele><time>2024-07-02T14:35:28Z</time></trkpt>
<trkpt lat="38.840530" lon="-120.053352"><ele>2289.8</ele><time>2024-07-02T14:35:56Z</time></trkpt>
<trkpt lat="38.840666" lon="-120.053232"><ele>2291.2</ele><time>2024-07-02T14:36:24Z</time></trkpt>
<trkpt lat="38.840806" lon="-120.053408"><ele>2292.8</ele><time>2024-07-02T14:36:44Z</time></trkpt>
<trkpt lat="38.841419" lon="-120.053897"><ele>2291.4</ele><time>2024-07-02T14:37:56Z</time></trkpt>
<trkpt lat="38.841665" lon="-120.054365"><ele>2290.2</ele><time>2024-07-02T14:38:38Z</time></trkpt>
<trkpt lat="38.841795" lon="-120.054486"><ele>2290.8</ele><time>2024-07-02T14:38:46Z</time></trkpt>
<trkpt lat="38.841853" lon="-120.054769"><ele>2291.0</ele><time>2024-07-02T14:39:12Z</time></trkpt>
<trkpt lat="38.842021" lon="-120.055064"><ele>2288.0</ele><time>2024-07-02T14:39:38Z</time></trkpt>
<trkpt lat="38.842600" lon="-120.055887"><ele>2285.6</ele><time>2024-07-02T14:40:47Z</time></trkpt>
<trkpt lat="38.842558" lon="-120.055956"><ele>2285.6</ele><time>2024-07-02T14:40:51Z</time></trkpt>
<trkpt lat="38.843103" lon="-120.057196"><ele>2287.6</ele><time>2024-07-02T14:42:46Z</time></trkpt>
<trkpt lat="38.843145" lon="-120.057514"><ele>2287.2</ele><time>2024-07-02T14:43:32Z</time></trkpt>
<trkpt lat="38.843484" lon="-120.058215"><ele>2287.2</ele><time>2024-07-02T14:44:18Z</time></trkpt>
<trkpt lat="38.843681" lon="-120.058453"><ele>2290.4</ele><time>2024-07-02T14:44:50Z</time></trkpt>
<trkpt lat="38.843726" lon="-120.058654"><ele>2292.4</ele><time>2024-07-02T14:45:12Z</time></trkpt>
<trkpt lat="38.843821" lon="-120.058124"><ele>2300.2</ele><time>2024-07-02T14:46:38Z</time></trkpt>
<trkpt lat="38.843864" lon="-120.058326"><ele>2302.4</ele><time>2024-07-02T14:46:59Z</time></trkpt>
<trkpt lat="38.844453" lon="-120.059120"><ele>2311.8</ele><time>2024-07-02T14:48:43Z</time></trkpt>
<trkpt lat="38.844327" lon="-120.059115"><ele>2311.6</ele><time>2024-07-02T14:49:02Z</time></trkpt>
<trkpt lat="38.844602" lon="-120.059331"><ele>2315.2</ele><time>2024-07-02T14:50:38Z</time></trkpt>
<trkpt lat="38.844599" lon="-120.059678"><ele>2316.2</ele><time>2024-07-02T14:50:59Z</time></trkpt>
<trkpt lat="38.844805" lon="-120.059837"><ele>2316.4</ele><time>2024-07-02T14:51:14Z</time></trkpt>
<trkpt lat="38.844885" lon="-120.060052"><ele>2318.8</ele><time>2024-07-02T14:51:34Z</time></trkpt>
<trkpt lat="38.845200" lon="-120.060440"><ele>2322.6</ele><time>2024-07-02T14:52:43Z</time></trkpt>
<trkpt lat="38.845149" lon="-120.060704"><ele>2324.0</ele><time>2024-07-02T14:52:56Z</time></trkpt>
<trkpt lat="38.845267" lon="-120.061531"><ele>2329.4</ele><time>2024-07-02T14:54:26Z</time></trkpt>
<trkpt lat="38.845424" lon="-120.061819"><ele>2327.2</ele><time>2024-07-02T14:54:47Z</time></trkpt>
<trkpt lat="38.845405" lon="-120.062303"><ele>2324.2</ele><time>2024-07-02T14:55:20Z</time></trkpt>
<trkpt lat="38.845532" lon="-120.062677"><ele>2321.8</ele><time>2024-07-02T14:56:10Z</time></trkpt>
<trkpt lat="38.845462" lon="-120.062714"><ele>2320.6</ele><time>2024-07-02T14:56:24Z</time></trkpt>
<trkpt lat="38.845582" lon="-120.063055"><ele>2319.6</ele><time>2024-07-02T14:56:44Z</time></trkpt>
<trkpt lat="38.845539" lon="-120.063155"><ele>2319.6</ele><time>2024-07-02T14:56:47Z</time></trkpt>
<trkpt lat="38.845587" lon="-120.063291"><ele>2318.8</ele><time>2024-07-02T14:57:00Z</time></trkpt>
<trkpt lat="38.845490" lon="-120.063629"><ele>2316.0</ele><time>2024-07-02T14:57:30Z</time></trkpt>
<trkpt lat="38.845570" lon="-120.064128"><ele>2309.8</ele><time>2024-07-02T14:58:32Z</time></trkpt>
<trkpt lat="38.845508" lon="-120.064330"><ele>2307.6</ele><time>2024-07-02T14:58:50Z</time></trkpt>
<trkpt lat="38.845543" lon="-120.064735"><ele>2306.6</ele><time>2024-07-02T14:59:12Z</time></trkpt>
<trkpt lat="38.845456" lon="-120.064824"><ele>2305.4</ele><time>2024-07-02T14:59:26Z</time></trkpt>
<trkpt lat="38.845587" lon="-120.065322"><ele>2298.8</ele><time>2024-07-02T15:00:34Z</time></trkpt>
<trkpt lat="38.845541" lon="-120.065500"><ele>2298.0</ele><time>2024-07-02T15:00:43Z</time></trkpt>
<trkpt lat="38.845441" lon="-120.065595"><ele>2297.6</ele><time>2024-07-02T15:00:57Z</time></trkpt>
<trkpt lat="38.845370" lon="-120.065931"><ele>2298.4</ele><time>2024-07-02T15:01:24Z</time></trkpt>
<trkpt lat="38.845409" lon="-120.066947"><ele>2297.8</ele><time>2024-07-02T15:02:43Z</time></trkpt>
<trkpt lat="38.845598" lon="-120.067311"><ele>2293.4</ele><time>2024-07-02T15:04:26Z</time></trkpt>
<trkpt lat="38.845722" lon="-120.067869"><ele>2291.2</ele><time>2024-07-02T15:05:14Z</time></trkpt>
<trkpt lat="38.845579" lon="-120.068586"><ele>2296.6</ele><time>2024-07-02T15:06:26Z</time></trkpt>
<trkpt lat="38.845647" lon="-120.068750"><ele>2297.8</ele><time>2024-07-02T15:06:44Z</time></trkpt>
<trkpt lat="38.845569" lon="-120.068929"><ele>2300.8</ele><time>2024-07-02T15:07:06Z</time></trkpt>
<trkpt lat="38.845339" lon="-120.068934"><ele>2301.2</ele><time>2024-07-02T15:07:46Z</time></trkpt>
<trkpt lat="38.844739" lon="-120.069328"><ele>2296.6</ele><time>2024-07-02T15:08:47Z</time></trkpt>
<trkpt lat="38.844417" lon="-120.069241"><ele>2295.2</ele><time>2024-07-02T15:09:16Z</time></trkpt>
<trkpt lat="38.843947" lon="-120.070122"><ele>2294.8</ele><time>2024-07-02T15:10:44Z</time></trkpt>
<trkpt lat="38.844165" lon="-120.070756"><ele>2294.8</ele><time>2024-07-02T15:11:34Z</time></trkpt>
<trkpt lat="38.844445" lon="-120.071272"><ele>2295.0</ele><time>2024-07-02T15:12:20Z</time></trkpt>
<trkpt lat="38.844718" lon="-120.072457"><ele>2292.2</ele><time>2024-07-02T15:13:54Z</time></trkpt>
<trkpt lat="38.844926" lon="-120.072410"><ele>2291.8</ele><time>2024-07-02T15:14:20Z</time></trkpt>
<trkpt lat="38.845501" lon="-120.073386"><ele>2288.6</ele><time>2024-07-02T15:15:28Z</time></trkpt>
<trkpt lat="38.845600" lon="-120.073872"><ele>2289.6</ele><time>2024-07-02T15:16:06Z</time></trkpt>
<trkpt lat="38.845782" lon="-120.073854"><ele>2290.4</ele><time>2024-07-02T15:16:30Z</time></trkpt>
<trkpt lat="38.846072" lon="-120.074214"><ele>2289.8</ele><time>2024-07-02T15:16:54Z</time></trkpt>
<trkpt lat="38.846294" lon="-120.075138"><ele>2285.8</ele><time>2024-07-02T15:18:14Z</time></trkpt>
<trkpt lat="38.846306" lon="-120.075429"><ele>2284.6</ele><time>2024-07-02T15:18:36Z</time></trkpt>
<trkpt lat="38.846396" lon="-120.075662"><ele>2284.4</ele><time>2024-07-02T15:18:44Z</time></trkpt>
<trkpt lat="38.846832" lon="-120.076359"><ele>2284.2</ele><time>2024-07-02T15:19:30Z</time></trkpt>
<trkpt lat="38.846903" lon="-120.076734"><ele>2283.8</ele><time>2024-07-02T15:19:58Z</time></trkpt>
<trkpt lat="38.847356" lon="-120.077215"><ele>2282.4</ele><time>2024-07-02T15:20:57Z</time></trkpt>
<trkpt lat="38.847345" lon="-120.077496"><ele>2281.4</ele><time>2024-07-02T15:21:16Z</time></trkpt>
<trkpt lat="38.847254" lon="-120.077665"><ele>2279.6</ele><time>2024-07-02T15:21:42Z</time></trkpt>
<trkpt lat="38.847400" lon="-120.077743"><ele>2280.6</ele><time>2024-07-02T15:22:06Z</time></trkpt>
<trkpt lat="38.847492" lon="-120.078137"><ele>2280.6</ele><time>2024-07-02T15:22:47Z</time></trkpt>
<trkpt lat="38.847450" lon="-120.078327"><ele>2280.8</ele><time>2024-07-02T15:22:55Z</time></trkpt>
<trkpt lat="38.847369" lon="-120.078343"><ele>2280.6</ele><time>2024-07-02T15:23:01Z</time></trkpt>
<trkpt lat="38.847225" lon="-120.078821"><ele>2280.6</ele><time>2024-07-02T15:24:10Z</time></trkpt>
<trkpt lat="38.847299" lon="-120.079268"><ele>2280.6</ele><time>2024-07-02T15:24:45Z</time></trkpt>
<trkpt lat="38.847554" lon="-120.079208"><ele>2281.8</ele><time>2024-07-02T15:24:59Z</time></trkpt>
<trkpt lat="38.847647" lon="-120.079491"><ele>2284.0</ele><time>2024-07-02T15:25:30Z</time></trkpt>
<trkpt lat="38.847576" lon="-120.079727"><ele>2284.4</ele><time>2024-07-02T15:25:46Z</time></trkpt>
<trkpt lat="38.847378" lon="-120.079870"><ele>2285.0</ele><time>2024-07-02T15:26:04Z</time></trkpt>
<trkpt lat="38.847254" lon="-120.080130"><ele>2286.4</ele><time>2024-07-02T15:26:24Z</time></trkpt>
<trkpt lat="38.847332" lon="-120.080275"><ele>2288.2</ele><time>2024-07-02T15:26:42Z</time></trkpt>
<trkpt lat="38.847562" lon="-120.080209"><ele>2288.8</ele><time>2024-07-02T15:26:52Z</time></trkpt>
<trkpt lat="38.847537" lon="-120.080248"><ele>2289.0</ele><time>2024-07-02T15:26:55Z</time></trkpt>
<trkpt lat="38.847611" lon="-120.080271"><ele>2289.2</ele><time>2024-07-02T15:26:59Z</time></trkpt>
<trkpt lat="38.848062" lon="-120.080846"><ele>2294.0</ele><time>2024-07-02T15:28:50Z</time></trkpt>
<trkpt lat="38.847995" lon="-120.081367"><ele>2298.8</ele><time>2024-07-02T15:29:40Z</time></trkpt>
<trkpt lat="38.847776" lon="-120.082290"><ele>2301.8</ele><time>2024-07-02T15:30:45Z</time></trkpt>
<trkpt lat="38.847949" lon="-120.082215"><ele>2302.8</ele><time>2024-07-02T15:30:52Z</time></trkpt>
<trkpt lat="38.847906" lon="-120.082245"><ele>2303.0</ele><time>2024-07-02T15:30:53Z</time></trkpt>
<trkpt lat="38.847944" lon="-120.082235"><ele>2303.2</ele><time>2024-07-02T15:30:55Z</time></trkpt>
<trkpt lat="38.847913" lon="-120.082664"><ele>2306.2</ele><time>2024-07-02T15:31:30Z</time></trkpt>
<trkpt lat="38.847488" lon="-120.083097"><ele>2309.2</ele><time>2024-07-02T15:32:55Z</time></trkpt>
<trkpt lat="38.847560" lon="-120.083037"><ele>2309.2</ele><time>2024-07-02T15:33:03Z</time></trkpt>
<trkpt lat="38.847497" lon="-120.083098"><ele>2309.0</ele><time>2024-07-02T15:34:34Z</time></trkpt>
<trkpt lat="38.847577" lon="-120.083081"><ele>2309.8</ele><time>2024-07-02T15:35:00Z</time></trkpt>
<trkpt lat="38.847487" lon="-120.083152"><ele>2311.6</ele><time>2024-07-02T15:36:44Z</time></trkpt>
<trkpt lat="38.847489" lon="-120.083104"><ele>2312.0</ele><time>2024-07-02T15:36:49Z</time></trkpt>
<trkpt lat="38.847498" lon="-120.083156"><ele>2312.6</ele><time>2024-07-02T15:38:43Z</time></trkpt>
<trkpt lat="38.847604" lon="-120.083038"><ele>2312.6</ele><time>2024-07-02T15:40:51Z</time></trkpt>
<trkpt lat="38.847524" lon="-120.083127"><ele>2313.4</ele><time>2024-07-02T15:42:44Z</time></trkpt>
<trkpt lat="38.847562" lon="-120.083097"><ele>2313.4</ele><time>2024-07-02T15:42:51Z</time></trkpt>
<trkpt lat="38.847390" lon="-120.083931"><ele>2321.0</ele><time>2024-07-02T15:44:55Z</time></trkpt>
<trkpt lat="38.847186" lon="-120.084267"><ele>2324.2</ele><time>2024-07-02T15:45:20Z</time></trkpt>
<trkpt lat="38.846858" lon="-120.085063"><ele>2331.8</ele><time>2024-07-02T15:46:43Z</time></trkpt>
<trkpt lat="38.846860" lon="-120.085174"><ele>2332.2</ele><time>2024-07-02T15:46:49Z</time></trkpt>
<trkpt lat="38.846911" lon="-120.085160"><ele>2333.2</ele><time>2024-07-02T15:46:55Z</time></trkpt>
<trkpt lat="38.846875" lon="-120.086500"><ele>2341.2</ele><time>2024-07-02T15:48:43Z</time></trkpt>
<trkpt lat="38.846829" lon="-120.086579"><ele>2341.6</ele><time>2024-07-02T15:48:45Z</time></trkpt>
<trkpt lat="38.847022" lon="-120.086593"><ele>2342.6</ele><time>2024-07-02T15:48:53Z</time></trkpt>
<trkpt lat="38.847063" lon="-120.086669"><ele>2343.0</ele><time>2024-07-02T15:49:00Z</time></trkpt>
<trkpt lat="38.846844" lon="-120.087878"><ele>2347.0</ele><time>2024-07-02T15:50:43Z</time></trkpt>
<trkpt lat="38.847343" lon="-120.087550"><ele>2347.2</ele><time>2024-07-02T15:50:54Z</time></trkpt>
<trkpt lat="38.847403" lon="-120.087591"><ele>2347.0</ele><time>2024-07-02T15:50:58Z</time></trkpt>
<trkpt lat="38.847581" lon="-120.088365"><ele>2348.8</ele><time>2024-07-02T15:51:27Z</time></trkpt>
<trkpt lat="38.847881" lon="-120.089087"><ele>2353.6</ele><time>2024-07-02T15:52:44Z</time></trkpt>
<trkpt lat="38.847873" lon="-120.089196"><ele>2354.0</ele><time>2024-07-02T15:52:50Z</time></trkpt>
<trkpt lat="38.847975" lon="-120.089197"><ele>2354.4</ele><time>2024-07-02T15:52:54Z</time></trkpt>
<trkpt lat="38.847946" lon="-120.089268"><ele>2354.6</ele><time>2024-07-02T15:52:57Z</time></trkpt>
<trkpt lat="38.848088" lon="-120.089699"><ele>2356.8</ele><time>2024-07-02T15:53:21Z</time></trkpt>
<trkpt lat="38.848402" lon="-120.090476"><ele>2366.8</ele><time>2024-07-02T15:54:49Z</time></trkpt>
<trkpt lat="38.848597" lon="-120.090581"><ele>2368.6</ele><time>2024-07-02T15:55:01Z</time></trkpt>
<trkpt lat="38.848979" lon="-120.091883"><ele>2376.8</ele><time>2024-07-02T15:56:49Z</time></trkpt>
<trkpt lat="38.849304" lon="-120.092181"><ele>2378.8</ele><time>2024-07-02T15:57:00Z</time></trkpt>
<trkpt lat="38.849242" lon="-120.093091"><ele>2383.6</ele><time>2024-07-02T15:58:17Z</time></trkpt>
<trkpt lat="38.849148" lon="-120.093568"><ele>2384.0</ele><time>2024-07-02T15:58:45Z</time></trkpt>
<trkpt lat="38.849144" lon="-120.093637"><ele>2384.2</ele><time>2024-07-02T15:58:49Z</time></trkpt>
<trkpt lat="38.849215" lon="-120.093621"><ele>2384.6</ele><time>2024-07-02T15:58:53Z</time></trkpt>
<trkpt lat="38.849202" lon="-120.093722"><ele>2385.2</ele><time>2024-07-02T15:58:59Z</time></trkpt>
<trkpt lat="38.849020" lon="-120.094019"><ele>2386.8</ele><time>2024-07-02T15:59:27Z</time></trkpt>
<trkpt lat="38.848966" lon="-120.094229"><ele>2388.4</ele><time>2024-07-02T15:59:51Z</time></trkpt>
<trkpt lat="38.848553" lon="-120.094858"><ele>2393.0</ele><time>2024-07-02T16:00:50Z</time></trkpt>
<trkpt lat="38.848633" lon="-120.094814"><ele>2393.4</ele><time>2024-07-02T16:00:53Z</time></trkpt>
<trkpt lat="38.848677" lon="-120.095551"><ele>2401.0</ele><time>2024-07-02T16:02:01Z</time></trkpt>
<trkpt lat="38.848796" lon="-120.096114"><ele>2406.2</ele><time>2024-07-02T16:02:43Z</time></trkpt>
<trkpt lat="38.849018" lon="-120.096190"><ele>2408.0</ele><time>2024-07-02T16:03:00Z</time></trkpt>
<trkpt lat="38.849517" lon="-120.097159"><ele>2419.2</ele><time>2024-07-02T16:04:45Z</time></trkpt>
<trkpt lat="38.849785" lon="-120.097351"><ele>2421.4</ele><time>2024-07-02T16:05:08Z</time></trkpt>
<trkpt lat="38.849904" lon="-120.097633"><ele>2424.0</ele><time>2024-07-02T16:05:35Z</time></trkpt>
<trkpt lat="38.850245" lon="-120.098109"><ele>2428.4</ele><time>2024-07-02T16:06:14Z</time></trkpt>
<trkpt lat="38.850411" lon="-120.098502"><ele>2432.4</ele><time>2024-07-02T16:06:56Z</time></trkpt>
<trkpt lat="38.851109" lon="-120.099432"><ele>2445.0</ele><time>2024-07-02T16:08:47Z</time></trkpt>
<trkpt lat="38.851191" lon="-120.099708"><ele>2450.6</ele><time>2024-07-02T16:09:33Z</time></trkpt>
<trkpt lat="38.851333" lon="-120.099939"><ele>2452.2</ele><time>2024-07-02T16:09:45Z</time></trkpt>
<trkpt lat="38.851417" lon="-120.099974"><ele>2452.4</ele><time>2024-07-02T16:09:50Z</time></trkpt>
<trkpt lat="38.851925" lon="-120.100945"><ele>2464.0</ele><time>2024-07-02T16:11:44Z</time></trkpt>
<trkpt lat="38.851844" lon="-120.101123"><ele>2464.8</ele><time>2024-07-02T16:11:49Z</time></trkpt>
<trkpt lat="38.852170" lon="-120.101922"><ele>2476.4</ele><time>2024-07-02T16:13:44Z</time></trkpt>
<trkpt lat="38.852114" lon="-120.101888"><ele>2476.8</ele><time>2024-07-02T16:13:47Z</time></trkpt>
<trkpt lat="38.852158" lon="-120.101870"><ele>2477.2</ele><time>2024-07-02T16:13:51Z</time></trkpt>
<trkpt lat="38.852111" lon="-120.101905"><ele>2477.4</ele><time>2024-07-02T16:14:01Z</time></trkpt>
<trkpt lat="38.852235" lon="-120.102176"><ele>2483.6</ele><time>2024-07-02T16:15:37Z</time></trkpt>
<trkpt lat="38.852397" lon="-120.102013"><ele>2486.8</ele><time>2024-07-02T16:16:03Z</time></trkpt>
<trkpt lat="38.852651" lon="-120.102125"><ele>2494.2</ele><time>2024-07-02T16:17:21Z</time></trkpt>
<trkpt lat="38.852603" lon="-120.102179"><ele>2496.8</ele><time>2024-07-02T16:17:46Z</time></trkpt>
<trkpt lat="38.853105" lon="-120.103630"><ele>2511.8</ele><time>2024-07-02T16:19:48Z</time></trkpt>
<trkpt lat="38.853038" lon="-120.103762"><ele>2512.0</ele><time>2024-07-02T16:19:53Z</time></trkpt>
<trkpt lat="38.853435" lon="-120.105333"><ele>2523.0</ele><time>2024-07-02T16:21:45Z</time></trkpt>
<trkpt lat="38.853398" lon="-120.105311"><ele>2523.2</ele><time>2024-07-02T16:21:46Z</time></trkpt>
<trkpt lat="38.853753" lon="-120.105953"><ele>2527.4</ele><time>2024-07-02T16:23:11Z</time></trkpt>
<trkpt lat="38.854089" lon="-120.106490"><ele>2528.6</ele><time>2024-07-02T16:23:44Z</time></trkpt>
<trkpt lat="38.854133" lon="-120.106480"><ele>2528.8</ele><time>2024-07-02T16:23:46Z</time></trkpt>
<trkpt lat="38.854110" lon="-120.106579"><ele>2529.2</ele><time>2024-07-02T16:23:51Z</time></trkpt>
<trkpt lat="38.854389" lon="-120.107335"><ele>2531.6</ele><time>2024-07-02T16:24:45Z</time></trkpt>
<trkpt lat="38.854739" lon="-120.108560"><ele>2533.6</ele><time>2024-07-02T16:25:53Z</time></trkpt>
<trkpt lat="38.855869" lon="-120.109711"><ele>2538.6</ele><time>2024-07-02T16:27:47Z</time></trkpt>
<trkpt lat="38.855833" lon="-120.109828"><ele>2539.2</ele><time>2024-07-02T16:27:55Z</time></trkpt>
<trkpt lat="38.855973" lon="-120.111612"><ele>2544.6</ele><time>2024-07-02T16:29:49Z</time></trkpt>
<trkpt lat="38.856138" lon="-120.111917"><ele>2543.0</ele><time>2024-07-02T16:30:06Z</time></trkpt>
<trkpt lat="38.856205" lon="-120.112211"><ele>2542.0</ele><time>2024-07-02T16:30:18Z</time></trkpt>
<trkpt lat="38.856170" lon="-120.112462"><ele>2540.4</ele><time>2024-07-02T16:30:30Z</time></trkpt>
<trkpt lat="38.856614" lon="-120.113350"><ele>2535.0</ele><time>2024-07-02T16:31:44Z</time></trkpt>
<trkpt lat="38.856549" lon="-120.113531"><ele>2533.6</ele><time>2024-07-02T16:31:57Z</time></trkpt>
<trkpt lat="38.856643" lon="-120.114844"><ele>2532.8</ele><time>2024-07-02T16:33:33Z</time></trkpt>
<trkpt lat="38.856882" lon="-120.115810"><ele>2536.8</ele><time>2024-07-02T16:34:27Z</time></trkpt>
<trkpt lat="38.857063" lon="-120.116134"><ele>2536.6</ele><time>2024-07-02T16:34:59Z</time></trkpt>
<trkpt lat="38.857097" lon="-120.116540"><ele>2539.8</ele><time>2024-07-02T16:35:41Z</time></trkpt>
<trkpt lat="38.857159" lon="-120.116684"><ele>2540.2</ele><time>2024-07-02T16:35:48Z</time></trkpt>
<trkpt lat="38.857239" lon="-120.117835"><ele>2541.4</ele><time>2024-07-02T16:37:01Z</time></trkpt>
<trkpt lat="38.857317" lon="-120.118114"><ele>2541.6</ele><time>2024-07-02T16:37:21Z</time></trkpt>
<trkpt lat="38.857583" lon="-120.118616"><ele>2542.4</ele><time>2024-07-02T16:37:52Z</time></trkpt>
<trkpt lat="38.857558" lon="-120.118568"><ele>2542.2</ele><time>2024-07-02T16:37:54Z</time></trkpt>
<trkpt lat="38.857925" lon="-120.119109"><ele>2538.8</ele><time>2024-07-02T16:38:41Z</time></trkpt>
<trkpt lat="38.858477" lon="-120.119641"><ele>2533.0</ele><time>2024-07-02T16:39:44Z</time></trkpt>
<trkpt lat="38.858581" lon="-120.119624"><ele>2532.6</ele><time>2024-07-02T16:39:47Z</time></trkpt>
<trkpt lat="38.859200" lon="-120.120189"><ele>2529.8</ele><time>2024-07-02T16:40:45Z</time></trkpt>
<trkpt lat="38.859346" lon="-120.120628"><ele>2530.6</ele><time>2024-07-02T16:41:19Z</time></trkpt>
<trkpt lat="38.859699" lon="-120.121100"><ele>2530.0</ele><time>2024-07-02T16:42:02Z</time></trkpt>
<trkpt lat="38.859845" lon="-120.121389"><ele>2530.2</ele><time>2024-07-02T16:42:13Z</time></trkpt>
<trkpt lat="38.860011" lon="-120.122651"><ele>2530.8</ele><time>2024-07-02T16:43:44Z</time></trkpt>
<trkpt lat="38.860094" lon="-120.122677"><ele>2530.8</ele><time>2024-07-02T16:43:50Z</time></trkpt>
<trkpt lat="38.860024" lon="-120.122829"><ele>2531.0</ele><time>2024-07-02T16:44:04Z</time></trkpt>
<trkpt lat="38.860439" lon="-120.124197"><ele>2526.2</ele><time>2024-07-02T16:45:52Z</time></trkpt>
<trkpt lat="38.860422" lon="-120.124153"><ele>2526.2</ele><time>2024-07-02T16:45:53Z</time></trkpt>
<trkpt lat="38.860550" lon="-120.124321"><ele>2525.4</ele><time>2024-07-02T16:46:03Z</time></trkpt>
<trkpt lat="38.860805" lon="-120.124446"><ele>2525.6</ele><time>2024-07-02T16:46:19Z</time></trkpt>
<trkpt lat="38.861163" lon="-120.124510"><ele>2524.8</ele><time>2024-07-02T16:46:45Z</time></trkpt>
<trkpt lat="38.861633" lon="-120.124982"><ele>2523.4</ele><time>2024-07-02T16:47:46Z</time></trkpt>
<trkpt lat="38.861849" lon="-120.124980"><ele>2523.0</ele><time>2024-07-02T16:47:59Z</time></trkpt>
<trkpt lat="38.862501" lon="-120.125661"><ele>2517.8</ele><time>2024-07-02T16:49:13Z</time></trkpt>
<trkpt lat="38.862755" lon="-120.126069"><ele>2517.4</ele><time>2024-07-02T16:49:55Z</time></trkpt>
<trkpt lat="38.862754" lon="-120.126013"><ele>2517.4</ele><time>2024-07-02T16:50:01Z</time></trkpt>
<trkpt lat="38.863368" lon="-120.127044"><ele>2506.4</ele><time>2024-07-02T16:51:46Z</time></trkpt>
<trkpt lat="38.863319" lon="-120.127110"><ele>2505.8</ele><time>2024-07-02T16:51:51Z</time></trkpt>
<trkpt lat="38.863378" lon="-120.127247"><ele>2504.6</ele><time>2024-07-02T16:52:03Z</time></trkpt>
<trkpt lat="38.864101" lon="-120.127883"><ele>2497.0</ele><time>2024-07-02T16:53:19Z</time></trkpt>
<trkpt lat="38.864144" lon="-120.128083"><ele>2496.2</ele><time>2024-07-02T16:53:46Z</time></trkpt>
<trkpt lat="38.864094" lon="-120.128134"><ele>2495.4</ele><time>2024-07-02T16:53:50Z</time></trkpt>
<trkpt lat="38.864108" lon="-120.128303"><ele>2493.2</ele><time>2024-07-02T16:54:04Z</time></trkpt>
<trkpt lat="38.863949" lon="-120.128543"><ele>2491.6</ele><time>2024-07-02T16:54:23Z</time></trkpt>
<trkpt lat="38.863969" lon="-120.128711"><ele>2486.4</ele><time>2024-07-02T16:55:15Z</time></trkpt>
<trkpt lat="38.863803" lon="-120.129111"><ele>2486.6</ele><time>2024-07-02T16:55:47Z</time></trkpt>
<trkpt lat="38.863701" lon="-120.129093"><ele>2485.4</ele><time>2024-07-02T16:55:54Z</time></trkpt>
<trkpt lat="38.863723" lon="-120.129059"><ele>2482.2</ele><time>2024-07-02T16:56:31Z</time></trkpt>
<trkpt lat="38.863685" lon="-120.129175"><ele>2484.0</ele><time>2024-07-02T16:57:13Z</time></trkpt>
<trkpt lat="38.863702" lon="-120.129062"><ele>2482.0</ele><time>2024-07-02T16:57:59Z</time></trkpt>
<trkpt lat="38.863754" lon="-120.129152"><ele>2484.4</ele><time>2024-07-02T17:01:45Z</time></trkpt>
<trkpt lat="38.863710" lon="-120.129086"><ele>2484.4</ele><time>2024-07-02T17:01:58Z</time></trkpt>
<trkpt lat="38.863758" lon="-120.128754"><ele>2488.0</ele><time>2024-07-02T17:03:33Z</time></trkpt>
<trkpt lat="38.863834" lon="-120.128637"><ele>2488.6</ele><time>2024-07-02T17:03:43Z</time></trkpt>
<trkpt lat="38.863944" lon="-120.128635"><ele>2488.6</ele><time>2024-07-02T17:03:53Z</time></trkpt>
<trkpt lat="38.863956" lon="-120.128536"><ele>2488.8</ele><time>2024-07-02T17:03:59Z</time></trkpt>
<trkpt lat="38.864910" lon="-120.128207"><ele>2498.6</ele><time>2024-07-02T17:05:59Z</time></trkpt>
<trkpt lat="38.864969" lon="-120.128648"><ele>2495.0</ele><time>2024-07-02T17:06:33Z</time></trkpt>
<trkpt lat="38.865248" lon="-120.129289"><ele>2489.8</ele><time>2024-07-02T17:07:43Z</time></trkpt>
<trkpt lat="38.865360" lon="-120.129382"><ele>2489.8</ele><time>2024-07-02T17:07:52Z</time></trkpt>
<trkpt lat="38.865348" lon="-120.129292"><ele>2489.4</ele><time>2024-07-02T17:08:04Z</time></trkpt>
<trkpt lat="38.866112" lon="-120.130073"><ele>2486.4</ele><time>2024-07-02T17:09:44Z</time></trkpt>
<trkpt lat="38.866335" lon="-120.130646"><ele>2487.8</ele><time>2024-07-02T17:10:17Z</time></trkpt>
<trkpt lat="38.866413" lon="-120.131173"><ele>2484.2</ele><time>2024-07-02T17:11:09Z</time></trkpt>
<trkpt lat="38.866538" lon="-120.131631"><ele>2485.4</ele><time>2024-07-02T17:11:44Z</time></trkpt>
<trkpt lat="38.866518" lon="-120.131914"><ele>2486.0</ele><time>2024-07-02T17:12:01Z</time></trkpt>
<trkpt lat="38.866777" lon="-120.132759"><ele>2489.2</ele><time>2024-07-02T17:13:15Z</time></trkpt>
<trkpt lat="38.866655" lon="-120.133414"><ele>2485.6</ele><time>2024-07-02T17:13:51Z</time></trkpt>
<trkpt lat="38.867060" lon="-120.133824"><ele>2484.6</ele><time>2024-07-02T17:14:23Z</time></trkpt>
<trkpt lat="38.867458" lon="-120.134479"><ele>2482.8</ele><time>2024-07-02T17:15:44Z</time></trkpt>
<trkpt lat="38.867636" lon="-120.134590"><ele>2482.8</ele><time>2024-07-02T17:15:59Z</time></trkpt>
<trkpt lat="38.867849" lon="-120.135013"><ele>2486.2</ele><time>2024-07-02T17:16:43Z</time></trkpt>
<trkpt lat="38.868182" lon="-120.135391"><ele>2490.4</ele><time>2024-07-02T17:17:49Z</time></trkpt>
<trkpt lat="38.868188" lon="-120.135467"><ele>2491.6</ele><time>2024-07-02T17:17:58Z</time></trkpt>
<trkpt lat="38.869075" lon="-120.136289"><ele>2499.6</ele><time>2024-07-02T17:20:04Z</time></trkpt>
<trkpt lat="38.868824" lon="-120.136557"><ele>2497.4</ele><time>2024-07-02T17:21:43Z</time></trkpt>
<trkpt lat="38.868744" lon="-120.137709"><ele>2487.8</ele><time>2024-07-02T17:23:49Z</time></trkpt>
<trkpt lat="38.869207" lon="-120.138437"><ele>2487.6</ele><time>2024-07-02T17:24:44Z</time></trkpt>
<trkpt lat="38.869473" lon="-120.138594"><ele>2488.2</ele><time>2024-07-02T17:25:12Z</time></trkpt>
<trkpt lat="38.869494" lon="-120.138861"><ele>2488.8</ele><time>2024-07-02T17:25:30Z</time></trkpt>
<trkpt lat="38.869369" lon="-120.139291"><ele>2487.0</ele><time>2024-07-02T17:26:05Z</time></trkpt>
<trkpt lat="38.869724" lon="-120.140509"><ele>2481.2</ele><time>2024-07-02T17:27:45Z</time></trkpt>
<trkpt lat="38.870248" lon="-120.140838"><ele>2478.8</ele><time>2024-07-02T17:28:42Z</time></trkpt>
<trkpt lat="38.870889" lon="-120.141086"><ele>2482.2</ele><time>2024-07-02T17:29:45Z</time></trkpt>
<trkpt lat="38.871067" lon="-120.141276"><ele>2482.0</ele><time>2024-07-02T17:30:03Z</time></trkpt>
<trkpt lat="38.871393" lon="-120.141963"><ele>2486.0</ele><time>2024-07-02T17:31:45Z</time></trkpt>
<trkpt lat="38.871455" lon="-120.141881"><ele>2485.8</ele><time>2024-07-02T17:32:03Z</time></trkpt>
<trkpt lat="38.872102" lon="-120.142478"><ele>2479.8</ele><time>2024-07-02T17:33:47Z</time></trkpt>
<trkpt lat="38.872902" lon="-120.143629"><ele>2478.4</ele><time>2024-07-02T17:35:44Z</time></trkpt>
<trkpt lat="38.873126" lon="-120.143684"><ele>2479.2</ele><time>2024-07-02T17:36:03Z</time></trkpt>
<trkpt lat="38.873641" lon="-120.144017"><ele>2480.4</ele><time>2024-07-02T17:37:06Z</time></trkpt>
<trkpt lat="38.873905" lon="-120.144055"><ele>2482.2</ele><time>2024-07-02T17:37:38Z</time></trkpt>
<trkpt lat="38.874195" lon="-120.144297"><ele>2481.2</ele><time>2024-07-02T17:37:59Z</time></trkpt>
<trkpt lat="38.874863" lon="-120.145234"><ele>2480.4</ele><time>2024-07-02T17:39:44Z</time></trkpt>
<trkpt lat="38.875006" lon="-120.145208"><ele>2478.6</ele><time>2024-07-02T17:39:55Z</time></trkpt>
<trkpt lat="38.875383" lon="-120.145329"><ele>2478.6</ele><time>2024-07-02T17:40:22Z</time></trkpt>
<trkpt lat="38.875593" lon="-120.145222"><ele>2477.6</ele><time>2024-07-02T17:41:06Z</time></trkpt>
<trkpt lat="38.875992" lon="-120.145323"><ele>2479.4</ele><time>2024-07-02T17:41:48Z</time></trkpt>
<trkpt lat="38.876139" lon="-120.145471"><ele>2478.4</ele><time>2024-07-02T17:42:05Z</time></trkpt>
<trkpt lat="38.876580" lon="-120.146350"><ele>2476.2</ele><time>2024-07-02T17:43:50Z</time></trkpt>
<trkpt lat="38.876610" lon="-120.146252"><ele>2474.4</ele><time>2024-07-02T17:44:00Z</time></trkpt>
<trkpt lat="38.876837" lon="-120.146102"><ele>2470.2</ele><time>2024-07-02T17:44:38Z</time></trkpt>
<trkpt lat="38.877327" lon="-120.146004"><ele>2467.6</ele><time>2024-07-02T17:45:28Z</time></trkpt>
<trkpt lat="38.877357" lon="-120.145885"><ele>2464.0</ele><time>2024-07-02T17:45:49Z</time></trkpt>
<trkpt lat="38.877489" lon="-120.146030"><ele>2462.6</ele><time>2024-07-02T17:46:05Z</time></trkpt>
<trkpt lat="38.877625" lon="-120.145529"><ele>2456.0</ele><time>2024-07-02T17:46:46Z</time></trkpt>
<trkpt lat="38.877728" lon="-120.145421"><ele>2453.8</ele><time>2024-07-02T17:47:02Z</time></trkpt>
<trkpt lat="38.877760" lon="-120.145276"><ele>2451.6</ele><time>2024-07-02T17:47:42Z</time></trkpt>
<trkpt lat="38.877969" lon="-120.145216"><ele>2450.8</ele><time>2024-07-02T17:48:02Z</time></trkpt>
<trkpt lat="38.878133" lon="-120.144927"><ele>2444.6</ele><time>2024-07-02T17:48:48Z</time></trkpt>
<trkpt lat="38.878504" lon="-120.144438"><ele>2442.8</ele><time>2024-07-02T17:49:44Z</time></trkpt>
<trkpt lat="38.878552" lon="-120.144285"><ele>2442.6</ele><time>2024-07-02T17:49:47Z</time></trkpt>
<trkpt lat="38.878528" lon="-120.144024"><ele>2442.6</ele><time>2024-07-02T17:50:00Z</time></trkpt>
<trkpt lat="38.878387" lon="-120.143271"><ele>2439.2</ele><time>2024-07-02T17:50:56Z</time></trkpt>
<trkpt lat="38.878177" lon="-120.142660"><ele>2439.6</ele><time>2024-07-02T17:51:46Z</time></trkpt>
<trkpt lat="38.878202" lon="-120.142029"><ele>2440.2</ele><time>2024-07-02T17:52:54Z</time></trkpt>
<trkpt lat="38.878154" lon="-120.141334"><ele>2438.0</ele><time>2024-07-02T17:53:28Z</time></trkpt>
<trkpt lat="38.878358" lon="-120.140899"><ele>2434.0</ele><time>2024-07-02T17:53:59Z</time></trkpt>
<trkpt lat="38.878471" lon="-120.140929"><ele>2432.6</ele><time>2024-07-02T17:54:18Z</time></trkpt>
<trkpt lat="38.878452" lon="-120.141116"><ele>2429.2</ele><time>2024-07-02T17:55:00Z</time></trkpt>
<trkpt lat="38.878325" lon="-120.140812"><ele>2425.0</ele><time>2024-07-02T17:55:32Z</time></trkpt>
<trkpt lat="38.878105" lon="-120.140579"><ele>2422.6</ele><time>2024-07-02T17:55:50Z</time></trkpt>
<trkpt lat="38.878214" lon="-120.140587"><ele>2422.6</ele><time>2024-07-02T17:55:51Z</time></trkpt>
<trkpt lat="38.878197" lon="-120.140465"><ele>2422.6</ele><time>2024-07-02T17:55:53Z</time></trkpt>
<trkpt lat="38.878267" lon="-120.140413"><ele>2421.6</ele><time>2024-07-02T17:56:03Z</time></trkpt>
<trkpt lat="38.878281" lon="-120.140182"><ele>2418.6</ele><time>2024-07-02T17:56:34Z</time></trkpt>
<trkpt lat="38.878222" lon="-120.140115"><ele>2417.4</ele><time>2024-07-02T17:56:42Z</time></trkpt>
<trkpt lat="38.878205" lon="-120.139903"><ele>2415.0</ele><time>2024-07-02T17:57:00Z</time></trkpt>
<trkpt lat="38.878357" lon="-120.139478"><ele>2414.4</ele><time>2024-07-02T17:57:46Z</time></trkpt>
<trkpt lat="38.878246" lon="-120.139486"><ele>2413.8</ele><time>2024-07-02T17:57:54Z</time></trkpt>
<trkpt lat="38.878261" lon="-120.139269"><ele>2413.2</ele><time>2024-07-02T17:58:20Z</time></trkpt>
<trkpt lat="38.878168" lon="-120.138717"><ele>2413.6</ele><time>2024-07-02T17:59:49Z</time></trkpt>
<trkpt lat="38.878180" lon="-120.138816"><ele>2413.6</ele><time>2024-07-02T17:59:52Z</time></trkpt>
<trkpt lat="38.878230" lon="-120.138781"><ele>2413.8</ele><time>2024-07-02T18:00:00Z</time></trkpt>
<trkpt lat="38.878559" lon="-120.137878"><ele>2415.2</ele><time>2024-07-02T18:01:28Z</time></trkpt>
<trkpt lat="38.878870" lon="-120.137515"><ele>2415.4</ele><time>2024-07-02T18:01:46Z</time></trkpt>
<trkpt lat="38.878362" lon="-120.137720"><ele>2416.2</ele><time>2024-07-02T18:01:54Z</time></trkpt>
<trkpt lat="38.878246" lon="-120.136524"><ele>2420.2</ele><time>2024-07-02T18:03:42Z</time></trkpt>
<trkpt lat="38.878216" lon="-120.136423"><ele>2420.2</ele><time>2024-07-02T18:03:48Z</time></trkpt>
<trkpt lat="38.878210" lon="-120.136564"><ele>2420.2</ele><time>2024-07-02T18:03:50Z</time></trkpt>
<trkpt lat="38.878233" lon="-120.136505"><ele>2420.8</ele><time>2024-07-02T18:03:52Z</time></trkpt>
<trkpt lat="38.878159" lon="-120.136472"><ele>2421.6</ele><time>2024-07-02T18:04:02Z</time></trkpt>
<trkpt lat="38.878071" lon="-120.136124"><ele>2424.2</ele><time>2024-07-02T18:04:22Z</time></trkpt>
<trkpt lat="38.878057" lon="-120.135765"><ele>2424.0</ele><time>2024-07-02T18:04:56Z</time></trkpt>
<trkpt lat="38.878115" lon="-120.135255"><ele>2418.8</ele><time>2024-07-02T18:05:47Z</time></trkpt>
<trkpt lat="38.878011" lon="-120.134590"><ele>2418.8</ele><time>2024-07-02T18:06:46Z</time></trkpt>
<trkpt lat="38.877833" lon="-120.134077"><ele>2418.6</ele><time>2024-07-02T18:07:45Z</time></trkpt>
<trkpt lat="38.877802" lon="-120.133812"><ele>2420.0</ele><time>2024-07-02T18:08:04Z</time></trkpt>
<trkpt lat="38.877903" lon="-120.133316"><ele>2418.6</ele><time>2024-07-02T18:08:52Z</time></trkpt>
<trkpt lat="38.877957" lon="-120.132583"><ele>2419.2</ele><time>2024-07-02T18:09:50Z</time></trkpt>
<trkpt lat="38.878018" lon="-120.132485"><ele>2419.0</ele><time>2024-07-02T18:09:54Z</time></trkpt>
<trkpt lat="38.878095" lon="-120.132510"><ele>2419.2</ele><time>2024-07-02T18:10:03Z</time></trkpt>
<trkpt lat="38.878380" lon="-120.132022"><ele>2420.4</ele><time>2024-07-02T18:11:10Z</time></trkpt>
<trkpt lat="38.878633" lon="-120.131867"><ele>2421.6</ele><time>2024-07-02T18:11:46Z</time></trkpt>
<trkpt lat="38.878879" lon="-120.130426"><ele>2418.8</ele><time>2024-07-02T18:13:38Z</time></trkpt>
<trkpt lat="38.878986" lon="-120.130078"><ele>2418.2</ele><time>2024-07-02T18:13:45Z</time></trkpt>
<trkpt lat="38.878966" lon="-120.130180"><ele>2417.8</ele><time>2024-07-02T18:13:47Z</time></trkpt>
<trkpt lat="38.879092" lon="-120.130019"><ele>2415.4</ele><time>2024-07-02T18:13:58Z</time></trkpt>
<trkpt lat="38.879112" lon="-120.129433"><ele>2409.0</ele><time>2024-07-02T18:14:46Z</time></trkpt>
<trkpt lat="38.878941" lon="-120.129087"><ele>2404.8</ele><time>2024-07-02T18:15:24Z</time></trkpt>
<trkpt lat="38.879191" lon="-120.128822"><ele>2399.6</ele><time>2024-07-02T18:16:00Z</time></trkpt>
<trkpt lat="38.879600" lon="-120.128038"><ele>2387.2</ele><time>2024-07-02T18:17:13Z</time></trkpt>
<trkpt lat="38.879680" lon="-120.128025"><ele>2386.2</ele><time>2024-07-02T18:17:21Z</time></trkpt>
<trkpt lat="38.879763" lon="-120.127698"><ele>2385.2</ele><time>2024-07-02T18:17:51Z</time></trkpt>
<trkpt lat="38.879559" lon="-120.127777"><ele>2384.6</ele><time>2024-07-02T18:17:55Z</time></trkpt>
<trkpt lat="38.879505" lon="-120.127738"><ele>2383.4</ele><time>2024-07-02T18:18:03Z</time></trkpt>
<trkpt lat="38.878706" lon="-120.126430"><ele>2382.8</ele><time>2024-07-02T18:19:57Z</time></trkpt>
<trkpt lat="38.878127" lon="-120.125767"><ele>2383.0</ele><time>2024-07-02T18:21:20Z</time></trkpt>
<trkpt lat="38.877950" lon="-120.125448"><ele>2381.8</ele><time>2024-07-02T18:21:46Z</time></trkpt>
<trkpt lat="38.878685" lon="-120.124625"><ele>2388.0</ele><time>2024-07-02T18:23:46Z</time></trkpt>
<trkpt lat="38.878644" lon="-120.124653"><ele>2387.8</ele><time>2024-07-02T18:23:50Z</time></trkpt>
<trkpt lat="38.878750" lon="-120.124437"><ele>2386.8</ele><time>2024-07-02T18:24:22Z</time></trkpt>
<trkpt lat="38.879063" lon="-120.124357"><ele>2381.8</ele><time>2024-07-02T18:25:06Z</time></trkpt>
<trkpt lat="38.879208" lon="-120.124214"><ele>2380.8</ele><time>2024-07-02T18:25:24Z</time></trkpt>
<trkpt lat="38.879380" lon="-120.124196"><ele>2381.2</ele><time>2024-07-02T18:25:47Z</time></trkpt>
<trkpt lat="38.879358" lon="-120.124121"><ele>2381.6</ele><time>2024-07-02T18:26:00Z</time></trkpt>
<trkpt lat="38.879583" lon="-120.124080"><ele>2380.6</ele><time>2024-07-02T18:26:50Z</time></trkpt>
<trkpt lat="38.879732" lon="-120.124213"><ele>2379.4</ele><time>2024-07-02T18:27:49Z</time></trkpt>
<trkpt lat="38.879729" lon="-120.124338"><ele>2380.2</ele><time>2024-07-02T18:28:00Z</time></trkpt>
<trkpt lat="38.879818" lon="-120.124442"><ele>2380.4</ele><time>2024-07-02T18:28:08Z</time></trkpt>
<trkpt lat="38.880564" lon="-120.124787"><ele>2386.0</ele><time>2024-07-02T18:29:45Z</time></trkpt>
<trkpt lat="38.880650" lon="-120.124916"><ele>2385.6</ele><time>2024-07-02T18:29:59Z</time></trkpt>
<trkpt lat="38.880992" lon="-120.125062"><ele>2385.2</ele><time>2024-07-02T18:30:20Z</time></trkpt>
<trkpt lat="38.881283" lon="-120.125033"><ele>2384.6</ele><time>2024-07-02T18:30:44Z</time></trkpt>
<trkpt lat="38.881750" lon="-120.125407"><ele>2385.6</ele><time>2024-07-02T18:31:51Z</time></trkpt>
<trkpt lat="38.881806" lon="-120.125565"><ele>2384.2</ele><time>2024-07-02T18:32:05Z</time></trkpt>
<trkpt lat="38.882248" lon="-120.125368"><ele>2383.6</ele><time>2024-07-02T18:32:56Z</time></trkpt>
<trkpt lat="38.882489" lon="-120.125337"><ele>2385.6</ele><time>2024-07-02T18:33:40Z</time></trkpt>
<trkpt lat="38.882831" lon="-120.125108"><ele>2385.4</ele><time>2024-07-02T18:33:56Z</time></trkpt>
<trkpt lat="38.882921" lon="-120.124934"><ele>2384.8</ele><time>2024-07-02T18:34:18Z</time></trkpt>
<trkpt lat="38.883089" lon="-120.124853"><ele>2382.6</ele><time>2024-07-02T18:34:34Z</time></trkpt>
<trkpt lat="38.883294" lon="-120.124477"><ele>2380.6</ele><time>2024-07-02T18:35:52Z</time></trkpt>
<trkpt lat="38.883429" lon="-120.124017"><ele>2379.4</ele><time>2024-07-02T18:36:26Z</time></trkpt>
<trkpt lat="38.884041" lon="-120.123096"><ele>2374.0</ele><time>2024-07-02T18:37:53Z</time></trkpt>
<trkpt lat="38.884894" lon="-120.121991"><ele>2360.6</ele><time>2024-07-02T18:39:48Z</time></trkpt>
<trkpt lat="38.884799" lon="-120.121973"><ele>2360.0</ele><time>2024-07-02T18:39:51Z</time></trkpt>
<trkpt lat="38.884623" lon="-120.121593"><ele>2355.4</ele><time>2024-07-02T18:40:26Z</time></trkpt>
<trkpt lat="38.884524" lon="-120.121507"><ele>2354.2</ele><time>2024-07-02T18:40:36Z</time></trkpt>
<trkpt lat="38.884421" lon="-120.121636"><ele>2352.2</ele><time>2024-07-02T18:40:50Z</time></trkpt>
<trkpt lat="38.884524" lon="-120.121195"><ele>2349.6</ele><time>2024-07-02T18:41:20Z</time></trkpt>
<trkpt lat="38.884693" lon="-120.120971"><ele>2350.4</ele><time>2024-07-02T18:41:48Z</time></trkpt>
<trkpt lat="38.884570" lon="-120.120874"><ele>2350.6</ele><time>2024-07-02T18:41:59Z</time></trkpt>
<trkpt lat="38.884675" lon="-120.120618"><ele>2356.4</ele><time>2024-07-02T18:42:51Z</time></trkpt>
<trkpt lat="38.884564" lon="-120.120455"><ele>2357.4</ele><time>2024-07-02T18:43:11Z</time></trkpt>
<trkpt lat="38.884492" lon="-120.120165"><ele>2361.2</ele><time>2024-07-02T18:43:44Z</time></trkpt>
<trkpt lat="38.884811" lon="-120.119499"><ele>2364.4</ele><time>2024-07-02T18:44:44Z</time></trkpt>
<trkpt lat="38.884971" lon="-120.119032"><ele>2371.0</ele><time>2024-07-02T18:45:48Z</time></trkpt>
<trkpt lat="38.884898" lon="-120.118668"><ele>2376.0</ele><time>2024-07-02T18:46:28Z</time></trkpt>
<trkpt lat="38.885110" lon="-120.118369"><ele>2385.2</ele><time>2024-07-02T18:47:38Z</time></trkpt>
<trkpt lat="38.885138" lon="-120.118033"><ele>2386.6</ele><time>2024-07-02T18:48:02Z</time></trkpt>
<trkpt lat="38.885283" lon="-120.117997"><ele>2388.4</ele><time>2024-07-02T18:48:24Z</time></trkpt>
<trkpt lat="38.885787" lon="-120.118136"><ele>2396.0</ele><time>2024-07-02T18:49:47Z</time></trkpt>
<trkpt lat="38.885628" lon="-120.117755"><ele>2399.0</ele><time>2024-07-02T18:50:32Z</time></trkpt>
<trkpt lat="38.885505" lon="-120.117646"><ele>2403.2</ele><time>2024-07-02T18:51:20Z</time></trkpt>
<trkpt lat="38.885556" lon="-120.117370"><ele>2406.0</ele><time>2024-07-02T18:51:46Z</time></trkpt>
<trkpt lat="38.885672" lon="-120.117429"><ele>2407.2</ele><time>2024-07-02T18:52:02Z</time></trkpt>
<trkpt lat="38.885840" lon="-120.117205"><ele>2415.4</ele><time>2024-07-02T18:53:32Z</time></trkpt>
<trkpt lat="38.886120" lon="-120.117161"><ele>2418.4</ele><time>2024-07-02T18:54:05Z</time></trkpt>
<trkpt lat="38.886700" lon="-120.116696"><ele>2429.4</ele><time>2024-07-02T18:55:56Z</time></trkpt>
<trkpt lat="38.887535" lon="-120.116852"><ele>2443.6</ele><time>2024-07-02T18:57:56Z</time></trkpt>
<trkpt lat="38.888242" lon="-120.117159"><ele>2457.4</ele><time>2024-07-02T19:00:03Z</time></trkpt>
<trkpt lat="38.887648" lon="-120.116066"><ele>2469.8</ele><time>2024-07-02T19:02:01Z</time></trkpt>
<trkpt lat="38.887611" lon="-120.115320"><ele>2476.2</ele><time>2024-07-02T19:02:58Z</time></trkpt>
<trkpt lat="38.887654" lon="-120.115028"><ele>2482.8</ele><time>2024-07-02T19:03:45Z</time></trkpt>
<trkpt lat="38.887848" lon="-120.115087"><ele>2485.0</ele><time>2024-07-02T19:04:05Z</time></trkpt>
<trkpt lat="38.888785" lon="-120.115072"><ele>2494.6</ele><time>2024-07-02T19:05:53Z</time></trkpt>
<trkpt lat="38.889053" lon="-120.114668"><ele>2496.6</ele><time>2024-07-02T19:06:18Z</time></trkpt>
<trkpt lat="38.889267" lon="-120.114313"><ele>2505.6</ele><time>2024-07-02T19:07:34Z</time></trkpt>
<trkpt lat="38.889404" lon="-120.114031"><ele>2506.8</ele><time>2024-07-02T19:07:46Z</time></trkpt>
<trkpt lat="38.889400" lon="-120.113881"><ele>2509.2</ele><time>2024-07-02T19:08:01Z</time></trkpt>
<trkpt lat="38.889614" lon="-120.113737"><ele>2511.0</ele><time>2024-07-02T19:08:20Z</time></trkpt>
<trkpt lat="38.890164" lon="-120.113515"><ele>2523.2</ele><time>2024-07-02T19:09:47Z</time></trkpt>
<trkpt lat="38.891231" lon="-120.113954"><ele>2537.4</ele><time>2024-07-02T19:11:48Z</time></trkpt>
<trkpt lat="38.891237" lon="-120.114308"><ele>2540.0</ele><time>2024-07-02T19:12:16Z</time></trkpt>
<trkpt lat="38.891510" lon="-120.114829"><ele>2543.2</ele><time>2024-07-02T19:12:55Z</time></trkpt>
<trkpt lat="38.891472" lon="-120.114842"><ele>2543.8</ele><time>2024-07-02T19:12:59Z</time></trkpt>
<trkpt lat="38.891499" lon="-120.115352"><ele>2546.4</ele><time>2024-07-02T19:14:01Z</time></trkpt>
<trkpt lat="38.891344" lon="-120.116117"><ele>2549.2</ele><time>2024-07-02T19:14:46Z</time></trkpt>
<trkpt lat="38.891223" lon="-120.116199"><ele>2549.4</ele><time>2024-07-02T19:14:54Z</time></trkpt>
<trkpt lat="38.890977" lon="-120.117004"><ele>2553.8</ele><time>2024-07-02T19:16:00Z</time></trkpt>
<trkpt lat="38.890861" lon="-120.117691"><ele>2554.4</ele><time>2024-07-02T19:16:46Z</time></trkpt>
<trkpt lat="38.890928" lon="-120.117877"><ele>2554.6</ele><time>2024-07-02T19:16:52Z</time></trkpt>
<trkpt lat="38.890923" lon="-120.118783"><ele>2555.0</ele><time>2024-07-02T19:18:08Z</time></trkpt>
<trkpt lat="38.890989" lon="-120.119313"><ele>2556.4</ele><time>2024-07-02T19:18:46Z</time></trkpt>
<trkpt lat="38.891335" lon="-120.120174"><ele>2559.8</ele><time>2024-07-02T19:20:32Z</time></trkpt>
<trkpt lat="38.891467" lon="-120.120371"><ele>2559.6</ele><time>2024-07-02T19:20:51Z</time></trkpt>
<trkpt lat="38.891441" lon="-120.120590"><ele>2558.0</ele><time>2024-07-02T19:21:05Z</time></trkpt>
<trkpt lat="38.891964" lon="-120.121906"><ele>2558.0</ele><time>2024-07-02T19:22:44Z</time></trkpt>
<trkpt lat="38.892910" lon="-120.123284"><ele>2583.2</ele><time>2024-07-02T19:26:14Z</time></trkpt>
<trkpt lat="38.893141" lon="-120.123735"><ele>2586.0</ele><time>2024-07-02T19:26:49Z</time></trkpt>
<trkpt lat="38.893236" lon="-120.123761"><ele>2587.4</ele><time>2024-07-02T19:27:01Z</time></trkpt>
<trkpt lat="38.894319" lon="-120.125228"><ele>2596.6</ele><time>2024-07-02T19:30:03Z</time></trkpt>
<trkpt lat="38.894873" lon="-120.125831"><ele>2598.2</ele><time>2024-07-02T19:31:06Z</time></trkpt>
<trkpt lat="38.895838" lon="-120.126454"><ele>2607.6</ele><time>2024-07-02T19:33:01Z</time></trkpt>
<trkpt lat="38.896097" lon="-120.126943"><ele>2609.6</ele><time>2024-07-02T19:33:59Z</time></trkpt>
<trkpt lat="38.896456" lon="-120.127436"><ele>2614.6</ele><time>2024-07-02T19:34:47Z</time></trkpt>
<trkpt lat="38.896563" lon="-120.127377"><ele>2615.4</ele><time>2024-07-02T19:34:54Z</time></trkpt>
<trkpt lat="38.897495" lon="-120.128246"><ele>2624.6</ele><time>2024-07-02T19:36:58Z</time></trkpt>
<trkpt lat="38.897579" lon="-120.128470"><ele>2625.2</ele><time>2024-07-02T19:37:15Z</time></trkpt>
<trkpt lat="38.898992" lon="-120.129802"><ele>2635.2</ele><time>2024-07-02T19:40:52Z</time></trkpt>
<trkpt lat="38.899280" lon="-120.130249"><ele>2637.8</ele><time>2024-07-02T19:41:21Z</time></trkpt>
<trkpt lat="38.899724" lon="-120.130776"><ele>2647.8</ele><time>2024-07-02T19:42:55Z</time></trkpt>
<trkpt lat="38.900214" lon="-120.131995"><ele>2661.2</ele><time>2024-07-02T19:45:01Z</time></trkpt>
<trkpt lat="38.900645" lon="-120.132456"><ele>2669.2</ele><time>2024-07-02T19:46:53Z</time></trkpt>
<trkpt lat="38.901067" lon="-120.133661"><ele>2681.8</ele><time>2024-07-02T19:48:52Z</time></trkpt>
<trkpt lat="38.901203" lon="-120.133707"><ele>2687.2</ele><time>2024-07-02T19:49:39Z</time></trkpt>
<trkpt lat="38.901391" lon="-120.133923"><ele>2689.4</ele><time>2024-07-02T19:50:11Z</time></trkpt>
<trkpt lat="38.901457" lon="-120.133944"><ele>2691.4</ele><time>2024-07-02T19:50:23Z</time></trkpt>
<trkpt lat="38.901490" lon="-120.133874"><ele>2692.6</ele><time>2024-07-02T19:50:49Z</time></trkpt>
<trkpt lat="38.901453" lon="-120.133787"><ele>2694.8</ele><time>2024-07-02T19:51:03Z</time></trkpt>
<trkpt lat="38.901624" lon="-120.133939"><ele>2697.8</ele><time>2024-07-02T19:51:33Z</time></trkpt>
<trkpt lat="38.901629" lon="-120.134122"><ele>2699.2</ele><time>2024-07-02T19:51:57Z</time></trkpt>
<trkpt lat="38.901866" lon="-120.134511"><ele>2704.6</ele><time>2024-07-02T19:52:47Z</time></trkpt>
<trkpt lat="38.901905" lon="-120.134720"><ele>2707.0</ele><time>2024-07-02T19:53:04Z</time></trkpt>
<trkpt lat="38.901998" lon="-120.134721"><ele>2708.2</ele><time>2024-07-02T19:53:11Z</time></trkpt>
<trkpt lat="38.902380" lon="-120.134392"><ele>2715.4</ele><time>2024-07-02T19:54:48Z</time></trkpt>
<trkpt lat="38.902347" lon="-120.134125"><ele>2718.0</ele><time>2024-07-02T19:55:07Z</time></trkpt>
<trkpt lat="38.902401" lon="-120.134191"><ele>2724.8</ele><time>2024-07-02T19:56:29Z</time></trkpt>
<trkpt lat="38.902511" lon="-120.134367"><ele>2727.0</ele><time>2024-07-02T19:56:49Z</time></trkpt>
<trkpt lat="38.902593" lon="-120.134672"><ele>2731.4</ele><time>2024-07-02T19:57:23Z</time></trkpt>
<trkpt lat="38.902773" lon="-120.134872"><ele>2732.6</ele><time>2024-07-02T19:58:46Z</time></trkpt>
<trkpt lat="38.902694" lon="-120.134901"><ele>2733.6</ele><time>2024-07-02T19:59:03Z</time></trkpt>
<trkpt lat="38.902690" lon="-120.134782"><ele>2733.0</ele><time>2024-07-02T20:00:43Z</time></trkpt>
<trkpt lat="38.902727" lon="-120.134951"><ele>2734.8</ele><time>2024-07-02T20:02:48Z</time></trkpt>
<trkpt lat="38.902688" lon="-120.134896"><ele>2734.8</ele><time>2024-07-02T20:02:59Z</time></trkpt>
<trkpt lat="38.902736" lon="-120.134928"><ele>2734.8</ele><time>2024-07-02T20:03:06Z</time></trkpt>
<trkpt lat="38.902692" lon="-120.134752"><ele>2735.2</ele><time>2024-07-02T20:04:47Z</time></trkpt>
<trkpt lat="38.902670" lon="-120.134857"><ele>2735.0</ele><time>2024-07-02T20:04:55Z</time></trkpt>
<trkpt lat="38.902719" lon="-120.134875"><ele>2736.8</ele><time>2024-07-02T20:06:50Z</time></trkpt>
<trkpt lat="38.902624" lon="-120.134741"><ele>2736.4</ele><time>2024-07-02T20:08:47Z</time></trkpt>
<trkpt lat="38.902769" lon="-120.134884"><ele>2736.0</ele><time>2024-07-02T20:08:55Z</time></trkpt>
<trkpt lat="38.902732" lon="-120.134896"><ele>2736.0</ele><time>2024-07-02T20:09:05Z</time></trkpt>
<trkpt lat="38.902965" lon="-120.135811"><ele>2744.2</ele><time>2024-07-02T20:10:41Z</time></trkpt>
<trkpt lat="38.902998" lon="-120.136081"><ele>2744.6</ele><time>2024-07-02T20:10:49Z</time></trkpt>
<trkpt lat="38.902945" lon="-120.136237"><ele>2746.4</ele><time>2024-07-02T20:11:04Z</time></trkpt>
<trkpt lat="38.903025" lon="-120.136630"><ele>2750.8</ele><time>2024-07-02T20:11:49Z</time></trkpt>
<trkpt lat="38.903119" lon="-120.136766"><ele>2754.2</ele><time>2024-07-02T20:12:13Z</time></trkpt>
<trkpt lat="38.903254" lon="-120.137452"><ele>2758.8</ele><time>2024-07-02T20:13:03Z</time></trkpt>
<trkpt lat="38.903682" lon="-120.137379"><ele>2766.0</ele><time>2024-07-02T20:14:47Z</time></trkpt>
<trkpt lat="38.903640" lon="-120.137205"><ele>2767.2</ele><time>2024-07-02T20:15:00Z</time></trkpt>
<trkpt lat="38.903957" lon="-120.138472"><ele>2781.0</ele><time>2024-07-02T20:17:02Z</time></trkpt>
<trkpt lat="38.904272" lon="-120.139180"><ele>2793.0</ele><time>2024-07-02T20:18:46Z</time></trkpt>
<trkpt lat="38.904254" lon="-120.139047"><ele>2791.6</ele><time>2024-07-02T20:20:52Z</time></trkpt>
<trkpt lat="38.904188" lon="-120.139027"><ele>2792.4</ele><time>2024-07-02T20:22:50Z</time></trkpt>
<trkpt lat="38.904274" lon="-120.139066"><ele>2792.2</ele><time>2024-07-02T20:23:04Z</time></trkpt>
<trkpt lat="38.904431" lon="-120.138600"><ele>2798.8</ele><time>2024-07-02T20:24:46Z</time></trkpt>
<trkpt lat="38.904548" lon="-120.138519"><ele>2800.2</ele><time>2024-07-02T20:24:57Z</time></trkpt>
<trkpt lat="38.904884" lon="-120.137615"><ele>2813.4</ele><time>2024-07-02T20:26:47Z</time></trkpt>
<trkpt lat="38.904896" lon="-120.137710"><ele>2814.6</ele><time>2024-07-02T20:26:56Z</time></trkpt>
<trkpt lat="38.904851" lon="-120.136239"><ele>2831.0</ele><time>2024-07-02T20:29:13Z</time></trkpt>
<trkpt lat="38.904791" lon="-120.135893"><ele>2837.4</ele><time>2024-07-02T20:30:15Z</time></trkpt>
<trkpt lat="38.904841" lon="-120.135579"><ele>2841.0</ele><time>2024-07-02T20:30:46Z</time></trkpt>
<trkpt lat="38.904906" lon="-120.135643"><ele>2842.8</ele><time>2024-07-02T20:30:59Z</time></trkpt>
<trkpt lat="38.904976" lon="-120.135354"><ele>2849.4</ele><time>2024-07-02T20:32:17Z</time></trkpt>
<trkpt lat="38.905133" lon="-120.134997"><ele>2852.0</ele><time>2024-07-02T20:32:48Z</time></trkpt>
<trkpt lat="38.905741" lon="-120.134949"><ele>2855.8</ele><time>2024-07-02T20:34:23Z</time></trkpt>
<trkpt lat="38.906009" lon="-120.134998"><ele>2856.0</ele><time>2024-07-02T20:35:02Z</time></trkpt>
<trkpt lat="38.906172" lon="-120.134598"><ele>2859.0</ele><time>2024-07-02T20:36:29Z</time></trkpt>
<trkpt lat="38.906282" lon="-120.134552"><ele>2858.6</ele><time>2024-07-02T20:36:48Z</time></trkpt>
<trkpt lat="38.906254" lon="-120.134616"><ele>2860.0</ele><time>2024-07-02T20:38:39Z</time></trkpt>
<trkpt lat="38.906296" lon="-120.134650"><ele>2859.8</ele><time>2024-07-02T20:39:00Z</time></trkpt>
<trkpt lat="38.906252" lon="-120.134605"><ele>2859.6</ele><time>2024-07-02T20:40:43Z</time></trkpt>
<trkpt lat="38.906315" lon="-120.134593"><ele>2859.2</ele><time>2024-07-02T20:41:01Z</time></trkpt>
<trkpt lat="38.906190" lon="-120.134598"><ele>2860.2</ele><time>2024-07-02T20:42:50Z</time></trkpt>
<trkpt lat="38.906291" lon="-120.134561"><ele>2860.2</ele><time>2024-07-02T20:43:02Z</time></trkpt>
<trkpt lat="38.906222" lon="-120.134614"><ele>2860.8</ele><time>2024-07-02T20:44:58Z</time></trkpt>
<trkpt lat="38.906311" lon="-120.134643"><ele>2861.0</ele><time>2024-07-02T20:47:06Z</time></trkpt>
<trkpt lat="38.906178" lon="-120.134560"><ele>2861.4</ele><time>2024-07-02T20:48:51Z</time></trkpt>
<trkpt lat="38.906369" lon="-120.134654"><ele>2863.0</ele><time>2024-07-02T20:52:52Z</time></trkpt>
<trkpt lat="38.906178" lon="-120.134517"><ele>2864.2</ele><time>2024-07-02T20:54:51Z</time></trkpt>
<trkpt lat="38.906242" lon="-120.134594"><ele>2862.0</ele><time>2024-07-02T20:56:46Z</time></trkpt>
<trkpt lat="38.906205" lon="-120.134642"><ele>2861.6</ele><time>2024-07-02T20:56:52Z</time></trkpt>
<trkpt lat="38.906243" lon="-120.134559"><ele>2861.4</ele><time>2024-07-02T20:57:01Z</time></trkpt>
<trkpt lat="38.906303" lon="-120.134697"><ele>2863.8</ele><time>2024-07-02T20:58:50Z</time></trkpt>
<trkpt lat="38.906374" lon="-120.134689"><ele>2863.4</ele><time>2024-07-02T20:58:57Z</time></trkpt>
<trkpt lat="38.906219" lon="-120.134577"><ele>2863.2</ele><time>2024-07-02T21:00:52Z</time></trkpt>
<trkpt lat="38.906219" lon="-120.134623"><ele>2863.0</ele><time>2024-07-02T21:00:56Z</time></trkpt>
<trkpt lat="38.906238" lon="-120.134562"><ele>2862.6</ele><time>2024-07-02T21:01:04Z</time></trkpt>
<trkpt lat="38.906269" lon="-120.134653"><ele>2862.8</ele><time>2024-07-02T21:02:52Z</time></trkpt>
<trkpt lat="38.906231" lon="-120.134578"><ele>2862.4</ele><time>2024-07-02T21:02:58Z</time></trkpt>
<trkpt lat="38.906226" lon="-120.134651"><ele>2862.6</ele><time>2024-07-02T21:04:47Z</time></trkpt>
<trkpt lat="38.906323" lon="-120.134613"><ele>2862.8</ele><time>2024-07-02T21:04:51Z</time></trkpt>
<trkpt lat="38.906230" lon="-120.134592"><ele>2864.6</ele><time>2024-07-02T21:09:05Z</time></trkpt>
<trkpt lat="38.906288" lon="-120.134693"><ele>2863.4</ele><time>2024-07-02T21:10:51Z</time></trkpt>
<trkpt lat="38.906234" lon="-120.134631"><ele>2863.2</ele><time>2024-07-02T21:10:58Z</time></trkpt>
<trkpt lat="38.906299" lon="-120.134567"><ele>2863.0</ele><time>2024-07-02T21:13:06Z</time></trkpt>
<trkpt lat="38.906183" lon="-120.134527"><ele>2862.2</ele><time>2024-07-02T21:14:51Z</time></trkpt>
<trkpt lat="38.906273" lon="-120.134534"><ele>2861.8</ele><time>2024-07-02T21:15:26Z</time></trkpt>
<trkpt lat="38.906323" lon="-120.134625"><ele>2864.0</ele><time>2024-07-02T21:16:55Z</time></trkpt>
<trkpt lat="38.906200" lon="-120.134565"><ele>2863.0</ele><time>2024-07-02T21:18:49Z</time></trkpt>
<trkpt lat="38.906432" lon="-120.134773"><ele>2859.8</ele><time>2024-07-02T21:20:47Z</time></trkpt>
<trkpt lat="38.906946" lon="-120.134480"><ele>2856.8</ele><time>2024-07-02T21:21:44Z</time></trkpt>
<trkpt lat="38.907549" lon="-120.134396"><ele>2853.0</ele><time>2024-07-02T21:22:30Z</time></trkpt>
<trkpt lat="38.907894" lon="-120.134164"><ele>2849.8</ele><time>2024-07-02T21:22:50Z</time></trkpt>
<trkpt lat="38.907843" lon="-120.134344"><ele>2848.0</ele><time>2024-07-02T21:22:57Z</time></trkpt>
<trkpt lat="38.907927" lon="-120.134361"><ele>2847.0</ele><time>2024-07-02T21:23:04Z</time></trkpt>
<trkpt lat="38.908394" lon="-120.134159"><ele>2842.8</ele><time>2024-07-02T21:23:36Z</time></trkpt>
<trkpt lat="38.908995" lon="-120.133767"><ele>2832.8</ele><time>2024-07-02T21:24:49Z</time></trkpt>
<trkpt lat="38.909100" lon="-120.133844"><ele>2829.2</ele><time>2024-07-02T21:25:18Z</time></trkpt>
<trkpt lat="38.909836" lon="-120.133717"><ele>2818.0</ele><time>2024-07-02T21:26:38Z</time></trkpt>
<trkpt lat="38.909923" lon="-120.133753"><ele>2815.8</ele><time>2024-07-02T21:26:51Z</time></trkpt>
<trkpt lat="38.911252" lon="-120.132933"><ele>2806.0</ele><time>2024-07-02T21:28:47Z</time></trkpt>
<trkpt lat="38.911179" lon="-120.133118"><ele>2805.8</ele><time>2024-07-02T21:28:48Z</time></trkpt>
<trkpt lat="38.911293" lon="-120.133117"><ele>2802.6</ele><time>2024-07-02T21:28:58Z</time></trkpt>
<trkpt lat="38.911398" lon="-120.133220"><ele>2799.4</ele><time>2024-07-02T21:29:18Z</time></trkpt>
<trkpt lat="38.911277" lon="-120.133823"><ele>2792.4</ele><time>2024-07-02T21:30:24Z</time></trkpt>
<trkpt lat="38.910916" lon="-120.134085"><ele>2790.4</ele><time>2024-07-02T21:31:07Z</time></trkpt>
<trkpt lat="38.910485" lon="-120.134654"><ele>2781.4</ele><time>2024-07-02T21:32:16Z</time></trkpt>
<trkpt lat="38.910296" lon="-120.134783"><ele>2780.2</ele><time>2024-07-02T21:33:04Z</time></trkpt>
<trkpt lat="38.910273" lon="-120.135289"><ele>2761.6</ele><time>2024-07-02T21:35:27Z</time></trkpt>
<trkpt lat="38.910309" lon="-120.135508"><ele>2759.6</ele><time>2024-07-02T21:35:48Z</time></trkpt>
<trkpt lat="38.910524" lon="-120.135597"><ele>2756.2</ele><time>2024-07-02T21:36:11Z</time></trkpt>
<trkpt lat="38.910826" lon="-120.135514"><ele>2752.8</ele><time>2024-07-02T21:36:46Z</time></trkpt>
<trkpt lat="38.910840" lon="-120.135634"><ele>2751.6</ele><time>2024-07-02T21:36:52Z</time></trkpt>
<trkpt lat="38.910604" lon="-120.135784"><ele>2746.0</ele><time>2024-07-02T21:37:29Z</time></trkpt>
<trkpt lat="38.911547" lon="-120.136191"><ele>2734.4</ele><time>2024-07-02T21:39:09Z</time></trkpt>
<trkpt lat="38.911563" lon="-120.136296"><ele>2732.2</ele><time>2024-07-02T21:39:20Z</time></trkpt>
<trkpt lat="38.911827" lon="-120.136374"><ele>2728.0</ele><time>2024-07-02T21:39:47Z</time></trkpt>
<trkpt lat="38.911784" lon="-120.136494"><ele>2726.6</ele><time>2024-07-02T21:39:54Z</time></trkpt>
<trkpt lat="38.911639" lon="-120.136533"><ele>2724.4</ele><time>2024-07-02T21:40:09Z</time></trkpt>
<trkpt lat="38.911924" lon="-120.136612"><ele>2718.8</ele><time>2024-07-02T21:40:36Z</time></trkpt>
<trkpt lat="38.916509" lon="-120.141269"><ele>2604.8</ele><time>2024-07-02T21:57:20Z</time></trkpt>
<trkpt lat="38.916680" lon="-120.141612"><ele>2604.2</ele><time>2024-07-02T21:57:34Z</time></trkpt>
<trkpt lat="38.917271" lon="-120.142383"><ele>2601.2</ele><time>2024-07-02T21:57:54Z</time></trkpt>
<trkpt lat="38.917178" lon="-120.142342"><ele>2600.0</ele><time>2024-07-02T21:58:06Z</time></trkpt>
<trkpt lat="38.917109" lon="-120.142412"><ele>2599.2</ele><time>2024-07-02T21:58:15Z</time></trkpt>
<trkpt lat="38.917290" lon="-120.142637"><ele>2598.8</ele><time>2024-07-02T21:58:19Z</time></trkpt>
<trkpt lat="38.917187" lon="-120.142545"><ele>2597.6</ele><time>2024-07-02T21:58:24Z</time></trkpt>
<trkpt lat="38.917222" lon="-120.142639"><ele>2596.0</ele><time>2024-07-02T21:58:38Z</time></trkpt>
<trkpt lat="38.917290" lon="-120.142637"><ele>2596.2</ele><time>2024-07-02T21:58:44Z</time></trkpt>
<trkpt lat="38.917312" lon="-120.142932"><ele>2593.6</ele><time>2024-07-02T21:59:02Z</time></trkpt>
<trkpt lat="38.917472" lon="-120.143229"><ele>2593.2</ele><time>2024-07-02T21:59:16Z</time></trkpt>
<trkpt lat="38.918195" lon="-120.144033"><ele>2587.6</ele><time>2024-07-02T22:00:58Z</time></trkpt>
<trkpt lat="38.918232" lon="-120.144523"><ele>2587.6</ele><time>2024-07-02T22:02:10Z</time></trkpt>
<trkpt lat="38.918156" lon="-120.144731"><ele>2586.2</ele><time>2024-07-02T22:02:56Z</time></trkpt>
<trkpt lat="38.917948" lon="-120.144987"><ele>2584.2</ele><time>2024-07-02T22:03:30Z</time></trkpt>
<trkpt lat="38.917593" lon="-120.145204"><ele>2581.4</ele><time>2024-07-02T22:04:02Z</time></trkpt>
<trkpt lat="38.917512" lon="-120.145385"><ele>2580.0</ele><time>2024-07-02T22:04:16Z</time></trkpt>
<trkpt lat="38.917225" lon="-120.145611"><ele>2577.2</ele><time>2024-07-02T22:04:47Z</time></trkpt>
<trkpt lat="38.917160" lon="-120.145741"><ele>2576.6</ele><time>2024-07-02T22:04:54Z</time></trkpt>
<trkpt lat="38.917079" lon="-120.145694"><ele>2576.2</ele><time>2024-07-02T22:05:04Z</time></trkpt>
<trkpt lat="38.916385" lon="-120.145832"><ele>2572.6</ele><time>2024-07-02T22:05:56Z</time></trkpt>
<trkpt lat="38.915873" lon="-120.145723"><ele>2568.8</ele><time>2024-07-02T22:06:49Z</time></trkpt>
<trkpt lat="38.915815" lon="-120.145895"><ele>2567.8</ele><time>2024-07-02T22:07:05Z</time></trkpt>
<trkpt lat="38.915973" lon="-120.146196"><ele>2566.6</ele><time>2024-07-02T22:07:26Z</time></trkpt>
<trkpt lat="38.916524" lon="-120.146601"><ele>2564.2</ele><time>2024-07-02T22:08:10Z</time></trkpt>
<trkpt lat="38.917389" lon="-120.146936"><ele>2556.2</ele><time>2024-07-02T22:09:19Z</time></trkpt>
<trkpt lat="38.917273" lon="-120.147135"><ele>2555.6</ele><time>2024-07-02T22:09:25Z</time></trkpt>
<trkpt lat="38.917453" lon="-120.147174"><ele>2554.2</ele><time>2024-07-02T22:09:39Z</time></trkpt>
<trkpt lat="38.917615" lon="-120.147402"><ele>2553.6</ele><time>2024-07-02T22:09:55Z</time></trkpt>
<trkpt lat="38.917743" lon="-120.147372"><ele>2552.0</ele><time>2024-07-02T22:10:07Z</time></trkpt>
<trkpt lat="38.917906" lon="-120.147489"><ele>2551.0</ele><time>2024-07-02T22:10:12Z</time></trkpt>
<trkpt lat="38.918791" lon="-120.148268"><ele>2541.2</ele><time>2024-07-02T22:11:51Z</time></trkpt>
<trkpt lat="38.918821" lon="-120.148220"><ele>2541.4</ele><time>2024-07-02T22:11:53Z</time></trkpt>
<trkpt lat="38.918990" lon="-120.148399"><ele>2541.4</ele><time>2024-07-02T22:12:26Z</time></trkpt>
<trkpt lat="38.919138" lon="-120.148409"><ele>2541.2</ele><time>2024-07-02T22:13:56Z</time></trkpt>
<trkpt lat="38.920129" lon="-120.149963"><ele>2538.0</ele><time>2024-07-02T22:16:18Z</time></trkpt>
<trkpt lat="38.920301" lon="-120.150127"><ele>2538.2</ele><time>2024-07-02T22:16:39Z</time></trkpt>
<trkpt lat="38.920435" lon="-120.150082"><ele>2540.0</ele><time>2024-07-02T22:16:53Z</time></trkpt>
<trkpt lat="38.920488" lon="-120.149959"><ele>2540.6</ele><time>2024-07-02T22:17:03Z</time></trkpt>
<trkpt lat="38.920711" lon="-120.149929"><ele>2541.0</ele><time>2024-07-02T22:17:19Z</time></trkpt>
<trkpt lat="38.920929" lon="-120.150143"><ele>2543.0</ele><time>2024-07-02T22:18:05Z</time></trkpt>
<trkpt lat="38.921544" lon="-120.150295"><ele>2539.8</ele><time>2024-07-02T22:19:06Z</time></trkpt>
<trkpt lat="38.921903" lon="-120.151053"><ele>2539.8</ele><time>2024-07-02T22:20:20Z</time></trkpt>
<trkpt lat="38.921918" lon="-120.151409"><ele>2536.4</ele><time>2024-07-02T22:20:47Z</time></trkpt>
<trkpt lat="38.921787" lon="-120.151562"><ele>2535.6</ele><time>2024-07-02T22:21:02Z</time></trkpt>
<trkpt lat="38.921293" lon="-120.152729"><ele>2529.0</ele><time>2024-07-02T22:23:01Z</time></trkpt>
<trkpt lat="38.921309" lon="-120.153108"><ele>2531.8</ele><time>2024-07-02T22:23:36Z</time></trkpt>
<trkpt lat="38.921404" lon="-120.153535"><ele>2530.8</ele><time>2024-07-02T22:24:34Z</time></trkpt>
<trkpt lat="38.921531" lon="-120.153768"><ele>2530.2</ele><time>2024-07-02T22:24:53Z</time></trkpt>
<trkpt lat="38.922650" lon="-120.154332"><ele>2530.4</ele><time>2024-07-02T22:26:54Z</time></trkpt>
<trkpt lat="38.922689" lon="-120.154470"><ele>2530.0</ele><time>2024-07-02T22:27:07Z</time></trkpt>
<trkpt lat="38.923561" lon="-120.155173"><ele>2530.4</ele><time>2024-07-02T22:28:48Z</time></trkpt>
<trkpt lat="38.923707" lon="-120.155151"><ele>2531.4</ele><time>2024-07-02T22:28:59Z</time></trkpt>
<trkpt lat="38.923656" lon="-120.155164"><ele>2531.8</ele><time>2024-07-02T22:29:07Z</time></trkpt>
<trkpt lat="38.923834" lon="-120.155281"><ele>2530.6</ele><time>2024-07-02T22:29:40Z</time></trkpt>
<trkpt lat="38.923909" lon="-120.155250"><ele>2529.6</ele><time>2024-07-02T22:29:54Z</time></trkpt>
<trkpt lat="38.924047" lon="-120.155384"><ele>2529.0</ele><time>2024-07-02T22:30:48Z</time></trkpt>
<trkpt lat="38.924129" lon="-120.155276"><ele>2528.4</ele><time>2024-07-02T22:30:55Z</time></trkpt>
<trkpt lat="38.924251" lon="-120.156082"><ele>2529.6</ele><time>2024-07-02T22:32:28Z</time></trkpt>
<trkpt lat="38.924552" lon="-120.156403"><ele>2533.2</ele><time>2024-07-02T22:33:07Z</time></trkpt>
<trkpt lat="38.925035" lon="-120.156234"><ele>2534.4</ele><time>2024-07-02T22:33:42Z</time></trkpt>
<trkpt lat="38.925687" lon="-120.156176"><ele>2540.4</ele><time>2024-07-02T22:34:58Z</time></trkpt>
<trkpt lat="38.926259" lon="-120.155948"><ele>2541.4</ele><time>2024-07-02T22:36:16Z</time></trkpt>
<trkpt lat="38.926657" lon="-120.155670"><ele>2537.4</ele><time>2024-07-02T22:36:46Z</time></trkpt>
<trkpt lat="38.926892" lon="-120.155599"><ele>2537.0</ele><time>2024-07-02T22:36:52Z</time></trkpt>
<trkpt lat="38.926983" lon="-120.155448"><ele>2535.8</ele><time>2024-07-02T22:37:07Z</time></trkpt>
<trkpt lat="38.927413" lon="-120.155160"><ele>2529.4</ele><time>2024-07-02T22:37:54Z</time></trkpt>
<trkpt lat="38.927986" lon="-120.154642"><ele>2519.6</ele><time>2024-07-02T22:39:02Z</time></trkpt>
<trkpt lat="38.928126" lon="-120.154709"><ele>2518.6</ele><time>2024-07-02T22:39:18Z</time></trkpt>
<trkpt lat="38.928845" lon="-120.154194"><ele>2507.6</ele><time>2024-07-02T22:40:42Z</time></trkpt>
<trkpt lat="38.929278" lon="-120.154096"><ele>2506.2</ele><time>2024-07-02T22:40:54Z</time></trkpt>
<trkpt lat="38.929168" lon="-120.154101"><ele>2505.8</ele><time>2024-07-02T22:41:00Z</time></trkpt>
<trkpt lat="38.929251" lon="-120.154086"><ele>2505.2</ele><time>2024-07-02T22:41:05Z</time></trkpt>
<trkpt lat="38.929355" lon="-120.153499"><ele>2499.2</ele><time>2024-07-02T22:42:04Z</time></trkpt>
<trkpt lat="38.929610" lon="-120.153065"><ele>2495.8</ele><time>2024-07-02T22:42:32Z</time></trkpt>
<trkpt lat="38.929764" lon="-120.152660"><ele>2493.0</ele><time>2024-07-02T22:42:58Z</time></trkpt>
<trkpt lat="38.929988" lon="-120.152370"><ele>2489.4</ele><time>2024-07-02T22:43:25Z</time></trkpt>
<trkpt lat="38.930248" lon="-120.152112"><ele>2486.0</ele><time>2024-07-02T22:43:51Z</time></trkpt>
<trkpt lat="38.930554" lon="-120.151971"><ele>2480.6</ele><time>2024-07-02T22:44:35Z</time></trkpt>
<trkpt lat="38.930597" lon="-120.152050"><ele>2480.4</ele><time>2024-07-02T22:44:52Z</time></trkpt>
<trkpt lat="38.930511" lon="-120.152176"><ele>2480.8</ele><time>2024-07-02T22:45:01Z</time></trkpt>
<trkpt lat="38.930766" lon="-120.152228"><ele>2481.4</ele><time>2024-07-02T22:45:14Z</time></trkpt>
<trkpt lat="38.930991" lon="-120.151998"><ele>2481.2</ele><time>2024-07-02T22:45:45Z</time></trkpt>
<trkpt lat="38.931083" lon="-120.152088"><ele>2481.4</ele><time>2024-07-02T22:45:51Z</time></trkpt>
<trkpt lat="38.931261" lon="-120.152085"><ele>2481.0</ele><time>2024-07-02T22:46:08Z</time></trkpt>
<trkpt lat="38.931707" lon="-120.151816"><ele>2480.2</ele><time>2024-07-02T22:47:21Z</time></trkpt>
<trkpt lat="38.932279" lon="-120.151589"><ele>2476.6</ele><time>2024-07-02T22:47:51Z</time></trkpt>
<trkpt lat="38.932249" lon="-120.151634"><ele>2475.6</ele><time>2024-07-02T22:47:57Z</time></trkpt>
<trkpt lat="38.932204" lon="-120.151443"><ele>2474.8</ele><time>2024-07-02T22:48:02Z</time></trkpt>
<trkpt lat="38.932239" lon="-120.151316"><ele>2472.6</ele><time>2024-07-02T22:48:16Z</time></trkpt>
<trkpt lat="38.932950" lon="-120.150154"><ele>2454.4</ele><time>2024-07-02T22:50:07Z</time></trkpt>
<trkpt lat="38.933064" lon="-120.149787"><ele>2451.2</ele><time>2024-07-02T22:50:29Z</time></trkpt>
<trkpt lat="38.933262" lon="-120.149605"><ele>2446.8</ele><time>2024-07-02T22:50:53Z</time></trkpt>
<trkpt lat="38.933531" lon="-120.149533"><ele>2443.2</ele><time>2024-07-02T22:51:47Z</time></trkpt>
<trkpt lat="38.933715" lon="-120.149711"><ele>2443.0</ele><time>2024-07-02T22:52:06Z</time></trkpt>
<trkpt lat="38.933818" lon="-120.150165"><ele>2441.6</ele><time>2024-07-02T22:52:57Z</time></trkpt>
<trkpt lat="38.933798" lon="-120.150760"><ele>2439.8</ele><time>2024-07-02T22:53:49Z</time></trkpt>
<trkpt lat="38.933905" lon="-120.150880"><ele>2439.2</ele><time>2024-07-02T22:53:52Z</time></trkpt>
<trkpt lat="38.933777" lon="-120.150859"><ele>2439.6</ele><time>2024-07-02T22:54:00Z</time></trkpt>
<trkpt lat="38.933710" lon="-120.151725"><ele>2439.0</ele><time>2024-07-02T22:55:00Z</time></trkpt>
<trkpt lat="38.934093" lon="-120.152909"><ele>2434.0</ele><time>2024-07-02T22:56:45Z</time></trkpt>
<trkpt lat="38.934266" lon="-120.153277"><ele>2432.8</ele><time>2024-07-02T22:56:55Z</time></trkpt>
<trkpt lat="38.934176" lon="-120.153256"><ele>2431.8</ele><time>2024-07-02T22:56:59Z</time></trkpt>
<trkpt lat="38.934238" lon="-120.153276"><ele>2431.6</ele><time>2024-07-02T22:57:01Z</time></trkpt>
<trkpt lat="38.934155" lon="-120.153281"><ele>2431.6</ele><time>2024-07-02T22:57:03Z</time></trkpt>
<trkpt lat="38.934130" lon="-120.153375"><ele>2431.4</ele><time>2024-07-02T22:57:08Z</time></trkpt>
<trkpt lat="38.934335" lon="-120.153987"><ele>2429.6</ele><time>2024-07-02T22:58:16Z</time></trkpt>
<trkpt lat="38.934400" lon="-120.154443"><ele>2428.6</ele><time>2024-07-02T22:58:52Z</time></trkpt>
<trkpt lat="38.934347" lon="-120.154484"><ele>2428.6</ele><time>2024-07-02T22:58:54Z</time></trkpt>
<trkpt lat="38.934083" lon="-120.154399"><ele>2428.2</ele><time>2024-07-02T22:58:59Z</time></trkpt>
<trkpt lat="38.934684" lon="-120.154541"><ele>2424.6</ele><time>2024-07-02T23:00:54Z</time></trkpt>
<trkpt lat="38.934716" lon="-120.154643"><ele>2424.4</ele><time>2024-07-02T23:01:01Z</time></trkpt>
<trkpt lat="38.934677" lon="-120.154646"><ele>2424.4</ele><time>2024-07-02T23:01:03Z</time></trkpt>
<trkpt lat="38.934884" lon="-120.154723"><ele>2424.8</ele><time>2024-07-02T23:03:01Z</time></trkpt>
<trkpt lat="38.934843" lon="-120.154604"><ele>2424.6</ele><time>2024-07-02T23:03:04Z</time></trkpt>
<trkpt lat="38.934736" lon="-120.154538"><ele>2424.8</ele><time>2024-07-02T23:04:55Z</time></trkpt>
<trkpt lat="38.934754" lon="-120.154475"><ele>2424.6</ele><time>2024-07-02T23:04:57Z</time></trkpt>
<trkpt lat="38.934634" lon="-120.154585"><ele>2425.4</ele><time>2024-07-02T23:07:03Z</time></trkpt>
<trkpt lat="38.935298" lon="-120.154675"><ele>2420.8</ele><time>2024-07-02T23:08:54Z</time></trkpt>
<trkpt lat="38.935587" lon="-120.154841"><ele>2421.4</ele><time>2024-07-02T23:09:20Z</time></trkpt>
<trkpt lat="38.935888" lon="-120.154924"><ele>2418.0</ele><time>2024-07-02T23:10:18Z</time></trkpt>
<trkpt lat="38.936069" lon="-120.155110"><ele>2417.4</ele><time>2024-07-02T23:10:34Z</time></trkpt>
<trkpt lat="38.936614" lon="-120.155182"><ele>2411.4</ele><time>2024-07-02T23:11:11Z</time></trkpt>
<trkpt lat="38.936798" lon="-120.155396"><ele>2408.6</ele><time>2024-07-02T23:11:25Z</time></trkpt>
<trkpt lat="38.937228" lon="-120.155670"><ele>2406.0</ele><time>2024-07-02T23:11:59Z</time></trkpt>
<trkpt lat="38.937322" lon="-120.155868"><ele>2403.8</ele><time>2024-07-02T23:12:13Z</time></trkpt>
<trkpt lat="38.937628" lon="-120.156096"><ele>2400.6</ele><time>2024-07-02T23:12:39Z</time></trkpt>
<trkpt lat="38.937453" lon="-120.156004"><ele>2401.0</ele><time>2024-07-02T23:12:52Z</time></trkpt>
<trkpt lat="38.937572" lon="-120.156680"><ele>2399.0</ele><time>2024-07-02T23:13:33Z</time></trkpt>
<trkpt lat="38.937762" lon="-120.156927"><ele>2398.6</ele><time>2024-07-02T23:14:21Z</time></trkpt>
<trkpt lat="38.938076" lon="-120.157073"><ele>2398.6</ele><time>2024-07-02T23:15:04Z</time></trkpt>
<trkpt lat="38.939346" lon="-120.157026"><ele>2403.6</ele><time>2024-07-02T23:16:55Z</time></trkpt>
<trkpt lat="38.939414" lon="-120.157098"><ele>2404.6</ele><time>2024-07-02T23:17:06Z</time></trkpt>
<trkpt lat="38.939456" lon="-120.156823"><ele>2405.2</ele><time>2024-07-02T23:17:21Z</time></trkpt>
<trkpt lat="38.939196" lon="-120.155978"><ele>2408.2</ele><time>2024-07-02T23:18:48Z</time></trkpt>
<trkpt lat="38.939220" lon="-120.155839"><ele>2408.4</ele><time>2024-07-02T23:18:57Z</time></trkpt>
<trkpt lat="38.939539" lon="-120.155267"><ele>2411.2</ele><time>2024-07-02T23:20:25Z</time></trkpt>
<trkpt lat="38.939741" lon="-120.155127"><ele>2413.2</ele><time>2024-07-02T23:20:49Z</time></trkpt>
<trkpt lat="38.939738" lon="-120.155196"><ele>2413.2</ele><time>2024-07-02T23:20:51Z</time></trkpt>
<trkpt lat="38.939922" lon="-120.155131"><ele>2414.0</ele><time>2024-07-02T23:21:05Z</time></trkpt>
<trkpt lat="38.940563" lon="-120.155391"><ele>2422.4</ele><time>2024-07-02T23:22:50Z</time></trkpt>
<trkpt lat="38.940575" lon="-120.155281"><ele>2422.6</ele><time>2024-07-02T23:22:55Z</time></trkpt>
<trkpt lat="38.940527" lon="-120.155248"><ele>2423.2</ele><time>2024-07-02T23:23:04Z</time></trkpt>
<trkpt lat="38.941107" lon="-120.155869"><ele>2428.2</ele><time>2024-07-02T23:24:48Z</time></trkpt>
<trkpt lat="38.941343" lon="-120.157367"><ele>2435.2</ele><time>2024-07-02T23:26:57Z</time></trkpt>
<trkpt lat="38.941730" lon="-120.157753"><ele>2439.2</ele><time>2024-07-02T23:28:29Z</time></trkpt>
<trkpt lat="38.941852" lon="-120.157999"><ele>2440.4</ele><time>2024-07-02T23:28:53Z</time></trkpt>
<trkpt lat="38.941801" lon="-120.157981"><ele>2440.8</ele><time>2024-07-02T23:28:59Z</time></trkpt>
<trkpt lat="38.941993" lon="-120.158203"><ele>2444.6</ele><time>2024-07-02T23:29:53Z</time></trkpt>
<trkpt lat="38.942444" lon="-120.158517"><ele>2449.8</ele><time>2024-07-02T23:30:50Z</time></trkpt>
<trkpt lat="38.942452" lon="-120.158625"><ele>2449.6</ele><time>2024-07-02T23:30:57Z</time></trkpt>
<trkpt lat="38.942533" lon="-120.158697"><ele>2450.6</ele><time>2024-07-02T23:31:08Z</time></trkpt>
<trkpt lat="38.942931" lon="-120.158778"><ele>2455.8</ele><time>2024-07-02T23:32:50Z</time></trkpt>
<trkpt lat="38.942926" lon="-120.158571"><ele>2455.8</ele><time>2024-07-02T23:33:08Z</time></trkpt>
<trkpt lat="38.943906" lon="-120.158243"><ele>2465.0</ele><time>2024-07-02T23:35:06Z</time></trkpt>
<trkpt lat="38.944165" lon="-120.158563"><ele>2467.0</ele><time>2024-07-02T23:35:49Z</time></trkpt>
<trkpt lat="38.944488" lon="-120.158799"><ele>2466.8</ele><time>2024-07-02T23:36:19Z</time></trkpt>
<trkpt lat="38.944651" lon="-120.159193"><ele>2467.6</ele><time>2024-07-02T23:36:50Z</time></trkpt>
<trkpt lat="38.945088" lon="-120.159326"><ele>2469.4</ele><time>2024-07-02T23:38:54Z</time></trkpt>
<trkpt lat="38.945115" lon="-120.159361"><ele>2469.4</ele><time>2024-07-02T23:38:56Z</time></trkpt>
<trkpt lat="38.944948" lon="-120.159261"><ele>2469.6</ele><time>2024-07-02T23:39:08Z</time></trkpt>
<trkpt lat="38.945499" lon="-120.159714"><ele>2469.8</ele><time>2024-07-02T23:40:51Z</time></trkpt>
<trkpt lat="38.945503" lon="-120.159811"><ele>2471.0</ele><time>2024-07-02T23:40:59Z</time></trkpt>
<trkpt lat="38.946508" lon="-120.160611"><ele>2478.6</ele><time>2024-07-02T23:42:52Z</time></trkpt>
<trkpt lat="38.946565" lon="-120.160785"><ele>2479.0</ele><time>2024-07-02T23:43:04Z</time></trkpt>
<trkpt lat="38.947472" lon="-120.161827"><ele>2486.4</ele><time>2024-07-02T23:45:02Z</time></trkpt>
<trkpt lat="38.947709" lon="-120.162206"><ele>2487.4</ele><time>2024-07-02T23:45:44Z</time></trkpt>
<trkpt lat="38.947728" lon="-120.162519"><ele>2486.0</ele><time>2024-07-02T23:46:14Z</time></trkpt>
<trkpt lat="38.948054" lon="-120.162875"><ele>2482.4</ele><time>2024-07-02T23:46:48Z</time></trkpt>
<trkpt lat="38.948121" lon="-120.162871"><ele>2482.4</ele><time>2024-07-02T23:46:52Z</time></trkpt>
<trkpt lat="38.948341" lon="-120.163167"><ele>2480.4</ele><time>2024-07-02T23:47:13Z</time></trkpt>
<trkpt lat="38.948579" lon="-120.163321"><ele>2478.4</ele><time>2024-07-02T23:47:51Z</time></trkpt>
<trkpt lat="38.948692" lon="-120.163622"><ele>2472.4</ele><time>2024-07-02T23:48:21Z</time></trkpt>
<trkpt lat="38.949036" lon="-120.163724"><ele>2468.2</ele><time>2024-07-02T23:48:50Z</time></trkpt>
<trkpt lat="38.949007" lon="-120.163865"><ele>2467.4</ele><time>2024-07-02T23:48:55Z</time></trkpt>
<trkpt lat="38.948917" lon="-120.163915"><ele>2465.8</ele><time>2024-07-02T23:49:00Z</time></trkpt>
<trkpt lat="38.949220" lon="-120.164279"><ele>2460.2</ele><time>2024-07-02T23:49:26Z</time></trkpt>
<trkpt lat="38.949235" lon="-120.164393"><ele>2459.0</ele><time>2024-07-02T23:49:32Z</time></trkpt>
<trkpt lat="38.949419" lon="-120.164549"><ele>2449.8</ele><time>2024-07-02T23:50:22Z</time></trkpt>
<trkpt lat="38.949613" lon="-120.165076"><ele>2442.8</ele><time>2024-07-02T23:51:02Z</time></trkpt>
<trkpt lat="38.950101" lon="-120.165454"><ele>2433.0</ele><time>2024-07-02T23:51:55Z</time></trkpt>
<trkpt lat="38.950642" lon="-120.166064"><ele>2428.0</ele><time>2024-07-02T23:52:50Z</time></trkpt>
<trkpt lat="38.950778" lon="-120.166089"><ele>2427.4</ele><time>2024-07-02T23:53:02Z</time></trkpt>
<trkpt lat="38.951297" lon="-120.166514"><ele>2422.4</ele><time>2024-07-02T23:53:45Z</time></trkpt>
<trkpt lat="38.951785" lon="-120.167069"><ele>2417.0</ele><time>2024-07-02T23:54:48Z</time></trkpt>
<trkpt lat="38.951677" lon="-120.167092"><ele>2416.8</ele><time>2024-07-02T23:54:49Z</time></trkpt>
<trkpt lat="38.951714" lon="-120.167246"><ele>2415.2</ele><time>2024-07-02T23:55:02Z</time></trkpt>
<trkpt lat="38.952083" lon="-120.167574"><ele>2412.6</ele><time>2024-07-02T23:55:37Z</time></trkpt>
<trkpt lat="38.952885" lon="-120.167844"><ele>2409.4</ele><time>2024-07-02T23:56:48Z</time></trkpt>
<trkpt lat="38.952883" lon="-120.167753"><ele>2408.4</ele><time>2024-07-02T23:56:54Z</time></trkpt>
<trkpt lat="38.952951" lon="-120.167838"><ele>2407.4</ele><time>2024-07-02T23:57:01Z</time></trkpt>
<trkpt lat="38.954113" lon="-120.167832"><ele>2402.8</ele><time>2024-07-02T23:58:50Z</time></trkpt>
<trkpt lat="38.954219" lon="-120.167706"><ele>2403.4</ele><time>2024-07-02T23:59:00Z</time></trkpt>
<trkpt lat="38.954738" lon="-120.167687"><ele>2400.6</ele><time>2024-07-02T23:59:43Z</time></trkpt>
<trkpt lat="38.955245" lon="-120.167706"><ele>2395.4</ele><time>2024-07-03T00:00:33Z</time></trkpt>
<trkpt lat="38.955436" lon="-120.167819"><ele>2392.6</ele><time>2024-07-03T00:00:53Z</time></trkpt>
<trkpt lat="38.955571" lon="-120.167769"><ele>2391.0</ele><time>2024-07-03T00:01:05Z</time></trkpt>
<trkpt lat="38.955740" lon="-120.168159"><ele>2386.2</ele><time>2024-07-03T00:01:37Z</time></trkpt>
<trkpt lat="38.956314" lon="-120.168524"><ele>2380.8</ele><time>2024-07-03T00:02:33Z</time></trkpt>
<trkpt lat="38.956424" lon="-120.168793"><ele>2379.4</ele><time>2024-07-03T00:02:56Z</time></trkpt>
<trkpt lat="38.956622" lon="-120.168995"><ele>2378.4</ele><time>2024-07-03T00:03:13Z</time></trkpt>
<trkpt lat="38.957003" lon="-120.169802"><ele>2375.2</ele><time>2024-07-03T00:04:11Z</time></trkpt>
<trkpt lat="38.957299" lon="-120.169954"><ele>2375.8</ele><time>2024-07-03T00:04:53Z</time></trkpt>
<trkpt lat="38.957332" lon="-120.169857"><ele>2375.6</ele><time>2024-07-03T00:04:57Z</time></trkpt>
<trkpt lat="38.957645" lon="-120.170358"><ele>2377.0</ele><time>2024-07-03T00:05:59Z</time></trkpt>
<trkpt lat="38.957894" lon="-120.170374"><ele>2377.6</ele><time>2024-07-03T00:06:17Z</time></trkpt>
<trkpt lat="38.958457" lon="-120.170603"><ele>2376.6</ele><time>2024-07-03T00:06:48Z</time></trkpt>
<trkpt lat="38.958561" lon="-120.170187"><ele>2376.6</ele><time>2024-07-03T00:06:50Z</time></trkpt>
<trkpt lat="38.958513" lon="-120.170217"><ele>2376.6</ele><time>2024-07-03T00:06:53Z</time></trkpt>
<trkpt lat="38.958562" lon="-120.170291"><ele>2376.8</ele><time>2024-07-03T00:06:58Z</time></trkpt>
<trkpt lat="38.959028" lon="-120.170611"><ele>2375.4</ele><time>2024-07-03T00:07:27Z</time></trkpt>
<trkpt lat="38.959347" lon="-120.170431"><ele>2373.2</ele><time>2024-07-03T00:07:53Z</time></trkpt>
<trkpt lat="38.959984" lon="-120.170433"><ele>2364.2</ele><time>2024-07-03T00:08:53Z</time></trkpt>
<trkpt lat="38.959848" lon="-120.170790"><ele>2362.4</ele><time>2024-07-03T00:09:03Z</time></trkpt>
<trkpt lat="38.960023" lon="-120.170822"><ele>2357.6</ele><time>2024-07-03T00:09:27Z</time></trkpt>
<trkpt lat="38.960658" lon="-120.171295"><ele>2346.8</ele><time>2024-07-03T00:10:35Z</time></trkpt>
<trkpt lat="38.960789" lon="-120.171012"><ele>2343.4</ele><time>2024-07-03T00:11:07Z</time></trkpt>
<trkpt lat="38.961010" lon="-120.171009"><ele>2341.4</ele><time>2024-07-03T00:11:46Z</time></trkpt>
<trkpt lat="38.961166" lon="-120.170749"><ele>2339.2</ele><time>2024-07-03T00:12:06Z</time></trkpt>
<trkpt lat="38.961544" lon="-120.171094"><ele>2333.8</ele><time>2024-07-03T00:12:53Z</time></trkpt>
<trkpt lat="38.961774" lon="-120.170908"><ele>2330.6</ele><time>2024-07-03T00:13:16Z</time></trkpt>
<trkpt lat="38.962537" lon="-120.170649"><ele>2331.8</ele><time>2024-07-03T00:14:50Z</time></trkpt>
<trkpt lat="38.962457" lon="-120.170644"><ele>2331.8</ele><time>2024-07-03T00:14:51Z</time></trkpt>
<trkpt lat="38.962597" lon="-120.170659"><ele>2331.6</ele><time>2024-07-03T00:14:57Z</time></trkpt>
<trkpt lat="38.963588" lon="-120.171459"><ele>2334.0</ele><time>2024-07-03T00:16:59Z</time></trkpt>
<trkpt lat="38.964497" lon="-120.171637"><ele>2333.8</ele><time>2024-07-03T00:18:58Z</time></trkpt>
<trkpt lat="38.965431" lon="-120.171315"><ele>2342.0</ele><time>2024-07-03T00:20:54Z</time></trkpt>
<trkpt lat="38.965428" lon="-120.171371"><ele>2342.6</ele><time>2024-07-03T00:20:57Z</time></trkpt>
<trkpt lat="38.965543" lon="-120.171334"><ele>2344.2</ele><time>2024-07-03T00:21:07Z</time></trkpt>
<trkpt lat="38.966087" lon="-120.171947"><ele>2351.2</ele><time>2024-07-03T00:22:52Z</time></trkpt>
<trkpt lat="38.966245" lon="-120.171911"><ele>2351.8</ele><time>2024-07-03T00:23:05Z</time></trkpt>
<trkpt lat="38.966655" lon="-120.172076"><ele>2356.2</ele><time>2024-07-03T00:24:08Z</time></trkpt>
<trkpt lat="38.967015" lon="-120.172123"><ele>2359.8</ele><time>2024-07-03T00:24:50Z</time></trkpt>
<trkpt lat="38.967070" lon="-120.172025"><ele>2360.4</ele><time>2024-07-03T00:24:54Z</time></trkpt>
<trkpt lat="38.967168" lon="-120.172090"><ele>2361.6</ele><time>2024-07-03T00:25:05Z</time></trkpt>
<trkpt lat="38.967280" lon="-120.172039"><ele>2364.8</ele><time>2024-07-03T00:25:34Z</time></trkpt>
<trkpt lat="38.967369" lon="-120.171905"><ele>2368.2</ele><time>2024-07-03T00:26:02Z</time></trkpt>
<trkpt lat="38.967296" lon="-120.171700"><ele>2370.4</ele><time>2024-07-03T00:26:24Z</time></trkpt>
<trkpt lat="38.967370" lon="-120.171482"><ele>2373.6</ele><time>2024-07-03T00:26:52Z</time></trkpt>
<trkpt lat="38.967513" lon="-120.171577"><ele>2374.6</ele><time>2024-07-03T00:27:07Z</time></trkpt>
<trkpt lat="38.967941" lon="-120.170998"><ele>2384.2</ele><time>2024-07-03T00:28:49Z</time></trkpt>
<trkpt lat="38.967906" lon="-120.170955"><ele>2384.6</ele><time>2024-07-03T00:28:50Z</time></trkpt>
<trkpt lat="38.967977" lon="-120.170942"><ele>2385.6</ele><time>2024-07-03T00:29:01Z</time></trkpt>
<trkpt lat="38.968302" lon="-120.170514"><ele>2391.8</ele><time>2024-07-03T00:30:24Z</time></trkpt>
<trkpt lat="38.968497" lon="-120.170228"><ele>2394.4</ele><time>2024-07-03T00:30:51Z</time></trkpt>
<trkpt lat="38.968462" lon="-120.170208"><ele>2394.6</ele><time>2024-07-03T00:30:54Z</time></trkpt>
<trkpt lat="38.968499" lon="-120.170120"><ele>2395.4</ele><time>2024-07-03T00:31:00Z</time></trkpt>
<trkpt lat="38.968666" lon="-120.169970"><ele>2398.6</ele><time>2024-07-03T00:31:48Z</time></trkpt>
<trkpt lat="38.968981" lon="-120.169828"><ele>2401.6</ele><time>2024-07-03T00:32:32Z</time></trkpt>
<trkpt lat="38.969251" lon="-120.169824"><ele>2400.8</ele><time>2024-07-03T00:32:52Z</time></trkpt>
<trkpt lat="38.969450" lon="-120.169559"><ele>2404.0</ele><time>2024-07-03T00:33:31Z</time></trkpt>
<trkpt lat="38.969733" lon="-120.169362"><ele>2406.0</ele><time>2024-07-03T00:34:17Z</time></trkpt>
<trkpt lat="38.969823" lon="-120.169661"><ele>2409.4</ele><time>2024-07-03T00:35:09Z</time></trkpt>
<trkpt lat="38.970039" lon="-120.169871"><ele>2411.8</ele><time>2024-07-03T00:35:44Z</time></trkpt>
<trkpt lat="38.970276" lon="-120.169992"><ele>2412.2</ele><time>2024-07-03T00:37:02Z</time></trkpt>
<trkpt lat="38.970474" lon="-120.169559"><ele>2413.2</ele><time>2024-07-03T00:38:50Z</time></trkpt>
<trkpt lat="38.970187" lon="-120.169765"><ele>2413.4</ele><time>2024-07-03T00:38:59Z</time></trkpt>
<trkpt lat="38.970183" lon="-120.169827"><ele>2414.0</ele><time>2024-07-03T00:39:04Z</time></trkpt>
<trkpt lat="38.970247" lon="-120.169813"><ele>2413.4</ele><time>2024-07-03T00:39:24Z</time></trkpt>
<trkpt lat="38.970140" lon="-120.169886"><ele>2413.6</ele><time>2024-07-03T00:40:34Z</time></trkpt>
<trkpt lat="38.970243" lon="-120.169868"><ele>2413.8</ele><time>2024-07-03T00:41:04Z</time></trkpt>
<trkpt lat="38.970272" lon="-120.169739"><ele>2412.2</ele><time>2024-07-03T00:42:53Z</time></trkpt>
<trkpt lat="38.970237" lon="-120.169868"><ele>2412.6</ele><time>2024-07-03T00:43:03Z</time></trkpt>
</trkseg></trk>
</gpx>
