<?xml version="1.0" encoding="UTF-8"?>
<gpx version="1.1" creator="Eric Sichak trip reports" xmlns="http://www.topografix.com/GPX/1/1">
<metadata><name>Morning Hike</name><time>2024-07-04T13:36:42Z</time></metadata>
<trk><name>Morning Hike</name><type>hike</type><trkseg>
<trkpt lat="39.173100" lon="-120.277213"><ele>2216.8</ele><time>2024-07-04T13:36:42Z</time></trkpt>
<trkpt lat="39.172955" lon="-120.277356"><ele>2216.6</ele><time>2024-07-04T13:36:47Z</time></trkpt>
<trkpt lat="39.173058" lon="-120.277297"><ele>2216.8</ele><time>2024-07-04T13:36:57Z</time></trkpt>
<trkpt lat="39.173145" lon="-120.277398"><ele>2217.4</ele><time>2024-07-04T13:37:08Z</time></trkpt>
<trkpt lat="39.173259" lon="-120.278094"><ele>2217.6</ele><time>2024-07-04T13:37:54Z</time></trkpt>
<trkpt lat="39.173219" lon="-120.278679"><ele>2220.4</ele><time>2024-07-04T13:38:29Z</time></trkpt>
<trkpt lat="39.173583" lon="-120.279404"><ele>2224.4</ele><time>2024-07-04T13:39:39Z</time></trkpt>
<trkpt lat="39.174035" lon="-120.279962"><ele>2224.0</ele><time>2024-07-04T13:40:15Z</time></trkpt>
<trkpt lat="39.173989" lon="-120.280067"><ele>2224.6</ele><time>2024-07-04T13:40:24Z</time></trkpt>
<trkpt lat="39.174230" lon="-120.280229"><ele>2224.6</ele><time>2024-07-04T13:40:39Z</time></trkpt>
<trkpt lat="39.174753" lon="-120.280831"><ele>2229.2</ele><time>2024-07-04T13:41:53Z</time></trkpt>
<trkpt lat="39.175206" lon="-120.281152"><ele>2230.4</ele><time>2024-07-04T13:42:21Z</time></trkpt>
<trkpt lat="39.175580" lon="-120.281494"><ele>2237.2</ele><time>2024-07-04T13:43:13Z</time></trkpt>
<trkpt lat="39.176187" lon="-120.281839"><ele>2245.2</ele><time>2024-07-04T13:44:09Z</time></trkpt>
<trkpt lat="39.176346" lon="-120.281854"><ele>2248.0</ele><time>2024-07-04T13:44:31Z</time></trkpt>
<trkpt lat="39.177352" lon="-120.282528"><ele>2264.2</ele><time>2024-07-04T13:46:34Z</time></trkpt>
<trkpt lat="39.177411" lon="-120.282738"><ele>2265.0</ele><time>2024-07-04T13:46:49Z</time></trkpt>
<trkpt lat="39.177457" lon="-120.282714"><ele>2265.6</ele><time>2024-07-04T13:46:54Z</time></trkpt>
<trkpt lat="39.177975" lon="-120.283196"><ele>2274.0</ele><time>2024-07-04T13:47:54Z</time></trkpt>
<trkpt lat="39.178176" lon="-120.283461"><ele>2280.4</ele><time>2024-07-04T13:48:32Z</time></trkpt>
<trkpt lat="39.178454" lon="-120.283463"><ele>2280.0</ele><time>2024-07-04T13:49:00Z</time></trkpt>
<trkpt lat="39.178455" lon="-120.283702"><ele>2281.6</ele><time>2024-07-04T13:49:25Z</time></trkpt>
<trkpt lat="39.178579" lon="-120.283959"><ele>2284.8</ele><time>2024-07-04T13:49:51Z</time></trkpt>
<trkpt lat="39.178970" lon="-120.284160"><ele>2293.4</ele><time>2024-07-04T13:50:42Z</time></trkpt>
<trkpt lat="39.179014" lon="-120.284113"><ele>2294.0</ele><time>2024-07-04T13:50:47Z</time></trkpt>
<trkpt lat="39.179184" lon="-120.284186"><ele>2296.2</ele><time>2024-07-04T13:51:01Z</time></trkpt>
<trkpt lat="39.179443" lon="-120.284039"><ele>2299.6</ele><time>2024-07-04T13:51:21Z</time></trkpt>
<trkpt lat="39.179548" lon="-120.283948"><ele>2312.0</ele><time>2024-07-04T13:52:39Z</time></trkpt>
<trkpt lat="39.179892" lon="-120.284078"><ele>2314.2</ele><time>2024-07-04T13:53:03Z</time></trkpt>
<trkpt lat="39.180258" lon="-120.284118"><ele>2322.0</ele><time>2024-07-04T13:53:59Z</time></trkpt>
<trkpt lat="39.180526" lon="-120.284015"><ele>2326.2</ele><time>2024-07-04T13:54:31Z</time></trkpt>
<trkpt lat="39.180811" lon="-120.284177"><ele>2327.2</ele><time>2024-07-04T13:54:50Z</time></trkpt>
<trkpt lat="39.180862" lon="-120.284353"><ele>2327.6</ele><time>2024-07-04T13:55:01Z</time></trkpt>
<trkpt lat="39.180767" lon="-120.284754"><ele>2328.4</ele><time>2024-07-04T13:55:29Z</time></trkpt>
<trkpt lat="39.180424" lon="-120.285017"><ele>2327.6</ele><time>2024-07-04T13:56:07Z</time></trkpt>
<trkpt lat="39.180485" lon="-120.285205"><ele>2328.4</ele><time>2024-07-04T13:56:21Z</time></trkpt>
<trkpt lat="39.180701" lon="-120.285242"><ele>2331.2</ele><time>2024-07-04T13:56:41Z</time></trkpt>
<trkpt lat="39.180624" lon="-120.285377"><ele>2331.4</ele><time>2024-07-04T13:56:45Z</time></trkpt>
<trkpt lat="39.180676" lon="-120.285330"><ele>2331.6</ele><time>2024-07-04T13:56:46Z</time></trkpt>
<trkpt lat="39.180735" lon="-120.285459"><ele>2333.8</ele><time>2024-07-04T13:56:58Z</time></trkpt>
<trkpt lat="39.181082" lon="-120.285685"><ele>2340.6</ele><time>2024-07-04T13:57:49Z</time></trkpt>
<trkpt lat="39.181056" lon="-120.285825"><ele>2342.4</ele><time>2024-07-04T13:58:03Z</time></trkpt>
<trkpt lat="39.181216" lon="-120.286015"><ele>2348.0</ele><time>2024-07-04T13:58:43Z</time></trkpt>
<trkpt lat="39.181181" lon="-120.286108"><ele>2350.0</ele><time>2024-07-04T13:58:55Z</time></trkpt>
<trkpt lat="39.181263" lon="-120.286254"><ele>2348.6</ele><time>2024-07-04T13:59:13Z</time></trkpt>
<trkpt lat="39.181514" lon="-120.286528"><ele>2361.0</ele><time>2024-07-04T14:00:42Z</time></trkpt>
<trkpt lat="39.181487" lon="-120.286577"><ele>2362.2</ele><time>2024-07-04T14:00:50Z</time></trkpt>
<trkpt lat="39.181555" lon="-120.286572"><ele>2363.8</ele><time>2024-07-04T14:00:58Z</time></trkpt>
<trkpt lat="39.181575" lon="-120.287162"><ele>2375.6</ele><time>2024-07-04T14:02:19Z</time></trkpt>
<trkpt lat="39.181844" lon="-120.287360"><ele>2381.0</ele><time>2024-07-04T14:02:59Z</time></trkpt>
<trkpt lat="39.180817" lon="-120.287826"><ele>2388.8</ele><time>2024-07-04T14:04:57Z</time></trkpt>
<trkpt lat="39.181836" lon="-120.288347"><ele>2398.4</ele><time>2024-07-04T14:06:43Z</time></trkpt>
<trkpt lat="39.182747" lon="-120.289202"><ele>2409.4</ele><time>2024-07-04T14:08:43Z</time></trkpt>
<trkpt lat="39.182893" lon="-120.289500"><ele>2412.4</ele><time>2024-07-04T14:09:02Z</time></trkpt>
<trkpt lat="39.183169" lon="-120.289529"><ele>2413.4</ele><time>2024-07-04T14:09:15Z</time></trkpt>
<trkpt lat="39.183806" lon="-120.289067"><ele>2419.2</ele><time>2024-07-04T14:10:43Z</time></trkpt>
<trkpt lat="39.183971" lon="-120.289044"><ele>2419.8</ele><time>2024-07-04T14:10:51Z</time></trkpt>
<trkpt lat="39.184275" lon="-120.288771"><ele>2418.8</ele><time>2024-07-04T14:11:15Z</time></trkpt>
<trkpt lat="39.184889" lon="-120.288415"><ele>2417.2</ele><time>2024-07-04T14:12:19Z</time></trkpt>
<trkpt lat="39.185073" lon="-120.288171"><ele>2418.2</ele><time>2024-07-04T14:12:44Z</time></trkpt>
<trkpt lat="39.185244" lon="-120.288106"><ele>2418.8</ele><time>2024-07-04T14:12:56Z</time></trkpt>
<trkpt lat="39.185308" lon="-120.287672"><ele>2423.4</ele><time>2024-07-04T14:13:29Z</time></trkpt>
<trkpt lat="39.185481" lon="-120.287534"><ele>2425.8</ele><time>2024-07-04T14:13:55Z</time></trkpt>
<trkpt lat="39.185522" lon="-120.287400"><ele>2429.0</ele><time>2024-07-04T14:14:19Z</time></trkpt>
<trkpt lat="39.185781" lon="-120.287076"><ele>2433.2</ele><time>2024-07-04T14:14:53Z</time></trkpt>
<trkpt lat="39.186736" lon="-120.286738"><ele>2444.8</ele><time>2024-07-04T14:16:43Z</time></trkpt>
<trkpt lat="39.186803" lon="-120.286838"><ele>2446.0</ele><time>2024-07-04T14:16:53Z</time></trkpt>
<trkpt lat="39.187447" lon="-120.286735"><ele>2446.6</ele><time>2024-07-04T14:17:47Z</time></trkpt>
<trkpt lat="39.187793" lon="-120.286752"><ele>2451.8</ele><time>2024-07-04T14:18:39Z</time></trkpt>
<trkpt lat="39.187791" lon="-120.286653"><ele>2452.8</ele><time>2024-07-04T14:18:44Z</time></trkpt>
<trkpt lat="39.187876" lon="-120.286650"><ele>2453.2</ele><time>2024-07-04T14:18:45Z</time></trkpt>
<trkpt lat="39.188089" lon="-120.286857"><ele>2454.8</ele><time>2024-07-04T14:19:02Z</time></trkpt>
<trkpt lat="39.188884" lon="-120.285889"><ele>2468.2</ele><time>2024-07-04T14:20:44Z</time></trkpt>
<trkpt lat="39.188848" lon="-120.285894"><ele>2468.6</ele><time>2024-07-04T14:20:46Z</time></trkpt>
<trkpt lat="39.188852" lon="-120.285665"><ele>2469.4</ele><time>2024-07-04T14:20:53Z</time></trkpt>
<trkpt lat="39.188891" lon="-120.285577"><ele>2470.8</ele><time>2024-07-04T14:21:02Z</time></trkpt>
<trkpt lat="39.189107" lon="-120.285562"><ele>2475.0</ele><time>2024-07-04T14:21:47Z</time></trkpt>
<trkpt lat="39.189439" lon="-120.285615"><ele>2473.4</ele><time>2024-07-04T14:22:11Z</time></trkpt>
<trkpt lat="39.189547" lon="-120.285538"><ele>2474.0</ele><time>2024-07-04T14:22:23Z</time></trkpt>
<trkpt lat="39.189994" lon="-120.285662"><ele>2475.4</ele><time>2024-07-04T14:22:57Z</time></trkpt>
<trkpt lat="39.190350" lon="-120.285338"><ele>2480.4</ele><time>2024-07-04T14:23:37Z</time></trkpt>
<trkpt lat="39.190292" lon="-120.285559"><ele>2481.4</ele><time>2024-07-04T14:24:11Z</time></trkpt>
<trkpt lat="39.190383" lon="-120.285673"><ele>2482.6</ele><time>2024-07-04T14:24:23Z</time></trkpt>
<trkpt lat="39.190678" lon="-120.285667"><ele>2485.6</ele><time>2024-07-04T14:24:51Z</time></trkpt>
<trkpt lat="39.190974" lon="-120.285762"><ele>2489.0</ele><time>2024-07-04T14:25:21Z</time></trkpt>
<trkpt lat="39.191743" lon="-120.285689"><ele>2497.8</ele><time>2024-07-04T14:26:45Z</time></trkpt>
<trkpt lat="39.191892" lon="-120.285485"><ele>2500.0</ele><time>2024-07-04T14:27:02Z</time></trkpt>
<trkpt lat="39.192345" lon="-120.285775"><ele>2505.0</ele><time>2024-07-04T14:27:57Z</time></trkpt>
<trkpt lat="39.192428" lon="-120.285679"><ele>2506.0</ele><time>2024-07-04T14:28:07Z</time></trkpt>
<trkpt lat="39.192431" lon="-120.285341"><ele>2511.2</ele><time>2024-07-04T14:28:58Z</time></trkpt>
<trkpt lat="39.192813" lon="-120.284475"><ele>2524.0</ele><time>2024-07-04T14:30:47Z</time></trkpt>
<trkpt lat="39.192761" lon="-120.284385"><ele>2525.4</ele><time>2024-07-04T14:30:55Z</time></trkpt>
<trkpt lat="39.192923" lon="-120.284230"><ele>2527.6</ele><time>2024-07-04T14:31:12Z</time></trkpt>
<trkpt lat="39.193076" lon="-120.284191"><ele>2529.8</ele><time>2024-07-04T14:31:28Z</time></trkpt>
<trkpt lat="39.193081" lon="-120.284442"><ele>2531.0</ele><time>2024-07-04T14:32:00Z</time></trkpt>
<trkpt lat="39.193149" lon="-120.284588"><ele>2534.2</ele><time>2024-07-04T14:32:30Z</time></trkpt>
<trkpt lat="39.193303" lon="-120.284686"><ele>2536.2</ele><time>2024-07-04T14:32:41Z</time></trkpt>
<trkpt lat="39.193254" lon="-120.284764"><ele>2536.4</ele><time>2024-07-04T14:32:45Z</time></trkpt>
<trkpt lat="39.193467" lon="-120.283908"><ele>2546.0</ele><time>2024-07-04T14:34:19Z</time></trkpt>
<trkpt lat="39.193575" lon="-120.283401"><ele>2546.4</ele><time>2024-07-04T14:34:45Z</time></trkpt>
<trkpt lat="39.193569" lon="-120.283180"><ele>2548.0</ele><time>2024-07-04T14:35:00Z</time></trkpt>
<trkpt lat="39.193801" lon="-120.283007"><ele>2550.0</ele><time>2024-07-04T14:35:25Z</time></trkpt>
<trkpt lat="39.193843" lon="-120.283125"><ele>2551.4</ele><time>2024-07-04T14:35:33Z</time></trkpt>
<trkpt lat="39.193977" lon="-120.283203"><ele>2557.0</ele><time>2024-07-04T14:36:44Z</time></trkpt>
<trkpt lat="39.193913" lon="-120.283272"><ele>2557.0</ele><time>2024-07-04T14:36:51Z</time></trkpt>
<trkpt lat="39.194097" lon="-120.283248"><ele>2562.4</ele><time>2024-07-04T14:37:55Z</time></trkpt>
<trkpt lat="39.194307" lon="-120.283084"><ele>2566.4</ele><time>2024-07-04T14:38:27Z</time></trkpt>
<trkpt lat="39.194420" lon="-120.283510"><ele>2569.6</ele><time>2024-07-04T14:39:00Z</time></trkpt>
<trkpt lat="39.195184" lon="-120.283843"><ele>2580.0</ele><time>2024-07-04T14:40:42Z</time></trkpt>
<trkpt lat="39.195102" lon="-120.283666"><ele>2580.0</ele><time>2024-07-04T14:40:43Z</time></trkpt>
<trkpt lat="39.195308" lon="-120.283405"><ele>2580.8</ele><time>2024-07-04T14:40:58Z</time></trkpt>
<trkpt lat="39.195656" lon="-120.282448"><ele>2588.8</ele><time>2024-07-04T14:42:42Z</time></trkpt>
<trkpt lat="39.195826" lon="-120.282297"><ele>2591.6</ele><time>2024-07-04T14:43:01Z</time></trkpt>
<trkpt lat="39.196391" lon="-120.282296"><ele>2605.4</ele><time>2024-07-04T14:44:41Z</time></trkpt>
<trkpt lat="39.196293" lon="-120.282305"><ele>2606.0</ele><time>2024-07-04T14:44:48Z</time></trkpt>
<trkpt lat="39.196771" lon="-120.282655"><ele>2621.4</ele><time>2024-07-04T14:46:41Z</time></trkpt>
<trkpt lat="39.196835" lon="-120.282789"><ele>2622.6</ele><time>2024-07-04T14:46:56Z</time></trkpt>
<trkpt lat="39.197021" lon="-120.282682"><ele>2620.6</ele><time>2024-07-04T14:48:41Z</time></trkpt>
<trkpt lat="39.196915" lon="-120.282843"><ele>2621.2</ele><time>2024-07-04T14:48:52Z</time></trkpt>
<trkpt lat="39.196756" lon="-120.282741"><ele>2617.2</ele><time>2024-07-04T14:49:21Z</time></trkpt>
<trkpt lat="39.196673" lon="-120.282659"><ele>2606.8</ele><time>2024-07-04T14:49:53Z</time></trkpt>
<trkpt lat="39.196510" lon="-120.282348"><ele>2601.0</ele><time>2024-07-04T14:50:13Z</time></trkpt>
<trkpt lat="39.196003" lon="-120.282173"><ele>2595.2</ele><time>2024-07-04T14:50:42Z</time></trkpt>
<trkpt lat="39.196338" lon="-120.281890"><ele>2594.8</ele><time>2024-07-04T14:51:27Z</time></trkpt>
<trkpt lat="39.196400" lon="-120.281733"><ele>2590.6</ele><time>2024-07-04T14:51:45Z</time></trkpt>
<trkpt lat="39.196609" lon="-120.281712"><ele>2587.4</ele><time>2024-07-04T14:52:01Z</time></trkpt>
<trkpt lat="39.196733" lon="-120.281649"><ele>2579.2</ele><time>2024-07-04T14:52:39Z</time></trkpt>
<trkpt lat="39.197040" lon="-120.281599"><ele>2578.4</ele><time>2024-07-04T14:53:03Z</time></trkpt>
<trkpt lat="39.197263" lon="-120.281604"><ele>2569.8</ele><time>2024-07-04T14:54:44Z</time></trkpt>
<trkpt lat="39.197494" lon="-120.281782"><ele>2570.0</ele><time>2024-07-04T14:55:19Z</time></trkpt>
<trkpt lat="39.198023" lon="-120.281694"><ele>2563.6</ele><time>2024-07-04T14:56:42Z</time></trkpt>
<trkpt lat="39.198035" lon="-120.281773"><ele>2563.4</ele><time>2024-07-04T14:56:43Z</time></trkpt>
<trkpt lat="39.197920" lon="-120.281780"><ele>2562.6</ele><time>2024-07-04T14:56:49Z</time></trkpt>
<trkpt lat="39.197950" lon="-120.281685"><ele>2560.2</ele><time>2024-07-04T14:57:00Z</time></trkpt>
<trkpt lat="39.198114" lon="-120.282107"><ele>2557.6</ele><time>2024-07-04T14:57:43Z</time></trkpt>
<trkpt lat="39.198205" lon="-120.282152"><ele>2556.0</ele><time>2024-07-04T14:57:53Z</time></trkpt>
<trkpt lat="39.198232" lon="-120.281891"><ele>2549.4</ele><time>2024-07-04T14:58:21Z</time></trkpt>
<trkpt lat="39.198151" lon="-120.281801"><ele>2544.8</ele><time>2024-07-04T14:58:42Z</time></trkpt>
<trkpt lat="39.198269" lon="-120.281590"><ele>2544.2</ele><time>2024-07-04T14:58:48Z</time></trkpt>
<trkpt lat="39.198179" lon="-120.281770"><ele>2543.4</ele><time>2024-07-04T14:58:50Z</time></trkpt>
<trkpt lat="39.198142" lon="-120.281600"><ele>2540.8</ele><time>2024-07-04T14:59:02Z</time></trkpt>
<trkpt lat="39.198532" lon="-120.281549"><ele>2534.8</ele><time>2024-07-04T14:59:27Z</time></trkpt>
<trkpt lat="39.198941" lon="-120.281153"><ele>2526.8</ele><time>2024-07-04T15:00:37Z</time></trkpt>
<trkpt lat="39.199073" lon="-120.281107"><ele>2525.8</ele><time>2024-07-04T15:00:44Z</time></trkpt>
<trkpt lat="39.198947" lon="-120.281307"><ele>2525.6</ele><time>2024-07-04T15:00:53Z</time></trkpt>
<trkpt lat="39.199214" lon="-120.281337"><ele>2524.8</ele><time>2024-07-04T15:01:45Z</time></trkpt>
<trkpt lat="39.199330" lon="-120.281281"><ele>2524.2</ele><time>2024-07-04T15:01:55Z</time></trkpt>
<trkpt lat="39.199440" lon="-120.280801"><ele>2521.0</ele><time>2024-07-04T15:02:44Z</time></trkpt>
<trkpt lat="39.199618" lon="-120.280862"><ele>2520.8</ele><time>2024-07-04T15:02:52Z</time></trkpt>
<trkpt lat="39.199557" lon="-120.280924"><ele>2520.8</ele><time>2024-07-04T15:02:57Z</time></trkpt>
<trkpt lat="39.199882" lon="-120.281287"><ele>2527.8</ele><time>2024-07-04T15:04:23Z</time></trkpt>
<trkpt lat="39.199942" lon="-120.281502"><ele>2530.2</ele><time>2024-07-04T15:04:44Z</time></trkpt>
<trkpt lat="39.199877" lon="-120.281700"><ele>2531.0</ele><time>2024-07-04T15:04:50Z</time></trkpt>
<trkpt lat="39.200359" lon="-120.281988"><ele>2538.6</ele><time>2024-07-04T15:05:49Z</time></trkpt>
<trkpt lat="39.200768" lon="-120.282035"><ele>2542.8</ele><time>2024-07-04T15:06:55Z</time></trkpt>
<trkpt lat="39.201614" lon="-120.281628"><ele>2543.8</ele><time>2024-07-04T15:08:43Z</time></trkpt>
<trkpt lat="39.202084" lon="-120.281572"><ele>2547.4</ele><time>2024-07-04T15:09:37Z</time></trkpt>
<trkpt lat="39.202489" lon="-120.281441"><ele>2547.8</ele><time>2024-07-04T15:10:29Z</time></trkpt>
<trkpt lat="39.202846" lon="-120.281245"><ele>2544.6</ele><time>2024-07-04T15:10:44Z</time></trkpt>
<trkpt lat="39.202901" lon="-120.281111"><ele>2543.0</ele><time>2024-07-04T15:10:57Z</time></trkpt>
<trkpt lat="39.203268" lon="-120.280708"><ele>2539.2</ele><time>2024-07-04T15:11:49Z</time></trkpt>
<trkpt lat="39.203398" lon="-120.280473"><ele>2535.4</ele><time>2024-07-04T15:12:05Z</time></trkpt>
<trkpt lat="39.203332" lon="-120.280240"><ele>2531.8</ele><time>2024-07-04T15:12:21Z</time></trkpt>
<trkpt lat="39.203614" lon="-120.280028"><ele>2527.8</ele><time>2024-07-04T15:12:48Z</time></trkpt>
<trkpt lat="39.203556" lon="-120.280103"><ele>2527.6</ele><time>2024-07-04T15:12:50Z</time></trkpt>
<trkpt lat="39.203654" lon="-120.279811"><ele>2523.0</ele><time>2024-07-04T15:13:15Z</time></trkpt>
<trkpt lat="39.203963" lon="-120.279672"><ele>2517.8</ele><time>2024-07-04T15:13:59Z</time></trkpt>
<trkpt lat="39.204009" lon="-120.279335"><ele>2511.2</ele><time>2024-07-04T15:14:48Z</time></trkpt>
<trkpt lat="39.204029" lon="-120.279518"><ele>2509.2</ele><time>2024-07-04T15:14:56Z</time></trkpt>
<trkpt lat="39.204274" lon="-120.279678"><ele>2506.6</ele><time>2024-07-04T15:15:27Z</time></trkpt>
<trkpt lat="39.204279" lon="-120.279278"><ele>2501.6</ele><time>2024-07-04T15:15:51Z</time></trkpt>
<trkpt lat="39.204355" lon="-120.279046"><ele>2497.2</ele><time>2024-07-04T15:16:09Z</time></trkpt>
<trkpt lat="39.204512" lon="-120.279079"><ele>2495.4</ele><time>2024-07-04T15:16:49Z</time></trkpt>
<trkpt lat="39.204465" lon="-120.279217"><ele>2494.8</ele><time>2024-07-04T15:16:55Z</time></trkpt>
<trkpt lat="39.205518" lon="-120.278214"><ele>2483.6</ele><time>2024-07-04T15:18:44Z</time></trkpt>
<trkpt lat="39.205463" lon="-120.278292"><ele>2483.8</ele><time>2024-07-04T15:18:52Z</time></trkpt>
<trkpt lat="39.205738" lon="-120.277881"><ele>2488.4</ele><time>2024-07-04T15:19:29Z</time></trkpt>
<trkpt lat="39.205868" lon="-120.277567"><ele>2491.2</ele><time>2024-07-04T15:20:29Z</time></trkpt>
<trkpt lat="39.205896" lon="-120.277247"><ele>2488.0</ele><time>2024-07-04T15:20:47Z</time></trkpt>
<trkpt lat="39.206084" lon="-120.277047"><ele>2489.0</ele><time>2024-07-04T15:20:59Z</time></trkpt>
<trkpt lat="39.206648" lon="-120.276123"><ele>2500.2</ele><time>2024-07-04T15:22:44Z</time></trkpt>
<trkpt lat="39.206842" lon="-120.276135"><ele>2502.4</ele><time>2024-07-04T15:23:02Z</time></trkpt>
<trkpt lat="39.207250" lon="-120.275906"><ele>2504.0</ele><time>2024-07-04T15:23:43Z</time></trkpt>
<trkpt lat="39.207589" lon="-120.275827"><ele>2507.0</ele><time>2024-07-04T15:24:25Z</time></trkpt>
<trkpt lat="39.208009" lon="-120.275630"><ele>2507.0</ele><time>2024-07-04T15:24:44Z</time></trkpt>
<trkpt lat="39.208086" lon="-120.275638"><ele>2507.6</ele><time>2024-07-04T15:24:52Z</time></trkpt>
<trkpt lat="39.208088" lon="-120.275710"><ele>2508.2</ele><time>2024-07-04T15:24:57Z</time></trkpt>
<trkpt lat="39.209314" lon="-120.275531"><ele>2511.6</ele><time>2024-07-04T15:26:25Z</time></trkpt>
<trkpt lat="39.209879" lon="-120.275192"><ele>2511.0</ele><time>2024-07-04T15:26:43Z</time></trkpt>
<trkpt lat="39.209151" lon="-120.275966"><ele>2511.0</ele><time>2024-07-04T15:26:50Z</time></trkpt>
<trkpt lat="39.209302" lon="-120.275798"><ele>2511.0</ele><time>2024-07-04T15:26:51Z</time></trkpt>
<trkpt lat="39.209161" lon="-120.275961"><ele>2511.6</ele><time>2024-07-04T15:27:02Z</time></trkpt>
<trkpt lat="39.209703" lon="-120.276814"><ele>2503.2</ele><time>2024-07-04T15:28:29Z</time></trkpt>
<trkpt lat="39.209885" lon="-120.276989"><ele>2501.2</ele><time>2024-07-04T15:28:43Z</time></trkpt>
<trkpt lat="39.209945" lon="-120.276470"><ele>2501.0</ele><time>2024-07-04T15:28:47Z</time></trkpt>
<trkpt lat="39.209988" lon="-120.276408"><ele>2501.0</ele><time>2024-07-04T15:28:48Z</time></trkpt>
<trkpt lat="39.210071" lon="-120.276461"><ele>2501.0</ele><time>2024-07-04T15:28:50Z</time></trkpt>
<trkpt lat="39.210059" lon="-120.276349"><ele>2500.6</ele><time>2024-07-04T15:28:59Z</time></trkpt>
<trkpt lat="39.210117" lon="-120.276410"><ele>2500.8</ele><time>2024-07-04T15:29:06Z</time></trkpt>
<trkpt lat="39.209819" lon="-120.275395"><ele>2501.8</ele><time>2024-07-04T15:29:26Z</time></trkpt>
<trkpt lat="39.209980" lon="-120.276011"><ele>2502.2</ele><time>2024-07-04T15:30:46Z</time></trkpt>
<trkpt lat="39.209825" lon="-120.276116"><ele>2502.4</ele><time>2024-07-04T15:30:55Z</time></trkpt>
<trkpt lat="39.209930" lon="-120.276203"><ele>2503.4</ele><time>2024-07-04T15:32:46Z</time></trkpt>
<trkpt lat="39.209888" lon="-120.276049"><ele>2504.2</ele><time>2024-07-04T15:34:43Z</time></trkpt>
<trkpt lat="39.209850" lon="-120.276102"><ele>2504.6</ele><time>2024-07-04T15:34:51Z</time></trkpt>
<trkpt lat="39.209903" lon="-120.276053"><ele>2504.6</ele><time>2024-07-04T15:34:57Z</time></trkpt>
<trkpt lat="39.210205" lon="-120.276464"><ele>2505.2</ele><time>2024-07-04T15:36:44Z</time></trkpt>
<trkpt lat="39.210098" lon="-120.276505"><ele>2504.0</ele><time>2024-07-04T15:36:59Z</time></trkpt>
<trkpt lat="39.210257" lon="-120.276570"><ele>2503.2</ele><time>2024-07-04T15:38:43Z</time></trkpt>
<trkpt lat="39.210310" lon="-120.276464"><ele>2502.8</ele><time>2024-07-04T15:38:51Z</time></trkpt>
<trkpt lat="39.210647" lon="-120.276413"><ele>2498.0</ele><time>2024-07-04T15:39:21Z</time></trkpt>
<trkpt lat="39.211383" lon="-120.276689"><ele>2491.0</ele><time>2024-07-04T15:40:42Z</time></trkpt>
<trkpt lat="39.211649" lon="-120.276522"><ele>2489.4</ele><time>2024-07-04T15:40:59Z</time></trkpt>
<trkpt lat="39.212655" lon="-120.276696"><ele>2482.8</ele><time>2024-07-04T15:42:23Z</time></trkpt>
<trkpt lat="39.212926" lon="-120.276832"><ele>2481.4</ele><time>2024-07-04T15:42:42Z</time></trkpt>
<trkpt lat="39.213027" lon="-120.277008"><ele>2480.6</ele><time>2024-07-04T15:42:58Z</time></trkpt>
<trkpt lat="39.213177" lon="-120.276958"><ele>2479.6</ele><time>2024-07-04T15:43:09Z</time></trkpt>
<trkpt lat="39.213540" lon="-120.277006"><ele>2479.6</ele><time>2024-07-04T15:43:37Z</time></trkpt>
<trkpt lat="39.213857" lon="-120.276883"><ele>2475.0</ele><time>2024-07-04T15:44:05Z</time></trkpt>
<trkpt lat="39.214154" lon="-120.276697"><ele>2480.6</ele><time>2024-07-04T15:44:42Z</time></trkpt>
<trkpt lat="39.214088" lon="-120.276609"><ele>2481.0</ele><time>2024-07-04T15:44:48Z</time></trkpt>
<trkpt lat="39.214351" lon="-120.276220"><ele>2478.6</ele><time>2024-07-04T15:45:35Z</time></trkpt>
<trkpt lat="39.214882" lon="-120.276544"><ele>2469.2</ele><time>2024-07-04T15:46:43Z</time></trkpt>
<trkpt lat="39.215028" lon="-120.276883"><ele>2465.6</ele><time>2024-07-04T15:47:49Z</time></trkpt>
<trkpt lat="39.215266" lon="-120.276819"><ele>2462.8</ele><time>2024-07-04T15:48:17Z</time></trkpt>
<trkpt lat="39.215234" lon="-120.277095"><ele>2459.2</ele><time>2024-07-04T15:48:44Z</time></trkpt>
<trkpt lat="39.215654" lon="-120.277016"><ele>2453.8</ele><time>2024-07-04T15:49:41Z</time></trkpt>
<trkpt lat="39.216277" lon="-120.277170"><ele>2446.2</ele><time>2024-07-04T15:50:35Z</time></trkpt>
<trkpt lat="39.216562" lon="-120.277159"><ele>2445.4</ele><time>2024-07-04T15:50:46Z</time></trkpt>
<trkpt lat="39.216520" lon="-120.277217"><ele>2444.4</ele><time>2024-07-04T15:50:54Z</time></trkpt>
<trkpt lat="39.216564" lon="-120.277255"><ele>2444.0</ele><time>2024-07-04T15:50:59Z</time></trkpt>
<trkpt lat="39.217164" lon="-120.277110"><ele>2438.8</ele><time>2024-07-04T15:51:51Z</time></trkpt>
<trkpt lat="39.217638" lon="-120.277168"><ele>2435.6</ele><time>2024-07-04T15:52:43Z</time></trkpt>
<trkpt lat="39.217571" lon="-120.277230"><ele>2435.2</ele><time>2024-07-04T15:52:44Z</time></trkpt>
<trkpt lat="39.217586" lon="-120.277397"><ele>2433.6</ele><time>2024-07-04T15:52:50Z</time></trkpt>
<trkpt lat="39.217673" lon="-120.277384"><ele>2432.8</ele><time>2024-07-04T15:52:54Z</time></trkpt>
<trkpt lat="39.217757" lon="-120.277221"><ele>2430.6</ele><time>2024-07-04T15:53:10Z</time></trkpt>
<trkpt lat="39.218123" lon="-120.277457"><ele>2422.6</ele><time>2024-07-04T15:54:08Z</time></trkpt>
<trkpt lat="39.218508" lon="-120.277543"><ele>2417.2</ele><time>2024-07-04T15:54:38Z</time></trkpt>
<trkpt lat="39.218572" lon="-120.277626"><ele>2416.0</ele><time>2024-07-04T15:54:43Z</time></trkpt>
<trkpt lat="39.219165" lon="-120.277714"><ele>2406.0</ele><time>2024-07-04T15:55:56Z</time></trkpt>
<trkpt lat="39.219579" lon="-120.277617"><ele>2401.4</ele><time>2024-07-04T15:56:42Z</time></trkpt>
<trkpt lat="39.220134" lon="-120.277139"><ele>2400.4</ele><time>2024-07-04T15:57:52Z</time></trkpt>
<trkpt lat="39.220145" lon="-120.276983"><ele>2402.2</ele><time>2024-07-04T15:58:02Z</time></trkpt>
<trkpt lat="39.220203" lon="-120.276935"><ele>2402.4</ele><time>2024-07-04T15:58:10Z</time></trkpt>
<trkpt lat="39.220384" lon="-120.276997"><ele>2400.2</ele><time>2024-07-04T15:58:26Z</time></trkpt>
<trkpt lat="39.220748" lon="-120.276915"><ele>2398.4</ele><time>2024-07-04T15:58:46Z</time></trkpt>
<trkpt lat="39.220835" lon="-120.277005"><ele>2398.4</ele><time>2024-07-04T15:58:52Z</time></trkpt>
<trkpt lat="39.221233" lon="-120.277117"><ele>2394.0</ele><time>2024-07-04T15:59:31Z</time></trkpt>
<trkpt lat="39.222048" lon="-120.277277"><ele>2386.8</ele><time>2024-07-04T16:00:42Z</time></trkpt>
<trkpt lat="39.222000" lon="-120.277291"><ele>2386.8</ele><time>2024-07-04T16:00:44Z</time></trkpt>
<trkpt lat="39.222134" lon="-120.277370"><ele>2387.4</ele><time>2024-07-04T16:00:55Z</time></trkpt>
<trkpt lat="39.222506" lon="-120.277360"><ele>2383.6</ele><time>2024-07-04T16:01:46Z</time></trkpt>
<trkpt lat="39.222343" lon="-120.277034"><ele>2379.2</ele><time>2024-07-04T16:02:12Z</time></trkpt>
<trkpt lat="39.222191" lon="-120.277033"><ele>2377.2</ele><time>2024-07-04T16:02:36Z</time></trkpt>
<trkpt lat="39.222143" lon="-120.277136"><ele>2376.4</ele><time>2024-07-04T16:02:43Z</time></trkpt>
<trkpt lat="39.222419" lon="-120.277072"><ele>2372.8</ele><time>2024-07-04T16:03:00Z</time></trkpt>
<trkpt lat="39.222632" lon="-120.277261"><ele>2368.2</ele><time>2024-07-04T16:03:38Z</time></trkpt>
<trkpt lat="39.222692" lon="-120.276861"><ele>2365.0</ele><time>2024-07-04T16:04:14Z</time></trkpt>
<trkpt lat="39.222845" lon="-120.277019"><ele>2361.8</ele><time>2024-07-04T16:04:40Z</time></trkpt>
<trkpt lat="39.222848" lon="-120.277107"><ele>2361.0</ele><time>2024-07-04T16:04:48Z</time></trkpt>
<trkpt lat="39.223483" lon="-120.277487"><ele>2354.6</ele><time>2024-07-04T16:05:46Z</time></trkpt>
<trkpt lat="39.223588" lon="-120.277452"><ele>2352.6</ele><time>2024-07-04T16:05:56Z</time></trkpt>
<trkpt lat="39.223631" lon="-120.277213"><ele>2350.2</ele><time>2024-07-04T16:06:22Z</time></trkpt>
<trkpt lat="39.223855" lon="-120.277282"><ele>2347.6</ele><time>2024-07-04T16:06:55Z</time></trkpt>
<trkpt lat="39.223324" lon="-120.276629"><ele>2338.4</ele><time>2024-07-04T16:08:22Z</time></trkpt>
<trkpt lat="39.223167" lon="-120.276518"><ele>2337.6</ele><time>2024-07-04T16:08:36Z</time></trkpt>
<trkpt lat="39.223305" lon="-120.276300"><ele>2334.4</ele><time>2024-07-04T16:08:55Z</time></trkpt>
<trkpt lat="39.224241" lon="-120.276416"><ele>2323.0</ele><time>2024-07-04T16:10:27Z</time></trkpt>
<trkpt lat="39.224495" lon="-120.276610"><ele>2320.4</ele><time>2024-07-04T16:10:49Z</time></trkpt>
<trkpt lat="39.224453" lon="-120.276413"><ele>2318.8</ele><time>2024-07-04T16:11:07Z</time></trkpt>
<trkpt lat="39.224521" lon="-120.276419"><ele>2317.6</ele><time>2024-07-04T16:11:13Z</time></trkpt>
<trkpt lat="39.224808" lon="-120.276629"><ele>2313.6</ele><time>2024-07-04T16:11:41Z</time></trkpt>
<trkpt lat="39.225374" lon="-120.276790"><ele>2306.4</ele><time>2024-07-04T16:12:31Z</time></trkpt>
<trkpt lat="39.225434" lon="-120.276735"><ele>2305.0</ele><time>2024-07-04T16:12:43Z</time></trkpt>
<trkpt lat="39.225353" lon="-120.276664"><ele>2305.2</ele><time>2024-07-04T16:12:49Z</time></trkpt>
<trkpt lat="39.225432" lon="-120.276713"><ele>2303.8</ele><time>2024-07-04T16:12:59Z</time></trkpt>
<trkpt lat="39.225479" lon="-120.276517"><ele>2300.6</ele><time>2024-07-04T16:13:46Z</time></trkpt>
<trkpt lat="39.225444" lon="-120.276344"><ele>2298.4</ele><time>2024-07-04T16:14:51Z</time></trkpt>
<trkpt lat="39.225524" lon="-120.276419"><ele>2299.6</ele><time>2024-07-04T16:14:59Z</time></trkpt>
<trkpt lat="39.225555" lon="-120.276625"><ele>2299.4</ele><time>2024-07-04T16:16:47Z</time></trkpt>
<trkpt lat="39.225631" lon="-120.276518"><ele>2299.4</ele><time>2024-07-04T16:16:50Z</time></trkpt>
<trkpt lat="39.225629" lon="-120.276351"><ele>2299.4</ele><time>2024-07-04T16:16:52Z</time></trkpt>
<trkpt lat="39.225544" lon="-120.276498"><ele>2300.0</ele><time>2024-07-04T16:18:42Z</time></trkpt>
<trkpt lat="39.225452" lon="-120.276470"><ele>2300.0</ele><time>2024-07-04T16:18:47Z</time></trkpt>
<trkpt lat="39.225517" lon="-120.276464"><ele>2300.4</ele><time>2024-07-04T16:18:54Z</time></trkpt>
<trkpt lat="39.225473" lon="-120.276463"><ele>2300.6</ele><time>2024-07-04T16:19:03Z</time></trkpt>
<trkpt lat="39.225496" lon="-120.276602"><ele>2300.8</ele><time>2024-07-04T16:20:45Z</time></trkpt>
<trkpt lat="39.225460" lon="-120.276541"><ele>2301.2</ele><time>2024-07-04T16:20:52Z</time></trkpt>
<trkpt lat="39.225543" lon="-120.276463"><ele>2301.2</ele><time>2024-07-04T16:21:01Z</time></trkpt>
<trkpt lat="39.225597" lon="-120.276662"><ele>2301.6</ele><time>2024-07-04T16:22:45Z</time></trkpt>
<trkpt lat="39.225429" lon="-120.276425"><ele>2301.8</ele><time>2024-07-04T16:22:56Z</time></trkpt>
<trkpt lat="39.225652" lon="-120.276605"><ele>2302.2</ele><time>2024-07-04T16:24:49Z</time></trkpt>
<trkpt lat="39.225528" lon="-120.276570"><ele>2302.4</ele><time>2024-07-04T16:24:52Z</time></trkpt>
<trkpt lat="39.225538" lon="-120.276412"><ele>2302.4</ele><time>2024-07-04T16:24:54Z</time></trkpt>
<trkpt lat="39.225444" lon="-120.276464"><ele>2302.0</ele><time>2024-07-04T16:26:43Z</time></trkpt>
<trkpt lat="39.225488" lon="-120.276431"><ele>2302.0</ele><time>2024-07-04T16:26:49Z</time></trkpt>
<trkpt lat="39.225446" lon="-120.276354"><ele>2302.0</ele><time>2024-07-04T16:26:53Z</time></trkpt>
<trkpt lat="39.225482" lon="-120.276457"><ele>2302.2</ele><time>2024-07-04T16:26:57Z</time></trkpt>
<trkpt lat="39.225546" lon="-120.276397"><ele>2303.2</ele><time>2024-07-04T16:28:55Z</time></trkpt>
<trkpt lat="39.225461" lon="-120.276463"><ele>2303.4</ele><time>2024-07-04T16:30:49Z</time></trkpt>
<trkpt lat="39.225508" lon="-120.276485"><ele>2303.4</ele><time>2024-07-04T16:31:03Z</time></trkpt>
<trkpt lat="39.225748" lon="-120.276251"><ele>2305.0</ele><time>2024-07-04T16:31:34Z</time></trkpt>
<trkpt lat="39.226213" lon="-120.276011"><ele>2312.0</ele><time>2024-07-04T16:32:42Z</time></trkpt>
<trkpt lat="39.226607" lon="-120.276079"><ele>2319.4</ele><time>2024-07-04T16:33:26Z</time></trkpt>
<trkpt lat="39.226832" lon="-120.276242"><ele>2329.2</ele><time>2024-07-04T16:34:30Z</time></trkpt>
<trkpt lat="39.227132" lon="-120.276222"><ele>2331.2</ele><time>2024-07-04T16:34:44Z</time></trkpt>
<trkpt lat="39.228034" lon="-120.276984"><ele>2326.6</ele><time>2024-07-04T16:36:24Z</time></trkpt>
<trkpt lat="39.228305" lon="-120.277110"><ele>2328.2</ele><time>2024-07-04T16:36:43Z</time></trkpt>
<trkpt lat="39.228362" lon="-120.277026"><ele>2329.0</ele><time>2024-07-04T16:36:53Z</time></trkpt>
<trkpt lat="39.228299" lon="-120.276861"><ele>2331.2</ele><time>2024-07-04T16:37:06Z</time></trkpt>
<trkpt lat="39.229073" lon="-120.277194"><ele>2340.2</ele><time>2024-07-04T16:38:38Z</time></trkpt>
<trkpt lat="39.228957" lon="-120.277091"><ele>2343.8</ele><time>2024-07-04T16:39:03Z</time></trkpt>
<trkpt lat="39.229076" lon="-120.277100"><ele>2347.0</ele><time>2024-07-04T16:39:28Z</time></trkpt>
<trkpt lat="39.229027" lon="-120.276858"><ele>2353.6</ele><time>2024-07-04T16:40:08Z</time></trkpt>
<trkpt lat="39.229349" lon="-120.276939"><ele>2355.8</ele><time>2024-07-04T16:40:40Z</time></trkpt>
<trkpt lat="39.229394" lon="-120.277029"><ele>2355.4</ele><time>2024-07-04T16:40:52Z</time></trkpt>
<trkpt lat="39.229751" lon="-120.277223"><ele>2359.0</ele><time>2024-07-04T16:41:22Z</time></trkpt>
<trkpt lat="39.230070" lon="-120.277290"><ele>2363.4</ele><time>2024-07-04T16:42:06Z</time></trkpt>
<trkpt lat="39.230547" lon="-120.276797"><ele>2363.0</ele><time>2024-07-04T16:42:48Z</time></trkpt>
<trkpt lat="39.230622" lon="-120.276832"><ele>2362.2</ele><time>2024-07-04T16:42:55Z</time></trkpt>
<trkpt lat="39.230675" lon="-120.276718"><ele>2362.0</ele><time>2024-07-04T16:43:03Z</time></trkpt>
<trkpt lat="39.230648" lon="-120.276631"><ele>2360.4</ele><time>2024-07-04T16:43:10Z</time></trkpt>
<trkpt lat="39.230778" lon="-120.276560"><ele>2360.2</ele><time>2024-07-04T16:43:26Z</time></trkpt>
<trkpt lat="39.231129" lon="-120.276652"><ele>2362.2</ele><time>2024-07-04T16:44:00Z</time></trkpt>
<trkpt lat="39.231315" lon="-120.277246"><ele>2365.2</ele><time>2024-07-04T16:44:43Z</time></trkpt>
<trkpt lat="39.231264" lon="-120.277313"><ele>2366.2</ele><time>2024-07-04T16:44:50Z</time></trkpt>
<trkpt lat="39.231317" lon="-120.277392"><ele>2366.6</ele><time>2024-07-04T16:44:54Z</time></trkpt>
<trkpt lat="39.231404" lon="-120.278162"><ele>2369.8</ele><time>2024-07-04T16:45:42Z</time></trkpt>
<trkpt lat="39.231681" lon="-120.278120"><ele>2372.6</ele><time>2024-07-04T16:46:22Z</time></trkpt>
<trkpt lat="39.231945" lon="-120.278268"><ele>2374.6</ele><time>2024-07-04T16:46:48Z</time></trkpt>
<trkpt lat="39.232330" lon="-120.278765"><ele>2374.2</ele><time>2024-07-04T16:47:32Z</time></trkpt>
<trkpt lat="39.232949" lon="-120.279335"><ele>2381.0</ele><time>2024-07-04T16:48:38Z</time></trkpt>
<trkpt lat="39.233114" lon="-120.279632"><ele>2384.8</ele><time>2024-07-04T16:49:04Z</time></trkpt>
<trkpt lat="39.233204" lon="-120.280053"><ele>2388.6</ele><time>2024-07-04T16:49:44Z</time></trkpt>
<trkpt lat="39.233523" lon="-120.280301"><ele>2393.0</ele><time>2024-07-04T16:50:28Z</time></trkpt>
<trkpt lat="39.233660" lon="-120.280336"><ele>2395.0</ele><time>2024-07-04T16:50:42Z</time></trkpt>
<trkpt lat="39.233654" lon="-120.280138"><ele>2395.4</ele><time>2024-07-04T16:50:44Z</time></trkpt>
<trkpt lat="39.233885" lon="-120.280378"><ele>2396.4</ele><time>2024-07-04T16:50:54Z</time></trkpt>
<trkpt lat="39.234316" lon="-120.280239"><ele>2400.8</ele><time>2024-07-04T16:51:32Z</time></trkpt>
<trkpt lat="39.234976" lon="-120.279537"><ele>2403.8</ele><time>2024-07-04T16:52:44Z</time></trkpt>
<trkpt lat="39.234876" lon="-120.279389"><ele>2404.8</ele><time>2024-07-04T16:52:50Z</time></trkpt>
<trkpt lat="39.234973" lon="-120.279500"><ele>2405.4</ele><time>2024-07-04T16:52:54Z</time></trkpt>
<trkpt lat="39.235018" lon="-120.279381"><ele>2406.6</ele><time>2024-07-04T16:53:01Z</time></trkpt>
<trkpt lat="39.235317" lon="-120.279170"><ele>2409.8</ele><time>2024-07-04T16:53:32Z</time></trkpt>
<trkpt lat="39.235448" lon="-120.278964"><ele>2412.8</ele><time>2024-07-04T16:54:10Z</time></trkpt>
<trkpt lat="39.235750" lon="-120.278915"><ele>2416.0</ele><time>2024-07-04T16:54:50Z</time></trkpt>
<trkpt lat="39.235788" lon="-120.278975"><ele>2416.0</ele><time>2024-07-04T16:54:51Z</time></trkpt>
<trkpt lat="39.235745" lon="-120.279004"><ele>2415.8</ele><time>2024-07-04T16:54:55Z</time></trkpt>
<trkpt lat="39.235865" lon="-120.279037"><ele>2416.4</ele><time>2024-07-04T16:55:34Z</time></trkpt>
<trkpt lat="39.236124" lon="-120.278936"><ele>2418.6</ele><time>2024-07-04T16:55:58Z</time></trkpt>
<trkpt lat="39.236458" lon="-120.279381"><ele>2417.0</ele><time>2024-07-04T16:56:42Z</time></trkpt>
<trkpt lat="39.236473" lon="-120.279187"><ele>2418.0</ele><time>2024-07-04T16:56:49Z</time></trkpt>
<trkpt lat="39.236605" lon="-120.279332"><ele>2417.8</ele><time>2024-07-04T16:56:55Z</time></trkpt>
<trkpt lat="39.237518" lon="-120.280946"><ele>2420.4</ele><time>2024-07-04T16:59:12Z</time></trkpt>
<trkpt lat="39.237793" lon="-120.281301"><ele>2420.6</ele><time>2024-07-04T16:59:41Z</time></trkpt>
<trkpt lat="39.237901" lon="-120.281205"><ele>2421.8</ele><time>2024-07-04T16:59:51Z</time></trkpt>
<trkpt lat="39.237989" lon="-120.281240"><ele>2422.8</ele><time>2024-07-04T16:59:58Z</time></trkpt>
<trkpt lat="39.238501" lon="-120.281635"><ele>2427.8</ele><time>2024-07-04T17:01:04Z</time></trkpt>
<trkpt lat="39.238782" lon="-120.281942"><ele>2430.2</ele><time>2024-07-04T17:01:30Z</time></trkpt>
<trkpt lat="39.238924" lon="-120.282182"><ele>2431.2</ele><time>2024-07-04T17:01:45Z</time></trkpt>
<trkpt lat="39.238850" lon="-120.282139"><ele>2432.4</ele><time>2024-07-04T17:01:50Z</time></trkpt>
<trkpt lat="39.238812" lon="-120.282014"><ele>2432.8</ele><time>2024-07-04T17:01:53Z</time></trkpt>
<trkpt lat="39.239079" lon="-120.282459"><ele>2434.8</ele><time>2024-07-04T17:02:42Z</time></trkpt>
<trkpt lat="39.238904" lon="-120.282945"><ele>2437.8</ele><time>2024-07-04T17:03:43Z</time></trkpt>
<trkpt lat="39.238741" lon="-120.283059"><ele>2438.8</ele><time>2024-07-04T17:03:49Z</time></trkpt>
<trkpt lat="39.238677" lon="-120.282834"><ele>2439.0</ele><time>2024-07-04T17:03:53Z</time></trkpt>
<trkpt lat="39.238624" lon="-120.282963"><ele>2439.0</ele><time>2024-07-04T17:04:01Z</time></trkpt>
<trkpt lat="39.238605" lon="-120.283793"><ele>2443.8</ele><time>2024-07-04T17:05:14Z</time></trkpt>
<trkpt lat="39.238784" lon="-120.284277"><ele>2446.0</ele><time>2024-07-04T17:05:46Z</time></trkpt>
<trkpt lat="39.238761" lon="-120.284362"><ele>2446.4</ele><time>2024-07-04T17:05:48Z</time></trkpt>
<trkpt lat="39.238667" lon="-120.284256"><ele>2447.2</ele><time>2024-07-04T17:05:52Z</time></trkpt>
<trkpt lat="39.238773" lon="-120.284835"><ele>2450.6</ele><time>2024-07-04T17:06:26Z</time></trkpt>
<trkpt lat="39.238726" lon="-120.285064"><ele>2457.4</ele><time>2024-07-04T17:07:22Z</time></trkpt>
<trkpt lat="39.238530" lon="-120.285428"><ele>2459.4</ele><time>2024-07-04T17:07:43Z</time></trkpt>
<trkpt lat="39.238823" lon="-120.285086"><ele>2459.4</ele><time>2024-07-04T17:07:44Z</time></trkpt>
<trkpt lat="39.238642" lon="-120.285146"><ele>2459.6</ele><time>2024-07-04T17:07:48Z</time></trkpt>
<trkpt lat="39.238999" lon="-120.285807"><ele>2461.6</ele><time>2024-07-04T17:08:41Z</time></trkpt>
<trkpt lat="39.239199" lon="-120.285957"><ele>2463.0</ele><time>2024-07-04T17:09:02Z</time></trkpt>
<trkpt lat="39.239477" lon="-120.285001"><ele>2473.8</ele><time>2024-07-04T17:10:44Z</time></trkpt>
<trkpt lat="39.239389" lon="-120.284958"><ele>2474.4</ele><time>2024-07-04T17:10:47Z</time></trkpt>
<trkpt lat="39.239434" lon="-120.284890"><ele>2474.6</ele><time>2024-07-04T17:10:50Z</time></trkpt>
<trkpt lat="39.239579" lon="-120.284951"><ele>2475.0</ele><time>2024-07-04T17:10:53Z</time></trkpt>
<trkpt lat="39.239790" lon="-120.285198"><ele>2475.8</ele><time>2024-07-04T17:10:59Z</time></trkpt>
<trkpt lat="39.240099" lon="-120.284846"><ele>2480.8</ele><time>2024-07-04T17:11:41Z</time></trkpt>
<trkpt lat="39.240094" lon="-120.284614"><ele>2483.6</ele><time>2024-07-04T17:11:59Z</time></trkpt>
<trkpt lat="39.240368" lon="-120.284541"><ele>2488.0</ele><time>2024-07-04T17:13:00Z</time></trkpt>
<trkpt lat="39.240513" lon="-120.284583"><ele>2489.6</ele><time>2024-07-04T17:13:12Z</time></trkpt>
<trkpt lat="39.240635" lon="-120.284512"><ele>2490.6</ele><time>2024-07-04T17:13:44Z</time></trkpt>
<trkpt lat="39.240183" lon="-120.283749"><ele>2490.8</ele><time>2024-07-04T17:13:49Z</time></trkpt>
<trkpt lat="39.240373" lon="-120.284070"><ele>2491.2</ele><time>2024-07-04T17:13:57Z</time></trkpt>
<trkpt lat="39.240452" lon="-120.283978"><ele>2491.8</ele><time>2024-07-04T17:14:15Z</time></trkpt>
<trkpt lat="39.240388" lon="-120.283987"><ele>2491.8</ele><time>2024-07-04T17:14:24Z</time></trkpt>
<trkpt lat="39.240385" lon="-120.283876"><ele>2491.6</ele><time>2024-07-04T17:14:41Z</time></trkpt>
<trkpt lat="39.240320" lon="-120.284052"><ele>2492.8</ele><time>2024-07-04T17:14:59Z</time></trkpt>
<trkpt lat="39.240335" lon="-120.283979"><ele>2494.2</ele><time>2024-07-04T17:15:43Z</time></trkpt>
<trkpt lat="39.240349" lon="-120.284104"><ele>2494.6</ele><time>2024-07-04T17:15:48Z</time></trkpt>
<trkpt lat="39.240574" lon="-120.284146"><ele>2496.4</ele><time>2024-07-04T17:16:41Z</time></trkpt>
<trkpt lat="39.240326" lon="-120.284051"><ele>2499.0</ele><time>2024-07-04T17:18:53Z</time></trkpt>
<trkpt lat="39.240337" lon="-120.283992"><ele>2500.6</ele><time>2024-07-04T17:20:30Z</time></trkpt>
<trkpt lat="39.240379" lon="-120.284026"><ele>2503.6</ele><time>2024-07-04T17:21:56Z</time></trkpt>
<trkpt lat="39.240485" lon="-120.283747"><ele>2505.8</ele><time>2024-07-04T17:22:28Z</time></trkpt>
<trkpt lat="39.240617" lon="-120.283716"><ele>2508.2</ele><time>2024-07-04T17:22:47Z</time></trkpt>
<trkpt lat="39.240701" lon="-120.283551"><ele>2510.2</ele><time>2024-07-04T17:23:03Z</time></trkpt>
<trkpt lat="39.241113" lon="-120.283234"><ele>2519.8</ele><time>2024-07-04T17:24:12Z</time></trkpt>
<trkpt lat="39.241524" lon="-120.282957"><ele>2523.6</ele><time>2024-07-04T17:24:44Z</time></trkpt>
<trkpt lat="39.241589" lon="-120.282975"><ele>2524.4</ele><time>2024-07-04T17:24:48Z</time></trkpt>
<trkpt lat="39.242378" lon="-120.282153"><ele>2541.2</ele><time>2024-07-04T17:26:46Z</time></trkpt>
<trkpt lat="39.242346" lon="-120.282104"><ele>2541.8</ele><time>2024-07-04T17:26:51Z</time></trkpt>
<trkpt lat="39.242541" lon="-120.281697"><ele>2550.6</ele><time>2024-07-04T17:27:56Z</time></trkpt>
<trkpt lat="39.242762" lon="-120.281046"><ele>2556.4</ele><time>2024-07-04T17:28:46Z</time></trkpt>
<trkpt lat="39.242784" lon="-120.281104"><ele>2557.6</ele><time>2024-07-04T17:28:54Z</time></trkpt>
<trkpt lat="39.242650" lon="-120.280678"><ele>2561.6</ele><time>2024-07-04T17:29:48Z</time></trkpt>
<trkpt lat="39.242649" lon="-120.280401"><ele>2565.0</ele><time>2024-07-04T17:30:14Z</time></trkpt>
<trkpt lat="39.242384" lon="-120.280039"><ele>2568.4</ele><time>2024-07-04T17:30:45Z</time></trkpt>
<trkpt lat="39.242427" lon="-120.280222"><ele>2569.6</ele><time>2024-07-04T17:30:51Z</time></trkpt>
<trkpt lat="39.242337" lon="-120.280098"><ele>2572.0</ele><time>2024-07-04T17:31:03Z</time></trkpt>
<trkpt lat="39.242661" lon="-120.280022"><ele>2575.4</ele><time>2024-07-04T17:31:26Z</time></trkpt>
<trkpt lat="39.242874" lon="-120.280202"><ele>2589.2</ele><time>2024-07-04T17:32:43Z</time></trkpt>
<trkpt lat="39.242719" lon="-120.279879"><ele>2589.6</ele><time>2024-07-04T17:32:46Z</time></trkpt>
<trkpt lat="39.242781" lon="-120.279687"><ele>2592.2</ele><time>2024-07-04T17:32:58Z</time></trkpt>
<trkpt lat="39.243283" lon="-120.279600"><ele>2598.2</ele><time>2024-07-04T17:33:33Z</time></trkpt>
<trkpt lat="39.243695" lon="-120.279799"><ele>2609.2</ele><time>2024-07-04T17:34:41Z</time></trkpt>
<trkpt lat="39.243818" lon="-120.279784"><ele>2610.8</ele><time>2024-07-04T17:34:54Z</time></trkpt>
<trkpt lat="39.244608" lon="-120.280364"><ele>2621.8</ele><time>2024-07-04T17:36:51Z</time></trkpt>
<trkpt lat="39.244578" lon="-120.280323"><ele>2622.2</ele><time>2024-07-04T17:36:54Z</time></trkpt>
<trkpt lat="39.244792" lon="-120.280781"><ele>2626.2</ele><time>2024-07-04T17:38:16Z</time></trkpt>
<trkpt lat="39.244893" lon="-120.281131"><ele>2628.8</ele><time>2024-07-04T17:38:43Z</time></trkpt>
<trkpt lat="39.244889" lon="-120.281424"><ele>2631.2</ele><time>2024-07-04T17:39:00Z</time></trkpt>
<trkpt lat="39.245256" lon="-120.282428"><ele>2642.8</ele><time>2024-07-04T17:40:44Z</time></trkpt>
<trkpt lat="39.245990" lon="-120.283510"><ele>2655.6</ele><time>2024-07-04T17:42:42Z</time></trkpt>
<trkpt lat="39.245944" lon="-120.283687"><ele>2656.8</ele><time>2024-07-04T17:42:50Z</time></trkpt>
<trkpt lat="39.245985" lon="-120.283824"><ele>2658.6</ele><time>2024-07-04T17:43:00Z</time></trkpt>
<trkpt lat="39.246256" lon="-120.284296"><ele>2665.6</ele><time>2024-07-04T17:44:02Z</time></trkpt>
<trkpt lat="39.246492" lon="-120.284561"><ele>2665.6</ele><time>2024-07-04T17:44:44Z</time></trkpt>
<trkpt lat="39.246376" lon="-120.284518"><ele>2665.6</ele><time>2024-07-04T17:44:53Z</time></trkpt>
<trkpt lat="39.246441" lon="-120.284516"><ele>2673.2</ele><time>2024-07-04T17:46:48Z</time></trkpt>
<trkpt lat="39.246396" lon="-120.284555"><ele>2673.4</ele><time>2024-07-04T17:46:54Z</time></trkpt>
<trkpt lat="39.246725" lon="-120.284961"><ele>2665.8</ele><time>2024-07-04T17:47:34Z</time></trkpt>
<trkpt lat="39.247204" lon="-120.285333"><ele>2659.2</ele><time>2024-07-04T17:48:24Z</time></trkpt>
<trkpt lat="39.247483" lon="-120.285640"><ele>2658.0</ele><time>2024-07-04T17:48:55Z</time></trkpt>
<trkpt lat="39.247519" lon="-120.285756"><ele>2657.2</ele><time>2024-07-04T17:49:01Z</time></trkpt>
<trkpt lat="39.247975" lon="-120.286188"><ele>2652.6</ele><time>2024-07-04T17:49:46Z</time></trkpt>
<trkpt lat="39.248536" lon="-120.286394"><ele>2644.6</ele><time>2024-07-04T17:50:43Z</time></trkpt>
<trkpt lat="39.248647" lon="-120.286361"><ele>2643.0</ele><time>2024-07-04T17:50:50Z</time></trkpt>
<trkpt lat="39.249064" lon="-120.286600"><ele>2638.2</ele><time>2024-07-04T17:51:30Z</time></trkpt>
<trkpt lat="39.249679" lon="-120.287319"><ele>2640.8</ele><time>2024-07-04T17:53:02Z</time></trkpt>
<trkpt lat="39.251038" lon="-120.287592"><ele>2623.4</ele><time>2024-07-04T17:55:18Z</time></trkpt>
<trkpt lat="39.251576" lon="-120.287837"><ele>2617.6</ele><time>2024-07-04T17:56:08Z</time></trkpt>
<trkpt lat="39.251908" lon="-120.288107"><ele>2611.8</ele><time>2024-07-04T17:56:44Z</time></trkpt>
<trkpt lat="39.252162" lon="-120.288447"><ele>2604.2</ele><time>2024-07-04T17:57:18Z</time></trkpt>
<trkpt lat="39.253119" lon="-120.289733"><ele>2598.4</ele><time>2024-07-04T17:59:20Z</time></trkpt>
<trkpt lat="39.253297" lon="-120.290155"><ele>2600.8</ele><time>2024-07-04T17:59:58Z</time></trkpt>
<trkpt lat="39.253603" lon="-120.290660"><ele>2596.2</ele><time>2024-07-04T18:00:47Z</time></trkpt>
<trkpt lat="39.253842" lon="-120.291339"><ele>2590.8</ele><time>2024-07-04T18:01:26Z</time></trkpt>
<trkpt lat="39.253832" lon="-120.291481"><ele>2589.6</ele><time>2024-07-04T18:01:34Z</time></trkpt>
<trkpt lat="39.254078" lon="-120.292097"><ele>2589.6</ele><time>2024-07-04T18:02:28Z</time></trkpt>
<trkpt lat="39.254209" lon="-120.292237"><ele>2587.2</ele><time>2024-07-04T18:02:57Z</time></trkpt>
<trkpt lat="39.254219" lon="-120.292388"><ele>2584.4</ele><time>2024-07-04T18:03:16Z</time></trkpt>
<trkpt lat="39.254679" lon="-120.292639"><ele>2575.2</ele><time>2024-07-04T18:04:06Z</time></trkpt>
<trkpt lat="39.254410" lon="-120.292943"><ele>2569.6</ele><time>2024-07-04T18:04:43Z</time></trkpt>
<trkpt lat="39.254779" lon="-120.293025"><ele>2562.6</ele><time>2024-07-04T18:05:42Z</time></trkpt>
<trkpt lat="39.255417" lon="-120.293561"><ele>2560.8</ele><time>2024-07-04T18:06:43Z</time></trkpt>
<trkpt lat="39.255754" lon="-120.294381"><ele>2558.0</ele><time>2024-07-04T18:07:42Z</time></trkpt>
<trkpt lat="39.256062" lon="-120.294961"><ele>2551.2</ele><time>2024-07-04T18:08:47Z</time></trkpt>
<trkpt lat="39.256167" lon="-120.295526"><ele>2546.0</ele><time>2024-07-04T18:09:26Z</time></trkpt>
<trkpt lat="39.256149" lon="-120.295653"><ele>2538.4</ele><time>2024-07-04T18:10:18Z</time></trkpt>
<trkpt lat="39.256154" lon="-120.296059"><ele>2537.2</ele><time>2024-07-04T18:10:51Z</time></trkpt>
<trkpt lat="39.256402" lon="-120.296785"><ele>2535.0</ele><time>2024-07-04T18:11:54Z</time></trkpt>
<trkpt lat="39.256462" lon="-120.297872"><ele>2528.4</ele><time>2024-07-04T18:14:02Z</time></trkpt>
<trkpt lat="39.256324" lon="-120.298555"><ele>2524.2</ele><time>2024-07-04T18:14:44Z</time></trkpt>
<trkpt lat="39.256390" lon="-120.299309"><ele>2517.6</ele><time>2024-07-04T18:15:44Z</time></trkpt>
<trkpt lat="39.256445" lon="-120.299533"><ele>2515.8</ele><time>2024-07-04T18:15:58Z</time></trkpt>
<trkpt lat="39.256778" lon="-120.300154"><ele>2511.8</ele><time>2024-07-04T18:16:46Z</time></trkpt>
<trkpt lat="39.256928" lon="-120.300311"><ele>2512.6</ele><time>2024-07-04T18:17:00Z</time></trkpt>
<trkpt lat="39.257186" lon="-120.300572"><ele>2514.6</ele><time>2024-07-04T18:17:22Z</time></trkpt>
<trkpt lat="39.257549" lon="-120.300642"><ele>2515.8</ele><time>2024-07-04T18:17:46Z</time></trkpt>
<trkpt lat="39.258037" lon="-120.300930"><ele>2516.8</ele><time>2024-07-04T18:19:03Z</time></trkpt>
<trkpt lat="39.258227" lon="-120.300878"><ele>2519.0</ele><time>2024-07-04T18:19:22Z</time></trkpt>
<trkpt lat="39.258691" lon="-120.300951"><ele>2519.2</ele><time>2024-07-04T18:20:04Z</time></trkpt>
<trkpt lat="39.259168" lon="-120.300895"><ele>2523.0</ele><time>2024-07-04T18:20:54Z</time></trkpt>
<trkpt lat="39.259549" lon="-120.300280"><ele>2525.8</ele><time>2024-07-04T18:22:43Z</time></trkpt>
<trkpt lat="39.259620" lon="-120.300302"><ele>2523.8</ele><time>2024-07-04T18:23:01Z</time></trkpt>
<trkpt lat="39.259836" lon="-120.300076"><ele>2516.2</ele><time>2024-07-04T18:24:44Z</time></trkpt>
<trkpt lat="39.259787" lon="-120.300163"><ele>2516.2</ele><time>2024-07-04T18:25:03Z</time></trkpt>
<trkpt lat="39.259697" lon="-120.300144"><ele>2516.2</ele><time>2024-07-04T18:26:43Z</time></trkpt>
<trkpt lat="39.259754" lon="-120.300170"><ele>2516.0</ele><time>2024-07-04T18:26:56Z</time></trkpt>
<trkpt lat="39.260197" lon="-120.299470"><ele>2517.8</ele><time>2024-07-04T18:28:59Z</time></trkpt>
<trkpt lat="39.260557" lon="-120.298876"><ele>2515.0</ele><time>2024-07-04T18:30:30Z</time></trkpt>
<trkpt lat="39.260729" lon="-120.298460"><ele>2516.0</ele><time>2024-07-04T18:31:02Z</time></trkpt>
<trkpt lat="39.261612" lon="-120.297421"><ele>2513.2</ele><time>2024-07-04T18:32:43Z</time></trkpt>
<trkpt lat="39.262926" lon="-120.296793"><ele>2500.8</ele><time>2024-07-04T18:34:44Z</time></trkpt>
<trkpt lat="39.263087" lon="-120.296924"><ele>2499.8</ele><time>2024-07-04T18:35:00Z</time></trkpt>
<trkpt lat="39.263715" lon="-120.296859"><ele>2502.2</ele><time>2024-07-04T18:36:07Z</time></trkpt>
<trkpt lat="39.264360" lon="-120.297104"><ele>2504.0</ele><time>2024-07-04T18:36:50Z</time></trkpt>
<trkpt lat="39.264818" lon="-120.297673"><ele>2509.0</ele><time>2024-07-04T18:37:45Z</time></trkpt>
<trkpt lat="39.265129" lon="-120.298566"><ele>2514.0</ele><time>2024-07-04T18:38:49Z</time></trkpt>
<trkpt lat="39.265744" lon="-120.299328"><ele>2507.6</ele><time>2024-07-04T18:40:07Z</time></trkpt>
<trkpt lat="39.266274" lon="-120.299758"><ele>2504.4</ele><time>2024-07-04T18:40:48Z</time></trkpt>
<trkpt lat="39.266428" lon="-120.299713"><ele>2504.6</ele><time>2024-07-04T18:40:58Z</time></trkpt>
<trkpt lat="39.267072" lon="-120.300016"><ele>2496.6</ele><time>2024-07-04T18:41:51Z</time></trkpt>
<trkpt lat="39.267586" lon="-120.300068"><ele>2492.2</ele><time>2024-07-04T18:42:39Z</time></trkpt>
<trkpt lat="39.268040" lon="-120.300356"><ele>2489.4</ele><time>2024-07-04T18:43:15Z</time></trkpt>
<trkpt lat="39.268355" lon="-120.300608"><ele>2489.6</ele><time>2024-07-04T18:43:41Z</time></trkpt>
<trkpt lat="39.269030" lon="-120.301512"><ele>2489.8</ele><time>2024-07-04T18:45:07Z</time></trkpt>
<trkpt lat="39.269088" lon="-120.302379"><ele>2493.8</ele><time>2024-07-04T18:46:15Z</time></trkpt>
<trkpt lat="39.269329" lon="-120.302789"><ele>2490.2</ele><time>2024-07-04T18:46:47Z</time></trkpt>
<trkpt lat="39.269516" lon="-120.302719"><ele>2488.4</ele><time>2024-07-04T18:46:56Z</time></trkpt>
<trkpt lat="39.269788" lon="-120.302731"><ele>2484.0</ele><time>2024-07-04T18:47:17Z</time></trkpt>
<trkpt lat="39.270310" lon="-120.302973"><ele>2479.6</ele><time>2024-07-04T18:47:57Z</time></trkpt>
<trkpt lat="39.270560" lon="-120.303187"><ele>2474.6</ele><time>2024-07-04T18:48:33Z</time></trkpt>
<trkpt lat="39.270346" lon="-120.303174"><ele>2474.4</ele><time>2024-07-04T18:49:04Z</time></trkpt>
<trkpt lat="39.270080" lon="-120.303049"><ele>2470.6</ele><time>2024-07-04T18:49:37Z</time></trkpt>
<trkpt lat="39.269791" lon="-120.303100"><ele>2468.4</ele><time>2024-07-04T18:50:01Z</time></trkpt>
<trkpt lat="39.269406" lon="-120.303346"><ele>2463.6</ele><time>2024-07-04T18:50:35Z</time></trkpt>
<trkpt lat="39.269313" lon="-120.303357"><ele>2461.4</ele><time>2024-07-04T18:50:45Z</time></trkpt>
<trkpt lat="39.269290" lon="-120.303296"><ele>2460.8</ele><time>2024-07-04T18:50:47Z</time></trkpt>
<trkpt lat="39.269561" lon="-120.303303"><ele>2456.8</ele><time>2024-07-04T18:51:11Z</time></trkpt>
<trkpt lat="39.270170" lon="-120.303754"><ele>2450.6</ele><time>2024-07-04T18:52:07Z</time></trkpt>
<trkpt lat="39.270975" lon="-120.304618"><ele>2443.4</ele><time>2024-07-04T18:53:21Z</time></trkpt>
<trkpt lat="39.271511" lon="-120.305626"><ele>2439.4</ele><time>2024-07-04T18:54:48Z</time></trkpt>
<trkpt lat="39.271980" lon="-120.306402"><ele>2445.4</ele><time>2024-07-04T18:56:44Z</time></trkpt>
<trkpt lat="39.271921" lon="-120.306666"><ele>2443.2</ele><time>2024-07-04T18:57:00Z</time></trkpt>
<trkpt lat="39.271958" lon="-120.306766"><ele>2442.6</ele><time>2024-07-04T18:57:07Z</time></trkpt>
<trkpt lat="39.272267" lon="-120.307413"><ele>2437.8</ele><time>2024-07-04T18:57:57Z</time></trkpt>
<trkpt lat="39.272645" lon="-120.307947"><ele>2438.6</ele><time>2024-07-04T18:58:49Z</time></trkpt>
<trkpt lat="39.272972" lon="-120.309348"><ele>2440.2</ele><time>2024-07-04T19:00:33Z</time></trkpt>
<trkpt lat="39.273114" lon="-120.309628"><ele>2439.2</ele><time>2024-07-04T19:00:55Z</time></trkpt>
<trkpt lat="39.273703" lon="-120.309877"><ele>2432.4</ele><time>2024-07-04T19:01:47Z</time></trkpt>
<trkpt lat="39.274087" lon="-120.309693"><ele>2427.8</ele><time>2024-07-04T19:02:27Z</time></trkpt>
<trkpt lat="39.274306" lon="-120.309848"><ele>2424.4</ele><time>2024-07-04T19:02:43Z</time></trkpt>
<trkpt lat="39.274337" lon="-120.309936"><ele>2424.0</ele><time>2024-07-04T19:02:47Z</time></trkpt>
<trkpt lat="39.274466" lon="-120.309885"><ele>2423.6</ele><time>2024-07-04T19:02:56Z</time></trkpt>
<trkpt lat="39.274965" lon="-120.309947"><ele>2417.6</ele><time>2024-07-04T19:03:59Z</time></trkpt>
<trkpt lat="39.275138" lon="-120.310056"><ele>2416.0</ele><time>2024-07-04T19:04:19Z</time></trkpt>
<trkpt lat="39.275648" lon="-120.310120"><ele>2414.2</ele><time>2024-07-04T19:04:58Z</time></trkpt>
<trkpt lat="39.275781" lon="-120.310266"><ele>2412.2</ele><time>2024-07-04T19:05:17Z</time></trkpt>
<trkpt lat="39.276733" lon="-120.310858"><ele>2404.0</ele><time>2024-07-04T19:06:46Z</time></trkpt>
<trkpt lat="39.276675" lon="-120.310853"><ele>2404.0</ele><time>2024-07-04T19:06:52Z</time></trkpt>
<trkpt lat="39.276696" lon="-120.310903"><ele>2404.2</ele><time>2024-07-04T19:06:59Z</time></trkpt>
<trkpt lat="39.277029" lon="-120.310993"><ele>2398.8</ele><time>2024-07-04T19:07:43Z</time></trkpt>
<trkpt lat="39.277281" lon="-120.311227"><ele>2397.8</ele><time>2024-07-04T19:08:11Z</time></trkpt>
<trkpt lat="39.277761" lon="-120.311386"><ele>2393.8</ele><time>2024-07-04T19:08:44Z</time></trkpt>
<trkpt lat="39.277720" lon="-120.311386"><ele>2393.8</ele><time>2024-07-04T19:08:46Z</time></trkpt>
<trkpt lat="39.277849" lon="-120.311592"><ele>2392.0</ele><time>2024-07-04T19:09:04Z</time></trkpt>
<trkpt lat="39.278765" lon="-120.311862"><ele>2384.4</ele><time>2024-07-04T19:10:45Z</time></trkpt>
<trkpt lat="39.278971" lon="-120.311852"><ele>2383.4</ele><time>2024-07-04T19:10:56Z</time></trkpt>
<trkpt lat="39.280016" lon="-120.312623"><ele>2378.0</ele><time>2024-07-04T19:12:44Z</time></trkpt>
<trkpt lat="39.281005" lon="-120.313025"><ele>2369.4</ele><time>2024-07-04T19:14:11Z</time></trkpt>
<trkpt lat="39.281918" lon="-120.313874"><ele>2365.0</ele><time>2024-07-04T19:15:55Z</time></trkpt>
<trkpt lat="39.282245" lon="-120.314504"><ele>2361.4</ele><time>2024-07-04T19:16:44Z</time></trkpt>
<trkpt lat="39.282328" lon="-120.314514"><ele>2361.4</ele><time>2024-07-04T19:16:49Z</time></trkpt>
<trkpt lat="39.282430" lon="-120.314814"><ele>2361.2</ele><time>2024-07-04T19:17:07Z</time></trkpt>
<trkpt lat="39.282691" lon="-120.315115"><ele>2360.6</ele><time>2024-07-04T19:17:59Z</time></trkpt>
<trkpt lat="39.283159" lon="-120.315901"><ele>2356.4</ele><time>2024-07-04T19:18:49Z</time></trkpt>
<trkpt lat="39.283272" lon="-120.316260"><ele>2359.0</ele><time>2024-07-04T19:19:13Z</time></trkpt>
<trkpt lat="39.283393" lon="-120.316569"><ele>2372.0</ele><time>2024-07-04T19:20:31Z</time></trkpt>
<trkpt lat="39.283493" lon="-120.316826"><ele>2372.2</ele><time>2024-07-04T19:20:44Z</time></trkpt>
<trkpt lat="39.283960" lon="-120.317566"><ele>2370.0</ele><time>2024-07-04T19:21:39Z</time></trkpt>
<trkpt lat="39.284089" lon="-120.317750"><ele>2377.2</ele><time>2024-07-04T19:22:35Z</time></trkpt>
<trkpt lat="39.284305" lon="-120.317921"><ele>2379.0</ele><time>2024-07-04T19:22:52Z</time></trkpt>
<trkpt lat="39.283653" lon="-120.318797"><ele>2390.0</ele><time>2024-07-04T19:24:48Z</time></trkpt>
<trkpt lat="39.283527" lon="-120.318813"><ele>2390.8</ele><time>2024-07-04T19:24:58Z</time></trkpt>
<trkpt lat="39.283094" lon="-120.319231"><ele>2399.0</ele><time>2024-07-04T19:26:15Z</time></trkpt>
<trkpt lat="39.282798" lon="-120.319616"><ele>2403.8</ele><time>2024-07-04T19:26:44Z</time></trkpt>
<trkpt lat="39.282798" lon="-120.319754"><ele>2405.6</ele><time>2024-07-04T19:27:01Z</time></trkpt>
<trkpt lat="39.283022" lon="-120.319765"><ele>2408.8</ele><time>2024-07-04T19:27:29Z</time></trkpt>
<trkpt lat="39.283317" lon="-120.319529"><ele>2415.6</ele><time>2024-07-04T19:28:45Z</time></trkpt>
<trkpt lat="39.283498" lon="-120.319496"><ele>2417.6</ele><time>2024-07-04T19:29:03Z</time></trkpt>
<trkpt lat="39.284189" lon="-120.319483"><ele>2425.8</ele><time>2024-07-04T19:30:23Z</time></trkpt>
<trkpt lat="39.284442" lon="-120.319557"><ele>2428.0</ele><time>2024-07-04T19:30:43Z</time></trkpt>
<trkpt lat="39.284735" lon="-120.319847"><ele>2432.2</ele><time>2024-07-04T19:31:23Z</time></trkpt>
<trkpt lat="39.285042" lon="-120.320267"><ele>2429.2</ele><time>2024-07-04T19:32:17Z</time></trkpt>
<trkpt lat="39.285472" lon="-120.320586"><ele>2428.0</ele><time>2024-07-04T19:32:49Z</time></trkpt>
<trkpt lat="39.285795" lon="-120.321175"><ele>2423.4</ele><time>2024-07-04T19:33:23Z</time></trkpt>
<trkpt lat="39.285987" lon="-120.321384"><ele>2422.6</ele><time>2024-07-04T19:33:39Z</time></trkpt>
<trkpt lat="39.286081" lon="-120.321637"><ele>2422.4</ele><time>2024-07-04T19:33:55Z</time></trkpt>
<trkpt lat="39.286157" lon="-120.321859"><ele>2431.2</ele><time>2024-07-04T19:34:43Z</time></trkpt>
<trkpt lat="39.286117" lon="-120.321811"><ele>2431.4</ele><time>2024-07-04T19:34:45Z</time></trkpt>
<trkpt lat="39.286230" lon="-120.321985"><ele>2432.0</ele><time>2024-07-04T19:35:05Z</time></trkpt>
<trkpt lat="39.286260" lon="-120.322189"><ele>2433.4</ele><time>2024-07-04T19:35:15Z</time></trkpt>
<trkpt lat="39.286433" lon="-120.322459"><ele>2433.0</ele><time>2024-07-04T19:35:53Z</time></trkpt>
<trkpt lat="39.286516" lon="-120.322667"><ele>2439.6</ele><time>2024-07-04T19:36:44Z</time></trkpt>
<trkpt lat="39.286478" lon="-120.322820"><ele>2441.6</ele><time>2024-07-04T19:36:58Z</time></trkpt>
<trkpt lat="39.286586" lon="-120.322837"><ele>2446.2</ele><time>2024-07-04T19:37:37Z</time></trkpt>
<trkpt lat="39.286760" lon="-120.322865"><ele>2441.4</ele><time>2024-07-04T19:38:44Z</time></trkpt>
<trkpt lat="39.286638" lon="-120.322950"><ele>2440.6</ele><time>2024-07-04T19:38:49Z</time></trkpt>
<trkpt lat="39.286686" lon="-120.323039"><ele>2440.4</ele><time>2024-07-04T19:38:56Z</time></trkpt>
<trkpt lat="39.286772" lon="-120.322962"><ele>2437.4</ele><time>2024-07-04T19:40:33Z</time></trkpt>
<trkpt lat="39.286696" lon="-120.322918"><ele>2435.6</ele><time>2024-07-04T19:40:46Z</time></trkpt>
<trkpt lat="39.286791" lon="-120.322907"><ele>2432.4</ele><time>2024-07-04T19:41:03Z</time></trkpt>
<trkpt lat="39.287537" lon="-120.323371"><ele>2434.0</ele><time>2024-07-04T19:42:46Z</time></trkpt>
<trkpt lat="39.287466" lon="-120.323362"><ele>2434.6</ele><time>2024-07-04T19:42:55Z</time></trkpt>
<trkpt lat="39.287418" lon="-120.323308"><ele>2435.4</ele><time>2024-07-04T19:43:01Z</time></trkpt>
<trkpt lat="39.287648" lon="-120.323386"><ele>2434.4</ele><time>2024-07-04T19:44:48Z</time></trkpt>
<trkpt lat="39.287614" lon="-120.323443"><ele>2434.4</ele><time>2024-07-04T19:44:50Z</time></trkpt>
<trkpt lat="39.287599" lon="-120.323355"><ele>2435.0</ele><time>2024-07-04T19:44:53Z</time></trkpt>
<trkpt lat="39.287703" lon="-120.323484"><ele>2437.0</ele><time>2024-07-04T19:46:45Z</time></trkpt>
<trkpt lat="39.287650" lon="-120.323356"><ele>2437.0</ele><time>2024-07-04T19:47:04Z</time></trkpt>
<trkpt lat="39.287564" lon="-120.323407"><ele>2438.2</ele><time>2024-07-04T19:49:02Z</time></trkpt>
<trkpt lat="39.288265" lon="-120.323393"><ele>2433.2</ele><time>2024-07-04T19:50:44Z</time></trkpt>
<trkpt lat="39.288248" lon="-120.323326"><ele>2433.2</ele><time>2024-07-04T19:50:45Z</time></trkpt>
<trkpt lat="39.288304" lon="-120.323292"><ele>2434.0</ele><time>2024-07-04T19:50:54Z</time></trkpt>
<trkpt lat="39.288788" lon="-120.323471"><ele>2435.0</ele><time>2024-07-04T19:51:50Z</time></trkpt>
<trkpt lat="39.289225" lon="-120.323432"><ele>2431.8</ele><time>2024-07-04T19:52:45Z</time></trkpt>
<trkpt lat="39.289276" lon="-120.323527"><ele>2431.8</ele><time>2024-07-04T19:52:47Z</time></trkpt>
<trkpt lat="39.289354" lon="-120.323486"><ele>2432.8</ele><time>2024-07-04T19:52:57Z</time></trkpt>
<trkpt lat="39.289700" lon="-120.323558"><ele>2434.8</ele><time>2024-07-04T19:54:15Z</time></trkpt>
<trkpt lat="39.290729" lon="-120.322984"><ele>2429.4</ele><time>2024-07-04T19:55:57Z</time></trkpt>
<trkpt lat="39.290793" lon="-120.322598"><ele>2426.2</ele><time>2024-07-04T19:56:29Z</time></trkpt>
<trkpt lat="39.291044" lon="-120.322491"><ele>2424.0</ele><time>2024-07-04T19:56:51Z</time></trkpt>
<trkpt lat="39.291370" lon="-120.322156"><ele>2422.8</ele><time>2024-07-04T19:57:33Z</time></trkpt>
<trkpt lat="39.291580" lon="-120.322210"><ele>2421.2</ele><time>2024-07-04T19:58:46Z</time></trkpt>
<trkpt lat="39.291946" lon="-120.321959"><ele>2420.6</ele><time>2024-07-04T20:00:13Z</time></trkpt>
<trkpt lat="39.292431" lon="-120.321743"><ele>2415.8</ele><time>2024-07-04T20:00:44Z</time></trkpt>
<trkpt lat="39.292752" lon="-120.321689"><ele>2414.8</ele><time>2024-07-04T20:01:04Z</time></trkpt>
<trkpt lat="39.292968" lon="-120.321481"><ele>2412.8</ele><time>2024-07-04T20:01:31Z</time></trkpt>
<trkpt lat="39.293173" lon="-120.321445"><ele>2410.8</ele><time>2024-07-04T20:01:51Z</time></trkpt>
<trkpt lat="39.293330" lon="-120.321313"><ele>2409.6</ele><time>2024-07-04T20:02:05Z</time></trkpt>
<trkpt lat="39.293635" lon="-120.320868"><ele>2403.0</ele><time>2024-07-04T20:02:52Z</time></trkpt>
<trkpt lat="39.293673" lon="-120.320640"><ele>2401.2</ele><time>2024-07-04T20:03:03Z</time></trkpt>
<trkpt lat="39.293848" lon="-120.320484"><ele>2396.4</ele><time>2024-07-04T20:03:25Z</time></trkpt>
<trkpt lat="39.293853" lon="-120.320535"><ele>2396.2</ele><time>2024-07-04T20:03:55Z</time></trkpt>
<trkpt lat="39.293819" lon="-120.320125"><ele>2393.0</ele><time>2024-07-04T20:04:35Z</time></trkpt>
<trkpt lat="39.293559" lon="-120.319699"><ele>2392.8</ele><time>2024-07-04T20:04:58Z</time></trkpt>
<trkpt lat="39.293481" lon="-120.319695"><ele>2392.8</ele><time>2024-07-04T20:05:04Z</time></trkpt>
<trkpt lat="39.293555" lon="-120.319973"><ele>2392.4</ele><time>2024-07-04T20:05:29Z</time></trkpt>
<trkpt lat="39.293732" lon="-120.320171"><ele>2392.0</ele><time>2024-07-04T20:06:11Z</time></trkpt>
<trkpt lat="39.294014" lon="-120.320780"><ele>2393.6</ele><time>2024-07-04T20:06:44Z</time></trkpt>
<trkpt lat="39.293884" lon="-120.320610"><ele>2394.0</ele><time>2024-07-04T20:06:46Z</time></trkpt>
<trkpt lat="39.293875" lon="-120.320467"><ele>2395.2</ele><time>2024-07-04T20:06:51Z</time></trkpt>
<trkpt lat="39.294350" lon="-120.321167"><ele>2395.0</ele><time>2024-07-04T20:08:17Z</time></trkpt>
<trkpt lat="39.294754" lon="-120.321005"><ele>2392.4</ele><time>2024-07-04T20:08:49Z</time></trkpt>
<trkpt lat="39.295246" lon="-120.320075"><ele>2393.8</ele><time>2024-07-04T20:10:07Z</time></trkpt>
<trkpt lat="39.297100" lon="-120.319116"><ele>2389.8</ele><time>2024-07-04T20:12:45Z</time></trkpt>
<trkpt lat="39.297203" lon="-120.319172"><ele>2388.4</ele><time>2024-07-04T20:12:50Z</time></trkpt>
<trkpt lat="39.297536" lon="-120.319014"><ele>2385.0</ele><time>2024-07-04T20:13:14Z</time></trkpt>
<trkpt lat="39.297836" lon="-120.319015"><ele>2381.8</ele><time>2024-07-04T20:13:44Z</time></trkpt>
<trkpt lat="39.298454" lon="-120.319301"><ele>2375.2</ele><time>2024-07-04T20:14:38Z</time></trkpt>
<trkpt lat="39.298570" lon="-120.319336"><ele>2371.6</ele><time>2024-07-04T20:14:56Z</time></trkpt>
<trkpt lat="39.298564" lon="-120.319266"><ele>2371.4</ele><time>2024-07-04T20:14:59Z</time></trkpt>
<trkpt lat="39.298634" lon="-120.319377"><ele>2370.6</ele><time>2024-07-04T20:15:06Z</time></trkpt>
<trkpt lat="39.298943" lon="-120.319556"><ele>2367.8</ele><time>2024-07-04T20:15:26Z</time></trkpt>
<trkpt lat="39.299136" lon="-120.319573"><ele>2365.8</ele><time>2024-07-04T20:15:42Z</time></trkpt>
<trkpt lat="39.299291" lon="-120.319750"><ele>2363.8</ele><time>2024-07-04T20:16:08Z</time></trkpt>
<trkpt lat="39.299674" lon="-120.319992"><ele>2361.2</ele><time>2024-07-04T20:16:43Z</time></trkpt>
<trkpt lat="39.300097" lon="-120.320048"><ele>2358.0</ele><time>2024-07-04T20:17:13Z</time></trkpt>
<trkpt lat="39.300411" lon="-120.320241"><ele>2358.0</ele><time>2024-07-04T20:18:15Z</time></trkpt>
<trkpt lat="39.300827" lon="-120.320672"><ele>2352.8</ele><time>2024-07-04T20:18:49Z</time></trkpt>
<trkpt lat="39.300893" lon="-120.320653"><ele>2352.4</ele><time>2024-07-04T20:18:53Z</time></trkpt>
<trkpt lat="39.301140" lon="-120.321587"><ele>2347.2</ele><time>2024-07-04T20:19:51Z</time></trkpt>
<trkpt lat="39.301559" lon="-120.322252"><ele>2340.8</ele><time>2024-07-04T20:20:45Z</time></trkpt>
<trkpt lat="39.301548" lon="-120.322172"><ele>2340.4</ele><time>2024-07-04T20:20:48Z</time></trkpt>
<trkpt lat="39.301632" lon="-120.322174"><ele>2339.8</ele><time>2024-07-04T20:20:54Z</time></trkpt>
<trkpt lat="39.301700" lon="-120.322241"><ele>2338.8</ele><time>2024-07-04T20:21:01Z</time></trkpt>
<trkpt lat="39.302238" lon="-120.322257"><ele>2331.8</ele><time>2024-07-04T20:21:53Z</time></trkpt>
<trkpt lat="39.302909" lon="-120.322415"><ele>2325.2</ele><time>2024-07-04T20:22:50Z</time></trkpt>
<trkpt lat="39.303066" lon="-120.322361"><ele>2324.4</ele><time>2024-07-04T20:23:02Z</time></trkpt>
<trkpt lat="39.303092" lon="-120.322427"><ele>2324.2</ele><time>2024-07-04T20:23:07Z</time></trkpt>
<trkpt lat="39.303985" lon="-120.322675"><ele>2324.0</ele><time>2024-07-04T20:24:27Z</time></trkpt>
<trkpt lat="39.305209" lon="-120.322169"><ele>2318.0</ele><time>2024-07-04T20:26:11Z</time></trkpt>
<trkpt lat="39.305398" lon="-120.322236"><ele>2316.8</ele><time>2024-07-04T20:26:44Z</time></trkpt>
<trkpt lat="39.305396" lon="-120.322173"><ele>2317.0</ele><time>2024-07-04T20:26:46Z</time></trkpt>
<trkpt lat="39.305513" lon="-120.322346"><ele>2314.8</ele><time>2024-07-04T20:27:25Z</time></trkpt>
<trkpt lat="39.305700" lon="-120.322406"><ele>2314.0</ele><time>2024-07-04T20:27:39Z</time></trkpt>
<trkpt lat="39.305921" lon="-120.322598"><ele>2312.4</ele><time>2024-07-04T20:27:59Z</time></trkpt>
<trkpt lat="39.306195" lon="-120.322996"><ele>2306.2</ele><time>2024-07-04T20:28:29Z</time></trkpt>
<trkpt lat="39.306396" lon="-120.323045"><ele>2303.8</ele><time>2024-07-04T20:28:45Z</time></trkpt>
<trkpt lat="39.306397" lon="-120.322930"><ele>2303.4</ele><time>2024-07-04T20:28:48Z</time></trkpt>
<trkpt lat="39.306574" lon="-120.322900"><ele>2303.0</ele><time>2024-07-04T20:28:51Z</time></trkpt>
<trkpt lat="39.306799" lon="-120.322665"><ele>2302.4</ele><time>2024-07-04T20:29:17Z</time></trkpt>
<trkpt lat="39.307089" lon="-120.322574"><ele>2303.2</ele><time>2024-07-04T20:29:45Z</time></trkpt>
<trkpt lat="39.307069" lon="-120.322463"><ele>2303.8</ele><time>2024-07-04T20:29:53Z</time></trkpt>
<trkpt lat="39.307698" lon="-120.322306"><ele>2299.2</ele><time>2024-07-04T20:30:46Z</time></trkpt>
<trkpt lat="39.307878" lon="-120.322376"><ele>2297.6</ele><time>2024-07-04T20:31:01Z</time></trkpt>
<trkpt lat="39.308246" lon="-120.322327"><ele>2294.0</ele><time>2024-07-04T20:31:27Z</time></trkpt>
<trkpt lat="39.308486" lon="-120.322580"><ele>2292.2</ele><time>2024-07-04T20:31:57Z</time></trkpt>
<trkpt lat="39.308652" lon="-120.322592"><ele>2289.8</ele><time>2024-07-04T20:32:11Z</time></trkpt>
<trkpt lat="39.308942" lon="-120.322767"><ele>2285.0</ele><time>2024-07-04T20:32:47Z</time></trkpt>
<trkpt lat="39.308989" lon="-120.322994"><ele>2281.0</ele><time>2024-07-04T20:33:25Z</time></trkpt>
<trkpt lat="39.308818" lon="-120.323016"><ele>2277.8</ele><time>2024-07-04T20:33:51Z</time></trkpt>
<trkpt lat="39.309210" lon="-120.323264"><ele>2272.4</ele><time>2024-07-04T20:34:37Z</time></trkpt>
<trkpt lat="39.309417" lon="-120.323478"><ele>2270.4</ele><time>2024-07-04T20:35:04Z</time></trkpt>
<trkpt lat="39.309800" lon="-120.324055"><ele>2263.8</ele><time>2024-07-04T20:36:05Z</time></trkpt>
<trkpt lat="39.310139" lon="-120.324305"><ele>2259.4</ele><time>2024-07-04T20:36:45Z</time></trkpt>
<trkpt lat="39.310343" lon="-120.324304"><ele>2257.2</ele><time>2024-07-04T20:37:01Z</time></trkpt>
<trkpt lat="39.310592" lon="-120.324990"><ele>2250.8</ele><time>2024-07-04T20:38:09Z</time></trkpt>
<trkpt lat="39.310919" lon="-120.325266"><ele>2247.6</ele><time>2024-07-04T20:38:45Z</time></trkpt>
<trkpt lat="39.311676" lon="-120.325576"><ele>2240.2</ele><time>2024-07-04T20:40:13Z</time></trkpt>
<trkpt lat="39.311752" lon="-120.325726"><ele>2236.6</ele><time>2024-07-04T20:40:46Z</time></trkpt>
<trkpt lat="39.311509" lon="-120.325896"><ele>2235.8</ele><time>2024-07-04T20:40:50Z</time></trkpt>
<trkpt lat="39.311458" lon="-120.325821"><ele>2233.6</ele><time>2024-07-04T20:41:13Z</time></trkpt>
<trkpt lat="39.312145" lon="-120.326148"><ele>2226.8</ele><time>2024-07-04T20:42:44Z</time></trkpt>
<trkpt lat="39.312106" lon="-120.326171"><ele>2226.8</ele><time>2024-07-04T20:42:45Z</time></trkpt>
<trkpt lat="39.312198" lon="-120.326230"><ele>2226.0</ele><time>2024-07-04T20:42:51Z</time></trkpt>
<trkpt lat="39.312781" lon="-120.325847"><ele>2220.2</ele><time>2024-07-04T20:43:59Z</time></trkpt>
<trkpt lat="39.313154" lon="-120.325857"><ele>2221.0</ele><time>2024-07-04T20:44:29Z</time></trkpt>
<trkpt lat="39.313377" lon="-120.325755"><ele>2218.2</ele><time>2024-07-04T20:44:54Z</time></trkpt>
<trkpt lat="39.313479" lon="-120.325812"><ele>2215.0</ele><time>2024-07-04T20:45:35Z</time></trkpt>
<trkpt lat="39.313439" lon="-120.326198"><ele>2207.0</ele><time>2024-07-04T20:46:48Z</time></trkpt>
<trkpt lat="39.313764" lon="-120.325944"><ele>2202.0</ele><time>2024-07-04T20:47:23Z</time></trkpt>
<trkpt lat="39.313993" lon="-120.325615"><ele>2197.2</ele><time>2024-07-04T20:47:53Z</time></trkpt>
<trkpt lat="39.313964" lon="-120.325661"><ele>2192.6</ele><time>2024-07-04T20:48:46Z</time></trkpt>
<trkpt lat="39.314027" lon="-120.325732"><ele>2192.4</ele><time>2024-07-04T20:48:48Z</time></trkpt>
<trkpt lat="39.313952" lon="-120.325933"><ele>2191.8</ele><time>2024-07-04T20:48:58Z</time></trkpt>
<trkpt lat="39.314124" lon="-120.325774"><ele>2183.8</ele><time>2024-07-04T20:50:05Z</time></trkpt>
<trkpt lat="39.314546" lon="-120.325509"><ele>2180.2</ele><time>2024-07-04T20:50:44Z</time></trkpt>
<trkpt lat="39.314454" lon="-120.325561"><ele>2179.4</ele><time>2024-07-04T20:50:48Z</time></trkpt>
<trkpt lat="39.314388" lon="-120.325477"><ele>2178.2</ele><time>2024-07-04T20:50:52Z</time></trkpt>
<trkpt lat="39.314266" lon="-120.325650"><ele>2175.0</ele><time>2024-07-04T20:51:15Z</time></trkpt>
<trkpt lat="39.314122" lon="-120.325990"><ele>2171.6</ele><time>2024-07-04T20:51:45Z</time></trkpt>
<trkpt lat="39.314128" lon="-120.326154"><ele>2169.2</ele><time>2024-07-04T20:52:01Z</time></trkpt>
<trkpt lat="39.314308" lon="-120.326113"><ele>2164.8</ele><time>2024-07-04T20:52:31Z</time></trkpt>
<trkpt lat="39.314340" lon="-120.326495"><ele>2161.2</ele><time>2024-07-04T20:53:13Z</time></trkpt>
<trkpt lat="39.314537" lon="-120.326970"><ele>2160.8</ele><time>2024-07-04T20:54:21Z</time></trkpt>
<trkpt lat="39.314806" lon="-120.327300"><ele>2161.8</ele><time>2024-07-04T20:54:46Z</time></trkpt>
<trkpt lat="39.315502" lon="-120.326982"><ele>2165.8</ele><time>2024-07-04T20:55:57Z</time></trkpt>
<trkpt lat="39.315763" lon="-120.326596"><ele>2167.6</ele><time>2024-07-04T20:56:48Z</time></trkpt>
<trkpt lat="39.316164" lon="-120.326262"><ele>2168.6</ele><time>2024-07-04T20:57:29Z</time></trkpt>
<trkpt lat="39.316661" lon="-120.326200"><ele>2168.4</ele><time>2024-07-04T20:58:11Z</time></trkpt>
<trkpt lat="39.316652" lon="-120.326798"><ele>2175.6</ele><time>2024-07-04T20:59:33Z</time></trkpt>
<trkpt lat="39.316640" lon="-120.327313"><ele>2170.4</ele><time>2024-07-04T21:00:07Z</time></trkpt>
<trkpt lat="39.316703" lon="-120.327545"><ele>2171.4</ele><time>2024-07-04T21:00:23Z</time></trkpt>
<trkpt lat="39.317006" lon="-120.328071"><ele>2166.0</ele><time>2024-07-04T21:01:11Z</time></trkpt>
<trkpt lat="39.317309" lon="-120.328945"><ele>2159.6</ele><time>2024-07-04T21:02:31Z</time></trkpt>
<trkpt lat="39.317469" lon="-120.329216"><ele>2161.2</ele><time>2024-07-04T21:02:54Z</time></trkpt>
<trkpt lat="39.317604" lon="-120.329734"><ele>2157.2</ele><time>2024-07-04T21:03:23Z</time></trkpt>
<trkpt lat="39.317758" lon="-120.329944"><ele>2155.0</ele><time>2024-07-04T21:03:39Z</time></trkpt>
<trkpt lat="39.318372" lon="-120.329886"><ele>2157.0</ele><time>2024-07-04T21:04:50Z</time></trkpt>
<trkpt lat="39.318213" lon="-120.330133"><ele>2157.0</ele><time>2024-07-04T21:04:52Z</time></trkpt>
<trkpt lat="39.318224" lon="-120.330038"><ele>2156.8</ele><time>2024-07-04T21:05:02Z</time></trkpt>
<trkpt lat="39.318042" lon="-120.329734"><ele>2156.4</ele><time>2024-07-04T21:11:34Z</time></trkpt>
<trkpt lat="39.318096" lon="-120.330192"><ele>2156.0</ele><time>2024-07-04T21:11:44Z</time></trkpt>
<trkpt lat="39.318162" lon="-120.330114"><ele>2159.4</ele><time>2024-07-04T21:11:47Z</time></trkpt>
<trkpt lat="39.318213" lon="-120.330235"><ele>2158.2</ele><time>2024-07-04T21:12:01Z</time></trkpt>
<trkpt lat="39.318163" lon="-120.330325"><ele>2157.2</ele><time>2024-07-04T21:12:18Z</time></trkpt>
<trkpt lat="39.318252" lon="-120.330192"><ele>2156.8</ele><time>2024-07-04T21:12:25Z</time></trkpt>
<trkpt lat="39.318296" lon="-120.330237"><ele>2156.6</ele><time>2024-07-04T21:12:34Z</time></trkpt>
<trkpt lat="39.317906" lon="-120.331366"><ele>2155.8</ele><time>2024-07-04T21:13:08Z</time></trkpt>
<trkpt lat="39.317757" lon="-120.331553"><ele>2156.0</ele><time>2024-07-04T21:13:24Z</time></trkpt>
<trkpt lat="39.317747" lon="-120.331663"><ele>2156.2</ele><time>2024-07-04T21:13:30Z</time></trkpt>
</trkseg></trk>
</gpx>
