<?xml version="1.0" encoding="UTF-8"?>
<gpx version="1.1" creator="Eric Sichak trip reports" xmlns="http://www.topografix.com/GPX/1/1">
<metadata><name>Morning Hike</name><time>2024-07-05T17:40:12Z</time></metadata>
<trk><name>Morning Hike</name><type>hike</type><trkseg>
<trkpt lat="39.352201" lon="-120.234062"><ele>1980.4</ele><time>2024-07-05T17:40:12Z</time></trkpt>
<trkpt lat="39.352230" lon="-120.234025"><ele>1979.4</ele><time>2024-07-05T17:40:26Z</time></trkpt>
<trkpt lat="39.352194" lon="-120.234101"><ele>1980.0</ele><time>2024-07-05T17:40:47Z</time></trkpt>
<trkpt lat="39.352244" lon="-120.234092"><ele>1979.4</ele><time>2024-07-05T17:42:29Z</time></trkpt>
<trkpt lat="39.351945" lon="-120.234259"><ele>1981.4</ele><time>2024-07-05T17:43:55Z</time></trkpt>
<trkpt lat="39.352158" lon="-120.234331"><ele>1980.4</ele><time>2024-07-05T17:44:30Z</time></trkpt>
<trkpt lat="39.352354" lon="-120.234274"><ele>1980.0</ele><time>2024-07-05T17:44:40Z</time></trkpt>
<trkpt lat="39.352381" lon="-120.233899"><ele>1980.2</ele><time>2024-07-05T17:44:46Z</time></trkpt>
<trkpt lat="39.352322" lon="-120.234032"><ele>1980.6</ele><time>2024-07-05T17:44:50Z</time></trkpt>
<trkpt lat="39.352320" lon="-120.234339"><ele>1980.6</ele><time>2024-07-05T17:46:47Z</time></trkpt>
<trkpt lat="39.352161" lon="-120.234104"><ele>1980.4</ele><time>2024-07-05T17:46:53Z</time></trkpt>
<trkpt lat="39.352226" lon="-120.234245"><ele>1980.4</ele><time>2024-07-05T17:47:00Z</time></trkpt>
<trkpt lat="39.352165" lon="-120.235312"><ele>1981.0</ele><time>2024-07-05T17:47:47Z</time></trkpt>
<trkpt lat="39.352150" lon="-120.235746"><ele>1989.0</ele><time>2024-07-05T17:48:19Z</time></trkpt>
<trkpt lat="39.352151" lon="-120.236589"><ele>1990.8</ele><time>2024-07-05T17:48:47Z</time></trkpt>
<trkpt lat="39.352080" lon="-120.236733"><ele>1990.8</ele><time>2024-07-05T17:48:56Z</time></trkpt>
<trkpt lat="39.352102" lon="-120.236684"><ele>1990.4</ele><time>2024-07-05T17:49:02Z</time></trkpt>
<trkpt lat="39.352213" lon="-120.236931"><ele>1989.0</ele><time>2024-07-05T17:50:51Z</time></trkpt>
<trkpt lat="39.352043" lon="-120.238203"><ele>1990.8</ele><time>2024-07-05T17:51:59Z</time></trkpt>
<trkpt lat="39.351875" lon="-120.239206"><ele>1999.8</ele><time>2024-07-05T17:52:44Z</time></trkpt>
<trkpt lat="39.351922" lon="-120.239191"><ele>2000.8</ele><time>2024-07-05T17:52:47Z</time></trkpt>
<trkpt lat="39.351877" lon="-120.239224"><ele>2000.8</ele><time>2024-07-05T17:52:49Z</time></trkpt>
<trkpt lat="39.352121" lon="-120.239185"><ele>1998.6</ele><time>2024-07-05T17:56:48Z</time></trkpt>
<trkpt lat="39.351950" lon="-120.239227"><ele>1998.6</ele><time>2024-07-05T17:56:58Z</time></trkpt>
<trkpt lat="39.351946" lon="-120.239161"><ele>1998.6</ele><time>2024-07-05T17:58:43Z</time></trkpt>
<trkpt lat="39.351578" lon="-120.239561"><ele>2002.8</ele><time>2024-07-05T18:00:43Z</time></trkpt>
<trkpt lat="39.351787" lon="-120.239646"><ele>2004.2</ele><time>2024-07-05T18:02:47Z</time></trkpt>
<trkpt lat="39.351649" lon="-120.239510"><ele>2004.6</ele><time>2024-07-05T18:03:00Z</time></trkpt>
<trkpt lat="39.350398" lon="-120.240976"><ele>2010.8</ele><time>2024-07-05T18:04:42Z</time></trkpt>
<trkpt lat="39.350427" lon="-120.241681"><ele>2015.4</ele><time>2024-07-05T18:08:42Z</time></trkpt>
<trkpt lat="39.350518" lon="-120.241692"><ele>2015.4</ele><time>2024-07-05T18:08:50Z</time></trkpt>
<trkpt lat="39.350357" lon="-120.242069"><ele>2017.0</ele><time>2024-07-05T18:09:02Z</time></trkpt>
<trkpt lat="39.349809" lon="-120.242955"><ele>2016.0</ele><time>2024-07-05T18:10:43Z</time></trkpt>
<trkpt lat="39.349910" lon="-120.242997"><ele>2016.0</ele><time>2024-07-05T18:10:52Z</time></trkpt>
<trkpt lat="39.349919" lon="-120.243135"><ele>2013.0</ele><time>2024-07-05T18:12:42Z</time></trkpt>
<trkpt lat="39.349622" lon="-120.243893"><ele>2012.8</ele><time>2024-07-05T18:12:59Z</time></trkpt>
<trkpt lat="39.349498" lon="-120.243913"><ele>2008.0</ele><time>2024-07-05T18:14:50Z</time></trkpt>
<trkpt lat="39.349542" lon="-120.243983"><ele>2008.4</ele><time>2024-07-05T18:15:00Z</time></trkpt>
<trkpt lat="39.348933" lon="-120.243994"><ele>2011.8</ele><time>2024-07-05T18:16:46Z</time></trkpt>
<trkpt lat="39.349497" lon="-120.243988"><ele>2012.2</ele><time>2024-07-05T18:17:00Z</time></trkpt>
<trkpt lat="39.349313" lon="-120.244219"><ele>2011.8</ele><time>2024-07-05T18:17:13Z</time></trkpt>
<trkpt lat="39.349348" lon="-120.244909"><ele>2011.4</ele><time>2024-07-05T18:18:50Z</time></trkpt>
<trkpt lat="39.349378" lon="-120.244798"><ele>2012.8</ele><time>2024-07-05T18:20:57Z</time></trkpt>
<trkpt lat="39.350078" lon="-120.245352"><ele>2013.8</ele><time>2024-07-05T18:21:33Z</time></trkpt>
<trkpt lat="39.350524" lon="-120.245669"><ele>2022.0</ele><time>2024-07-05T18:22:17Z</time></trkpt>
<trkpt lat="39.351212" lon="-120.246176"><ele>2021.2</ele><time>2024-07-05T18:22:44Z</time></trkpt>
<trkpt lat="39.351652" lon="-120.246141"><ele>2021.6</ele><time>2024-07-05T18:25:01Z</time></trkpt>
<trkpt lat="39.352807" lon="-120.246211"><ele>2027.6</ele><time>2024-07-05T18:26:43Z</time></trkpt>
<trkpt lat="39.352864" lon="-120.246263"><ele>2027.6</ele><time>2024-07-05T18:26:56Z</time></trkpt>
<trkpt lat="39.352805" lon="-120.246403"><ele>2025.4</ele><time>2024-07-05T18:30:28Z</time></trkpt>
<trkpt lat="39.352902" lon="-120.246251"><ele>2026.4</ele><time>2024-07-05T18:30:45Z</time></trkpt>
<trkpt lat="39.353330" lon="-120.246471"><ele>2027.4</ele><time>2024-07-05T18:31:01Z</time></trkpt>
<trkpt lat="39.353354" lon="-120.246389"><ele>2026.6</ele><time>2024-07-05T18:32:48Z</time></trkpt>
<trkpt lat="39.353284" lon="-120.246539"><ele>2026.8</ele><time>2024-07-05T18:34:43Z</time></trkpt>
<trkpt lat="39.353359" lon="-120.246497"><ele>2026.8</ele><time>2024-07-05T18:34:49Z</time></trkpt>
<trkpt lat="39.353345" lon="-120.246306"><ele>2026.6</ele><time>2024-07-05T18:34:59Z</time></trkpt>
<trkpt lat="39.353715" lon="-120.248462"><ele>2031.8</ele><time>2024-07-05T18:36:43Z</time></trkpt>
<trkpt lat="39.353963" lon="-120.248024"><ele>2032.8</ele><time>2024-07-05T18:38:43Z</time></trkpt>
<trkpt lat="39.353972" lon="-120.248240"><ele>2032.2</ele><time>2024-07-05T18:38:54Z</time></trkpt>
<trkpt lat="39.353981" lon="-120.248189"><ele>2032.4</ele><time>2024-07-05T18:39:02Z</time></trkpt>
<trkpt lat="39.353847" lon="-120.248224"><ele>2030.8</ele><time>2024-07-05T18:40:44Z</time></trkpt>
<trkpt lat="39.353856" lon="-120.248299"><ele>2030.8</ele><time>2024-07-05T18:40:47Z</time></trkpt>
<trkpt lat="39.353941" lon="-120.248317"><ele>2030.6</ele><time>2024-07-05T18:40:51Z</time></trkpt>
<trkpt lat="39.353762" lon="-120.248588"><ele>2027.4</ele><time>2024-07-05T18:41:47Z</time></trkpt>
<trkpt lat="39.353585" lon="-120.248934"><ele>2032.0</ele><time>2024-07-05T18:42:47Z</time></trkpt>
<trkpt lat="39.353858" lon="-120.248911"><ele>2032.4</ele><time>2024-07-05T18:42:55Z</time></trkpt>
<trkpt lat="39.353769" lon="-120.248854"><ele>2032.6</ele><time>2024-07-05T18:42:59Z</time></trkpt>
<trkpt lat="39.353548" lon="-120.249445"><ele>2036.0</ele><time>2024-07-05T18:44:17Z</time></trkpt>
<trkpt lat="39.353334" lon="-120.249884"><ele>2033.4</ele><time>2024-07-05T18:44:58Z</time></trkpt>
<trkpt lat="39.353381" lon="-120.249409"><ele>2035.6</ele><time>2024-07-05T18:46:44Z</time></trkpt>
<trkpt lat="39.353389" lon="-120.249481"><ele>2035.6</ele><time>2024-07-05T18:46:47Z</time></trkpt>
<trkpt lat="39.353329" lon="-120.249392"><ele>2035.2</ele><time>2024-07-05T18:46:52Z</time></trkpt>
<trkpt lat="39.353368" lon="-120.249127"><ele>2036.0</ele><time>2024-07-05T18:46:57Z</time></trkpt>
<trkpt lat="39.355331" lon="-120.248682"><ele>2033.4</ele><time>2024-07-05T18:48:45Z</time></trkpt>
<trkpt lat="39.355589" lon="-120.248401"><ele>2032.6</ele><time>2024-07-05T18:48:54Z</time></trkpt>
<trkpt lat="39.355665" lon="-120.248382"><ele>2031.6</ele><time>2024-07-05T18:49:05Z</time></trkpt>
<trkpt lat="39.355676" lon="-120.248465"><ele>2031.8</ele><time>2024-07-05T18:50:52Z</time></trkpt>
<trkpt lat="39.355647" lon="-120.248267"><ele>2032.0</ele><time>2024-07-05T18:51:00Z</time></trkpt>
<trkpt lat="39.355745" lon="-120.248260"><ele>2032.8</ele><time>2024-07-05T18:51:07Z</time></trkpt>
<trkpt lat="39.356158" lon="-120.247859"><ele>2033.8</ele><time>2024-07-05T18:52:44Z</time></trkpt>
<trkpt lat="39.356260" lon="-120.247886"><ele>2034.0</ele><time>2024-07-05T18:52:54Z</time></trkpt>
<trkpt lat="39.356416" lon="-120.248193"><ele>2032.4</ele><time>2024-07-05T18:54:44Z</time></trkpt>
<trkpt lat="39.356344" lon="-120.247975"><ele>2032.4</ele><time>2024-07-05T18:55:00Z</time></trkpt>
<trkpt lat="39.356545" lon="-120.248003"><ele>2033.4</ele><time>2024-07-05T18:56:47Z</time></trkpt>
<trkpt lat="39.356531" lon="-120.247915"><ele>2033.0</ele><time>2024-07-05T18:57:02Z</time></trkpt>
<trkpt lat="39.356596" lon="-120.248115"><ele>2031.4</ele><time>2024-07-05T18:59:01Z</time></trkpt>
<trkpt lat="39.357760" lon="-120.246907"><ele>2036.2</ele><time>2024-07-05T19:00:42Z</time></trkpt>
<trkpt lat="39.357727" lon="-120.246963"><ele>2036.0</ele><time>2024-07-05T19:00:48Z</time></trkpt>
<trkpt lat="39.357794" lon="-120.246295"><ele>2033.6</ele><time>2024-07-05T19:02:45Z</time></trkpt>
<trkpt lat="39.357885" lon="-120.246386"><ele>2033.6</ele><time>2024-07-05T19:02:50Z</time></trkpt>
<trkpt lat="39.358157" lon="-120.246343"><ele>2033.8</ele><time>2024-07-05T19:03:00Z</time></trkpt>
<trkpt lat="39.358877" lon="-120.245712"><ele>2027.4</ele><time>2024-07-05T19:05:02Z</time></trkpt>
<trkpt lat="39.358756" lon="-120.245863"><ele>2028.2</ele><time>2024-07-05T19:06:55Z</time></trkpt>
<trkpt lat="39.359341" lon="-120.245216"><ele>2027.2</ele><time>2024-07-05T19:08:42Z</time></trkpt>
<trkpt lat="39.359338" lon="-120.245148"><ele>2027.0</ele><time>2024-07-05T19:08:45Z</time></trkpt>
<trkpt lat="39.359284" lon="-120.245186"><ele>2026.6</ele><time>2024-07-05T19:08:49Z</time></trkpt>
<trkpt lat="39.359355" lon="-120.245450"><ele>2026.2</ele><time>2024-07-05T19:10:43Z</time></trkpt>
<trkpt lat="39.359314" lon="-120.245281"><ele>2025.8</ele><time>2024-07-05T19:10:51Z</time></trkpt>
<trkpt lat="39.359276" lon="-120.245296"><ele>2025.8</ele><time>2024-07-05T19:10:57Z</time></trkpt>
<trkpt lat="39.359434" lon="-120.245184"><ele>2026.0</ele><time>2024-07-05T19:12:45Z</time></trkpt>
<trkpt lat="39.359297" lon="-120.245212"><ele>2026.2</ele><time>2024-07-05T19:12:55Z</time></trkpt>
<trkpt lat="39.359064" lon="-120.244091"><ele>2020.0</ele><time>2024-07-05T19:14:47Z</time></trkpt>
<trkpt lat="39.359235" lon="-120.244136"><ele>2019.4</ele><time>2024-07-05T19:15:00Z</time></trkpt>
<trkpt lat="39.359105" lon="-120.244171"><ele>2018.2</ele><time>2024-07-05T19:16:44Z</time></trkpt>
<trkpt lat="39.359148" lon="-120.244076"><ele>2018.2</ele><time>2024-07-05T19:16:49Z</time></trkpt>
<trkpt lat="39.359072" lon="-120.244027"><ele>2018.2</ele><time>2024-07-05T19:16:52Z</time></trkpt>
<trkpt lat="39.359205" lon="-120.244098"><ele>2018.2</ele><time>2024-07-05T19:16:58Z</time></trkpt>
<trkpt lat="39.359123" lon="-120.243984"><ele>2018.2</ele><time>2024-07-05T19:17:05Z</time></trkpt>
<trkpt lat="39.359160" lon="-120.243406"><ele>2014.8</ele><time>2024-07-05T19:18:46Z</time></trkpt>
<trkpt lat="39.359269" lon="-120.243397"><ele>2014.6</ele><time>2024-07-05T19:18:53Z</time></trkpt>
<trkpt lat="39.359140" lon="-120.243312"><ele>2015.6</ele><time>2024-07-05T19:20:44Z</time></trkpt>
<trkpt lat="39.359204" lon="-120.243312"><ele>2015.6</ele><time>2024-07-05T19:20:47Z</time></trkpt>
<trkpt lat="39.359245" lon="-120.243344"><ele>2015.6</ele><time>2024-07-05T19:20:51Z</time></trkpt>
<trkpt lat="39.359208" lon="-120.243370"><ele>2015.4</ele><time>2024-07-05T19:20:55Z</time></trkpt>
<trkpt lat="39.359254" lon="-120.243324"><ele>2015.0</ele><time>2024-07-05T19:21:00Z</time></trkpt>
<trkpt lat="39.359065" lon="-120.243386"><ele>2015.2</ele><time>2024-07-05T19:22:42Z</time></trkpt>
<trkpt lat="39.359220" lon="-120.243397"><ele>2014.8</ele><time>2024-07-05T19:22:49Z</time></trkpt>
<trkpt lat="39.359180" lon="-120.243387"><ele>2012.8</ele><time>2024-07-05T19:23:02Z</time></trkpt>
<trkpt lat="39.359175" lon="-120.242455"><ele>2013.6</ele><time>2024-07-05T19:24:11Z</time></trkpt>
<trkpt lat="39.359120" lon="-120.241811"><ele>2005.0</ele><time>2024-07-05T19:24:46Z</time></trkpt>
<trkpt lat="39.359172" lon="-120.241863"><ele>2005.0</ele><time>2024-07-05T19:24:51Z</time></trkpt>
<trkpt lat="39.359084" lon="-120.241843"><ele>2004.8</ele><time>2024-07-05T19:25:00Z</time></trkpt>
<trkpt lat="39.359122" lon="-120.241819"><ele>2004.8</ele><time>2024-07-05T19:25:01Z</time></trkpt>
<trkpt lat="39.358595" lon="-120.240271"><ele>1997.4</ele><time>2024-07-05T19:26:43Z</time></trkpt>
<trkpt lat="39.358654" lon="-120.240409"><ele>1996.8</ele><time>2024-07-05T19:26:50Z</time></trkpt>
<trkpt lat="39.358474" lon="-120.240263"><ele>1994.0</ele><time>2024-07-05T19:28:58Z</time></trkpt>
<trkpt lat="39.357672" lon="-120.238883"><ele>1996.4</ele><time>2024-07-05T19:31:42Z</time></trkpt>
<trkpt lat="39.357611" lon="-120.238913"><ele>1993.8</ele><time>2024-07-05T19:31:57Z</time></trkpt>
<trkpt lat="39.357714" lon="-120.238856"><ele>1992.8</ele><time>2024-07-05T19:33:43Z</time></trkpt>
<trkpt lat="39.357758" lon="-120.238988"><ele>1992.0</ele><time>2024-07-05T19:33:48Z</time></trkpt>
<trkpt lat="39.357773" lon="-120.238939"><ele>1991.6</ele><time>2024-07-05T19:33:51Z</time></trkpt>
<trkpt lat="39.356913" lon="-120.237997"><ele>1994.8</ele><time>2024-07-05T19:35:45Z</time></trkpt>
<trkpt lat="39.356828" lon="-120.238053"><ele>1994.6</ele><time>2024-07-05T19:35:57Z</time></trkpt>
<trkpt lat="39.356999" lon="-120.238526"><ele>1997.6</ele><time>2024-07-05T19:37:45Z</time></trkpt>
<trkpt lat="39.357057" lon="-120.238219"><ele>1997.4</ele><time>2024-07-05T19:37:48Z</time></trkpt>
<trkpt lat="39.356866" lon="-120.237979"><ele>1997.2</ele><time>2024-07-05T19:37:50Z</time></trkpt>
<trkpt lat="39.356818" lon="-120.238084"><ele>1997.4</ele><time>2024-07-05T19:37:55Z</time></trkpt>
<trkpt lat="39.356810" lon="-120.237973"><ele>1995.8</ele><time>2024-07-05T19:39:43Z</time></trkpt>
<trkpt lat="39.356813" lon="-120.238045"><ele>1996.6</ele><time>2024-07-05T19:39:49Z</time></trkpt>
<trkpt lat="39.356461" lon="-120.238033"><ele>1997.6</ele><time>2024-07-05T19:39:59Z</time></trkpt>
<trkpt lat="39.355624" lon="-120.237480"><ele>2004.6</ele><time>2024-07-05T19:40:37Z</time></trkpt>
<trkpt lat="39.354683" lon="-120.236846"><ele>2003.8</ele><time>2024-07-05T19:41:43Z</time></trkpt>
<trkpt lat="39.354661" lon="-120.237049"><ele>2003.2</ele><time>2024-07-05T19:43:54Z</time></trkpt>
<trkpt lat="39.354708" lon="-120.237029"><ele>2003.6</ele><time>2024-07-05T19:43:59Z</time></trkpt>
<trkpt lat="39.353916" lon="-120.236395"><ele>2000.2</ele><time>2024-07-05T19:45:51Z</time></trkpt>
<trkpt lat="39.353448" lon="-120.236162"><ele>1998.2</ele><time>2024-07-05T19:46:02Z</time></trkpt>
<trkpt lat="39.353319" lon="-120.236005"><ele>1995.6</ele><time>2024-07-05T19:46:13Z</time></trkpt>
<trkpt lat="39.353251" lon="-120.236031"><ele>1997.2</ele><time>2024-07-05T19:47:43Z</time></trkpt>
<trkpt lat="39.353240" lon="-120.235903"><ele>1996.8</ele><time>2024-07-05T19:47:51Z</time></trkpt>
<trkpt lat="39.353219" lon="-120.235959"><ele>1995.6</ele><time>2024-07-05T19:48:03Z</time></trkpt>
<trkpt lat="39.352947" lon="-120.235645"><ele>1994.8</ele><time>2024-07-05T19:49:44Z</time></trkpt>
<trkpt lat="39.353016" lon="-120.235630"><ele>1994.6</ele><time>2024-07-05T19:49:45Z</time></trkpt>
<trkpt lat="39.352959" lon="-120.235442"><ele>1993.6</ele><time>2024-07-05T19:50:20Z</time></trkpt>
<trkpt lat="39.352814" lon="-120.235407"><ele>1993.4</ele><time>2024-07-05T19:51:43Z</time></trkpt>
<trkpt lat="39.352860" lon="-120.235489"><ele>1993.2</ele><time>2024-07-05T19:51:50Z</time></trkpt>
<trkpt lat="39.352807" lon="-120.235620"><ele>1992.4</ele><time>2024-07-05T19:52:00Z</time></trkpt>
<trkpt lat="39.352074" lon="-120.233730"><ele>1980.8</ele><time>2024-07-05T19:55:39Z</time></trkpt>
<trkpt lat="39.352132" lon="-120.233743"><ele>1981.4</ele><time>2024-07-05T19:55:47Z</time></trkpt>
<trkpt lat="39.351987" lon="-120.233709"><ele>1982.2</ele><time>2024-07-05T19:55:59Z</time></trkpt>
<trkpt lat="39.351896" lon="-120.233786"><ele>1979.4</ele><time>2024-07-05T19:56:44Z</time></trkpt>
<trkpt lat="39.352072" lon="-120.233755"><ele>1979.2</ele><time>2024-07-05T19:57:45Z</time></trkpt>
<trkpt lat="39.351823" lon="-120.233709"><ele>1978.2</ele><time>2024-07-05T19:57:53Z</time></trkpt>
<trkpt lat="39.351919" lon="-120.233608"><ele>1979.4</ele><time>2024-07-05T19:59:42Z</time></trkpt>
<trkpt lat="39.352080" lon="-120.233799"><ele>1979.0</ele><time>2024-07-05T19:59:51Z</time></trkpt>
<trkpt lat="39.351872" lon="-120.233369"><ele>1979.0</ele><time>2024-07-05T19:59:52Z</time></trkpt>
<trkpt lat="39.351875" lon="-120.233491"><ele>1979.0</ele><time>2024-07-05T19:59:54Z</time></trkpt>
<trkpt lat="39.351783" lon="-120.233628"><ele>1978.0</ele><time>2024-07-05T20:00:03Z</time></trkpt>
<trkpt lat="39.351875" lon="-120.233748"><ele>1980.4</ele><time>2024-07-05T20:02:03Z</time></trkpt>
<trkpt lat="39.351177" lon="-120.235333"><ele>1980.2</ele><time>2024-07-05T20:03:44Z</time></trkpt>
<trkpt lat="39.351013" lon="-120.235877"><ele>1979.4</ele><time>2024-07-05T20:03:55Z</time></trkpt>
<trkpt lat="39.351020" lon="-120.236089"><ele>1978.2</ele><time>2024-07-05T20:05:48Z</time></trkpt>
<trkpt lat="39.350982" lon="-120.236061"><ele>1976.8</ele><time>2024-07-05T20:06:01Z</time></trkpt>
<trkpt lat="39.351108" lon="-120.236247"><ele>1976.4</ele><time>2024-07-05T20:07:43Z</time></trkpt>
<trkpt lat="39.351052" lon="-120.236160"><ele>1976.0</ele><time>2024-07-05T20:08:02Z</time></trkpt>
<trkpt lat="39.351065" lon="-120.236876"><ele>1977.6</ele><time>2024-07-05T20:09:45Z</time></trkpt>
<trkpt lat="39.351116" lon="-120.236790"><ele>1977.8</ele><time>2024-07-05T20:09:59Z</time></trkpt>
<trkpt lat="39.351122" lon="-120.237131"><ele>1975.4</ele><time>2024-07-05T20:10:30Z</time></trkpt>
<trkpt lat="39.351159" lon="-120.237836"><ele>1985.0</ele><time>2024-07-05T20:11:45Z</time></trkpt>
<trkpt lat="39.351181" lon="-120.237908"><ele>1985.0</ele><time>2024-07-05T20:11:46Z</time></trkpt>
<trkpt lat="39.351232" lon="-120.237871"><ele>1984.8</ele><time>2024-07-05T20:11:51Z</time></trkpt>
<trkpt lat="39.351125" lon="-120.237755"><ele>1982.4</ele><time>2024-07-05T20:12:28Z</time></trkpt>
<trkpt lat="39.351145" lon="-120.237986"><ele>1983.0</ele><time>2024-07-05T20:13:48Z</time></trkpt>
<trkpt lat="39.351150" lon="-120.237822"><ele>1982.8</ele><time>2024-07-05T20:13:53Z</time></trkpt>
<trkpt lat="39.351339" lon="-120.238596"><ele>1985.8</ele><time>2024-07-05T20:15:46Z</time></trkpt>
<trkpt lat="39.351376" lon="-120.238478"><ele>1987.0</ele><time>2024-07-05T20:15:57Z</time></trkpt>
<trkpt lat="39.351190" lon="-120.238815"><ele>1985.2</ele><time>2024-07-05T20:17:44Z</time></trkpt>
<trkpt lat="39.351127" lon="-120.238778"><ele>1989.4</ele><time>2024-07-05T20:17:58Z</time></trkpt>
<trkpt lat="39.350772" lon="-120.239295"><ele>1986.4</ele><time>2024-07-05T20:19:26Z</time></trkpt>
<trkpt lat="39.350208" lon="-120.239987"><ele>1990.6</ele><time>2024-07-05T20:19:50Z</time></trkpt>
<trkpt lat="39.349970" lon="-120.240438"><ele>1992.2</ele><time>2024-07-05T20:19:59Z</time></trkpt>
<trkpt lat="39.349752" lon="-120.240542"><ele>1992.4</ele><time>2024-07-05T20:21:44Z</time></trkpt>
<trkpt lat="39.349796" lon="-120.240495"><ele>1992.0</ele><time>2024-07-05T20:21:55Z</time></trkpt>
<trkpt lat="39.349521" lon="-120.241658"><ele>2005.4</ele><time>2024-07-05T20:23:51Z</time></trkpt>
<trkpt lat="39.349256" lon="-120.242127"><ele>2010.4</ele><time>2024-07-05T20:24:03Z</time></trkpt>
<trkpt lat="39.348776" lon="-120.242667"><ele>2012.4</ele><time>2024-07-05T20:25:47Z</time></trkpt>
<trkpt lat="39.348792" lon="-120.242785"><ele>2013.2</ele><time>2024-07-05T20:26:09Z</time></trkpt>
<trkpt lat="39.348924" lon="-120.242618"><ele>2010.2</ele><time>2024-07-05T20:26:52Z</time></trkpt>
<trkpt lat="39.348828" lon="-120.242806"><ele>2017.2</ele><time>2024-07-05T20:28:46Z</time></trkpt>
<trkpt lat="39.349060" lon="-120.242797"><ele>2017.4</ele><time>2024-07-05T20:28:51Z</time></trkpt>
<trkpt lat="39.349024" lon="-120.242692"><ele>2017.2</ele><time>2024-07-05T20:29:01Z</time></trkpt>
<trkpt lat="39.348950" lon="-120.242932"><ele>2014.8</ele><time>2024-07-05T20:30:49Z</time></trkpt>
<trkpt lat="39.348921" lon="-120.242813"><ele>2015.4</ele><time>2024-07-05T20:31:03Z</time></trkpt>
<trkpt lat="39.348620" lon="-120.243019"><ele>2016.0</ele><time>2024-07-05T20:32:49Z</time></trkpt>
<trkpt lat="39.348579" lon="-120.243237"><ele>2015.2</ele><time>2024-07-05T20:32:53Z</time></trkpt>
<trkpt lat="39.348335" lon="-120.243710"><ele>2009.6</ele><time>2024-07-05T20:33:01Z</time></trkpt>
<trkpt lat="39.347948" lon="-120.243373"><ele>2001.2</ele><time>2024-07-05T20:34:44Z</time></trkpt>
<trkpt lat="39.347965" lon="-120.243545"><ele>2003.4</ele><time>2024-07-05T20:34:57Z</time></trkpt>
<trkpt lat="39.348056" lon="-120.243586"><ele>2006.0</ele><time>2024-07-05T20:36:06Z</time></trkpt>
<trkpt lat="39.348098" lon="-120.243668"><ele>2001.2</ele><time>2024-07-05T20:36:45Z</time></trkpt>
<trkpt lat="39.348033" lon="-120.243516"><ele>2002.6</ele><time>2024-07-05T20:37:02Z</time></trkpt>
<trkpt lat="39.347943" lon="-120.243462"><ele>1997.6</ele><time>2024-07-05T20:38:18Z</time></trkpt>
<trkpt lat="39.347915" lon="-120.243333"><ele>1998.0</ele><time>2024-07-05T20:38:54Z</time></trkpt>
<trkpt lat="39.348143" lon="-120.243608"><ele>2000.2</ele><time>2024-07-05T20:39:10Z</time></trkpt>
<trkpt lat="39.348412" lon="-120.243970"><ele>2012.6</ele><time>2024-07-05T20:39:48Z</time></trkpt>
<trkpt lat="39.348559" lon="-120.244168"><ele>2008.6</ele><time>2024-07-05T20:40:16Z</time></trkpt>
<trkpt lat="39.348952" lon="-120.244677"><ele>2013.4</ele><time>2024-07-05T20:40:44Z</time></trkpt>
<trkpt lat="39.348621" lon="-120.244749"><ele>2013.0</ele><time>2024-07-05T20:41:02Z</time></trkpt>
<trkpt lat="39.348549" lon="-120.244910"><ele>2013.2</ele><time>2024-07-05T20:41:12Z</time></trkpt>
<trkpt lat="39.348839" lon="-120.245035"><ele>2012.6</ele><time>2024-07-05T20:42:46Z</time></trkpt>
<trkpt lat="39.348827" lon="-120.244958"><ele>2012.2</ele><time>2024-07-05T20:42:49Z</time></trkpt>
<trkpt lat="39.348790" lon="-120.245072"><ele>2011.8</ele><time>2024-07-05T20:43:01Z</time></trkpt>
<trkpt lat="39.348810" lon="-120.245034"><ele>2007.2</ele><time>2024-07-05T20:43:36Z</time></trkpt>
<trkpt lat="39.348819" lon="-120.245023"><ele>2012.2</ele><time>2024-07-05T20:44:00Z</time></trkpt>
<trkpt lat="39.348863" lon="-120.244988"><ele>2008.2</ele><time>2024-07-05T20:44:30Z</time></trkpt>
<trkpt lat="39.348898" lon="-120.244842"><ele>2010.2</ele><time>2024-07-05T20:44:49Z</time></trkpt>
<trkpt lat="39.348866" lon="-120.244824"><ele>2009.2</ele><time>2024-07-05T20:44:54Z</time></trkpt>
<trkpt lat="39.348887" lon="-120.244995"><ele>2015.6</ele><time>2024-07-05T20:45:22Z</time></trkpt>
<trkpt lat="39.348870" lon="-120.245454"><ele>2017.0</ele><time>2024-07-05T20:46:56Z</time></trkpt>
<trkpt lat="39.348960" lon="-120.245444"><ele>2016.0</ele><time>2024-07-05T20:48:45Z</time></trkpt>
<trkpt lat="39.348892" lon="-120.245549"><ele>2017.0</ele><time>2024-07-05T20:48:59Z</time></trkpt>
<trkpt lat="39.349083" lon="-120.246379"><ele>2015.0</ele><time>2024-07-05T20:50:46Z</time></trkpt>
<trkpt lat="39.349089" lon="-120.246733"><ele>2017.2</ele><time>2024-07-05T20:50:51Z</time></trkpt>
<trkpt lat="39.349041" lon="-120.246767"><ele>2017.0</ele><time>2024-07-05T20:50:54Z</time></trkpt>
<trkpt lat="39.349102" lon="-120.246712"><ele>2015.0</ele><time>2024-07-05T20:51:03Z</time></trkpt>
<trkpt lat="39.348803" lon="-120.247185"><ele>2016.2</ele><time>2024-07-05T20:52:43Z</time></trkpt>
<trkpt lat="39.349000" lon="-120.247388"><ele>2016.6</ele><time>2024-07-05T20:52:47Z</time></trkpt>
<trkpt lat="39.348925" lon="-120.247449"><ele>2018.4</ele><time>2024-07-05T20:52:49Z</time></trkpt>
<trkpt lat="39.348936" lon="-120.247400"><ele>2019.2</ele><time>2024-07-05T20:52:50Z</time></trkpt>
<trkpt lat="39.348988" lon="-120.247378"><ele>2017.8</ele><time>2024-07-05T20:52:56Z</time></trkpt>
<trkpt lat="39.348804" lon="-120.247611"><ele>2014.8</ele><time>2024-07-05T20:53:48Z</time></trkpt>
<trkpt lat="39.348566" lon="-120.247900"><ele>2022.8</ele><time>2024-07-05T20:54:45Z</time></trkpt>
<trkpt lat="39.348704" lon="-120.247742"><ele>2022.4</ele><time>2024-07-05T20:54:50Z</time></trkpt>
<trkpt lat="39.348753" lon="-120.247793"><ele>2020.6</ele><time>2024-07-05T20:55:03Z</time></trkpt>
<trkpt lat="39.348551" lon="-120.248174"><ele>2027.6</ele><time>2024-07-05T20:55:52Z</time></trkpt>
<trkpt lat="39.348306" lon="-120.248576"><ele>2024.4</ele><time>2024-07-05T20:56:44Z</time></trkpt>
<trkpt lat="39.348256" lon="-120.248411"><ele>2024.2</ele><time>2024-07-05T20:56:48Z</time></trkpt>
<trkpt lat="39.348220" lon="-120.248450"><ele>2024.2</ele><time>2024-07-05T20:56:58Z</time></trkpt>
<trkpt lat="39.348110" lon="-120.248357"><ele>2023.8</ele><time>2024-07-05T20:57:08Z</time></trkpt>
<trkpt lat="39.348209" lon="-120.248385"><ele>2023.4</ele><time>2024-07-05T20:57:14Z</time></trkpt>
<trkpt lat="39.348215" lon="-120.248274"><ele>2025.8</ele><time>2024-07-05T20:57:46Z</time></trkpt>
<trkpt lat="39.348173" lon="-120.249029"><ele>2024.8</ele><time>2024-07-05T20:59:49Z</time></trkpt>
<trkpt lat="39.348130" lon="-120.248987"><ele>2024.8</ele><time>2024-07-05T20:59:51Z</time></trkpt>
<trkpt lat="39.348238" lon="-120.248953"><ele>2025.8</ele><time>2024-07-05T21:01:44Z</time></trkpt>
<trkpt lat="39.348084" lon="-120.248848"><ele>2025.0</ele><time>2024-07-05T21:01:53Z</time></trkpt>
<trkpt lat="39.348191" lon="-120.248884"><ele>2024.6</ele><time>2024-07-05T21:01:58Z</time></trkpt>
<trkpt lat="39.347976" lon="-120.249152"><ele>2025.8</ele><time>2024-07-05T21:03:44Z</time></trkpt>
<trkpt lat="39.347923" lon="-120.249091"><ele>2025.8</ele><time>2024-07-05T21:03:48Z</time></trkpt>
<trkpt lat="39.348066" lon="-120.249108"><ele>2025.4</ele><time>2024-07-05T21:03:55Z</time></trkpt>
<trkpt lat="39.347606" lon="-120.249215"><ele>2028.0</ele><time>2024-07-05T21:05:26Z</time></trkpt>
<trkpt lat="39.347118" lon="-120.249406"><ele>2024.8</ele><time>2024-07-05T21:05:44Z</time></trkpt>
<trkpt lat="39.346670" lon="-120.249308"><ele>2023.6</ele><time>2024-07-05T21:05:51Z</time></trkpt>
<trkpt lat="39.346405" lon="-120.249161"><ele>2022.2</ele><time>2024-07-05T21:06:03Z</time></trkpt>
<trkpt lat="39.345935" lon="-120.249313"><ele>2018.8</ele><time>2024-07-05T21:07:54Z</time></trkpt>
<trkpt lat="39.345974" lon="-120.249343"><ele>2018.4</ele><time>2024-07-05T21:08:03Z</time></trkpt>
<trkpt lat="39.345807" lon="-120.249578"><ele>2024.4</ele><time>2024-07-05T21:09:48Z</time></trkpt>
<trkpt lat="39.345864" lon="-120.249566"><ele>2021.4</ele><time>2024-07-05T21:10:03Z</time></trkpt>
<trkpt lat="39.345179" lon="-120.250224"><ele>2025.8</ele><time>2024-07-05T21:11:44Z</time></trkpt>
<trkpt lat="39.345072" lon="-120.250118"><ele>2026.0</ele><time>2024-07-05T21:11:50Z</time></trkpt>
<trkpt lat="39.345048" lon="-120.249870"><ele>2027.0</ele><time>2024-07-05T21:13:45Z</time></trkpt>
<trkpt lat="39.344902" lon="-120.249828"><ele>2027.4</ele><time>2024-07-05T21:13:55Z</time></trkpt>
<trkpt lat="39.345003" lon="-120.249897"><ele>2024.8</ele><time>2024-07-05T21:14:35Z</time></trkpt>
<trkpt lat="39.345042" lon="-120.250093"><ele>2027.0</ele><time>2024-07-05T21:15:43Z</time></trkpt>
<trkpt lat="39.345086" lon="-120.250030"><ele>2026.2</ele><time>2024-07-05T21:15:50Z</time></trkpt>
<trkpt lat="39.345085" lon="-120.250091"><ele>2025.4</ele><time>2024-07-05T21:15:57Z</time></trkpt>
<trkpt lat="39.344606" lon="-120.249526"><ele>2020.8</ele><time>2024-07-05T21:17:43Z</time></trkpt>
<trkpt lat="39.344581" lon="-120.249592"><ele>2021.0</ele><time>2024-07-05T21:17:49Z</time></trkpt>
<trkpt lat="39.344665" lon="-120.249537"><ele>2021.0</ele><time>2024-07-05T21:17:51Z</time></trkpt>
<trkpt lat="39.344612" lon="-120.249625"><ele>2021.0</ele><time>2024-07-05T21:17:59Z</time></trkpt>
<trkpt lat="39.344599" lon="-120.249579"><ele>2026.2</ele><time>2024-07-05T21:18:28Z</time></trkpt>
<trkpt lat="39.344631" lon="-120.249622"><ele>2020.8</ele><time>2024-07-05T21:19:53Z</time></trkpt>
<trkpt lat="39.344421" lon="-120.248644"><ele>2023.4</ele><time>2024-07-05T21:20:32Z</time></trkpt>
<trkpt lat="39.343997" lon="-120.246954"><ele>2015.0</ele><time>2024-07-05T21:21:49Z</time></trkpt>
<trkpt lat="39.344212" lon="-120.246789"><ele>2015.0</ele><time>2024-07-05T21:21:54Z</time></trkpt>
<trkpt lat="39.343921" lon="-120.246847"><ele>2014.8</ele><time>2024-07-05T21:23:46Z</time></trkpt>
<trkpt lat="39.343990" lon="-120.246927"><ele>2015.0</ele><time>2024-07-05T21:24:02Z</time></trkpt>
<trkpt lat="39.344041" lon="-120.246808"><ele>2010.6</ele><time>2024-07-05T21:25:57Z</time></trkpt>
<trkpt lat="39.343815" lon="-120.245985"><ele>2018.0</ele><time>2024-07-05T21:26:34Z</time></trkpt>
<trkpt lat="39.343504" lon="-120.244608"><ele>2016.4</ele><time>2024-07-05T21:27:45Z</time></trkpt>
<trkpt lat="39.343505" lon="-120.244686"><ele>2016.6</ele><time>2024-07-05T21:27:47Z</time></trkpt>
<trkpt lat="39.343542" lon="-120.244596"><ele>2016.4</ele><time>2024-07-05T21:27:55Z</time></trkpt>
<trkpt lat="39.343673" lon="-120.244586"><ele>2015.8</ele><time>2024-07-05T21:28:03Z</time></trkpt>
<trkpt lat="39.343544" lon="-120.244544"><ele>2015.2</ele><time>2024-07-05T21:29:47Z</time></trkpt>
<trkpt lat="39.343584" lon="-120.244499"><ele>2015.2</ele><time>2024-07-05T21:30:01Z</time></trkpt>
<trkpt lat="39.343553" lon="-120.244394"><ele>2013.6</ele><time>2024-07-05T21:31:48Z</time></trkpt>
<trkpt lat="39.343620" lon="-120.244356"><ele>2013.8</ele><time>2024-07-05T21:31:50Z</time></trkpt>
<trkpt lat="39.343617" lon="-120.244460"><ele>2013.8</ele><time>2024-07-05T21:31:52Z</time></trkpt>
<trkpt lat="39.343600" lon="-120.244415"><ele>2014.2</ele><time>2024-07-05T21:31:53Z</time></trkpt>
<trkpt lat="39.343657" lon="-120.244432"><ele>2014.0</ele><time>2024-07-05T21:31:57Z</time></trkpt>
<trkpt lat="39.343966" lon="-120.243728"><ele>2017.4</ele><time>2024-07-05T21:34:03Z</time></trkpt>
<trkpt lat="39.343920" lon="-120.243755"><ele>2013.4</ele><time>2024-07-05T21:35:16Z</time></trkpt>
<trkpt lat="39.343960" lon="-120.243777"><ele>2012.2</ele><time>2024-07-05T21:35:53Z</time></trkpt>
<trkpt lat="39.343895" lon="-120.243770"><ele>2011.8</ele><time>2024-07-05T21:35:59Z</time></trkpt>
<trkpt lat="39.344099" lon="-120.243492"><ele>2016.4</ele><time>2024-07-05T21:37:43Z</time></trkpt>
<trkpt lat="39.344137" lon="-120.243335"><ele>2016.6</ele><time>2024-07-05T21:37:55Z</time></trkpt>
<trkpt lat="39.344722" lon="-120.242389"><ele>2014.6</ele><time>2024-07-05T21:38:36Z</time></trkpt>
<trkpt lat="39.345021" lon="-120.241901"><ele>2021.2</ele><time>2024-07-05T21:39:18Z</time></trkpt>
<trkpt lat="39.345526" lon="-120.241110"><ele>2018.4</ele><time>2024-07-05T21:39:45Z</time></trkpt>
<trkpt lat="39.345555" lon="-120.241293"><ele>2018.8</ele><time>2024-07-05T21:39:49Z</time></trkpt>
<trkpt lat="39.345480" lon="-120.241281"><ele>2018.6</ele><time>2024-07-05T21:40:00Z</time></trkpt>
<trkpt lat="39.345525" lon="-120.241324"><ele>2014.8</ele><time>2024-07-05T21:41:56Z</time></trkpt>
<trkpt lat="39.345438" lon="-120.241368"><ele>2016.8</ele><time>2024-07-05T21:43:54Z</time></trkpt>
<trkpt lat="39.345735" lon="-120.239660"><ele>2021.8</ele><time>2024-07-05T21:45:51Z</time></trkpt>
<trkpt lat="39.345771" lon="-120.239560"><ele>2020.6</ele><time>2024-07-05T21:45:56Z</time></trkpt>
<trkpt lat="39.345811" lon="-120.239604"><ele>2020.0</ele><time>2024-07-05T21:46:00Z</time></trkpt>
<trkpt lat="39.345781" lon="-120.239663"><ele>2021.0</ele><time>2024-07-05T21:46:10Z</time></trkpt>
<trkpt lat="39.345752" lon="-120.239595"><ele>2021.8</ele><time>2024-07-05T21:46:18Z</time></trkpt>
<trkpt lat="39.345855" lon="-120.239454"><ele>2020.8</ele><time>2024-07-05T21:46:44Z</time></trkpt>
<trkpt lat="39.345729" lon="-120.239658"><ele>2022.2</ele><time>2024-07-05T21:49:47Z</time></trkpt>
<trkpt lat="39.345878" lon="-120.239590"><ele>2021.8</ele><time>2024-07-05T21:50:01Z</time></trkpt>
<trkpt lat="39.346158" lon="-120.239162"><ele>2018.2</ele><time>2024-07-05T21:51:49Z</time></trkpt>
<trkpt lat="39.346200" lon="-120.239257"><ele>2018.0</ele><time>2024-07-05T21:51:54Z</time></trkpt>
<trkpt lat="39.346268" lon="-120.239173"><ele>2017.6</ele><time>2024-07-05T21:52:31Z</time></trkpt>
<trkpt lat="39.346112" lon="-120.239117"><ele>2015.6</ele><time>2024-07-05T21:53:39Z</time></trkpt>
<trkpt lat="39.346125" lon="-120.239190"><ele>2017.4</ele><time>2024-07-05T21:53:51Z</time></trkpt>
<trkpt lat="39.346257" lon="-120.239173"><ele>2017.4</ele><time>2024-07-05T21:54:00Z</time></trkpt>
<trkpt lat="39.346229" lon="-120.239214"><ele>2019.8</ele><time>2024-07-05T21:54:38Z</time></trkpt>
<trkpt lat="39.346265" lon="-120.239319"><ele>2015.0</ele><time>2024-07-05T21:55:47Z</time></trkpt>
<trkpt lat="39.346242" lon="-120.239197"><ele>2014.2</ele><time>2024-07-05T21:55:51Z</time></trkpt>
<trkpt lat="39.346182" lon="-120.239186"><ele>2014.0</ele><time>2024-07-05T21:55:54Z</time></trkpt>
<trkpt lat="39.346194" lon="-120.239246"><ele>2014.0</ele><time>2024-07-05T21:55:59Z</time></trkpt>
<trkpt lat="39.346492" lon="-120.238396"><ele>2013.8</ele><time>2024-07-05T21:57:45Z</time></trkpt>
<trkpt lat="39.346545" lon="-120.238457"><ele>2013.4</ele><time>2024-07-05T21:57:54Z</time></trkpt>
<trkpt lat="39.346523" lon="-120.238412"><ele>2013.6</ele><time>2024-07-05T21:58:03Z</time></trkpt>
<trkpt lat="39.346711" lon="-120.238257"><ele>2014.4</ele><time>2024-07-05T21:58:24Z</time></trkpt>
<trkpt lat="39.346993" lon="-120.238083"><ele>2010.8</ele><time>2024-07-05T21:58:54Z</time></trkpt>
<trkpt lat="39.347045" lon="-120.237882"><ele>2008.0</ele><time>2024-07-05T21:59:20Z</time></trkpt>
<trkpt lat="39.347234" lon="-120.237687"><ele>2006.8</ele><time>2024-07-05T21:59:45Z</time></trkpt>
<trkpt lat="39.347182" lon="-120.237706"><ele>2006.0</ele><time>2024-07-05T21:59:47Z</time></trkpt>
<trkpt lat="39.347264" lon="-120.237739"><ele>2007.8</ele><time>2024-07-05T21:59:56Z</time></trkpt>
<trkpt lat="39.347361" lon="-120.237483"><ele>2007.4</ele><time>2024-07-05T22:01:02Z</time></trkpt>
<trkpt lat="39.347312" lon="-120.237558"><ele>2005.0</ele><time>2024-07-05T22:01:47Z</time></trkpt>
<trkpt lat="39.348451" lon="-120.237270"><ele>2002.8</ele><time>2024-07-05T22:03:43Z</time></trkpt>
<trkpt lat="39.348562" lon="-120.237082"><ele>2001.2</ele><time>2024-07-05T22:03:52Z</time></trkpt>
<trkpt lat="39.349252" lon="-120.236886"><ele>1997.6</ele><time>2024-07-05T22:06:00Z</time></trkpt>
<trkpt lat="39.349156" lon="-120.237034"><ele>1995.4</ele><time>2024-07-05T22:07:43Z</time></trkpt>
<trkpt lat="39.349218" lon="-120.236997"><ele>1994.6</ele><time>2024-07-05T22:08:01Z</time></trkpt>
<trkpt lat="39.349134" lon="-120.236855"><ele>1991.8</ele><time>2024-07-05T22:10:04Z</time></trkpt>
<trkpt lat="39.349213" lon="-120.236788"><ele>1991.8</ele><time>2024-07-05T22:10:13Z</time></trkpt>
<trkpt lat="39.349038" lon="-120.236833"><ele>1991.2</ele><time>2024-07-05T22:10:47Z</time></trkpt>
<trkpt lat="39.349193" lon="-120.236917"><ele>1991.2</ele><time>2024-07-05T22:10:53Z</time></trkpt>
<trkpt lat="39.349195" lon="-120.236860"><ele>1991.2</ele><time>2024-07-05T22:11:01Z</time></trkpt>
<trkpt lat="39.349143" lon="-120.236900"><ele>1992.6</ele><time>2024-07-05T22:12:40Z</time></trkpt>
<trkpt lat="39.349210" lon="-120.237017"><ele>1992.4</ele><time>2024-07-05T22:12:59Z</time></trkpt>
<trkpt lat="39.349345" lon="-120.236896"><ele>1998.2</ele><time>2024-07-05T22:14:49Z</time></trkpt>
<trkpt lat="39.349416" lon="-120.236980"><ele>1998.4</ele><time>2024-07-05T22:14:53Z</time></trkpt>
<trkpt lat="39.349371" lon="-120.236923"><ele>1997.8</ele><time>2024-07-05T22:14:56Z</time></trkpt>
<trkpt lat="39.349427" lon="-120.236886"><ele>1997.6</ele><time>2024-07-05T22:15:03Z</time></trkpt>
<trkpt lat="39.349194" lon="-120.237043"><ele>1999.2</ele><time>2024-07-05T22:16:46Z</time></trkpt>
<trkpt lat="39.349248" lon="-120.237051"><ele>1999.2</ele><time>2024-07-05T22:16:59Z</time></trkpt>
<trkpt lat="39.349584" lon="-120.236602"><ele>1998.0</ele><time>2024-07-05T22:18:10Z</time></trkpt>
<trkpt lat="39.349824" lon="-120.236322"><ele>1990.8</ele><time>2024-07-05T22:18:46Z</time></trkpt>
<trkpt lat="39.349921" lon="-120.236343"><ele>1991.4</ele><time>2024-07-05T22:18:50Z</time></trkpt>
<trkpt lat="39.350178" lon="-120.235804"><ele>1988.4</ele><time>2024-07-05T22:19:32Z</time></trkpt>
<trkpt lat="39.350352" lon="-120.235481"><ele>1975.6</ele><time>2024-07-05T22:20:28Z</time></trkpt>
<trkpt lat="39.350576" lon="-120.235057"><ele>1975.6</ele><time>2024-07-05T22:20:51Z</time></trkpt>
<trkpt lat="39.350628" lon="-120.235157"><ele>1976.2</ele><time>2024-07-05T22:21:03Z</time></trkpt>
<trkpt lat="39.350494" lon="-120.234862"><ele>1975.6</ele><time>2024-07-05T22:22:43Z</time></trkpt>
<trkpt lat="39.350549" lon="-120.234883"><ele>1977.0</ele><time>2024-07-05T22:22:46Z</time></trkpt>
<trkpt lat="39.350568" lon="-120.235081"><ele>1979.0</ele><time>2024-07-05T22:23:03Z</time></trkpt>
<trkpt lat="39.351148" lon="-120.234111"><ele>1975.8</ele><time>2024-07-05T22:24:43Z</time></trkpt>
<trkpt lat="39.351115" lon="-120.234075"><ele>1975.8</ele><time>2024-07-05T22:24:46Z</time></trkpt>
<trkpt lat="39.351158" lon="-120.234319"><ele>1974.8</ele><time>2024-07-05T22:26:48Z</time></trkpt>
<trkpt lat="39.351499" lon="-120.233718"><ele>1974.2</ele><time>2024-07-05T22:28:44Z</time></trkpt>
<trkpt lat="39.351417" lon="-120.233792"><ele>1975.2</ele><time>2024-07-05T22:28:47Z</time></trkpt>
<trkpt lat="39.351270" lon="-120.233682"><ele>1978.2</ele><time>2024-07-05T22:28:59Z</time></trkpt>
<trkpt lat="39.351421" lon="-120.233339"><ele>1975.6</ele><time>2024-07-05T22:30:53Z</time></trkpt>
<trkpt lat="39.351544" lon="-120.233456"><ele>1978.2</ele><time>2024-07-05T22:32:12Z</time></trkpt>
<trkpt lat="39.351601" lon="-120.233646"><ele>1977.2</ele><time>2024-07-05T22:32:38Z</time></trkpt>
<trkpt lat="39.352121" lon="-120.233793"><ele>1980.6</ele><time>2024-07-05T22:33:01Z</time></trkpt>
<trkpt lat="39.352533" lon="-120.233620"><ele>1982.8</ele><time>2024-07-05T22:34:43Z</time></trkpt>
<trkpt lat="39.352569" lon="-120.233724"><ele>1982.2</ele><time>2024-07-05T22:34:52Z</time></trkpt>
<trkpt lat="39.352578" lon="-120.233625"><ele>1979.8</ele><time>2024-07-05T22:36:55Z</time></trkpt>
<trkpt lat="39.352553" lon="-120.233668"><ele>1983.0</ele><time>2024-07-05T22:37:30Z</time></trkpt>
<trkpt lat="39.352767" lon="-120.233629"><ele>1987.2</ele><time>2024-07-05T22:38:04Z</time></trkpt>
<trkpt lat="39.352817" lon="-120.233542"><ele>1988.8</ele><time>2024-07-05T22:38:30Z</time></trkpt>
<trkpt lat="39.352775" lon="-120.233566"><ele>1985.8</ele><time>2024-07-05T22:38:45Z</time></trkpt>
<trkpt lat="39.352949" lon="-120.233566"><ele>1986.0</ele><time>2024-07-05T22:38:54Z</time></trkpt>
<trkpt lat="39.355180" lon="-120.236312"><ele>1985.4</ele><time>2024-07-05T22:39:28Z</time></trkpt>
<trkpt lat="39.355945" lon="-120.237257"><ele>1991.2</ele><time>2024-07-05T22:39:50Z</time></trkpt>
<trkpt lat="39.356072" lon="-120.237414"><ele>1997.0</ele><time>2024-07-05T22:39:54Z</time></trkpt>
<trkpt lat="39.358696" lon="-120.240659"><ele>2000.4</ele><time>2024-07-05T22:40:46Z</time></trkpt>
<trkpt lat="39.360012" lon="-120.242108"><ele>2003.2</ele><time>2024-07-05T22:40:49Z</time></trkpt>
<trkpt lat="39.360292" lon="-120.243302"><ele>2009.8</ele><time>2024-07-05T22:40:55Z</time></trkpt>
<trkpt lat="39.360372" lon="-120.244905"><ele>2014.0</ele><time>2024-07-05T22:41:04Z</time></trkpt>
</trkseg></trk>
</gpx>
