<?xml version="1.0" encoding="UTF-8"?>
<gpx version="1.1" creator="Eric Sichak trip reports" xmlns="http://www.topografix.com/GPX/1/1">
<metadata><name>Morning Hike</name><time>2024-08-04T15:04:02Z</time></metadata>
<trk><name>Morning Hike</name><type>hike</type><trkseg>
<trkpt lat="42.865008" lon="-122.163068"><ele>1833.8</ele><time>2024-08-04T15:04:02Z</time></trkpt>
<trkpt lat="42.865071" lon="-122.163025"><ele>1833.8</ele><time>2024-08-04T15:04:14Z</time></trkpt>
<trkpt lat="42.865339" lon="-122.163193"><ele>1834.6</ele><time>2024-08-04T15:04:46Z</time></trkpt>
<trkpt lat="42.865913" lon="-122.163757"><ele>1836.6</ele><time>2024-08-04T15:05:54Z</time></trkpt>
<trkpt lat="42.866844" lon="-122.165042"><ele>1840.4</ele><time>2024-08-04T15:07:55Z</time></trkpt>
<trkpt lat="42.867123" lon="-122.165844"><ele>1840.6</ele><time>2024-08-04T15:09:07Z</time></trkpt>
<trkpt lat="42.867114" lon="-122.166321"><ele>1841.4</ele><time>2024-08-04T15:09:33Z</time></trkpt>
<trkpt lat="42.867114" lon="-122.166264"><ele>1842.2</ele><time>2024-08-04T15:09:43Z</time></trkpt>
<trkpt lat="42.867178" lon="-122.166564"><ele>1841.4</ele><time>2024-08-04T15:10:00Z</time></trkpt>
<trkpt lat="42.867060" lon="-122.166828"><ele>1842.0</ele><time>2024-08-04T15:10:21Z</time></trkpt>
<trkpt lat="42.867138" lon="-122.167103"><ele>1842.4</ele><time>2024-08-04T15:11:23Z</time></trkpt>
<trkpt lat="42.867314" lon="-122.167049"><ele>1842.6</ele><time>2024-08-04T15:11:48Z</time></trkpt>
<trkpt lat="42.867389" lon="-122.167096"><ele>1842.4</ele><time>2024-08-04T15:12:02Z</time></trkpt>
<trkpt lat="42.867187" lon="-122.167855"><ele>1843.4</ele><time>2024-08-04T15:13:17Z</time></trkpt>
<trkpt lat="42.867252" lon="-122.168045"><ele>1843.8</ele><time>2024-08-04T15:13:35Z</time></trkpt>
<trkpt lat="42.867218" lon="-122.168199"><ele>1843.8</ele><time>2024-08-04T15:13:43Z</time></trkpt>
<trkpt lat="42.867345" lon="-122.168165"><ele>1844.2</ele><time>2024-08-04T15:14:00Z</time></trkpt>
<trkpt lat="42.867336" lon="-122.168004"><ele>1843.2</ele><time>2024-08-04T15:16:01Z</time></trkpt>
<trkpt lat="42.867498" lon="-122.168253"><ele>1843.2</ele><time>2024-08-04T15:18:00Z</time></trkpt>
<trkpt lat="42.867569" lon="-122.168246"><ele>1843.4</ele><time>2024-08-04T15:19:48Z</time></trkpt>
<trkpt lat="42.867515" lon="-122.168159"><ele>1843.0</ele><time>2024-08-04T15:19:56Z</time></trkpt>
<trkpt lat="42.867644" lon="-122.168189"><ele>1842.8</ele><time>2024-08-04T15:20:02Z</time></trkpt>
<trkpt lat="42.867633" lon="-122.168312"><ele>1842.0</ele><time>2024-08-04T15:22:52Z</time></trkpt>
<trkpt lat="42.867450" lon="-122.168052"><ele>1842.4</ele><time>2024-08-04T15:23:14Z</time></trkpt>
<trkpt lat="42.867499" lon="-122.168171"><ele>1842.8</ele><time>2024-08-04T15:23:31Z</time></trkpt>
<trkpt lat="42.867381" lon="-122.168136"><ele>1843.6</ele><time>2024-08-04T15:24:00Z</time></trkpt>
<trkpt lat="42.867209" lon="-122.167820"><ele>1843.2</ele><time>2024-08-04T15:26:02Z</time></trkpt>
<trkpt lat="42.867234" lon="-122.168143"><ele>1843.6</ele><time>2024-08-04T15:29:08Z</time></trkpt>
<trkpt lat="42.867169" lon="-122.168026"><ele>1843.4</ele><time>2024-08-04T15:29:15Z</time></trkpt>
<trkpt lat="42.867163" lon="-122.167625"><ele>1843.2</ele><time>2024-08-04T15:29:40Z</time></trkpt>
<trkpt lat="42.867330" lon="-122.167663"><ele>1843.4</ele><time>2024-08-04T15:29:53Z</time></trkpt>
<trkpt lat="42.867438" lon="-122.167571"><ele>1843.6</ele><time>2024-08-04T15:30:03Z</time></trkpt>
<trkpt lat="42.867409" lon="-122.167253"><ele>1843.2</ele><time>2024-08-04T15:30:24Z</time></trkpt>
<trkpt lat="42.867481" lon="-122.166789"><ele>1842.4</ele><time>2024-08-04T15:32:41Z</time></trkpt>
<trkpt lat="42.867409" lon="-122.166878"><ele>1842.2</ele><time>2024-08-04T15:32:47Z</time></trkpt>
<trkpt lat="42.867372" lon="-122.166783"><ele>1842.0</ele><time>2024-08-04T15:33:02Z</time></trkpt>
<trkpt lat="42.867368" lon="-122.166925"><ele>1842.4</ele><time>2024-08-04T15:34:07Z</time></trkpt>
<trkpt lat="42.867463" lon="-122.167097"><ele>1842.2</ele><time>2024-08-04T15:37:02Z</time></trkpt>
<trkpt lat="42.867341" lon="-122.166843"><ele>1842.4</ele><time>2024-08-04T15:38:48Z</time></trkpt>
<trkpt lat="42.867434" lon="-122.167056"><ele>1842.2</ele><time>2024-08-04T15:38:58Z</time></trkpt>
<trkpt lat="42.867348" lon="-122.166967"><ele>1842.2</ele><time>2024-08-04T15:40:45Z</time></trkpt>
<trkpt lat="42.867378" lon="-122.166880"><ele>1842.0</ele><time>2024-08-04T15:40:55Z</time></trkpt>
<trkpt lat="42.867402" lon="-122.166962"><ele>1842.0</ele><time>2024-08-04T15:41:01Z</time></trkpt>
<trkpt lat="42.867342" lon="-122.166797"><ele>1842.4</ele><time>2024-08-04T15:42:44Z</time></trkpt>
<trkpt lat="42.867445" lon="-122.167104"><ele>1841.6</ele><time>2024-08-04T15:44:47Z</time></trkpt>
<trkpt lat="42.867371" lon="-122.167648"><ele>1842.6</ele><time>2024-08-04T15:45:26Z</time></trkpt>
<trkpt lat="42.867397" lon="-122.168099"><ele>1843.8</ele><time>2024-08-04T15:46:54Z</time></trkpt>
<trkpt lat="42.867361" lon="-122.168040"><ele>1843.8</ele><time>2024-08-04T15:47:01Z</time></trkpt>
<trkpt lat="42.867488" lon="-122.168073"><ele>1844.4</ele><time>2024-08-04T15:47:32Z</time></trkpt>
<trkpt lat="42.867455" lon="-122.167858"><ele>1843.2</ele><time>2024-08-04T15:48:48Z</time></trkpt>
<trkpt lat="42.867365" lon="-122.167792"><ele>1843.4</ele><time>2024-08-04T15:51:14Z</time></trkpt>
<trkpt lat="42.867502" lon="-122.167800"><ele>1842.8</ele><time>2024-08-04T15:51:52Z</time></trkpt>
<trkpt lat="42.867220" lon="-122.167967"><ele>1842.6</ele><time>2024-08-04T15:52:08Z</time></trkpt>
<trkpt lat="42.867348" lon="-122.167866"><ele>1842.4</ele><time>2024-08-04T15:53:13Z</time></trkpt>
<trkpt lat="42.867479" lon="-122.167960"><ele>1842.2</ele><time>2024-08-04T15:53:52Z</time></trkpt>
<trkpt lat="42.867405" lon="-122.167891"><ele>1842.0</ele><time>2024-08-04T15:54:03Z</time></trkpt>
<trkpt lat="42.867546" lon="-122.168338"><ele>1841.8</ele><time>2024-08-04T15:56:22Z</time></trkpt>
<trkpt lat="42.867409" lon="-122.168181"><ele>1842.2</ele><time>2024-08-04T15:58:00Z</time></trkpt>
<trkpt lat="42.867532" lon="-122.167816"><ele>1842.0</ele><time>2024-08-04T15:58:19Z</time></trkpt>
<trkpt lat="42.867432" lon="-122.167964"><ele>1842.0</ele><time>2024-08-04T15:58:22Z</time></trkpt>
<trkpt lat="42.867364" lon="-122.167951"><ele>1841.6</ele><time>2024-08-04T16:00:26Z</time></trkpt>
<trkpt lat="42.867474" lon="-122.167901"><ele>1841.8</ele><time>2024-08-04T16:02:25Z</time></trkpt>
<trkpt lat="42.867392" lon="-122.167948"><ele>1841.8</ele><time>2024-08-04T16:02:33Z</time></trkpt>
<trkpt lat="42.867490" lon="-122.168176"><ele>1841.6</ele><time>2024-08-04T16:06:31Z</time></trkpt>
<trkpt lat="42.867338" lon="-122.167972"><ele>1841.6</ele><time>2024-08-04T16:08:38Z</time></trkpt>
<trkpt lat="42.867504" lon="-122.168073"><ele>1841.2</ele><time>2024-08-04T16:11:08Z</time></trkpt>
<trkpt lat="42.867458" lon="-122.167997"><ele>1841.2</ele><time>2024-08-04T16:11:16Z</time></trkpt>
<trkpt lat="42.867257" lon="-122.167942"><ele>1841.2</ele><time>2024-08-04T16:12:24Z</time></trkpt>
<trkpt lat="42.867389" lon="-122.167984"><ele>1841.6</ele><time>2024-08-04T16:12:44Z</time></trkpt>
<trkpt lat="42.867300" lon="-122.168043"><ele>1841.2</ele><time>2024-08-04T16:12:56Z</time></trkpt>
<trkpt lat="42.867418" lon="-122.167954"><ele>1841.4</ele><time>2024-08-04T16:15:03Z</time></trkpt>
<trkpt lat="42.867366" lon="-122.168002"><ele>1841.4</ele><time>2024-08-04T16:16:46Z</time></trkpt>
<trkpt lat="42.867193" lon="-122.167910"><ele>1841.0</ele><time>2024-08-04T16:16:53Z</time></trkpt>
<trkpt lat="42.867505" lon="-122.168018"><ele>1841.0</ele><time>2024-08-04T16:18:57Z</time></trkpt>
<trkpt lat="42.867401" lon="-122.168025"><ele>1841.0</ele><time>2024-08-04T16:21:00Z</time></trkpt>
<trkpt lat="42.867356" lon="-122.167888"><ele>1841.0</ele><time>2024-08-04T16:24:46Z</time></trkpt>
<trkpt lat="42.867295" lon="-122.167916"><ele>1841.2</ele><time>2024-08-04T16:25:01Z</time></trkpt>
<trkpt lat="42.867401" lon="-122.167892"><ele>1840.0</ele><time>2024-08-04T16:27:22Z</time></trkpt>
<trkpt lat="42.867393" lon="-122.167982"><ele>1840.0</ele><time>2024-08-04T16:27:34Z</time></trkpt>
<trkpt lat="42.867449" lon="-122.168020"><ele>1841.2</ele><time>2024-08-04T16:29:09Z</time></trkpt>
<trkpt lat="42.867228" lon="-122.168050"><ele>1841.2</ele><time>2024-08-04T16:29:24Z</time></trkpt>
<trkpt lat="42.866904" lon="-122.167336"><ele>1840.2</ele><time>2024-08-04T16:29:59Z</time></trkpt>
<trkpt lat="42.866979" lon="-122.167337"><ele>1840.2</ele><time>2024-08-04T16:30:13Z</time></trkpt>
<trkpt lat="42.867008" lon="-122.166667"><ele>1840.2</ele><time>2024-08-04T16:30:57Z</time></trkpt>
<trkpt lat="42.866918" lon="-122.166300"><ele>1840.0</ele><time>2024-08-04T16:31:13Z</time></trkpt>
<trkpt lat="42.866926" lon="-122.166038"><ele>1839.4</ele><time>2024-08-04T16:31:30Z</time></trkpt>
<trkpt lat="42.866991" lon="-122.165793"><ele>1839.0</ele><time>2024-08-04T16:31:42Z</time></trkpt>
<trkpt lat="42.867060" lon="-122.165810"><ele>1839.0</ele><time>2024-08-04T16:31:45Z</time></trkpt>
<trkpt lat="42.867124" lon="-122.165703"><ele>1839.0</ele><time>2024-08-04T16:31:51Z</time></trkpt>
<trkpt lat="42.867127" lon="-122.165596"><ele>1839.4</ele><time>2024-08-04T16:31:57Z</time></trkpt>
<trkpt lat="42.866855" lon="-122.165046"><ele>1838.8</ele><time>2024-08-04T16:32:34Z</time></trkpt>
<trkpt lat="42.866818" lon="-122.164846"><ele>1838.6</ele><time>2024-08-04T16:32:48Z</time></trkpt>
<trkpt lat="42.866658" lon="-122.164787"><ele>1837.6</ele><time>2024-08-04T16:33:10Z</time></trkpt>
<trkpt lat="42.866213" lon="-122.164208"><ele>1836.6</ele><time>2024-08-04T16:33:49Z</time></trkpt>
<trkpt lat="42.866092" lon="-122.163917"><ele>1836.2</ele><time>2024-08-04T16:34:05Z</time></trkpt>
<trkpt lat="42.865623" lon="-122.163543"><ele>1834.6</ele><time>2024-08-04T16:34:51Z</time></trkpt>
<trkpt lat="42.865496" lon="-122.163237"><ele>1834.0</ele><time>2024-08-04T16:35:13Z</time></trkpt>
<trkpt lat="42.865056" lon="-122.163096"><ele>1833.2</ele><time>2024-08-04T16:35:44Z</time></trkpt>
<trkpt lat="42.865025" lon="-122.163148"><ele>1833.4</ele><time>2024-08-04T16:36:04Z</time></trkpt>
<trkpt lat="42.865113" lon="-122.163025"><ele>1832.4</ele><time>2024-08-04T16:37:46Z</time></trkpt>
<trkpt lat="42.865040" lon="-122.163161"><ele>1832.6</ele><time>2024-08-04T16:38:00Z</time></trkpt>
<trkpt lat="42.865024" lon="-122.163103"><ele>1831.8</ele><time>2024-08-04T16:39:47Z</time></trkpt>
<trkpt lat="42.865017" lon="-122.163181"><ele>1831.6</ele><time>2024-08-04T16:40:51Z</time></trkpt>
<trkpt lat="42.865081" lon="-122.163144"><ele>1831.8</ele><time>2024-08-04T16:41:51Z</time></trkpt>
<trkpt lat="42.865054" lon="-122.163222"><ele>1831.8</ele><time>2024-08-04T16:42:59Z</time></trkpt>
<trkpt lat="42.865067" lon="-122.163048"><ele>1830.8</ele><time>2024-08-04T16:45:19Z</time></trkpt>
<trkpt lat="42.865008" lon="-122.163109"><ele>1830.6</ele><time>2024-08-04T16:46:53Z</time></trkpt>
<trkpt lat="42.865089" lon="-122.163108"><ele>1831.2</ele><time>2024-08-04T16:47:57Z</time></trkpt>
<trkpt lat="42.865042" lon="-122.163146"><ele>1830.8</ele><time>2024-08-04T16:48:29Z</time></trkpt>
<trkpt lat="42.864985" lon="-122.163100"><ele>1830.8</ele><time>2024-08-04T16:49:23Z</time></trkpt>
<trkpt lat="42.865113" lon="-122.163122"><ele>1831.2</ele><time>2024-08-04T16:49:55Z</time></trkpt>
<trkpt lat="42.864959" lon="-122.163102"><ele>1831.6</ele><time>2024-08-04T16:51:50Z</time></trkpt>
<trkpt lat="42.864996" lon="-122.163186"><ele>1831.2</ele><time>2024-08-04T16:53:50Z</time></trkpt>
<trkpt lat="42.865191" lon="-122.163084"><ele>1831.4</ele><time>2024-08-04T16:55:50Z</time></trkpt>
<trkpt lat="42.865345" lon="-122.163099"><ele>1832.0</ele><time>2024-08-04T16:56:04Z</time></trkpt>
<trkpt lat="42.866017" lon="-122.163834"><ele>1835.4</ele><time>2024-08-04T16:57:24Z</time></trkpt>
<trkpt lat="42.866134" lon="-122.164016"><ele>1835.2</ele><time>2024-08-04T16:57:38Z</time></trkpt>
<trkpt lat="42.866201" lon="-122.164282"><ele>1835.6</ele><time>2024-08-04T16:57:48Z</time></trkpt>
<trkpt lat="42.866380" lon="-122.164392"><ele>1836.2</ele><time>2024-08-04T16:58:02Z</time></trkpt>
<trkpt lat="42.866863" lon="-122.165082"><ele>1837.2</ele><time>2024-08-04T16:59:02Z</time></trkpt>
<trkpt lat="42.867103" lon="-122.165731"><ele>1838.4</ele><time>2024-08-04T16:59:49Z</time></trkpt>
<trkpt lat="42.867209" lon="-122.166984"><ele>1839.0</ele><time>2024-08-04T17:01:14Z</time></trkpt>
<trkpt lat="42.867433" lon="-122.167497"><ele>1839.8</ele><time>2024-08-04T17:01:46Z</time></trkpt>
<trkpt lat="42.867308" lon="-122.167671"><ele>1839.6</ele><time>2024-08-04T17:01:58Z</time></trkpt>
<trkpt lat="42.867253" lon="-122.167918"><ele>1840.4</ele><time>2024-08-04T17:02:16Z</time></trkpt>
<trkpt lat="42.867322" lon="-122.167953"><ele>1841.2</ele><time>2024-08-04T17:02:46Z</time></trkpt>
<trkpt lat="42.867337" lon="-122.167868"><ele>1841.4</ele><time>2024-08-04T17:03:06Z</time></trkpt>
<trkpt lat="42.867424" lon="-122.167964"><ele>1840.6</ele><time>2024-08-04T17:03:54Z</time></trkpt>
<trkpt lat="42.867377" lon="-122.167910"><ele>1840.6</ele><time>2024-08-04T17:04:00Z</time></trkpt>
<trkpt lat="42.867331" lon="-122.167976"><ele>1840.6</ele><time>2024-08-04T17:05:54Z</time></trkpt>
<trkpt lat="42.867382" lon="-122.167924"><ele>1840.6</ele><time>2024-08-04T17:05:59Z</time></trkpt>
<trkpt lat="42.867426" lon="-122.167421"><ele>1839.0</ele><time>2024-08-04T17:10:44Z</time></trkpt>
<trkpt lat="42.867521" lon="-122.167317"><ele>1839.4</ele><time>2024-08-04T17:10:51Z</time></trkpt>
<trkpt lat="42.867491" lon="-122.167093"><ele>1839.4</ele><time>2024-08-04T17:11:04Z</time></trkpt>
<trkpt lat="42.867323" lon="-122.166796"><ele>1838.8</ele><time>2024-08-04T17:12:42Z</time></trkpt>
<trkpt lat="42.867367" lon="-122.166738"><ele>1839.2</ele><time>2024-08-04T17:12:58Z</time></trkpt>
<trkpt lat="42.867875" lon="-122.167472"><ele>1838.8</ele><time>2024-08-04T17:14:45Z</time></trkpt>
<trkpt lat="42.868234" lon="-122.167825"><ele>1839.0</ele><time>2024-08-04T17:15:20Z</time></trkpt>
<trkpt lat="42.868604" lon="-122.167772"><ele>1839.0</ele><time>2024-08-04T17:15:50Z</time></trkpt>
<trkpt lat="42.868770" lon="-122.168024"><ele>1839.4</ele><time>2024-08-04T17:16:24Z</time></trkpt>
<trkpt lat="42.869107" lon="-122.168285"><ele>1839.2</ele><time>2024-08-04T17:17:05Z</time></trkpt>
<trkpt lat="42.870193" lon="-122.168914"><ele>1839.8</ele><time>2024-08-04T17:18:45Z</time></trkpt>
<trkpt lat="42.870567" lon="-122.168855"><ele>1839.8</ele><time>2024-08-04T17:19:12Z</time></trkpt>
<trkpt lat="42.871621" lon="-122.169270"><ele>1839.6</ele><time>2024-08-04T17:20:45Z</time></trkpt>
<trkpt lat="42.871678" lon="-122.169363"><ele>1840.0</ele><time>2024-08-04T17:20:52Z</time></trkpt>
<trkpt lat="42.871334" lon="-122.167510"><ele>1840.4</ele><time>2024-08-04T17:22:49Z</time></trkpt>
<trkpt lat="42.871079" lon="-122.165440"><ele>1841.4</ele><time>2024-08-04T17:24:40Z</time></trkpt>
<trkpt lat="42.870979" lon="-122.165317"><ele>1841.2</ele><time>2024-08-04T17:24:50Z</time></trkpt>
<trkpt lat="42.870945" lon="-122.165112"><ele>1841.2</ele><time>2024-08-04T17:24:58Z</time></trkpt>
<trkpt lat="42.871273" lon="-122.163854"><ele>1842.4</ele><time>2024-08-04T17:25:48Z</time></trkpt>
<trkpt lat="42.871486" lon="-122.163356"><ele>1844.6</ele><time>2024-08-04T17:26:47Z</time></trkpt>
<trkpt lat="42.871463" lon="-122.163079"><ele>1846.4</ele><time>2024-08-04T17:27:05Z</time></trkpt>
<trkpt lat="42.871063" lon="-122.161203"><ele>1844.8</ele><time>2024-08-04T17:28:46Z</time></trkpt>
<trkpt lat="42.870997" lon="-122.161178"><ele>1844.8</ele><time>2024-08-04T17:28:49Z</time></trkpt>
<trkpt lat="42.870768" lon="-122.159235"><ele>1840.8</ele><time>2024-08-04T17:30:46Z</time></trkpt>
<trkpt lat="42.870710" lon="-122.159094"><ele>1841.2</ele><time>2024-08-04T17:31:00Z</time></trkpt>
<trkpt lat="42.870480" lon="-122.157250"><ele>1842.8</ele><time>2024-08-04T17:32:46Z</time></trkpt>
<trkpt lat="42.870332" lon="-122.156943"><ele>1843.2</ele><time>2024-08-04T17:33:04Z</time></trkpt>
<trkpt lat="42.870110" lon="-122.155336"><ele>1842.8</ele><time>2024-08-04T17:34:46Z</time></trkpt>
<trkpt lat="42.870173" lon="-122.155314"><ele>1842.8</ele><time>2024-08-04T17:34:50Z</time></trkpt>
<trkpt lat="42.870061" lon="-122.155044"><ele>1843.0</ele><time>2024-08-04T17:35:05Z</time></trkpt>
<trkpt lat="42.870004" lon="-122.154335"><ele>1843.6</ele><time>2024-08-04T17:35:51Z</time></trkpt>
<trkpt lat="42.869304" lon="-122.151312"><ele>1842.2</ele><time>2024-08-04T17:38:47Z</time></trkpt>
<trkpt lat="42.868614" lon="-122.150169"><ele>1841.6</ele><time>2024-08-04T17:40:15Z</time></trkpt>
<trkpt lat="42.868421" lon="-122.149686"><ele>1841.4</ele><time>2024-08-04T17:40:49Z</time></trkpt>
<trkpt lat="42.868268" lon="-122.149528"><ele>1841.8</ele><time>2024-08-04T17:41:00Z</time></trkpt>
<trkpt lat="42.867458" lon="-122.148021"><ele>1846.0</ele><time>2024-08-04T17:42:54Z</time></trkpt>
<trkpt lat="42.867283" lon="-122.147091"><ele>1849.8</ele><time>2024-08-04T17:43:43Z</time></trkpt>
<trkpt lat="42.867185" lon="-122.146118"><ele>1855.6</ele><time>2024-08-04T17:44:49Z</time></trkpt>
<trkpt lat="42.867254" lon="-122.146117"><ele>1856.0</ele><time>2024-08-04T17:44:53Z</time></trkpt>
<trkpt lat="42.868191" lon="-122.144808"><ele>1866.6</ele><time>2024-08-04T17:46:47Z</time></trkpt>
<trkpt lat="42.868521" lon="-122.144619"><ele>1868.6</ele><time>2024-08-04T17:47:09Z</time></trkpt>
<trkpt lat="42.869522" lon="-122.144250"><ele>1877.0</ele><time>2024-08-04T17:48:47Z</time></trkpt>
<trkpt lat="42.869725" lon="-122.144337"><ele>1879.4</ele><time>2024-08-04T17:49:06Z</time></trkpt>
<trkpt lat="42.870061" lon="-122.144280"><ele>1880.0</ele><time>2024-08-04T17:49:17Z</time></trkpt>
<trkpt lat="42.871083" lon="-122.144376"><ele>1887.4</ele><time>2024-08-04T17:50:49Z</time></trkpt>
<trkpt lat="42.871160" lon="-122.144305"><ele>1887.8</ele><time>2024-08-04T17:50:53Z</time></trkpt>
<trkpt lat="42.871168" lon="-122.144355"><ele>1888.2</ele><time>2024-08-04T17:50:56Z</time></trkpt>
<trkpt lat="42.872524" lon="-122.143350"><ele>1894.8</ele><time>2024-08-04T17:52:59Z</time></trkpt>
<trkpt lat="42.873855" lon="-122.142553"><ele>1898.6</ele><time>2024-08-04T17:54:50Z</time></trkpt>
<trkpt lat="42.874055" lon="-122.142626"><ele>1898.8</ele><time>2024-08-04T17:54:58Z</time></trkpt>
<trkpt lat="42.875426" lon="-122.142691"><ele>1903.4</ele><time>2024-08-04T17:56:46Z</time></trkpt>
<trkpt lat="42.875514" lon="-122.142559"><ele>1903.8</ele><time>2024-08-04T17:56:52Z</time></trkpt>
<trkpt lat="42.875650" lon="-122.142529"><ele>1904.0</ele><time>2024-08-04T17:57:03Z</time></trkpt>
<trkpt lat="42.876577" lon="-122.142580"><ele>1907.8</ele><time>2024-08-04T17:58:39Z</time></trkpt>
<trkpt lat="42.876860" lon="-122.142659"><ele>1908.2</ele><time>2024-08-04T17:58:49Z</time></trkpt>
<trkpt lat="42.877004" lon="-122.142523"><ele>1908.2</ele><time>2024-08-04T17:58:51Z</time></trkpt>
<trkpt lat="42.877124" lon="-122.142598"><ele>1908.4</ele><time>2024-08-04T17:58:56Z</time></trkpt>
<trkpt lat="42.878553" lon="-122.142519"><ele>1913.8</ele><time>2024-08-04T18:00:47Z</time></trkpt>
<trkpt lat="42.878476" lon="-122.142460"><ele>1913.8</ele><time>2024-08-04T18:00:50Z</time></trkpt>
<trkpt lat="42.878548" lon="-122.142587"><ele>1914.0</ele><time>2024-08-04T18:00:56Z</time></trkpt>
<trkpt lat="42.878898" lon="-122.142588"><ele>1916.0</ele><time>2024-08-04T18:01:35Z</time></trkpt>
<trkpt lat="42.879620" lon="-122.142442"><ele>1919.0</ele><time>2024-08-04T18:02:35Z</time></trkpt>
<trkpt lat="42.880063" lon="-122.142575"><ele>1920.2</ele><time>2024-08-04T18:02:55Z</time></trkpt>
<trkpt lat="42.881562" lon="-122.142524"><ele>1926.0</ele><time>2024-08-04T18:04:49Z</time></trkpt>
<trkpt lat="42.881648" lon="-122.142629"><ele>1926.4</ele><time>2024-08-04T18:04:55Z</time></trkpt>
<trkpt lat="42.883002" lon="-122.142530"><ele>1931.0</ele><time>2024-08-04T18:06:49Z</time></trkpt>
<trkpt lat="42.884629" lon="-122.142536"><ele>1934.6</ele><time>2024-08-04T18:08:48Z</time></trkpt>
<trkpt lat="42.884736" lon="-122.142664"><ele>1934.6</ele><time>2024-08-04T18:08:51Z</time></trkpt>
<trkpt lat="42.885548" lon="-122.142528"><ele>1937.2</ele><time>2024-08-04T18:10:03Z</time></trkpt>
<trkpt lat="42.885842" lon="-122.142627"><ele>1937.6</ele><time>2024-08-04T18:10:23Z</time></trkpt>
<trkpt lat="42.886240" lon="-122.142634"><ele>1937.8</ele><time>2024-08-04T18:10:51Z</time></trkpt>
<trkpt lat="42.886331" lon="-122.142549"><ele>1937.8</ele><time>2024-08-04T18:10:52Z</time></trkpt>
<trkpt lat="42.886289" lon="-122.142208"><ele>1938.0</ele><time>2024-08-04T18:10:57Z</time></trkpt>
<trkpt lat="42.887486" lon="-122.141978"><ele>1942.0</ele><time>2024-08-04T18:12:40Z</time></trkpt>
<trkpt lat="42.887871" lon="-122.142005"><ele>1942.4</ele><time>2024-08-04T18:12:52Z</time></trkpt>
<trkpt lat="42.887820" lon="-122.141650"><ele>1942.6</ele><time>2024-08-04T18:12:56Z</time></trkpt>
<trkpt lat="42.887856" lon="-122.141593"><ele>1943.0</ele><time>2024-08-04T18:13:00Z</time></trkpt>
<trkpt lat="42.889056" lon="-122.140902"><ele>1945.6</ele><time>2024-08-04T18:14:32Z</time></trkpt>
<trkpt lat="42.889377" lon="-122.140741"><ele>1946.0</ele><time>2024-08-04T18:14:49Z</time></trkpt>
<trkpt lat="42.889373" lon="-122.140921"><ele>1946.2</ele><time>2024-08-04T18:14:57Z</time></trkpt>
<trkpt lat="42.890167" lon="-122.140516"><ele>1948.0</ele><time>2024-08-04T18:15:53Z</time></trkpt>
<trkpt lat="42.890697" lon="-122.140339"><ele>1951.0</ele><time>2024-08-04T18:16:52Z</time></trkpt>
<trkpt lat="42.890849" lon="-122.140202"><ele>1951.8</ele><time>2024-08-04T18:17:04Z</time></trkpt>
<trkpt lat="42.892114" lon="-122.139754"><ele>1956.8</ele><time>2024-08-04T18:18:48Z</time></trkpt>
<trkpt lat="42.893452" lon="-122.138739"><ele>1959.4</ele><time>2024-08-04T18:20:48Z</time></trkpt>
<trkpt lat="42.894366" lon="-122.137221"><ele>1961.0</ele><time>2024-08-04T18:22:48Z</time></trkpt>
<trkpt lat="42.894526" lon="-122.137350"><ele>1961.6</ele><time>2024-08-04T18:23:04Z</time></trkpt>
<trkpt lat="42.894934" lon="-122.137262"><ele>1964.2</ele><time>2024-08-04T18:23:26Z</time></trkpt>
<trkpt lat="42.895676" lon="-122.136784"><ele>1969.2</ele><time>2024-08-04T18:24:55Z</time></trkpt>
<trkpt lat="42.896376" lon="-122.135411"><ele>1974.8</ele><time>2024-08-04T18:27:35Z</time></trkpt>
<trkpt lat="42.896684" lon="-122.134933"><ele>1977.6</ele><time>2024-08-04T18:29:20Z</time></trkpt>
<trkpt lat="42.896677" lon="-122.134800"><ele>1978.2</ele><time>2024-08-04T18:29:26Z</time></trkpt>
<trkpt lat="42.896743" lon="-122.134677"><ele>1978.4</ele><time>2024-08-04T18:29:31Z</time></trkpt>
<trkpt lat="42.897364" lon="-122.133890"><ele>1982.6</ele><time>2024-08-04T18:34:06Z</time></trkpt>
<trkpt lat="42.897073" lon="-122.134095"><ele>1982.4</ele><time>2024-08-04T18:34:08Z</time></trkpt>
<trkpt lat="42.897213" lon="-122.134309"><ele>1982.4</ele><time>2024-08-04T18:34:19Z</time></trkpt>
<trkpt lat="42.897160" lon="-122.134138"><ele>1983.0</ele><time>2024-08-04T18:34:52Z</time></trkpt>
<trkpt lat="42.897179" lon="-122.134186"><ele>1982.8</ele><time>2024-08-04T18:35:01Z</time></trkpt>
<trkpt lat="42.896952" lon="-122.134429"><ele>1983.6</ele><time>2024-08-04T18:37:01Z</time></trkpt>
<trkpt lat="42.897899" lon="-122.133380"><ele>1984.8</ele><time>2024-08-04T18:41:00Z</time></trkpt>
<trkpt lat="42.897778" lon="-122.133358"><ele>1984.2</ele><time>2024-08-04T18:41:06Z</time></trkpt>
<trkpt lat="42.897357" lon="-122.134049"><ele>1983.2</ele><time>2024-08-04T18:43:00Z</time></trkpt>
<trkpt lat="42.897155" lon="-122.134120"><ele>1983.2</ele><time>2024-08-04T18:43:04Z</time></trkpt>
<trkpt lat="42.897219" lon="-122.134258"><ele>1983.2</ele><time>2024-08-04T18:43:06Z</time></trkpt>
<trkpt lat="42.897082" lon="-122.134157"><ele>1983.4</ele><time>2024-08-04T18:43:52Z</time></trkpt>
<trkpt lat="42.897183" lon="-122.134213"><ele>1982.8</ele><time>2024-08-04T18:46:06Z</time></trkpt>
<trkpt lat="42.897136" lon="-122.134161"><ele>1982.6</ele><time>2024-08-04T18:46:19Z</time></trkpt>
<trkpt lat="42.897258" lon="-122.133941"><ele>1981.8</ele><time>2024-08-04T18:48:48Z</time></trkpt>
<trkpt lat="42.897109" lon="-122.134073"><ele>1982.2</ele><time>2024-08-04T18:48:57Z</time></trkpt>
<trkpt lat="42.897178" lon="-122.134123"><ele>1982.4</ele><time>2024-08-04T18:49:01Z</time></trkpt>
<trkpt lat="42.897452" lon="-122.133795"><ele>1981.8</ele><time>2024-08-04T18:50:56Z</time></trkpt>
<trkpt lat="42.897290" lon="-122.134025"><ele>1982.0</ele><time>2024-08-04T18:51:06Z</time></trkpt>
<trkpt lat="42.897250" lon="-122.134381"><ele>1984.0</ele><time>2024-08-04T18:53:06Z</time></trkpt>
<trkpt lat="42.897117" lon="-122.134054"><ele>1984.0</ele><time>2024-08-04T18:53:10Z</time></trkpt>
<trkpt lat="42.897185" lon="-122.134205"><ele>1983.0</ele><time>2024-08-04T18:53:25Z</time></trkpt>
<trkpt lat="42.897150" lon="-122.134122"><ele>1983.4</ele><time>2024-08-04T18:55:22Z</time></trkpt>
<trkpt lat="42.897211" lon="-122.134067"><ele>1983.0</ele><time>2024-08-04T18:55:27Z</time></trkpt>
<trkpt lat="42.897114" lon="-122.134232"><ele>1983.6</ele><time>2024-08-04T18:55:37Z</time></trkpt>
<trkpt lat="42.897021" lon="-122.134105"><ele>1983.4</ele><time>2024-08-04T18:57:29Z</time></trkpt>
<trkpt lat="42.896995" lon="-122.134421"><ele>1984.0</ele><time>2024-08-04T18:57:35Z</time></trkpt>
<trkpt lat="42.897327" lon="-122.134082"><ele>1984.2</ele><time>2024-08-04T19:01:26Z</time></trkpt>
<trkpt lat="42.897246" lon="-122.134312"><ele>1983.8</ele><time>2024-08-04T19:01:30Z</time></trkpt>
<trkpt lat="42.897344" lon="-122.134209"><ele>1983.4</ele><time>2024-08-04T19:01:33Z</time></trkpt>
<trkpt lat="42.897327" lon="-122.134148"><ele>1983.0</ele><time>2024-08-04T19:01:38Z</time></trkpt>
<trkpt lat="42.896892" lon="-122.134305"><ele>1983.6</ele><time>2024-08-04T19:03:27Z</time></trkpt>
<trkpt lat="42.896702" lon="-122.134545"><ele>1984.4</ele><time>2024-08-04T19:03:32Z</time></trkpt>
<trkpt lat="42.896967" lon="-122.134199"><ele>1984.2</ele><time>2024-08-04T19:03:36Z</time></trkpt>
<trkpt lat="42.897146" lon="-122.134144"><ele>1983.6</ele><time>2024-08-04T19:05:23Z</time></trkpt>
<trkpt lat="42.897283" lon="-122.134237"><ele>1983.8</ele><time>2024-08-04T19:05:50Z</time></trkpt>
<trkpt lat="42.897124" lon="-122.134118"><ele>1983.8</ele><time>2024-08-04T19:06:01Z</time></trkpt>
<trkpt lat="42.897166" lon="-122.134179"><ele>1984.2</ele><time>2024-08-04T19:06:04Z</time></trkpt>
<trkpt lat="42.897016" lon="-122.134323"><ele>1984.6</ele><time>2024-08-04T19:07:56Z</time></trkpt>
<trkpt lat="42.896980" lon="-122.134278"><ele>1984.4</ele><time>2024-08-04T19:07:59Z</time></trkpt>
<trkpt lat="42.897364" lon="-122.133877"><ele>1985.2</ele><time>2024-08-04T19:09:57Z</time></trkpt>
<trkpt lat="42.897261" lon="-122.134061"><ele>1984.6</ele><time>2024-08-04T19:10:02Z</time></trkpt>
<trkpt lat="42.897165" lon="-122.134079"><ele>1984.0</ele><time>2024-08-04T19:10:07Z</time></trkpt>
<trkpt lat="42.897247" lon="-122.134096"><ele>1984.0</ele><time>2024-08-04T19:10:20Z</time></trkpt>
<trkpt lat="42.897176" lon="-122.134296"><ele>1984.0</ele><time>2024-08-04T19:12:08Z</time></trkpt>
<trkpt lat="42.897171" lon="-122.134200"><ele>1985.0</ele><time>2024-08-04T19:13:27Z</time></trkpt>
<trkpt lat="42.897301" lon="-122.134060"><ele>1985.0</ele><time>2024-08-04T19:14:51Z</time></trkpt>
<trkpt lat="42.897138" lon="-122.134045"><ele>1985.6</ele><time>2024-08-04T19:15:02Z</time></trkpt>
<trkpt lat="42.896887" lon="-122.133628"><ele>1982.6</ele><time>2024-08-04T19:15:35Z</time></trkpt>
<trkpt lat="42.896584" lon="-122.133489"><ele>1982.2</ele><time>2024-08-04T19:16:05Z</time></trkpt>
<trkpt lat="42.896658" lon="-122.133307"><ele>1983.2</ele><time>2024-08-04T19:16:53Z</time></trkpt>
<trkpt lat="42.896777" lon="-122.133229"><ele>1983.8</ele><time>2024-08-04T19:17:01Z</time></trkpt>
<trkpt lat="42.898070" lon="-122.132888"><ele>1992.2</ele><time>2024-08-04T19:18:54Z</time></trkpt>
<trkpt lat="42.900286" lon="-122.133165"><ele>2009.6</ele><time>2024-08-04T19:22:41Z</time></trkpt>
<trkpt lat="42.901845" lon="-122.133672"><ele>2020.2</ele><time>2024-08-04T19:24:49Z</time></trkpt>
<trkpt lat="42.902044" lon="-122.133590"><ele>2020.8</ele><time>2024-08-04T19:24:57Z</time></trkpt>
<trkpt lat="42.902307" lon="-122.133948"><ele>2023.2</ele><time>2024-08-04T19:25:26Z</time></trkpt>
<trkpt lat="42.902674" lon="-122.134246"><ele>2027.4</ele><time>2024-08-04T19:26:12Z</time></trkpt>
<trkpt lat="42.902819" lon="-122.134505"><ele>2029.4</ele><time>2024-08-04T19:26:42Z</time></trkpt>
<trkpt lat="42.903142" lon="-122.134799"><ele>2030.4</ele><time>2024-08-04T19:26:59Z</time></trkpt>
<trkpt lat="42.904565" lon="-122.135499"><ele>2038.8</ele><time>2024-08-04T19:29:08Z</time></trkpt>
<trkpt lat="42.904661" lon="-122.135837"><ele>2041.2</ele><time>2024-08-04T19:29:45Z</time></trkpt>
<trkpt lat="42.904682" lon="-122.136531"><ele>2047.2</ele><time>2024-08-04T19:31:06Z</time></trkpt>
<trkpt lat="42.903500" lon="-122.136803"><ele>2055.2</ele><time>2024-08-04T19:32:51Z</time></trkpt>
<trkpt lat="42.903238" lon="-122.136676"><ele>2058.2</ele><time>2024-08-04T19:33:26Z</time></trkpt>
<trkpt lat="42.902900" lon="-122.136849"><ele>2058.2</ele><time>2024-08-04T19:34:53Z</time></trkpt>
<trkpt lat="42.902987" lon="-122.136874"><ele>2058.2</ele><time>2024-08-04T19:34:55Z</time></trkpt>
<trkpt lat="42.902878" lon="-122.136760"><ele>2058.2</ele><time>2024-08-04T19:34:57Z</time></trkpt>
<trkpt lat="42.902911" lon="-122.136856"><ele>2057.2</ele><time>2024-08-04T19:35:06Z</time></trkpt>
<trkpt lat="42.902820" lon="-122.136928"><ele>2057.0</ele><time>2024-08-04T19:36:58Z</time></trkpt>
<trkpt lat="42.902828" lon="-122.136854"><ele>2056.8</ele><time>2024-08-04T19:37:07Z</time></trkpt>
<trkpt lat="42.902905" lon="-122.136870"><ele>2057.8</ele><time>2024-08-04T19:39:08Z</time></trkpt>
<trkpt lat="42.903288" lon="-122.137715"><ele>2060.4</ele><time>2024-08-04T19:40:50Z</time></trkpt>
<trkpt lat="42.903453" lon="-122.137843"><ele>2062.0</ele><time>2024-08-04T19:41:09Z</time></trkpt>
<trkpt lat="42.903251" lon="-122.138224"><ele>2066.0</ele><time>2024-08-04T19:42:08Z</time></trkpt>
<trkpt lat="42.902918" lon="-122.138414"><ele>2068.6</ele><time>2024-08-04T19:42:49Z</time></trkpt>
<trkpt lat="42.902728" lon="-122.138289"><ele>2069.2</ele><time>2024-08-04T19:43:09Z</time></trkpt>
<trkpt lat="42.902440" lon="-122.138702"><ele>2070.0</ele><time>2024-08-04T19:44:08Z</time></trkpt>
<trkpt lat="42.902342" lon="-122.139016"><ele>2072.0</ele><time>2024-08-04T19:44:51Z</time></trkpt>
<trkpt lat="42.902611" lon="-122.139041"><ele>2072.8</ele><time>2024-08-04T19:45:09Z</time></trkpt>
<trkpt lat="42.902782" lon="-122.139196"><ele>2073.4</ele><time>2024-08-04T19:45:16Z</time></trkpt>
<trkpt lat="42.903193" lon="-122.139905"><ele>2081.6</ele><time>2024-08-04T19:46:44Z</time></trkpt>
<trkpt lat="42.903282" lon="-122.140146"><ele>2082.6</ele><time>2024-08-04T19:46:53Z</time></trkpt>
<trkpt lat="42.903265" lon="-122.140281"><ele>2082.8</ele><time>2024-08-04T19:46:56Z</time></trkpt>
<trkpt lat="42.903331" lon="-122.140310"><ele>2083.0</ele><time>2024-08-04T19:47:01Z</time></trkpt>
<trkpt lat="42.903692" lon="-122.140086"><ele>2085.8</ele><time>2024-08-04T19:47:28Z</time></trkpt>
<trkpt lat="42.904232" lon="-122.139414"><ele>2093.2</ele><time>2024-08-04T19:48:51Z</time></trkpt>
<trkpt lat="42.904404" lon="-122.139427"><ele>2094.4</ele><time>2024-08-04T19:49:05Z</time></trkpt>
<trkpt lat="42.904385" lon="-122.139880"><ele>2096.0</ele><time>2024-08-04T19:49:21Z</time></trkpt>
<trkpt lat="42.904079" lon="-122.141033"><ele>2103.8</ele><time>2024-08-04T19:51:07Z</time></trkpt>
<trkpt lat="42.903150" lon="-122.141682"><ele>2113.2</ele><time>2024-08-04T19:52:52Z</time></trkpt>
<trkpt lat="42.903147" lon="-122.141440"><ele>2113.6</ele><time>2024-08-04T19:52:55Z</time></trkpt>
<trkpt lat="42.902621" lon="-122.142229"><ele>2119.2</ele><time>2024-08-04T19:54:15Z</time></trkpt>
<trkpt lat="42.902121" lon="-122.142641"><ele>2122.4</ele><time>2024-08-04T19:54:54Z</time></trkpt>
<trkpt lat="42.901973" lon="-122.142862"><ele>2123.8</ele><time>2024-08-04T19:55:08Z</time></trkpt>
<trkpt lat="42.901698" lon="-122.142985"><ele>2124.8</ele><time>2024-08-04T19:55:24Z</time></trkpt>
<trkpt lat="42.901458" lon="-122.143419"><ele>2129.0</ele><time>2024-08-04T19:56:22Z</time></trkpt>
<trkpt lat="42.900980" lon="-122.143858"><ele>2132.8</ele><time>2024-08-04T19:57:12Z</time></trkpt>
<trkpt lat="42.900664" lon="-122.144482"><ele>2134.0</ele><time>2024-08-04T19:57:52Z</time></trkpt>
<trkpt lat="42.900596" lon="-122.145240"><ele>2135.0</ele><time>2024-08-04T19:58:51Z</time></trkpt>
<trkpt lat="42.900786" lon="-122.145789"><ele>2135.4</ele><time>2024-08-04T19:59:20Z</time></trkpt>
<trkpt lat="42.901032" lon="-122.147080"><ele>2137.0</ele><time>2024-08-04T20:00:49Z</time></trkpt>
<trkpt lat="42.901999" lon="-122.148516"><ele>2139.6</ele><time>2024-08-04T20:02:49Z</time></trkpt>
<trkpt lat="42.902190" lon="-122.148596"><ele>2139.8</ele><time>2024-08-04T20:03:06Z</time></trkpt>
<trkpt lat="42.902875" lon="-122.148636"><ele>2141.2</ele><time>2024-08-04T20:04:33Z</time></trkpt>
<trkpt lat="42.903386" lon="-122.148498"><ele>2141.8</ele><time>2024-08-04T20:04:50Z</time></trkpt>
<trkpt lat="42.904053" lon="-122.147891"><ele>2143.6</ele><time>2024-08-04T20:06:08Z</time></trkpt>
<trkpt lat="42.904502" lon="-122.147157"><ele>2145.2</ele><time>2024-08-04T20:06:51Z</time></trkpt>
<trkpt lat="42.905704" lon="-122.146702"><ele>2146.8</ele><time>2024-08-04T20:08:38Z</time></trkpt>
<trkpt lat="42.906501" lon="-122.146536"><ele>2146.4</ele><time>2024-08-04T20:09:39Z</time></trkpt>
<trkpt lat="42.906870" lon="-122.146339"><ele>2146.2</ele><time>2024-08-04T20:10:15Z</time></trkpt>
<trkpt lat="42.907406" lon="-122.146327"><ele>2146.0</ele><time>2024-08-04T20:10:49Z</time></trkpt>
<trkpt lat="42.908103" lon="-122.146599"><ele>2145.6</ele><time>2024-08-04T20:12:03Z</time></trkpt>
<trkpt lat="42.909038" lon="-122.146808"><ele>2146.0</ele><time>2024-08-04T20:13:08Z</time></trkpt>
<trkpt lat="42.909431" lon="-122.147203"><ele>2146.4</ele><time>2024-08-04T20:13:33Z</time></trkpt>
<trkpt lat="42.909894" lon="-122.148043"><ele>2149.8</ele><time>2024-08-04T20:14:52Z</time></trkpt>
<trkpt lat="42.909961" lon="-122.148307"><ele>2151.4</ele><time>2024-08-04T20:15:08Z</time></trkpt>
<trkpt lat="42.910401" lon="-122.148984"><ele>2157.4</ele><time>2024-08-04T20:16:37Z</time></trkpt>
<trkpt lat="42.910636" lon="-122.149162"><ele>2158.2</ele><time>2024-08-04T20:16:51Z</time></trkpt>
<trkpt lat="42.910732" lon="-122.149145"><ele>2159.0</ele><time>2024-08-04T20:16:57Z</time></trkpt>
<trkpt lat="42.911509" lon="-122.148470"><ele>2164.8</ele><time>2024-08-04T20:18:17Z</time></trkpt>
<trkpt lat="42.911783" lon="-122.148135"><ele>2166.8</ele><time>2024-08-04T20:18:50Z</time></trkpt>
<trkpt lat="42.911660" lon="-122.148036"><ele>2166.8</ele><time>2024-08-04T20:18:56Z</time></trkpt>
<trkpt lat="42.911445" lon="-122.147565"><ele>2172.2</ele><time>2024-08-04T20:19:51Z</time></trkpt>
<trkpt lat="42.911352" lon="-122.147504"><ele>2171.8</ele><time>2024-08-04T20:19:57Z</time></trkpt>
<trkpt lat="42.911075" lon="-122.147025"><ele>2173.4</ele><time>2024-08-04T20:20:31Z</time></trkpt>
<trkpt lat="42.911097" lon="-122.146910"><ele>2173.0</ele><time>2024-08-04T20:20:53Z</time></trkpt>
<trkpt lat="42.911035" lon="-122.146800"><ele>2172.4</ele><time>2024-08-04T20:21:41Z</time></trkpt>
<trkpt lat="42.911094" lon="-122.146846"><ele>2172.4</ele><time>2024-08-04T20:21:55Z</time></trkpt>
<trkpt lat="42.911354" lon="-122.146751"><ele>2172.4</ele><time>2024-08-04T20:22:45Z</time></trkpt>
<trkpt lat="42.911360" lon="-122.146650"><ele>2172.0</ele><time>2024-08-04T20:22:53Z</time></trkpt>
<trkpt lat="42.911313" lon="-122.146639"><ele>2171.4</ele><time>2024-08-04T20:23:04Z</time></trkpt>
<trkpt lat="42.911356" lon="-122.146414"><ele>2170.8</ele><time>2024-08-04T20:23:35Z</time></trkpt>
<trkpt lat="42.911657" lon="-122.145916"><ele>2168.8</ele><time>2024-08-04T20:25:01Z</time></trkpt>
<trkpt lat="42.911027" lon="-122.143295"><ele>2168.4</ele><time>2024-08-04T20:28:29Z</time></trkpt>
<trkpt lat="42.910825" lon="-122.142866"><ele>2167.8</ele><time>2024-08-04T20:28:51Z</time></trkpt>
<trkpt lat="42.910852" lon="-122.142811"><ele>2167.4</ele><time>2024-08-04T20:28:57Z</time></trkpt>
<trkpt lat="42.911243" lon="-122.143784"><ele>2170.0</ele><time>2024-08-04T20:30:58Z</time></trkpt>
<trkpt lat="42.911182" lon="-122.143876"><ele>2169.4</ele><time>2024-08-04T20:31:06Z</time></trkpt>
<trkpt lat="42.911097" lon="-122.144400"><ele>2169.4</ele><time>2024-08-04T20:31:37Z</time></trkpt>
<trkpt lat="42.911370" lon="-122.145082"><ele>2170.0</ele><time>2024-08-04T20:32:27Z</time></trkpt>
<trkpt lat="42.911388" lon="-122.145294"><ele>2169.2</ele><time>2024-08-04T20:32:43Z</time></trkpt>
<trkpt lat="42.911383" lon="-122.145439"><ele>2169.4</ele><time>2024-08-04T20:32:52Z</time></trkpt>
<trkpt lat="42.911295" lon="-122.145581"><ele>2170.0</ele><time>2024-08-04T20:32:59Z</time></trkpt>
<trkpt lat="42.911332" lon="-122.146785"><ele>2172.8</ele><time>2024-08-04T20:34:15Z</time></trkpt>
<trkpt lat="42.911156" lon="-122.146885"><ele>2173.8</ele><time>2024-08-04T20:34:41Z</time></trkpt>
<trkpt lat="42.911089" lon="-122.146749"><ele>2176.4</ele><time>2024-08-04T20:34:57Z</time></trkpt>
<trkpt lat="42.911057" lon="-122.146825"><ele>2176.4</ele><time>2024-08-04T20:34:59Z</time></trkpt>
<trkpt lat="42.911181" lon="-122.146982"><ele>2174.4</ele><time>2024-08-04T20:36:57Z</time></trkpt>
<trkpt lat="42.911168" lon="-122.146879"><ele>2174.4</ele><time>2024-08-04T20:36:59Z</time></trkpt>
<trkpt lat="42.911118" lon="-122.146982"><ele>2173.8</ele><time>2024-08-04T20:37:05Z</time></trkpt>
<trkpt lat="42.910814" lon="-122.146829"><ele>2173.6</ele><time>2024-08-04T20:38:53Z</time></trkpt>
<trkpt lat="42.911107" lon="-122.146854"><ele>2173.0</ele><time>2024-08-04T20:39:05Z</time></trkpt>
<trkpt lat="42.911100" lon="-122.146923"><ele>2172.8</ele><time>2024-08-04T20:40:56Z</time></trkpt>
<trkpt lat="42.911087" lon="-122.146852"><ele>2173.0</ele><time>2024-08-04T20:41:04Z</time></trkpt>
<trkpt lat="42.911101" lon="-122.146916"><ele>2173.0</ele><time>2024-08-04T20:41:11Z</time></trkpt>
<trkpt lat="42.911184" lon="-122.146897"><ele>2168.6</ele><time>2024-08-04T20:43:17Z</time></trkpt>
<trkpt lat="42.911221" lon="-122.146671"><ele>2167.8</ele><time>2024-08-04T20:44:55Z</time></trkpt>
<trkpt lat="42.911253" lon="-122.146751"><ele>2167.6</ele><time>2024-08-04T20:45:00Z</time></trkpt>
<trkpt lat="42.911145" lon="-122.146922"><ele>2168.8</ele><time>2024-08-04T20:46:37Z</time></trkpt>
<trkpt lat="42.911036" lon="-122.146858"><ele>2171.0</ele><time>2024-08-04T20:48:54Z</time></trkpt>
<trkpt lat="42.911090" lon="-122.146934"><ele>2170.6</ele><time>2024-08-04T20:49:03Z</time></trkpt>
<trkpt lat="42.911204" lon="-122.146931"><ele>2170.8</ele><time>2024-08-04T20:49:07Z</time></trkpt>
<trkpt lat="42.911090" lon="-122.146858"><ele>2169.6</ele><time>2024-08-04T20:51:01Z</time></trkpt>
<trkpt lat="42.911207" lon="-122.146906"><ele>2166.4</ele><time>2024-08-04T20:51:17Z</time></trkpt>
<trkpt lat="42.911387" lon="-122.147127"><ele>2166.2</ele><time>2024-08-04T20:52:11Z</time></trkpt>
<trkpt lat="42.911537" lon="-122.147017"><ele>2166.4</ele><time>2024-08-04T20:52:41Z</time></trkpt>
<trkpt lat="42.911647" lon="-122.147057"><ele>2166.2</ele><time>2024-08-04T20:52:51Z</time></trkpt>
<trkpt lat="42.911764" lon="-122.146951"><ele>2165.4</ele><time>2024-08-04T20:53:03Z</time></trkpt>
<trkpt lat="42.912064" lon="-122.147179"><ele>2162.4</ele><time>2024-08-04T20:54:57Z</time></trkpt>
<trkpt lat="42.912172" lon="-122.147637"><ele>2161.8</ele><time>2024-08-04T20:56:50Z</time></trkpt>
<trkpt lat="42.912078" lon="-122.147611"><ele>2162.0</ele><time>2024-08-04T20:57:10Z</time></trkpt>
<trkpt lat="42.912118" lon="-122.148078"><ele>2160.2</ele><time>2024-08-04T20:57:58Z</time></trkpt>
<trkpt lat="42.979505" lon="-122.083303"><ele>2075.4</ele><time>2024-08-04T21:23:08Z</time></trkpt>
<trkpt lat="42.979444" lon="-122.083680"><ele>2070.4</ele><time>2024-08-04T21:23:27Z</time></trkpt>
<trkpt lat="42.979423" lon="-122.083757"><ele>2065.0</ele><time>2024-08-04T21:24:01Z</time></trkpt>
<trkpt lat="42.979417" lon="-122.083629"><ele>2063.8</ele><time>2024-08-04T21:24:21Z</time></trkpt>
<trkpt lat="42.979429" lon="-122.083787"><ele>2058.6</ele><time>2024-08-04T21:24:45Z</time></trkpt>
<trkpt lat="42.979455" lon="-122.083661"><ele>2056.8</ele><time>2024-08-04T21:24:53Z</time></trkpt>
<trkpt lat="42.979365" lon="-122.083729"><ele>2056.6</ele><time>2024-08-04T21:24:54Z</time></trkpt>
<trkpt lat="42.979220" lon="-122.083638"><ele>2054.4</ele><time>2024-08-04T21:25:01Z</time></trkpt>
<trkpt lat="42.979204" lon="-122.083536"><ele>2051.8</ele><time>2024-08-04T21:25:10Z</time></trkpt>
<trkpt lat="42.979153" lon="-122.083570"><ele>2044.8</ele><time>2024-08-04T21:25:47Z</time></trkpt>
<trkpt lat="42.979115" lon="-122.083951"><ele>2039.0</ele><time>2024-08-04T21:26:13Z</time></trkpt>
<trkpt lat="42.979198" lon="-122.084884"><ele>2032.8</ele><time>2024-08-04T21:26:56Z</time></trkpt>
<trkpt lat="42.979123" lon="-122.084934"><ele>2032.4</ele><time>2024-08-04T21:26:58Z</time></trkpt>
<trkpt lat="42.979100" lon="-122.085542"><ele>2024.4</ele><time>2024-08-04T21:27:31Z</time></trkpt>
<trkpt lat="42.978950" lon="-122.086132"><ele>2017.2</ele><time>2024-08-04T21:28:03Z</time></trkpt>
<trkpt lat="42.978952" lon="-122.086479"><ele>2012.2</ele><time>2024-08-04T21:28:21Z</time></trkpt>
<trkpt lat="42.978746" lon="-122.087022"><ele>2002.8</ele><time>2024-08-04T21:28:55Z</time></trkpt>
<trkpt lat="42.978574" lon="-122.087060"><ele>2001.8</ele><time>2024-08-04T21:29:06Z</time></trkpt>
<trkpt lat="42.978052" lon="-122.087822"><ele>1990.6</ele><time>2024-08-04T21:29:54Z</time></trkpt>
<trkpt lat="42.977665" lon="-122.088188"><ele>1982.6</ele><time>2024-08-04T21:30:24Z</time></trkpt>
<trkpt lat="42.977385" lon="-122.088611"><ele>1976.0</ele><time>2024-08-04T21:30:50Z</time></trkpt>
<trkpt lat="42.977427" lon="-122.088654"><ele>1975.6</ele><time>2024-08-04T21:30:55Z</time></trkpt>
<trkpt lat="42.977293" lon="-122.088680"><ele>1975.0</ele><time>2024-08-04T21:30:58Z</time></trkpt>
<trkpt lat="42.977656" lon="-122.088767"><ele>1975.0</ele><time>2024-08-04T21:31:00Z</time></trkpt>
<trkpt lat="42.977598" lon="-122.089085"><ele>1974.0</ele><time>2024-08-04T21:31:19Z</time></trkpt>
<trkpt lat="42.977488" lon="-122.089179"><ele>1972.8</ele><time>2024-08-04T21:31:23Z</time></trkpt>
<trkpt lat="42.976658" lon="-122.089219"><ele>1964.6</ele><time>2024-08-04T21:31:55Z</time></trkpt>
<trkpt lat="42.976527" lon="-122.089335"><ele>1962.2</ele><time>2024-08-04T21:32:05Z</time></trkpt>
<trkpt lat="42.976500" lon="-122.089580"><ele>1960.2</ele><time>2024-08-04T21:32:19Z</time></trkpt>
<trkpt lat="42.976584" lon="-122.089699"><ele>1957.8</ele><time>2024-08-04T21:32:29Z</time></trkpt>
<trkpt lat="42.976616" lon="-122.089496"><ele>1956.8</ele><time>2024-08-04T21:32:41Z</time></trkpt>
<trkpt lat="42.977006" lon="-122.089121"><ele>1956.0</ele><time>2024-08-04T21:32:58Z</time></trkpt>
<trkpt lat="42.977005" lon="-122.088990"><ele>1955.8</ele><time>2024-08-04T21:33:04Z</time></trkpt>
<trkpt lat="42.977491" lon="-122.088326"><ele>1949.6</ele><time>2024-08-04T21:33:49Z</time></trkpt>
<trkpt lat="42.977631" lon="-122.087969"><ele>1950.2</ele><time>2024-08-04T21:34:33Z</time></trkpt>
<trkpt lat="42.977881" lon="-122.087210"><ele>1943.2</ele><time>2024-08-04T21:35:09Z</time></trkpt>
<trkpt lat="42.978057" lon="-122.086350"><ele>1935.4</ele><time>2024-08-04T21:36:30Z</time></trkpt>
<trkpt lat="42.977873" lon="-122.086414"><ele>1929.8</ele><time>2024-08-04T21:36:52Z</time></trkpt>
<trkpt lat="42.977798" lon="-122.086531"><ele>1928.8</ele><time>2024-08-04T21:36:57Z</time></trkpt>
<trkpt lat="42.977879" lon="-122.086205"><ele>1923.8</ele><time>2024-08-04T21:37:17Z</time></trkpt>
<trkpt lat="42.977210" lon="-122.086739"><ele>1909.4</ele><time>2024-08-04T21:38:21Z</time></trkpt>
<trkpt lat="42.976628" lon="-122.086993"><ele>1899.8</ele><time>2024-08-04T21:38:53Z</time></trkpt>
<trkpt lat="42.976785" lon="-122.086879"><ele>1899.6</ele><time>2024-08-04T21:38:54Z</time></trkpt>
<trkpt lat="42.976846" lon="-122.086943"><ele>1898.4</ele><time>2024-08-04T21:38:56Z</time></trkpt>
<trkpt lat="42.976953" lon="-122.087375"><ele>1897.0</ele><time>2024-08-04T21:38:59Z</time></trkpt>
<trkpt lat="42.977225" lon="-122.087605"><ele>1895.6</ele><time>2024-08-04T21:39:02Z</time></trkpt>
<trkpt lat="42.976351" lon="-122.088279"><ele>1885.4</ele><time>2024-08-04T21:39:53Z</time></trkpt>
<trkpt lat="42.976183" lon="-122.088315"><ele>1882.0</ele><time>2024-08-04T21:40:17Z</time></trkpt>
<trkpt lat="42.976115" lon="-122.088670"><ele>1879.8</ele><time>2024-08-04T21:41:00Z</time></trkpt>
<trkpt lat="42.976522" lon="-122.088573"><ele>1880.2</ele><time>2024-08-04T21:41:04Z</time></trkpt>
<trkpt lat="42.976450" lon="-122.088576"><ele>1880.8</ele><time>2024-08-04T21:41:13Z</time></trkpt>
<trkpt lat="42.976448" lon="-122.088516"><ele>1881.2</ele><time>2024-08-04T21:41:18Z</time></trkpt>
<trkpt lat="42.976589" lon="-122.088254"><ele>1881.4</ele><time>2024-08-04T21:41:50Z</time></trkpt>
<trkpt lat="42.976562" lon="-122.088502"><ele>1883.6</ele><time>2024-08-04T21:42:08Z</time></trkpt>
<trkpt lat="42.976541" lon="-122.088432"><ele>1883.4</ele><time>2024-08-04T21:42:12Z</time></trkpt>
<trkpt lat="42.976515" lon="-122.088512"><ele>1885.0</ele><time>2024-08-04T21:42:31Z</time></trkpt>
<trkpt lat="42.976327" lon="-122.088556"><ele>1884.6</ele><time>2024-08-04T21:42:50Z</time></trkpt>
<trkpt lat="42.976314" lon="-122.088676"><ele>1886.0</ele><time>2024-08-04T21:42:57Z</time></trkpt>
<trkpt lat="42.976145" lon="-122.088884"><ele>1890.4</ele><time>2024-08-04T21:43:21Z</time></trkpt>
<trkpt lat="42.975930" lon="-122.089365"><ele>1888.8</ele><time>2024-08-04T21:44:53Z</time></trkpt>
<trkpt lat="42.975867" lon="-122.089319"><ele>1888.8</ele><time>2024-08-04T21:44:56Z</time></trkpt>
<trkpt lat="42.975923" lon="-122.089345"><ele>1889.0</ele><time>2024-08-04T21:45:02Z</time></trkpt>
<trkpt lat="42.975909" lon="-122.089443"><ele>1889.0</ele><time>2024-08-04T21:45:08Z</time></trkpt>
<trkpt lat="42.975970" lon="-122.089359"><ele>1887.8</ele><time>2024-08-04T21:45:53Z</time></trkpt>
<trkpt lat="42.975906" lon="-122.089433"><ele>1891.0</ele><time>2024-08-04T21:47:35Z</time></trkpt>
<trkpt lat="42.975885" lon="-122.089384"><ele>1889.8</ele><time>2024-08-04T21:48:33Z</time></trkpt>
<trkpt lat="42.975841" lon="-122.089494"><ele>1890.8</ele><time>2024-08-04T21:48:58Z</time></trkpt>
<trkpt lat="42.975906" lon="-122.089407"><ele>1889.8</ele><time>2024-08-04T21:49:08Z</time></trkpt>
<trkpt lat="42.975789" lon="-122.089443"><ele>1891.2</ele><time>2024-08-04T21:51:08Z</time></trkpt>
<trkpt lat="42.975793" lon="-122.089493"><ele>1879.2</ele><time>2024-08-04T21:51:09Z</time></trkpt>
<trkpt lat="42.975846" lon="-122.089326"><ele>1882.2</ele><time>2024-08-04T21:51:18Z</time></trkpt>
<trkpt lat="42.975947" lon="-122.089444"><ele>1893.8</ele><time>2024-08-04T21:51:20Z</time></trkpt>
<trkpt lat="42.975952" lon="-122.089468"><ele>1889.0</ele><time>2024-08-04T21:51:21Z</time></trkpt>
<trkpt lat="42.975932" lon="-122.089523"><ele>1896.8</ele><time>2024-08-04T21:51:22Z</time></trkpt>
<trkpt lat="42.975877" lon="-122.089527"><ele>1648.4</ele><time>2024-08-04T21:51:31Z</time></trkpt>
<trkpt lat="42.975892" lon="-122.089526"><ele>1985.0</ele><time>2024-08-04T21:51:47Z</time></trkpt>
<trkpt lat="42.975871" lon="-122.089603"><ele>1906.0</ele><time>2024-08-04T21:52:12Z</time></trkpt>
<trkpt lat="42.975864" lon="-122.089477"><ele>1907.6</ele><time>2024-08-04T21:53:43Z</time></trkpt>
<trkpt lat="42.975817" lon="-122.089477"><ele>1903.8</ele><time>2024-08-04T21:53:58Z</time></trkpt>
<trkpt lat="42.975873" lon="-122.089395"><ele>1898.0</ele><time>2024-08-04T21:54:11Z</time></trkpt>
<trkpt lat="42.975783" lon="-122.089344"><ele>1894.2</ele><time>2024-08-04T21:56:01Z</time></trkpt>
<trkpt lat="42.975835" lon="-122.089324"><ele>1892.8</ele><time>2024-08-04T21:56:07Z</time></trkpt>
<trkpt lat="42.975851" lon="-122.089480"><ele>1885.2</ele><time>2024-08-04T21:59:20Z</time></trkpt>
<trkpt lat="42.975851" lon="-122.089484"><ele>1554.6</ele><time>2024-08-04T21:59:34Z</time></trkpt>
<trkpt lat="42.975850" lon="-122.089504"><ele>1839.8</ele><time>2024-08-04T22:00:16Z</time></trkpt>
<trkpt lat="42.975850" lon="-122.089512"><ele>1835.0</ele><time>2024-08-04T22:00:20Z</time></trkpt>
<trkpt lat="42.976181" lon="-122.089348"><ele>1826.4</ele><time>2024-08-04T22:00:24Z</time></trkpt>
<trkpt lat="42.975843" lon="-122.089556"><ele>1831.8</ele><time>2024-08-04T22:00:32Z</time></trkpt>
<trkpt lat="42.975884" lon="-122.089488"><ele>1897.6</ele><time>2024-08-04T22:00:35Z</time></trkpt>
<trkpt lat="42.975834" lon="-122.089519"><ele>1891.2</ele><time>2024-08-04T22:00:36Z</time></trkpt>
<trkpt lat="42.975817" lon="-122.089581"><ele>1892.6</ele><time>2024-08-04T22:00:38Z</time></trkpt>
<trkpt lat="42.975923" lon="-122.089659"><ele>1892.8</ele><time>2024-08-04T22:00:40Z</time></trkpt>
<trkpt lat="42.976223" lon="-122.089107"><ele>1896.6</ele><time>2024-08-04T22:02:25Z</time></trkpt>
<trkpt lat="42.976131" lon="-122.089281"><ele>1898.2</ele><time>2024-08-04T22:02:28Z</time></trkpt>
<trkpt lat="42.975905" lon="-122.089451"><ele>1897.4</ele><time>2024-08-04T22:02:34Z</time></trkpt>
<trkpt lat="42.975890" lon="-122.089420"><ele>1894.4</ele><time>2024-08-04T22:02:41Z</time></trkpt>
<trkpt lat="42.976053" lon="-122.089505"><ele>1889.0</ele><time>2024-08-04T22:04:42Z</time></trkpt>
<trkpt lat="42.975862" lon="-122.089446"><ele>1889.0</ele><time>2024-08-04T22:05:12Z</time></trkpt>
<trkpt lat="42.976045" lon="-122.089370"><ele>1888.2</ele><time>2024-08-04T22:10:54Z</time></trkpt>
<trkpt lat="42.975914" lon="-122.089408"><ele>1888.4</ele><time>2024-08-04T22:13:06Z</time></trkpt>
<trkpt lat="42.976002" lon="-122.089425"><ele>1887.4</ele><time>2024-08-04T22:14:58Z</time></trkpt>
<trkpt lat="42.975881" lon="-122.089410"><ele>1888.2</ele><time>2024-08-04T22:15:05Z</time></trkpt>
<trkpt lat="42.976033" lon="-122.089327"><ele>1888.0</ele><time>2024-08-04T22:16:54Z</time></trkpt>
<trkpt lat="42.975879" lon="-122.089406"><ele>1888.0</ele><time>2024-08-04T22:17:03Z</time></trkpt>
<trkpt lat="42.975970" lon="-122.089363"><ele>1887.6</ele><time>2024-08-04T22:18:59Z</time></trkpt>
<trkpt lat="42.975903" lon="-122.089450"><ele>1887.0</ele><time>2024-08-04T22:21:13Z</time></trkpt>
<trkpt lat="42.975860" lon="-122.089365"><ele>1887.6</ele><time>2024-08-04T22:22:53Z</time></trkpt>
<trkpt lat="42.975981" lon="-122.089327"><ele>1887.6</ele><time>2024-08-04T22:22:56Z</time></trkpt>
<trkpt lat="42.975906" lon="-122.089383"><ele>1887.4</ele><time>2024-08-04T22:23:07Z</time></trkpt>
<trkpt lat="42.976007" lon="-122.089392"><ele>1887.0</ele><time>2024-08-04T22:24:57Z</time></trkpt>
<trkpt lat="42.975889" lon="-122.089428"><ele>1887.6</ele><time>2024-08-04T22:25:01Z</time></trkpt>
<trkpt lat="42.975930" lon="-122.089418"><ele>1887.4</ele><time>2024-08-04T22:25:07Z</time></trkpt>
<trkpt lat="42.975912" lon="-122.089285"><ele>1886.8</ele><time>2024-08-04T22:26:53Z</time></trkpt>
<trkpt lat="42.975818" lon="-122.089333"><ele>1886.2</ele><time>2024-08-04T22:27:02Z</time></trkpt>
<trkpt lat="42.975909" lon="-122.089348"><ele>1886.4</ele><time>2024-08-04T22:28:06Z</time></trkpt>
<trkpt lat="42.975790" lon="-122.089339"><ele>1886.2</ele><time>2024-08-04T22:29:02Z</time></trkpt>
<trkpt lat="42.976065" lon="-122.089229"><ele>1886.0</ele><time>2024-08-04T22:30:53Z</time></trkpt>
<trkpt lat="42.975846" lon="-122.089314"><ele>1885.2</ele><time>2024-08-04T22:31:02Z</time></trkpt>
<trkpt lat="42.975912" lon="-122.089401"><ele>1885.0</ele><time>2024-08-04T22:31:08Z</time></trkpt>
<trkpt lat="42.976076" lon="-122.089304"><ele>1886.0</ele><time>2024-08-04T22:31:32Z</time></trkpt>
<trkpt lat="42.976526" lon="-122.088581"><ele>1883.2</ele><time>2024-08-04T22:33:00Z</time></trkpt>
<trkpt lat="42.976500" lon="-122.088473"><ele>1883.0</ele><time>2024-08-04T22:33:08Z</time></trkpt>
<trkpt lat="42.976720" lon="-122.088320"><ele>1884.6</ele><time>2024-08-04T22:33:24Z</time></trkpt>
<trkpt lat="42.977412" lon="-122.087603"><ele>1898.2</ele><time>2024-08-04T22:35:05Z</time></trkpt>
<trkpt lat="42.977380" lon="-122.087499"><ele>1899.6</ele><time>2024-08-04T22:35:09Z</time></trkpt>
<trkpt lat="42.977477" lon="-122.087399"><ele>1901.8</ele><time>2024-08-04T22:35:18Z</time></trkpt>
<trkpt lat="42.977609" lon="-122.086867"><ele>1914.4</ele><time>2024-08-04T22:36:32Z</time></trkpt>
<trkpt lat="42.977855" lon="-122.086117"><ele>1922.4</ele><time>2024-08-04T22:37:22Z</time></trkpt>
<trkpt lat="42.977931" lon="-122.086199"><ele>1932.8</ele><time>2024-08-04T22:38:18Z</time></trkpt>
<trkpt lat="42.978049" lon="-122.086508"><ele>1936.6</ele><time>2024-08-04T22:38:54Z</time></trkpt>
<trkpt lat="42.977869" lon="-122.086759"><ele>1937.4</ele><time>2024-08-04T22:39:09Z</time></trkpt>
<trkpt lat="42.977779" lon="-122.087973"><ele>1945.8</ele><time>2024-08-04T22:40:40Z</time></trkpt>
<trkpt lat="42.977803" lon="-122.088376"><ele>1945.8</ele><time>2024-08-04T22:40:54Z</time></trkpt>
<trkpt lat="42.977711" lon="-122.088384"><ele>1945.8</ele><time>2024-08-04T22:40:55Z</time></trkpt>
<trkpt lat="42.977742" lon="-122.088325"><ele>1945.8</ele><time>2024-08-04T22:40:57Z</time></trkpt>
<trkpt lat="42.977634" lon="-122.088519"><ele>1945.8</ele><time>2024-08-04T22:41:01Z</time></trkpt>
<trkpt lat="42.977624" lon="-122.088451"><ele>1945.8</ele><time>2024-08-04T22:41:04Z</time></trkpt>
<trkpt lat="42.977549" lon="-122.088492"><ele>1946.0</ele><time>2024-08-04T22:41:13Z</time></trkpt>
<trkpt lat="42.977426" lon="-122.088866"><ele>1950.0</ele><time>2024-08-04T22:41:40Z</time></trkpt>
<trkpt lat="42.977350" lon="-122.089408"><ele>1958.4</ele><time>2024-08-04T22:43:01Z</time></trkpt>
<trkpt lat="42.977062" lon="-122.089289"><ele>1959.8</ele><time>2024-08-04T22:43:07Z</time></trkpt>
<trkpt lat="42.977212" lon="-122.089193"><ele>1962.6</ele><time>2024-08-04T22:43:18Z</time></trkpt>
<trkpt lat="42.977253" lon="-122.089258"><ele>1963.0</ele><time>2024-08-04T22:43:20Z</time></trkpt>
<trkpt lat="42.977271" lon="-122.089166"><ele>1964.0</ele><time>2024-08-04T22:43:24Z</time></trkpt>
<trkpt lat="42.977457" lon="-122.089285"><ele>1968.0</ele><time>2024-08-04T22:43:47Z</time></trkpt>
<trkpt lat="42.977538" lon="-122.089257"><ele>1969.2</ele><time>2024-08-04T22:43:52Z</time></trkpt>
<trkpt lat="42.977497" lon="-122.089093"><ele>1971.0</ele><time>2024-08-04T22:43:57Z</time></trkpt>
<trkpt lat="42.977600" lon="-122.089007"><ele>1973.8</ele><time>2024-08-04T22:44:08Z</time></trkpt>
<trkpt lat="42.977851" lon="-122.088542"><ele>1976.4</ele><time>2024-08-04T22:44:34Z</time></trkpt>
<trkpt lat="42.978098" lon="-122.088052"><ele>1989.2</ele><time>2024-08-04T22:45:42Z</time></trkpt>
<trkpt lat="42.978322" lon="-122.087592"><ele>1992.2</ele><time>2024-08-04T22:45:57Z</time></trkpt>
<trkpt lat="42.978389" lon="-122.087618"><ele>1992.6</ele><time>2024-08-04T22:45:59Z</time></trkpt>
<trkpt lat="42.978337" lon="-122.087620"><ele>1992.8</ele><time>2024-08-04T22:46:00Z</time></trkpt>
<trkpt lat="42.978433" lon="-122.087479"><ele>1996.0</ele><time>2024-08-04T22:46:16Z</time></trkpt>
<trkpt lat="42.978498" lon="-122.087485"><ele>1997.0</ele><time>2024-08-04T22:46:21Z</time></trkpt>
<trkpt lat="42.978742" lon="-122.087044"><ele>2003.4</ele><time>2024-08-04T22:46:52Z</time></trkpt>
<trkpt lat="42.978678" lon="-122.086956"><ele>2005.0</ele><time>2024-08-04T22:46:59Z</time></trkpt>
<trkpt lat="42.978946" lon="-122.086425"><ele>2014.6</ele><time>2024-08-04T22:47:52Z</time></trkpt>
<trkpt lat="42.978871" lon="-122.086125"><ele>2019.8</ele><time>2024-08-04T22:48:14Z</time></trkpt>
<trkpt lat="42.979194" lon="-122.085973"><ele>2025.4</ele><time>2024-08-04T22:48:52Z</time></trkpt>
<trkpt lat="42.979068" lon="-122.085743"><ele>2026.4</ele><time>2024-08-04T22:48:57Z</time></trkpt>
<trkpt lat="42.979118" lon="-122.085428"><ele>2031.6</ele><time>2024-08-04T22:49:25Z</time></trkpt>
<trkpt lat="42.978940" lon="-122.085224"><ele>2035.4</ele><time>2024-08-04T22:49:52Z</time></trkpt>
<trkpt lat="42.979121" lon="-122.084952"><ele>2038.0</ele><time>2024-08-04T22:50:06Z</time></trkpt>
<trkpt lat="42.979154" lon="-122.083908"><ele>2045.8</ele><time>2024-08-04T22:51:15Z</time></trkpt>
<trkpt lat="42.979457" lon="-122.082976"><ele>2052.4</ele><time>2024-08-04T22:51:52Z</time></trkpt>
<trkpt lat="42.979153" lon="-122.083380"><ele>2053.2</ele><time>2024-08-04T22:51:59Z</time></trkpt>
<trkpt lat="42.979417" lon="-122.084094"><ele>2060.4</ele><time>2024-08-04T22:52:52Z</time></trkpt>
<trkpt lat="42.979370" lon="-122.084130"><ele>2061.2</ele><time>2024-08-04T22:52:57Z</time></trkpt>
<trkpt lat="42.979410" lon="-122.083647"><ele>2067.6</ele><time>2024-08-04T22:53:32Z</time></trkpt>
<trkpt lat="42.979446" lon="-122.083839"><ele>2068.6</ele><time>2024-08-04T22:53:44Z</time></trkpt>
<trkpt lat="42.979753" lon="-122.083804"><ele>2070.0</ele><time>2024-08-04T22:53:59Z</time></trkpt>
<trkpt lat="42.979836" lon="-122.083757"><ele>2079.6</ele><time>2024-08-04T22:55:03Z</time></trkpt>
<trkpt lat="42.979974" lon="-122.083656"><ele>2080.6</ele><time>2024-08-04T22:55:25Z</time></trkpt>
<trkpt lat="42.979720" lon="-122.083522"><ele>2080.6</ele><time>2024-08-04T22:55:28Z</time></trkpt>
<trkpt lat="42.980043" lon="-122.083855"><ele>2080.6</ele><time>2024-08-04T22:55:31Z</time></trkpt>
<trkpt lat="42.979844" lon="-122.083436"><ele>2080.2</ele><time>2024-08-04T22:55:41Z</time></trkpt>
<trkpt lat="42.979744" lon="-122.083448"><ele>2079.6</ele><time>2024-08-04T22:56:02Z</time></trkpt>
<trkpt lat="42.979775" lon="-122.083342"><ele>2080.0</ele><time>2024-08-04T22:58:07Z</time></trkpt>
<trkpt lat="42.979708" lon="-122.083491"><ele>2080.0</ele><time>2024-08-04T22:58:12Z</time></trkpt>
<trkpt lat="42.979800" lon="-122.083460"><ele>2079.6</ele><time>2024-08-04T22:58:25Z</time></trkpt>
<trkpt lat="42.979715" lon="-122.083361"><ele>2080.2</ele><time>2024-08-04T22:58:56Z</time></trkpt>
<trkpt lat="42.979749" lon="-122.083440"><ele>2079.8</ele><time>2024-08-04T22:59:05Z</time></trkpt>
<trkpt lat="42.979870" lon="-122.083442"><ele>2079.4</ele><time>2024-08-04T22:59:32Z</time></trkpt>
<trkpt lat="42.979624" lon="-122.083435"><ele>2080.4</ele><time>2024-08-04T23:01:30Z</time></trkpt>
<trkpt lat="42.979811" lon="-122.083472"><ele>2079.4</ele><time>2024-08-04T23:01:50Z</time></trkpt>
<trkpt lat="42.979770" lon="-122.083446"><ele>2079.2</ele><time>2024-08-04T23:01:55Z</time></trkpt>
<trkpt lat="42.979809" lon="-122.083398"><ele>2079.2</ele><time>2024-08-04T23:02:02Z</time></trkpt>
<trkpt lat="42.979716" lon="-122.083443"><ele>2079.6</ele><time>2024-08-04T23:04:00Z</time></trkpt>
<trkpt lat="42.979998" lon="-122.083367"><ele>2079.4</ele><time>2024-08-04T23:05:58Z</time></trkpt>
<trkpt lat="42.979822" lon="-122.083458"><ele>2079.0</ele><time>2024-08-04T23:06:11Z</time></trkpt>
<trkpt lat="42.979828" lon="-122.083371"><ele>2078.4</ele><time>2024-08-04T23:07:45Z</time></trkpt>
<trkpt lat="42.979672" lon="-122.083440"><ele>2078.0</ele><time>2024-08-04T23:08:13Z</time></trkpt>
<trkpt lat="43.595794" lon="-122.032203"><ele>1597.4</ele><time>2024-08-05T02:33:43Z</time></trkpt>
<trkpt lat="43.595817" lon="-122.032274"><ele>1598.2</ele><time>2024-08-05T02:33:49Z</time></trkpt>
<trkpt lat="43.596180" lon="-122.032397"><ele>1601.2</ele><time>2024-08-05T02:34:10Z</time></trkpt>
<trkpt lat="43.596427" lon="-122.032751"><ele>1603.4</ele><time>2024-08-05T02:34:38Z</time></trkpt>
<trkpt lat="43.596549" lon="-122.032696"><ele>1602.8</ele><time>2024-08-05T02:34:50Z</time></trkpt>
<trkpt lat="43.596711" lon="-122.032863"><ele>1603.0</ele><time>2024-08-05T02:35:05Z</time></trkpt>
<trkpt lat="43.597076" lon="-122.032567"><ele>1604.4</ele><time>2024-08-05T02:35:42Z</time></trkpt>
<trkpt lat="43.597124" lon="-122.032235"><ele>1607.2</ele><time>2024-08-05T02:36:00Z</time></trkpt>
<trkpt lat="43.597086" lon="-122.031551"><ele>1607.4</ele><time>2024-08-05T02:37:45Z</time></trkpt>
<trkpt lat="43.597232" lon="-122.031553"><ele>1605.6</ele><time>2024-08-05T02:39:41Z</time></trkpt>
<trkpt lat="43.597249" lon="-122.031474"><ele>1605.4</ele><time>2024-08-05T02:39:48Z</time></trkpt>
<trkpt lat="43.597340" lon="-122.031452"><ele>1606.8</ele><time>2024-08-05T02:40:01Z</time></trkpt>
<trkpt lat="43.597565" lon="-122.030799"><ele>1613.6</ele><time>2024-08-05T02:41:01Z</time></trkpt>
<trkpt lat="43.597378" lon="-122.030275"><ele>1615.8</ele><time>2024-08-05T02:41:47Z</time></trkpt>
<trkpt lat="43.597206" lon="-122.030104"><ele>1616.6</ele><time>2024-08-05T02:41:57Z</time></trkpt>
<trkpt lat="43.596832" lon="-122.028163"><ele>1628.2</ele><time>2024-08-05T02:44:01Z</time></trkpt>
<trkpt lat="43.596018" lon="-122.026491"><ele>1637.4</ele><time>2024-08-05T02:45:53Z</time></trkpt>
<trkpt lat="43.595504" lon="-122.024610"><ele>1643.4</ele><time>2024-08-05T02:47:53Z</time></trkpt>
<trkpt lat="43.595067" lon="-122.023861"><ele>1646.6</ele><time>2024-08-05T02:48:42Z</time></trkpt>
<trkpt lat="43.595074" lon="-122.023360"><ele>1648.0</ele><time>2024-08-05T02:49:01Z</time></trkpt>
<trkpt lat="43.595021" lon="-122.023206"><ele>1649.2</ele><time>2024-08-05T02:49:12Z</time></trkpt>
<trkpt lat="43.595040" lon="-122.022985"><ele>1650.2</ele><time>2024-08-05T02:49:35Z</time></trkpt>
<trkpt lat="43.595125" lon="-122.022923"><ele>1650.8</ele><time>2024-08-05T02:49:45Z</time></trkpt>
<trkpt lat="43.594997" lon="-122.022542"><ele>1651.6</ele><time>2024-08-05T02:49:55Z</time></trkpt>
<trkpt lat="43.594726" lon="-122.022239"><ele>1652.6</ele><time>2024-08-05T02:50:07Z</time></trkpt>
<trkpt lat="43.594713" lon="-122.021659"><ele>1654.8</ele><time>2024-08-05T02:50:45Z</time></trkpt>
<trkpt lat="43.594607" lon="-122.021542"><ele>1655.2</ele><time>2024-08-05T02:50:50Z</time></trkpt>
<trkpt lat="43.594583" lon="-122.021174"><ele>1656.2</ele><time>2024-08-05T02:51:09Z</time></trkpt>
<trkpt lat="43.594452" lon="-122.020882"><ele>1656.8</ele><time>2024-08-05T02:51:14Z</time></trkpt>
<trkpt lat="43.594532" lon="-122.020898"><ele>1658.2</ele><time>2024-08-05T02:51:29Z</time></trkpt>
<trkpt lat="43.594452" lon="-122.020882"><ele>1659.2</ele><time>2024-08-05T02:51:39Z</time></trkpt>
<trkpt lat="43.594372" lon="-122.020577"><ele>1659.2</ele><time>2024-08-05T02:51:44Z</time></trkpt>
<trkpt lat="43.594355" lon="-122.019465"><ele>1664.8</ele><time>2024-08-05T02:52:42Z</time></trkpt>
<trkpt lat="43.594232" lon="-122.019098"><ele>1666.6</ele><time>2024-08-05T02:53:05Z</time></trkpt>
<trkpt lat="43.594004" lon="-122.017461"><ele>1674.6</ele><time>2024-08-05T02:54:45Z</time></trkpt>
<trkpt lat="43.593963" lon="-122.017501"><ele>1674.6</ele><time>2024-08-05T02:54:49Z</time></trkpt>
<trkpt lat="43.594026" lon="-122.017517"><ele>1674.6</ele><time>2024-08-05T02:54:50Z</time></trkpt>
<trkpt lat="43.594157" lon="-122.016528"><ele>1676.8</ele><time>2024-08-05T02:55:41Z</time></trkpt>
<trkpt lat="43.594049" lon="-122.016526"><ele>1677.4</ele><time>2024-08-05T02:55:49Z</time></trkpt>
<trkpt lat="43.593622" lon="-122.015748"><ele>1683.0</ele><time>2024-08-05T02:56:45Z</time></trkpt>
<trkpt lat="43.593388" lon="-122.014895"><ele>1687.0</ele><time>2024-08-05T02:57:42Z</time></trkpt>
<trkpt lat="43.593290" lon="-122.014835"><ele>1687.2</ele><time>2024-08-05T02:57:44Z</time></trkpt>
<trkpt lat="43.593104" lon="-122.014499"><ele>1688.4</ele><time>2024-08-05T02:58:04Z</time></trkpt>
<trkpt lat="43.592852" lon="-122.013710"><ele>1689.6</ele><time>2024-08-05T02:58:54Z</time></trkpt>
<trkpt lat="43.592944" lon="-122.013459"><ele>1690.2</ele><time>2024-08-05T02:59:08Z</time></trkpt>
<trkpt lat="43.592948" lon="-122.013003"><ele>1693.0</ele><time>2024-08-05T02:59:40Z</time></trkpt>
<trkpt lat="43.593209" lon="-122.012755"><ele>1694.4</ele><time>2024-08-05T02:59:58Z</time></trkpt>
<trkpt lat="43.593330" lon="-122.012499"><ele>1695.2</ele><time>2024-08-05T03:00:13Z</time></trkpt>
<trkpt lat="43.593749" lon="-122.012014"><ele>1698.0</ele><time>2024-08-05T03:00:59Z</time></trkpt>
<trkpt lat="43.594030" lon="-122.011569"><ele>1700.8</ele><time>2024-08-05T03:01:37Z</time></trkpt>
<trkpt lat="43.594333" lon="-122.011354"><ele>1702.4</ele><time>2024-08-05T03:02:02Z</time></trkpt>
<trkpt lat="43.594408" lon="-122.011122"><ele>1703.4</ele><time>2024-08-05T03:02:14Z</time></trkpt>
<trkpt lat="43.594416" lon="-122.010461"><ele>1705.0</ele><time>2024-08-05T03:02:53Z</time></trkpt>
<trkpt lat="43.593944" lon="-122.008192"><ele>1712.0</ele><time>2024-08-05T03:05:08Z</time></trkpt>
<trkpt lat="43.594047" lon="-122.007289"><ele>1712.8</ele><time>2024-08-05T03:06:03Z</time></trkpt>
<trkpt lat="43.594161" lon="-122.006873"><ele>1711.6</ele><time>2024-08-05T03:06:51Z</time></trkpt>
<trkpt lat="43.595059" lon="-122.007127"><ele>1711.2</ele><time>2024-08-05T03:07:20Z</time></trkpt>
<trkpt lat="43.594540" lon="-122.006079"><ele>1711.2</ele><time>2024-08-05T03:07:21Z</time></trkpt>
<trkpt lat="43.594114" lon="-122.005612"><ele>1711.2</ele><time>2024-08-05T03:07:26Z</time></trkpt>
<trkpt lat="43.593966" lon="-122.005632"><ele>1711.0</ele><time>2024-08-05T03:07:31Z</time></trkpt>
<trkpt lat="43.593950" lon="-122.004717"><ele>1710.8</ele><time>2024-08-05T03:07:53Z</time></trkpt>
<trkpt lat="43.593901" lon="-122.004307"><ele>1710.4</ele><time>2024-08-05T03:08:25Z</time></trkpt>
<trkpt lat="43.593770" lon="-122.004042"><ele>1710.2</ele><time>2024-08-05T03:09:24Z</time></trkpt>
<trkpt lat="43.593819" lon="-122.004073"><ele>1710.2</ele><time>2024-08-05T03:09:26Z</time></trkpt>
<trkpt lat="43.593432" lon="-122.003677"><ele>1710.2</ele><time>2024-08-05T03:09:31Z</time></trkpt>
<trkpt lat="43.593395" lon="-122.003496"><ele>1710.2</ele><time>2024-08-05T03:09:36Z</time></trkpt>
<trkpt lat="43.593203" lon="-122.003382"><ele>1709.8</ele><time>2024-08-05T03:09:46Z</time></trkpt>
<trkpt lat="43.593145" lon="-122.003254"><ele>1709.8</ele><time>2024-08-05T03:09:56Z</time></trkpt>
<trkpt lat="43.593174" lon="-122.003192"><ele>1709.8</ele><time>2024-08-05T03:10:00Z</time></trkpt>
<trkpt lat="43.592669" lon="-122.002504"><ele>1709.4</ele><time>2024-08-05T03:10:48Z</time></trkpt>
<trkpt lat="43.592072" lon="-122.001471"><ele>1709.2</ele><time>2024-08-05T03:12:07Z</time></trkpt>
<trkpt lat="43.591960" lon="-122.001426"><ele>1709.2</ele><time>2024-08-05T03:12:13Z</time></trkpt>
<trkpt lat="43.591557" lon="-121.999829"><ele>1711.2</ele><time>2024-08-05T03:13:51Z</time></trkpt>
<trkpt lat="43.591511" lon="-121.999562"><ele>1713.0</ele><time>2024-08-05T03:14:05Z</time></trkpt>
<trkpt lat="43.591542" lon="-121.998819"><ele>1712.8</ele><time>2024-08-05T03:14:38Z</time></trkpt>
<trkpt lat="43.591438" lon="-121.998727"><ele>1713.0</ele><time>2024-08-05T03:14:41Z</time></trkpt>
<trkpt lat="43.591764" lon="-121.999176"><ele>1713.2</ele><time>2024-08-05T03:14:47Z</time></trkpt>
<trkpt lat="43.591903" lon="-121.999100"><ele>1714.2</ele><time>2024-08-05T03:14:58Z</time></trkpt>
<trkpt lat="43.592124" lon="-121.997194"><ele>1725.8</ele><time>2024-08-05T03:16:36Z</time></trkpt>
<trkpt lat="43.592121" lon="-121.996405"><ele>1726.6</ele><time>2024-08-05T03:16:52Z</time></trkpt>
<trkpt lat="43.592345" lon="-121.997042"><ele>1727.6</ele><time>2024-08-05T03:17:01Z</time></trkpt>
<trkpt lat="43.592457" lon="-121.996973"><ele>1728.4</ele><time>2024-08-05T03:17:08Z</time></trkpt>
<trkpt lat="43.592862" lon="-121.997258"><ele>1725.8</ele><time>2024-08-05T03:17:29Z</time></trkpt>
<trkpt lat="43.592893" lon="-121.997336"><ele>1727.8</ele><time>2024-08-05T03:17:47Z</time></trkpt>
<trkpt lat="43.593263" lon="-121.997271"><ele>1729.8</ele><time>2024-08-05T03:18:11Z</time></trkpt>
<trkpt lat="43.593470" lon="-121.997861"><ele>1730.8</ele><time>2024-08-05T03:18:52Z</time></trkpt>
<trkpt lat="43.593794" lon="-121.997984"><ele>1731.4</ele><time>2024-08-05T03:19:06Z</time></trkpt>
<trkpt lat="43.594398" lon="-121.998054"><ele>1733.0</ele><time>2024-08-05T03:19:51Z</time></trkpt>
<trkpt lat="43.594442" lon="-121.998218"><ele>1734.2</ele><time>2024-08-05T03:20:01Z</time></trkpt>
<trkpt lat="43.594548" lon="-121.998278"><ele>1735.2</ele><time>2024-08-05T03:20:09Z</time></trkpt>
<trkpt lat="43.594809" lon="-121.998713"><ele>1735.2</ele><time>2024-08-05T03:20:41Z</time></trkpt>
<trkpt lat="43.594744" lon="-121.998770"><ele>1735.4</ele><time>2024-08-05T03:20:43Z</time></trkpt>
<trkpt lat="43.594762" lon="-121.998976"><ele>1736.8</ele><time>2024-08-05T03:20:54Z</time></trkpt>
<trkpt lat="43.596116" lon="-121.999730"><ele>1742.8</ele><time>2024-08-05T03:22:42Z</time></trkpt>
<trkpt lat="43.596404" lon="-121.999861"><ele>1743.2</ele><time>2024-08-05T03:22:45Z</time></trkpt>
<trkpt lat="43.596278" lon="-121.999704"><ele>1744.6</ele><time>2024-08-05T03:22:54Z</time></trkpt>
<trkpt lat="43.596445" lon="-121.999733"><ele>1745.4</ele><time>2024-08-05T03:23:05Z</time></trkpt>
<trkpt lat="43.596502" lon="-121.999838"><ele>1745.6</ele><time>2024-08-05T03:23:11Z</time></trkpt>
<trkpt lat="43.596915" lon="-122.000027"><ele>1749.0</ele><time>2024-08-05T03:23:41Z</time></trkpt>
<trkpt lat="43.596887" lon="-121.999989"><ele>1749.0</ele><time>2024-08-05T03:23:44Z</time></trkpt>
<trkpt lat="43.597502" lon="-122.000731"><ele>1753.4</ele><time>2024-08-05T03:24:46Z</time></trkpt>
<trkpt lat="43.597762" lon="-122.000836"><ele>1753.8</ele><time>2024-08-05T03:25:09Z</time></trkpt>
<trkpt lat="43.598158" lon="-122.000481"><ele>1754.0</ele><time>2024-08-05T03:25:40Z</time></trkpt>
<trkpt lat="43.598025" lon="-122.000079"><ele>1755.0</ele><time>2024-08-05T03:25:51Z</time></trkpt>
<trkpt lat="43.598168" lon="-121.999835"><ele>1756.4</ele><time>2024-08-05T03:26:09Z</time></trkpt>
<trkpt lat="43.598066" lon="-121.999535"><ele>1757.8</ele><time>2024-08-05T03:26:24Z</time></trkpt>
<trkpt lat="43.598121" lon="-121.999454"><ele>1757.8</ele><time>2024-08-05T03:26:29Z</time></trkpt>
<trkpt lat="43.598373" lon="-121.999407"><ele>1759.4</ele><time>2024-08-05T03:26:45Z</time></trkpt>
<trkpt lat="43.598810" lon="-121.999611"><ele>1769.4</ele><time>2024-08-05T03:27:53Z</time></trkpt>
<trkpt lat="43.599453" lon="-121.999778"><ele>1771.2</ele><time>2024-08-05T03:28:18Z</time></trkpt>
<trkpt lat="43.599364" lon="-121.999645"><ele>1771.2</ele><time>2024-08-05T03:28:19Z</time></trkpt>
<trkpt lat="43.599503" lon="-121.999789"><ele>1771.4</ele><time>2024-08-05T03:28:23Z</time></trkpt>
<trkpt lat="43.599497" lon="-121.999534"><ele>1772.4</ele><time>2024-08-05T03:28:32Z</time></trkpt>
<trkpt lat="43.599304" lon="-121.999354"><ele>1772.4</ele><time>2024-08-05T03:28:35Z</time></trkpt>
<trkpt lat="43.599206" lon="-121.998902"><ele>1772.6</ele><time>2024-08-05T03:28:45Z</time></trkpt>
<trkpt lat="43.599441" lon="-121.998775"><ele>1774.2</ele><time>2024-08-05T03:28:59Z</time></trkpt>
<trkpt lat="43.599910" lon="-121.997450"><ele>1777.0</ele><time>2024-08-05T03:29:42Z</time></trkpt>
<trkpt lat="43.600067" lon="-121.996237"><ele>1776.4</ele><time>2024-08-05T03:30:44Z</time></trkpt>
<trkpt lat="43.600070" lon="-121.996749"><ele>1776.4</ele><time>2024-08-05T03:30:45Z</time></trkpt>
<trkpt lat="43.600384" lon="-121.997745"><ele>1776.4</ele><time>2024-08-05T03:30:57Z</time></trkpt>
<trkpt lat="43.600519" lon="-121.996877"><ele>1775.2</ele><time>2024-08-05T03:31:50Z</time></trkpt>
<trkpt lat="43.600624" lon="-121.996698"><ele>1775.2</ele><time>2024-08-05T03:32:04Z</time></trkpt>
<trkpt lat="43.600596" lon="-121.995913"><ele>1774.6</ele><time>2024-08-05T03:32:47Z</time></trkpt>
<trkpt lat="43.600765" lon="-121.996778"><ele>1774.4</ele><time>2024-08-05T03:32:49Z</time></trkpt>
<trkpt lat="43.600972" lon="-121.997476"><ele>1774.4</ele><time>2024-08-05T03:32:51Z</time></trkpt>
<trkpt lat="43.600742" lon="-121.996671"><ele>1774.4</ele><time>2024-08-05T03:32:52Z</time></trkpt>
<trkpt lat="43.600562" lon="-121.996729"><ele>1774.4</ele><time>2024-08-05T03:32:54Z</time></trkpt>
<trkpt lat="43.600616" lon="-121.996655"><ele>1774.2</ele><time>2024-08-05T03:32:58Z</time></trkpt>
<trkpt lat="43.600715" lon="-121.996714"><ele>1773.4</ele><time>2024-08-05T03:33:08Z</time></trkpt>
<trkpt lat="43.600737" lon="-121.996652"><ele>1772.4</ele><time>2024-08-05T03:33:32Z</time></trkpt>
<trkpt lat="43.600513" lon="-121.996994"><ele>1771.8</ele><time>2024-08-05T03:35:04Z</time></trkpt>
<trkpt lat="43.600352" lon="-121.996970"><ele>1771.0</ele><time>2024-08-05T03:35:16Z</time></trkpt>
<trkpt lat="43.600561" lon="-121.997020"><ele>1771.2</ele><time>2024-08-05T03:35:19Z</time></trkpt>
<trkpt lat="43.600857" lon="-121.996919"><ele>1771.2</ele><time>2024-08-05T03:35:20Z</time></trkpt>
<trkpt lat="43.600756" lon="-121.996846"><ele>1770.6</ele><time>2024-08-05T03:35:26Z</time></trkpt>
<trkpt lat="43.600676" lon="-121.996615"><ele>1770.4</ele><time>2024-08-05T03:35:49Z</time></trkpt>
<trkpt lat="43.600737" lon="-121.996650"><ele>1770.0</ele><time>2024-08-05T03:36:01Z</time></trkpt>
<trkpt lat="43.600688" lon="-121.996882"><ele>1769.0</ele><time>2024-08-05T03:37:42Z</time></trkpt>
<trkpt lat="43.600755" lon="-121.996597"><ele>1768.0</ele><time>2024-08-05T03:38:06Z</time></trkpt>
<trkpt lat="43.600535" lon="-121.996824"><ele>1767.4</ele><time>2024-08-05T03:38:41Z</time></trkpt>
<trkpt lat="43.600739" lon="-121.996645"><ele>1767.6</ele><time>2024-08-05T03:38:58Z</time></trkpt>
<trkpt lat="43.600694" lon="-121.996889"><ele>1766.0</ele><time>2024-08-05T03:40:51Z</time></trkpt>
<trkpt lat="43.600756" lon="-121.996701"><ele>1766.4</ele><time>2024-08-05T03:41:03Z</time></trkpt>
</trkseg></trk>
</gpx>
