<?xml version="1.0" encoding="UTF-8"?>
<gpx version="1.1" creator="Eric Sichak trip reports" xmlns="http://www.topografix.com/GPX/1/1">
<metadata><name>Morning Hike</name><time>2024-08-08T13:18:08Z</time></metadata>
<trk><name>Morning Hike</name><type>hike</type><trkseg>
<trkpt lat="44.326212" lon="-121.855054"><ele>1757.2</ele><time>2024-08-08T13:18:08Z</time></trkpt>
<trkpt lat="44.326180" lon="-121.855005"><ele>1757.6</ele><time>2024-08-08T13:18:34Z</time></trkpt>
<trkpt lat="44.326333" lon="-121.854723"><ele>1759.0</ele><time>2024-08-08T13:18:54Z</time></trkpt>
<trkpt lat="44.326627" lon="-121.854616"><ele>1761.6</ele><time>2024-08-08T13:19:40Z</time></trkpt>
<trkpt lat="44.326772" lon="-121.854381"><ele>1762.6</ele><time>2024-08-08T13:19:55Z</time></trkpt>
<trkpt lat="44.327386" lon="-121.854547"><ele>1770.4</ele><time>2024-08-08T13:21:10Z</time></trkpt>
<trkpt lat="44.327501" lon="-121.854748"><ele>1769.2</ele><time>2024-08-08T13:21:26Z</time></trkpt>
<trkpt lat="44.328296" lon="-121.855534"><ele>1770.2</ele><time>2024-08-08T13:22:38Z</time></trkpt>
<trkpt lat="44.328994" lon="-121.856441"><ele>1769.6</ele><time>2024-08-08T13:23:58Z</time></trkpt>
<trkpt lat="44.329051" lon="-121.856583"><ele>1768.4</ele><time>2024-08-08T13:24:10Z</time></trkpt>
<trkpt lat="44.328935" lon="-121.858033"><ele>1757.6</ele><time>2024-08-08T13:25:44Z</time></trkpt>
<trkpt lat="44.328841" lon="-121.858310"><ele>1757.2</ele><time>2024-08-08T13:25:57Z</time></trkpt>
<trkpt lat="44.328936" lon="-121.858638"><ele>1753.8</ele><time>2024-08-08T13:26:36Z</time></trkpt>
<trkpt lat="44.328979" lon="-121.860097"><ele>1749.0</ele><time>2024-08-08T13:27:43Z</time></trkpt>
<trkpt lat="44.329042" lon="-121.860221"><ele>1749.0</ele><time>2024-08-08T13:27:53Z</time></trkpt>
<trkpt lat="44.328980" lon="-121.861065"><ele>1745.6</ele><time>2024-08-08T13:28:54Z</time></trkpt>
<trkpt lat="44.329073" lon="-121.862081"><ele>1743.2</ele><time>2024-08-08T13:29:46Z</time></trkpt>
<trkpt lat="44.329399" lon="-121.862459"><ele>1741.2</ele><time>2024-08-08T13:30:12Z</time></trkpt>
<trkpt lat="44.330458" lon="-121.863004"><ele>1734.8</ele><time>2024-08-08T13:31:49Z</time></trkpt>
<trkpt lat="44.330547" lon="-121.863140"><ele>1733.4</ele><time>2024-08-08T13:31:59Z</time></trkpt>
<trkpt lat="44.331448" lon="-121.863705"><ele>1722.6</ele><time>2024-08-08T13:33:20Z</time></trkpt>
<trkpt lat="44.331771" lon="-121.864000"><ele>1719.0</ele><time>2024-08-08T13:33:43Z</time></trkpt>
<trkpt lat="44.331756" lon="-121.864229"><ele>1717.8</ele><time>2024-08-08T13:33:57Z</time></trkpt>
<trkpt lat="44.331928" lon="-121.864534"><ele>1713.4</ele><time>2024-08-08T13:34:33Z</time></trkpt>
<trkpt lat="44.332384" lon="-121.864978"><ele>1711.6</ele><time>2024-08-08T13:35:19Z</time></trkpt>
<trkpt lat="44.332723" lon="-121.864948"><ele>1710.6</ele><time>2024-08-08T13:35:43Z</time></trkpt>
<trkpt lat="44.332946" lon="-121.865115"><ele>1709.8</ele><time>2024-08-08T13:35:59Z</time></trkpt>
<trkpt lat="44.333062" lon="-121.865052"><ele>1709.2</ele><time>2024-08-08T13:36:12Z</time></trkpt>
<trkpt lat="44.333675" lon="-121.865454"><ele>1700.6</ele><time>2024-08-08T13:37:04Z</time></trkpt>
<trkpt lat="44.333890" lon="-121.865672"><ele>1698.4</ele><time>2024-08-08T13:37:24Z</time></trkpt>
<trkpt lat="44.333993" lon="-121.865931"><ele>1696.8</ele><time>2024-08-08T13:37:43Z</time></trkpt>
<trkpt lat="44.334055" lon="-121.865915"><ele>1696.4</ele><time>2024-08-08T13:37:45Z</time></trkpt>
<trkpt lat="44.334105" lon="-121.866173"><ele>1694.0</ele><time>2024-08-08T13:37:59Z</time></trkpt>
<trkpt lat="44.334427" lon="-121.866351"><ele>1688.6</ele><time>2024-08-08T13:38:34Z</time></trkpt>
<trkpt lat="44.334421" lon="-121.866451"><ele>1687.4</ele><time>2024-08-08T13:38:40Z</time></trkpt>
<trkpt lat="44.334845" lon="-121.866969"><ele>1680.8</ele><time>2024-08-08T13:39:22Z</time></trkpt>
<trkpt lat="44.334969" lon="-121.867712"><ele>1673.8</ele><time>2024-08-08T13:40:03Z</time></trkpt>
<trkpt lat="44.335062" lon="-121.867868"><ele>1671.8</ele><time>2024-08-08T13:40:14Z</time></trkpt>
<trkpt lat="44.335440" lon="-121.868379"><ele>1666.0</ele><time>2024-08-08T13:40:56Z</time></trkpt>
<trkpt lat="44.335770" lon="-121.868524"><ele>1662.8</ele><time>2024-08-08T13:41:24Z</time></trkpt>
<trkpt lat="44.336032" lon="-121.868906"><ele>1659.6</ele><time>2024-08-08T13:41:59Z</time></trkpt>
<trkpt lat="44.336714" lon="-121.869078"><ele>1655.6</ele><time>2024-08-08T13:42:58Z</time></trkpt>
<trkpt lat="44.337013" lon="-121.868822"><ele>1653.6</ele><time>2024-08-08T13:43:26Z</time></trkpt>
<trkpt lat="44.337265" lon="-121.868727"><ele>1653.2</ele><time>2024-08-08T13:43:50Z</time></trkpt>
<trkpt lat="44.337765" lon="-121.867953"><ele>1651.2</ele><time>2024-08-08T13:45:02Z</time></trkpt>
<trkpt lat="44.338099" lon="-121.867561"><ele>1650.2</ele><time>2024-08-08T13:45:44Z</time></trkpt>
<trkpt lat="44.338201" lon="-121.867762"><ele>1649.0</ele><time>2024-08-08T13:45:59Z</time></trkpt>
<trkpt lat="44.339066" lon="-121.866745"><ele>1647.4</ele><time>2024-08-08T13:47:58Z</time></trkpt>
<trkpt lat="44.339327" lon="-121.866739"><ele>1646.0</ele><time>2024-08-08T13:48:19Z</time></trkpt>
<trkpt lat="44.339755" lon="-121.866356"><ele>1640.2</ele><time>2024-08-08T13:49:11Z</time></trkpt>
<trkpt lat="44.340311" lon="-121.866380"><ele>1637.0</ele><time>2024-08-08T13:49:45Z</time></trkpt>
<trkpt lat="44.340590" lon="-121.865822"><ele>1634.0</ele><time>2024-08-08T13:50:29Z</time></trkpt>
<trkpt lat="44.340906" lon="-121.865667"><ele>1629.8</ele><time>2024-08-08T13:51:03Z</time></trkpt>
<trkpt lat="44.341102" lon="-121.865306"><ele>1627.6</ele><time>2024-08-08T13:51:31Z</time></trkpt>
<trkpt lat="44.341292" lon="-121.865183"><ele>1625.4</ele><time>2024-08-08T13:51:55Z</time></trkpt>
<trkpt lat="44.341792" lon="-121.865348"><ele>1623.2</ele><time>2024-08-08T13:52:37Z</time></trkpt>
<trkpt lat="44.342331" lon="-121.866116"><ele>1616.8</ele><time>2024-08-08T13:53:44Z</time></trkpt>
<trkpt lat="44.342373" lon="-121.866380"><ele>1616.2</ele><time>2024-08-08T13:53:52Z</time></trkpt>
<trkpt lat="44.342786" lon="-121.867196"><ele>1610.2</ele><time>2024-08-08T13:54:47Z</time></trkpt>
<trkpt lat="44.343074" lon="-121.867506"><ele>1607.0</ele><time>2024-08-08T13:55:09Z</time></trkpt>
<trkpt lat="44.343255" lon="-121.867566"><ele>1606.0</ele><time>2024-08-08T13:55:25Z</time></trkpt>
<trkpt lat="44.343364" lon="-121.867813"><ele>1605.6</ele><time>2024-08-08T13:55:44Z</time></trkpt>
<trkpt lat="44.343585" lon="-121.867996"><ele>1604.8</ele><time>2024-08-08T13:56:00Z</time></trkpt>
<trkpt lat="44.344156" lon="-121.868078"><ele>1602.0</ele><time>2024-08-08T13:56:35Z</time></trkpt>
<trkpt lat="44.345377" lon="-121.867455"><ele>1591.0</ele><time>2024-08-08T13:58:15Z</time></trkpt>
<trkpt lat="44.345711" lon="-121.867162"><ele>1591.0</ele><time>2024-08-08T13:58:57Z</time></trkpt>
<trkpt lat="44.346419" lon="-121.866714"><ele>1587.6</ele><time>2024-08-08T14:00:04Z</time></trkpt>
<trkpt lat="44.347860" lon="-121.866838"><ele>1574.8</ele><time>2024-08-08T14:01:45Z</time></trkpt>
<trkpt lat="44.347821" lon="-121.866799"><ele>1573.6</ele><time>2024-08-08T14:01:55Z</time></trkpt>
<trkpt lat="44.348618" lon="-121.866741"><ele>1568.2</ele><time>2024-08-08T14:02:59Z</time></trkpt>
<trkpt lat="44.348807" lon="-121.866659"><ele>1566.0</ele><time>2024-08-08T14:03:25Z</time></trkpt>
<trkpt lat="44.349102" lon="-121.866404"><ele>1563.8</ele><time>2024-08-08T14:03:44Z</time></trkpt>
<trkpt lat="44.349110" lon="-121.866155"><ele>1562.8</ele><time>2024-08-08T14:03:57Z</time></trkpt>
<trkpt lat="44.349166" lon="-121.866072"><ele>1562.4</ele><time>2024-08-08T14:04:03Z</time></trkpt>
<trkpt lat="44.349692" lon="-121.865695"><ele>1557.4</ele><time>2024-08-08T14:04:51Z</time></trkpt>
<trkpt lat="44.350308" lon="-121.865511"><ele>1552.6</ele><time>2024-08-08T14:05:44Z</time></trkpt>
<trkpt lat="44.350380" lon="-121.865273"><ele>1551.8</ele><time>2024-08-08T14:06:00Z</time></trkpt>
<trkpt lat="44.351347" lon="-121.865371"><ele>1549.6</ele><time>2024-08-08T14:07:25Z</time></trkpt>
<trkpt lat="44.351833" lon="-121.865323"><ele>1547.4</ele><time>2024-08-08T14:07:45Z</time></trkpt>
<trkpt lat="44.351994" lon="-121.865365"><ele>1545.4</ele><time>2024-08-08T14:08:04Z</time></trkpt>
<trkpt lat="44.352661" lon="-121.866116"><ele>1538.8</ele><time>2024-08-08T14:09:11Z</time></trkpt>
<trkpt lat="44.352892" lon="-121.866635"><ele>1536.2</ele><time>2024-08-08T14:09:44Z</time></trkpt>
<trkpt lat="44.352714" lon="-121.866586"><ele>1534.6</ele><time>2024-08-08T14:09:58Z</time></trkpt>
<trkpt lat="44.352696" lon="-121.866643"><ele>1533.4</ele><time>2024-08-08T14:10:04Z</time></trkpt>
<trkpt lat="44.353039" lon="-121.867071"><ele>1528.6</ele><time>2024-08-08T14:10:37Z</time></trkpt>
<trkpt lat="44.353340" lon="-121.866993"><ele>1524.4</ele><time>2024-08-08T14:11:11Z</time></trkpt>
<trkpt lat="44.353549" lon="-121.867044"><ele>1521.2</ele><time>2024-08-08T14:11:37Z</time></trkpt>
<trkpt lat="44.353652" lon="-121.867123"><ele>1520.6</ele><time>2024-08-08T14:11:44Z</time></trkpt>
<trkpt lat="44.353705" lon="-121.867279"><ele>1520.0</ele><time>2024-08-08T14:11:50Z</time></trkpt>
<trkpt lat="44.353806" lon="-121.867275"><ele>1519.6</ele><time>2024-08-08T14:12:03Z</time></trkpt>
<trkpt lat="44.354256" lon="-121.867709"><ele>1514.0</ele><time>2024-08-08T14:13:47Z</time></trkpt>
<trkpt lat="44.354200" lon="-121.867855"><ele>1514.0</ele><time>2024-08-08T14:13:58Z</time></trkpt>
<trkpt lat="44.354462" lon="-121.868600"><ele>1509.2</ele><time>2024-08-08T14:15:07Z</time></trkpt>
<trkpt lat="44.354981" lon="-121.869083"><ele>1505.6</ele><time>2024-08-08T14:15:58Z</time></trkpt>
<trkpt lat="44.355316" lon="-121.869034"><ele>1505.0</ele><time>2024-08-08T14:16:23Z</time></trkpt>
<trkpt lat="44.355596" lon="-121.869122"><ele>1502.8</ele><time>2024-08-08T14:16:47Z</time></trkpt>
<trkpt lat="44.355629" lon="-121.869208"><ele>1501.8</ele><time>2024-08-08T14:16:53Z</time></trkpt>
<trkpt lat="44.355813" lon="-121.869290"><ele>1499.6</ele><time>2024-08-08T14:17:15Z</time></trkpt>
<trkpt lat="44.355991" lon="-121.869546"><ele>1497.0</ele><time>2024-08-08T14:17:44Z</time></trkpt>
<trkpt lat="44.356011" lon="-121.869598"><ele>1496.6</ele><time>2024-08-08T14:17:48Z</time></trkpt>
<trkpt lat="44.355918" lon="-121.869718"><ele>1496.0</ele><time>2024-08-08T14:18:01Z</time></trkpt>
<trkpt lat="44.356039" lon="-121.869862"><ele>1494.4</ele><time>2024-08-08T14:18:23Z</time></trkpt>
<trkpt lat="44.356694" lon="-121.869822"><ele>1492.4</ele><time>2024-08-08T14:19:19Z</time></trkpt>
<trkpt lat="44.357020" lon="-121.869964"><ele>1490.6</ele><time>2024-08-08T14:19:50Z</time></trkpt>
<trkpt lat="44.357137" lon="-121.869851"><ele>1490.2</ele><time>2024-08-08T14:20:02Z</time></trkpt>
<trkpt lat="44.357867" lon="-121.869785"><ele>1486.0</ele><time>2024-08-08T14:21:05Z</time></trkpt>
<trkpt lat="44.358101" lon="-121.869958"><ele>1483.8</ele><time>2024-08-08T14:21:31Z</time></trkpt>
<trkpt lat="44.358320" lon="-121.870209"><ele>1482.2</ele><time>2024-08-08T14:21:50Z</time></trkpt>
<trkpt lat="44.358327" lon="-121.870361"><ele>1481.0</ele><time>2024-08-08T14:22:03Z</time></trkpt>
<trkpt lat="44.358662" lon="-121.870751"><ele>1479.6</ele><time>2024-08-08T14:22:37Z</time></trkpt>
<trkpt lat="44.358674" lon="-121.871317"><ele>1476.4</ele><time>2024-08-08T14:23:09Z</time></trkpt>
<trkpt lat="44.358763" lon="-121.871655"><ele>1474.2</ele><time>2024-08-08T14:23:43Z</time></trkpt>
<trkpt lat="44.358863" lon="-121.871689"><ele>1473.6</ele><time>2024-08-08T14:23:47Z</time></trkpt>
<trkpt lat="44.358880" lon="-121.871872"><ele>1473.0</ele><time>2024-08-08T14:24:01Z</time></trkpt>
<trkpt lat="44.359079" lon="-121.872059"><ele>1472.0</ele><time>2024-08-08T14:24:17Z</time></trkpt>
<trkpt lat="44.359263" lon="-121.872087"><ele>1471.6</ele><time>2024-08-08T14:24:31Z</time></trkpt>
<trkpt lat="44.359816" lon="-121.871806"><ele>1465.4</ele><time>2024-08-08T14:25:43Z</time></trkpt>
<trkpt lat="44.360045" lon="-121.871960"><ele>1465.2</ele><time>2024-08-08T14:25:50Z</time></trkpt>
<trkpt lat="44.360058" lon="-121.871894"><ele>1464.6</ele><time>2024-08-08T14:25:57Z</time></trkpt>
<trkpt lat="44.360266" lon="-121.871829"><ele>1463.6</ele><time>2024-08-08T14:26:07Z</time></trkpt>
<trkpt lat="44.361328" lon="-121.871621"><ele>1459.4</ele><time>2024-08-08T14:27:43Z</time></trkpt>
<trkpt lat="44.361403" lon="-121.871283"><ele>1460.2</ele><time>2024-08-08T14:28:01Z</time></trkpt>
<trkpt lat="44.361671" lon="-121.870732"><ele>1461.6</ele><time>2024-08-08T14:29:03Z</time></trkpt>
<trkpt lat="44.361996" lon="-121.870275"><ele>1462.8</ele><time>2024-08-08T14:29:50Z</time></trkpt>
<trkpt lat="44.361993" lon="-121.870165"><ele>1463.2</ele><time>2024-08-08T14:29:55Z</time></trkpt>
<trkpt lat="44.362496" lon="-121.869249"><ele>1465.8</ele><time>2024-08-08T14:31:16Z</time></trkpt>
<trkpt lat="44.362569" lon="-121.868842"><ele>1465.8</ele><time>2024-08-08T14:31:45Z</time></trkpt>
<trkpt lat="44.362512" lon="-121.868629"><ele>1466.8</ele><time>2024-08-08T14:31:54Z</time></trkpt>
<trkpt lat="44.362538" lon="-121.868473"><ele>1467.8</ele><time>2024-08-08T14:32:03Z</time></trkpt>
<trkpt lat="44.362526" lon="-121.868856"><ele>1465.6</ele><time>2024-08-08T14:33:08Z</time></trkpt>
<trkpt lat="44.362377" lon="-121.869591"><ele>1464.4</ele><time>2024-08-08T14:33:46Z</time></trkpt>
<trkpt lat="44.362025" lon="-121.870161"><ele>1463.0</ele><time>2024-08-08T14:34:40Z</time></trkpt>
<trkpt lat="44.361764" lon="-121.870333"><ele>1461.6</ele><time>2024-08-08T14:35:00Z</time></trkpt>
<trkpt lat="44.361638" lon="-121.870866"><ele>1460.6</ele><time>2024-08-08T14:35:28Z</time></trkpt>
<trkpt lat="44.361414" lon="-121.871325"><ele>1459.0</ele><time>2024-08-08T14:35:55Z</time></trkpt>
<trkpt lat="44.361922" lon="-121.871380"><ele>1455.2</ele><time>2024-08-08T14:36:36Z</time></trkpt>
<trkpt lat="44.362326" lon="-121.870958"><ele>1451.6</ele><time>2024-08-08T14:37:20Z</time></trkpt>
<trkpt lat="44.362639" lon="-121.870816"><ele>1450.8</ele><time>2024-08-08T14:37:47Z</time></trkpt>
<trkpt lat="44.363063" lon="-121.870409"><ele>1447.8</ele><time>2024-08-08T14:38:34Z</time></trkpt>
<trkpt lat="44.363623" lon="-121.870059"><ele>1446.0</ele><time>2024-08-08T14:39:26Z</time></trkpt>
<trkpt lat="44.363916" lon="-121.869756"><ele>1444.6</ele><time>2024-08-08T14:39:44Z</time></trkpt>
<trkpt lat="44.364010" lon="-121.869609"><ele>1443.8</ele><time>2024-08-08T14:39:51Z</time></trkpt>
<trkpt lat="44.364016" lon="-121.869455"><ele>1443.2</ele><time>2024-08-08T14:39:56Z</time></trkpt>
<trkpt lat="44.365108" lon="-121.868401"><ele>1436.8</ele><time>2024-08-08T14:41:45Z</time></trkpt>
<trkpt lat="44.365287" lon="-121.868371"><ele>1436.4</ele><time>2024-08-08T14:41:51Z</time></trkpt>
<trkpt lat="44.365332" lon="-121.868248"><ele>1436.4</ele><time>2024-08-08T14:41:57Z</time></trkpt>
<trkpt lat="44.366662" lon="-121.867527"><ele>1435.8</ele><time>2024-08-08T14:43:45Z</time></trkpt>
<trkpt lat="44.366702" lon="-121.867340"><ele>1436.0</ele><time>2024-08-08T14:43:54Z</time></trkpt>
<trkpt lat="44.366795" lon="-121.867275"><ele>1436.0</ele><time>2024-08-08T14:44:00Z</time></trkpt>
<trkpt lat="44.368056" lon="-121.866627"><ele>1437.6</ele><time>2024-08-08T14:45:45Z</time></trkpt>
<trkpt lat="44.368122" lon="-121.866475"><ele>1437.8</ele><time>2024-08-08T14:45:54Z</time></trkpt>
<trkpt lat="44.369347" lon="-121.866137"><ele>1437.8</ele><time>2024-08-08T14:47:44Z</time></trkpt>
<trkpt lat="44.369483" lon="-121.866270"><ele>1437.6</ele><time>2024-08-08T14:47:49Z</time></trkpt>
<trkpt lat="44.369517" lon="-121.866170"><ele>1437.2</ele><time>2024-08-08T14:47:56Z</time></trkpt>
<trkpt lat="44.370169" lon="-121.865983"><ele>1436.2</ele><time>2024-08-08T14:49:02Z</time></trkpt>
<trkpt lat="44.370779" lon="-121.865624"><ele>1434.8</ele><time>2024-08-08T14:49:48Z</time></trkpt>
<trkpt lat="44.370826" lon="-121.865435"><ele>1435.4</ele><time>2024-08-08T14:49:55Z</time></trkpt>
<trkpt lat="44.371095" lon="-121.865304"><ele>1437.0</ele><time>2024-08-08T14:50:20Z</time></trkpt>
<trkpt lat="44.371270" lon="-121.865236"><ele>1436.2</ele><time>2024-08-08T14:50:36Z</time></trkpt>
<trkpt lat="44.371568" lon="-121.865398"><ele>1434.2</ele><time>2024-08-08T14:51:10Z</time></trkpt>
<trkpt lat="44.371718" lon="-121.865267"><ele>1436.2</ele><time>2024-08-08T14:51:38Z</time></trkpt>
<trkpt lat="44.371637" lon="-121.865134"><ele>1435.2</ele><time>2024-08-08T14:53:10Z</time></trkpt>
<trkpt lat="44.371726" lon="-121.865279"><ele>1435.0</ele><time>2024-08-08T14:53:49Z</time></trkpt>
<trkpt lat="44.371649" lon="-121.865111"><ele>1434.6</ele><time>2024-08-08T14:54:02Z</time></trkpt>
<trkpt lat="44.371610" lon="-121.865204"><ele>1434.4</ele><time>2024-08-08T14:55:38Z</time></trkpt>
<trkpt lat="44.371588" lon="-121.865126"><ele>1434.6</ele><time>2024-08-08T14:55:47Z</time></trkpt>
<trkpt lat="44.371650" lon="-121.865231"><ele>1434.8</ele><time>2024-08-08T14:55:54Z</time></trkpt>
<trkpt lat="44.371623" lon="-121.865172"><ele>1435.2</ele><time>2024-08-08T14:56:00Z</time></trkpt>
<trkpt lat="44.371867" lon="-121.865114"><ele>1435.2</ele><time>2024-08-08T14:57:47Z</time></trkpt>
<trkpt lat="44.371777" lon="-121.865066"><ele>1435.0</ele><time>2024-08-08T14:58:05Z</time></trkpt>
<trkpt lat="44.371868" lon="-121.865164"><ele>1435.0</ele><time>2024-08-08T14:59:14Z</time></trkpt>
<trkpt lat="44.371772" lon="-121.865026"><ele>1434.8</ele><time>2024-08-08T14:59:52Z</time></trkpt>
<trkpt lat="44.371742" lon="-121.865100"><ele>1434.6</ele><time>2024-08-08T15:00:00Z</time></trkpt>
<trkpt lat="44.371837" lon="-121.865266"><ele>1432.8</ele><time>2024-08-08T15:01:42Z</time></trkpt>
<trkpt lat="44.371690" lon="-121.865076"><ele>1433.4</ele><time>2024-08-08T15:03:49Z</time></trkpt>
<trkpt lat="44.371739" lon="-121.865169"><ele>1433.8</ele><time>2024-08-08T15:03:59Z</time></trkpt>
<trkpt lat="44.371756" lon="-121.865133"><ele>1436.0</ele><time>2024-08-08T15:05:16Z</time></trkpt>
<trkpt lat="44.371685" lon="-121.865143"><ele>1435.2</ele><time>2024-08-08T15:05:34Z</time></trkpt>
<trkpt lat="44.371744" lon="-121.865242"><ele>1436.8</ele><time>2024-08-08T15:05:51Z</time></trkpt>
<trkpt lat="44.371695" lon="-121.865256"><ele>1436.4</ele><time>2024-08-08T15:05:53Z</time></trkpt>
<trkpt lat="44.371795" lon="-121.865135"><ele>1435.8</ele><time>2024-08-08T15:07:04Z</time></trkpt>
<trkpt lat="44.371721" lon="-121.865104"><ele>1435.8</ele><time>2024-08-08T15:07:58Z</time></trkpt>
<trkpt lat="44.371759" lon="-121.865279"><ele>1435.4</ele><time>2024-08-08T15:09:48Z</time></trkpt>
<trkpt lat="44.371675" lon="-121.865147"><ele>1435.4</ele><time>2024-08-08T15:11:50Z</time></trkpt>
<trkpt lat="44.371835" lon="-121.865374"><ele>1435.0</ele><time>2024-08-08T15:13:51Z</time></trkpt>
<trkpt lat="44.371703" lon="-121.865160"><ele>1436.2</ele><time>2024-08-08T15:14:54Z</time></trkpt>
<trkpt lat="44.371628" lon="-121.865133"><ele>1437.2</ele><time>2024-08-08T15:15:50Z</time></trkpt>
<trkpt lat="44.371631" lon="-121.865194"><ele>1437.4</ele><time>2024-08-08T15:15:51Z</time></trkpt>
<trkpt lat="44.371671" lon="-121.865122"><ele>1437.4</ele><time>2024-08-08T15:16:03Z</time></trkpt>
<trkpt lat="44.371675" lon="-121.865290"><ele>1436.2</ele><time>2024-08-08T15:17:41Z</time></trkpt>
<trkpt lat="44.371627" lon="-121.865178"><ele>1436.4</ele><time>2024-08-08T15:18:04Z</time></trkpt>
<trkpt lat="44.371458" lon="-121.865394"><ele>1435.4</ele><time>2024-08-08T15:19:33Z</time></trkpt>
<trkpt lat="44.371189" lon="-121.865213"><ele>1436.8</ele><time>2024-08-08T15:19:57Z</time></trkpt>
<trkpt lat="44.371103" lon="-121.865257"><ele>1438.0</ele><time>2024-08-08T15:20:04Z</time></trkpt>
<trkpt lat="44.371158" lon="-121.865307"><ele>1438.6</ele><time>2024-08-08T15:20:09Z</time></trkpt>
<trkpt lat="44.371123" lon="-121.865894"><ele>1437.6</ele><time>2024-08-08T15:20:51Z</time></trkpt>
<trkpt lat="44.370836" lon="-121.866331"><ele>1433.2</ele><time>2024-08-08T15:21:25Z</time></trkpt>
<trkpt lat="44.370635" lon="-121.866517"><ele>1431.2</ele><time>2024-08-08T15:21:41Z</time></trkpt>
<trkpt lat="44.370613" lon="-121.866645"><ele>1430.4</ele><time>2024-08-08T15:21:51Z</time></trkpt>
<trkpt lat="44.370664" lon="-121.866860"><ele>1429.2</ele><time>2024-08-08T15:22:03Z</time></trkpt>
<trkpt lat="44.371275" lon="-121.866901"><ele>1429.8</ele><time>2024-08-08T15:23:13Z</time></trkpt>
<trkpt lat="44.371759" lon="-121.866589"><ele>1430.6</ele><time>2024-08-08T15:23:52Z</time></trkpt>
<trkpt lat="44.371693" lon="-121.866643"><ele>1430.4</ele><time>2024-08-08T15:23:54Z</time></trkpt>
<trkpt lat="44.371741" lon="-121.866709"><ele>1430.2</ele><time>2024-08-08T15:23:56Z</time></trkpt>
<trkpt lat="44.371660" lon="-121.866818"><ele>1428.2</ele><time>2024-08-08T15:25:33Z</time></trkpt>
<trkpt lat="44.371519" lon="-121.866749"><ele>1429.0</ele><time>2024-08-08T15:25:50Z</time></trkpt>
<trkpt lat="44.371709" lon="-121.866808"><ele>1429.0</ele><time>2024-08-08T15:25:59Z</time></trkpt>
<trkpt lat="44.371637" lon="-121.866766"><ele>1427.6</ele><time>2024-08-08T15:27:49Z</time></trkpt>
<trkpt lat="44.371644" lon="-121.866867"><ele>1428.2</ele><time>2024-08-08T15:28:05Z</time></trkpt>
<trkpt lat="44.371563" lon="-121.866853"><ele>1427.0</ele><time>2024-08-08T15:29:41Z</time></trkpt>
<trkpt lat="44.371609" lon="-121.867001"><ele>1426.4</ele><time>2024-08-08T15:31:52Z</time></trkpt>
<trkpt lat="44.371629" lon="-121.866929"><ele>1426.6</ele><time>2024-08-08T15:32:05Z</time></trkpt>
<trkpt lat="44.371616" lon="-121.867052"><ele>1427.4</ele><time>2024-08-08T15:33:53Z</time></trkpt>
<trkpt lat="44.371598" lon="-121.866895"><ele>1427.0</ele><time>2024-08-08T15:34:05Z</time></trkpt>
<trkpt lat="44.371426" lon="-121.866988"><ele>1426.4</ele><time>2024-08-08T15:36:02Z</time></trkpt>
<trkpt lat="44.371561" lon="-121.867052"><ele>1426.0</ele><time>2024-08-08T15:37:25Z</time></trkpt>
<trkpt lat="44.371512" lon="-121.866973"><ele>1426.0</ele><time>2024-08-08T15:38:06Z</time></trkpt>
<trkpt lat="44.371578" lon="-121.866897"><ele>1426.0</ele><time>2024-08-08T15:39:31Z</time></trkpt>
<trkpt lat="44.371658" lon="-121.867025"><ele>1425.4</ele><time>2024-08-08T15:41:56Z</time></trkpt>
<trkpt lat="44.371548" lon="-121.866861"><ele>1425.6</ele><time>2024-08-08T15:44:02Z</time></trkpt>
<trkpt lat="44.371546" lon="-121.866995"><ele>1425.8</ele><time>2024-08-08T15:45:52Z</time></trkpt>
<trkpt lat="44.371610" lon="-121.866929"><ele>1425.4</ele><time>2024-08-08T15:46:01Z</time></trkpt>
<trkpt lat="44.371616" lon="-121.867066"><ele>1425.6</ele><time>2024-08-08T15:47:47Z</time></trkpt>
<trkpt lat="44.371639" lon="-121.866914"><ele>1425.2</ele><time>2024-08-08T15:49:48Z</time></trkpt>
<trkpt lat="44.371731" lon="-121.866778"><ele>1425.4</ele><time>2024-08-08T15:49:56Z</time></trkpt>
<trkpt lat="44.371761" lon="-121.866821"><ele>1425.4</ele><time>2024-08-08T15:49:59Z</time></trkpt>
<trkpt lat="44.371635" lon="-121.866938"><ele>1425.6</ele><time>2024-08-08T15:50:05Z</time></trkpt>
<trkpt lat="44.371649" lon="-121.866866"><ele>1425.6</ele><time>2024-08-08T15:51:51Z</time></trkpt>
<trkpt lat="44.371646" lon="-121.867000"><ele>1425.4</ele><time>2024-08-08T15:52:04Z</time></trkpt>
<trkpt lat="44.371666" lon="-121.866911"><ele>1425.0</ele><time>2024-08-08T15:52:28Z</time></trkpt>
<trkpt lat="44.371623" lon="-121.866995"><ele>1425.4</ele><time>2024-08-08T15:53:55Z</time></trkpt>
<trkpt lat="44.371545" lon="-121.866966"><ele>1425.8</ele><time>2024-08-08T15:55:53Z</time></trkpt>
<trkpt lat="44.371613" lon="-121.866879"><ele>1425.0</ele><time>2024-08-08T15:56:00Z</time></trkpt>
<trkpt lat="44.371697" lon="-121.866976"><ele>1425.0</ele><time>2024-08-08T15:57:50Z</time></trkpt>
<trkpt lat="44.371578" lon="-121.867015"><ele>1425.6</ele><time>2024-08-08T15:59:40Z</time></trkpt>
<trkpt lat="44.371593" lon="-121.866378"><ele>1426.4</ele><time>2024-08-08T16:01:12Z</time></trkpt>
<trkpt lat="44.371670" lon="-121.866090"><ele>1428.8</ele><time>2024-08-08T16:01:32Z</time></trkpt>
<trkpt lat="44.371613" lon="-121.865892"><ele>1429.8</ele><time>2024-08-08T16:01:48Z</time></trkpt>
<trkpt lat="44.371649" lon="-121.865050"><ele>1436.6</ele><time>2024-08-08T16:02:58Z</time></trkpt>
<trkpt lat="44.371892" lon="-121.864928"><ele>1437.4</ele><time>2024-08-08T16:03:53Z</time></trkpt>
<trkpt lat="44.371621" lon="-121.865036"><ele>1437.4</ele><time>2024-08-08T16:03:54Z</time></trkpt>
<trkpt lat="44.371841" lon="-121.865036"><ele>1437.4</ele><time>2024-08-08T16:04:07Z</time></trkpt>
<trkpt lat="44.371767" lon="-121.865083"><ele>1437.0</ele><time>2024-08-08T16:04:50Z</time></trkpt>
<trkpt lat="44.371842" lon="-121.865058"><ele>1437.4</ele><time>2024-08-08T16:05:54Z</time></trkpt>
<trkpt lat="44.371799" lon="-121.865099"><ele>1437.2</ele><time>2024-08-08T16:05:58Z</time></trkpt>
<trkpt lat="44.371885" lon="-121.865191"><ele>1437.8</ele><time>2024-08-08T16:07:57Z</time></trkpt>
<trkpt lat="44.371860" lon="-121.865007"><ele>1437.2</ele><time>2024-08-08T16:09:50Z</time></trkpt>
<trkpt lat="44.371941" lon="-121.865059"><ele>1437.2</ele><time>2024-08-08T16:09:52Z</time></trkpt>
<trkpt lat="44.371613" lon="-121.865264"><ele>1437.6</ele><time>2024-08-08T16:11:47Z</time></trkpt>
<trkpt lat="44.371693" lon="-121.865112"><ele>1437.2</ele><time>2024-08-08T16:11:58Z</time></trkpt>
<trkpt lat="44.371707" lon="-121.865189"><ele>1437.4</ele><time>2024-08-08T16:12:05Z</time></trkpt>
<trkpt lat="44.371910" lon="-121.865132"><ele>1437.6</ele><time>2024-08-08T16:13:58Z</time></trkpt>
<trkpt lat="44.371758" lon="-121.865085"><ele>1438.0</ele><time>2024-08-08T16:16:00Z</time></trkpt>
<trkpt lat="44.371723" lon="-121.865193"><ele>1437.8</ele><time>2024-08-08T16:17:44Z</time></trkpt>
<trkpt lat="44.371848" lon="-121.865300"><ele>1437.6</ele><time>2024-08-08T16:18:02Z</time></trkpt>
<trkpt lat="44.371756" lon="-121.865001"><ele>1437.2</ele><time>2024-08-08T16:19:56Z</time></trkpt>
<trkpt lat="44.371840" lon="-121.865109"><ele>1437.2</ele><time>2024-08-08T16:21:50Z</time></trkpt>
<trkpt lat="44.371830" lon="-121.865029"><ele>1436.6</ele><time>2024-08-08T16:21:58Z</time></trkpt>
<trkpt lat="44.371820" lon="-121.865032"><ele>1411.8</ele><time>2024-08-08T16:23:34Z</time></trkpt>
<trkpt lat="44.371819" lon="-121.865029"><ele>1422.0</ele><time>2024-08-08T16:23:46Z</time></trkpt>
<trkpt lat="44.371818" lon="-121.865097"><ele>1423.4</ele><time>2024-08-08T16:24:02Z</time></trkpt>
<trkpt lat="44.371905" lon="-121.865063"><ele>1418.0</ele><time>2024-08-08T16:26:04Z</time></trkpt>
<trkpt lat="44.371834" lon="-121.865073"><ele>1398.8</ele><time>2024-08-08T16:26:22Z</time></trkpt>
<trkpt lat="44.371819" lon="-121.865085"><ele>1415.2</ele><time>2024-08-08T16:26:54Z</time></trkpt>
<trkpt lat="44.371783" lon="-121.865149"><ele>1412.8</ele><time>2024-08-08T16:27:53Z</time></trkpt>
<trkpt lat="44.371774" lon="-121.865086"><ele>1415.0</ele><time>2024-08-08T16:28:06Z</time></trkpt>
<trkpt lat="44.371845" lon="-121.865290"><ele>1418.2</ele><time>2024-08-08T16:29:45Z</time></trkpt>
<trkpt lat="44.371793" lon="-121.865117"><ele>1420.0</ele><time>2024-08-08T16:30:06Z</time></trkpt>
<trkpt lat="44.371660" lon="-121.865202"><ele>1423.0</ele><time>2024-08-08T16:31:53Z</time></trkpt>
<trkpt lat="44.371775" lon="-121.865112"><ele>1424.6</ele><time>2024-08-08T16:35:41Z</time></trkpt>
<trkpt lat="44.371736" lon="-121.865121"><ele>1425.8</ele><time>2024-08-08T16:36:08Z</time></trkpt>
<trkpt lat="44.371757" lon="-121.865328"><ele>1425.4</ele><time>2024-08-08T16:37:55Z</time></trkpt>
<trkpt lat="44.371760" lon="-121.865183"><ele>1425.8</ele><time>2024-08-08T16:38:02Z</time></trkpt>
<trkpt lat="44.371719" lon="-121.865176"><ele>1425.6</ele><time>2024-08-08T16:39:11Z</time></trkpt>
<trkpt lat="44.371881" lon="-121.865184"><ele>1426.0</ele><time>2024-08-08T16:39:59Z</time></trkpt>
<trkpt lat="44.371739" lon="-121.865105"><ele>1426.0</ele><time>2024-08-08T16:41:45Z</time></trkpt>
<trkpt lat="44.371791" lon="-121.865068"><ele>1426.0</ele><time>2024-08-08T16:41:51Z</time></trkpt>
<trkpt lat="44.371685" lon="-121.865169"><ele>1426.4</ele><time>2024-08-08T16:42:04Z</time></trkpt>
<trkpt lat="44.371770" lon="-121.865082"><ele>1426.6</ele><time>2024-08-08T16:43:52Z</time></trkpt>
<trkpt lat="44.371738" lon="-121.865199"><ele>1427.2</ele><time>2024-08-08T16:45:48Z</time></trkpt>
<trkpt lat="44.371703" lon="-121.865124"><ele>1427.6</ele><time>2024-08-08T16:45:55Z</time></trkpt>
<trkpt lat="44.371864" lon="-121.865056"><ele>1428.0</ele><time>2024-08-08T16:49:53Z</time></trkpt>
<trkpt lat="44.371665" lon="-121.865166"><ele>1428.0</ele><time>2024-08-08T16:49:57Z</time></trkpt>
<trkpt lat="44.371696" lon="-121.865137"><ele>1428.6</ele><time>2024-08-08T16:50:08Z</time></trkpt>
<trkpt lat="44.371589" lon="-121.864936"><ele>1428.4</ele><time>2024-08-08T16:51:45Z</time></trkpt>
<trkpt lat="44.371701" lon="-121.865133"><ele>1429.2</ele><time>2024-08-08T16:51:54Z</time></trkpt>
<trkpt lat="44.371765" lon="-121.865126"><ele>1429.0</ele><time>2024-08-08T16:52:06Z</time></trkpt>
<trkpt lat="44.371741" lon="-121.865187"><ele>1429.4</ele><time>2024-08-08T16:52:55Z</time></trkpt>
<trkpt lat="44.371709" lon="-121.865078"><ele>1429.8</ele><time>2024-08-08T16:53:59Z</time></trkpt>
<trkpt lat="44.371554" lon="-121.865197"><ele>1430.0</ele><time>2024-08-08T16:55:51Z</time></trkpt>
<trkpt lat="44.371793" lon="-121.865059"><ele>1431.0</ele><time>2024-08-08T16:59:56Z</time></trkpt>
<trkpt lat="44.371415" lon="-121.864890"><ele>1430.4</ele><time>2024-08-08T17:01:54Z</time></trkpt>
<trkpt lat="44.371462" lon="-121.864783"><ele>1431.0</ele><time>2024-08-08T17:02:02Z</time></trkpt>
<trkpt lat="44.371391" lon="-121.864206"><ele>1434.8</ele><time>2024-08-08T17:02:45Z</time></trkpt>
<trkpt lat="44.371182" lon="-121.863439"><ele>1435.6</ele><time>2024-08-08T17:03:39Z</time></trkpt>
<trkpt lat="44.371211" lon="-121.863152"><ele>1435.6</ele><time>2024-08-08T17:03:49Z</time></trkpt>
<trkpt lat="44.371302" lon="-121.863028"><ele>1436.2</ele><time>2024-08-08T17:03:55Z</time></trkpt>
<trkpt lat="44.371307" lon="-121.862911"><ele>1436.6</ele><time>2024-08-08T17:04:04Z</time></trkpt>
<trkpt lat="44.371937" lon="-121.861668"><ele>1427.0</ele><time>2024-08-08T17:05:15Z</time></trkpt>
<trkpt lat="44.372179" lon="-121.861407"><ele>1426.8</ele><time>2024-08-08T17:05:48Z</time></trkpt>
<trkpt lat="44.372738" lon="-121.861207"><ele>1429.0</ele><time>2024-08-08T17:06:29Z</time></trkpt>
<trkpt lat="44.373182" lon="-121.860875"><ele>1427.8</ele><time>2024-08-08T17:07:51Z</time></trkpt>
<trkpt lat="44.373173" lon="-121.861017"><ele>1427.4</ele><time>2024-08-08T17:07:58Z</time></trkpt>
<trkpt lat="44.373221" lon="-121.860965"><ele>1427.8</ele><time>2024-08-08T17:08:06Z</time></trkpt>
<trkpt lat="44.373255" lon="-121.861015"><ele>1427.4</ele><time>2024-08-08T17:09:48Z</time></trkpt>
<trkpt lat="44.373233" lon="-121.860936"><ele>1428.0</ele><time>2024-08-08T17:10:06Z</time></trkpt>
<trkpt lat="44.374010" lon="-121.860817"><ele>1430.8</ele><time>2024-08-08T17:11:50Z</time></trkpt>
<trkpt lat="44.375398" lon="-121.860312"><ele>1432.0</ele><time>2024-08-08T17:13:48Z</time></trkpt>
<trkpt lat="44.375496" lon="-121.860431"><ele>1432.4</ele><time>2024-08-08T17:13:54Z</time></trkpt>
<trkpt lat="44.375667" lon="-121.860404"><ele>1433.4</ele><time>2024-08-08T17:14:09Z</time></trkpt>
<trkpt lat="44.377132" lon="-121.859890"><ele>1431.6</ele><time>2024-08-08T17:16:04Z</time></trkpt>
<trkpt lat="44.377606" lon="-121.859869"><ele>1434.4</ele><time>2024-08-08T17:16:44Z</time></trkpt>
<trkpt lat="44.379005" lon="-121.859477"><ele>1433.0</ele><time>2024-08-08T17:19:08Z</time></trkpt>
<trkpt lat="44.379270" lon="-121.859461"><ele>1434.4</ele><time>2024-08-08T17:19:32Z</time></trkpt>
<trkpt lat="44.379364" lon="-121.859278"><ele>1434.8</ele><time>2024-08-08T17:19:56Z</time></trkpt>
<trkpt lat="44.379545" lon="-121.859338"><ele>1434.6</ele><time>2024-08-08T17:20:06Z</time></trkpt>
<trkpt lat="44.380775" lon="-121.858797"><ele>1436.0</ele><time>2024-08-08T17:21:49Z</time></trkpt>
<trkpt lat="44.380841" lon="-121.858533"><ele>1435.6</ele><time>2024-08-08T17:22:04Z</time></trkpt>
<trkpt lat="44.380617" lon="-121.857434"><ele>1437.8</ele><time>2024-08-08T17:23:12Z</time></trkpt>
<trkpt lat="44.380375" lon="-121.856779"><ele>1440.0</ele><time>2024-08-08T17:23:50Z</time></trkpt>
<trkpt lat="44.380359" lon="-121.856380"><ele>1442.8</ele><time>2024-08-08T17:24:22Z</time></trkpt>
<trkpt lat="44.380167" lon="-121.856430"><ele>1440.0</ele><time>2024-08-08T17:25:53Z</time></trkpt>
<trkpt lat="44.380238" lon="-121.856471"><ele>1440.0</ele><time>2024-08-08T17:25:58Z</time></trkpt>
<trkpt lat="44.380136" lon="-121.856508"><ele>1440.2</ele><time>2024-08-08T17:27:58Z</time></trkpt>
<trkpt lat="44.380306" lon="-121.856577"><ele>1439.6</ele><time>2024-08-08T17:29:49Z</time></trkpt>
<trkpt lat="44.380250" lon="-121.856530"><ele>1439.4</ele><time>2024-08-08T17:29:52Z</time></trkpt>
<trkpt lat="44.380317" lon="-121.856518"><ele>1439.2</ele><time>2024-08-08T17:29:57Z</time></trkpt>
<trkpt lat="44.380238" lon="-121.856547"><ele>1439.2</ele><time>2024-08-08T17:31:51Z</time></trkpt>
<trkpt lat="44.380199" lon="-121.856481"><ele>1439.0</ele><time>2024-08-08T17:31:58Z</time></trkpt>
<trkpt lat="44.380247" lon="-121.856395"><ele>1438.6</ele><time>2024-08-08T17:33:22Z</time></trkpt>
<trkpt lat="44.380174" lon="-121.856474"><ele>1438.4</ele><time>2024-08-08T17:33:59Z</time></trkpt>
<trkpt lat="44.380111" lon="-121.856164"><ele>1438.8</ele><time>2024-08-08T17:35:32Z</time></trkpt>
<trkpt lat="44.380363" lon="-121.856182"><ele>1439.4</ele><time>2024-08-08T17:35:51Z</time></trkpt>
<trkpt lat="44.379929" lon="-121.855893"><ele>1439.4</ele><time>2024-08-08T17:35:52Z</time></trkpt>
<trkpt lat="44.380066" lon="-121.856364"><ele>1439.6</ele><time>2024-08-08T17:35:58Z</time></trkpt>
<trkpt lat="44.380253" lon="-121.856471"><ele>1436.0</ele><time>2024-08-08T17:38:07Z</time></trkpt>
<trkpt lat="44.380145" lon="-121.856452"><ele>1438.0</ele><time>2024-08-08T17:41:40Z</time></trkpt>
<trkpt lat="44.380228" lon="-121.856441"><ele>1437.8</ele><time>2024-08-08T17:41:56Z</time></trkpt>
<trkpt lat="44.380188" lon="-121.856462"><ele>1437.8</ele><time>2024-08-08T17:41:59Z</time></trkpt>
<trkpt lat="44.380237" lon="-121.856588"><ele>1437.2</ele><time>2024-08-08T17:42:09Z</time></trkpt>
<trkpt lat="44.380129" lon="-121.856400"><ele>1437.6</ele><time>2024-08-08T17:43:46Z</time></trkpt>
<trkpt lat="44.380156" lon="-121.856568"><ele>1438.2</ele><time>2024-08-08T17:43:50Z</time></trkpt>
<trkpt lat="44.380202" lon="-121.856396"><ele>1438.2</ele><time>2024-08-08T17:43:53Z</time></trkpt>
<trkpt lat="44.380211" lon="-121.856490"><ele>1437.4</ele><time>2024-08-08T17:44:04Z</time></trkpt>
<trkpt lat="44.380341" lon="-121.856504"><ele>1438.0</ele><time>2024-08-08T17:45:49Z</time></trkpt>
<trkpt lat="44.380218" lon="-121.856458"><ele>1437.4</ele><time>2024-08-08T17:45:58Z</time></trkpt>
<trkpt lat="44.380304" lon="-121.856488"><ele>1437.4</ele><time>2024-08-08T17:46:04Z</time></trkpt>
<trkpt lat="44.379997" lon="-121.856121"><ele>1440.0</ele><time>2024-08-08T17:47:49Z</time></trkpt>
<trkpt lat="44.380153" lon="-121.856251"><ele>1440.0</ele><time>2024-08-08T17:47:50Z</time></trkpt>
<trkpt lat="44.380175" lon="-121.856408"><ele>1439.0</ele><time>2024-08-08T17:47:59Z</time></trkpt>
<trkpt lat="44.380305" lon="-121.856397"><ele>1436.8</ele><time>2024-08-08T17:49:52Z</time></trkpt>
<trkpt lat="44.380155" lon="-121.856486"><ele>1436.4</ele><time>2024-08-08T17:50:06Z</time></trkpt>
<trkpt lat="44.380375" lon="-121.856394"><ele>1436.4</ele><time>2024-08-08T17:51:51Z</time></trkpt>
<trkpt lat="44.380231" lon="-121.856527"><ele>1436.2</ele><time>2024-08-08T17:52:00Z</time></trkpt>
<trkpt lat="44.380137" lon="-121.856408"><ele>1435.4</ele><time>2024-08-08T17:53:55Z</time></trkpt>
<trkpt lat="44.380191" lon="-121.856491"><ele>1435.0</ele><time>2024-08-08T17:54:07Z</time></trkpt>
<trkpt lat="44.380209" lon="-121.856393"><ele>1436.4</ele><time>2024-08-08T17:55:55Z</time></trkpt>
<trkpt lat="44.380286" lon="-121.856403"><ele>1436.4</ele><time>2024-08-08T17:55:58Z</time></trkpt>
<trkpt lat="44.380077" lon="-121.856503"><ele>1438.6</ele><time>2024-08-08T17:58:02Z</time></trkpt>
<trkpt lat="44.380290" lon="-121.856605"><ele>1436.4</ele><time>2024-08-08T17:59:57Z</time></trkpt>
<trkpt lat="44.380254" lon="-121.856511"><ele>1436.6</ele><time>2024-08-08T18:00:03Z</time></trkpt>
<trkpt lat="44.380384" lon="-121.856398"><ele>1437.8</ele><time>2024-08-08T18:01:52Z</time></trkpt>
<trkpt lat="44.380213" lon="-121.856456"><ele>1438.6</ele><time>2024-08-08T18:02:10Z</time></trkpt>
<trkpt lat="44.380219" lon="-121.856524"><ele>1441.0</ele><time>2024-08-08T18:03:57Z</time></trkpt>
<trkpt lat="44.380265" lon="-121.856452"><ele>1441.0</ele><time>2024-08-08T18:05:54Z</time></trkpt>
<trkpt lat="44.380205" lon="-121.856439"><ele>1441.2</ele><time>2024-08-08T18:06:02Z</time></trkpt>
<trkpt lat="44.380346" lon="-121.856546"><ele>1439.2</ele><time>2024-08-08T18:07:57Z</time></trkpt>
<trkpt lat="44.380270" lon="-121.856483"><ele>1439.0</ele><time>2024-08-08T18:08:08Z</time></trkpt>
<trkpt lat="44.380218" lon="-121.856546"><ele>1441.2</ele><time>2024-08-08T18:09:53Z</time></trkpt>
<trkpt lat="44.380207" lon="-121.856438"><ele>1439.8</ele><time>2024-08-08T18:10:27Z</time></trkpt>
<trkpt lat="44.380153" lon="-121.856597"><ele>1438.2</ele><time>2024-08-08T18:11:57Z</time></trkpt>
<trkpt lat="44.380305" lon="-121.856427"><ele>1438.8</ele><time>2024-08-08T18:12:10Z</time></trkpt>
<trkpt lat="44.380876" lon="-121.855097"><ele>1439.8</ele><time>2024-08-08T18:13:50Z</time></trkpt>
<trkpt lat="44.380826" lon="-121.855031"><ele>1439.8</ele><time>2024-08-08T18:13:52Z</time></trkpt>
<trkpt lat="44.380940" lon="-121.854856"><ele>1439.8</ele><time>2024-08-08T18:14:04Z</time></trkpt>
<trkpt lat="44.381097" lon="-121.854179"><ele>1440.4</ele><time>2024-08-08T18:14:43Z</time></trkpt>
<trkpt lat="44.381394" lon="-121.853871"><ele>1441.0</ele><time>2024-08-08T18:15:50Z</time></trkpt>
<trkpt lat="44.381596" lon="-121.853160"><ele>1441.0</ele><time>2024-08-08T18:15:55Z</time></trkpt>
<trkpt lat="44.381635" lon="-121.853169"><ele>1440.8</ele><time>2024-08-08T18:16:01Z</time></trkpt>
<trkpt lat="44.381599" lon="-121.853077"><ele>1440.4</ele><time>2024-08-08T18:16:08Z</time></trkpt>
<trkpt lat="44.382626" lon="-121.852008"><ele>1443.4</ele><time>2024-08-08T18:17:49Z</time></trkpt>
<trkpt lat="44.382598" lon="-121.851847"><ele>1443.4</ele><time>2024-08-08T18:17:55Z</time></trkpt>
<trkpt lat="44.382664" lon="-121.851594"><ele>1442.4</ele><time>2024-08-08T18:18:09Z</time></trkpt>
<trkpt lat="44.383075" lon="-121.851019"><ele>1443.0</ele><time>2024-08-08T18:18:59Z</time></trkpt>
<trkpt lat="44.383185" lon="-121.850745"><ele>1443.2</ele><time>2024-08-08T18:19:13Z</time></trkpt>
<trkpt lat="44.383577" lon="-121.850375"><ele>1440.6</ele><time>2024-08-08T18:19:51Z</time></trkpt>
<trkpt lat="44.383755" lon="-121.850390"><ele>1440.2</ele><time>2024-08-08T18:19:56Z</time></trkpt>
<trkpt lat="44.383741" lon="-121.850285"><ele>1440.2</ele><time>2024-08-08T18:20:06Z</time></trkpt>
<trkpt lat="44.383631" lon="-121.850356"><ele>1438.0</ele><time>2024-08-08T18:22:04Z</time></trkpt>
<trkpt lat="44.383765" lon="-121.850282"><ele>1438.8</ele><time>2024-08-08T18:23:54Z</time></trkpt>
<trkpt lat="44.383787" lon="-121.850365"><ele>1439.0</ele><time>2024-08-08T18:24:01Z</time></trkpt>
<trkpt lat="44.384181" lon="-121.850244"><ele>1439.8</ele><time>2024-08-08T18:24:21Z</time></trkpt>
<trkpt lat="44.384717" lon="-121.850309"><ele>1443.6</ele><time>2024-08-08T18:25:41Z</time></trkpt>
<trkpt lat="44.384904" lon="-121.850401"><ele>1443.2</ele><time>2024-08-08T18:25:51Z</time></trkpt>
<trkpt lat="44.385001" lon="-121.850161"><ele>1443.2</ele><time>2024-08-08T18:25:56Z</time></trkpt>
<trkpt lat="44.385005" lon="-121.849915"><ele>1443.2</ele><time>2024-08-08T18:25:58Z</time></trkpt>
<trkpt lat="44.386187" lon="-121.849922"><ele>1445.4</ele><time>2024-08-08T18:27:21Z</time></trkpt>
<trkpt lat="44.387182" lon="-121.849842"><ele>1443.8</ele><time>2024-08-08T18:28:19Z</time></trkpt>
<trkpt lat="44.388369" lon="-121.849959"><ele>1447.0</ele><time>2024-08-08T18:30:04Z</time></trkpt>
<trkpt lat="44.389723" lon="-121.849442"><ele>1450.4</ele><time>2024-08-08T18:31:52Z</time></trkpt>
<trkpt lat="44.389463" lon="-121.849527"><ele>1450.6</ele><time>2024-08-08T18:31:55Z</time></trkpt>
<trkpt lat="44.389475" lon="-121.849300"><ele>1450.6</ele><time>2024-08-08T18:31:59Z</time></trkpt>
<trkpt lat="44.389572" lon="-121.849062"><ele>1450.6</ele><time>2024-08-08T18:32:00Z</time></trkpt>
<trkpt lat="44.389648" lon="-121.849125"><ele>1450.4</ele><time>2024-08-08T18:32:03Z</time></trkpt>
<trkpt lat="44.390912" lon="-121.848918"><ele>1451.0</ele><time>2024-08-08T18:33:52Z</time></trkpt>
<trkpt lat="44.392129" lon="-121.849082"><ele>1450.2</ele><time>2024-08-08T18:35:23Z</time></trkpt>
<trkpt lat="44.392919" lon="-121.849336"><ele>1450.0</ele><time>2024-08-08T18:35:53Z</time></trkpt>
<trkpt lat="44.392471" lon="-121.848982"><ele>1450.0</ele><time>2024-08-08T18:35:55Z</time></trkpt>
<trkpt lat="44.392427" lon="-121.848736"><ele>1450.2</ele><time>2024-08-08T18:35:59Z</time></trkpt>
<trkpt lat="44.393587" lon="-121.848937"><ele>1450.6</ele><time>2024-08-08T18:37:52Z</time></trkpt>
<trkpt lat="44.393846" lon="-121.848344"><ele>1451.0</ele><time>2024-08-08T18:38:01Z</time></trkpt>
<trkpt lat="44.394038" lon="-121.848203"><ele>1451.4</ele><time>2024-08-08T18:38:08Z</time></trkpt>
<trkpt lat="44.394041" lon="-121.848259"><ele>1451.4</ele><time>2024-08-08T18:38:10Z</time></trkpt>
<trkpt lat="44.394488" lon="-121.848333"><ele>1451.4</ele><time>2024-08-08T18:38:28Z</time></trkpt>
<trkpt lat="44.395649" lon="-121.848384"><ele>1449.4</ele><time>2024-08-08T18:40:06Z</time></trkpt>
<trkpt lat="44.396706" lon="-121.849715"><ele>1448.6</ele><time>2024-08-08T18:41:54Z</time></trkpt>
<trkpt lat="44.397359" lon="-121.849865"><ele>1448.2</ele><time>2024-08-08T18:42:51Z</time></trkpt>
<trkpt lat="44.397818" lon="-121.849730"><ele>1447.6</ele><time>2024-08-08T18:43:54Z</time></trkpt>
<trkpt lat="44.397905" lon="-121.849615"><ele>1450.8</ele><time>2024-08-08T18:44:10Z</time></trkpt>
<trkpt lat="44.398381" lon="-121.850376"><ele>1457.2</ele><time>2024-08-08T18:45:47Z</time></trkpt>
<trkpt lat="44.398608" lon="-121.850533"><ele>1457.2</ele><time>2024-08-08T18:45:53Z</time></trkpt>
<trkpt lat="44.398387" lon="-121.850600"><ele>1457.2</ele><time>2024-08-08T18:45:55Z</time></trkpt>
<trkpt lat="44.398518" lon="-121.850623"><ele>1457.4</ele><time>2024-08-08T18:45:58Z</time></trkpt>
<trkpt lat="44.398822" lon="-121.850075"><ele>1458.2</ele><time>2024-08-08T18:46:08Z</time></trkpt>
<trkpt lat="44.399325" lon="-121.850132"><ele>1457.2</ele><time>2024-08-08T18:46:44Z</time></trkpt>
<trkpt lat="44.399851" lon="-121.850034"><ele>1459.2</ele><time>2024-08-08T18:47:40Z</time></trkpt>
<trkpt lat="44.400061" lon="-121.849921"><ele>1458.6</ele><time>2024-08-08T18:47:53Z</time></trkpt>
<trkpt lat="44.400368" lon="-121.849363"><ele>1457.8</ele><time>2024-08-08T18:48:08Z</time></trkpt>
<trkpt lat="44.400633" lon="-121.849078"><ele>1459.2</ele><time>2024-08-08T18:48:32Z</time></trkpt>
<trkpt lat="44.401225" lon="-121.848600"><ele>1465.6</ele><time>2024-08-08T18:49:48Z</time></trkpt>
<trkpt lat="44.401336" lon="-121.848375"><ele>1466.0</ele><time>2024-08-08T18:49:56Z</time></trkpt>
<trkpt lat="44.401513" lon="-121.848434"><ele>1466.0</ele><time>2024-08-08T18:50:09Z</time></trkpt>
<trkpt lat="44.401336" lon="-121.848068"><ele>1467.4</ele><time>2024-08-08T18:50:40Z</time></trkpt>
<trkpt lat="44.400988" lon="-121.847819"><ele>1467.4</ele><time>2024-08-08T18:51:54Z</time></trkpt>
<trkpt lat="44.400926" lon="-121.847661"><ele>1467.0</ele><time>2024-08-08T18:51:57Z</time></trkpt>
<trkpt lat="44.400858" lon="-121.847755"><ele>1466.8</ele><time>2024-08-08T18:51:59Z</time></trkpt>
<trkpt lat="44.400950" lon="-121.847986"><ele>1466.4</ele><time>2024-08-08T18:52:07Z</time></trkpt>
<trkpt lat="44.401087" lon="-121.847782"><ele>1465.8</ele><time>2024-08-08T18:53:29Z</time></trkpt>
<trkpt lat="44.400936" lon="-121.847942"><ele>1465.0</ele><time>2024-08-08T18:54:00Z</time></trkpt>
<trkpt lat="44.400925" lon="-121.847892"><ele>1464.4</ele><time>2024-08-08T18:54:06Z</time></trkpt>
<trkpt lat="44.401801" lon="-121.848459"><ele>1466.6</ele><time>2024-08-08T18:55:02Z</time></trkpt>
<trkpt lat="44.402857" lon="-121.849314"><ele>1467.6</ele><time>2024-08-08T18:55:54Z</time></trkpt>
<trkpt lat="44.402924" lon="-121.849354"><ele>1467.6</ele><time>2024-08-08T18:55:55Z</time></trkpt>
<trkpt lat="44.403157" lon="-121.849115"><ele>1468.6</ele><time>2024-08-08T18:56:00Z</time></trkpt>
<trkpt lat="44.403293" lon="-121.849122"><ele>1469.6</ele><time>2024-08-08T18:56:11Z</time></trkpt>
<trkpt lat="44.403068" lon="-121.849123"><ele>1469.4</ele><time>2024-08-08T18:56:26Z</time></trkpt>
<trkpt lat="44.402894" lon="-121.849055"><ele>1474.2</ele><time>2024-08-08T18:57:18Z</time></trkpt>
<trkpt lat="44.402526" lon="-121.848952"><ele>1471.2</ele><time>2024-08-08T18:57:55Z</time></trkpt>
<trkpt lat="44.402678" lon="-121.848908"><ele>1470.6</ele><time>2024-08-08T18:57:59Z</time></trkpt>
<trkpt lat="44.402695" lon="-121.848981"><ele>1470.4</ele><time>2024-08-08T18:58:02Z</time></trkpt>
<trkpt lat="44.402702" lon="-121.848838"><ele>1470.4</ele><time>2024-08-08T18:58:07Z</time></trkpt>
<trkpt lat="44.403016" lon="-121.849430"><ele>1471.2</ele><time>2024-08-08T18:58:46Z</time></trkpt>
<trkpt lat="44.403442" lon="-121.849921"><ele>1475.4</ele><time>2024-08-08T18:59:55Z</time></trkpt>
<trkpt lat="44.403452" lon="-121.850018"><ele>1475.4</ele><time>2024-08-08T18:59:58Z</time></trkpt>
<trkpt lat="44.403731" lon="-121.849979"><ele>1475.8</ele><time>2024-08-08T19:00:11Z</time></trkpt>
<trkpt lat="44.404755" lon="-121.849388"><ele>1482.4</ele><time>2024-08-08T19:01:53Z</time></trkpt>
<trkpt lat="44.405156" lon="-121.849325"><ele>1481.8</ele><time>2024-08-08T19:02:12Z</time></trkpt>
<trkpt lat="44.407101" lon="-121.849529"><ele>1484.6</ele><time>2024-08-08T19:03:51Z</time></trkpt>
<trkpt lat="44.407087" lon="-121.849425"><ele>1484.8</ele><time>2024-08-08T19:03:55Z</time></trkpt>
<trkpt lat="44.407241" lon="-121.849437"><ele>1486.4</ele><time>2024-08-08T19:04:08Z</time></trkpt>
<trkpt lat="44.407993" lon="-121.849762"><ele>1491.6</ele><time>2024-08-08T19:05:49Z</time></trkpt>
<trkpt lat="44.408336" lon="-121.850098"><ele>1491.6</ele><time>2024-08-08T19:06:02Z</time></trkpt>
<trkpt lat="44.408322" lon="-121.850241"><ele>1492.2</ele><time>2024-08-08T19:06:09Z</time></trkpt>
<trkpt lat="44.408533" lon="-121.850788"><ele>1489.6</ele><time>2024-08-08T19:06:39Z</time></trkpt>
<trkpt lat="44.408734" lon="-121.851912"><ele>1488.2</ele><time>2024-08-08T19:07:56Z</time></trkpt>
<trkpt lat="44.408602" lon="-121.851928"><ele>1488.4</ele><time>2024-08-08T19:08:01Z</time></trkpt>
<trkpt lat="44.408814" lon="-121.851941"><ele>1489.4</ele><time>2024-08-08T19:08:10Z</time></trkpt>
<trkpt lat="44.408762" lon="-121.852054"><ele>1487.4</ele><time>2024-08-08T19:08:37Z</time></trkpt>
<trkpt lat="44.408640" lon="-121.851829"><ele>1487.0</ele><time>2024-08-08T19:08:59Z</time></trkpt>
<trkpt lat="44.408911" lon="-121.851833"><ele>1487.2</ele><time>2024-08-08T19:10:02Z</time></trkpt>
<trkpt lat="44.409007" lon="-121.851721"><ele>1487.2</ele><time>2024-08-08T19:10:08Z</time></trkpt>
<trkpt lat="44.409223" lon="-121.851653"><ele>1486.6</ele><time>2024-08-08T19:10:19Z</time></trkpt>
<trkpt lat="44.410192" lon="-121.851772"><ele>1479.6</ele><time>2024-08-08T19:11:45Z</time></trkpt>
<trkpt lat="44.410240" lon="-121.851616"><ele>1479.4</ele><time>2024-08-08T19:11:55Z</time></trkpt>
<trkpt lat="44.410759" lon="-121.851810"><ele>1478.6</ele><time>2024-08-08T19:12:20Z</time></trkpt>
<trkpt lat="44.411097" lon="-121.851758"><ele>1476.6</ele><time>2024-08-08T19:12:42Z</time></trkpt>
<trkpt lat="44.411193" lon="-121.851883"><ele>1475.6</ele><time>2024-08-08T19:12:56Z</time></trkpt>
<trkpt lat="44.411991" lon="-121.851979"><ele>1472.8</ele><time>2024-08-08T19:13:56Z</time></trkpt>
<trkpt lat="44.411703" lon="-121.851823"><ele>1473.0</ele><time>2024-08-08T19:13:58Z</time></trkpt>
<trkpt lat="44.411966" lon="-121.851859"><ele>1473.0</ele><time>2024-08-08T19:14:10Z</time></trkpt>
<trkpt lat="44.414404" lon="-121.852719"><ele>1470.2</ele><time>2024-08-08T19:15:52Z</time></trkpt>
<trkpt lat="44.414520" lon="-121.852721"><ele>1470.8</ele><time>2024-08-08T19:15:58Z</time></trkpt>
<trkpt lat="44.414464" lon="-121.852651"><ele>1471.2</ele><time>2024-08-08T19:16:02Z</time></trkpt>
<trkpt lat="44.414513" lon="-121.852642"><ele>1472.4</ele><time>2024-08-08T19:16:09Z</time></trkpt>
<trkpt lat="44.415311" lon="-121.852781"><ele>1472.4</ele><time>2024-08-08T19:17:15Z</time></trkpt>
<trkpt lat="44.415902" lon="-121.852762"><ele>1471.6</ele><time>2024-08-08T19:17:55Z</time></trkpt>
<trkpt lat="44.415945" lon="-121.852607"><ele>1471.6</ele><time>2024-08-08T19:18:03Z</time></trkpt>
<trkpt lat="44.416129" lon="-121.852567"><ele>1472.2</ele><time>2024-08-08T19:19:56Z</time></trkpt>
<trkpt lat="44.417101" lon="-121.853067"><ele>1472.6</ele><time>2024-08-08T19:20:41Z</time></trkpt>
<trkpt lat="44.418746" lon="-121.854475"><ele>1473.4</ele><time>2024-08-08T19:21:57Z</time></trkpt>
<trkpt lat="44.418463" lon="-121.854306"><ele>1474.6</ele><time>2024-08-08T19:22:01Z</time></trkpt>
<trkpt lat="44.418923" lon="-121.854489"><ele>1475.0</ele><time>2024-08-08T19:22:41Z</time></trkpt>
<trkpt lat="44.419278" lon="-121.854270"><ele>1475.0</ele><time>2024-08-08T19:23:01Z</time></trkpt>
<trkpt lat="44.419596" lon="-121.854319"><ele>1476.0</ele><time>2024-08-08T19:23:29Z</time></trkpt>
<trkpt lat="44.420153" lon="-121.854142"><ele>1478.8</ele><time>2024-08-08T19:24:37Z</time></trkpt>
<trkpt lat="44.420425" lon="-121.853742"><ele>1478.8</ele><time>2024-08-08T19:25:04Z</time></trkpt>
<trkpt lat="44.420700" lon="-121.852370"><ele>1472.8</ele><time>2024-08-08T19:26:24Z</time></trkpt>
<trkpt lat="44.420783" lon="-121.852418"><ele>1471.4</ele><time>2024-08-08T19:26:34Z</time></trkpt>
<trkpt lat="44.420953" lon="-121.852152"><ele>1470.6</ele><time>2024-08-08T19:26:55Z</time></trkpt>
<trkpt lat="44.421227" lon="-121.852110"><ele>1471.2</ele><time>2024-08-08T19:27:19Z</time></trkpt>
<trkpt lat="44.421763" lon="-121.851408"><ele>1472.8</ele><time>2024-08-08T19:28:24Z</time></trkpt>
<trkpt lat="44.421926" lon="-121.851430"><ele>1473.8</ele><time>2024-08-08T19:28:31Z</time></trkpt>
<trkpt lat="44.422715" lon="-121.850759"><ele>1474.0</ele><time>2024-08-08T19:29:41Z</time></trkpt>
<trkpt lat="44.422996" lon="-121.850420"><ele>1469.8</ele><time>2024-08-08T19:30:37Z</time></trkpt>
<trkpt lat="44.423050" lon="-121.849870"><ele>1469.8</ele><time>2024-08-08T19:31:08Z</time></trkpt>
<trkpt lat="44.423640" lon="-121.849554"><ele>1469.2</ele><time>2024-08-08T19:32:54Z</time></trkpt>
<trkpt lat="44.423768" lon="-121.849592"><ele>1469.8</ele><time>2024-08-08T19:33:01Z</time></trkpt>
<trkpt lat="44.423776" lon="-121.849759"><ele>1469.8</ele><time>2024-08-08T19:33:11Z</time></trkpt>
<trkpt lat="44.423381" lon="-121.851357"><ele>1467.6</ele><time>2024-08-08T19:34:53Z</time></trkpt>
<trkpt lat="44.423365" lon="-121.851612"><ele>1467.8</ele><time>2024-08-08T19:35:01Z</time></trkpt>
<trkpt lat="44.422926" lon="-121.852840"><ele>1463.4</ele><time>2024-08-08T19:36:26Z</time></trkpt>
<trkpt lat="44.422749" lon="-121.854337"><ele>1463.0</ele><time>2024-08-08T19:37:51Z</time></trkpt>
<trkpt lat="44.422538" lon="-121.855078"><ele>1462.0</ele><time>2024-08-08T19:38:52Z</time></trkpt>
<trkpt lat="44.422233" lon="-121.856909"><ele>1460.6</ele><time>2024-08-08T19:40:43Z</time></trkpt>
<trkpt lat="44.422107" lon="-121.857309"><ele>1460.4</ele><time>2024-08-08T19:40:59Z</time></trkpt>
<trkpt lat="44.422073" lon="-121.857238"><ele>1459.8</ele><time>2024-08-08T19:41:24Z</time></trkpt>
<trkpt lat="44.422045" lon="-121.857296"><ele>1461.6</ele><time>2024-08-08T19:43:20Z</time></trkpt>
<trkpt lat="44.422081" lon="-121.857389"><ele>1461.4</ele><time>2024-08-08T19:50:55Z</time></trkpt>
<trkpt lat="44.422151" lon="-121.857299"><ele>1461.4</ele><time>2024-08-08T19:50:59Z</time></trkpt>
<trkpt lat="44.422084" lon="-121.857271"><ele>1461.2</ele><time>2024-08-08T19:51:08Z</time></trkpt>
<trkpt lat="44.422134" lon="-121.857277"><ele>1460.8</ele><time>2024-08-08T19:52:38Z</time></trkpt>
<trkpt lat="44.422104" lon="-121.857331"><ele>1461.4</ele><time>2024-08-08T19:52:57Z</time></trkpt>
<trkpt lat="44.422197" lon="-121.857245"><ele>1461.2</ele><time>2024-08-08T19:54:55Z</time></trkpt>
<trkpt lat="44.422027" lon="-121.857318"><ele>1459.6</ele><time>2024-08-08T19:59:13Z</time></trkpt>
<trkpt lat="44.422098" lon="-121.857407"><ele>1460.6</ele><time>2024-08-08T20:01:04Z</time></trkpt>
<trkpt lat="44.422015" lon="-121.857359"><ele>1459.2</ele><time>2024-08-08T20:02:57Z</time></trkpt>
<trkpt lat="44.421926" lon="-121.857499"><ele>1460.4</ele><time>2024-08-08T20:04:53Z</time></trkpt>
<trkpt lat="44.422096" lon="-121.857280"><ele>1460.2</ele><time>2024-08-08T20:05:02Z</time></trkpt>
<trkpt lat="44.422043" lon="-121.857295"><ele>1460.2</ele><time>2024-08-08T20:05:06Z</time></trkpt>
<trkpt lat="44.422061" lon="-121.857400"><ele>1460.8</ele><time>2024-08-08T20:08:58Z</time></trkpt>
<trkpt lat="44.422110" lon="-121.857332"><ele>1460.4</ele><time>2024-08-08T20:09:11Z</time></trkpt>
<trkpt lat="44.422202" lon="-121.857370"><ele>1461.6</ele><time>2024-08-08T20:10:58Z</time></trkpt>
<trkpt lat="44.422028" lon="-121.857345"><ele>1462.8</ele><time>2024-08-08T20:11:13Z</time></trkpt>
<trkpt lat="44.422090" lon="-121.857326"><ele>1461.8</ele><time>2024-08-08T20:12:57Z</time></trkpt>
<trkpt lat="44.422050" lon="-121.857353"><ele>1461.4</ele><time>2024-08-08T20:13:01Z</time></trkpt>
<trkpt lat="44.422096" lon="-121.857403"><ele>1461.0</ele><time>2024-08-08T20:13:56Z</time></trkpt>
<trkpt lat="44.422163" lon="-121.857425"><ele>1460.6</ele><time>2024-08-08T20:14:56Z</time></trkpt>
<trkpt lat="44.422055" lon="-121.857380"><ele>1460.0</ele><time>2024-08-08T20:16:22Z</time></trkpt>
<trkpt lat="44.422109" lon="-121.857300"><ele>1459.8</ele><time>2024-08-08T20:16:58Z</time></trkpt>
<trkpt lat="44.422039" lon="-121.857292"><ele>1459.6</ele><time>2024-08-08T20:17:02Z</time></trkpt>
<trkpt lat="44.422080" lon="-121.857467"><ele>1459.0</ele><time>2024-08-08T20:19:01Z</time></trkpt>
<trkpt lat="44.422090" lon="-121.857331"><ele>1458.8</ele><time>2024-08-08T20:19:09Z</time></trkpt>
<trkpt lat="44.422118" lon="-121.857397"><ele>1459.2</ele><time>2024-08-08T20:20:56Z</time></trkpt>
<trkpt lat="44.422057" lon="-121.857351"><ele>1459.2</ele><time>2024-08-08T20:21:10Z</time></trkpt>
<trkpt lat="44.422192" lon="-121.857303"><ele>1459.6</ele><time>2024-08-08T20:23:01Z</time></trkpt>
<trkpt lat="44.422008" lon="-121.857362"><ele>1461.2</ele><time>2024-08-08T20:25:03Z</time></trkpt>
<trkpt lat="44.422219" lon="-121.857374"><ele>1461.0</ele><time>2024-08-08T20:26:53Z</time></trkpt>
<trkpt lat="44.422203" lon="-121.857320"><ele>1461.0</ele><time>2024-08-08T20:26:54Z</time></trkpt>
</trkseg></trk>
</gpx>
