<?xml version="1.0" encoding="UTF-8"?>
<gpx version="1.1" creator="Eric Sichak trip reports" xmlns="http://www.topografix.com/GPX/1/1">
<metadata><name>Lunch Hike</name><time>2024-08-10T19:48:39Z</time></metadata>
<trk><name>Lunch Hike</name><type>hike</type><trkseg>
<trkpt lat="44.388349" lon="-121.789638"><ele>1484.4</ele><time>2024-08-10T19:48:39Z</time></trkpt>
<trkpt lat="44.399012" lon="-121.806233"><ele>1484.2</ele><time>2024-08-10T19:49:09Z</time></trkpt>
<trkpt lat="44.425857" lon="-121.848365"><ele>1485.4</ele><time>2024-08-10T19:49:43Z</time></trkpt>
<trkpt lat="44.426029" lon="-121.848248"><ele>1486.8</ele><time>2024-08-10T19:49:57Z</time></trkpt>
<trkpt lat="44.426349" lon="-121.847816"><ele>1489.2</ele><time>2024-08-10T19:50:49Z</time></trkpt>
<trkpt lat="44.426647" lon="-121.846921"><ele>1493.4</ele><time>2024-08-10T19:51:42Z</time></trkpt>
<trkpt lat="44.426789" lon="-121.846723"><ele>1494.0</ele><time>2024-08-10T19:51:59Z</time></trkpt>
<trkpt lat="44.427131" lon="-121.846801"><ele>1497.0</ele><time>2024-08-10T19:52:33Z</time></trkpt>
<trkpt lat="44.427590" lon="-121.847302"><ele>1503.8</ele><time>2024-08-10T19:53:42Z</time></trkpt>
<trkpt lat="44.427674" lon="-121.847512"><ele>1506.0</ele><time>2024-08-10T19:53:59Z</time></trkpt>
<trkpt lat="44.428189" lon="-121.848035"><ele>1510.4</ele><time>2024-08-10T19:54:47Z</time></trkpt>
<trkpt lat="44.428349" lon="-121.848080"><ele>1511.4</ele><time>2024-08-10T19:55:11Z</time></trkpt>
<trkpt lat="44.428944" lon="-121.848543"><ele>1514.4</ele><time>2024-08-10T19:56:07Z</time></trkpt>
<trkpt lat="44.429260" lon="-121.848656"><ele>1517.2</ele><time>2024-08-10T19:56:35Z</time></trkpt>
<trkpt lat="44.429973" lon="-121.849235"><ele>1523.2</ele><time>2024-08-10T19:57:44Z</time></trkpt>
<trkpt lat="44.430131" lon="-121.849115"><ele>1524.0</ele><time>2024-08-10T19:57:57Z</time></trkpt>
<trkpt lat="44.430701" lon="-121.849851"><ele>1528.6</ele><time>2024-08-10T19:58:59Z</time></trkpt>
<trkpt lat="44.430933" lon="-121.850273"><ele>1533.2</ele><time>2024-08-10T19:59:43Z</time></trkpt>
<trkpt lat="44.431325" lon="-121.850488"><ele>1534.0</ele><time>2024-08-10T19:59:52Z</time></trkpt>
<trkpt lat="44.430967" lon="-121.851241"><ele>1534.0</ele><time>2024-08-10T19:59:53Z</time></trkpt>
<trkpt lat="44.430820" lon="-121.850284"><ele>1534.2</ele><time>2024-08-10T19:59:55Z</time></trkpt>
<trkpt lat="44.431156" lon="-121.849896"><ele>1534.2</ele><time>2024-08-10T19:59:56Z</time></trkpt>
<trkpt lat="44.431447" lon="-121.849752"><ele>1535.2</ele><time>2024-08-10T20:00:01Z</time></trkpt>
<trkpt lat="44.432491" lon="-121.850771"><ele>1551.4</ele><time>2024-08-10T20:03:05Z</time></trkpt>
<trkpt lat="44.432483" lon="-121.852365"><ele>1562.0</ele><time>2024-08-10T20:04:45Z</time></trkpt>
<trkpt lat="44.432626" lon="-121.852393"><ele>1563.4</ele><time>2024-08-10T20:05:00Z</time></trkpt>
<trkpt lat="44.432824" lon="-121.852645"><ele>1565.2</ele><time>2024-08-10T20:05:21Z</time></trkpt>
<trkpt lat="44.432942" lon="-121.852601"><ele>1565.4</ele><time>2024-08-10T20:05:29Z</time></trkpt>
<trkpt lat="44.434254" lon="-121.852918"><ele>1568.8</ele><time>2024-08-10T20:07:12Z</time></trkpt>
<trkpt lat="44.434467" lon="-121.853073"><ele>1568.8</ele><time>2024-08-10T20:07:18Z</time></trkpt>
<trkpt lat="44.434390" lon="-121.853104"><ele>1568.8</ele><time>2024-08-10T20:07:23Z</time></trkpt>
<trkpt lat="44.434458" lon="-121.853183"><ele>1568.8</ele><time>2024-08-10T20:07:28Z</time></trkpt>
<trkpt lat="44.436190" lon="-121.854058"><ele>1569.8</ele><time>2024-08-10T20:09:58Z</time></trkpt>
<trkpt lat="44.436630" lon="-121.853990"><ele>1575.0</ele><time>2024-08-10T20:10:40Z</time></trkpt>
<trkpt lat="44.436714" lon="-121.854579"><ele>1577.6</ele><time>2024-08-10T20:11:11Z</time></trkpt>
<trkpt lat="44.437006" lon="-121.854993"><ele>1581.2</ele><time>2024-08-10T20:11:41Z</time></trkpt>
<trkpt lat="44.437335" lon="-121.855209"><ele>1584.6</ele><time>2024-08-10T20:12:13Z</time></trkpt>
<trkpt lat="44.437760" lon="-121.854700"><ele>1586.8</ele><time>2024-08-10T20:13:01Z</time></trkpt>
<trkpt lat="44.437879" lon="-121.854105"><ele>1587.8</ele><time>2024-08-10T20:13:27Z</time></trkpt>
<trkpt lat="44.437779" lon="-121.853446"><ele>1593.2</ele><time>2024-08-10T20:14:01Z</time></trkpt>
<trkpt lat="44.437885" lon="-121.853128"><ele>1594.6</ele><time>2024-08-10T20:14:37Z</time></trkpt>
<trkpt lat="44.437766" lon="-121.852890"><ele>1595.8</ele><time>2024-08-10T20:14:48Z</time></trkpt>
<trkpt lat="44.437920" lon="-121.852777"><ele>1597.4</ele><time>2024-08-10T20:14:57Z</time></trkpt>
<trkpt lat="44.437993" lon="-121.850790"><ele>1601.8</ele><time>2024-08-10T20:16:42Z</time></trkpt>
<trkpt lat="44.437936" lon="-121.851159"><ele>1601.6</ele><time>2024-08-10T20:16:49Z</time></trkpt>
<trkpt lat="44.437899" lon="-121.851125"><ele>1601.6</ele><time>2024-08-10T20:16:51Z</time></trkpt>
<trkpt lat="44.437955" lon="-121.851107"><ele>1601.8</ele><time>2024-08-10T20:16:56Z</time></trkpt>
<trkpt lat="44.438030" lon="-121.850549"><ele>1603.0</ele><time>2024-08-10T20:17:17Z</time></trkpt>
<trkpt lat="44.437971" lon="-121.850310"><ele>1605.2</ele><time>2024-08-10T20:17:45Z</time></trkpt>
<trkpt lat="44.437933" lon="-121.849438"><ele>1611.2</ele><time>2024-08-10T20:18:43Z</time></trkpt>
<trkpt lat="44.437967" lon="-121.849525"><ele>1611.4</ele><time>2024-08-10T20:18:45Z</time></trkpt>
<trkpt lat="44.438070" lon="-121.848685"><ele>1611.8</ele><time>2024-08-10T20:19:21Z</time></trkpt>
<trkpt lat="44.438223" lon="-121.848307"><ele>1614.0</ele><time>2024-08-10T20:20:21Z</time></trkpt>
<trkpt lat="44.438268" lon="-121.847835"><ele>1615.4</ele><time>2024-08-10T20:20:42Z</time></trkpt>
<trkpt lat="44.438219" lon="-121.847790"><ele>1615.6</ele><time>2024-08-10T20:20:50Z</time></trkpt>
<trkpt lat="44.438284" lon="-121.847640"><ele>1617.0</ele><time>2024-08-10T20:21:00Z</time></trkpt>
<trkpt lat="44.438349" lon="-121.846929"><ele>1620.2</ele><time>2024-08-10T20:21:31Z</time></trkpt>
<trkpt lat="44.438233" lon="-121.846496"><ele>1623.8</ele><time>2024-08-10T20:22:15Z</time></trkpt>
<trkpt lat="44.438232" lon="-121.845981"><ele>1626.0</ele><time>2024-08-10T20:22:42Z</time></trkpt>
<trkpt lat="44.438362" lon="-121.845956"><ele>1626.0</ele><time>2024-08-10T20:22:44Z</time></trkpt>
<trkpt lat="44.438467" lon="-121.845823"><ele>1626.6</ele><time>2024-08-10T20:22:47Z</time></trkpt>
<trkpt lat="44.438409" lon="-121.845728"><ele>1627.0</ele><time>2024-08-10T20:22:52Z</time></trkpt>
<trkpt lat="44.438422" lon="-121.845783"><ele>1627.0</ele><time>2024-08-10T20:22:54Z</time></trkpt>
<trkpt lat="44.438467" lon="-121.845713"><ele>1627.2</ele><time>2024-08-10T20:22:58Z</time></trkpt>
<trkpt lat="44.438536" lon="-121.844718"><ele>1630.8</ele><time>2024-08-10T20:23:42Z</time></trkpt>
<trkpt lat="44.438478" lon="-121.843631"><ele>1634.4</ele><time>2024-08-10T20:24:44Z</time></trkpt>
<trkpt lat="44.438268" lon="-121.843822"><ele>1634.4</ele><time>2024-08-10T20:24:46Z</time></trkpt>
<trkpt lat="44.438444" lon="-121.843547"><ele>1634.4</ele><time>2024-08-10T20:24:48Z</time></trkpt>
<trkpt lat="44.438397" lon="-121.843601"><ele>1634.4</ele><time>2024-08-10T20:24:50Z</time></trkpt>
<trkpt lat="44.438463" lon="-121.843806"><ele>1634.4</ele><time>2024-08-10T20:24:54Z</time></trkpt>
<trkpt lat="44.438977" lon="-121.843825"><ele>1636.4</ele><time>2024-08-10T20:25:18Z</time></trkpt>
<trkpt lat="44.439697" lon="-121.844018"><ele>1646.0</ele><time>2024-08-10T20:26:40Z</time></trkpt>
<trkpt lat="44.439788" lon="-121.844473"><ele>1646.0</ele><time>2024-08-10T20:26:43Z</time></trkpt>
<trkpt lat="44.439934" lon="-121.843920"><ele>1646.2</ele><time>2024-08-10T20:26:44Z</time></trkpt>
<trkpt lat="44.440011" lon="-121.843976"><ele>1646.2</ele><time>2024-08-10T20:26:45Z</time></trkpt>
<trkpt lat="44.440062" lon="-121.843893"><ele>1646.8</ele><time>2024-08-10T20:26:49Z</time></trkpt>
<trkpt lat="44.439734" lon="-121.843811"><ele>1647.0</ele><time>2024-08-10T20:26:53Z</time></trkpt>
<trkpt lat="44.439935" lon="-121.844028"><ele>1648.0</ele><time>2024-08-10T20:27:06Z</time></trkpt>
<trkpt lat="44.440336" lon="-121.844723"><ele>1657.6</ele><time>2024-08-10T20:28:34Z</time></trkpt>
<trkpt lat="44.440264" lon="-121.844973"><ele>1658.2</ele><time>2024-08-10T20:28:43Z</time></trkpt>
<trkpt lat="44.440668" lon="-121.845074"><ele>1658.2</ele><time>2024-08-10T20:28:44Z</time></trkpt>
<trkpt lat="44.440759" lon="-121.845314"><ele>1658.0</ele><time>2024-08-10T20:28:49Z</time></trkpt>
<trkpt lat="44.440829" lon="-121.845351"><ele>1657.8</ele><time>2024-08-10T20:28:53Z</time></trkpt>
<trkpt lat="44.442354" lon="-121.845891"><ele>1667.0</ele><time>2024-08-10T20:30:43Z</time></trkpt>
<trkpt lat="44.442413" lon="-121.845596"><ele>1667.4</ele><time>2024-08-10T20:30:46Z</time></trkpt>
<trkpt lat="44.442453" lon="-121.845632"><ele>1667.4</ele><time>2024-08-10T20:30:47Z</time></trkpt>
<trkpt lat="44.442215" lon="-121.845860"><ele>1667.6</ele><time>2024-08-10T20:30:51Z</time></trkpt>
<trkpt lat="44.442291" lon="-121.845860"><ele>1667.4</ele><time>2024-08-10T20:30:54Z</time></trkpt>
<trkpt lat="44.442645" lon="-121.846194"><ele>1668.0</ele><time>2024-08-10T20:31:10Z</time></trkpt>
<trkpt lat="44.443334" lon="-121.847030"><ele>1678.0</ele><time>2024-08-10T20:32:43Z</time></trkpt>
<trkpt lat="44.443739" lon="-121.847141"><ele>1681.4</ele><time>2024-08-10T20:33:06Z</time></trkpt>
<trkpt lat="44.444661" lon="-121.847683"><ele>1686.2</ele><time>2024-08-10T20:34:42Z</time></trkpt>
<trkpt lat="44.444800" lon="-121.848040"><ele>1686.2</ele><time>2024-08-10T20:34:46Z</time></trkpt>
<trkpt lat="44.444369" lon="-121.847467"><ele>1686.6</ele><time>2024-08-10T20:34:50Z</time></trkpt>
<trkpt lat="44.444440" lon="-121.847592"><ele>1687.0</ele><time>2024-08-10T20:34:55Z</time></trkpt>
<trkpt lat="44.444615" lon="-121.847585"><ele>1687.8</ele><time>2024-08-10T20:35:01Z</time></trkpt>
<trkpt lat="44.444660" lon="-121.847657"><ele>1688.6</ele><time>2024-08-10T20:35:19Z</time></trkpt>
<trkpt lat="44.444913" lon="-121.847528"><ele>1691.2</ele><time>2024-08-10T20:35:51Z</time></trkpt>
<trkpt lat="44.445114" lon="-121.847571"><ele>1694.2</ele><time>2024-08-10T20:36:19Z</time></trkpt>
<trkpt lat="44.445392" lon="-121.847309"><ele>1696.2</ele><time>2024-08-10T20:36:51Z</time></trkpt>
<trkpt lat="44.445392" lon="-121.847120"><ele>1695.8</ele><time>2024-08-10T20:37:03Z</time></trkpt>
<trkpt lat="44.444816" lon="-121.846184"><ele>1698.8</ele><time>2024-08-10T20:38:12Z</time></trkpt>
<trkpt lat="44.444614" lon="-121.846071"><ele>1699.4</ele><time>2024-08-10T20:38:28Z</time></trkpt>
<trkpt lat="44.444417" lon="-121.845801"><ele>1700.0</ele><time>2024-08-10T20:38:43Z</time></trkpt>
<trkpt lat="44.444514" lon="-121.845670"><ele>1700.4</ele><time>2024-08-10T20:38:49Z</time></trkpt>
<trkpt lat="44.444250" lon="-121.845040"><ele>1705.0</ele><time>2024-08-10T20:39:32Z</time></trkpt>
<trkpt lat="44.443766" lon="-121.844154"><ele>1710.6</ele><time>2024-08-10T20:40:38Z</time></trkpt>
<trkpt lat="44.443793" lon="-121.844219"><ele>1711.2</ele><time>2024-08-10T20:40:43Z</time></trkpt>
<trkpt lat="44.443651" lon="-121.843835"><ele>1711.6</ele><time>2024-08-10T20:40:45Z</time></trkpt>
<trkpt lat="44.443742" lon="-121.844152"><ele>1711.8</ele><time>2024-08-10T20:40:48Z</time></trkpt>
<trkpt lat="44.443914" lon="-121.843996"><ele>1712.6</ele><time>2024-08-10T20:41:01Z</time></trkpt>
<trkpt lat="44.443949" lon="-121.843471"><ele>1714.6</ele><time>2024-08-10T20:41:20Z</time></trkpt>
<trkpt lat="44.444128" lon="-121.843025"><ele>1718.6</ele><time>2024-08-10T20:42:14Z</time></trkpt>
<trkpt lat="44.444229" lon="-121.842447"><ele>1721.8</ele><time>2024-08-10T20:42:43Z</time></trkpt>
<trkpt lat="44.444537" lon="-121.842728"><ele>1723.0</ele><time>2024-08-10T20:42:56Z</time></trkpt>
<trkpt lat="44.444832" lon="-121.843197"><ele>1724.4</ele><time>2024-08-10T20:43:16Z</time></trkpt>
<trkpt lat="44.445080" lon="-121.843354"><ele>1724.8</ele><time>2024-08-10T20:43:28Z</time></trkpt>
<trkpt lat="44.445113" lon="-121.843755"><ele>1725.8</ele><time>2024-08-10T20:43:52Z</time></trkpt>
<trkpt lat="44.444908" lon="-121.843880"><ele>1726.8</ele><time>2024-08-10T20:44:10Z</time></trkpt>
<trkpt lat="44.444807" lon="-121.844054"><ele>1727.6</ele><time>2024-08-10T20:44:24Z</time></trkpt>
<trkpt lat="44.444848" lon="-121.844302"><ele>1729.6</ele><time>2024-08-10T20:44:43Z</time></trkpt>
<trkpt lat="44.444901" lon="-121.844258"><ele>1730.2</ele><time>2024-08-10T20:44:45Z</time></trkpt>
<trkpt lat="44.445362" lon="-121.844608"><ele>1732.2</ele><time>2024-08-10T20:45:06Z</time></trkpt>
<trkpt lat="44.445910" lon="-121.844761"><ele>1738.6</ele><time>2024-08-10T20:46:06Z</time></trkpt>
<trkpt lat="44.446336" lon="-121.844791"><ele>1741.4</ele><time>2024-08-10T20:46:43Z</time></trkpt>
<trkpt lat="44.446766" lon="-121.844954"><ele>1742.8</ele><time>2024-08-10T20:47:00Z</time></trkpt>
<trkpt lat="44.447482" lon="-121.845045"><ele>1746.2</ele><time>2024-08-10T20:47:56Z</time></trkpt>
<trkpt lat="44.448292" lon="-121.845277"><ele>1749.0</ele><time>2024-08-10T20:48:47Z</time></trkpt>
<trkpt lat="44.448020" lon="-121.845159"><ele>1749.4</ele><time>2024-08-10T20:48:51Z</time></trkpt>
<trkpt lat="44.449443" lon="-121.845220"><ele>1759.2</ele><time>2024-08-10T20:51:03Z</time></trkpt>
<trkpt lat="44.450498" lon="-121.845072"><ele>1763.2</ele><time>2024-08-10T20:52:43Z</time></trkpt>
<trkpt lat="44.451258" lon="-121.845349"><ele>1770.0</ele><time>2024-08-10T20:54:08Z</time></trkpt>
<trkpt lat="44.451831" lon="-121.845743"><ele>1773.4</ele><time>2024-08-10T20:54:50Z</time></trkpt>
<trkpt lat="44.451999" lon="-121.845755"><ele>1774.0</ele><time>2024-08-10T20:55:03Z</time></trkpt>
<trkpt lat="44.452236" lon="-121.845585"><ele>1774.4</ele><time>2024-08-10T20:55:16Z</time></trkpt>
<trkpt lat="44.452398" lon="-121.845667"><ele>1776.0</ele><time>2024-08-10T20:55:48Z</time></trkpt>
<trkpt lat="44.452477" lon="-121.845857"><ele>1777.2</ele><time>2024-08-10T20:56:02Z</time></trkpt>
<trkpt lat="44.452892" lon="-121.846155"><ele>1780.6</ele><time>2024-08-10T20:56:43Z</time></trkpt>
<trkpt lat="44.454426" lon="-121.846758"><ele>1789.0</ele><time>2024-08-10T20:58:43Z</time></trkpt>
<trkpt lat="44.454426" lon="-121.846826"><ele>1789.6</ele><time>2024-08-10T20:58:50Z</time></trkpt>
<trkpt lat="44.455443" lon="-121.847310"><ele>1790.4</ele><time>2024-08-10T21:00:04Z</time></trkpt>
<trkpt lat="44.455776" lon="-121.847365"><ele>1788.8</ele><time>2024-08-10T21:00:26Z</time></trkpt>
<trkpt lat="44.455961" lon="-121.847499"><ele>1790.4</ele><time>2024-08-10T21:00:44Z</time></trkpt>
<trkpt lat="44.455948" lon="-121.847418"><ele>1790.6</ele><time>2024-08-10T21:00:48Z</time></trkpt>
<trkpt lat="44.456168" lon="-121.847434"><ele>1792.2</ele><time>2024-08-10T21:00:58Z</time></trkpt>
<trkpt lat="44.456731" lon="-121.847819"><ele>1785.2</ele><time>2024-08-10T21:02:45Z</time></trkpt>
<trkpt lat="44.457750" lon="-121.848092"><ele>1786.6</ele><time>2024-08-10T21:03:01Z</time></trkpt>
<trkpt lat="44.457639" lon="-121.847831"><ele>1787.4</ele><time>2024-08-10T21:03:08Z</time></trkpt>
<trkpt lat="44.457653" lon="-121.846988"><ele>1797.2</ele><time>2024-08-10T21:04:40Z</time></trkpt>
<trkpt lat="44.457514" lon="-121.846591"><ele>1797.6</ele><time>2024-08-10T21:04:45Z</time></trkpt>
<trkpt lat="44.457792" lon="-121.847133"><ele>1797.8</ele><time>2024-08-10T21:04:46Z</time></trkpt>
<trkpt lat="44.458628" lon="-121.847450"><ele>1798.0</ele><time>2024-08-10T21:04:47Z</time></trkpt>
<trkpt lat="44.458816" lon="-121.847429"><ele>1798.4</ele><time>2024-08-10T21:04:51Z</time></trkpt>
<trkpt lat="44.459040" lon="-121.847266"><ele>1798.4</ele><time>2024-08-10T21:05:10Z</time></trkpt>
<trkpt lat="44.459983" lon="-121.847020"><ele>1809.0</ele><time>2024-08-10T21:06:53Z</time></trkpt>
<trkpt lat="44.460222" lon="-121.846684"><ele>1816.6</ele><time>2024-08-10T21:08:10Z</time></trkpt>
<trkpt lat="44.460468" lon="-121.846570"><ele>1820.2</ele><time>2024-08-10T21:08:44Z</time></trkpt>
<trkpt lat="44.460726" lon="-121.847100"><ele>1823.0</ele><time>2024-08-10T21:09:18Z</time></trkpt>
<trkpt lat="44.460760" lon="-121.847537"><ele>1826.2</ele><time>2024-08-10T21:09:46Z</time></trkpt>
<trkpt lat="44.460809" lon="-121.847560"><ele>1830.6</ele><time>2024-08-10T21:10:20Z</time></trkpt>
<trkpt lat="44.461040" lon="-121.847983"><ele>1834.6</ele><time>2024-08-10T21:11:02Z</time></trkpt>
<trkpt lat="44.461479" lon="-121.847535"><ele>1842.4</ele><time>2024-08-10T21:12:40Z</time></trkpt>
<trkpt lat="44.461840" lon="-121.847522"><ele>1843.0</ele><time>2024-08-10T21:12:46Z</time></trkpt>
<trkpt lat="44.461379" lon="-121.847034"><ele>1843.6</ele><time>2024-08-10T21:12:48Z</time></trkpt>
<trkpt lat="44.461581" lon="-121.847322"><ele>1843.8</ele><time>2024-08-10T21:12:51Z</time></trkpt>
<trkpt lat="44.461550" lon="-121.847240"><ele>1844.4</ele><time>2024-08-10T21:12:57Z</time></trkpt>
<trkpt lat="44.461822" lon="-121.846456"><ele>1845.2</ele><time>2024-08-10T21:13:06Z</time></trkpt>
<trkpt lat="44.462130" lon="-121.845777"><ele>1845.6</ele><time>2024-08-10T21:13:10Z</time></trkpt>
<trkpt lat="44.461936" lon="-121.846144"><ele>1854.4</ele><time>2024-08-10T21:14:20Z</time></trkpt>
<trkpt lat="44.461405" lon="-121.846868"><ele>1856.8</ele><time>2024-08-10T21:14:43Z</time></trkpt>
<trkpt lat="44.461592" lon="-121.846841"><ele>1857.0</ele><time>2024-08-10T21:14:44Z</time></trkpt>
<trkpt lat="44.462187" lon="-121.846273"><ele>1857.4</ele><time>2024-08-10T21:14:48Z</time></trkpt>
<trkpt lat="44.462347" lon="-121.846237"><ele>1857.8</ele><time>2024-08-10T21:14:53Z</time></trkpt>
<trkpt lat="44.462267" lon="-121.846358"><ele>1858.0</ele><time>2024-08-10T21:15:00Z</time></trkpt>
<trkpt lat="44.462289" lon="-121.847126"><ele>1860.2</ele><time>2024-08-10T21:15:16Z</time></trkpt>
<trkpt lat="44.462338" lon="-121.847418"><ele>1862.2</ele><time>2024-08-10T21:15:38Z</time></trkpt>
<trkpt lat="44.462613" lon="-121.847922"><ele>1868.0</ele><time>2024-08-10T21:16:44Z</time></trkpt>
<trkpt lat="44.462943" lon="-121.848041"><ele>1873.0</ele><time>2024-08-10T21:17:26Z</time></trkpt>
<trkpt lat="44.462911" lon="-121.847953"><ele>1879.8</ele><time>2024-08-10T21:18:28Z</time></trkpt>
<trkpt lat="44.462913" lon="-121.847724"><ele>1881.8</ele><time>2024-08-10T21:18:49Z</time></trkpt>
<trkpt lat="44.462965" lon="-121.847658"><ele>1882.6</ele><time>2024-08-10T21:18:54Z</time></trkpt>
<trkpt lat="44.463097" lon="-121.847788"><ele>1885.0</ele><time>2024-08-10T21:19:10Z</time></trkpt>
<trkpt lat="44.463167" lon="-121.848101"><ele>1887.2</ele><time>2024-08-10T21:19:30Z</time></trkpt>
<trkpt lat="44.463566" lon="-121.848410"><ele>1891.8</ele><time>2024-08-10T21:20:12Z</time></trkpt>
<trkpt lat="44.463739" lon="-121.848824"><ele>1894.6</ele><time>2024-08-10T21:20:43Z</time></trkpt>
<trkpt lat="44.463712" lon="-121.848976"><ele>1895.2</ele><time>2024-08-10T21:20:46Z</time></trkpt>
<trkpt lat="44.463835" lon="-121.849002"><ele>1895.6</ele><time>2024-08-10T21:20:48Z</time></trkpt>
<trkpt lat="44.463891" lon="-121.849208"><ele>1896.8</ele><time>2024-08-10T21:21:02Z</time></trkpt>
<trkpt lat="44.464824" lon="-121.849289"><ele>1904.0</ele><time>2024-08-10T21:22:58Z</time></trkpt>
<trkpt lat="44.464267" lon="-121.849854"><ele>1903.4</ele><time>2024-08-10T21:24:54Z</time></trkpt>
<trkpt lat="44.464805" lon="-121.849185"><ele>1903.6</ele><time>2024-08-10T21:25:01Z</time></trkpt>
<trkpt lat="44.464695" lon="-121.849192"><ele>1904.2</ele><time>2024-08-10T21:26:48Z</time></trkpt>
<trkpt lat="44.464802" lon="-121.849137"><ele>1904.4</ele><time>2024-08-10T21:26:51Z</time></trkpt>
<trkpt lat="44.464798" lon="-121.849222"><ele>1904.6</ele><time>2024-08-10T21:27:04Z</time></trkpt>
<trkpt lat="44.464848" lon="-121.849140"><ele>1905.6</ele><time>2024-08-10T21:28:47Z</time></trkpt>
<trkpt lat="44.464861" lon="-121.849232"><ele>1905.6</ele><time>2024-08-10T21:28:50Z</time></trkpt>
<trkpt lat="44.464797" lon="-121.849285"><ele>1905.8</ele><time>2024-08-10T21:28:57Z</time></trkpt>
<trkpt lat="44.464891" lon="-121.849186"><ele>1906.6</ele><time>2024-08-10T21:30:46Z</time></trkpt>
<trkpt lat="44.464725" lon="-121.849246"><ele>1907.0</ele><time>2024-08-10T21:32:47Z</time></trkpt>
<trkpt lat="44.464804" lon="-121.849173"><ele>1907.0</ele><time>2024-08-10T21:32:54Z</time></trkpt>
<trkpt lat="44.464891" lon="-121.849227"><ele>1906.8</ele><time>2024-08-10T21:32:59Z</time></trkpt>
<trkpt lat="44.465183" lon="-121.848906"><ele>1908.6</ele><time>2024-08-10T21:34:44Z</time></trkpt>
<trkpt lat="44.464833" lon="-121.849238"><ele>1908.6</ele><time>2024-08-10T21:34:53Z</time></trkpt>
<trkpt lat="44.464898" lon="-121.849256"><ele>1911.2</ele><time>2024-08-10T21:36:23Z</time></trkpt>
<trkpt lat="44.464835" lon="-121.849265"><ele>1911.6</ele><time>2024-08-10T21:36:54Z</time></trkpt>
<trkpt lat="44.464871" lon="-121.849084"><ele>1912.4</ele><time>2024-08-10T21:38:31Z</time></trkpt>
<trkpt lat="44.464803" lon="-121.849221"><ele>1912.0</ele><time>2024-08-10T21:39:03Z</time></trkpt>
<trkpt lat="44.464671" lon="-121.849201"><ele>1912.2</ele><time>2024-08-10T21:40:49Z</time></trkpt>
<trkpt lat="44.464862" lon="-121.849205"><ele>1913.2</ele><time>2024-08-10T21:42:25Z</time></trkpt>
<trkpt lat="44.464705" lon="-121.849242"><ele>1913.2</ele><time>2024-08-10T21:42:51Z</time></trkpt>
<trkpt lat="44.464847" lon="-121.849200"><ele>1914.4</ele><time>2024-08-10T21:44:33Z</time></trkpt>
<trkpt lat="44.464811" lon="-121.849180"><ele>1914.0</ele><time>2024-08-10T21:44:44Z</time></trkpt>
<trkpt lat="44.464828" lon="-121.849260"><ele>1914.2</ele><time>2024-08-10T21:45:00Z</time></trkpt>
<trkpt lat="44.465373" lon="-121.849801"><ele>1920.0</ele><time>2024-08-10T21:46:53Z</time></trkpt>
<trkpt lat="44.465555" lon="-121.850370"><ele>1921.8</ele><time>2024-08-10T21:47:25Z</time></trkpt>
<trkpt lat="44.465756" lon="-121.850708"><ele>1924.4</ele><time>2024-08-10T21:48:05Z</time></trkpt>
<trkpt lat="44.466206" lon="-121.851189"><ele>1928.8</ele><time>2024-08-10T21:48:45Z</time></trkpt>
<trkpt lat="44.466180" lon="-121.851266"><ele>1929.2</ele><time>2024-08-10T21:48:51Z</time></trkpt>
<trkpt lat="44.466296" lon="-121.851400"><ele>1931.2</ele><time>2024-08-10T21:49:03Z</time></trkpt>
<trkpt lat="44.466388" lon="-121.851669"><ele>1932.2</ele><time>2024-08-10T21:49:13Z</time></trkpt>
<trkpt lat="44.466532" lon="-121.852803"><ele>1937.6</ele><time>2024-08-10T21:50:43Z</time></trkpt>
<trkpt lat="44.466614" lon="-121.852741"><ele>1937.6</ele><time>2024-08-10T21:50:45Z</time></trkpt>
<trkpt lat="44.466563" lon="-121.852810"><ele>1938.2</ele><time>2024-08-10T21:50:51Z</time></trkpt>
<trkpt lat="44.466633" lon="-121.852962"><ele>1939.0</ele><time>2024-08-10T21:51:03Z</time></trkpt>
<trkpt lat="44.467098" lon="-121.853124"><ele>1935.2</ele><time>2024-08-10T21:51:35Z</time></trkpt>
<trkpt lat="44.467330" lon="-121.853442"><ele>1934.2</ele><time>2024-08-10T21:51:57Z</time></trkpt>
<trkpt lat="44.467777" lon="-121.853668"><ele>1932.8</ele><time>2024-08-10T21:52:46Z</time></trkpt>
<trkpt lat="44.468340" lon="-121.853371"><ele>1932.4</ele><time>2024-08-10T21:53:17Z</time></trkpt>
<trkpt lat="44.469114" lon="-121.852751"><ele>1932.6</ele><time>2024-08-10T21:54:46Z</time></trkpt>
<trkpt lat="44.469289" lon="-121.852792"><ele>1932.2</ele><time>2024-08-10T21:54:59Z</time></trkpt>
<trkpt lat="44.470605" lon="-121.852249"><ele>1931.0</ele><time>2024-08-10T21:56:49Z</time></trkpt>
<trkpt lat="44.470721" lon="-121.852398"><ele>1931.4</ele><time>2024-08-10T21:56:59Z</time></trkpt>
<trkpt lat="44.470939" lon="-121.852179"><ele>1929.8</ele><time>2024-08-10T21:57:23Z</time></trkpt>
<trkpt lat="44.471166" lon="-121.851682"><ele>1927.4</ele><time>2024-08-10T21:58:55Z</time></trkpt>
<trkpt lat="44.471313" lon="-121.851703"><ele>1927.4</ele><time>2024-08-10T21:58:58Z</time></trkpt>
<trkpt lat="44.471299" lon="-121.851603"><ele>1927.4</ele><time>2024-08-10T21:59:04Z</time></trkpt>
<trkpt lat="44.472197" lon="-121.850053"><ele>1928.0</ele><time>2024-08-10T22:00:51Z</time></trkpt>
<trkpt lat="44.472940" lon="-121.849951"><ele>1928.2</ele><time>2024-08-10T22:01:53Z</time></trkpt>
<trkpt lat="44.473151" lon="-121.849825"><ele>1927.8</ele><time>2024-08-10T22:02:15Z</time></trkpt>
<trkpt lat="44.473685" lon="-121.849812"><ele>1928.0</ele><time>2024-08-10T22:02:46Z</time></trkpt>
<trkpt lat="44.473760" lon="-121.849744"><ele>1928.0</ele><time>2024-08-10T22:02:48Z</time></trkpt>
<trkpt lat="44.473789" lon="-121.850022"><ele>1929.0</ele><time>2024-08-10T22:03:00Z</time></trkpt>
<trkpt lat="44.475136" lon="-121.850152"><ele>1925.2</ele><time>2024-08-10T22:04:44Z</time></trkpt>
<trkpt lat="44.475254" lon="-121.850246"><ele>1926.0</ele><time>2024-08-10T22:04:51Z</time></trkpt>
<trkpt lat="44.475810" lon="-121.850199"><ele>1925.8</ele><time>2024-08-10T22:06:44Z</time></trkpt>
<trkpt lat="44.475837" lon="-121.850033"><ele>1924.6</ele><time>2024-08-10T22:06:52Z</time></trkpt>
<trkpt lat="44.476334" lon="-121.849769"><ele>1926.4</ele><time>2024-08-10T22:07:51Z</time></trkpt>
<trkpt lat="44.476968" lon="-121.849717"><ele>1927.6</ele><time>2024-08-10T22:08:44Z</time></trkpt>
<trkpt lat="44.477360" lon="-121.850095"><ele>1926.0</ele><time>2024-08-10T22:09:25Z</time></trkpt>
<trkpt lat="44.477918" lon="-121.850394"><ele>1921.4</ele><time>2024-08-10T22:10:21Z</time></trkpt>
<trkpt lat="44.478298" lon="-121.850460"><ele>1922.4</ele><time>2024-08-10T22:10:51Z</time></trkpt>
<trkpt lat="44.478750" lon="-121.850682"><ele>1922.4</ele><time>2024-08-10T22:11:27Z</time></trkpt>
<trkpt lat="44.479695" lon="-121.851349"><ele>1920.8</ele><time>2024-08-10T22:13:04Z</time></trkpt>
<trkpt lat="44.480743" lon="-121.852598"><ele>1924.6</ele><time>2024-08-10T22:14:57Z</time></trkpt>
<trkpt lat="44.480962" lon="-121.853122"><ele>1926.8</ele><time>2024-08-10T22:15:21Z</time></trkpt>
<trkpt lat="44.481401" lon="-121.853897"><ele>1933.8</ele><time>2024-08-10T22:16:46Z</time></trkpt>
<trkpt lat="44.481531" lon="-121.854020"><ele>1934.6</ele><time>2024-08-10T22:16:57Z</time></trkpt>
<trkpt lat="44.481551" lon="-121.854126"><ele>1935.2</ele><time>2024-08-10T22:17:04Z</time></trkpt>
<trkpt lat="44.481765" lon="-121.854295"><ele>1936.8</ele><time>2024-08-10T22:17:17Z</time></trkpt>
<trkpt lat="44.482774" lon="-121.854346"><ele>1943.0</ele><time>2024-08-10T22:19:03Z</time></trkpt>
<trkpt lat="44.483875" lon="-121.853942"><ele>1946.0</ele><time>2024-08-10T22:20:44Z</time></trkpt>
<trkpt lat="44.484034" lon="-121.853964"><ele>1946.2</ele><time>2024-08-10T22:20:58Z</time></trkpt>
<trkpt lat="44.485419" lon="-121.853527"><ele>1950.6</ele><time>2024-08-10T22:22:53Z</time></trkpt>
<trkpt lat="44.486734" lon="-121.854023"><ele>1954.8</ele><time>2024-08-10T22:25:01Z</time></trkpt>
<trkpt lat="44.487140" lon="-121.853863"><ele>1960.6</ele><time>2024-08-10T22:26:44Z</time></trkpt>
<trkpt lat="44.486808" lon="-121.853061"><ele>1967.4</ele><time>2024-08-10T22:27:38Z</time></trkpt>
<trkpt lat="44.486803" lon="-121.852534"><ele>1969.0</ele><time>2024-08-10T22:28:26Z</time></trkpt>
<trkpt lat="44.486706" lon="-121.852105"><ele>1969.6</ele><time>2024-08-10T22:28:48Z</time></trkpt>
<trkpt lat="44.487348" lon="-121.850277"><ele>1972.0</ele><time>2024-08-10T22:30:45Z</time></trkpt>
<trkpt lat="44.487993" lon="-121.849266"><ele>1971.0</ele><time>2024-08-10T22:31:48Z</time></trkpt>
<trkpt lat="44.488169" lon="-121.849084"><ele>1971.8</ele><time>2024-08-10T22:32:48Z</time></trkpt>
<trkpt lat="44.487983" lon="-121.849066"><ele>1971.2</ele><time>2024-08-10T22:33:01Z</time></trkpt>
<trkpt lat="44.488192" lon="-121.848529"><ele>1973.8</ele><time>2024-08-10T22:34:45Z</time></trkpt>
<trkpt lat="44.488750" lon="-121.847948"><ele>1978.6</ele><time>2024-08-10T22:35:44Z</time></trkpt>
<trkpt lat="44.489363" lon="-121.847557"><ele>1984.8</ele><time>2024-08-10T22:36:45Z</time></trkpt>
<trkpt lat="44.489438" lon="-121.847417"><ele>1985.2</ele><time>2024-08-10T22:36:58Z</time></trkpt>
<trkpt lat="44.489830" lon="-121.847139"><ele>1994.6</ele><time>2024-08-10T22:38:08Z</time></trkpt>
<trkpt lat="44.490665" lon="-121.846463"><ele>1985.6</ele><time>2024-08-10T22:39:32Z</time></trkpt>
<trkpt lat="44.490353" lon="-121.846645"><ele>1982.2</ele><time>2024-08-10T22:40:08Z</time></trkpt>
<trkpt lat="44.490103" lon="-121.846680"><ele>1978.2</ele><time>2024-08-10T22:40:38Z</time></trkpt>
<trkpt lat="44.490381" lon="-121.846406"><ele>1975.4</ele><time>2024-08-10T22:41:02Z</time></trkpt>
<trkpt lat="44.490447" lon="-121.846247"><ele>1971.2</ele><time>2024-08-10T22:41:36Z</time></trkpt>
<trkpt lat="44.490093" lon="-121.846555"><ele>1964.0</ele><time>2024-08-10T22:42:32Z</time></trkpt>
<trkpt lat="44.490054" lon="-121.846339"><ele>1961.6</ele><time>2024-08-10T22:42:45Z</time></trkpt>
<trkpt lat="44.490357" lon="-121.846174"><ele>1959.2</ele><time>2024-08-10T22:43:05Z</time></trkpt>
<trkpt lat="44.490557" lon="-121.845753"><ele>1957.0</ele><time>2024-08-10T22:43:32Z</time></trkpt>
<trkpt lat="44.490923" lon="-121.845309"><ele>1951.4</ele><time>2024-08-10T22:44:40Z</time></trkpt>
<trkpt lat="44.491000" lon="-121.845073"><ele>1950.4</ele><time>2024-08-10T22:44:50Z</time></trkpt>
<trkpt lat="44.491157" lon="-121.845103"><ele>1950.2</ele><time>2024-08-10T22:44:53Z</time></trkpt>
<trkpt lat="44.491124" lon="-121.845130"><ele>1949.8</ele><time>2024-08-10T22:44:58Z</time></trkpt>
<trkpt lat="44.491863" lon="-121.844185"><ele>1940.2</ele><time>2024-08-10T22:46:26Z</time></trkpt>
<trkpt lat="44.492160" lon="-121.844106"><ele>1937.2</ele><time>2024-08-10T22:46:46Z</time></trkpt>
<trkpt lat="44.492055" lon="-121.843985"><ele>1937.0</ele><time>2024-08-10T22:46:47Z</time></trkpt>
<trkpt lat="44.492106" lon="-121.843898"><ele>1934.2</ele><time>2024-08-10T22:46:56Z</time></trkpt>
<trkpt lat="44.492415" lon="-121.843750"><ele>1931.0</ele><time>2024-08-10T22:47:20Z</time></trkpt>
<trkpt lat="44.492942" lon="-121.843183"><ele>1924.4</ele><time>2024-08-10T22:48:12Z</time></trkpt>
<trkpt lat="44.493272" lon="-121.842937"><ele>1920.0</ele><time>2024-08-10T22:48:47Z</time></trkpt>
<trkpt lat="44.493353" lon="-121.842761"><ele>1917.8</ele><time>2024-08-10T22:48:59Z</time></trkpt>
<trkpt lat="44.494321" lon="-121.841678"><ele>1905.6</ele><time>2024-08-10T22:50:46Z</time></trkpt>
<trkpt lat="44.494235" lon="-121.841592"><ele>1905.0</ele><time>2024-08-10T22:50:50Z</time></trkpt>
<trkpt lat="44.494349" lon="-121.841691"><ele>1902.8</ele><time>2024-08-10T22:51:05Z</time></trkpt>
<trkpt lat="44.494520" lon="-121.841534"><ele>1901.8</ele><time>2024-08-10T22:51:36Z</time></trkpt>
<trkpt lat="44.494838" lon="-121.841553"><ele>1896.2</ele><time>2024-08-10T22:52:38Z</time></trkpt>
<trkpt lat="44.494985" lon="-121.841458"><ele>1894.6</ele><time>2024-08-10T22:52:47Z</time></trkpt>
<trkpt lat="44.494976" lon="-121.841308"><ele>1894.4</ele><time>2024-08-10T22:52:53Z</time></trkpt>
<trkpt lat="44.495097" lon="-121.841311"><ele>1893.8</ele><time>2024-08-10T22:52:57Z</time></trkpt>
<trkpt lat="44.495362" lon="-121.841019"><ele>1890.4</ele><time>2024-08-10T22:53:21Z</time></trkpt>
<trkpt lat="44.495427" lon="-121.840764"><ele>1887.6</ele><time>2024-08-10T22:53:39Z</time></trkpt>
<trkpt lat="44.496004" lon="-121.840610"><ele>1880.6</ele><time>2024-08-10T22:54:29Z</time></trkpt>
<trkpt lat="44.496224" lon="-121.840424"><ele>1877.6</ele><time>2024-08-10T22:54:51Z</time></trkpt>
<trkpt lat="44.496298" lon="-121.840556"><ele>1876.2</ele><time>2024-08-10T22:54:58Z</time></trkpt>
<trkpt lat="44.496949" lon="-121.839578"><ele>1866.8</ele><time>2024-08-10T22:56:28Z</time></trkpt>
<trkpt lat="44.497091" lon="-121.839494"><ele>1865.6</ele><time>2024-08-10T22:56:38Z</time></trkpt>
<trkpt lat="44.497187" lon="-121.839332"><ele>1865.0</ele><time>2024-08-10T22:56:46Z</time></trkpt>
<trkpt lat="44.497473" lon="-121.839272"><ele>1863.0</ele><time>2024-08-10T22:57:01Z</time></trkpt>
<trkpt lat="44.497890" lon="-121.838984"><ele>1860.4</ele><time>2024-08-10T22:58:52Z</time></trkpt>
<trkpt lat="44.497920" lon="-121.839040"><ele>1860.4</ele><time>2024-08-10T22:59:00Z</time></trkpt>
<trkpt lat="44.498536" lon="-121.838919"><ele>1861.2</ele><time>2024-08-10T23:00:12Z</time></trkpt>
<trkpt lat="44.498805" lon="-121.838697"><ele>1858.0</ele><time>2024-08-10T23:00:45Z</time></trkpt>
<trkpt lat="44.498797" lon="-121.838555"><ele>1857.4</ele><time>2024-08-10T23:00:47Z</time></trkpt>
<trkpt lat="44.498854" lon="-121.838514"><ele>1857.0</ele><time>2024-08-10T23:00:53Z</time></trkpt>
<trkpt lat="44.499382" lon="-121.838415"><ele>1854.2</ele><time>2024-08-10T23:01:42Z</time></trkpt>
<trkpt lat="44.499688" lon="-121.838070"><ele>1851.6</ele><time>2024-08-10T23:02:12Z</time></trkpt>
<trkpt lat="44.500075" lon="-121.837496"><ele>1848.2</ele><time>2024-08-10T23:02:54Z</time></trkpt>
<trkpt lat="44.500115" lon="-121.837328"><ele>1847.4</ele><time>2024-08-10T23:03:05Z</time></trkpt>
<trkpt lat="44.500449" lon="-121.836892"><ele>1844.0</ele><time>2024-08-10T23:04:02Z</time></trkpt>
<trkpt lat="44.501151" lon="-121.836253"><ele>1836.2</ele><time>2024-08-10T23:04:48Z</time></trkpt>
<trkpt lat="44.501235" lon="-121.836409"><ele>1835.4</ele><time>2024-08-10T23:04:59Z</time></trkpt>
<trkpt lat="44.501941" lon="-121.835746"><ele>1824.2</ele><time>2024-08-10T23:06:28Z</time></trkpt>
<trkpt lat="44.502296" lon="-121.835644"><ele>1821.4</ele><time>2024-08-10T23:06:45Z</time></trkpt>
<trkpt lat="44.502448" lon="-121.835286"><ele>1817.6</ele><time>2024-08-10T23:07:08Z</time></trkpt>
<trkpt lat="44.502833" lon="-121.834917"><ele>1812.0</ele><time>2024-08-10T23:07:44Z</time></trkpt>
<trkpt lat="44.503031" lon="-121.834430"><ele>1807.8</ele><time>2024-08-10T23:08:24Z</time></trkpt>
<trkpt lat="44.503074" lon="-121.834011"><ele>1805.0</ele><time>2024-08-10T23:08:45Z</time></trkpt>
<trkpt lat="44.503423" lon="-121.833661"><ele>1799.8</ele><time>2024-08-10T23:09:18Z</time></trkpt>
<trkpt lat="44.503422" lon="-121.833513"><ele>1798.6</ele><time>2024-08-10T23:09:26Z</time></trkpt>
<trkpt lat="44.503976" lon="-121.832543"><ele>1788.6</ele><time>2024-08-10T23:10:32Z</time></trkpt>
<trkpt lat="44.504025" lon="-121.832279"><ele>1786.0</ele><time>2024-08-10T23:10:46Z</time></trkpt>
<trkpt lat="44.503976" lon="-121.832147"><ele>1784.6</ele><time>2024-08-10T23:10:55Z</time></trkpt>
<trkpt lat="44.504003" lon="-121.831495"><ele>1780.4</ele><time>2024-08-10T23:11:26Z</time></trkpt>
<trkpt lat="44.503875" lon="-121.831143"><ele>1776.6</ele><time>2024-08-10T23:12:02Z</time></trkpt>
<trkpt lat="44.503579" lon="-121.830802"><ele>1773.8</ele><time>2024-08-10T23:12:42Z</time></trkpt>
<trkpt lat="44.503671" lon="-121.830690"><ele>1773.6</ele><time>2024-08-10T23:12:53Z</time></trkpt>
<trkpt lat="44.503634" lon="-121.830715"><ele>1773.4</ele><time>2024-08-10T23:12:59Z</time></trkpt>
<trkpt lat="44.503495" lon="-121.830206"><ele>1770.6</ele><time>2024-08-10T23:14:00Z</time></trkpt>
<trkpt lat="44.503147" lon="-121.829971"><ele>1768.2</ele><time>2024-08-10T23:14:49Z</time></trkpt>
<trkpt lat="44.503154" lon="-121.829799"><ele>1768.0</ele><time>2024-08-10T23:14:55Z</time></trkpt>
<trkpt lat="44.503504" lon="-121.829517"><ele>1764.0</ele><time>2024-08-10T23:15:40Z</time></trkpt>
<trkpt lat="44.503859" lon="-121.829346"><ele>1760.8</ele><time>2024-08-10T23:16:26Z</time></trkpt>
<trkpt lat="44.504319" lon="-121.828852"><ele>1757.8</ele><time>2024-08-10T23:17:02Z</time></trkpt>
<trkpt lat="44.504478" lon="-121.828538"><ele>1757.2</ele><time>2024-08-10T23:17:22Z</time></trkpt>
<trkpt lat="44.504778" lon="-121.828177"><ele>1755.2</ele><time>2024-08-10T23:18:04Z</time></trkpt>
<trkpt lat="44.504820" lon="-121.828075"><ele>1754.2</ele><time>2024-08-10T23:18:26Z</time></trkpt>
<trkpt lat="44.504805" lon="-121.827622"><ele>1753.0</ele><time>2024-08-10T23:18:45Z</time></trkpt>
<trkpt lat="44.504753" lon="-121.827581"><ele>1752.8</ele><time>2024-08-10T23:18:46Z</time></trkpt>
<trkpt lat="44.504787" lon="-121.827506"><ele>1752.4</ele><time>2024-08-10T23:18:50Z</time></trkpt>
<trkpt lat="44.504631" lon="-121.827459"><ele>1749.8</ele><time>2024-08-10T23:19:04Z</time></trkpt>
<trkpt lat="44.504484" lon="-121.827212"><ele>1745.2</ele><time>2024-08-10T23:19:32Z</time></trkpt>
<trkpt lat="44.504199" lon="-121.827232"><ele>1740.8</ele><time>2024-08-10T23:20:12Z</time></trkpt>
<trkpt lat="44.504306" lon="-121.827221"><ele>1739.8</ele><time>2024-08-10T23:20:40Z</time></trkpt>
<trkpt lat="44.504433" lon="-121.827041"><ele>1738.2</ele><time>2024-08-10T23:20:51Z</time></trkpt>
<trkpt lat="44.504379" lon="-121.826942"><ele>1737.6</ele><time>2024-08-10T23:20:54Z</time></trkpt>
<trkpt lat="44.504588" lon="-121.826692"><ele>1736.2</ele><time>2024-08-10T23:21:14Z</time></trkpt>
<trkpt lat="44.504660" lon="-121.826499"><ele>1731.8</ele><time>2024-08-10T23:21:54Z</time></trkpt>
<trkpt lat="44.504928" lon="-121.826255"><ele>1728.4</ele><time>2024-08-10T23:22:26Z</time></trkpt>
<trkpt lat="44.505162" lon="-121.825895"><ele>1724.6</ele><time>2024-08-10T23:22:46Z</time></trkpt>
<trkpt lat="44.505434" lon="-121.825784"><ele>1722.4</ele><time>2024-08-10T23:22:59Z</time></trkpt>
<trkpt lat="44.505559" lon="-121.825560"><ele>1720.8</ele><time>2024-08-10T23:23:10Z</time></trkpt>
<trkpt lat="44.505750" lon="-121.825014"><ele>1715.4</ele><time>2024-08-10T23:23:56Z</time></trkpt>
<trkpt lat="44.505736" lon="-121.824551"><ele>1713.2</ele><time>2024-08-10T23:24:18Z</time></trkpt>
<trkpt lat="44.505867" lon="-121.824246"><ele>1711.4</ele><time>2024-08-10T23:24:34Z</time></trkpt>
<trkpt lat="44.506006" lon="-121.824161"><ele>1710.2</ele><time>2024-08-10T23:24:49Z</time></trkpt>
<trkpt lat="44.505921" lon="-121.823919"><ele>1710.0</ele><time>2024-08-10T23:24:57Z</time></trkpt>
<trkpt lat="44.505938" lon="-121.823807"><ele>1708.8</ele><time>2024-08-10T23:25:05Z</time></trkpt>
<trkpt lat="44.506229" lon="-121.823400"><ele>1706.8</ele><time>2024-08-10T23:25:24Z</time></trkpt>
<trkpt lat="44.506319" lon="-121.822851"><ele>1701.2</ele><time>2024-08-10T23:26:16Z</time></trkpt>
<trkpt lat="44.506574" lon="-121.822170"><ele>1697.0</ele><time>2024-08-10T23:27:05Z</time></trkpt>
<trkpt lat="44.506755" lon="-121.822031"><ele>1696.0</ele><time>2024-08-10T23:27:14Z</time></trkpt>
<trkpt lat="44.507211" lon="-121.822090"><ele>1696.2</ele><time>2024-08-10T23:27:52Z</time></trkpt>
<trkpt lat="44.507495" lon="-121.822458"><ele>1695.0</ele><time>2024-08-10T23:28:45Z</time></trkpt>
<trkpt lat="44.507432" lon="-121.822390"><ele>1694.4</ele><time>2024-08-10T23:28:55Z</time></trkpt>
<trkpt lat="44.507466" lon="-121.822324"><ele>1694.4</ele><time>2024-08-10T23:28:59Z</time></trkpt>
<trkpt lat="44.507777" lon="-121.822133"><ele>1692.6</ele><time>2024-08-10T23:29:40Z</time></trkpt>
<trkpt lat="44.508006" lon="-121.821881"><ele>1690.4</ele><time>2024-08-10T23:30:10Z</time></trkpt>
<trkpt lat="44.508522" lon="-121.821664"><ele>1689.4</ele><time>2024-08-10T23:30:45Z</time></trkpt>
<trkpt lat="44.508532" lon="-121.821502"><ele>1689.4</ele><time>2024-08-10T23:30:55Z</time></trkpt>
<trkpt lat="44.508745" lon="-121.821058"><ele>1687.2</ele><time>2024-08-10T23:31:25Z</time></trkpt>
<trkpt lat="44.509201" lon="-121.820582"><ele>1684.0</ele><time>2024-08-10T23:32:31Z</time></trkpt>
<trkpt lat="44.509355" lon="-121.820237"><ele>1683.0</ele><time>2024-08-10T23:32:47Z</time></trkpt>
<trkpt lat="44.509654" lon="-121.820197"><ele>1680.8</ele><time>2024-08-10T23:33:03Z</time></trkpt>
<trkpt lat="44.510390" lon="-121.819219"><ele>1672.0</ele><time>2024-08-10T23:34:46Z</time></trkpt>
<trkpt lat="44.510290" lon="-121.819020"><ele>1671.0</ele><time>2024-08-10T23:34:54Z</time></trkpt>
<trkpt lat="44.510356" lon="-121.818819"><ele>1670.0</ele><time>2024-08-10T23:35:04Z</time></trkpt>
<trkpt lat="44.510341" lon="-121.818304"><ele>1667.8</ele><time>2024-08-10T23:35:35Z</time></trkpt>
<trkpt lat="44.510192" lon="-121.818134"><ele>1664.4</ele><time>2024-08-10T23:37:02Z</time></trkpt>
<trkpt lat="44.510193" lon="-121.818045"><ele>1663.2</ele><time>2024-08-10T23:38:47Z</time></trkpt>
<trkpt lat="44.510110" lon="-121.818157"><ele>1664.2</ele><time>2024-08-10T23:40:21Z</time></trkpt>
<trkpt lat="44.510031" lon="-121.817989"><ele>1663.6</ele><time>2024-08-10T23:40:49Z</time></trkpt>
<trkpt lat="44.510148" lon="-121.817996"><ele>1663.2</ele><time>2024-08-10T23:41:01Z</time></trkpt>
<trkpt lat="44.510170" lon="-121.818127"><ele>1663.4</ele><time>2024-08-10T23:42:55Z</time></trkpt>
<trkpt lat="44.510137" lon="-121.818049"><ele>1664.2</ele><time>2024-08-10T23:44:48Z</time></trkpt>
<trkpt lat="44.510232" lon="-121.818052"><ele>1663.4</ele><time>2024-08-10T23:45:06Z</time></trkpt>
<trkpt lat="44.510147" lon="-121.818139"><ele>1663.6</ele><time>2024-08-10T23:46:50Z</time></trkpt>
<trkpt lat="44.510204" lon="-121.818029"><ele>1663.6</ele><time>2024-08-10T23:46:52Z</time></trkpt>
<trkpt lat="44.510237" lon="-121.818130"><ele>1663.8</ele><time>2024-08-10T23:48:45Z</time></trkpt>
<trkpt lat="44.510182" lon="-121.818054"><ele>1663.6</ele><time>2024-08-10T23:48:55Z</time></trkpt>
<trkpt lat="44.510169" lon="-121.818118"><ele>1663.4</ele><time>2024-08-10T23:50:58Z</time></trkpt>
<trkpt lat="44.510220" lon="-121.818061"><ele>1663.2</ele><time>2024-08-10T23:55:02Z</time></trkpt>
<trkpt lat="44.510266" lon="-121.818130"><ele>1663.6</ele><time>2024-08-10T23:58:47Z</time></trkpt>
<trkpt lat="44.510180" lon="-121.818110"><ele>1663.8</ele><time>2024-08-10T23:58:57Z</time></trkpt>
<trkpt lat="44.510183" lon="-121.818044"><ele>1665.0</ele><time>2024-08-11T00:01:12Z</time></trkpt>
<trkpt lat="44.510185" lon="-121.818110"><ele>1664.4</ele><time>2024-08-11T00:01:46Z</time></trkpt>
<trkpt lat="44.510147" lon="-121.818078"><ele>1664.0</ele><time>2024-08-11T00:02:08Z</time></trkpt>
<trkpt lat="44.510203" lon="-121.818058"><ele>1664.0</ele><time>2024-08-11T00:02:41Z</time></trkpt>
<trkpt lat="44.510164" lon="-121.818060"><ele>1666.2</ele><time>2024-08-11T00:03:37Z</time></trkpt>
<trkpt lat="44.510208" lon="-121.818119"><ele>1665.4</ele><time>2024-08-11T00:04:12Z</time></trkpt>
<trkpt lat="44.510146" lon="-121.818105"><ele>1666.6</ele><time>2024-08-11T00:05:19Z</time></trkpt>
<trkpt lat="44.510244" lon="-121.818165"><ele>1665.6</ele><time>2024-08-11T00:05:38Z</time></trkpt>
<trkpt lat="44.510164" lon="-121.818148"><ele>1665.8</ele><time>2024-08-11T00:06:04Z</time></trkpt>
<trkpt lat="44.510156" lon="-121.818083"><ele>1666.6</ele><time>2024-08-11T00:06:37Z</time></trkpt>
<trkpt lat="44.510210" lon="-121.818086"><ele>1666.0</ele><time>2024-08-11T00:08:10Z</time></trkpt>
<trkpt lat="44.510155" lon="-121.818067"><ele>1666.6</ele><time>2024-08-11T00:09:10Z</time></trkpt>
<trkpt lat="44.510394" lon="-121.817993"><ele>1670.0</ele><time>2024-08-11T00:10:08Z</time></trkpt>
<trkpt lat="44.510577" lon="-121.817490"><ele>1669.2</ele><time>2024-08-11T00:10:44Z</time></trkpt>
<trkpt lat="44.511667" lon="-121.817290"><ele>1668.6</ele><time>2024-08-11T00:12:37Z</time></trkpt>
<trkpt lat="44.511989" lon="-121.816850"><ele>1671.2</ele><time>2024-08-11T00:13:16Z</time></trkpt>
<trkpt lat="44.512137" lon="-121.816769"><ele>1673.4</ele><time>2024-08-11T00:13:35Z</time></trkpt>
<trkpt lat="44.512150" lon="-121.816655"><ele>1673.8</ele><time>2024-08-11T00:13:40Z</time></trkpt>
<trkpt lat="44.512067" lon="-121.816675"><ele>1675.0</ele><time>2024-08-11T00:13:46Z</time></trkpt>
<trkpt lat="44.511841" lon="-121.816531"><ele>1675.4</ele><time>2024-08-11T00:14:04Z</time></trkpt>
<trkpt lat="44.511815" lon="-121.816068"><ele>1677.4</ele><time>2024-08-11T00:14:34Z</time></trkpt>
<trkpt lat="44.511948" lon="-121.815700"><ele>1677.8</ele><time>2024-08-11T00:14:57Z</time></trkpt>
<trkpt lat="44.511791" lon="-121.815434"><ele>1676.6</ele><time>2024-08-11T00:15:16Z</time></trkpt>
<trkpt lat="44.511748" lon="-121.815115"><ele>1676.6</ele><time>2024-08-11T00:15:34Z</time></trkpt>
<trkpt lat="44.511933" lon="-121.814565"><ele>1675.8</ele><time>2024-08-11T00:16:04Z</time></trkpt>
<trkpt lat="44.511884" lon="-121.814334"><ele>1675.0</ele><time>2024-08-11T00:16:17Z</time></trkpt>
<trkpt lat="44.511908" lon="-121.814013"><ele>1674.2</ele><time>2024-08-11T00:16:32Z</time></trkpt>
<trkpt lat="44.512183" lon="-121.814669"><ele>1673.2</ele><time>2024-08-11T00:17:07Z</time></trkpt>
<trkpt lat="44.512396" lon="-121.814722"><ele>1670.2</ele><time>2024-08-11T00:17:29Z</time></trkpt>
<trkpt lat="44.512467" lon="-121.814667"><ele>1669.0</ele><time>2024-08-11T00:17:34Z</time></trkpt>
<trkpt lat="44.512613" lon="-121.813913"><ele>1660.2</ele><time>2024-08-11T00:18:21Z</time></trkpt>
<trkpt lat="44.512788" lon="-121.813870"><ele>1659.6</ele><time>2024-08-11T00:18:40Z</time></trkpt>
<trkpt lat="44.512844" lon="-121.813774"><ele>1658.8</ele><time>2024-08-11T00:18:48Z</time></trkpt>
<trkpt lat="44.512656" lon="-121.813730"><ele>1655.2</ele><time>2024-08-11T00:19:12Z</time></trkpt>
<trkpt lat="44.512642" lon="-121.813650"><ele>1654.6</ele><time>2024-08-11T00:19:16Z</time></trkpt>
<trkpt lat="44.512945" lon="-121.813287"><ele>1652.0</ele><time>2024-08-11T00:19:48Z</time></trkpt>
<trkpt lat="44.512991" lon="-121.813037"><ele>1650.2</ele><time>2024-08-11T00:20:01Z</time></trkpt>
<trkpt lat="44.514008" lon="-121.811644"><ele>1641.6</ele><time>2024-08-11T00:21:47Z</time></trkpt>
<trkpt lat="44.513977" lon="-121.811271"><ele>1644.0</ele><time>2024-08-11T00:22:14Z</time></trkpt>
<trkpt lat="44.514319" lon="-121.811071"><ele>1646.6</ele><time>2024-08-11T00:22:43Z</time></trkpt>
<trkpt lat="44.514523" lon="-121.811092"><ele>1646.4</ele><time>2024-08-11T00:23:02Z</time></trkpt>
<trkpt lat="44.515469" lon="-121.811533"><ele>1651.4</ele><time>2024-08-11T00:24:37Z</time></trkpt>
<trkpt lat="44.515736" lon="-121.811732"><ele>1651.8</ele><time>2024-08-11T00:24:49Z</time></trkpt>
<trkpt lat="44.515863" lon="-121.811917"><ele>1653.0</ele><time>2024-08-11T00:25:05Z</time></trkpt>
<trkpt lat="44.516417" lon="-121.811783"><ele>1662.6</ele><time>2024-08-11T00:26:25Z</time></trkpt>
<trkpt lat="44.516845" lon="-121.811565"><ele>1665.6</ele><time>2024-08-11T00:26:46Z</time></trkpt>
<trkpt lat="44.516968" lon="-121.811734"><ele>1666.0</ele><time>2024-08-11T00:26:48Z</time></trkpt>
<trkpt lat="44.517156" lon="-121.811683"><ele>1666.2</ele><time>2024-08-11T00:27:05Z</time></trkpt>
<trkpt lat="44.517208" lon="-121.811749"><ele>1666.6</ele><time>2024-08-11T00:27:08Z</time></trkpt>
<trkpt lat="44.517725" lon="-121.811785"><ele>1667.0</ele><time>2024-08-11T00:27:43Z</time></trkpt>
<trkpt lat="44.517711" lon="-121.811727"><ele>1667.2</ele><time>2024-08-11T00:27:49Z</time></trkpt>
<trkpt lat="44.517847" lon="-121.811608"><ele>1668.2</ele><time>2024-08-11T00:28:00Z</time></trkpt>
<trkpt lat="44.518550" lon="-121.811269"><ele>1671.2</ele><time>2024-08-11T00:29:09Z</time></trkpt>
<trkpt lat="44.519177" lon="-121.810787"><ele>1671.8</ele><time>2024-08-11T00:29:50Z</time></trkpt>
<trkpt lat="44.519298" lon="-121.810612"><ele>1671.6</ele><time>2024-08-11T00:30:06Z</time></trkpt>
<trkpt lat="44.519715" lon="-121.810834"><ele>1677.4</ele><time>2024-08-11T00:30:57Z</time></trkpt>
<trkpt lat="44.520149" lon="-121.811428"><ele>1681.0</ele><time>2024-08-11T00:31:48Z</time></trkpt>
<trkpt lat="44.520290" lon="-121.812114"><ele>1687.0</ele><time>2024-08-11T00:32:32Z</time></trkpt>
<trkpt lat="44.520272" lon="-121.812359"><ele>1688.6</ele><time>2024-08-11T00:32:52Z</time></trkpt>
<trkpt lat="44.520635" lon="-121.813555"><ele>1697.8</ele><time>2024-08-11T00:34:33Z</time></trkpt>
<trkpt lat="44.520748" lon="-121.813866"><ele>1699.0</ele><time>2024-08-11T00:34:46Z</time></trkpt>
<trkpt lat="44.520741" lon="-121.813804"><ele>1699.0</ele><time>2024-08-11T00:34:47Z</time></trkpt>
<trkpt lat="44.521018" lon="-121.813950"><ele>1699.2</ele><time>2024-08-11T00:35:06Z</time></trkpt>
<trkpt lat="44.521013" lon="-121.814057"><ele>1699.6</ele><time>2024-08-11T00:35:12Z</time></trkpt>
<trkpt lat="44.521262" lon="-121.814408"><ele>1700.8</ele><time>2024-08-11T00:35:17Z</time></trkpt>
<trkpt lat="44.521162" lon="-121.814405"><ele>1701.6</ele><time>2024-08-11T00:35:43Z</time></trkpt>
<trkpt lat="44.521473" lon="-121.814534"><ele>1704.8</ele><time>2024-08-11T00:36:06Z</time></trkpt>
<trkpt lat="44.521693" lon="-121.814468"><ele>1706.8</ele><time>2024-08-11T00:36:30Z</time></trkpt>
<trkpt lat="44.522036" lon="-121.814173"><ele>1709.2</ele><time>2024-08-11T00:37:24Z</time></trkpt>
<trkpt lat="44.522385" lon="-121.814058"><ele>1712.0</ele><time>2024-08-11T00:37:47Z</time></trkpt>
<trkpt lat="44.522342" lon="-121.814048"><ele>1712.2</ele><time>2024-08-11T00:37:48Z</time></trkpt>
<trkpt lat="44.522571" lon="-121.813865"><ele>1712.2</ele><time>2024-08-11T00:38:09Z</time></trkpt>
<trkpt lat="44.522738" lon="-121.813786"><ele>1712.2</ele><time>2024-08-11T00:38:30Z</time></trkpt>
<trkpt lat="44.522988" lon="-121.813799"><ele>1712.6</ele><time>2024-08-11T00:38:43Z</time></trkpt>
<trkpt lat="44.522963" lon="-121.813714"><ele>1713.0</ele><time>2024-08-11T00:38:49Z</time></trkpt>
<trkpt lat="44.523145" lon="-121.813644"><ele>1713.6</ele><time>2024-08-11T00:39:04Z</time></trkpt>
<trkpt lat="44.523744" lon="-121.813849"><ele>1717.6</ele><time>2024-08-11T00:40:06Z</time></trkpt>
<trkpt lat="44.524261" lon="-121.814231"><ele>1722.0</ele><time>2024-08-11T00:40:49Z</time></trkpt>
<trkpt lat="44.524275" lon="-121.814181"><ele>1722.2</ele><time>2024-08-11T00:40:55Z</time></trkpt>
<trkpt lat="44.524689" lon="-121.814379"><ele>1723.0</ele><time>2024-08-11T00:41:26Z</time></trkpt>
<trkpt lat="44.524826" lon="-121.814561"><ele>1724.0</ele><time>2024-08-11T00:41:42Z</time></trkpt>
<trkpt lat="44.525579" lon="-121.814545"><ele>1725.0</ele><time>2024-08-11T00:42:47Z</time></trkpt>
<trkpt lat="44.525417" lon="-121.813973"><ele>1725.0</ele><time>2024-08-11T00:42:51Z</time></trkpt>
<trkpt lat="44.525696" lon="-121.813716"><ele>1725.8</ele><time>2024-08-11T00:43:12Z</time></trkpt>
<trkpt lat="44.525943" lon="-121.814115"><ele>1729.2</ele><time>2024-08-11T00:43:56Z</time></trkpt>
<trkpt lat="44.526486" lon="-121.814212"><ele>1731.6</ele><time>2024-08-11T00:44:56Z</time></trkpt>
<trkpt lat="44.526535" lon="-121.814104"><ele>1731.6</ele><time>2024-08-11T00:45:04Z</time></trkpt>
<trkpt lat="44.526384" lon="-121.813473"><ele>1729.6</ele><time>2024-08-11T00:45:34Z</time></trkpt>
<trkpt lat="44.526246" lon="-121.812505"><ele>1735.0</ele><time>2024-08-11T00:46:47Z</time></trkpt>
<trkpt lat="44.526411" lon="-121.812539"><ele>1735.2</ele><time>2024-08-11T00:46:49Z</time></trkpt>
<trkpt lat="44.526463" lon="-121.812412"><ele>1735.6</ele><time>2024-08-11T00:46:55Z</time></trkpt>
<trkpt lat="44.526551" lon="-121.812488"><ele>1736.4</ele><time>2024-08-11T00:47:05Z</time></trkpt>
<trkpt lat="44.526852" lon="-121.812400"><ele>1741.2</ele><time>2024-08-11T00:47:36Z</time></trkpt>
<trkpt lat="44.526919" lon="-121.812082"><ele>1741.8</ele><time>2024-08-11T00:47:56Z</time></trkpt>
<trkpt lat="44.526892" lon="-121.811967"><ele>1741.4</ele><time>2024-08-11T00:48:04Z</time></trkpt>
<trkpt lat="44.527102" lon="-121.811810"><ele>1743.6</ele><time>2024-08-11T00:48:54Z</time></trkpt>
<trkpt lat="44.527470" lon="-121.811336"><ele>1743.0</ele><time>2024-08-11T00:49:44Z</time></trkpt>
<trkpt lat="44.527932" lon="-121.811087"><ele>1745.4</ele><time>2024-08-11T00:50:48Z</time></trkpt>
<trkpt lat="44.527889" lon="-121.811125"><ele>1746.0</ele><time>2024-08-11T00:50:49Z</time></trkpt>
<trkpt lat="44.528067" lon="-121.811105"><ele>1746.2</ele><time>2024-08-11T00:50:59Z</time></trkpt>
<trkpt lat="44.528096" lon="-121.811038"><ele>1745.2</ele><time>2024-08-11T00:51:04Z</time></trkpt>
<trkpt lat="44.528467" lon="-121.811054"><ele>1746.6</ele><time>2024-08-11T00:51:34Z</time></trkpt>
<trkpt lat="44.528579" lon="-121.811150"><ele>1748.0</ele><time>2024-08-11T00:51:48Z</time></trkpt>
<trkpt lat="44.528618" lon="-121.811304"><ele>1753.6</ele><time>2024-08-11T00:52:08Z</time></trkpt>
<trkpt lat="44.528640" lon="-121.811702"><ele>1754.8</ele><time>2024-08-11T00:52:48Z</time></trkpt>
<trkpt lat="44.528861" lon="-121.811642"><ele>1754.4</ele><time>2024-08-11T00:52:54Z</time></trkpt>
<trkpt lat="44.529139" lon="-121.812090"><ele>1757.0</ele><time>2024-08-11T00:53:38Z</time></trkpt>
<trkpt lat="44.529339" lon="-121.812658"><ele>1763.6</ele><time>2024-08-11T00:54:38Z</time></trkpt>
<trkpt lat="44.529552" lon="-121.812925"><ele>1763.6</ele><time>2024-08-11T00:54:47Z</time></trkpt>
<trkpt lat="44.529705" lon="-121.812603"><ele>1763.6</ele><time>2024-08-11T00:54:49Z</time></trkpt>
<trkpt lat="44.529794" lon="-121.812890"><ele>1764.6</ele><time>2024-08-11T00:55:04Z</time></trkpt>
<trkpt lat="44.529837" lon="-121.812889"><ele>1765.8</ele><time>2024-08-11T00:55:10Z</time></trkpt>
<trkpt lat="44.530107" lon="-121.812625"><ele>1767.2</ele><time>2024-08-11T00:55:46Z</time></trkpt>
<trkpt lat="44.530343" lon="-121.812504"><ele>1768.8</ele><time>2024-08-11T00:56:06Z</time></trkpt>
<trkpt lat="44.530630" lon="-121.812498"><ele>1774.0</ele><time>2024-08-11T00:56:48Z</time></trkpt>
<trkpt lat="44.530777" lon="-121.812615"><ele>1775.6</ele><time>2024-08-11T00:57:03Z</time></trkpt>
<trkpt lat="44.530965" lon="-121.812943"><ele>1778.4</ele><time>2024-08-11T00:57:42Z</time></trkpt>
<trkpt lat="44.531274" lon="-121.813228"><ele>1780.6</ele><time>2024-08-11T00:58:12Z</time></trkpt>
<trkpt lat="44.531578" lon="-121.813858"><ele>1783.8</ele><time>2024-08-11T00:59:05Z</time></trkpt>
<trkpt lat="44.531663" lon="-121.813921"><ele>1786.6</ele><time>2024-08-11T00:59:14Z</time></trkpt>
<trkpt lat="44.531764" lon="-121.814399"><ele>1788.6</ele><time>2024-08-11T00:59:47Z</time></trkpt>
<trkpt lat="44.531739" lon="-121.814504"><ele>1790.4</ele><time>2024-08-11T00:59:57Z</time></trkpt>
<trkpt lat="44.531804" lon="-121.814408"><ele>1790.6</ele><time>2024-08-11T01:00:04Z</time></trkpt>
<trkpt lat="44.532257" lon="-121.814214"><ele>1797.4</ele><time>2024-08-11T01:01:22Z</time></trkpt>
<trkpt lat="44.532635" lon="-121.814260"><ele>1800.8</ele><time>2024-08-11T01:01:47Z</time></trkpt>
<trkpt lat="44.532553" lon="-121.814449"><ele>1800.8</ele><time>2024-08-11T01:01:50Z</time></trkpt>
<trkpt lat="44.532498" lon="-121.814444"><ele>1801.8</ele><time>2024-08-11T01:01:53Z</time></trkpt>
<trkpt lat="44.532671" lon="-121.814490"><ele>1802.6</ele><time>2024-08-11T01:01:58Z</time></trkpt>
<trkpt lat="44.533063" lon="-121.815408"><ele>1809.0</ele><time>2024-08-11T01:03:30Z</time></trkpt>
<trkpt lat="44.533210" lon="-121.815467"><ele>1809.6</ele><time>2024-08-11T01:03:47Z</time></trkpt>
<trkpt lat="44.533225" lon="-121.814791"><ele>1811.6</ele><time>2024-08-11T01:04:04Z</time></trkpt>
<trkpt lat="44.533236" lon="-121.815006"><ele>1811.8</ele><time>2024-08-11T01:04:05Z</time></trkpt>
<trkpt lat="44.533370" lon="-121.814891"><ele>1812.2</ele><time>2024-08-11T01:04:13Z</time></trkpt>
<trkpt lat="44.533403" lon="-121.815009"><ele>1813.0</ele><time>2024-08-11T01:04:23Z</time></trkpt>
<trkpt lat="44.534928" lon="-121.816027"><ele>1822.0</ele><time>2024-08-11T01:06:48Z</time></trkpt>
<trkpt lat="44.534856" lon="-121.815918"><ele>1822.2</ele><time>2024-08-11T01:06:50Z</time></trkpt>
<trkpt lat="44.534927" lon="-121.815948"><ele>1822.6</ele><time>2024-08-11T01:06:53Z</time></trkpt>
<trkpt lat="44.534941" lon="-121.815827"><ele>1823.0</ele><time>2024-08-11T01:06:56Z</time></trkpt>
<trkpt lat="44.535037" lon="-121.815823"><ele>1823.2</ele><time>2024-08-11T01:07:03Z</time></trkpt>
<trkpt lat="44.535283" lon="-121.816133"><ele>1825.8</ele><time>2024-08-11T01:07:46Z</time></trkpt>
<trkpt lat="44.535469" lon="-121.816250"><ele>1831.2</ele><time>2024-08-11T01:08:36Z</time></trkpt>
<trkpt lat="44.535524" lon="-121.816189"><ele>1832.2</ele><time>2024-08-11T01:08:47Z</time></trkpt>
<trkpt lat="44.535488" lon="-121.816152"><ele>1833.0</ele><time>2024-08-11T01:08:53Z</time></trkpt>
<trkpt lat="44.535744" lon="-121.815895"><ele>1834.4</ele><time>2024-08-11T01:09:03Z</time></trkpt>
<trkpt lat="44.536290" lon="-121.816339"><ele>1844.6</ele><time>2024-08-11T01:10:32Z</time></trkpt>
<trkpt lat="44.536731" lon="-121.816797"><ele>1847.2</ele><time>2024-08-11T01:10:49Z</time></trkpt>
<trkpt lat="44.536239" lon="-121.816727"><ele>1847.2</ele><time>2024-08-11T01:10:52Z</time></trkpt>
<trkpt lat="44.536495" lon="-121.816418"><ele>1847.4</ele><time>2024-08-11T01:10:58Z</time></trkpt>
<trkpt lat="44.536461" lon="-121.816385"><ele>1847.8</ele><time>2024-08-11T01:11:02Z</time></trkpt>
<trkpt lat="44.536624" lon="-121.815942"><ele>1851.4</ele><time>2024-08-11T01:11:46Z</time></trkpt>
<trkpt lat="44.536860" lon="-121.815912"><ele>1858.2</ele><time>2024-08-11T01:12:44Z</time></trkpt>
<trkpt lat="44.536775" lon="-121.815796"><ele>1858.4</ele><time>2024-08-11T01:12:47Z</time></trkpt>
<trkpt lat="44.537015" lon="-121.815923"><ele>1858.6</ele><time>2024-08-11T01:12:49Z</time></trkpt>
<trkpt lat="44.537386" lon="-121.816365"><ele>1858.6</ele><time>2024-08-11T01:12:50Z</time></trkpt>
<trkpt lat="44.537344" lon="-121.816203"><ele>1859.4</ele><time>2024-08-11T01:12:55Z</time></trkpt>
<trkpt lat="44.537392" lon="-121.816163"><ele>1859.8</ele><time>2024-08-11T01:13:01Z</time></trkpt>
<trkpt lat="44.538336" lon="-121.816463"><ele>1866.6</ele><time>2024-08-11T01:14:29Z</time></trkpt>
<trkpt lat="44.538585" lon="-121.816722"><ele>1868.4</ele><time>2024-08-11T01:14:50Z</time></trkpt>
<trkpt lat="44.538703" lon="-121.816710"><ele>1868.4</ele><time>2024-08-11T01:14:52Z</time></trkpt>
<trkpt lat="44.538604" lon="-121.816482"><ele>1868.8</ele><time>2024-08-11T01:14:58Z</time></trkpt>
<trkpt lat="44.538615" lon="-121.816380"><ele>1868.8</ele><time>2024-08-11T01:15:03Z</time></trkpt>
<trkpt lat="44.538822" lon="-121.816440"><ele>1870.8</ele><time>2024-08-11T01:15:19Z</time></trkpt>
<trkpt lat="44.538989" lon="-121.816384"><ele>1874.0</ele><time>2024-08-11T01:15:46Z</time></trkpt>
<trkpt lat="44.538766" lon="-121.816212"><ele>1876.0</ele><time>2024-08-11T01:16:06Z</time></trkpt>
<trkpt lat="44.539192" lon="-121.816050"><ele>1887.4</ele><time>2024-08-11T01:17:47Z</time></trkpt>
<trkpt lat="44.538837" lon="-121.816130"><ele>1887.6</ele><time>2024-08-11T01:17:49Z</time></trkpt>
<trkpt lat="44.538996" lon="-121.816150"><ele>1888.8</ele><time>2024-08-11T01:17:54Z</time></trkpt>
<trkpt lat="44.539080" lon="-121.815933"><ele>1889.2</ele><time>2024-08-11T01:17:57Z</time></trkpt>
<trkpt lat="44.539019" lon="-121.815825"><ele>1890.6</ele><time>2024-08-11T01:18:07Z</time></trkpt>
<trkpt lat="44.539529" lon="-121.815612"><ele>1892.2</ele><time>2024-08-11T01:19:12Z</time></trkpt>
<trkpt lat="44.539798" lon="-121.815766"><ele>1894.6</ele><time>2024-08-11T01:19:51Z</time></trkpt>
<trkpt lat="44.539672" lon="-121.815327"><ele>1895.4</ele><time>2024-08-11T01:19:59Z</time></trkpt>
<trkpt lat="44.540066" lon="-121.814986"><ele>1897.0</ele><time>2024-08-11T01:20:19Z</time></trkpt>
<trkpt lat="44.539957" lon="-121.814976"><ele>1898.4</ele><time>2024-08-11T01:20:32Z</time></trkpt>
<trkpt lat="44.540156" lon="-121.814566"><ele>1901.8</ele><time>2024-08-11T01:21:04Z</time></trkpt>
<trkpt lat="44.540410" lon="-121.813806"><ele>1903.6</ele><time>2024-08-11T01:22:12Z</time></trkpt>
<trkpt lat="44.540469" lon="-121.813633"><ele>1908.0</ele><time>2024-08-11T01:22:38Z</time></trkpt>
<trkpt lat="44.540483" lon="-121.813347"><ele>1909.0</ele><time>2024-08-11T01:22:49Z</time></trkpt>
<trkpt lat="44.540741" lon="-121.813341"><ele>1909.4</ele><time>2024-08-11T01:22:53Z</time></trkpt>
<trkpt lat="44.540666" lon="-121.813355"><ele>1909.4</ele><time>2024-08-11T01:22:56Z</time></trkpt>
<trkpt lat="44.540618" lon="-121.813113"><ele>1909.6</ele><time>2024-08-11T01:23:03Z</time></trkpt>
<trkpt lat="44.540543" lon="-121.812200"><ele>1917.4</ele><time>2024-08-11T01:24:02Z</time></trkpt>
<trkpt lat="44.540583" lon="-121.812066"><ele>1916.6</ele><time>2024-08-11T01:24:08Z</time></trkpt>
<trkpt lat="44.540425" lon="-121.811712"><ele>1915.8</ele><time>2024-08-11T01:24:40Z</time></trkpt>
<trkpt lat="44.540395" lon="-121.811600"><ele>1917.6</ele><time>2024-08-11T01:24:47Z</time></trkpt>
<trkpt lat="44.540436" lon="-121.811497"><ele>1918.4</ele><time>2024-08-11T01:24:54Z</time></trkpt>
<trkpt lat="44.540563" lon="-121.811576"><ele>1919.8</ele><time>2024-08-11T01:25:04Z</time></trkpt>
<trkpt lat="44.540792" lon="-121.811882"><ele>1920.6</ele><time>2024-08-11T01:25:38Z</time></trkpt>
<trkpt lat="44.540840" lon="-121.812038"><ele>1919.4</ele><time>2024-08-11T01:25:44Z</time></trkpt>
<trkpt lat="44.540893" lon="-121.812010"><ele>1919.4</ele><time>2024-08-11T01:25:46Z</time></trkpt>
<trkpt lat="44.541017" lon="-121.812263"><ele>1921.4</ele><time>2024-08-11T01:26:07Z</time></trkpt>
<trkpt lat="44.541440" lon="-121.812765"><ele>1922.4</ele><time>2024-08-11T01:27:02Z</time></trkpt>
<trkpt lat="44.541802" lon="-121.812908"><ele>1924.0</ele><time>2024-08-11T01:27:50Z</time></trkpt>
<trkpt lat="44.542163" lon="-121.813250"><ele>1924.0</ele><time>2024-08-11T01:27:53Z</time></trkpt>
<trkpt lat="44.542047" lon="-121.812860"><ele>1924.2</ele><time>2024-08-11T01:27:58Z</time></trkpt>
<trkpt lat="44.542605" lon="-121.812687"><ele>1926.6</ele><time>2024-08-11T01:28:26Z</time></trkpt>
<trkpt lat="44.543334" lon="-121.812191"><ele>1928.8</ele><time>2024-08-11T01:30:04Z</time></trkpt>
<trkpt lat="44.544356" lon="-121.811275"><ele>1927.8</ele><time>2024-08-11T01:31:48Z</time></trkpt>
<trkpt lat="44.544861" lon="-121.810652"><ele>1925.4</ele><time>2024-08-11T01:32:47Z</time></trkpt>
<trkpt lat="44.545137" lon="-121.810630"><ele>1924.2</ele><time>2024-08-11T01:33:19Z</time></trkpt>
<trkpt lat="44.545500" lon="-121.810200"><ele>1923.6</ele><time>2024-08-11T01:33:49Z</time></trkpt>
<trkpt lat="44.545679" lon="-121.809878"><ele>1924.6</ele><time>2024-08-11T01:34:05Z</time></trkpt>
<trkpt lat="44.546251" lon="-121.808006"><ele>1930.2</ele><time>2024-08-11T01:36:06Z</time></trkpt>
<trkpt lat="44.546447" lon="-121.806603"><ele>1913.8</ele><time>2024-08-11T01:37:52Z</time></trkpt>
<trkpt lat="44.546531" lon="-121.806639"><ele>1913.6</ele><time>2024-08-11T01:38:02Z</time></trkpt>
<trkpt lat="44.547408" lon="-121.806286"><ele>1916.4</ele><time>2024-08-11T01:39:52Z</time></trkpt>
<trkpt lat="44.547696" lon="-121.806087"><ele>1917.8</ele><time>2024-08-11T01:40:15Z</time></trkpt>
<trkpt lat="44.549361" lon="-121.805709"><ele>1921.2</ele><time>2024-08-11T01:42:39Z</time></trkpt>
<trkpt lat="44.549569" lon="-121.805608"><ele>1919.4</ele><time>2024-08-11T01:42:50Z</time></trkpt>
<trkpt lat="44.549556" lon="-121.805559"><ele>1919.2</ele><time>2024-08-11T01:42:51Z</time></trkpt>
<trkpt lat="44.550856" lon="-121.805014"><ele>1923.8</ele><time>2024-08-11T01:44:51Z</time></trkpt>
<trkpt lat="44.551416" lon="-121.804880"><ele>1923.2</ele><time>2024-08-11T01:45:43Z</time></trkpt>
<trkpt lat="44.551464" lon="-121.804658"><ele>1922.8</ele><time>2024-08-11T01:46:31Z</time></trkpt>
<trkpt lat="44.551538" lon="-121.804610"><ele>1923.2</ele><time>2024-08-11T01:46:53Z</time></trkpt>
<trkpt lat="44.551569" lon="-121.804664"><ele>1923.2</ele><time>2024-08-11T01:46:55Z</time></trkpt>
<trkpt lat="44.551525" lon="-121.804703"><ele>1923.2</ele><time>2024-08-11T01:46:58Z</time></trkpt>
<trkpt lat="44.551481" lon="-121.804663"><ele>1922.8</ele><time>2024-08-11T01:47:04Z</time></trkpt>
<trkpt lat="44.551506" lon="-121.804707"><ele>1922.8</ele><time>2024-08-11T01:47:06Z</time></trkpt>
<trkpt lat="44.551748" lon="-121.804417"><ele>1923.0</ele><time>2024-08-11T01:48:49Z</time></trkpt>
<trkpt lat="44.552182" lon="-121.804245"><ele>1922.6</ele><time>2024-08-11T01:49:06Z</time></trkpt>
<trkpt lat="44.551985" lon="-121.804345"><ele>1922.6</ele><time>2024-08-11T01:49:08Z</time></trkpt>
<trkpt lat="44.551728" lon="-121.804659"><ele>1922.6</ele><time>2024-08-11T01:49:10Z</time></trkpt>
<trkpt lat="44.551496" lon="-121.804678"><ele>1922.4</ele><time>2024-08-11T01:49:17Z</time></trkpt>
<trkpt lat="44.551477" lon="-121.804595"><ele>1922.8</ele><time>2024-08-11T01:49:42Z</time></trkpt>
<trkpt lat="44.551505" lon="-121.804679"><ele>1922.2</ele><time>2024-08-11T01:49:51Z</time></trkpt>
<trkpt lat="44.551580" lon="-121.804652"><ele>1922.4</ele><time>2024-08-11T01:49:59Z</time></trkpt>
<trkpt lat="44.551293" lon="-121.804767"><ele>1923.8</ele><time>2024-08-11T01:52:07Z</time></trkpt>
<trkpt lat="44.551510" lon="-121.804680"><ele>1923.4</ele><time>2024-08-11T01:52:17Z</time></trkpt>
<trkpt lat="44.551292" lon="-121.803997"><ele>1922.8</ele><time>2024-08-11T01:52:45Z</time></trkpt>
<trkpt lat="44.551432" lon="-121.804591"><ele>1922.6</ele><time>2024-08-11T01:53:00Z</time></trkpt>
<trkpt lat="44.551411" lon="-121.804486"><ele>1922.6</ele><time>2024-08-11T01:53:01Z</time></trkpt>
<trkpt lat="44.551476" lon="-121.804572"><ele>1922.4</ele><time>2024-08-11T01:53:06Z</time></trkpt>
<trkpt lat="44.551422" lon="-121.804744"><ele>1923.0</ele><time>2024-08-11T01:56:05Z</time></trkpt>
<trkpt lat="44.551467" lon="-121.804669"><ele>1924.4</ele><time>2024-08-11T01:56:55Z</time></trkpt>
<trkpt lat="44.551503" lon="-121.804710"><ele>1924.4</ele><time>2024-08-11T01:56:59Z</time></trkpt>
<trkpt lat="44.551433" lon="-121.804727"><ele>1924.2</ele><time>2024-08-11T01:57:07Z</time></trkpt>
<trkpt lat="44.551538" lon="-121.804744"><ele>1923.4</ele><time>2024-08-11T01:57:17Z</time></trkpt>
<trkpt lat="44.551499" lon="-121.804739"><ele>1924.2</ele><time>2024-08-11T01:57:47Z</time></trkpt>
<trkpt lat="44.551527" lon="-121.804666"><ele>1924.0</ele><time>2024-08-11T01:57:57Z</time></trkpt>
<trkpt lat="44.551504" lon="-121.804790"><ele>1924.4</ele><time>2024-08-11T01:59:49Z</time></trkpt>
<trkpt lat="44.551481" lon="-121.804730"><ele>1924.0</ele><time>2024-08-11T02:00:10Z</time></trkpt>
<trkpt lat="44.551543" lon="-121.804656"><ele>1924.6</ele><time>2024-08-11T02:00:40Z</time></trkpt>
<trkpt lat="44.551510" lon="-121.804731"><ele>1924.4</ele><time>2024-08-11T02:00:48Z</time></trkpt>
<trkpt lat="44.551666" lon="-121.804794"><ele>1924.4</ele><time>2024-08-11T02:00:50Z</time></trkpt>
<trkpt lat="44.551551" lon="-121.804690"><ele>1925.0</ele><time>2024-08-11T02:01:06Z</time></trkpt>
<trkpt lat="44.551556" lon="-121.804744"><ele>1924.6</ele><time>2024-08-11T02:01:12Z</time></trkpt>
<trkpt lat="44.551456" lon="-121.804706"><ele>1924.8</ele><time>2024-08-11T02:01:36Z</time></trkpt>
<trkpt lat="44.551483" lon="-121.804785"><ele>1924.4</ele><time>2024-08-11T02:01:42Z</time></trkpt>
<trkpt lat="44.551672" lon="-121.805003"><ele>1925.8</ele><time>2024-08-11T02:01:57Z</time></trkpt>
<trkpt lat="44.551914" lon="-121.805096"><ele>1925.6</ele><time>2024-08-11T02:02:14Z</time></trkpt>
<trkpt lat="44.552493" lon="-121.804505"><ele>1927.4</ele><time>2024-08-11T02:03:11Z</time></trkpt>
<trkpt lat="44.552815" lon="-121.804284"><ele>1928.6</ele><time>2024-08-11T02:03:43Z</time></trkpt>
<trkpt lat="44.553213" lon="-121.803758"><ele>1927.0</ele><time>2024-08-11T02:04:16Z</time></trkpt>
<trkpt lat="44.554846" lon="-121.803573"><ele>1920.2</ele><time>2024-08-11T02:06:25Z</time></trkpt>
<trkpt lat="44.555417" lon="-121.803211"><ele>1913.8</ele><time>2024-08-11T02:07:19Z</time></trkpt>
<trkpt lat="44.556161" lon="-121.802994"><ele>1904.8</ele><time>2024-08-11T02:08:23Z</time></trkpt>
<trkpt lat="44.556592" lon="-121.802958"><ele>1903.0</ele><time>2024-08-11T02:08:59Z</time></trkpt>
<trkpt lat="44.556672" lon="-121.803020"><ele>1902.4</ele><time>2024-08-11T02:09:06Z</time></trkpt>
<trkpt lat="44.556953" lon="-121.802913"><ele>1902.0</ele><time>2024-08-11T02:09:27Z</time></trkpt>
<trkpt lat="44.557259" lon="-121.802945"><ele>1900.2</ele><time>2024-08-11T02:09:59Z</time></trkpt>
<trkpt lat="44.557144" lon="-121.802918"><ele>1899.8</ele><time>2024-08-11T02:10:06Z</time></trkpt>
<trkpt lat="44.557880" lon="-121.802846"><ele>1895.6</ele><time>2024-08-11T02:10:49Z</time></trkpt>
<trkpt lat="44.558709" lon="-121.803152"><ele>1902.8</ele><time>2024-08-11T02:12:07Z</time></trkpt>
<trkpt lat="44.558835" lon="-121.803121"><ele>1906.0</ele><time>2024-08-11T02:12:19Z</time></trkpt>
<trkpt lat="44.559295" lon="-121.803244"><ele>1911.2</ele><time>2024-08-11T02:13:06Z</time></trkpt>
<trkpt lat="44.560467" lon="-121.803064"><ele>1924.6</ele><time>2024-08-11T02:15:11Z</time></trkpt>
<trkpt lat="44.560916" lon="-121.803093"><ele>1927.6</ele><time>2024-08-11T02:15:48Z</time></trkpt>
<trkpt lat="44.560885" lon="-121.803212"><ele>1927.6</ele><time>2024-08-11T02:15:50Z</time></trkpt>
<trkpt lat="44.560939" lon="-121.803136"><ele>1927.6</ele><time>2024-08-11T02:16:00Z</time></trkpt>
<trkpt lat="44.561405" lon="-121.803155"><ele>1934.0</ele><time>2024-08-11T02:17:09Z</time></trkpt>
<trkpt lat="44.562014" lon="-121.803068"><ele>1938.0</ele><time>2024-08-11T02:17:48Z</time></trkpt>
<trkpt lat="44.561915" lon="-121.803144"><ele>1938.2</ele><time>2024-08-11T02:17:50Z</time></trkpt>
<trkpt lat="44.563193" lon="-121.803647"><ele>1951.8</ele><time>2024-08-11T02:20:02Z</time></trkpt>
<trkpt lat="44.563608" lon="-121.803555"><ele>1953.6</ele><time>2024-08-11T02:20:33Z</time></trkpt>
<trkpt lat="44.563815" lon="-121.803621"><ele>1952.0</ele><time>2024-08-11T02:20:49Z</time></trkpt>
<trkpt lat="44.564477" lon="-121.803521"><ele>1953.2</ele><time>2024-08-11T02:21:51Z</time></trkpt>
<trkpt lat="44.564488" lon="-121.803587"><ele>1953.8</ele><time>2024-08-11T02:21:55Z</time></trkpt>
<trkpt lat="44.564639" lon="-121.803581"><ele>1953.4</ele><time>2024-08-11T02:22:08Z</time></trkpt>
<trkpt lat="44.564945" lon="-121.803477"><ele>1954.6</ele><time>2024-08-11T02:22:35Z</time></trkpt>
<trkpt lat="44.565339" lon="-121.803042"><ele>1953.0</ele><time>2024-08-11T02:23:09Z</time></trkpt>
<trkpt lat="44.565804" lon="-121.802730"><ele>1950.0</ele><time>2024-08-11T02:23:52Z</time></trkpt>
<trkpt lat="44.565774" lon="-121.802598"><ele>1949.8</ele><time>2024-08-11T02:23:55Z</time></trkpt>
<trkpt lat="44.565837" lon="-121.802527"><ele>1948.6</ele><time>2024-08-11T02:24:08Z</time></trkpt>
<trkpt lat="44.565826" lon="-121.802305"><ele>1949.0</ele><time>2024-08-11T02:24:21Z</time></trkpt>
<trkpt lat="44.566164" lon="-121.802075"><ele>1949.8</ele><time>2024-08-11T02:24:57Z</time></trkpt>
<trkpt lat="44.566911" lon="-121.801826"><ele>1950.2</ele><time>2024-08-11T02:25:54Z</time></trkpt>
<trkpt lat="44.567090" lon="-121.801928"><ele>1949.8</ele><time>2024-08-11T02:26:04Z</time></trkpt>
<trkpt lat="44.567763" lon="-121.801906"><ele>1953.0</ele><time>2024-08-11T02:27:10Z</time></trkpt>
<trkpt lat="44.568212" lon="-121.801995"><ele>1949.6</ele><time>2024-08-11T02:27:49Z</time></trkpt>
<trkpt lat="44.568245" lon="-121.802064"><ele>1948.6</ele><time>2024-08-11T02:28:07Z</time></trkpt>
<trkpt lat="44.568083" lon="-121.801902"><ele>1949.6</ele><time>2024-08-11T02:29:36Z</time></trkpt>
<trkpt lat="44.568100" lon="-121.801792"><ele>1949.0</ele><time>2024-08-11T02:29:53Z</time></trkpt>
<trkpt lat="44.568353" lon="-121.802496"><ele>1949.2</ele><time>2024-08-11T02:30:04Z</time></trkpt>
<trkpt lat="44.568379" lon="-121.801817"><ele>1948.2</ele><time>2024-08-11T02:32:02Z</time></trkpt>
<trkpt lat="44.568364" lon="-121.802420"><ele>1947.8</ele><time>2024-08-11T02:32:10Z</time></trkpt>
<trkpt lat="44.568267" lon="-121.802199"><ele>1949.0</ele><time>2024-08-11T02:32:29Z</time></trkpt>
<trkpt lat="44.568388" lon="-121.802443"><ele>1948.8</ele><time>2024-08-11T02:35:48Z</time></trkpt>
<trkpt lat="44.568336" lon="-121.802361"><ele>1948.6</ele><time>2024-08-11T02:35:52Z</time></trkpt>
<trkpt lat="44.568326" lon="-121.802428"><ele>1948.8</ele><time>2024-08-11T02:35:56Z</time></trkpt>
<trkpt lat="44.568391" lon="-121.802388"><ele>1949.4</ele><time>2024-08-11T02:37:50Z</time></trkpt>
<trkpt lat="44.568342" lon="-121.802366"><ele>1950.0</ele><time>2024-08-11T02:37:54Z</time></trkpt>
<trkpt lat="44.568409" lon="-121.802425"><ele>1950.4</ele><time>2024-08-11T02:38:02Z</time></trkpt>
<trkpt lat="44.568250" lon="-121.802266"><ele>1949.0</ele><time>2024-08-11T02:41:44Z</time></trkpt>
<trkpt lat="44.568313" lon="-121.802379"><ele>1948.2</ele><time>2024-08-11T02:41:53Z</time></trkpt>
<trkpt lat="44.568363" lon="-121.802268"><ele>1948.0</ele><time>2024-08-11T02:41:57Z</time></trkpt>
<trkpt lat="44.568320" lon="-121.802272"><ele>1948.0</ele><time>2024-08-11T02:42:01Z</time></trkpt>
<trkpt lat="44.568363" lon="-121.802408"><ele>1948.8</ele><time>2024-08-11T02:42:14Z</time></trkpt>
</trkseg></trk>
</gpx>
