<?xml version="1.0" encoding="UTF-8"?>
<gpx version="1.1" creator="Eric Sichak trip reports" xmlns="http://www.topografix.com/GPX/1/1">
<metadata><name>Morning Hike</name><time>2024-08-13T15:37:23Z</time></metadata>
<trk><name>Morning Hike</name><type>hike</type><trkseg>
<trkpt lat="45.282354" lon="-121.685517"><ele>1238.4</ele><time>2024-08-13T15:37:23Z</time></trkpt>
<trkpt lat="45.282649" lon="-121.685247"><ele>1238.8</ele><time>2024-08-13T15:37:57Z</time></trkpt>
<trkpt lat="45.282632" lon="-121.685081"><ele>1241.2</ele><time>2024-08-13T15:38:15Z</time></trkpt>
<trkpt lat="45.283029" lon="-121.684319"><ele>1236.8</ele><time>2024-08-13T15:39:17Z</time></trkpt>
<trkpt lat="45.283074" lon="-121.683896"><ele>1235.0</ele><time>2024-08-13T15:39:50Z</time></trkpt>
<trkpt lat="45.282901" lon="-121.682902"><ele>1236.8</ele><time>2024-08-13T15:40:45Z</time></trkpt>
<trkpt lat="45.283131" lon="-121.682133"><ele>1239.8</ele><time>2024-08-13T15:41:31Z</time></trkpt>
<trkpt lat="45.284173" lon="-121.681503"><ele>1239.8</ele><time>2024-08-13T15:43:03Z</time></trkpt>
<trkpt lat="45.284596" lon="-121.681468"><ele>1241.4</ele><time>2024-08-13T15:43:42Z</time></trkpt>
<trkpt lat="45.284463" lon="-121.681396"><ele>1241.4</ele><time>2024-08-13T15:43:49Z</time></trkpt>
<trkpt lat="45.284508" lon="-121.681376"><ele>1242.6</ele><time>2024-08-13T15:43:57Z</time></trkpt>
<trkpt lat="45.284522" lon="-121.681190"><ele>1244.0</ele><time>2024-08-13T15:44:19Z</time></trkpt>
<trkpt lat="45.284728" lon="-121.680931"><ele>1246.8</ele><time>2024-08-13T15:44:41Z</time></trkpt>
<trkpt lat="45.284743" lon="-121.680625"><ele>1250.0</ele><time>2024-08-13T15:45:01Z</time></trkpt>
<trkpt lat="45.284838" lon="-121.680853"><ele>1251.0</ele><time>2024-08-13T15:45:19Z</time></trkpt>
<trkpt lat="45.284747" lon="-121.681054"><ele>1252.0</ele><time>2024-08-13T15:45:31Z</time></trkpt>
<trkpt lat="45.284767" lon="-121.681616"><ele>1256.6</ele><time>2024-08-13T15:46:07Z</time></trkpt>
<trkpt lat="45.284928" lon="-121.681708"><ele>1258.2</ele><time>2024-08-13T15:46:19Z</time></trkpt>
<trkpt lat="45.284997" lon="-121.682017"><ele>1259.8</ele><time>2024-08-13T15:46:35Z</time></trkpt>
<trkpt lat="45.284968" lon="-121.682183"><ele>1261.0</ele><time>2024-08-13T15:46:47Z</time></trkpt>
<trkpt lat="45.284790" lon="-121.682274"><ele>1263.4</ele><time>2024-08-13T15:47:03Z</time></trkpt>
<trkpt lat="45.284761" lon="-121.682436"><ele>1265.8</ele><time>2024-08-13T15:47:21Z</time></trkpt>
<trkpt lat="45.284824" lon="-121.682846"><ele>1267.6</ele><time>2024-08-13T15:47:44Z</time></trkpt>
<trkpt lat="45.284707" lon="-121.682963"><ele>1267.8</ele><time>2024-08-13T15:47:46Z</time></trkpt>
<trkpt lat="45.284803" lon="-121.682899"><ele>1268.8</ele><time>2024-08-13T15:47:50Z</time></trkpt>
<trkpt lat="45.285052" lon="-121.683512"><ele>1273.4</ele><time>2024-08-13T15:48:26Z</time></trkpt>
<trkpt lat="45.284762" lon="-121.684198"><ele>1277.4</ele><time>2024-08-13T15:49:28Z</time></trkpt>
<trkpt lat="45.284723" lon="-121.684578"><ele>1279.6</ele><time>2024-08-13T15:49:47Z</time></trkpt>
<trkpt lat="45.284712" lon="-121.684525"><ele>1279.8</ele><time>2024-08-13T15:49:48Z</time></trkpt>
<trkpt lat="45.284827" lon="-121.684588"><ele>1280.4</ele><time>2024-08-13T15:49:50Z</time></trkpt>
<trkpt lat="45.285120" lon="-121.685369"><ele>1286.6</ele><time>2024-08-13T15:50:57Z</time></trkpt>
<trkpt lat="45.285843" lon="-121.685768"><ele>1289.6</ele><time>2024-08-13T15:51:56Z</time></trkpt>
<trkpt lat="45.286316" lon="-121.685341"><ele>1293.8</ele><time>2024-08-13T15:52:43Z</time></trkpt>
<trkpt lat="45.286440" lon="-121.685317"><ele>1295.0</ele><time>2024-08-13T15:52:57Z</time></trkpt>
<trkpt lat="45.286562" lon="-121.685089"><ele>1298.0</ele><time>2024-08-13T15:53:17Z</time></trkpt>
<trkpt lat="45.286868" lon="-121.684974"><ele>1299.8</ele><time>2024-08-13T15:53:51Z</time></trkpt>
<trkpt lat="45.286955" lon="-121.685054"><ele>1301.2</ele><time>2024-08-13T15:54:02Z</time></trkpt>
<trkpt lat="45.287039" lon="-121.685006"><ele>1302.0</ele><time>2024-08-13T15:54:12Z</time></trkpt>
<trkpt lat="45.287262" lon="-121.684680"><ele>1304.4</ele><time>2024-08-13T15:54:40Z</time></trkpt>
<trkpt lat="45.287700" lon="-121.684325"><ele>1305.4</ele><time>2024-08-13T15:55:22Z</time></trkpt>
<trkpt lat="45.287891" lon="-121.683904"><ele>1307.2</ele><time>2024-08-13T15:55:53Z</time></trkpt>
<trkpt lat="45.288162" lon="-121.683732"><ele>1308.0</ele><time>2024-08-13T15:56:22Z</time></trkpt>
<trkpt lat="45.288415" lon="-121.683455"><ele>1307.6</ele><time>2024-08-13T15:56:48Z</time></trkpt>
<trkpt lat="45.288898" lon="-121.683208"><ele>1309.8</ele><time>2024-08-13T15:57:28Z</time></trkpt>
<trkpt lat="45.289767" lon="-121.682904"><ele>1307.4</ele><time>2024-08-13T15:58:48Z</time></trkpt>
<trkpt lat="45.289956" lon="-121.682958"><ele>1306.6</ele><time>2024-08-13T15:59:02Z</time></trkpt>
<trkpt lat="45.290186" lon="-121.682814"><ele>1307.0</ele><time>2024-08-13T15:59:26Z</time></trkpt>
<trkpt lat="45.290344" lon="-121.682907"><ele>1306.6</ele><time>2024-08-13T15:59:40Z</time></trkpt>
<trkpt lat="45.290916" lon="-121.682798"><ele>1306.2</ele><time>2024-08-13T16:00:37Z</time></trkpt>
<trkpt lat="45.291398" lon="-121.682827"><ele>1305.2</ele><time>2024-08-13T16:01:17Z</time></trkpt>
<trkpt lat="45.291707" lon="-121.682650"><ele>1305.8</ele><time>2024-08-13T16:01:48Z</time></trkpt>
<trkpt lat="45.291727" lon="-121.682548"><ele>1305.8</ele><time>2024-08-13T16:02:02Z</time></trkpt>
<trkpt lat="45.293093" lon="-121.682137"><ele>1306.2</ele><time>2024-08-13T16:03:45Z</time></trkpt>
<trkpt lat="45.293424" lon="-121.681759"><ele>1305.8</ele><time>2024-08-13T16:04:26Z</time></trkpt>
<trkpt lat="45.293778" lon="-121.681663"><ele>1305.8</ele><time>2024-08-13T16:04:52Z</time></trkpt>
<trkpt lat="45.294336" lon="-121.681813"><ele>1308.6</ele><time>2024-08-13T16:05:34Z</time></trkpt>
<trkpt lat="45.294376" lon="-121.681887"><ele>1310.0</ele><time>2024-08-13T16:05:59Z</time></trkpt>
<trkpt lat="45.294755" lon="-121.681823"><ele>1312.0</ele><time>2024-08-13T16:06:28Z</time></trkpt>
<trkpt lat="45.295093" lon="-121.681911"><ele>1313.2</ele><time>2024-08-13T16:07:02Z</time></trkpt>
<trkpt lat="45.295456" lon="-121.681879"><ele>1313.2</ele><time>2024-08-13T16:07:32Z</time></trkpt>
<trkpt lat="45.295511" lon="-121.681694"><ele>1314.6</ele><time>2024-08-13T16:07:51Z</time></trkpt>
<trkpt lat="45.296708" lon="-121.680282"><ele>1323.6</ele><time>2024-08-13T16:09:56Z</time></trkpt>
<trkpt lat="45.296801" lon="-121.680276"><ele>1324.0</ele><time>2024-08-13T16:09:59Z</time></trkpt>
<trkpt lat="45.296745" lon="-121.680293"><ele>1324.0</ele><time>2024-08-13T16:10:02Z</time></trkpt>
<trkpt lat="45.296880" lon="-121.680059"><ele>1324.2</ele><time>2024-08-13T16:10:40Z</time></trkpt>
<trkpt lat="45.297196" lon="-121.680090"><ele>1325.4</ele><time>2024-08-13T16:11:20Z</time></trkpt>
<trkpt lat="45.297715" lon="-121.680503"><ele>1325.4</ele><time>2024-08-13T16:12:02Z</time></trkpt>
<trkpt lat="45.298605" lon="-121.680718"><ele>1328.0</ele><time>2024-08-13T16:13:46Z</time></trkpt>
<trkpt lat="45.298551" lon="-121.680775"><ele>1328.4</ele><time>2024-08-13T16:13:59Z</time></trkpt>
<trkpt lat="45.298652" lon="-121.680650"><ele>1327.4</ele><time>2024-08-13T16:15:56Z</time></trkpt>
<trkpt lat="45.298614" lon="-121.680739"><ele>1326.4</ele><time>2024-08-13T16:16:11Z</time></trkpt>
<trkpt lat="45.298690" lon="-121.680881"><ele>1327.4</ele><time>2024-08-13T16:17:50Z</time></trkpt>
<trkpt lat="45.299391" lon="-121.681070"><ele>1335.0</ele><time>2024-08-13T16:18:46Z</time></trkpt>
<trkpt lat="45.299747" lon="-121.681407"><ele>1341.0</ele><time>2024-08-13T16:19:30Z</time></trkpt>
<trkpt lat="45.299798" lon="-121.681381"><ele>1343.6</ele><time>2024-08-13T16:19:50Z</time></trkpt>
<trkpt lat="45.299793" lon="-121.681587"><ele>1344.4</ele><time>2024-08-13T16:19:58Z</time></trkpt>
<trkpt lat="45.300215" lon="-121.682207"><ele>1347.8</ele><time>2024-08-13T16:20:41Z</time></trkpt>
<trkpt lat="45.300472" lon="-121.682519"><ele>1353.8</ele><time>2024-08-13T16:21:31Z</time></trkpt>
<trkpt lat="45.300775" lon="-121.682684"><ele>1355.0</ele><time>2024-08-13T16:21:45Z</time></trkpt>
<trkpt lat="45.300642" lon="-121.682784"><ele>1355.0</ele><time>2024-08-13T16:21:46Z</time></trkpt>
<trkpt lat="45.300732" lon="-121.682891"><ele>1355.8</ele><time>2024-08-13T16:21:56Z</time></trkpt>
<trkpt lat="45.300987" lon="-121.683013"><ele>1358.0</ele><time>2024-08-13T16:22:12Z</time></trkpt>
<trkpt lat="45.301107" lon="-121.683435"><ele>1362.6</ele><time>2024-08-13T16:22:44Z</time></trkpt>
<trkpt lat="45.301245" lon="-121.683582"><ele>1363.6</ele><time>2024-08-13T16:22:57Z</time></trkpt>
<trkpt lat="45.301228" lon="-121.683637"><ele>1363.6</ele><time>2024-08-13T16:23:02Z</time></trkpt>
<trkpt lat="45.301444" lon="-121.683909"><ele>1365.2</ele><time>2024-08-13T16:23:21Z</time></trkpt>
<trkpt lat="45.302010" lon="-121.684157"><ele>1369.6</ele><time>2024-08-13T16:24:11Z</time></trkpt>
<trkpt lat="45.302249" lon="-121.684472"><ele>1373.0</ele><time>2024-08-13T16:24:45Z</time></trkpt>
<trkpt lat="45.302642" lon="-121.684689"><ele>1374.2</ele><time>2024-08-13T16:25:15Z</time></trkpt>
<trkpt lat="45.302722" lon="-121.685136"><ele>1375.8</ele><time>2024-08-13T16:25:48Z</time></trkpt>
<trkpt lat="45.302977" lon="-121.685400"><ele>1376.4</ele><time>2024-08-13T16:26:07Z</time></trkpt>
<trkpt lat="45.303336" lon="-121.685982"><ele>1377.8</ele><time>2024-08-13T16:26:43Z</time></trkpt>
<trkpt lat="45.303270" lon="-121.685978"><ele>1378.0</ele><time>2024-08-13T16:26:47Z</time></trkpt>
<trkpt lat="45.303455" lon="-121.686107"><ele>1379.6</ele><time>2024-08-13T16:27:11Z</time></trkpt>
<trkpt lat="45.303717" lon="-121.686483"><ele>1382.2</ele><time>2024-08-13T16:27:43Z</time></trkpt>
<trkpt lat="45.304066" lon="-121.686399"><ele>1384.8</ele><time>2024-08-13T16:28:12Z</time></trkpt>
<trkpt lat="45.304407" lon="-121.686510"><ele>1388.0</ele><time>2024-08-13T16:28:47Z</time></trkpt>
<trkpt lat="45.304535" lon="-121.686692"><ele>1389.0</ele><time>2024-08-13T16:29:03Z</time></trkpt>
<trkpt lat="45.305421" lon="-121.687447"><ele>1397.4</ele><time>2024-08-13T16:30:48Z</time></trkpt>
<trkpt lat="45.305804" lon="-121.687421"><ele>1397.4</ele><time>2024-08-13T16:31:00Z</time></trkpt>
<trkpt lat="45.307076" lon="-121.687968"><ele>1408.6</ele><time>2024-08-13T16:33:03Z</time></trkpt>
<trkpt lat="45.307108" lon="-121.688109"><ele>1410.2</ele><time>2024-08-13T16:33:16Z</time></trkpt>
<trkpt lat="45.307052" lon="-121.688481"><ele>1414.0</ele><time>2024-08-13T16:33:44Z</time></trkpt>
<trkpt lat="45.307092" lon="-121.688577"><ele>1414.0</ele><time>2024-08-13T16:33:50Z</time></trkpt>
<trkpt lat="45.307374" lon="-121.688746"><ele>1415.2</ele><time>2024-08-13T16:34:14Z</time></trkpt>
<trkpt lat="45.307745" lon="-121.688765"><ele>1417.2</ele><time>2024-08-13T16:34:44Z</time></trkpt>
<trkpt lat="45.308061" lon="-121.688671"><ele>1418.2</ele><time>2024-08-13T16:35:06Z</time></trkpt>
<trkpt lat="45.308104" lon="-121.688708"><ele>1418.4</ele><time>2024-08-13T16:35:11Z</time></trkpt>
<trkpt lat="45.307971" lon="-121.689221"><ele>1421.2</ele><time>2024-08-13T16:35:44Z</time></trkpt>
<trkpt lat="45.308048" lon="-121.689331"><ele>1421.8</ele><time>2024-08-13T16:35:52Z</time></trkpt>
<trkpt lat="45.308192" lon="-121.689450"><ele>1422.4</ele><time>2024-08-13T16:36:10Z</time></trkpt>
<trkpt lat="45.308679" lon="-121.689548"><ele>1425.6</ele><time>2024-08-13T16:36:56Z</time></trkpt>
<trkpt lat="45.309023" lon="-121.689841"><ele>1427.4</ele><time>2024-08-13T16:37:28Z</time></trkpt>
<trkpt lat="45.309443" lon="-121.690067"><ele>1430.6</ele><time>2024-08-13T16:38:11Z</time></trkpt>
<trkpt lat="45.309635" lon="-121.690336"><ele>1431.8</ele><time>2024-08-13T16:38:30Z</time></trkpt>
<trkpt lat="45.309748" lon="-121.690712"><ele>1433.6</ele><time>2024-08-13T16:39:09Z</time></trkpt>
<trkpt lat="45.309871" lon="-121.690841"><ele>1434.6</ele><time>2024-08-13T16:39:28Z</time></trkpt>
<trkpt lat="45.310043" lon="-121.690819"><ele>1436.2</ele><time>2024-08-13T16:39:46Z</time></trkpt>
<trkpt lat="45.310266" lon="-121.690434"><ele>1438.0</ele><time>2024-08-13T16:40:20Z</time></trkpt>
<trkpt lat="45.311041" lon="-121.690390"><ele>1442.0</ele><time>2024-08-13T16:41:19Z</time></trkpt>
<trkpt lat="45.311163" lon="-121.690247"><ele>1442.8</ele><time>2024-08-13T16:41:33Z</time></trkpt>
<trkpt lat="45.312003" lon="-121.690122"><ele>1447.6</ele><time>2024-08-13T16:42:56Z</time></trkpt>
<trkpt lat="45.312458" lon="-121.690148"><ele>1449.2</ele><time>2024-08-13T16:43:18Z</time></trkpt>
<trkpt lat="45.312659" lon="-121.690459"><ele>1450.2</ele><time>2024-08-13T16:43:45Z</time></trkpt>
<trkpt lat="45.312736" lon="-121.690412"><ele>1450.8</ele><time>2024-08-13T16:43:49Z</time></trkpt>
<trkpt lat="45.313208" lon="-121.690689"><ele>1451.8</ele><time>2024-08-13T16:44:22Z</time></trkpt>
<trkpt lat="45.313407" lon="-121.690981"><ele>1454.4</ele><time>2024-08-13T16:45:04Z</time></trkpt>
<trkpt lat="45.314005" lon="-121.691605"><ele>1455.4</ele><time>2024-08-13T16:45:49Z</time></trkpt>
<trkpt lat="45.314166" lon="-121.692350"><ele>1455.2</ele><time>2024-08-13T16:46:40Z</time></trkpt>
<trkpt lat="45.314311" lon="-121.692530"><ele>1455.2</ele><time>2024-08-13T16:47:06Z</time></trkpt>
<trkpt lat="45.314318" lon="-121.692291"><ele>1456.0</ele><time>2024-08-13T16:47:49Z</time></trkpt>
<trkpt lat="45.314249" lon="-121.692422"><ele>1456.2</ele><time>2024-08-13T16:47:55Z</time></trkpt>
<trkpt lat="45.314279" lon="-121.692184"><ele>1454.8</ele><time>2024-08-13T16:50:01Z</time></trkpt>
<trkpt lat="45.314214" lon="-121.692302"><ele>1453.8</ele><time>2024-08-13T16:51:41Z</time></trkpt>
<trkpt lat="45.314383" lon="-121.692416"><ele>1453.8</ele><time>2024-08-13T16:51:55Z</time></trkpt>
<trkpt lat="45.313974" lon="-121.692380"><ele>1453.8</ele><time>2024-08-13T16:52:00Z</time></trkpt>
<trkpt lat="45.314150" lon="-121.692395"><ele>1453.8</ele><time>2024-08-13T16:52:07Z</time></trkpt>
<trkpt lat="45.314015" lon="-121.692107"><ele>1454.8</ele><time>2024-08-13T16:53:56Z</time></trkpt>
<trkpt lat="45.314121" lon="-121.692374"><ele>1454.4</ele><time>2024-08-13T16:54:04Z</time></trkpt>
<trkpt lat="45.314386" lon="-121.692424"><ele>1454.4</ele><time>2024-08-13T16:55:58Z</time></trkpt>
<trkpt lat="45.314204" lon="-121.692363"><ele>1454.2</ele><time>2024-08-13T16:56:05Z</time></trkpt>
<trkpt lat="45.313999" lon="-121.691839"><ele>1455.8</ele><time>2024-08-13T16:57:49Z</time></trkpt>
<trkpt lat="45.314079" lon="-121.691901"><ele>1455.8</ele><time>2024-08-13T16:57:55Z</time></trkpt>
<trkpt lat="45.314157" lon="-121.692139"><ele>1456.4</ele><time>2024-08-13T16:58:02Z</time></trkpt>
<trkpt lat="45.314086" lon="-121.692358"><ele>1455.4</ele><time>2024-08-13T16:58:13Z</time></trkpt>
<trkpt lat="45.313839" lon="-121.692789"><ele>1454.2</ele><time>2024-08-13T16:58:47Z</time></trkpt>
<trkpt lat="45.313650" lon="-121.693534"><ele>1459.6</ele><time>2024-08-13T16:59:50Z</time></trkpt>
<trkpt lat="45.313578" lon="-121.693438"><ele>1459.6</ele><time>2024-08-13T16:59:51Z</time></trkpt>
<trkpt lat="45.313467" lon="-121.693674"><ele>1460.0</ele><time>2024-08-13T16:59:56Z</time></trkpt>
<trkpt lat="45.313338" lon="-121.693688"><ele>1467.2</ele><time>2024-08-13T17:00:45Z</time></trkpt>
<trkpt lat="45.313295" lon="-121.693910"><ele>1468.2</ele><time>2024-08-13T17:00:59Z</time></trkpt>
<trkpt lat="45.313589" lon="-121.694230"><ele>1472.8</ele><time>2024-08-13T17:01:47Z</time></trkpt>
<trkpt lat="45.313678" lon="-121.694168"><ele>1473.0</ele><time>2024-08-13T17:01:48Z</time></trkpt>
<trkpt lat="45.313910" lon="-121.694296"><ele>1476.2</ele><time>2024-08-13T17:02:06Z</time></trkpt>
<trkpt lat="45.314156" lon="-121.694299"><ele>1478.8</ele><time>2024-08-13T17:02:21Z</time></trkpt>
<trkpt lat="45.314891" lon="-121.694634"><ele>1493.0</ele><time>2024-08-13T17:03:51Z</time></trkpt>
<trkpt lat="45.314919" lon="-121.694855"><ele>1494.0</ele><time>2024-08-13T17:03:55Z</time></trkpt>
<trkpt lat="45.315048" lon="-121.695064"><ele>1495.6</ele><time>2024-08-13T17:04:07Z</time></trkpt>
<trkpt lat="45.315495" lon="-121.695355"><ele>1503.0</ele><time>2024-08-13T17:04:54Z</time></trkpt>
<trkpt lat="45.316851" lon="-121.695892"><ele>1522.2</ele><time>2024-08-13T17:06:53Z</time></trkpt>
<trkpt lat="45.316764" lon="-121.695876"><ele>1523.4</ele><time>2024-08-13T17:07:02Z</time></trkpt>
<trkpt lat="45.316769" lon="-121.697172"><ele>1536.8</ele><time>2024-08-13T17:08:45Z</time></trkpt>
<trkpt lat="45.316836" lon="-121.697525"><ele>1537.8</ele><time>2024-08-13T17:09:04Z</time></trkpt>
<trkpt lat="45.317299" lon="-121.697767"><ele>1540.0</ele><time>2024-08-13T17:09:33Z</time></trkpt>
<trkpt lat="45.317676" lon="-121.697920"><ele>1550.8</ele><time>2024-08-13T17:10:33Z</time></trkpt>
<trkpt lat="45.317799" lon="-121.698062"><ele>1551.0</ele><time>2024-08-13T17:10:48Z</time></trkpt>
<trkpt lat="45.318073" lon="-121.697911"><ele>1551.0</ele><time>2024-08-13T17:10:49Z</time></trkpt>
<trkpt lat="45.317971" lon="-121.697989"><ele>1551.0</ele><time>2024-08-13T17:10:50Z</time></trkpt>
<trkpt lat="45.317871" lon="-121.697942"><ele>1551.0</ele><time>2024-08-13T17:10:53Z</time></trkpt>
<trkpt lat="45.317952" lon="-121.697879"><ele>1551.2</ele><time>2024-08-13T17:10:56Z</time></trkpt>
<trkpt lat="45.317893" lon="-121.697714"><ele>1552.8</ele><time>2024-08-13T17:11:07Z</time></trkpt>
<trkpt lat="45.318186" lon="-121.697441"><ele>1554.0</ele><time>2024-08-13T17:11:20Z</time></trkpt>
<trkpt lat="45.319040" lon="-121.697096"><ele>1566.6</ele><time>2024-08-13T17:12:51Z</time></trkpt>
<trkpt lat="45.318899" lon="-121.697305"><ele>1566.8</ele><time>2024-08-13T17:12:52Z</time></trkpt>
<trkpt lat="45.318961" lon="-121.697395"><ele>1567.6</ele><time>2024-08-13T17:12:56Z</time></trkpt>
<trkpt lat="45.319110" lon="-121.697398"><ele>1569.0</ele><time>2024-08-13T17:13:04Z</time></trkpt>
<trkpt lat="45.319492" lon="-121.697906"><ele>1579.4</ele><time>2024-08-13T17:14:45Z</time></trkpt>
<trkpt lat="45.319421" lon="-121.697945"><ele>1580.2</ele><time>2024-08-13T17:14:50Z</time></trkpt>
<trkpt lat="45.319758" lon="-121.698006"><ele>1580.2</ele><time>2024-08-13T17:14:53Z</time></trkpt>
<trkpt lat="45.319858" lon="-121.698137"><ele>1580.4</ele><time>2024-08-13T17:14:56Z</time></trkpt>
<trkpt lat="45.319888" lon="-121.698043"><ele>1581.4</ele><time>2024-08-13T17:15:00Z</time></trkpt>
<trkpt lat="45.320282" lon="-121.698436"><ele>1589.4</ele><time>2024-08-13T17:16:12Z</time></trkpt>
<trkpt lat="45.320424" lon="-121.699010"><ele>1592.6</ele><time>2024-08-13T17:16:55Z</time></trkpt>
<trkpt lat="45.320247" lon="-121.698847"><ele>1592.6</ele><time>2024-08-13T17:17:00Z</time></trkpt>
<trkpt lat="45.320706" lon="-121.698515"><ele>1597.6</ele><time>2024-08-13T17:17:58Z</time></trkpt>
<trkpt lat="45.320753" lon="-121.698109"><ele>1603.0</ele><time>2024-08-13T17:18:50Z</time></trkpt>
<trkpt lat="45.320676" lon="-121.698101"><ele>1603.0</ele><time>2024-08-13T17:18:51Z</time></trkpt>
<trkpt lat="45.320792" lon="-121.697893"><ele>1604.2</ele><time>2024-08-13T17:18:58Z</time></trkpt>
<trkpt lat="45.320757" lon="-121.697386"><ele>1605.6</ele><time>2024-08-13T17:19:18Z</time></trkpt>
<trkpt lat="45.320900" lon="-121.697004"><ele>1609.4</ele><time>2024-08-13T17:19:46Z</time></trkpt>
<trkpt lat="45.321141" lon="-121.697016"><ele>1609.6</ele><time>2024-08-13T17:19:56Z</time></trkpt>
<trkpt lat="45.321370" lon="-121.696701"><ele>1612.8</ele><time>2024-08-13T17:20:28Z</time></trkpt>
<trkpt lat="45.321602" lon="-121.696525"><ele>1614.8</ele><time>2024-08-13T17:20:47Z</time></trkpt>
<trkpt lat="45.321439" lon="-121.696377"><ele>1616.0</ele><time>2024-08-13T17:20:52Z</time></trkpt>
<trkpt lat="45.321680" lon="-121.695970"><ele>1619.8</ele><time>2024-08-13T17:21:28Z</time></trkpt>
<trkpt lat="45.321657" lon="-121.695868"><ele>1622.2</ele><time>2024-08-13T17:21:45Z</time></trkpt>
<trkpt lat="45.322028" lon="-121.696118"><ele>1624.6</ele><time>2024-08-13T17:22:07Z</time></trkpt>
<trkpt lat="45.322097" lon="-121.696392"><ele>1633.4</ele><time>2024-08-13T17:23:28Z</time></trkpt>
<trkpt lat="45.322256" lon="-121.696748"><ele>1634.4</ele><time>2024-08-13T17:23:50Z</time></trkpt>
<trkpt lat="45.322203" lon="-121.697182"><ele>1634.4</ele><time>2024-08-13T17:23:51Z</time></trkpt>
<trkpt lat="45.322456" lon="-121.697118"><ele>1634.8</ele><time>2024-08-13T17:23:56Z</time></trkpt>
<trkpt lat="45.322636" lon="-121.697377"><ele>1636.8</ele><time>2024-08-13T17:24:19Z</time></trkpt>
<trkpt lat="45.323209" lon="-121.697903"><ele>1645.8</ele><time>2024-08-13T17:25:48Z</time></trkpt>
<trkpt lat="45.323141" lon="-121.697829"><ele>1646.0</ele><time>2024-08-13T17:25:49Z</time></trkpt>
<trkpt lat="45.324239" lon="-121.697988"><ele>1661.4</ele><time>2024-08-13T17:28:01Z</time></trkpt>
<trkpt lat="45.324954" lon="-121.698486"><ele>1676.0</ele><time>2024-08-13T17:29:50Z</time></trkpt>
<trkpt lat="45.325552" lon="-121.699232"><ele>1692.2</ele><time>2024-08-13T17:31:49Z</time></trkpt>
<trkpt lat="45.325672" lon="-121.699521"><ele>1695.4</ele><time>2024-08-13T17:32:06Z</time></trkpt>
<trkpt lat="45.326177" lon="-121.700241"><ele>1707.6</ele><time>2024-08-13T17:33:47Z</time></trkpt>
<trkpt lat="45.326375" lon="-121.700286"><ele>1710.0</ele><time>2024-08-13T17:34:07Z</time></trkpt>
<trkpt lat="45.326704" lon="-121.700834"><ele>1724.0</ele><time>2024-08-13T17:35:49Z</time></trkpt>
<trkpt lat="45.326731" lon="-121.700683"><ele>1724.2</ele><time>2024-08-13T17:35:50Z</time></trkpt>
<trkpt lat="45.326799" lon="-121.700977"><ele>1724.8</ele><time>2024-08-13T17:35:53Z</time></trkpt>
<trkpt lat="45.326918" lon="-121.701019"><ele>1725.4</ele><time>2024-08-13T17:35:57Z</time></trkpt>
<trkpt lat="45.326996" lon="-121.701277"><ele>1726.6</ele><time>2024-08-13T17:36:02Z</time></trkpt>
<trkpt lat="45.327016" lon="-121.701157"><ele>1727.8</ele><time>2024-08-13T17:36:07Z</time></trkpt>
<trkpt lat="45.327750" lon="-121.700701"><ele>1738.6</ele><time>2024-08-13T17:37:48Z</time></trkpt>
<trkpt lat="45.327789" lon="-121.701007"><ele>1739.8</ele><time>2024-08-13T17:37:57Z</time></trkpt>
<trkpt lat="45.328379" lon="-121.701119"><ele>1745.2</ele><time>2024-08-13T17:39:52Z</time></trkpt>
<trkpt lat="45.328290" lon="-121.701090"><ele>1745.2</ele><time>2024-08-13T17:39:55Z</time></trkpt>
<trkpt lat="45.328172" lon="-121.701176"><ele>1745.2</ele><time>2024-08-13T17:39:57Z</time></trkpt>
<trkpt lat="45.328446" lon="-121.701357"><ele>1751.8</ele><time>2024-08-13T17:40:37Z</time></trkpt>
<trkpt lat="45.328777" lon="-121.701720"><ele>1757.8</ele><time>2024-08-13T17:41:55Z</time></trkpt>
<trkpt lat="45.328761" lon="-121.702058"><ele>1760.6</ele><time>2024-08-13T17:42:08Z</time></trkpt>
<trkpt lat="45.329737" lon="-121.703850"><ele>1768.4</ele><time>2024-08-13T17:43:46Z</time></trkpt>
<trkpt lat="45.330967" lon="-121.703373"><ele>1768.4</ele><time>2024-08-13T17:43:49Z</time></trkpt>
<trkpt lat="45.329540" lon="-121.703479"><ele>1769.6</ele><time>2024-08-13T17:43:59Z</time></trkpt>
<trkpt lat="45.329263" lon="-121.702958"><ele>1769.6</ele><time>2024-08-13T17:44:02Z</time></trkpt>
<trkpt lat="45.329279" lon="-121.702579"><ele>1769.8</ele><time>2024-08-13T17:44:05Z</time></trkpt>
<trkpt lat="45.329332" lon="-121.702516"><ele>1769.8</ele><time>2024-08-13T17:44:06Z</time></trkpt>
<trkpt lat="45.329309" lon="-121.702615"><ele>1769.4</ele><time>2024-08-13T17:44:09Z</time></trkpt>
<trkpt lat="45.329610" lon="-121.702809"><ele>1769.6</ele><time>2024-08-13T17:44:16Z</time></trkpt>
<trkpt lat="45.330125" lon="-121.702704"><ele>1766.0</ele><time>2024-08-13T17:45:20Z</time></trkpt>
<trkpt lat="45.330495" lon="-121.702767"><ele>1769.2</ele><time>2024-08-13T17:45:49Z</time></trkpt>
<trkpt lat="45.330721" lon="-121.702909"><ele>1769.2</ele><time>2024-08-13T17:45:50Z</time></trkpt>
<trkpt lat="45.330496" lon="-121.702617"><ele>1769.2</ele><time>2024-08-13T17:45:51Z</time></trkpt>
<trkpt lat="45.330611" lon="-121.703026"><ele>1771.0</ele><time>2024-08-13T17:46:07Z</time></trkpt>
<trkpt lat="45.330933" lon="-121.703083"><ele>1774.0</ele><time>2024-08-13T17:46:36Z</time></trkpt>
<trkpt lat="45.331447" lon="-121.703330"><ele>1784.8</ele><time>2024-08-13T17:47:50Z</time></trkpt>
<trkpt lat="45.331439" lon="-121.703206"><ele>1785.0</ele><time>2024-08-13T17:47:51Z</time></trkpt>
<trkpt lat="45.331516" lon="-121.703225"><ele>1786.2</ele><time>2024-08-13T17:47:59Z</time></trkpt>
<trkpt lat="45.331520" lon="-121.703554"><ele>1786.0</ele><time>2024-08-13T17:48:05Z</time></trkpt>
<trkpt lat="45.331669" lon="-121.703444"><ele>1787.0</ele><time>2024-08-13T17:48:12Z</time></trkpt>
<trkpt lat="45.332387" lon="-121.703622"><ele>1801.2</ele><time>2024-08-13T17:49:53Z</time></trkpt>
<trkpt lat="45.332456" lon="-121.704089"><ele>1802.8</ele><time>2024-08-13T17:50:07Z</time></trkpt>
<trkpt lat="45.332558" lon="-121.704166"><ele>1804.8</ele><time>2024-08-13T17:50:20Z</time></trkpt>
<trkpt lat="45.332592" lon="-121.704526"><ele>1806.4</ele><time>2024-08-13T17:50:48Z</time></trkpt>
<trkpt lat="45.332649" lon="-121.704353"><ele>1805.8</ele><time>2024-08-13T17:50:54Z</time></trkpt>
<trkpt lat="45.332899" lon="-121.704597"><ele>1809.4</ele><time>2024-08-13T17:51:21Z</time></trkpt>
<trkpt lat="45.333684" lon="-121.705861"><ele>1824.4</ele><time>2024-08-13T17:53:13Z</time></trkpt>
<trkpt lat="45.333526" lon="-121.706345"><ele>1826.0</ele><time>2024-08-13T17:53:59Z</time></trkpt>
<trkpt lat="45.333654" lon="-121.706468"><ele>1826.6</ele><time>2024-08-13T17:54:11Z</time></trkpt>
<trkpt lat="45.333806" lon="-121.706884"><ele>1828.8</ele><time>2024-08-13T17:54:58Z</time></trkpt>
<trkpt lat="45.333968" lon="-121.707065"><ele>1827.6</ele><time>2024-08-13T17:55:42Z</time></trkpt>
<trkpt lat="45.334228" lon="-121.707157"><ele>1823.8</ele><time>2024-08-13T17:55:58Z</time></trkpt>
<trkpt lat="45.334249" lon="-121.707242"><ele>1823.2</ele><time>2024-08-13T17:56:08Z</time></trkpt>
<trkpt lat="45.333954" lon="-121.707623"><ele>1824.2</ele><time>2024-08-13T17:56:47Z</time></trkpt>
<trkpt lat="45.333645" lon="-121.707504"><ele>1825.2</ele><time>2024-08-13T17:57:05Z</time></trkpt>
<trkpt lat="45.333399" lon="-121.707823"><ele>1826.2</ele><time>2024-08-13T17:57:35Z</time></trkpt>
<trkpt lat="45.333353" lon="-121.708152"><ele>1828.8</ele><time>2024-08-13T17:58:07Z</time></trkpt>
<trkpt lat="45.332941" lon="-121.708782"><ele>1832.0</ele><time>2024-08-13T17:58:59Z</time></trkpt>
<trkpt lat="45.332903" lon="-121.709171"><ele>1834.4</ele><time>2024-08-13T17:59:22Z</time></trkpt>
<trkpt lat="45.332940" lon="-121.709457"><ele>1835.4</ele><time>2024-08-13T17:59:52Z</time></trkpt>
<trkpt lat="45.333050" lon="-121.710249"><ele>1837.8</ele><time>2024-08-13T18:00:49Z</time></trkpt>
<trkpt lat="45.333177" lon="-121.710491"><ele>1837.0</ele><time>2024-08-13T18:01:07Z</time></trkpt>
<trkpt lat="45.333022" lon="-121.710921"><ele>1837.4</ele><time>2024-08-13T18:01:32Z</time></trkpt>
<trkpt lat="45.332853" lon="-121.711139"><ele>1842.8</ele><time>2024-08-13T18:02:22Z</time></trkpt>
<trkpt lat="45.332527" lon="-121.711459"><ele>1837.6</ele><time>2024-08-13T18:02:53Z</time></trkpt>
<trkpt lat="45.332404" lon="-121.711377"><ele>1835.2</ele><time>2024-08-13T18:03:01Z</time></trkpt>
<trkpt lat="45.332276" lon="-121.711503"><ele>1829.8</ele><time>2024-08-13T18:03:16Z</time></trkpt>
<trkpt lat="45.332096" lon="-121.711268"><ele>1826.6</ele><time>2024-08-13T18:03:36Z</time></trkpt>
<trkpt lat="45.331863" lon="-121.711144"><ele>1821.8</ele><time>2024-08-13T18:04:00Z</time></trkpt>
<trkpt lat="45.331166" lon="-121.710913"><ele>1813.6</ele><time>2024-08-13T18:04:58Z</time></trkpt>
<trkpt lat="45.330940" lon="-121.710883"><ele>1818.0</ele><time>2024-08-13T18:06:21Z</time></trkpt>
<trkpt lat="45.331302" lon="-121.711267"><ele>1811.4</ele><time>2024-08-13T18:10:16Z</time></trkpt>
<trkpt lat="45.331347" lon="-121.710629"><ele>1811.4</ele><time>2024-08-13T18:11:10Z</time></trkpt>
<trkpt lat="45.331312" lon="-121.710645"><ele>1811.4</ele><time>2024-08-13T18:11:11Z</time></trkpt>
<trkpt lat="45.331108" lon="-121.711242"><ele>1811.4</ele><time>2024-08-13T18:11:15Z</time></trkpt>
<trkpt lat="45.331162" lon="-121.711267"><ele>1811.6</ele><time>2024-08-13T18:11:19Z</time></trkpt>
<trkpt lat="45.331412" lon="-121.710696"><ele>1812.0</ele><time>2024-08-13T18:11:27Z</time></trkpt>
<trkpt lat="45.331337" lon="-121.711117"><ele>1811.8</ele><time>2024-08-13T18:11:31Z</time></trkpt>
<trkpt lat="45.331405" lon="-121.711129"><ele>1811.8</ele><time>2024-08-13T18:11:36Z</time></trkpt>
<trkpt lat="45.331374" lon="-121.711046"><ele>1811.8</ele><time>2024-08-13T18:11:39Z</time></trkpt>
<trkpt lat="45.331315" lon="-121.711211"><ele>1811.0</ele><time>2024-08-13T18:13:38Z</time></trkpt>
<trkpt lat="45.331132" lon="-121.711065"><ele>1811.6</ele><time>2024-08-13T18:13:59Z</time></trkpt>
<trkpt lat="45.331072" lon="-121.711341"><ele>1811.6</ele><time>2024-08-13T18:14:21Z</time></trkpt>
<trkpt lat="45.330952" lon="-121.711370"><ele>1813.6</ele><time>2024-08-13T18:14:37Z</time></trkpt>
<trkpt lat="45.330908" lon="-121.711505"><ele>1812.8</ele><time>2024-08-13T18:14:59Z</time></trkpt>
<trkpt lat="45.330728" lon="-121.711630"><ele>1811.4</ele><time>2024-08-13T18:15:49Z</time></trkpt>
<trkpt lat="45.330645" lon="-121.712256"><ele>1811.8</ele><time>2024-08-13T18:16:06Z</time></trkpt>
<trkpt lat="45.330718" lon="-121.711598"><ele>1811.8</ele><time>2024-08-13T18:16:07Z</time></trkpt>
<trkpt lat="45.330884" lon="-121.711480"><ele>1811.6</ele><time>2024-08-13T18:16:17Z</time></trkpt>
<trkpt lat="45.331003" lon="-121.711187"><ele>1811.4</ele><time>2024-08-13T18:16:24Z</time></trkpt>
<trkpt lat="45.331088" lon="-121.710870"><ele>1811.4</ele><time>2024-08-13T18:16:30Z</time></trkpt>
<trkpt lat="45.331061" lon="-121.710725"><ele>1811.2</ele><time>2024-08-13T18:16:33Z</time></trkpt>
<trkpt lat="45.331082" lon="-121.711150"><ele>1811.2</ele><time>2024-08-13T18:16:59Z</time></trkpt>
<trkpt lat="45.331045" lon="-121.711268"><ele>1811.2</ele><time>2024-08-13T18:17:19Z</time></trkpt>
<trkpt lat="45.330965" lon="-121.711295"><ele>1811.4</ele><time>2024-08-13T18:17:43Z</time></trkpt>
<trkpt lat="45.330748" lon="-121.711984"><ele>1807.6</ele><time>2024-08-13T18:18:50Z</time></trkpt>
<trkpt lat="45.330809" lon="-121.711795"><ele>1807.6</ele><time>2024-08-13T18:18:51Z</time></trkpt>
<trkpt lat="45.330873" lon="-121.711851"><ele>1807.6</ele><time>2024-08-13T18:18:54Z</time></trkpt>
<trkpt lat="45.330914" lon="-121.712409"><ele>1807.8</ele><time>2024-08-13T18:19:31Z</time></trkpt>
<trkpt lat="45.330912" lon="-121.712165"><ele>1807.6</ele><time>2024-08-13T18:21:01Z</time></trkpt>
<trkpt lat="45.330812" lon="-121.712045"><ele>1806.4</ele><time>2024-08-13T18:22:31Z</time></trkpt>
<trkpt lat="45.330894" lon="-121.711978"><ele>1806.4</ele><time>2024-08-13T18:22:52Z</time></trkpt>
<trkpt lat="45.330877" lon="-121.711682"><ele>1806.8</ele><time>2024-08-13T18:23:07Z</time></trkpt>
<trkpt lat="45.330992" lon="-121.711486"><ele>1808.2</ele><time>2024-08-13T18:23:31Z</time></trkpt>
<trkpt lat="45.331118" lon="-121.711430"><ele>1811.8</ele><time>2024-08-13T18:23:51Z</time></trkpt>
<trkpt lat="45.331022" lon="-121.711500"><ele>1813.2</ele><time>2024-08-13T18:24:58Z</time></trkpt>
<trkpt lat="45.331055" lon="-121.711435"><ele>1813.4</ele><time>2024-08-13T18:25:11Z</time></trkpt>
<trkpt lat="45.330862" lon="-121.710213"><ele>1805.4</ele><time>2024-08-13T21:25:30Z</time></trkpt>
<trkpt lat="45.330950" lon="-121.710137"><ele>1806.0</ele><time>2024-08-13T21:25:40Z</time></trkpt>
<trkpt lat="45.330680" lon="-121.710473"><ele>1806.0</ele><time>2024-08-13T21:27:30Z</time></trkpt>
<trkpt lat="45.330916" lon="-121.710284"><ele>1806.4</ele><time>2024-08-13T21:27:47Z</time></trkpt>
<trkpt lat="45.331190" lon="-121.710333"><ele>1807.0</ele><time>2024-08-13T21:28:14Z</time></trkpt>
<trkpt lat="45.331010" lon="-121.710356"><ele>1808.8</ele><time>2024-08-13T21:28:32Z</time></trkpt>
<trkpt lat="45.330967" lon="-121.710563"><ele>1805.2</ele><time>2024-08-13T21:29:48Z</time></trkpt>
<trkpt lat="45.330754" lon="-121.710698"><ele>1804.0</ele><time>2024-08-13T21:30:07Z</time></trkpt>
<trkpt lat="45.331017" lon="-121.710657"><ele>1804.0</ele><time>2024-08-13T21:30:09Z</time></trkpt>
<trkpt lat="45.331219" lon="-121.710500"><ele>1804.4</ele><time>2024-08-13T21:30:15Z</time></trkpt>
<trkpt lat="45.331128" lon="-121.710524"><ele>1804.8</ele><time>2024-08-13T21:30:25Z</time></trkpt>
<trkpt lat="45.331028" lon="-121.710156"><ele>1805.4</ele><time>2024-08-13T21:31:03Z</time></trkpt>
<trkpt lat="45.330849" lon="-121.709962"><ele>1803.4</ele><time>2024-08-13T21:31:33Z</time></trkpt>
<trkpt lat="45.330760" lon="-121.710167"><ele>1802.2</ele><time>2024-08-13T21:31:45Z</time></trkpt>
<trkpt lat="45.330586" lon="-121.710318"><ele>1801.4</ele><time>2024-08-13T21:31:58Z</time></trkpt>
<trkpt lat="45.330811" lon="-121.710222"><ele>1800.8</ele><time>2024-08-13T21:32:10Z</time></trkpt>
<trkpt lat="45.331072" lon="-121.710253"><ele>1800.8</ele><time>2024-08-13T21:32:17Z</time></trkpt>
<trkpt lat="45.330952" lon="-121.710478"><ele>1801.2</ele><time>2024-08-13T21:32:33Z</time></trkpt>
<trkpt lat="45.330791" lon="-121.710485"><ele>1800.6</ele><time>2024-08-13T21:32:44Z</time></trkpt>
<trkpt lat="45.330768" lon="-121.710368"><ele>1799.8</ele><time>2024-08-13T21:32:52Z</time></trkpt>
<trkpt lat="45.330852" lon="-121.710220"><ele>1799.0</ele><time>2024-08-13T21:33:06Z</time></trkpt>
<trkpt lat="45.330621" lon="-121.709906"><ele>1794.2</ele><time>2024-08-13T21:34:14Z</time></trkpt>
<trkpt lat="45.330575" lon="-121.709724"><ele>1791.2</ele><time>2024-08-13T21:34:46Z</time></trkpt>
<trkpt lat="45.330675" lon="-121.709600"><ele>1791.2</ele><time>2024-08-13T21:34:56Z</time></trkpt>
<trkpt lat="45.330672" lon="-121.709194"><ele>1791.4</ele><time>2024-08-13T21:35:11Z</time></trkpt>
<trkpt lat="45.330816" lon="-121.709319"><ele>1791.6</ele><time>2024-08-13T21:35:19Z</time></trkpt>
<trkpt lat="45.330583" lon="-121.709392"><ele>1791.8</ele><time>2024-08-13T21:35:26Z</time></trkpt>
<trkpt lat="45.330524" lon="-121.709575"><ele>1792.2</ele><time>2024-08-13T21:35:33Z</time></trkpt>
<trkpt lat="45.330614" lon="-121.709591"><ele>1792.2</ele><time>2024-08-13T21:35:36Z</time></trkpt>
<trkpt lat="45.330847" lon="-121.709411"><ele>1791.6</ele><time>2024-08-13T21:35:58Z</time></trkpt>
<trkpt lat="45.330705" lon="-121.709386"><ele>1791.8</ele><time>2024-08-13T21:36:00Z</time></trkpt>
<trkpt lat="45.330543" lon="-121.709213"><ele>1791.8</ele><time>2024-08-13T21:36:06Z</time></trkpt>
<trkpt lat="45.330768" lon="-121.709585"><ele>1790.8</ele><time>2024-08-13T21:42:15Z</time></trkpt>
<trkpt lat="45.330591" lon="-121.709867"><ele>1791.0</ele><time>2024-08-13T21:44:29Z</time></trkpt>
<trkpt lat="45.330440" lon="-121.709735"><ele>1790.8</ele><time>2024-08-13T21:44:33Z</time></trkpt>
<trkpt lat="45.330317" lon="-121.709832"><ele>1790.8</ele><time>2024-08-13T21:44:34Z</time></trkpt>
<trkpt lat="45.330515" lon="-121.709998"><ele>1791.2</ele><time>2024-08-13T21:44:41Z</time></trkpt>
<trkpt lat="45.330491" lon="-121.710053"><ele>1798.8</ele><time>2024-08-13T21:53:09Z</time></trkpt>
<trkpt lat="45.330677" lon="-121.710474"><ele>1799.8</ele><time>2024-08-13T21:53:18Z</time></trkpt>
<trkpt lat="45.330771" lon="-121.710503"><ele>1800.2</ele><time>2024-08-13T21:53:20Z</time></trkpt>
<trkpt lat="45.331025" lon="-121.710936"><ele>1802.6</ele><time>2024-08-13T21:53:30Z</time></trkpt>
<trkpt lat="45.331217" lon="-121.710412"><ele>1808.2</ele><time>2024-08-13T21:54:57Z</time></trkpt>
<trkpt lat="45.331158" lon="-121.710628"><ele>1815.0</ele><time>2024-08-13T22:04:29Z</time></trkpt>
<trkpt lat="45.331406" lon="-121.710331"><ele>1816.6</ele><time>2024-08-13T22:05:09Z</time></trkpt>
<trkpt lat="45.331224" lon="-121.710523"><ele>1816.0</ele><time>2024-08-13T22:06:17Z</time></trkpt>
<trkpt lat="45.331253" lon="-121.710602"><ele>1816.2</ele><time>2024-08-13T22:06:41Z</time></trkpt>
<trkpt lat="45.331200" lon="-121.710683"><ele>1816.0</ele><time>2024-08-13T22:07:06Z</time></trkpt>
<trkpt lat="45.331352" lon="-121.710480"><ele>1816.0</ele><time>2024-08-13T22:07:09Z</time></trkpt>
<trkpt lat="45.331314" lon="-121.710425"><ele>1815.8</ele><time>2024-08-13T22:07:15Z</time></trkpt>
<trkpt lat="45.331266" lon="-121.710695"><ele>1815.6</ele><time>2024-08-13T22:07:59Z</time></trkpt>
<trkpt lat="45.331176" lon="-121.710637"><ele>1816.4</ele><time>2024-08-13T22:08:05Z</time></trkpt>
<trkpt lat="45.331194" lon="-121.710533"><ele>1816.2</ele><time>2024-08-13T22:08:17Z</time></trkpt>
<trkpt lat="45.331302" lon="-121.710569"><ele>1816.2</ele><time>2024-08-13T22:08:29Z</time></trkpt>
<trkpt lat="45.331200" lon="-121.710655"><ele>1814.8</ele><time>2024-08-13T22:09:16Z</time></trkpt>
<trkpt lat="45.331488" lon="-121.710438"><ele>1815.4</ele><time>2024-08-13T22:10:58Z</time></trkpt>
<trkpt lat="45.331199" lon="-121.709992"><ele>1815.4</ele><time>2024-08-13T22:11:04Z</time></trkpt>
<trkpt lat="45.331599" lon="-121.710837"><ele>1815.6</ele><time>2024-08-13T22:11:05Z</time></trkpt>
<trkpt lat="45.331443" lon="-121.710400"><ele>1815.6</ele><time>2024-08-13T22:11:08Z</time></trkpt>
<trkpt lat="45.331331" lon="-121.710560"><ele>1815.8</ele><time>2024-08-13T22:11:30Z</time></trkpt>
<trkpt lat="45.331236" lon="-121.710524"><ele>1815.6</ele><time>2024-08-13T22:11:58Z</time></trkpt>
<trkpt lat="45.331275" lon="-121.710479"><ele>1815.2</ele><time>2024-08-13T22:12:04Z</time></trkpt>
<trkpt lat="45.331257" lon="-121.710601"><ele>1815.2</ele><time>2024-08-13T22:12:08Z</time></trkpt>
<trkpt lat="45.331318" lon="-121.710630"><ele>1815.0</ele><time>2024-08-13T22:13:10Z</time></trkpt>
<trkpt lat="45.331211" lon="-121.710785"><ele>1813.8</ele><time>2024-08-13T22:19:06Z</time></trkpt>
<trkpt lat="45.331256" lon="-121.710644"><ele>1813.8</ele><time>2024-08-13T22:19:24Z</time></trkpt>
<trkpt lat="45.331201" lon="-121.710647"><ele>1813.8</ele><time>2024-08-13T22:19:29Z</time></trkpt>
<trkpt lat="45.331218" lon="-121.710719"><ele>1814.2</ele><time>2024-08-13T22:19:58Z</time></trkpt>
<trkpt lat="45.331247" lon="-121.710678"><ele>1814.2</ele><time>2024-08-13T22:20:13Z</time></trkpt>
<trkpt lat="45.331092" lon="-121.710550"><ele>1814.2</ele><time>2024-08-13T22:22:06Z</time></trkpt>
<trkpt lat="45.331162" lon="-121.710709"><ele>1814.2</ele><time>2024-08-13T22:22:30Z</time></trkpt>
<trkpt lat="45.331045" lon="-121.711122"><ele>1814.2</ele><time>2024-08-13T22:24:06Z</time></trkpt>
<trkpt lat="45.331227" lon="-121.710665"><ele>1814.2</ele><time>2024-08-13T22:24:07Z</time></trkpt>
<trkpt lat="45.331087" lon="-121.710987"><ele>1813.8</ele><time>2024-08-13T22:26:06Z</time></trkpt>
<trkpt lat="45.331219" lon="-121.710686"><ele>1813.8</ele><time>2024-08-13T22:26:13Z</time></trkpt>
<trkpt lat="45.331204" lon="-121.710529"><ele>1813.8</ele><time>2024-08-13T22:28:18Z</time></trkpt>
<trkpt lat="45.331262" lon="-121.710588"><ele>1813.8</ele><time>2024-08-13T22:28:31Z</time></trkpt>
<trkpt lat="45.331230" lon="-121.710783"><ele>1813.8</ele><time>2024-08-13T22:28:57Z</time></trkpt>
<trkpt lat="45.331358" lon="-121.710745"><ele>1813.8</ele><time>2024-08-13T22:29:05Z</time></trkpt>
<trkpt lat="45.331178" lon="-121.710708"><ele>1813.6</ele><time>2024-08-13T22:33:15Z</time></trkpt>
<trkpt lat="45.331150" lon="-121.710620"><ele>1814.4</ele><time>2024-08-13T22:34:18Z</time></trkpt>
<trkpt lat="45.331231" lon="-121.710738"><ele>1814.2</ele><time>2024-08-13T22:37:13Z</time></trkpt>
<trkpt lat="45.331248" lon="-121.710598"><ele>1814.4</ele><time>2024-08-13T22:39:18Z</time></trkpt>
<trkpt lat="45.331268" lon="-121.710667"><ele>1814.2</ele><time>2024-08-13T22:40:17Z</time></trkpt>
<trkpt lat="45.331319" lon="-121.710625"><ele>1814.4</ele><time>2024-08-13T22:41:11Z</time></trkpt>
<trkpt lat="45.331147" lon="-121.710696"><ele>1814.0</ele><time>2024-08-13T22:43:08Z</time></trkpt>
<trkpt lat="45.331318" lon="-121.710738"><ele>1814.0</ele><time>2024-08-13T22:45:08Z</time></trkpt>
<trkpt lat="45.331207" lon="-121.710647"><ele>1815.0</ele><time>2024-08-13T22:51:18Z</time></trkpt>
<trkpt lat="45.331274" lon="-121.710638"><ele>1815.4</ele><time>2024-08-13T22:53:06Z</time></trkpt>
<trkpt lat="45.331187" lon="-121.710817"><ele>1815.4</ele><time>2024-08-13T22:55:17Z</time></trkpt>
<trkpt lat="45.331245" lon="-121.710628"><ele>1815.4</ele><time>2024-08-13T22:57:16Z</time></trkpt>
<trkpt lat="45.331198" lon="-121.710736"><ele>1815.4</ele><time>2024-08-13T22:59:14Z</time></trkpt>
<trkpt lat="45.331280" lon="-121.710845"><ele>1815.8</ele><time>2024-08-13T23:01:20Z</time></trkpt>
<trkpt lat="45.331259" lon="-121.710612"><ele>1815.8</ele><time>2024-08-13T23:05:10Z</time></trkpt>
<trkpt lat="45.331237" lon="-121.710764"><ele>1815.8</ele><time>2024-08-13T23:08:20Z</time></trkpt>
<trkpt lat="45.331153" lon="-121.710780"><ele>1815.6</ele><time>2024-08-13T23:09:21Z</time></trkpt>
<trkpt lat="45.331178" lon="-121.710675"><ele>1815.6</ele><time>2024-08-13T23:10:26Z</time></trkpt>
<trkpt lat="45.331130" lon="-121.710643"><ele>1815.6</ele><time>2024-08-13T23:11:19Z</time></trkpt>
<trkpt lat="45.331344" lon="-121.710656"><ele>1815.2</ele><time>2024-08-13T23:13:08Z</time></trkpt>
<trkpt lat="45.331198" lon="-121.710662"><ele>1815.0</ele><time>2024-08-13T23:15:09Z</time></trkpt>
<trkpt lat="45.331179" lon="-121.710855"><ele>1814.2</ele><time>2024-08-13T23:19:38Z</time></trkpt>
<trkpt lat="45.331230" lon="-121.710872"><ele>1814.2</ele><time>2024-08-13T23:19:49Z</time></trkpt>
<trkpt lat="45.331193" lon="-121.710697"><ele>1814.4</ele><time>2024-08-13T23:20:14Z</time></trkpt>
<trkpt lat="45.330975" lon="-121.710796"><ele>1814.0</ele><time>2024-08-13T23:24:06Z</time></trkpt>
<trkpt lat="45.331247" lon="-121.710691"><ele>1814.2</ele><time>2024-08-13T23:26:14Z</time></trkpt>
<trkpt lat="45.331250" lon="-121.710621"><ele>1813.4</ele><time>2024-08-13T23:28:14Z</time></trkpt>
<trkpt lat="45.331103" lon="-121.710648"><ele>1813.0</ele><time>2024-08-13T23:34:14Z</time></trkpt>
<trkpt lat="45.331209" lon="-121.710634"><ele>1812.6</ele><time>2024-08-13T23:36:11Z</time></trkpt>
<trkpt lat="45.331139" lon="-121.710586"><ele>1812.2</ele><time>2024-08-13T23:36:20Z</time></trkpt>
<trkpt lat="45.331308" lon="-121.710739"><ele>1812.8</ele><time>2024-08-13T23:37:01Z</time></trkpt>
<trkpt lat="45.331139" lon="-121.710509"><ele>1812.8</ele><time>2024-08-13T23:39:11Z</time></trkpt>
<trkpt lat="45.331130" lon="-121.710648"><ele>1813.0</ele><time>2024-08-13T23:39:20Z</time></trkpt>
<trkpt lat="45.331318" lon="-121.710688"><ele>1815.4</ele><time>2024-08-13T23:43:07Z</time></trkpt>
<trkpt lat="45.331206" lon="-121.710671"><ele>1815.4</ele><time>2024-08-13T23:43:16Z</time></trkpt>
<trkpt lat="45.331244" lon="-121.710631"><ele>1816.4</ele><time>2024-08-13T23:45:14Z</time></trkpt>
<trkpt lat="45.331068" lon="-121.710794"><ele>1815.6</ele><time>2024-08-13T23:49:09Z</time></trkpt>
<trkpt lat="45.331205" lon="-121.710731"><ele>1815.2</ele><time>2024-08-13T23:49:12Z</time></trkpt>
<trkpt lat="45.331204" lon="-121.710652"><ele>1815.2</ele><time>2024-08-13T23:50:43Z</time></trkpt>
<trkpt lat="45.331278" lon="-121.710762"><ele>1815.2</ele><time>2024-08-13T23:55:03Z</time></trkpt>
<trkpt lat="45.331219" lon="-121.710805"><ele>1815.2</ele><time>2024-08-13T23:55:09Z</time></trkpt>
<trkpt lat="45.331211" lon="-121.710609"><ele>1814.4</ele><time>2024-08-13T23:57:22Z</time></trkpt>
<trkpt lat="45.331224" lon="-121.710704"><ele>1814.6</ele><time>2024-08-13T23:59:20Z</time></trkpt>
<trkpt lat="45.330888" lon="-121.710675"><ele>1815.0</ele><time>2024-08-14T00:01:14Z</time></trkpt>
<trkpt lat="45.331160" lon="-121.710663"><ele>1815.2</ele><time>2024-08-14T00:01:20Z</time></trkpt>
<trkpt lat="45.331182" lon="-121.710556"><ele>1815.2</ele><time>2024-08-14T00:03:20Z</time></trkpt>
<trkpt lat="45.331335" lon="-121.710766"><ele>1815.0</ele><time>2024-08-14T00:04:02Z</time></trkpt>
<trkpt lat="45.331283" lon="-121.710675"><ele>1815.2</ele><time>2024-08-14T00:04:15Z</time></trkpt>
<trkpt lat="45.331399" lon="-121.710730"><ele>1815.6</ele><time>2024-08-14T00:06:17Z</time></trkpt>
<trkpt lat="45.331290" lon="-121.710666"><ele>1816.0</ele><time>2024-08-14T00:08:05Z</time></trkpt>
<trkpt lat="45.331331" lon="-121.710583"><ele>1815.8</ele><time>2024-08-14T00:08:08Z</time></trkpt>
<trkpt lat="45.331370" lon="-121.710689"><ele>1815.8</ele><time>2024-08-14T00:08:11Z</time></trkpt>
<trkpt lat="45.331069" lon="-121.710377"><ele>1815.6</ele><time>2024-08-14T00:09:57Z</time></trkpt>
<trkpt lat="45.330907" lon="-121.710365"><ele>1815.6</ele><time>2024-08-14T00:10:06Z</time></trkpt>
<trkpt lat="45.331289" lon="-121.710626"><ele>1815.4</ele><time>2024-08-14T00:10:11Z</time></trkpt>
<trkpt lat="45.331260" lon="-121.710737"><ele>1815.2</ele><time>2024-08-14T00:10:18Z</time></trkpt>
<trkpt lat="45.331346" lon="-121.710765"><ele>1815.4</ele><time>2024-08-14T00:12:16Z</time></trkpt>
<trkpt lat="45.331261" lon="-121.710790"><ele>1815.4</ele><time>2024-08-14T00:12:19Z</time></trkpt>
<trkpt lat="45.331341" lon="-121.710797"><ele>1816.2</ele><time>2024-08-14T00:14:14Z</time></trkpt>
<trkpt lat="45.331266" lon="-121.710696"><ele>1816.2</ele><time>2024-08-14T00:14:22Z</time></trkpt>
<trkpt lat="45.331256" lon="-121.710760"><ele>1815.8</ele><time>2024-08-14T00:14:41Z</time></trkpt>
<trkpt lat="45.331161" lon="-121.710738"><ele>1815.8</ele><time>2024-08-14T00:16:13Z</time></trkpt>
<trkpt lat="45.331250" lon="-121.710616"><ele>1815.6</ele><time>2024-08-14T00:18:13Z</time></trkpt>
<trkpt lat="45.331188" lon="-121.710605"><ele>1815.8</ele><time>2024-08-14T00:18:31Z</time></trkpt>
<trkpt lat="45.331265" lon="-121.710686"><ele>1816.0</ele><time>2024-08-14T00:19:02Z</time></trkpt>
<trkpt lat="45.331595" lon="-121.710609"><ele>1816.8</ele><time>2024-08-14T00:21:05Z</time></trkpt>
<trkpt lat="45.331280" lon="-121.710605"><ele>1816.8</ele><time>2024-08-14T00:21:06Z</time></trkpt>
<trkpt lat="45.331254" lon="-121.710682"><ele>1817.4</ele><time>2024-08-14T00:21:11Z</time></trkpt>
<trkpt lat="45.331282" lon="-121.710629"><ele>1817.0</ele><time>2024-08-14T00:21:14Z</time></trkpt>
<trkpt lat="45.331223" lon="-121.710654"><ele>1817.0</ele><time>2024-08-14T00:21:18Z</time></trkpt>
<trkpt lat="45.331235" lon="-121.710605"><ele>1817.6</ele><time>2024-08-14T00:21:27Z</time></trkpt>
<trkpt lat="45.331181" lon="-121.710661"><ele>1816.8</ele><time>2024-08-14T00:23:10Z</time></trkpt>
<trkpt lat="45.331376" lon="-121.710618"><ele>1817.0</ele><time>2024-08-14T00:25:06Z</time></trkpt>
<trkpt lat="45.331190" lon="-121.710688"><ele>1816.6</ele><time>2024-08-14T00:25:22Z</time></trkpt>
<trkpt lat="45.331051" lon="-121.710597"><ele>1817.0</ele><time>2024-08-14T00:27:12Z</time></trkpt>
<trkpt lat="45.331211" lon="-121.710601"><ele>1817.4</ele><time>2024-08-14T00:29:13Z</time></trkpt>
<trkpt lat="45.331121" lon="-121.710709"><ele>1817.2</ele><time>2024-08-14T00:31:12Z</time></trkpt>
<trkpt lat="45.331353" lon="-121.710371"><ele>1816.6</ele><time>2024-08-14T00:33:05Z</time></trkpt>
<trkpt lat="45.331361" lon="-121.710451"><ele>1816.4</ele><time>2024-08-14T00:33:07Z</time></trkpt>
<trkpt lat="45.331193" lon="-121.710691"><ele>1817.2</ele><time>2024-08-14T00:33:23Z</time></trkpt>
<trkpt lat="45.331168" lon="-121.710530"><ele>1816.4</ele><time>2024-08-14T00:34:22Z</time></trkpt>
<trkpt lat="45.331085" lon="-121.710873"><ele>1817.2</ele><time>2024-08-14T00:37:13Z</time></trkpt>
<trkpt lat="45.331139" lon="-121.710738"><ele>1818.4</ele><time>2024-08-14T00:37:23Z</time></trkpt>
<trkpt lat="45.331039" lon="-121.710809"><ele>1816.2</ele><time>2024-08-14T00:38:54Z</time></trkpt>
<trkpt lat="45.330985" lon="-121.710764"><ele>1812.8</ele><time>2024-08-14T00:39:18Z</time></trkpt>
<trkpt lat="45.331136" lon="-121.710717"><ele>1812.6</ele><time>2024-08-14T00:39:23Z</time></trkpt>
<trkpt lat="45.331228" lon="-121.711062"><ele>1813.4</ele><time>2024-08-14T00:41:15Z</time></trkpt>
<trkpt lat="45.331122" lon="-121.710780"><ele>1813.4</ele><time>2024-08-14T00:41:20Z</time></trkpt>
<trkpt lat="45.331109" lon="-121.710824"><ele>1810.8</ele><time>2024-08-14T00:42:12Z</time></trkpt>
<trkpt lat="45.331332" lon="-121.710438"><ele>1813.0</ele><time>2024-08-14T00:42:46Z</time></trkpt>
<trkpt lat="45.331404" lon="-121.710452"><ele>1812.2</ele><time>2024-08-14T00:43:04Z</time></trkpt>
<trkpt lat="45.331545" lon="-121.710286"><ele>1813.0</ele><time>2024-08-14T00:43:08Z</time></trkpt>
<trkpt lat="45.332159" lon="-121.710591"><ele>1824.8</ele><time>2024-08-14T00:44:07Z</time></trkpt>
<trkpt lat="45.332579" lon="-121.710918"><ele>1834.2</ele><time>2024-08-14T00:45:04Z</time></trkpt>
<trkpt lat="45.332806" lon="-121.711529"><ele>1843.2</ele><time>2024-08-14T00:45:51Z</time></trkpt>
<trkpt lat="45.332895" lon="-121.711947"><ele>1851.4</ele><time>2024-08-14T00:46:59Z</time></trkpt>
<trkpt lat="45.333107" lon="-121.712155"><ele>1852.4</ele><time>2024-08-14T00:47:06Z</time></trkpt>
<trkpt lat="45.333119" lon="-121.712377"><ele>1854.2</ele><time>2024-08-14T00:47:13Z</time></trkpt>
<trkpt lat="45.333224" lon="-121.712393"><ele>1854.6</ele><time>2024-08-14T00:47:20Z</time></trkpt>
<trkpt lat="45.333350" lon="-121.713273"><ele>1860.2</ele><time>2024-08-14T00:48:21Z</time></trkpt>
<trkpt lat="45.333609" lon="-121.714093"><ele>1856.6</ele><time>2024-08-14T00:49:04Z</time></trkpt>
<trkpt lat="45.333887" lon="-121.714505"><ele>1854.2</ele><time>2024-08-14T00:49:31Z</time></trkpt>
<trkpt lat="45.333982" lon="-121.714779"><ele>1853.6</ele><time>2024-08-14T00:49:43Z</time></trkpt>
<trkpt lat="45.333933" lon="-121.715013"><ele>1852.6</ele><time>2024-08-14T00:50:07Z</time></trkpt>
<trkpt lat="45.334202" lon="-121.715864"><ele>1846.2</ele><time>2024-08-14T00:51:01Z</time></trkpt>
<trkpt lat="45.334290" lon="-121.715908"><ele>1846.0</ele><time>2024-08-14T00:51:05Z</time></trkpt>
<trkpt lat="45.334238" lon="-121.715917"><ele>1846.0</ele><time>2024-08-14T00:51:08Z</time></trkpt>
<trkpt lat="45.334322" lon="-121.716023"><ele>1846.0</ele><time>2024-08-14T00:51:14Z</time></trkpt>
<trkpt lat="45.334239" lon="-121.716491"><ele>1845.6</ele><time>2024-08-14T00:51:43Z</time></trkpt>
<trkpt lat="45.334290" lon="-121.717063"><ele>1844.0</ele><time>2024-08-14T00:52:17Z</time></trkpt>
<trkpt lat="45.334208" lon="-121.718084"><ele>1844.4</ele><time>2024-08-14T00:53:17Z</time></trkpt>
<trkpt lat="45.334814" lon="-121.719790"><ele>1842.6</ele><time>2024-08-14T00:55:07Z</time></trkpt>
<trkpt lat="45.334752" lon="-121.720088"><ele>1841.6</ele><time>2024-08-14T00:55:21Z</time></trkpt>
<trkpt lat="45.334813" lon="-121.720302"><ele>1840.6</ele><time>2024-08-14T00:55:33Z</time></trkpt>
<trkpt lat="45.335236" lon="-121.720978"><ele>1833.0</ele><time>2024-08-14T00:56:31Z</time></trkpt>
<trkpt lat="45.335621" lon="-121.721293"><ele>1829.4</ele><time>2024-08-14T00:57:03Z</time></trkpt>
<trkpt lat="45.335817" lon="-121.721573"><ele>1827.2</ele><time>2024-08-14T00:57:21Z</time></trkpt>
<trkpt lat="45.336109" lon="-121.722658"><ele>1817.0</ele><time>2024-08-14T00:59:20Z</time></trkpt>
<trkpt lat="45.336109" lon="-121.722844"><ele>1817.8</ele><time>2024-08-14T01:01:05Z</time></trkpt>
<trkpt lat="45.336177" lon="-121.722928"><ele>1817.8</ele><time>2024-08-14T01:01:13Z</time></trkpt>
<trkpt lat="45.336265" lon="-121.722896"><ele>1815.6</ele><time>2024-08-14T01:01:23Z</time></trkpt>
<trkpt lat="45.336493" lon="-121.723275"><ele>1813.4</ele><time>2024-08-14T01:01:36Z</time></trkpt>
<trkpt lat="45.336658" lon="-121.724061"><ele>1807.2</ele><time>2024-08-14T01:02:40Z</time></trkpt>
<trkpt lat="45.336586" lon="-121.724487"><ele>1802.4</ele><time>2024-08-14T01:03:05Z</time></trkpt>
<trkpt lat="45.336634" lon="-121.724703"><ele>1801.8</ele><time>2024-08-14T01:03:15Z</time></trkpt>
<trkpt lat="45.336632" lon="-121.725350"><ele>1798.4</ele><time>2024-08-14T01:03:40Z</time></trkpt>
<trkpt lat="45.336696" lon="-121.725577"><ele>1796.6</ele><time>2024-08-14T01:03:50Z</time></trkpt>
<trkpt lat="45.336961" lon="-121.725825"><ele>1791.8</ele><time>2024-08-14T01:04:42Z</time></trkpt>
<trkpt lat="45.336870" lon="-121.726305"><ele>1793.2</ele><time>2024-08-14T01:05:06Z</time></trkpt>
<trkpt lat="45.336894" lon="-121.726602"><ele>1791.0</ele><time>2024-08-14T01:05:22Z</time></trkpt>
<trkpt lat="45.337202" lon="-121.726933"><ele>1793.0</ele><time>2024-08-14T01:06:04Z</time></trkpt>
<trkpt lat="45.337743" lon="-121.726862"><ele>1789.0</ele><time>2024-08-14T01:07:00Z</time></trkpt>
<trkpt lat="45.337883" lon="-121.727081"><ele>1786.6</ele><time>2024-08-14T01:07:08Z</time></trkpt>
<trkpt lat="45.337722" lon="-121.727164"><ele>1782.2</ele><time>2024-08-14T01:07:23Z</time></trkpt>
<trkpt lat="45.337632" lon="-121.727454"><ele>1778.8</ele><time>2024-08-14T01:07:32Z</time></trkpt>
<trkpt lat="45.337654" lon="-121.727610"><ele>1775.6</ele><time>2024-08-14T01:07:44Z</time></trkpt>
<trkpt lat="45.337466" lon="-121.728613"><ele>1786.4</ele><time>2024-08-14T01:09:05Z</time></trkpt>
<trkpt lat="45.337309" lon="-121.728971"><ele>1784.2</ele><time>2024-08-14T01:09:25Z</time></trkpt>
<trkpt lat="45.337421" lon="-121.729713"><ele>1782.2</ele><time>2024-08-14T01:10:00Z</time></trkpt>
<trkpt lat="45.337391" lon="-121.730284"><ele>1775.6</ele><time>2024-08-14T01:10:38Z</time></trkpt>
<trkpt lat="45.337524" lon="-121.730521"><ele>1772.0</ele><time>2024-08-14T01:10:56Z</time></trkpt>
<trkpt lat="45.337385" lon="-121.730895"><ele>1769.8</ele><time>2024-08-14T01:11:11Z</time></trkpt>
<trkpt lat="45.337389" lon="-121.731108"><ele>1767.8</ele><time>2024-08-14T01:11:25Z</time></trkpt>
<trkpt lat="45.337654" lon="-121.731881"><ele>1762.0</ele><time>2024-08-14T01:11:56Z</time></trkpt>
<trkpt lat="45.337670" lon="-121.732592"><ele>1754.4</ele><time>2024-08-14T01:12:42Z</time></trkpt>
<trkpt lat="45.337744" lon="-121.732729"><ele>1752.0</ele><time>2024-08-14T01:12:56Z</time></trkpt>
<trkpt lat="45.337998" lon="-121.732909"><ele>1750.2</ele><time>2024-08-14T01:13:09Z</time></trkpt>
<trkpt lat="45.337908" lon="-121.732766"><ele>1750.0</ele><time>2024-08-14T01:13:14Z</time></trkpt>
<trkpt lat="45.338073" lon="-121.732805"><ele>1747.8</ele><time>2024-08-14T01:13:27Z</time></trkpt>
<trkpt lat="45.338082" lon="-121.732908"><ele>1747.2</ele><time>2024-08-14T01:13:33Z</time></trkpt>
<trkpt lat="45.338524" lon="-121.733542"><ele>1742.6</ele><time>2024-08-14T01:14:22Z</time></trkpt>
<trkpt lat="45.338508" lon="-121.733668"><ele>1742.8</ele><time>2024-08-14T01:14:27Z</time></trkpt>
<trkpt lat="45.338722" lon="-121.734235"><ele>1739.0</ele><time>2024-08-14T01:14:56Z</time></trkpt>
<trkpt lat="45.338710" lon="-121.734531"><ele>1738.2</ele><time>2024-08-14T01:15:16Z</time></trkpt>
<trkpt lat="45.338340" lon="-121.735354"><ele>1735.8</ele><time>2024-08-14T01:15:52Z</time></trkpt>
<trkpt lat="45.338364" lon="-121.735702"><ele>1728.6</ele><time>2024-08-14T01:16:20Z</time></trkpt>
<trkpt lat="45.338159" lon="-121.735801"><ele>1724.2</ele><time>2024-08-14T01:16:46Z</time></trkpt>
<trkpt lat="45.337968" lon="-121.736269"><ele>1721.4</ele><time>2024-08-14T01:17:06Z</time></trkpt>
<trkpt lat="45.337981" lon="-121.735982"><ele>1721.0</ele><time>2024-08-14T01:17:08Z</time></trkpt>
<trkpt lat="45.338011" lon="-121.736180"><ele>1720.2</ele><time>2024-08-14T01:17:13Z</time></trkpt>
<trkpt lat="45.338198" lon="-121.736143"><ele>1718.8</ele><time>2024-08-14T01:17:25Z</time></trkpt>
<trkpt lat="45.338104" lon="-121.736016"><ele>1716.0</ele><time>2024-08-14T01:17:42Z</time></trkpt>
<trkpt lat="45.338405" lon="-121.736452"><ele>1712.0</ele><time>2024-08-14T01:18:18Z</time></trkpt>
<trkpt lat="45.338399" lon="-121.736671"><ele>1710.4</ele><time>2024-08-14T01:18:28Z</time></trkpt>
<trkpt lat="45.338495" lon="-121.737051"><ele>1705.8</ele><time>2024-08-14T01:18:54Z</time></trkpt>
<trkpt lat="45.338432" lon="-121.737299"><ele>1702.0</ele><time>2024-08-14T01:19:06Z</time></trkpt>
<trkpt lat="45.338222" lon="-121.737189"><ele>1701.8</ele><time>2024-08-14T01:19:08Z</time></trkpt>
<trkpt lat="45.338099" lon="-121.737505"><ele>1701.4</ele><time>2024-08-14T01:19:10Z</time></trkpt>
<trkpt lat="45.338445" lon="-121.737522"><ele>1700.6</ele><time>2024-08-14T01:19:13Z</time></trkpt>
<trkpt lat="45.338226" lon="-121.737133"><ele>1699.4</ele><time>2024-08-14T01:19:25Z</time></trkpt>
<trkpt lat="45.338289" lon="-121.736990"><ele>1694.4</ele><time>2024-08-14T01:19:52Z</time></trkpt>
<trkpt lat="45.338269" lon="-121.737248"><ele>1692.4</ele><time>2024-08-14T01:20:06Z</time></trkpt>
<trkpt lat="45.338413" lon="-121.737439"><ele>1688.2</ele><time>2024-08-14T01:20:40Z</time></trkpt>
<trkpt lat="45.338894" lon="-121.737465"><ele>1680.2</ele><time>2024-08-14T01:21:20Z</time></trkpt>
<trkpt lat="45.339385" lon="-121.737705"><ele>1677.0</ele><time>2024-08-14T01:21:45Z</time></trkpt>
<trkpt lat="45.339677" lon="-121.737702"><ele>1673.6</ele><time>2024-08-14T01:22:11Z</time></trkpt>
<trkpt lat="45.339870" lon="-121.738042"><ele>1669.2</ele><time>2024-08-14T01:22:45Z</time></trkpt>
<trkpt lat="45.340032" lon="-121.738751"><ele>1666.4</ele><time>2024-08-14T01:23:10Z</time></trkpt>
<trkpt lat="45.340081" lon="-121.738614"><ele>1666.0</ele><time>2024-08-14T01:23:16Z</time></trkpt>
<trkpt lat="45.340218" lon="-121.738538"><ele>1662.8</ele><time>2024-08-14T01:23:25Z</time></trkpt>
<trkpt lat="45.340642" lon="-121.738607"><ele>1661.2</ele><time>2024-08-14T01:23:36Z</time></trkpt>
<trkpt lat="45.340782" lon="-121.738508"><ele>1658.2</ele><time>2024-08-14T01:23:58Z</time></trkpt>
<trkpt lat="45.341179" lon="-121.738044"><ele>1651.2</ele><time>2024-08-14T01:24:38Z</time></trkpt>
<trkpt lat="45.341285" lon="-121.737671"><ele>1649.0</ele><time>2024-08-14T01:24:58Z</time></trkpt>
<trkpt lat="45.341260" lon="-121.737530"><ele>1647.6</ele><time>2024-08-14T01:25:10Z</time></trkpt>
<trkpt lat="45.341451" lon="-121.737285"><ele>1647.8</ele><time>2024-08-14T01:25:15Z</time></trkpt>
<trkpt lat="45.341553" lon="-121.737289"><ele>1648.2</ele><time>2024-08-14T01:25:25Z</time></trkpt>
<trkpt lat="45.341697" lon="-121.737868"><ele>1649.2</ele><time>2024-08-14T01:26:13Z</time></trkpt>
<trkpt lat="45.341811" lon="-121.738813"><ele>1653.2</ele><time>2024-08-14T01:27:08Z</time></trkpt>
<trkpt lat="45.341987" lon="-121.739114"><ele>1654.0</ele><time>2024-08-14T01:27:14Z</time></trkpt>
<trkpt lat="45.342000" lon="-121.739262"><ele>1654.2</ele><time>2024-08-14T01:27:16Z</time></trkpt>
<trkpt lat="45.342026" lon="-121.739168"><ele>1654.4</ele><time>2024-08-14T01:27:22Z</time></trkpt>
<trkpt lat="45.342154" lon="-121.740908"><ele>1659.4</ele><time>2024-08-14T01:29:09Z</time></trkpt>
<trkpt lat="45.342111" lon="-121.740919"><ele>1659.4</ele><time>2024-08-14T01:29:14Z</time></trkpt>
<trkpt lat="45.342096" lon="-121.741300"><ele>1661.4</ele><time>2024-08-14T01:29:31Z</time></trkpt>
<trkpt lat="45.341959" lon="-121.741626"><ele>1660.4</ele><time>2024-08-14T01:30:13Z</time></trkpt>
<trkpt lat="45.341810" lon="-121.741813"><ele>1657.2</ele><time>2024-08-14T01:30:35Z</time></trkpt>
<trkpt lat="45.341533" lon="-121.742603"><ele>1653.0</ele><time>2024-08-14T01:31:07Z</time></trkpt>
<trkpt lat="45.341473" lon="-121.742621"><ele>1652.4</ele><time>2024-08-14T01:31:09Z</time></trkpt>
<trkpt lat="45.341484" lon="-121.742719"><ele>1651.4</ele><time>2024-08-14T01:31:12Z</time></trkpt>
<trkpt lat="45.341313" lon="-121.742841"><ele>1650.4</ele><time>2024-08-14T01:31:18Z</time></trkpt>
<trkpt lat="45.341374" lon="-121.742820"><ele>1650.0</ele><time>2024-08-14T01:31:23Z</time></trkpt>
<trkpt lat="45.341240" lon="-121.743398"><ele>1644.4</ele><time>2024-08-14T01:31:51Z</time></trkpt>
<trkpt lat="45.341301" lon="-121.743643"><ele>1641.2</ele><time>2024-08-14T01:32:07Z</time></trkpt>
<trkpt lat="45.341540" lon="-121.743864"><ele>1636.6</ele><time>2024-08-14T01:32:27Z</time></trkpt>
<trkpt lat="45.341539" lon="-121.744093"><ele>1634.2</ele><time>2024-08-14T01:33:03Z</time></trkpt>
<trkpt lat="45.340545" lon="-121.742244"><ele>1634.2</ele><time>2024-08-14T01:33:12Z</time></trkpt>
<trkpt lat="45.341449" lon="-121.744087"><ele>1634.0</ele><time>2024-08-14T01:33:14Z</time></trkpt>
<trkpt lat="45.341382" lon="-121.744050"><ele>1633.8</ele><time>2024-08-14T01:33:26Z</time></trkpt>
<trkpt lat="45.341161" lon="-121.744402"><ele>1626.2</ele><time>2024-08-14T01:34:19Z</time></trkpt>
<trkpt lat="45.340993" lon="-121.745044"><ele>1617.6</ele><time>2024-08-14T01:34:55Z</time></trkpt>
<trkpt lat="45.340908" lon="-121.745474"><ele>1613.2</ele><time>2024-08-14T01:35:12Z</time></trkpt>
<trkpt lat="45.341090" lon="-121.745694"><ele>1612.6</ele><time>2024-08-14T01:35:14Z</time></trkpt>
<trkpt lat="45.340914" lon="-121.745651"><ele>1611.6</ele><time>2024-08-14T01:35:18Z</time></trkpt>
<trkpt lat="45.340959" lon="-121.745685"><ele>1611.0</ele><time>2024-08-14T01:35:20Z</time></trkpt>
<trkpt lat="45.340914" lon="-121.745682"><ele>1610.6</ele><time>2024-08-14T01:35:24Z</time></trkpt>
<trkpt lat="45.340779" lon="-121.746387"><ele>1601.6</ele><time>2024-08-14T01:36:07Z</time></trkpt>
<trkpt lat="45.340747" lon="-121.747145"><ele>1593.6</ele><time>2024-08-14T01:36:47Z</time></trkpt>
<trkpt lat="45.340544" lon="-121.747507"><ele>1590.0</ele><time>2024-08-14T01:37:09Z</time></trkpt>
<trkpt lat="45.340037" lon="-121.747782"><ele>1590.0</ele><time>2024-08-14T01:37:10Z</time></trkpt>
<trkpt lat="45.340437" lon="-121.747933"><ele>1589.6</ele><time>2024-08-14T01:37:12Z</time></trkpt>
<trkpt lat="45.340583" lon="-121.747835"><ele>1589.4</ele><time>2024-08-14T01:37:13Z</time></trkpt>
<trkpt lat="45.340545" lon="-121.748021"><ele>1588.2</ele><time>2024-08-14T01:37:24Z</time></trkpt>
<trkpt lat="45.340444" lon="-121.748025"><ele>1587.8</ele><time>2024-08-14T01:37:30Z</time></trkpt>
<trkpt lat="45.340441" lon="-121.747900"><ele>1587.2</ele><time>2024-08-14T01:37:33Z</time></trkpt>
<trkpt lat="45.339974" lon="-121.748193"><ele>1582.2</ele><time>2024-08-14T01:38:05Z</time></trkpt>
<trkpt lat="45.340141" lon="-121.748353"><ele>1582.2</ele><time>2024-08-14T01:38:06Z</time></trkpt>
<trkpt lat="45.340120" lon="-121.748598"><ele>1581.2</ele><time>2024-08-14T01:38:19Z</time></trkpt>
<trkpt lat="45.340256" lon="-121.748437"><ele>1579.2</ele><time>2024-08-14T01:38:34Z</time></trkpt>
<trkpt lat="45.340381" lon="-121.748047"><ele>1575.4</ele><time>2024-08-14T01:38:55Z</time></trkpt>
<trkpt lat="45.339944" lon="-121.747724"><ele>1573.8</ele><time>2024-08-14T01:39:05Z</time></trkpt>
<trkpt lat="45.340822" lon="-121.747900"><ele>1572.2</ele><time>2024-08-14T01:39:22Z</time></trkpt>
<trkpt lat="45.340954" lon="-121.747702"><ele>1570.2</ele><time>2024-08-14T01:39:39Z</time></trkpt>
<trkpt lat="45.341165" lon="-121.746972"><ele>1562.4</ele><time>2024-08-14T01:40:21Z</time></trkpt>
<trkpt lat="45.341256" lon="-121.746830"><ele>1558.0</ele><time>2024-08-14T01:40:55Z</time></trkpt>
<trkpt lat="45.341276" lon="-121.746713"><ele>1555.8</ele><time>2024-08-14T01:41:03Z</time></trkpt>
<trkpt lat="45.340735" lon="-121.746350"><ele>1555.2</ele><time>2024-08-14T01:41:11Z</time></trkpt>
<trkpt lat="45.341414" lon="-121.746692"><ele>1555.2</ele><time>2024-08-14T01:41:12Z</time></trkpt>
<trkpt lat="45.341304" lon="-121.746496"><ele>1555.4</ele><time>2024-08-14T01:41:13Z</time></trkpt>
<trkpt lat="45.341442" lon="-121.746619"><ele>1554.8</ele><time>2024-08-14T01:41:17Z</time></trkpt>
<trkpt lat="45.341623" lon="-121.746317"><ele>1553.4</ele><time>2024-08-14T01:41:27Z</time></trkpt>
<trkpt lat="45.341667" lon="-121.746014"><ele>1552.4</ele><time>2024-08-14T01:41:34Z</time></trkpt>
<trkpt lat="45.341956" lon="-121.745659"><ele>1549.0</ele><time>2024-08-14T01:42:00Z</time></trkpt>
<trkpt lat="45.342336" lon="-121.745556"><ele>1543.4</ele><time>2024-08-14T01:42:40Z</time></trkpt>
<trkpt lat="45.342585" lon="-121.745626"><ele>1537.2</ele><time>2024-08-14T01:43:04Z</time></trkpt>
<trkpt lat="45.342648" lon="-121.745788"><ele>1532.8</ele><time>2024-08-14T01:43:16Z</time></trkpt>
<trkpt lat="45.342194" lon="-121.745800"><ele>1523.6</ele><time>2024-08-14T01:43:53Z</time></trkpt>
<trkpt lat="45.342099" lon="-121.746009"><ele>1522.6</ele><time>2024-08-14T01:44:03Z</time></trkpt>
<trkpt lat="45.342137" lon="-121.745957"><ele>1521.8</ele><time>2024-08-14T01:44:11Z</time></trkpt>
<trkpt lat="45.342142" lon="-121.746013"><ele>1521.6</ele><time>2024-08-14T01:44:13Z</time></trkpt>
<trkpt lat="45.342031" lon="-121.746129"><ele>1520.6</ele><time>2024-08-14T01:44:22Z</time></trkpt>
<trkpt lat="45.341938" lon="-121.746835"><ele>1517.2</ele><time>2024-08-14T01:44:44Z</time></trkpt>
<trkpt lat="45.341869" lon="-121.747013"><ele>1515.0</ele><time>2024-08-14T01:45:02Z</time></trkpt>
<trkpt lat="45.341913" lon="-121.747651"><ele>1507.6</ele><time>2024-08-14T01:45:38Z</time></trkpt>
<trkpt lat="45.341803" lon="-121.747943"><ele>1502.0</ele><time>2024-08-14T01:46:06Z</time></trkpt>
<trkpt lat="45.341836" lon="-121.748032"><ele>1500.8</ele><time>2024-08-14T01:46:10Z</time></trkpt>
<trkpt lat="45.341735" lon="-121.748158"><ele>1499.2</ele><time>2024-08-14T01:46:22Z</time></trkpt>
<trkpt lat="45.341499" lon="-121.748882"><ele>1486.0</ele><time>2024-08-14T01:47:29Z</time></trkpt>
<trkpt lat="45.341591" lon="-121.748710"><ele>1482.8</ele><time>2024-08-14T01:47:47Z</time></trkpt>
<trkpt lat="45.341638" lon="-121.748722"><ele>1477.4</ele><time>2024-08-14T01:48:14Z</time></trkpt>
<trkpt lat="45.341792" lon="-121.748615"><ele>1477.0</ele><time>2024-08-14T01:48:23Z</time></trkpt>
<trkpt lat="45.341886" lon="-121.748387"><ele>1475.4</ele><time>2024-08-14T01:48:32Z</time></trkpt>
<trkpt lat="45.342119" lon="-121.748110"><ele>1471.0</ele><time>2024-08-14T01:49:04Z</time></trkpt>
<trkpt lat="45.342422" lon="-121.746987"><ele>1459.4</ele><time>2024-08-14T01:50:22Z</time></trkpt>
<trkpt lat="45.342477" lon="-121.747023"><ele>1459.6</ele><time>2024-08-14T01:50:23Z</time></trkpt>
<trkpt lat="45.342628" lon="-121.746797"><ele>1459.6</ele><time>2024-08-14T01:50:31Z</time></trkpt>
<trkpt lat="45.342772" lon="-121.746768"><ele>1459.4</ele><time>2024-08-14T01:50:34Z</time></trkpt>
<trkpt lat="45.343073" lon="-121.746494"><ele>1457.0</ele><time>2024-08-14T01:51:05Z</time></trkpt>
<trkpt lat="45.343015" lon="-121.746576"><ele>1458.0</ele><time>2024-08-14T01:51:15Z</time></trkpt>
<trkpt lat="45.343059" lon="-121.746693"><ele>1457.4</ele><time>2024-08-14T01:51:22Z</time></trkpt>
<trkpt lat="45.343100" lon="-121.746648"><ele>1457.0</ele><time>2024-08-14T01:51:25Z</time></trkpt>
<trkpt lat="45.342982" lon="-121.747046"><ele>1458.6</ele><time>2024-08-14T01:53:11Z</time></trkpt>
<trkpt lat="45.342924" lon="-121.747111"><ele>1459.0</ele><time>2024-08-14T01:53:13Z</time></trkpt>
<trkpt lat="45.342906" lon="-121.747052"><ele>1459.2</ele><time>2024-08-14T01:53:14Z</time></trkpt>
<trkpt lat="45.342974" lon="-121.747105"><ele>1460.0</ele><time>2024-08-14T01:53:19Z</time></trkpt>
<trkpt lat="45.342724" lon="-121.747795"><ele>1466.4</ele><time>2024-08-14T01:55:13Z</time></trkpt>
<trkpt lat="45.342861" lon="-121.747800"><ele>1466.8</ele><time>2024-08-14T01:55:17Z</time></trkpt>
<trkpt lat="45.342755" lon="-121.749396"><ele>1483.0</ele><time>2024-08-14T01:57:08Z</time></trkpt>
<trkpt lat="45.342713" lon="-121.749484"><ele>1483.2</ele><time>2024-08-14T01:57:12Z</time></trkpt>
<trkpt lat="45.342582" lon="-121.749442"><ele>1483.6</ele><time>2024-08-14T01:57:17Z</time></trkpt>
<trkpt lat="45.342580" lon="-121.749513"><ele>1484.4</ele><time>2024-08-14T01:57:21Z</time></trkpt>
<trkpt lat="45.343844" lon="-121.749251"><ele>1501.4</ele><time>2024-08-14T01:59:20Z</time></trkpt>
<trkpt lat="45.343735" lon="-121.749576"><ele>1502.4</ele><time>2024-08-14T01:59:33Z</time></trkpt>
<trkpt lat="45.343448" lon="-121.751072"><ele>1514.2</ele><time>2024-08-14T02:01:13Z</time></trkpt>
<trkpt lat="45.343362" lon="-121.751125"><ele>1514.6</ele><time>2024-08-14T02:01:17Z</time></trkpt>
<trkpt lat="45.343504" lon="-121.751012"><ele>1516.2</ele><time>2024-08-14T02:01:25Z</time></trkpt>
<trkpt lat="45.343315" lon="-121.751282"><ele>1517.8</ele><time>2024-08-14T02:01:34Z</time></trkpt>
<trkpt lat="45.342883" lon="-121.752674"><ele>1530.4</ele><time>2024-08-14T02:03:10Z</time></trkpt>
<trkpt lat="45.342873" lon="-121.752735"><ele>1530.6</ele><time>2024-08-14T02:03:12Z</time></trkpt>
<trkpt lat="45.342924" lon="-121.752579"><ele>1532.2</ele><time>2024-08-14T02:03:19Z</time></trkpt>
<trkpt lat="45.343003" lon="-121.752890"><ele>1534.0</ele><time>2024-08-14T02:03:37Z</time></trkpt>
<trkpt lat="45.342817" lon="-121.753378"><ele>1537.4</ele><time>2024-08-14T02:04:07Z</time></trkpt>
<trkpt lat="45.342911" lon="-121.753493"><ele>1538.0</ele><time>2024-08-14T02:04:17Z</time></trkpt>
<trkpt lat="45.342953" lon="-121.753687"><ele>1540.2</ele><time>2024-08-14T02:04:33Z</time></trkpt>
<trkpt lat="45.342860" lon="-121.753825"><ele>1546.2</ele><time>2024-08-14T02:05:09Z</time></trkpt>
<trkpt lat="45.343380" lon="-121.752955"><ele>1548.8</ele><time>2024-08-14T02:05:39Z</time></trkpt>
<trkpt lat="45.343207" lon="-121.753090"><ele>1550.2</ele><time>2024-08-14T02:05:48Z</time></trkpt>
<trkpt lat="45.343380" lon="-121.752955"><ele>1551.4</ele><time>2024-08-14T02:06:05Z</time></trkpt>
<trkpt lat="45.343249" lon="-121.752900"><ele>1551.6</ele><time>2024-08-14T02:06:07Z</time></trkpt>
<trkpt lat="45.343232" lon="-121.752789"><ele>1552.8</ele><time>2024-08-14T02:06:15Z</time></trkpt>
<trkpt lat="45.343338" lon="-121.752554"><ele>1555.0</ele><time>2024-08-14T02:06:31Z</time></trkpt>
<trkpt lat="45.343827" lon="-121.752170"><ele>1564.0</ele><time>2024-08-14T02:07:29Z</time></trkpt>
<trkpt lat="45.344021" lon="-121.751689"><ele>1571.0</ele><time>2024-08-14T02:08:08Z</time></trkpt>
<trkpt lat="45.344191" lon="-121.751693"><ele>1573.0</ele><time>2024-08-14T02:08:19Z</time></trkpt>
<trkpt lat="45.344264" lon="-121.751441"><ele>1576.6</ele><time>2024-08-14T02:08:39Z</time></trkpt>
<trkpt lat="45.344607" lon="-121.751209"><ele>1579.2</ele><time>2024-08-14T02:09:07Z</time></trkpt>
<trkpt lat="45.344554" lon="-121.751093"><ele>1579.8</ele><time>2024-08-14T02:09:11Z</time></trkpt>
<trkpt lat="45.344583" lon="-121.750978"><ele>1582.0</ele><time>2024-08-14T02:09:20Z</time></trkpt>
<trkpt lat="45.344582" lon="-121.751181"><ele>1584.4</ele><time>2024-08-14T02:09:36Z</time></trkpt>
<trkpt lat="45.344369" lon="-121.751549"><ele>1588.2</ele><time>2024-08-14T02:10:06Z</time></trkpt>
<trkpt lat="45.344131" lon="-121.751807"><ele>1588.6</ele><time>2024-08-14T02:10:08Z</time></trkpt>
<trkpt lat="45.344318" lon="-121.751708"><ele>1588.8</ele><time>2024-08-14T02:10:14Z</time></trkpt>
<trkpt lat="45.344327" lon="-121.752100"><ele>1592.8</ele><time>2024-08-14T02:10:37Z</time></trkpt>
<trkpt lat="45.344209" lon="-121.752562"><ele>1596.6</ele><time>2024-08-14T02:11:15Z</time></trkpt>
<trkpt lat="45.343728" lon="-121.753241"><ele>1602.6</ele><time>2024-08-14T02:12:07Z</time></trkpt>
<trkpt lat="45.343725" lon="-121.753764"><ele>1604.6</ele><time>2024-08-14T02:12:40Z</time></trkpt>
<trkpt lat="45.343611" lon="-121.754592"><ele>1612.8</ele><time>2024-08-14T02:14:47Z</time></trkpt>
<trkpt lat="45.343646" lon="-121.754637"><ele>1612.6</ele><time>2024-08-14T02:14:51Z</time></trkpt>
<trkpt lat="45.343592" lon="-121.754860"><ele>1611.6</ele><time>2024-08-14T02:15:02Z</time></trkpt>
<trkpt lat="45.343467" lon="-121.754967"><ele>1611.4</ele><time>2024-08-14T02:15:19Z</time></trkpt>
<trkpt lat="45.343634" lon="-121.754898"><ele>1611.2</ele><time>2024-08-14T02:15:27Z</time></trkpt>
<trkpt lat="45.343587" lon="-121.754903"><ele>1611.0</ele><time>2024-08-14T02:15:28Z</time></trkpt>
<trkpt lat="45.343694" lon="-121.754619"><ele>1610.4</ele><time>2024-08-14T02:15:40Z</time></trkpt>
<trkpt lat="45.343956" lon="-121.754345"><ele>1607.4</ele><time>2024-08-14T02:16:00Z</time></trkpt>
<trkpt lat="45.344128" lon="-121.754342"><ele>1607.0</ele><time>2024-08-14T02:16:18Z</time></trkpt>
<trkpt lat="45.344303" lon="-121.754452"><ele>1608.2</ele><time>2024-08-14T02:16:34Z</time></trkpt>
<trkpt lat="45.344406" lon="-121.754375"><ele>1614.0</ele><time>2024-08-14T02:17:22Z</time></trkpt>
<trkpt lat="45.344531" lon="-121.754382"><ele>1614.4</ele><time>2024-08-14T02:17:25Z</time></trkpt>
<trkpt lat="45.344595" lon="-121.754673"><ele>1614.6</ele><time>2024-08-14T02:17:31Z</time></trkpt>
<trkpt lat="45.344873" lon="-121.754871"><ele>1615.0</ele><time>2024-08-14T02:17:37Z</time></trkpt>
<trkpt lat="45.344856" lon="-121.754941"><ele>1615.2</ele><time>2024-08-14T02:17:40Z</time></trkpt>
<trkpt lat="45.345118" lon="-121.755069"><ele>1616.6</ele><time>2024-08-14T02:17:57Z</time></trkpt>
<trkpt lat="45.345803" lon="-121.755073"><ele>1622.0</ele><time>2024-08-14T02:19:24Z</time></trkpt>
<trkpt lat="45.345975" lon="-121.755241"><ele>1623.2</ele><time>2024-08-14T02:19:42Z</time></trkpt>
<trkpt lat="45.346372" lon="-121.754883"><ele>1624.4</ele><time>2024-08-14T02:19:50Z</time></trkpt>
<trkpt lat="45.346379" lon="-121.755061"><ele>1624.8</ele><time>2024-08-14T02:19:53Z</time></trkpt>
<trkpt lat="45.346448" lon="-121.755106"><ele>1625.0</ele><time>2024-08-14T02:19:55Z</time></trkpt>
<trkpt lat="45.346481" lon="-121.755301"><ele>1626.2</ele><time>2024-08-14T02:20:05Z</time></trkpt>
<trkpt lat="45.347004" lon="-121.754967"><ele>1632.4</ele><time>2024-08-14T02:22:13Z</time></trkpt>
<trkpt lat="45.347028" lon="-121.754766"><ele>1632.4</ele><time>2024-08-14T02:22:17Z</time></trkpt>
<trkpt lat="45.347078" lon="-121.755087"><ele>1633.0</ele><time>2024-08-14T02:22:21Z</time></trkpt>
<trkpt lat="45.347523" lon="-121.755302"><ele>1635.2</ele><time>2024-08-14T02:22:56Z</time></trkpt>
<trkpt lat="45.347858" lon="-121.755328"><ele>1636.0</ele><time>2024-08-14T02:23:10Z</time></trkpt>
<trkpt lat="45.348709" lon="-121.755009"><ele>1644.4</ele><time>2024-08-14T02:24:49Z</time></trkpt>
<trkpt lat="45.348731" lon="-121.755174"><ele>1644.6</ele><time>2024-08-14T02:24:58Z</time></trkpt>
<trkpt lat="45.348635" lon="-121.755282"><ele>1645.4</ele><time>2024-08-14T02:25:05Z</time></trkpt>
<trkpt lat="45.349091" lon="-121.755346"><ele>1646.8</ele><time>2024-08-14T02:25:23Z</time></trkpt>
<trkpt lat="45.349627" lon="-121.754522"><ele>1649.4</ele><time>2024-08-14T02:26:30Z</time></trkpt>
<trkpt lat="45.349784" lon="-121.754195"><ele>1653.8</ele><time>2024-08-14T02:27:02Z</time></trkpt>
<trkpt lat="45.349822" lon="-121.753940"><ele>1656.0</ele><time>2024-08-14T02:27:13Z</time></trkpt>
<trkpt lat="45.349893" lon="-121.753941"><ele>1656.2</ele><time>2024-08-14T02:27:14Z</time></trkpt>
<trkpt lat="45.349963" lon="-121.754275"><ele>1657.4</ele><time>2024-08-14T02:27:22Z</time></trkpt>
<trkpt lat="45.350218" lon="-121.754212"><ele>1660.0</ele><time>2024-08-14T02:27:46Z</time></trkpt>
<trkpt lat="45.350771" lon="-121.752949"><ele>1668.0</ele><time>2024-08-14T02:29:02Z</time></trkpt>
<trkpt lat="45.351597" lon="-121.752653"><ele>1664.6</ele><time>2024-08-14T02:29:52Z</time></trkpt>
<trkpt lat="45.350829" lon="-121.752164"><ele>1664.8</ele><time>2024-08-14T02:29:56Z</time></trkpt>
<trkpt lat="45.350614" lon="-121.752115"><ele>1664.8</ele><time>2024-08-14T02:29:57Z</time></trkpt>
<trkpt lat="45.350599" lon="-121.751851"><ele>1664.2</ele><time>2024-08-14T02:30:15Z</time></trkpt>
<trkpt lat="45.350696" lon="-121.751825"><ele>1664.0</ele><time>2024-08-14T02:30:28Z</time></trkpt>
<trkpt lat="45.351865" lon="-121.750302"><ele>1650.6</ele><time>2024-08-14T02:33:22Z</time></trkpt>
<trkpt lat="45.351818" lon="-121.750223"><ele>1650.4</ele><time>2024-08-14T02:34:00Z</time></trkpt>
<trkpt lat="45.351867" lon="-121.750126"><ele>1651.4</ele><time>2024-08-14T02:34:12Z</time></trkpt>
<trkpt lat="45.351759" lon="-121.750265"><ele>1651.2</ele><time>2024-08-14T02:34:25Z</time></trkpt>
<trkpt lat="45.351934" lon="-121.750331"><ele>1651.2</ele><time>2024-08-14T02:34:41Z</time></trkpt>
<trkpt lat="45.351790" lon="-121.750310"><ele>1653.0</ele><time>2024-08-14T02:35:26Z</time></trkpt>
<trkpt lat="45.351981" lon="-121.750256"><ele>1652.4</ele><time>2024-08-14T02:35:56Z</time></trkpt>
<trkpt lat="45.352510" lon="-121.752095"><ele>1660.0</ele><time>2024-08-14T02:53:51Z</time></trkpt>
<trkpt lat="45.352544" lon="-121.752434"><ele>1666.2</ele><time>2024-08-14T02:54:42Z</time></trkpt>
<trkpt lat="45.352505" lon="-121.752868"><ele>1670.4</ele><time>2024-08-14T02:55:11Z</time></trkpt>
<trkpt lat="45.352594" lon="-121.753289"><ele>1671.0</ele><time>2024-08-14T02:55:18Z</time></trkpt>
<trkpt lat="45.352852" lon="-121.753907"><ele>1674.4</ele><time>2024-08-14T02:55:46Z</time></trkpt>
<trkpt lat="45.353257" lon="-121.754542"><ele>1683.2</ele><time>2024-08-14T02:56:52Z</time></trkpt>
<trkpt lat="45.353357" lon="-121.754993"><ele>1686.2</ele><time>2024-08-14T02:57:24Z</time></trkpt>
<trkpt lat="45.354639" lon="-121.753913"><ele>1696.2</ele><time>2024-08-14T02:59:27Z</time></trkpt>
<trkpt lat="45.355063" lon="-121.753895"><ele>1701.8</ele><time>2024-08-14T03:00:39Z</time></trkpt>
<trkpt lat="45.355218" lon="-121.754117"><ele>1693.4</ele><time>2024-08-14T03:01:18Z</time></trkpt>
<trkpt lat="45.355238" lon="-121.754047"><ele>1693.2</ele><time>2024-08-14T03:01:19Z</time></trkpt>
<trkpt lat="45.355355" lon="-121.754150"><ele>1692.2</ele><time>2024-08-14T03:01:31Z</time></trkpt>
<trkpt lat="45.355161" lon="-121.754611"><ele>1690.6</ele><time>2024-08-14T03:02:09Z</time></trkpt>
<trkpt lat="45.355269" lon="-121.754608"><ele>1690.8</ele><time>2024-08-14T03:02:23Z</time></trkpt>
<trkpt lat="45.355248" lon="-121.754484"><ele>1690.8</ele><time>2024-08-14T03:02:42Z</time></trkpt>
<trkpt lat="45.355170" lon="-121.754480"><ele>1690.2</ele><time>2024-08-14T03:03:00Z</time></trkpt>
<trkpt lat="45.355339" lon="-121.754948"><ele>1690.8</ele><time>2024-08-14T03:04:48Z</time></trkpt>
<trkpt lat="45.355260" lon="-121.754907"><ele>1690.8</ele><time>2024-08-14T03:04:49Z</time></trkpt>
</trkseg></trk>
</gpx>
