<?xml version="1.0" encoding="UTF-8"?>
<gpx version="1.1" creator="Eric Sichak trip reports" xmlns="http://www.topografix.com/GPX/1/1">
<metadata><name>Morning Hike</name><time>2024-08-17T17:41:25Z</time></metadata>
<trk><name>Morning Hike</name><type>hike</type><trkseg>
<trkpt lat="45.668479" lon="-121.894594"><ele>36.4</ele><time>2024-08-17T17:41:25Z</time></trkpt>
<trkpt lat="45.668352" lon="-121.894439"><ele>34.8</ele><time>2024-08-17T17:41:37Z</time></trkpt>
<trkpt lat="45.668373" lon="-121.894145"><ele>33.0</ele><time>2024-08-17T17:41:43Z</time></trkpt>
<trkpt lat="45.668245" lon="-121.894401"><ele>31.8</ele><time>2024-08-17T17:41:47Z</time></trkpt>
<trkpt lat="45.668374" lon="-121.894499"><ele>29.0</ele><time>2024-08-17T17:42:00Z</time></trkpt>
<trkpt lat="45.668228" lon="-121.896275"><ele>28.8</ele><time>2024-08-17T17:43:15Z</time></trkpt>
<trkpt lat="45.668140" lon="-121.896451"><ele>28.8</ele><time>2024-08-17T17:43:29Z</time></trkpt>
<trkpt lat="45.668082" lon="-121.896807"><ele>27.2</ele><time>2024-08-17T17:43:44Z</time></trkpt>
<trkpt lat="45.668296" lon="-121.896565"><ele>26.6</ele><time>2024-08-17T17:43:49Z</time></trkpt>
<trkpt lat="45.668224" lon="-121.895911"><ele>26.4</ele><time>2024-08-17T17:43:51Z</time></trkpt>
<trkpt lat="45.668171" lon="-121.895964"><ele>26.0</ele><time>2024-08-17T17:43:54Z</time></trkpt>
<trkpt lat="45.668283" lon="-121.895666"><ele>25.6</ele><time>2024-08-17T17:43:57Z</time></trkpt>
<trkpt lat="45.668439" lon="-121.895477"><ele>25.6</ele><time>2024-08-17T17:44:00Z</time></trkpt>
<trkpt lat="45.668213" lon="-121.896004"><ele>25.6</ele><time>2024-08-17T17:44:01Z</time></trkpt>
<trkpt lat="45.668466" lon="-121.895777"><ele>25.8</ele><time>2024-08-17T17:44:09Z</time></trkpt>
<trkpt lat="45.668529" lon="-121.895743"><ele>31.8</ele><time>2024-08-17T17:45:42Z</time></trkpt>
<trkpt lat="45.668531" lon="-121.895564"><ele>32.6</ele><time>2024-08-17T17:47:59Z</time></trkpt>
<trkpt lat="45.668567" lon="-121.895617"><ele>31.0</ele><time>2024-08-17T17:49:31Z</time></trkpt>
<trkpt lat="45.668682" lon="-121.895557"><ele>30.4</ele><time>2024-08-17T17:49:44Z</time></trkpt>
<trkpt lat="45.668565" lon="-121.895580"><ele>32.2</ele><time>2024-08-17T17:50:01Z</time></trkpt>
<trkpt lat="45.668639" lon="-121.895118"><ele>34.2</ele><time>2024-08-17T17:51:42Z</time></trkpt>
<trkpt lat="45.668703" lon="-121.895036"><ele>34.2</ele><time>2024-08-17T17:51:47Z</time></trkpt>
<trkpt lat="45.668777" lon="-121.894985"><ele>34.6</ele><time>2024-08-17T17:51:52Z</time></trkpt>
<trkpt lat="45.668788" lon="-121.895115"><ele>34.2</ele><time>2024-08-17T17:51:58Z</time></trkpt>
<trkpt lat="45.668860" lon="-121.895168"><ele>27.0</ele><time>2024-08-17T17:53:17Z</time></trkpt>
<trkpt lat="45.668918" lon="-121.895262"><ele>31.2</ele><time>2024-08-17T17:53:47Z</time></trkpt>
<trkpt lat="45.669145" lon="-121.895174"><ele>33.4</ele><time>2024-08-17T17:55:43Z</time></trkpt>
<trkpt lat="45.669089" lon="-121.895226"><ele>33.2</ele><time>2024-08-17T17:55:48Z</time></trkpt>
<trkpt lat="45.668813" lon="-121.895235"><ele>31.8</ele><time>2024-08-17T17:57:35Z</time></trkpt>
<trkpt lat="45.668804" lon="-121.895317"><ele>32.0</ele><time>2024-08-17T17:57:56Z</time></trkpt>
<trkpt lat="45.668941" lon="-121.895241"><ele>31.2</ele><time>2024-08-17T17:59:10Z</time></trkpt>
<trkpt lat="45.668939" lon="-121.895292"><ele>32.2</ele><time>2024-08-17T17:59:16Z</time></trkpt>
<trkpt lat="45.669268" lon="-121.895027"><ele>31.8</ele><time>2024-08-17T17:59:48Z</time></trkpt>
<trkpt lat="45.669303" lon="-121.894896"><ele>31.0</ele><time>2024-08-17T18:00:06Z</time></trkpt>
<trkpt lat="45.669702" lon="-121.894434"><ele>30.0</ele><time>2024-08-17T18:01:43Z</time></trkpt>
<trkpt lat="45.669615" lon="-121.894612"><ele>29.2</ele><time>2024-08-17T18:01:50Z</time></trkpt>
<trkpt lat="45.669636" lon="-121.894533"><ele>34.2</ele><time>2024-08-17T18:03:36Z</time></trkpt>
<trkpt lat="45.669672" lon="-121.894519"><ele>33.4</ele><time>2024-08-17T18:03:57Z</time></trkpt>
<trkpt lat="45.669620" lon="-121.894723"><ele>31.8</ele><time>2024-08-17T18:05:41Z</time></trkpt>
<trkpt lat="45.669704" lon="-121.894509"><ele>30.6</ele><time>2024-08-17T18:05:52Z</time></trkpt>
<trkpt lat="45.669517" lon="-121.894532"><ele>34.2</ele><time>2024-08-17T18:07:34Z</time></trkpt>
<trkpt lat="45.669370" lon="-121.894292"><ele>35.8</ele><time>2024-08-17T18:09:45Z</time></trkpt>
<trkpt lat="45.669359" lon="-121.894419"><ele>35.8</ele><time>2024-08-17T18:09:59Z</time></trkpt>
<trkpt lat="45.669604" lon="-121.894544"><ele>36.2</ele><time>2024-08-17T18:11:45Z</time></trkpt>
<trkpt lat="45.669642" lon="-121.894405"><ele>36.4</ele><time>2024-08-17T18:11:59Z</time></trkpt>
<trkpt lat="45.669605" lon="-121.894392"><ele>33.4</ele><time>2024-08-17T18:13:34Z</time></trkpt>
<trkpt lat="45.669769" lon="-121.894436"><ele>34.6</ele><time>2024-08-17T18:13:45Z</time></trkpt>
<trkpt lat="45.669601" lon="-121.894369"><ele>34.6</ele><time>2024-08-17T18:13:46Z</time></trkpt>
<trkpt lat="45.669592" lon="-121.894413"><ele>32.0</ele><time>2024-08-17T18:14:52Z</time></trkpt>
<trkpt lat="45.669634" lon="-121.894439"><ele>36.0</ele><time>2024-08-17T18:15:49Z</time></trkpt>
<trkpt lat="45.669669" lon="-121.894312"><ele>36.0</ele><time>2024-08-17T18:15:59Z</time></trkpt>
<trkpt lat="45.669696" lon="-121.894436"><ele>35.6</ele><time>2024-08-17T18:17:00Z</time></trkpt>
<trkpt lat="45.669734" lon="-121.894421"><ele>31.6</ele><time>2024-08-17T18:17:45Z</time></trkpt>
<trkpt lat="45.669706" lon="-121.894496"><ele>30.2</ele><time>2024-08-17T18:17:51Z</time></trkpt>
<trkpt lat="45.669760" lon="-121.894516"><ele>30.8</ele><time>2024-08-17T18:18:03Z</time></trkpt>
<trkpt lat="45.669750" lon="-121.894541"><ele>25.2</ele><time>2024-08-17T18:19:12Z</time></trkpt>
<trkpt lat="45.669769" lon="-121.894445"><ele>24.4</ele><time>2024-08-17T18:19:53Z</time></trkpt>
<trkpt lat="45.669851" lon="-121.894441"><ele>25.0</ele><time>2024-08-17T18:20:34Z</time></trkpt>
<trkpt lat="45.669863" lon="-121.894413"><ele>19.8</ele><time>2024-08-17T18:22:30Z</time></trkpt>
<trkpt lat="45.669891" lon="-121.894306"><ele>29.0</ele><time>2024-08-17T18:23:43Z</time></trkpt>
<trkpt lat="45.669993" lon="-121.894191"><ele>29.8</ele><time>2024-08-17T18:23:51Z</time></trkpt>
<trkpt lat="45.669963" lon="-121.894216"><ele>24.4</ele><time>2024-08-17T18:24:04Z</time></trkpt>
<trkpt lat="45.669873" lon="-121.894321"><ele>30.0</ele><time>2024-08-17T18:24:34Z</time></trkpt>
<trkpt lat="45.669712" lon="-121.894534"><ele>25.2</ele><time>2024-08-17T18:25:43Z</time></trkpt>
<trkpt lat="45.669761" lon="-121.894540"><ele>25.2</ele><time>2024-08-17T18:25:46Z</time></trkpt>
<trkpt lat="45.670351" lon="-121.893573"><ele>31.8</ele><time>2024-08-17T18:27:43Z</time></trkpt>
<trkpt lat="45.670320" lon="-121.893695"><ele>29.0</ele><time>2024-08-17T18:27:53Z</time></trkpt>
<trkpt lat="45.670575" lon="-121.893504"><ele>28.4</ele><time>2024-08-17T18:29:47Z</time></trkpt>
<trkpt lat="45.670655" lon="-121.893557"><ele>29.4</ele><time>2024-08-17T18:29:56Z</time></trkpt>
<trkpt lat="45.670679" lon="-121.893431"><ele>28.6</ele><time>2024-08-17T18:31:37Z</time></trkpt>
<trkpt lat="45.670712" lon="-121.893491"><ele>27.8</ele><time>2024-08-17T18:31:49Z</time></trkpt>
<trkpt lat="45.670527" lon="-121.893676"><ele>25.0</ele><time>2024-08-17T18:33:44Z</time></trkpt>
<trkpt lat="45.670455" lon="-121.893624"><ele>26.0</ele><time>2024-08-17T18:33:54Z</time></trkpt>
<trkpt lat="45.670164" lon="-121.893949"><ele>25.4</ele><time>2024-08-17T18:35:44Z</time></trkpt>
<trkpt lat="45.670159" lon="-121.894041"><ele>26.0</ele><time>2024-08-17T18:35:49Z</time></trkpt>
<trkpt lat="45.670010" lon="-121.894122"><ele>26.8</ele><time>2024-08-17T18:35:57Z</time></trkpt>
<trkpt lat="45.669695" lon="-121.894225"><ele>27.0</ele><time>2024-08-17T18:36:59Z</time></trkpt>
<trkpt lat="45.669578" lon="-121.894172"><ele>21.4</ele><time>2024-08-17T18:37:48Z</time></trkpt>
<trkpt lat="45.669637" lon="-121.894112"><ele>17.8</ele><time>2024-08-17T18:38:17Z</time></trkpt>
<trkpt lat="45.669650" lon="-121.894095"><ele>22.4</ele><time>2024-08-17T18:39:37Z</time></trkpt>
<trkpt lat="45.669581" lon="-121.894076"><ele>21.2</ele><time>2024-08-17T18:40:00Z</time></trkpt>
<trkpt lat="45.669609" lon="-121.894100"><ele>16.8</ele><time>2024-08-17T18:40:43Z</time></trkpt>
<trkpt lat="45.669650" lon="-121.894147"><ele>21.8</ele><time>2024-08-17T18:42:11Z</time></trkpt>
<trkpt lat="45.669697" lon="-121.894125"><ele>20.2</ele><time>2024-08-17T18:42:37Z</time></trkpt>
<trkpt lat="45.669671" lon="-121.894072"><ele>19.0</ele><time>2024-08-17T18:42:47Z</time></trkpt>
<trkpt lat="45.669643" lon="-121.894126"><ele>18.2</ele><time>2024-08-17T18:42:55Z</time></trkpt>
<trkpt lat="45.669757" lon="-121.894238"><ele>18.2</ele><time>2024-08-17T18:44:46Z</time></trkpt>
<trkpt lat="45.669647" lon="-121.894188"><ele>19.0</ele><time>2024-08-17T18:44:58Z</time></trkpt>
<trkpt lat="45.669694" lon="-121.894242"><ele>20.0</ele><time>2024-08-17T18:45:21Z</time></trkpt>
<trkpt lat="45.669681" lon="-121.894204"><ele>25.4</ele><time>2024-08-17T18:46:41Z</time></trkpt>
<trkpt lat="45.669591" lon="-121.894175"><ele>24.6</ele><time>2024-08-17T18:48:37Z</time></trkpt>
<trkpt lat="45.669703" lon="-121.894197"><ele>22.8</ele><time>2024-08-17T18:48:51Z</time></trkpt>
<trkpt lat="45.669612" lon="-121.894207"><ele>24.2</ele><time>2024-08-17T18:48:58Z</time></trkpt>
<trkpt lat="45.669668" lon="-121.894205"><ele>23.2</ele><time>2024-08-17T18:49:01Z</time></trkpt>
<trkpt lat="45.669633" lon="-121.894275"><ele>27.0</ele><time>2024-08-17T18:49:35Z</time></trkpt>
<trkpt lat="45.669542" lon="-121.894489"><ele>21.6</ele><time>2024-08-17T18:51:01Z</time></trkpt>
<trkpt lat="45.669680" lon="-121.894361"><ele>30.2</ele><time>2024-08-17T18:52:01Z</time></trkpt>
<trkpt lat="45.669708" lon="-121.894266"><ele>25.0</ele><time>2024-08-17T18:52:50Z</time></trkpt>
<trkpt lat="45.669780" lon="-121.894215"><ele>27.4</ele><time>2024-08-17T18:52:58Z</time></trkpt>
<trkpt lat="45.669812" lon="-121.893752"><ele>24.0</ele><time>2024-08-17T18:54:49Z</time></trkpt>
<trkpt lat="45.669770" lon="-121.893620"><ele>24.2</ele><time>2024-08-17T18:54:55Z</time></trkpt>
<trkpt lat="45.669867" lon="-121.893460"><ele>27.4</ele><time>2024-08-17T18:55:29Z</time></trkpt>
<trkpt lat="45.669924" lon="-121.893498"><ele>27.8</ele><time>2024-08-17T18:56:31Z</time></trkpt>
<trkpt lat="45.669895" lon="-121.893607"><ele>27.4</ele><time>2024-08-17T18:56:45Z</time></trkpt>
<trkpt lat="45.669765" lon="-121.893621"><ele>25.4</ele><time>2024-08-17T18:57:04Z</time></trkpt>
<trkpt lat="45.669795" lon="-121.893720"><ele>32.4</ele><time>2024-08-17T18:58:29Z</time></trkpt>
<trkpt lat="45.669736" lon="-121.893706"><ele>33.8</ele><time>2024-08-17T18:58:49Z</time></trkpt>
<trkpt lat="45.669768" lon="-121.893756"><ele>34.2</ele><time>2024-08-17T18:58:51Z</time></trkpt>
<trkpt lat="45.669820" lon="-121.893717"><ele>35.0</ele><time>2024-08-17T18:58:58Z</time></trkpt>
<trkpt lat="45.669798" lon="-121.893636"><ele>36.2</ele><time>2024-08-17T19:00:47Z</time></trkpt>
<trkpt lat="45.669794" lon="-121.893752"><ele>35.6</ele><time>2024-08-17T19:01:01Z</time></trkpt>
<trkpt lat="45.669566" lon="-121.893654"><ele>36.0</ele><time>2024-08-17T19:02:45Z</time></trkpt>
<trkpt lat="45.669785" lon="-121.893730"><ele>36.0</ele><time>2024-08-17T19:02:56Z</time></trkpt>
<trkpt lat="45.669751" lon="-121.893692"><ele>36.6</ele><time>2024-08-17T19:03:12Z</time></trkpt>
<trkpt lat="45.669819" lon="-121.893687"><ele>32.8</ele><time>2024-08-17T19:04:49Z</time></trkpt>
<trkpt lat="45.669685" lon="-121.893681"><ele>32.8</ele><time>2024-08-17T19:06:32Z</time></trkpt>
<trkpt lat="45.669813" lon="-121.893647"><ele>32.6</ele><time>2024-08-17T19:08:53Z</time></trkpt>
<trkpt lat="45.669653" lon="-121.893792"><ele>33.2</ele><time>2024-08-17T19:12:49Z</time></trkpt>
<trkpt lat="45.669791" lon="-121.893692"><ele>34.2</ele><time>2024-08-17T19:12:54Z</time></trkpt>
<trkpt lat="45.669782" lon="-121.893623"><ele>35.0</ele><time>2024-08-17T19:13:02Z</time></trkpt>
<trkpt lat="45.669786" lon="-121.893696"><ele>29.6</ele><time>2024-08-17T19:15:02Z</time></trkpt>
<trkpt lat="45.669723" lon="-121.893752"><ele>29.2</ele><time>2024-08-17T19:16:34Z</time></trkpt>
<trkpt lat="45.669762" lon="-121.893652"><ele>30.2</ele><time>2024-08-17T19:16:59Z</time></trkpt>
<trkpt lat="45.669797" lon="-121.893724"><ele>33.6</ele><time>2024-08-17T19:18:58Z</time></trkpt>
<trkpt lat="45.669711" lon="-121.893611"><ele>32.8</ele><time>2024-08-17T19:20:49Z</time></trkpt>
<trkpt lat="45.669793" lon="-121.893661"><ele>33.6</ele><time>2024-08-17T19:21:04Z</time></trkpt>
<trkpt lat="45.669784" lon="-121.893607"><ele>33.6</ele><time>2024-08-17T19:22:45Z</time></trkpt>
<trkpt lat="45.669729" lon="-121.893648"><ele>32.4</ele><time>2024-08-17T19:22:52Z</time></trkpt>
<trkpt lat="45.669800" lon="-121.893689"><ele>32.8</ele><time>2024-08-17T19:22:57Z</time></trkpt>
<trkpt lat="45.669753" lon="-121.893662"><ele>32.8</ele><time>2024-08-17T19:23:02Z</time></trkpt>
<trkpt lat="45.669772" lon="-121.893539"><ele>32.2</ele><time>2024-08-17T19:24:54Z</time></trkpt>
<trkpt lat="45.669672" lon="-121.893570"><ele>31.0</ele><time>2024-08-17T19:26:42Z</time></trkpt>
<trkpt lat="45.669790" lon="-121.893728"><ele>32.2</ele><time>2024-08-17T19:27:01Z</time></trkpt>
<trkpt lat="45.669612" lon="-121.894024"><ele>34.4</ele><time>2024-08-17T19:28:36Z</time></trkpt>
<trkpt lat="45.669635" lon="-121.894168"><ele>35.0</ele><time>2024-08-17T19:28:48Z</time></trkpt>
<trkpt lat="45.669490" lon="-121.894204"><ele>34.6</ele><time>2024-08-17T19:28:57Z</time></trkpt>
<trkpt lat="45.669361" lon="-121.894350"><ele>35.0</ele><time>2024-08-17T19:29:32Z</time></trkpt>
<trkpt lat="45.669502" lon="-121.894382"><ele>36.8</ele><time>2024-08-17T19:30:40Z</time></trkpt>
<trkpt lat="45.669504" lon="-121.894533"><ele>38.4</ele><time>2024-08-17T19:30:45Z</time></trkpt>
<trkpt lat="45.669447" lon="-121.894324"><ele>39.2</ele><time>2024-08-17T19:30:50Z</time></trkpt>
<trkpt lat="45.669477" lon="-121.894186"><ele>40.0</ele><time>2024-08-17T19:30:57Z</time></trkpt>
<trkpt lat="45.669531" lon="-121.894209"><ele>39.8</ele><time>2024-08-17T19:31:02Z</time></trkpt>
<trkpt lat="45.669519" lon="-121.893661"><ele>38.0</ele><time>2024-08-17T19:32:48Z</time></trkpt>
<trkpt lat="45.669766" lon="-121.893715"><ele>38.0</ele><time>2024-08-17T19:32:56Z</time></trkpt>
<trkpt lat="45.669635" lon="-121.893584"><ele>37.4</ele><time>2024-08-17T19:33:05Z</time></trkpt>
<trkpt lat="45.669692" lon="-121.893804"><ele>36.6</ele><time>2024-08-17T19:34:48Z</time></trkpt>
<trkpt lat="45.669645" lon="-121.893826"><ele>36.4</ele><time>2024-08-17T19:34:52Z</time></trkpt>
<trkpt lat="45.669618" lon="-121.893744"><ele>36.4</ele><time>2024-08-17T19:35:01Z</time></trkpt>
<trkpt lat="45.669664" lon="-121.893546"><ele>30.8</ele><time>2024-08-17T19:38:47Z</time></trkpt>
<trkpt lat="45.669575" lon="-121.893606"><ele>30.4</ele><time>2024-08-17T19:38:58Z</time></trkpt>
<trkpt lat="45.669753" lon="-121.893565"><ele>29.0</ele><time>2024-08-17T19:42:53Z</time></trkpt>
<trkpt lat="45.669681" lon="-121.893618"><ele>29.8</ele><time>2024-08-17T19:42:59Z</time></trkpt>
<trkpt lat="45.669654" lon="-121.893553"><ele>29.2</ele><time>2024-08-17T19:44:52Z</time></trkpt>
<trkpt lat="45.669724" lon="-121.893650"><ele>30.6</ele><time>2024-08-17T19:46:55Z</time></trkpt>
<trkpt lat="45.669792" lon="-121.893597"><ele>30.6</ele><time>2024-08-17T19:47:03Z</time></trkpt>
<trkpt lat="45.669723" lon="-121.893631"><ele>32.8</ele><time>2024-08-17T19:48:11Z</time></trkpt>
<trkpt lat="45.669704" lon="-121.893530"><ele>34.2</ele><time>2024-08-17T19:48:52Z</time></trkpt>
<trkpt lat="45.669742" lon="-121.893586"><ele>33.8</ele><time>2024-08-17T19:49:06Z</time></trkpt>
<trkpt lat="45.669660" lon="-121.893593"><ele>33.8</ele><time>2024-08-17T19:50:48Z</time></trkpt>
<trkpt lat="45.669781" lon="-121.893608"><ele>33.6</ele><time>2024-08-17T19:50:53Z</time></trkpt>
<trkpt lat="45.669687" lon="-121.893527"><ele>34.4</ele><time>2024-08-17T19:51:03Z</time></trkpt>
<trkpt lat="45.669691" lon="-121.893684"><ele>35.4</ele><time>2024-08-17T19:52:53Z</time></trkpt>
<trkpt lat="45.669663" lon="-121.893606"><ele>35.2</ele><time>2024-08-17T19:52:54Z</time></trkpt>
<trkpt lat="45.669664" lon="-121.893730"><ele>34.8</ele><time>2024-08-17T19:52:59Z</time></trkpt>
<trkpt lat="45.669627" lon="-121.893723"><ele>34.4</ele><time>2024-08-17T19:53:01Z</time></trkpt>
<trkpt lat="45.669644" lon="-121.893665"><ele>34.2</ele><time>2024-08-17T19:53:05Z</time></trkpt>
<trkpt lat="45.669796" lon="-121.893717"><ele>36.0</ele><time>2024-08-17T19:54:52Z</time></trkpt>
<trkpt lat="45.669542" lon="-121.893607"><ele>35.6</ele><time>2024-08-17T19:54:59Z</time></trkpt>
<trkpt lat="45.669787" lon="-121.893755"><ele>35.6</ele><time>2024-08-17T19:57:03Z</time></trkpt>
<trkpt lat="45.669538" lon="-121.894148"><ele>32.8</ele><time>2024-08-17T19:58:29Z</time></trkpt>
<trkpt lat="45.669527" lon="-121.894248"><ele>34.6</ele><time>2024-08-17T19:58:48Z</time></trkpt>
<trkpt lat="45.669642" lon="-121.894223"><ele>33.4</ele><time>2024-08-17T19:58:54Z</time></trkpt>
<trkpt lat="45.669280" lon="-121.894312"><ele>29.8</ele><time>2024-08-17T20:00:29Z</time></trkpt>
<trkpt lat="45.668791" lon="-121.896509"><ele>30.6</ele><time>2024-08-17T20:00:47Z</time></trkpt>
<trkpt lat="45.669345" lon="-121.894067"><ele>30.4</ele><time>2024-08-17T20:00:53Z</time></trkpt>
<trkpt lat="45.669470" lon="-121.894102"><ele>30.0</ele><time>2024-08-17T20:00:55Z</time></trkpt>
<trkpt lat="45.669476" lon="-121.894185"><ele>29.8</ele><time>2024-08-17T20:01:00Z</time></trkpt>
<trkpt lat="45.669444" lon="-121.894153"><ele>30.0</ele><time>2024-08-17T20:01:03Z</time></trkpt>
<trkpt lat="45.669532" lon="-121.894163"><ele>31.0</ele><time>2024-08-17T20:02:49Z</time></trkpt>
<trkpt lat="45.669509" lon="-121.894096"><ele>30.4</ele><time>2024-08-17T20:03:05Z</time></trkpt>
<trkpt lat="45.669802" lon="-121.894340"><ele>32.2</ele><time>2024-08-17T20:04:47Z</time></trkpt>
<trkpt lat="45.669520" lon="-121.894227"><ele>31.8</ele><time>2024-08-17T20:05:00Z</time></trkpt>
<trkpt lat="45.669494" lon="-121.894194"><ele>30.2</ele><time>2024-08-17T20:07:05Z</time></trkpt>
<trkpt lat="45.669813" lon="-121.894350"><ele>31.4</ele><time>2024-08-17T20:08:54Z</time></trkpt>
<trkpt lat="45.669365" lon="-121.894136"><ele>30.4</ele><time>2024-08-17T20:11:05Z</time></trkpt>
<trkpt lat="45.669578" lon="-121.894295"><ele>29.8</ele><time>2024-08-17T20:12:55Z</time></trkpt>
<trkpt lat="45.669586" lon="-121.894212"><ele>29.6</ele><time>2024-08-17T20:13:02Z</time></trkpt>
<trkpt lat="45.669469" lon="-121.894179"><ele>30.0</ele><time>2024-08-17T20:14:38Z</time></trkpt>
<trkpt lat="45.669495" lon="-121.894121"><ele>29.8</ele><time>2024-08-17T20:14:53Z</time></trkpt>
<trkpt lat="45.669477" lon="-121.894189"><ele>30.4</ele><time>2024-08-17T20:15:04Z</time></trkpt>
<trkpt lat="45.669563" lon="-121.894260"><ele>30.4</ele><time>2024-08-17T20:16:59Z</time></trkpt>
<trkpt lat="45.669693" lon="-121.894255"><ele>32.4</ele><time>2024-08-17T20:18:47Z</time></trkpt>
<trkpt lat="45.669245" lon="-121.894101"><ele>33.8</ele><time>2024-08-17T20:22:48Z</time></trkpt>
<trkpt lat="45.669570" lon="-121.894197"><ele>33.2</ele><time>2024-08-17T20:22:59Z</time></trkpt>
<trkpt lat="45.669493" lon="-121.894265"><ele>31.8</ele><time>2024-08-17T20:28:51Z</time></trkpt>
<trkpt lat="45.669459" lon="-121.894189"><ele>31.2</ele><time>2024-08-17T20:29:06Z</time></trkpt>
<trkpt lat="45.669480" lon="-121.894276"><ele>32.0</ele><time>2024-08-17T20:30:38Z</time></trkpt>
<trkpt lat="45.669411" lon="-121.894208"><ele>32.4</ele><time>2024-08-17T20:30:55Z</time></trkpt>
<trkpt lat="45.669552" lon="-121.894183"><ele>33.0</ele><time>2024-08-17T20:32:54Z</time></trkpt>
<trkpt lat="45.669443" lon="-121.894078"><ele>31.0</ele><time>2024-08-17T20:35:07Z</time></trkpt>
<trkpt lat="45.669371" lon="-121.894104"><ele>32.8</ele><time>2024-08-17T20:36:39Z</time></trkpt>
<trkpt lat="45.669504" lon="-121.894126"><ele>33.0</ele><time>2024-08-17T20:36:53Z</time></trkpt>
<trkpt lat="45.669555" lon="-121.894218"><ele>32.8</ele><time>2024-08-17T20:37:00Z</time></trkpt>
<trkpt lat="45.669522" lon="-121.894185"><ele>33.2</ele><time>2024-08-17T20:37:05Z</time></trkpt>
<trkpt lat="45.669830" lon="-121.894028"><ele>33.4</ele><time>2024-08-17T20:39:36Z</time></trkpt>
<trkpt lat="45.669479" lon="-121.894205"><ele>32.8</ele><time>2024-08-17T20:40:09Z</time></trkpt>
<trkpt lat="45.669555" lon="-121.894044"><ele>32.2</ele><time>2024-08-17T20:40:51Z</time></trkpt>
<trkpt lat="45.669488" lon="-121.894215"><ele>32.6</ele><time>2024-08-17T20:43:25Z</time></trkpt>
<trkpt lat="45.669491" lon="-121.894110"><ele>32.4</ele><time>2024-08-17T20:43:38Z</time></trkpt>
<trkpt lat="45.669557" lon="-121.894163"><ele>31.6</ele><time>2024-08-17T20:45:41Z</time></trkpt>
<trkpt lat="45.669389" lon="-121.894373"><ele>33.2</ele><time>2024-08-17T20:45:51Z</time></trkpt>
<trkpt lat="45.669582" lon="-121.894173"><ele>33.0</ele><time>2024-08-17T20:45:56Z</time></trkpt>
<trkpt lat="45.669482" lon="-121.894133"><ele>32.6</ele><time>2024-08-17T20:47:54Z</time></trkpt>
<trkpt lat="45.669385" lon="-121.894223"><ele>31.4</ele><time>2024-08-17T20:50:36Z</time></trkpt>
<trkpt lat="45.669438" lon="-121.894142"><ele>31.4</ele><time>2024-08-17T20:50:41Z</time></trkpt>
<trkpt lat="45.669484" lon="-121.894110"><ele>31.4</ele><time>2024-08-17T20:50:47Z</time></trkpt>
<trkpt lat="45.669499" lon="-121.894178"><ele>31.6</ele><time>2024-08-17T20:50:52Z</time></trkpt>
<trkpt lat="45.669437" lon="-121.894191"><ele>32.2</ele><time>2024-08-17T20:50:58Z</time></trkpt>
<trkpt lat="45.669493" lon="-121.894141"><ele>32.2</ele><time>2024-08-17T20:51:32Z</time></trkpt>
<trkpt lat="45.669507" lon="-121.894230"><ele>32.2</ele><time>2024-08-17T20:51:37Z</time></trkpt>
<trkpt lat="45.669554" lon="-121.894116"><ele>32.4</ele><time>2024-08-17T20:53:33Z</time></trkpt>
<trkpt lat="45.669442" lon="-121.894189"><ele>34.4</ele><time>2024-08-17T20:57:38Z</time></trkpt>
<trkpt lat="45.669550" lon="-121.894165"><ele>37.6</ele><time>2024-08-17T21:01:19Z</time></trkpt>
<trkpt lat="45.669456" lon="-121.894155"><ele>37.2</ele><time>2024-08-17T21:02:01Z</time></trkpt>
<trkpt lat="45.669347" lon="-121.894272"><ele>38.4</ele><time>2024-08-17T21:03:50Z</time></trkpt>
<trkpt lat="45.669579" lon="-121.894048"><ele>38.8</ele><time>2024-08-17T21:05:56Z</time></trkpt>
<trkpt lat="45.669437" lon="-121.894301"><ele>40.6</ele><time>2024-08-17T21:07:22Z</time></trkpt>
<trkpt lat="45.669470" lon="-121.894644"><ele>42.8</ele><time>2024-08-17T21:07:49Z</time></trkpt>
<trkpt lat="45.669285" lon="-121.894563"><ele>42.6</ele><time>2024-08-17T21:07:52Z</time></trkpt>
<trkpt lat="45.669277" lon="-121.894640"><ele>42.6</ele><time>2024-08-17T21:07:57Z</time></trkpt>
<trkpt lat="45.669217" lon="-121.894610"><ele>41.6</ele><time>2024-08-17T21:08:09Z</time></trkpt>
<trkpt lat="45.669212" lon="-121.894752"><ele>37.2</ele><time>2024-08-17T21:09:51Z</time></trkpt>
<trkpt lat="45.669250" lon="-121.894711"><ele>36.2</ele><time>2024-08-17T21:10:09Z</time></trkpt>
<trkpt lat="45.669168" lon="-121.894734"><ele>35.2</ele><time>2024-08-17T21:11:16Z</time></trkpt>
<trkpt lat="45.669090" lon="-121.895055"><ele>35.0</ele><time>2024-08-17T21:11:57Z</time></trkpt>
<trkpt lat="45.669171" lon="-121.895033"><ele>33.8</ele><time>2024-08-17T21:12:05Z</time></trkpt>
<trkpt lat="45.669100" lon="-121.894982"><ele>31.6</ele><time>2024-08-17T21:13:44Z</time></trkpt>
<trkpt lat="45.669072" lon="-121.895107"><ele>32.2</ele><time>2024-08-17T21:13:51Z</time></trkpt>
<trkpt lat="45.669171" lon="-121.895041"><ele>31.8</ele><time>2024-08-17T21:13:58Z</time></trkpt>
<trkpt lat="45.669088" lon="-121.895062"><ele>29.0</ele><time>2024-08-17T21:15:32Z</time></trkpt>
<trkpt lat="45.668871" lon="-121.895178"><ele>36.0</ele><time>2024-08-17T21:16:00Z</time></trkpt>
<trkpt lat="45.668809" lon="-121.895181"><ele>37.6</ele><time>2024-08-17T21:16:07Z</time></trkpt>
<trkpt lat="45.668861" lon="-121.895096"><ele>32.6</ele><time>2024-08-17T21:16:50Z</time></trkpt>
<trkpt lat="45.668668" lon="-121.895113"><ele>37.2</ele><time>2024-08-17T21:17:56Z</time></trkpt>
<trkpt lat="45.668623" lon="-121.895171"><ele>37.2</ele><time>2024-08-17T21:17:59Z</time></trkpt>
<trkpt lat="45.668648" lon="-121.895312"><ele>36.6</ele><time>2024-08-17T21:18:09Z</time></trkpt>
<trkpt lat="45.668325" lon="-121.895685"><ele>36.0</ele><time>2024-08-17T21:19:40Z</time></trkpt>
<trkpt lat="45.668175" lon="-121.895663"><ele>39.4</ele><time>2024-08-17T21:19:51Z</time></trkpt>
<trkpt lat="45.668213" lon="-121.895447"><ele>39.0</ele><time>2024-08-17T21:19:57Z</time></trkpt>
<trkpt lat="45.668162" lon="-121.895406"><ele>41.6</ele><time>2024-08-17T21:20:03Z</time></trkpt>
<trkpt lat="45.667641" lon="-121.895558"><ele>39.2</ele><time>2024-08-17T21:21:50Z</time></trkpt>
<trkpt lat="45.667752" lon="-121.895387"><ele>39.2</ele><time>2024-08-17T21:21:59Z</time></trkpt>
<trkpt lat="45.667731" lon="-121.895334"><ele>39.0</ele><time>2024-08-17T21:22:05Z</time></trkpt>
<trkpt lat="45.667480" lon="-121.895422"><ele>44.0</ele><time>2024-08-17T21:22:32Z</time></trkpt>
<trkpt lat="45.667436" lon="-121.895378"><ele>35.8</ele><time>2024-08-17T21:23:51Z</time></trkpt>
<trkpt lat="45.667364" lon="-121.895432"><ele>36.6</ele><time>2024-08-17T21:24:01Z</time></trkpt>
<trkpt lat="45.667400" lon="-121.895414"><ele>36.2</ele><time>2024-08-17T21:24:08Z</time></trkpt>
<trkpt lat="45.667184" lon="-121.895341"><ele>37.4</ele><time>2024-08-17T21:24:57Z</time></trkpt>
<trkpt lat="45.667110" lon="-121.895214"><ele>41.8</ele><time>2024-08-17T21:25:31Z</time></trkpt>
<trkpt lat="45.666941" lon="-121.895142"><ele>48.6</ele><time>2024-08-17T21:25:49Z</time></trkpt>
<trkpt lat="45.666796" lon="-121.895246"><ele>45.6</ele><time>2024-08-17T21:26:07Z</time></trkpt>
<trkpt lat="45.666621" lon="-121.895187"><ele>43.6</ele><time>2024-08-17T21:26:19Z</time></trkpt>
<trkpt lat="45.666294" lon="-121.894930"><ele>47.4</ele><time>2024-08-17T21:26:47Z</time></trkpt>
<trkpt lat="45.666080" lon="-121.895291"><ele>45.8</ele><time>2024-08-17T21:27:13Z</time></trkpt>
<trkpt lat="45.665795" lon="-121.895536"><ele>45.2</ele><time>2024-08-17T21:27:35Z</time></trkpt>
<trkpt lat="45.665481" lon="-121.895683"><ele>43.0</ele><time>2024-08-17T21:27:50Z</time></trkpt>
<trkpt lat="45.665516" lon="-121.895740"><ele>43.6</ele><time>2024-08-17T21:27:55Z</time></trkpt>
<trkpt lat="45.665347" lon="-121.895997"><ele>47.4</ele><time>2024-08-17T21:28:25Z</time></trkpt>
<trkpt lat="45.665429" lon="-121.895890"><ele>45.2</ele><time>2024-08-17T21:29:51Z</time></trkpt>
<trkpt lat="45.665315" lon="-121.895854"><ele>44.4</ele><time>2024-08-17T21:30:04Z</time></trkpt>
<trkpt lat="45.665211" lon="-121.895947"><ele>40.2</ele><time>2024-08-17T21:31:01Z</time></trkpt>
<trkpt lat="45.665121" lon="-121.895863"><ele>42.8</ele><time>2024-08-17T21:31:33Z</time></trkpt>
<trkpt lat="45.664951" lon="-121.896179"><ele>44.6</ele><time>2024-08-17T21:31:53Z</time></trkpt>
<trkpt lat="45.664369" lon="-121.896632"><ele>43.6</ele><time>2024-08-17T21:32:37Z</time></trkpt>
<trkpt lat="45.664290" lon="-121.896511"><ele>44.6</ele><time>2024-08-17T21:33:15Z</time></trkpt>
<trkpt lat="45.663356" lon="-121.897374"><ele>53.8</ele><time>2024-08-17T21:34:19Z</time></trkpt>
<trkpt lat="45.663121" lon="-121.897342"><ele>58.0</ele><time>2024-08-17T21:34:41Z</time></trkpt>
<trkpt lat="45.662601" lon="-121.897685"><ele>62.6</ele><time>2024-08-17T21:35:25Z</time></trkpt>
<trkpt lat="45.662529" lon="-121.897687"><ele>56.0</ele><time>2024-08-17T21:35:41Z</time></trkpt>
<trkpt lat="45.662451" lon="-121.897656"><ele>57.4</ele><time>2024-08-17T21:35:51Z</time></trkpt>
<trkpt lat="45.662419" lon="-121.897494"><ele>60.0</ele><time>2024-08-17T21:36:02Z</time></trkpt>
<trkpt lat="45.662541" lon="-121.897092"><ele>57.2</ele><time>2024-08-17T21:36:45Z</time></trkpt>
<trkpt lat="45.662619" lon="-121.896855"><ele>62.0</ele><time>2024-08-17T21:37:35Z</time></trkpt>
<trkpt lat="45.662453" lon="-121.896476"><ele>65.0</ele><time>2024-08-17T21:37:59Z</time></trkpt>
<trkpt lat="45.661909" lon="-121.897287"><ele>65.2</ele><time>2024-08-17T21:38:47Z</time></trkpt>
<trkpt lat="45.661518" lon="-121.897588"><ele>66.6</ele><time>2024-08-17T21:39:51Z</time></trkpt>
<trkpt lat="45.661771" lon="-121.897677"><ele>66.6</ele><time>2024-08-17T21:39:59Z</time></trkpt>
<trkpt lat="45.661757" lon="-121.897815"><ele>66.2</ele><time>2024-08-17T21:40:08Z</time></trkpt>
<trkpt lat="45.661954" lon="-121.898324"><ele>69.8</ele><time>2024-08-17T21:40:23Z</time></trkpt>
<trkpt lat="45.661699" lon="-121.898468"><ele>74.2</ele><time>2024-08-17T21:40:43Z</time></trkpt>
<trkpt lat="45.661908" lon="-121.898765"><ele>77.2</ele><time>2024-08-17T21:41:07Z</time></trkpt>
<trkpt lat="45.662013" lon="-121.898798"><ele>75.6</ele><time>2024-08-17T21:41:27Z</time></trkpt>
<trkpt lat="45.662022" lon="-121.899176"><ele>76.4</ele><time>2024-08-17T21:41:54Z</time></trkpt>
<trkpt lat="45.661983" lon="-121.899186"><ele>76.6</ele><time>2024-08-17T21:41:55Z</time></trkpt>
<trkpt lat="45.662074" lon="-121.899383"><ele>77.8</ele><time>2024-08-17T21:42:04Z</time></trkpt>
<trkpt lat="45.662053" lon="-121.900409"><ele>81.2</ele><time>2024-08-17T21:42:53Z</time></trkpt>
<trkpt lat="45.662333" lon="-121.900813"><ele>82.4</ele><time>2024-08-17T21:43:56Z</time></trkpt>
<trkpt lat="45.662285" lon="-121.900736"><ele>82.8</ele><time>2024-08-17T21:44:04Z</time></trkpt>
<trkpt lat="45.662340" lon="-121.900948"><ele>78.6</ele><time>2024-08-17T21:44:19Z</time></trkpt>
<trkpt lat="45.662319" lon="-121.901087"><ele>81.0</ele><time>2024-08-17T21:44:31Z</time></trkpt>
<trkpt lat="45.662594" lon="-121.901884"><ele>82.2</ele><time>2024-08-17T21:45:27Z</time></trkpt>
<trkpt lat="45.662695" lon="-121.902369"><ele>81.6</ele><time>2024-08-17T21:45:50Z</time></trkpt>
<trkpt lat="45.662520" lon="-121.902481"><ele>82.6</ele><time>2024-08-17T21:45:54Z</time></trkpt>
<trkpt lat="45.662657" lon="-121.902566"><ele>82.6</ele><time>2024-08-17T21:45:55Z</time></trkpt>
<trkpt lat="45.662639" lon="-121.902814"><ele>81.0</ele><time>2024-08-17T21:46:06Z</time></trkpt>
<trkpt lat="45.662788" lon="-121.903265"><ele>80.0</ele><time>2024-08-17T21:46:55Z</time></trkpt>
<trkpt lat="45.662805" lon="-121.904433"><ele>73.2</ele><time>2024-08-17T21:47:50Z</time></trkpt>
<trkpt lat="45.662826" lon="-121.904498"><ele>70.4</ele><time>2024-08-17T21:47:56Z</time></trkpt>
<trkpt lat="45.662889" lon="-121.904459"><ele>69.4</ele><time>2024-08-17T21:48:01Z</time></trkpt>
<trkpt lat="45.662854" lon="-121.904544"><ele>58.2</ele><time>2024-08-17T21:49:52Z</time></trkpt>
<trkpt lat="45.662922" lon="-121.904692"><ele>56.0</ele><time>2024-08-17T21:50:03Z</time></trkpt>
<trkpt lat="45.662907" lon="-121.904743"><ele>54.6</ele><time>2024-08-17T21:50:11Z</time></trkpt>
<trkpt lat="45.662840" lon="-121.904687"><ele>54.2</ele><time>2024-08-17T21:51:01Z</time></trkpt>
<trkpt lat="45.662775" lon="-121.904602"><ele>53.4</ele><time>2024-08-17T21:51:52Z</time></trkpt>
<trkpt lat="45.663099" lon="-121.904833"><ele>57.6</ele><time>2024-08-17T21:52:24Z</time></trkpt>
<trkpt lat="45.663152" lon="-121.904761"><ele>56.8</ele><time>2024-08-17T21:52:38Z</time></trkpt>
<trkpt lat="45.663053" lon="-121.904773"><ele>50.0</ele><time>2024-08-17T21:54:05Z</time></trkpt>
<trkpt lat="45.670128" lon="-121.905281"><ele>50.4</ele><time>2024-08-17T21:54:57Z</time></trkpt>
<trkpt lat="45.671533" lon="-121.905382"><ele>28.8</ele><time>2024-08-17T21:55:17Z</time></trkpt>
<trkpt lat="45.674271" lon="-121.905577"><ele>25.8</ele><time>2024-08-17T21:55:47Z</time></trkpt>
<trkpt lat="45.679508" lon="-121.906346"><ele>27.8</ele><time>2024-08-17T21:56:03Z</time></trkpt>
<trkpt lat="45.679730" lon="-121.906084"><ele>28.0</ele><time>2024-08-17T21:56:04Z</time></trkpt>
<trkpt lat="45.679944" lon="-121.906036"><ele>28.0</ele><time>2024-08-17T21:56:05Z</time></trkpt>
<trkpt lat="45.680669" lon="-121.904683"><ele>30.8</ele><time>2024-08-17T21:56:11Z</time></trkpt>
<trkpt lat="45.694547" lon="-121.881729"><ele>46.8</ele><time>2024-08-17T21:58:38Z</time></trkpt>
<trkpt lat="45.694029" lon="-121.882735"><ele>48.4</ele><time>2024-08-17T22:00:29Z</time></trkpt>
<trkpt lat="45.694053" lon="-121.882897"><ele>49.4</ele><time>2024-08-17T22:00:32Z</time></trkpt>
<trkpt lat="45.694097" lon="-121.882826"><ele>49.0</ele><time>2024-08-17T22:00:41Z</time></trkpt>
<trkpt lat="45.693769" lon="-121.883870"><ele>47.2</ele><time>2024-08-17T22:02:49Z</time></trkpt>
<trkpt lat="45.693653" lon="-121.883847"><ele>46.6</ele><time>2024-08-17T22:02:51Z</time></trkpt>
<trkpt lat="45.693655" lon="-121.883904"><ele>45.6</ele><time>2024-08-17T22:03:02Z</time></trkpt>
<trkpt lat="45.693535" lon="-121.883837"><ele>50.4</ele><time>2024-08-17T22:03:12Z</time></trkpt>
<trkpt lat="45.693432" lon="-121.883959"><ele>46.6</ele><time>2024-08-17T22:03:32Z</time></trkpt>
<trkpt lat="45.693291" lon="-121.884484"><ele>44.6</ele><time>2024-08-17T22:05:00Z</time></trkpt>
<trkpt lat="45.693204" lon="-121.884248"><ele>45.8</ele><time>2024-08-17T22:06:52Z</time></trkpt>
<trkpt lat="45.693177" lon="-121.884293"><ele>46.6</ele><time>2024-08-17T22:07:07Z</time></trkpt>
<trkpt lat="45.693238" lon="-121.884346"><ele>43.4</ele><time>2024-08-17T22:09:02Z</time></trkpt>
<trkpt lat="45.693144" lon="-121.884394"><ele>43.2</ele><time>2024-08-17T22:09:09Z</time></trkpt>
<trkpt lat="45.693205" lon="-121.884362"><ele>46.0</ele><time>2024-08-17T22:10:56Z</time></trkpt>
<trkpt lat="45.693097" lon="-121.884243"><ele>47.8</ele><time>2024-08-17T22:13:06Z</time></trkpt>
<trkpt lat="45.693213" lon="-121.884290"><ele>49.8</ele><time>2024-08-17T22:14:57Z</time></trkpt>
<trkpt lat="45.693301" lon="-121.884146"><ele>50.0</ele><time>2024-08-17T22:15:05Z</time></trkpt>
<trkpt lat="45.693398" lon="-121.883884"><ele>49.0</ele><time>2024-08-17T22:15:22Z</time></trkpt>
<trkpt lat="45.693528" lon="-121.883720"><ele>50.8</ele><time>2024-08-17T22:15:50Z</time></trkpt>
<trkpt lat="45.693513" lon="-121.883648"><ele>51.2</ele><time>2024-08-17T22:15:58Z</time></trkpt>
<trkpt lat="45.693793" lon="-121.883005"><ele>52.0</ele><time>2024-08-17T22:16:54Z</time></trkpt>
<trkpt lat="45.693916" lon="-121.883078"><ele>48.8</ele><time>2024-08-17T22:17:10Z</time></trkpt>
<trkpt lat="45.693775" lon="-121.882885"><ele>45.2</ele><time>2024-08-17T22:17:49Z</time></trkpt>
<trkpt lat="45.693832" lon="-121.882864"><ele>43.4</ele><time>2024-08-17T22:18:29Z</time></trkpt>
<trkpt lat="45.693950" lon="-121.882963"><ele>44.8</ele><time>2024-08-17T22:18:55Z</time></trkpt>
<trkpt lat="45.693889" lon="-121.883005"><ele>45.4</ele><time>2024-08-17T22:20:59Z</time></trkpt>
<trkpt lat="45.693993" lon="-121.882933"><ele>45.2</ele><time>2024-08-17T22:21:04Z</time></trkpt>
<trkpt lat="45.694008" lon="-121.882991"><ele>44.8</ele><time>2024-08-17T22:21:09Z</time></trkpt>
<trkpt lat="45.693458" lon="-121.883866"><ele>46.0</ele><time>2024-08-17T22:21:25Z</time></trkpt>
<trkpt lat="45.691883" lon="-121.886988"><ele>33.8</ele><time>2024-08-17T22:22:54Z</time></trkpt>
<trkpt lat="45.691329" lon="-121.887490"><ele>31.0</ele><time>2024-08-17T22:22:59Z</time></trkpt>
<trkpt lat="45.688782" lon="-121.890247"><ele>29.0</ele><time>2024-08-17T22:23:19Z</time></trkpt>
<trkpt lat="45.687999" lon="-121.891298"><ele>29.0</ele><time>2024-08-17T22:23:25Z</time></trkpt>
<trkpt lat="45.685120" lon="-121.896497"><ele>31.6</ele><time>2024-08-17T22:23:46Z</time></trkpt>
<trkpt lat="45.681843" lon="-121.902604"><ele>35.8</ele><time>2024-08-17T22:24:10Z</time></trkpt>
<trkpt lat="45.679757" lon="-121.906283"><ele>34.6</ele><time>2024-08-17T22:24:25Z</time></trkpt>
<trkpt lat="45.679050" lon="-121.907201"><ele>33.6</ele><time>2024-08-17T22:24:29Z</time></trkpt>
<trkpt lat="45.678112" lon="-121.908223"><ele>34.0</ele><time>2024-08-17T22:24:34Z</time></trkpt>
<trkpt lat="45.677502" lon="-121.908723"><ele>34.4</ele><time>2024-08-17T22:24:37Z</time></trkpt>
<trkpt lat="45.676626" lon="-121.909254"><ele>34.2</ele><time>2024-08-17T22:24:41Z</time></trkpt>
<trkpt lat="45.675238" lon="-121.909757"><ele>34.2</ele><time>2024-08-17T22:24:47Z</time></trkpt>
<trkpt lat="45.674011" lon="-121.909876"><ele>33.8</ele><time>2024-08-17T22:24:52Z</time></trkpt>
<trkpt lat="45.670270" lon="-121.909550"><ele>32.2</ele><time>2024-08-17T22:25:08Z</time></trkpt>
<trkpt lat="45.669907" lon="-121.909397"><ele>32.2</ele><time>2024-08-17T22:25:10Z</time></trkpt>
<trkpt lat="45.667459" lon="-121.905933"><ele>39.8</ele><time>2024-08-17T22:25:23Z</time></trkpt>
<trkpt lat="45.666530" lon="-121.904625"><ele>60.4</ele><time>2024-08-17T22:25:41Z</time></trkpt>
<trkpt lat="45.665429" lon="-121.903075"><ele>58.4</ele><time>2024-08-17T22:26:13Z</time></trkpt>
<trkpt lat="45.664817" lon="-121.902215"><ele>65.6</ele><time>2024-08-17T22:26:31Z</time></trkpt>
<trkpt lat="45.661784" lon="-121.897721"><ele>63.8</ele><time>2024-08-17T22:27:07Z</time></trkpt>
<trkpt lat="45.661733" lon="-121.897800"><ele>64.0</ele><time>2024-08-17T22:27:12Z</time></trkpt>
<trkpt lat="45.661904" lon="-121.897101"><ele>66.4</ele><time>2024-08-17T22:29:11Z</time></trkpt>
<trkpt lat="45.662783" lon="-121.896410"><ele>63.2</ele><time>2024-08-17T22:29:27Z</time></trkpt>
<trkpt lat="45.664066" lon="-121.895401"><ele>46.2</ele><time>2024-08-17T22:30:37Z</time></trkpt>
<trkpt lat="45.665118" lon="-121.894836"><ele>46.4</ele><time>2024-08-17T22:30:55Z</time></trkpt>
<trkpt lat="45.665101" lon="-121.894755"><ele>47.4</ele><time>2024-08-17T22:30:58Z</time></trkpt>
<trkpt lat="45.665130" lon="-121.894823"><ele>48.0</ele><time>2024-08-17T22:31:01Z</time></trkpt>
<trkpt lat="45.665226" lon="-121.894765"><ele>49.0</ele><time>2024-08-17T22:31:07Z</time></trkpt>
<trkpt lat="45.665193" lon="-121.894801"><ele>50.8</ele><time>2024-08-17T22:31:11Z</time></trkpt>
<trkpt lat="45.665233" lon="-121.894916"><ele>49.6</ele><time>2024-08-17T22:32:55Z</time></trkpt>
<trkpt lat="45.665077" lon="-121.894758"><ele>49.6</ele><time>2024-08-17T22:32:56Z</time></trkpt>
<trkpt lat="45.665202" lon="-121.894864"><ele>48.8</ele><time>2024-08-17T22:33:08Z</time></trkpt>
<trkpt lat="45.665180" lon="-121.894909"><ele>48.6</ele><time>2024-08-17T22:33:13Z</time></trkpt>
<trkpt lat="45.665225" lon="-121.894865"><ele>47.8</ele><time>2024-08-17T22:33:54Z</time></trkpt>
<trkpt lat="45.665152" lon="-121.894884"><ele>48.0</ele><time>2024-08-17T22:34:11Z</time></trkpt>
<trkpt lat="45.665203" lon="-121.895039"><ele>49.8</ele><time>2024-08-17T22:34:22Z</time></trkpt>
<trkpt lat="45.665192" lon="-121.895409"><ele>49.2</ele><time>2024-08-17T22:34:43Z</time></trkpt>
<trkpt lat="45.665410" lon="-121.895649"><ele>48.0</ele><time>2024-08-17T22:35:10Z</time></trkpt>
<trkpt lat="45.666668" lon="-121.895084"><ele>42.4</ele><time>2024-08-17T22:37:02Z</time></trkpt>
<trkpt lat="45.667163" lon="-121.895270"><ele>40.4</ele><time>2024-08-17T22:38:03Z</time></trkpt>
<trkpt lat="45.667356" lon="-121.895443"><ele>34.8</ele><time>2024-08-17T22:38:33Z</time></trkpt>
<trkpt lat="45.667442" lon="-121.895365"><ele>34.4</ele><time>2024-08-17T22:38:53Z</time></trkpt>
<trkpt lat="45.667664" lon="-121.895357"><ele>33.6</ele><time>2024-08-17T22:39:07Z</time></trkpt>
<trkpt lat="45.667873" lon="-121.895152"><ele>33.6</ele><time>2024-08-17T22:39:25Z</time></trkpt>
<trkpt lat="45.668341" lon="-121.895239"><ele>34.0</ele><time>2024-08-17T22:40:11Z</time></trkpt>
<trkpt lat="45.668636" lon="-121.895109"><ele>32.0</ele><time>2024-08-17T22:40:33Z</time></trkpt>
<trkpt lat="45.668833" lon="-121.895155"><ele>31.0</ele><time>2024-08-17T22:40:53Z</time></trkpt>
<trkpt lat="45.668817" lon="-121.895248"><ele>31.0</ele><time>2024-08-17T22:40:54Z</time></trkpt>
<trkpt lat="45.668845" lon="-121.895207"><ele>30.8</ele><time>2024-08-17T22:40:56Z</time></trkpt>
<trkpt lat="45.668732" lon="-121.895145"><ele>29.8</ele><time>2024-08-17T22:42:07Z</time></trkpt>
<trkpt lat="45.668419" lon="-121.895903"><ele>35.4</ele><time>2024-08-17T22:42:53Z</time></trkpt>
<trkpt lat="45.668408" lon="-121.896061"><ele>36.6</ele><time>2024-08-17T22:43:06Z</time></trkpt>
<trkpt lat="45.668843" lon="-121.895399"><ele>31.8</ele><time>2024-08-17T22:44:27Z</time></trkpt>
<trkpt lat="45.668960" lon="-121.895347"><ele>33.0</ele><time>2024-08-17T22:44:49Z</time></trkpt>
<trkpt lat="45.668959" lon="-121.895243"><ele>32.8</ele><time>2024-08-17T22:44:54Z</time></trkpt>
<trkpt lat="45.669102" lon="-121.895096"><ele>32.4</ele><time>2024-08-17T22:45:12Z</time></trkpt>
<trkpt lat="45.669150" lon="-121.894775"><ele>31.8</ele><time>2024-08-17T22:45:43Z</time></trkpt>
<trkpt lat="45.669566" lon="-121.894506"><ele>29.8</ele><time>2024-08-17T22:46:13Z</time></trkpt>
<trkpt lat="45.669679" lon="-121.894243"><ele>29.6</ele><time>2024-08-17T22:46:39Z</time></trkpt>
<trkpt lat="45.669877" lon="-121.894079"><ele>28.4</ele><time>2024-08-17T22:46:57Z</time></trkpt>
<trkpt lat="45.669799" lon="-121.893975"><ele>28.0</ele><time>2024-08-17T22:47:00Z</time></trkpt>
<trkpt lat="45.669732" lon="-121.894116"><ele>26.6</ele><time>2024-08-17T22:47:23Z</time></trkpt>
<trkpt lat="45.669380" lon="-121.894458"><ele>36.0</ele><time>2024-08-17T22:47:51Z</time></trkpt>
<trkpt lat="45.669147" lon="-121.894841"><ele>36.0</ele><time>2024-08-17T22:48:27Z</time></trkpt>
<trkpt lat="45.669043" lon="-121.895113"><ele>40.4</ele><time>2024-08-17T22:48:43Z</time></trkpt>
<trkpt lat="45.668903" lon="-121.895215"><ele>40.4</ele><time>2024-08-17T22:48:53Z</time></trkpt>
<trkpt lat="45.668717" lon="-121.895036"><ele>37.6</ele><time>2024-08-17T22:49:07Z</time></trkpt>
<trkpt lat="45.668627" lon="-121.895579"><ele>39.4</ele><time>2024-08-17T22:49:29Z</time></trkpt>
<trkpt lat="45.668459" lon="-121.895830"><ele>42.8</ele><time>2024-08-17T22:50:01Z</time></trkpt>
<trkpt lat="45.668427" lon="-121.895873"><ele>37.8</ele><time>2024-08-17T22:50:19Z</time></trkpt>
<trkpt lat="45.668540" lon="-121.896608"><ele>35.4</ele><time>2024-08-17T22:50:53Z</time></trkpt>
<trkpt lat="45.668686" lon="-121.896679"><ele>34.6</ele><time>2024-08-17T22:51:01Z</time></trkpt>
<trkpt lat="45.668802" lon="-121.896882"><ele>35.2</ele><time>2024-08-17T22:51:16Z</time></trkpt>
<trkpt lat="45.669098" lon="-121.896768"><ele>34.2</ele><time>2024-08-17T22:51:38Z</time></trkpt>
<trkpt lat="45.669827" lon="-121.895999"><ele>27.6</ele><time>2024-08-17T22:52:55Z</time></trkpt>
<trkpt lat="45.669904" lon="-121.896030"><ele>27.2</ele><time>2024-08-17T22:53:00Z</time></trkpt>
<trkpt lat="45.669904" lon="-121.896129"><ele>26.6</ele><time>2024-08-17T22:53:16Z</time></trkpt>
<trkpt lat="45.669800" lon="-121.896129"><ele>26.0</ele><time>2024-08-17T22:54:58Z</time></trkpt>
<trkpt lat="45.669979" lon="-121.896278"><ele>26.8</ele><time>2024-08-17T22:57:04Z</time></trkpt>
<trkpt lat="45.669893" lon="-121.896232"><ele>25.6</ele><time>2024-08-17T22:57:22Z</time></trkpt>
<trkpt lat="45.669937" lon="-121.896343"><ele>24.2</ele><time>2024-08-17T22:58:54Z</time></trkpt>
<trkpt lat="45.669902" lon="-121.896123"><ele>24.4</ele><time>2024-08-17T22:59:10Z</time></trkpt>
<trkpt lat="45.669851" lon="-121.896152"><ele>30.0</ele><time>2024-08-17T23:01:06Z</time></trkpt>
<trkpt lat="45.669896" lon="-121.896159"><ele>34.8</ele><time>2024-08-17T23:01:48Z</time></trkpt>
<trkpt lat="45.669990" lon="-121.896000"><ele>30.4</ele><time>2024-08-17T23:02:59Z</time></trkpt>
<trkpt lat="45.669946" lon="-121.896078"><ele>28.8</ele><time>2024-08-17T23:03:05Z</time></trkpt>
<trkpt lat="45.669979" lon="-121.896140"><ele>28.4</ele><time>2024-08-17T23:03:08Z</time></trkpt>
<trkpt lat="45.669913" lon="-121.896085"><ele>28.6</ele><time>2024-08-17T23:03:11Z</time></trkpt>
<trkpt lat="45.669944" lon="-121.896294"><ele>30.4</ele><time>2024-08-17T23:03:26Z</time></trkpt>
<trkpt lat="45.669945" lon="-121.896147"><ele>27.4</ele><time>2024-08-17T23:04:59Z</time></trkpt>
<trkpt lat="45.669881" lon="-121.896191"><ele>26.8</ele><time>2024-08-17T23:05:06Z</time></trkpt>
<trkpt lat="45.669904" lon="-121.896212"><ele>31.4</ele><time>2024-08-17T23:05:30Z</time></trkpt>
<trkpt lat="45.669884" lon="-121.896238"><ele>26.8</ele><time>2024-08-17T23:06:59Z</time></trkpt>
<trkpt lat="45.669938" lon="-121.896215"><ele>26.8</ele><time>2024-08-17T23:07:02Z</time></trkpt>
<trkpt lat="45.669887" lon="-121.896160"><ele>25.4</ele><time>2024-08-17T23:07:09Z</time></trkpt>
<trkpt lat="45.669932" lon="-121.896211"><ele>32.0</ele><time>2024-08-17T23:07:18Z</time></trkpt>
<trkpt lat="45.670019" lon="-121.896291"><ele>28.0</ele><time>2024-08-17T23:08:56Z</time></trkpt>
<trkpt lat="45.669790" lon="-121.896085"><ele>33.2</ele><time>2024-08-17T23:10:18Z</time></trkpt>
<trkpt lat="45.669871" lon="-121.896114"><ele>28.8</ele><time>2024-08-17T23:11:10Z</time></trkpt>
<trkpt lat="45.669759" lon="-121.896120"><ele>30.8</ele><time>2024-08-17T23:12:34Z</time></trkpt>
<trkpt lat="45.669873" lon="-121.896174"><ele>24.2</ele><time>2024-08-17T23:14:59Z</time></trkpt>
<trkpt lat="45.669816" lon="-121.896145"><ele>28.8</ele><time>2024-08-17T23:15:36Z</time></trkpt>
<trkpt lat="45.669795" lon="-121.896111"><ele>23.6</ele><time>2024-08-17T23:16:56Z</time></trkpt>
<trkpt lat="45.669860" lon="-121.896169"><ele>23.4</ele><time>2024-08-17T23:17:02Z</time></trkpt>
<trkpt lat="45.669904" lon="-121.895948"><ele>26.0</ele><time>2024-08-17T23:18:43Z</time></trkpt>
<trkpt lat="45.669864" lon="-121.896176"><ele>25.8</ele><time>2024-08-17T23:19:00Z</time></trkpt>
<trkpt lat="45.669949" lon="-121.896156"><ele>27.0</ele><time>2024-08-17T23:19:12Z</time></trkpt>
<trkpt lat="45.669756" lon="-121.896063"><ele>25.0</ele><time>2024-08-17T23:20:58Z</time></trkpt>
<trkpt lat="45.669813" lon="-121.896172"><ele>25.8</ele><time>2024-08-17T23:21:12Z</time></trkpt>
<trkpt lat="45.669901" lon="-121.895929"><ele>27.0</ele><time>2024-08-17T23:23:01Z</time></trkpt>
<trkpt lat="45.669960" lon="-121.895934"><ele>27.0</ele><time>2024-08-17T23:23:08Z</time></trkpt>
<trkpt lat="45.669884" lon="-121.896082"><ele>27.8</ele><time>2024-08-17T23:24:11Z</time></trkpt>
<trkpt lat="45.669914" lon="-121.896173"><ele>26.4</ele><time>2024-08-17T23:25:01Z</time></trkpt>
<trkpt lat="45.669808" lon="-121.896044"><ele>27.0</ele><time>2024-08-17T23:25:14Z</time></trkpt>
<trkpt lat="45.669667" lon="-121.896005"><ele>26.8</ele><time>2024-08-17T23:25:25Z</time></trkpt>
<trkpt lat="45.669513" lon="-121.896175"><ele>27.4</ele><time>2024-08-17T23:25:37Z</time></trkpt>
<trkpt lat="45.669542" lon="-121.896372"><ele>29.2</ele><time>2024-08-17T23:26:45Z</time></trkpt>
<trkpt lat="45.669416" lon="-121.896313"><ele>30.2</ele><time>2024-08-17T23:26:56Z</time></trkpt>
<trkpt lat="45.669458" lon="-121.896327"><ele>31.2</ele><time>2024-08-17T23:26:58Z</time></trkpt>
<trkpt lat="45.669304" lon="-121.896484"><ele>34.4</ele><time>2024-08-17T23:27:14Z</time></trkpt>
<trkpt lat="45.668465" lon="-121.896299"><ele>39.2</ele><time>2024-08-17T23:28:55Z</time></trkpt>
<trkpt lat="45.668366" lon="-121.896040"><ele>38.0</ele><time>2024-08-17T23:29:14Z</time></trkpt>
<trkpt lat="45.668170" lon="-121.896108"><ele>37.8</ele><time>2024-08-17T23:29:23Z</time></trkpt>
<trkpt lat="45.667613" lon="-121.895936"><ele>38.4</ele><time>2024-08-17T23:30:03Z</time></trkpt>
<trkpt lat="45.667532" lon="-121.895850"><ele>38.2</ele><time>2024-08-17T23:30:17Z</time></trkpt>
<trkpt lat="45.667577" lon="-121.895798"><ele>37.8</ele><time>2024-08-17T23:30:27Z</time></trkpt>
<trkpt lat="45.667507" lon="-121.895808"><ele>40.2</ele><time>2024-08-17T23:30:39Z</time></trkpt>
<trkpt lat="45.667370" lon="-121.895527"><ele>41.4</ele><time>2024-08-17T23:30:54Z</time></trkpt>
<trkpt lat="45.667289" lon="-121.895484"><ele>41.8</ele><time>2024-08-17T23:30:57Z</time></trkpt>
<trkpt lat="45.667385" lon="-121.895418"><ele>38.6</ele><time>2024-08-17T23:31:12Z</time></trkpt>
<trkpt lat="45.667278" lon="-121.895206"><ele>40.8</ele><time>2024-08-17T23:31:31Z</time></trkpt>
<trkpt lat="45.667110" lon="-121.895130"><ele>44.2</ele><time>2024-08-17T23:31:53Z</time></trkpt>
<trkpt lat="45.667049" lon="-121.895104"><ele>43.2</ele><time>2024-08-17T23:32:01Z</time></trkpt>
<trkpt lat="45.666825" lon="-121.895306"><ele>48.0</ele><time>2024-08-17T23:32:31Z</time></trkpt>
<trkpt lat="45.666449" lon="-121.894920"><ele>49.8</ele><time>2024-08-17T23:32:57Z</time></trkpt>
<trkpt lat="45.666228" lon="-121.895024"><ele>49.8</ele><time>2024-08-17T23:33:13Z</time></trkpt>
<trkpt lat="45.665988" lon="-121.895006"><ele>52.4</ele><time>2024-08-17T23:33:43Z</time></trkpt>
<trkpt lat="45.665998" lon="-121.895073"><ele>51.0</ele><time>2024-08-17T23:34:03Z</time></trkpt>
<trkpt lat="45.665878" lon="-121.894933"><ele>46.8</ele><time>2024-08-17T23:34:47Z</time></trkpt>
<trkpt lat="45.665765" lon="-121.894830"><ele>47.4</ele><time>2024-08-17T23:34:58Z</time></trkpt>
<trkpt lat="45.665851" lon="-121.894854"><ele>49.0</ele><time>2024-08-17T23:35:00Z</time></trkpt>
<trkpt lat="45.665781" lon="-121.894829"><ele>51.4</ele><time>2024-08-17T23:35:05Z</time></trkpt>
<trkpt lat="45.665744" lon="-121.894949"><ele>50.8</ele><time>2024-08-17T23:35:21Z</time></trkpt>
<trkpt lat="45.665826" lon="-121.895068"><ele>37.8</ele><time>2024-08-17T23:36:35Z</time></trkpt>
<trkpt lat="45.665818" lon="-121.895187"><ele>36.6</ele><time>2024-08-17T23:37:01Z</time></trkpt>
<trkpt lat="45.665750" lon="-121.895083"><ele>36.8</ele><time>2024-08-17T23:37:06Z</time></trkpt>
<trkpt lat="45.665972" lon="-121.895160"><ele>41.6</ele><time>2024-08-17T23:37:25Z</time></trkpt>
<trkpt lat="45.666194" lon="-121.895094"><ele>41.0</ele><time>2024-08-17T23:37:37Z</time></trkpt>
<trkpt lat="45.666827" lon="-121.894622"><ele>42.6</ele><time>2024-08-17T23:38:57Z</time></trkpt>
<trkpt lat="45.667064" lon="-121.894844"><ele>45.6</ele><time>2024-08-17T23:39:23Z</time></trkpt>
<trkpt lat="45.667133" lon="-121.894832"><ele>45.6</ele><time>2024-08-17T23:39:29Z</time></trkpt>
<trkpt lat="45.667164" lon="-121.894947"><ele>46.6</ele><time>2024-08-17T23:39:39Z</time></trkpt>
<trkpt lat="45.667353" lon="-121.895242"><ele>35.8</ele><time>2024-08-17T23:40:19Z</time></trkpt>
<trkpt lat="45.667372" lon="-121.895362"><ele>37.8</ele><time>2024-08-17T23:40:27Z</time></trkpt>
<trkpt lat="45.667501" lon="-121.895462"><ele>36.6</ele><time>2024-08-17T23:40:37Z</time></trkpt>
<trkpt lat="45.667795" lon="-121.895588"><ele>34.6</ele><time>2024-08-17T23:40:54Z</time></trkpt>
<trkpt lat="45.667853" lon="-121.895409"><ele>34.6</ele><time>2024-08-17T23:41:06Z</time></trkpt>
<trkpt lat="45.667996" lon="-121.895633"><ele>38.0</ele><time>2024-08-17T23:41:38Z</time></trkpt>
<trkpt lat="45.668384" lon="-121.896534"><ele>40.4</ele><time>2024-08-17T23:42:28Z</time></trkpt>
<trkpt lat="45.668486" lon="-121.896488"><ele>40.8</ele><time>2024-08-17T23:42:36Z</time></trkpt>
<trkpt lat="45.668733" lon="-121.896856"><ele>40.2</ele><time>2024-08-17T23:43:05Z</time></trkpt>
<trkpt lat="45.669361" lon="-121.896546"><ele>38.4</ele><time>2024-08-17T23:43:39Z</time></trkpt>
<trkpt lat="45.669831" lon="-121.896147"><ele>34.8</ele><time>2024-08-17T23:44:13Z</time></trkpt>
<trkpt lat="45.670537" lon="-121.895946"><ele>31.6</ele><time>2024-08-17T23:45:01Z</time></trkpt>
<trkpt lat="45.669969" lon="-121.896151"><ele>32.2</ele><time>2024-08-17T23:45:39Z</time></trkpt>
<trkpt lat="45.669959" lon="-121.896153"><ele>26.6</ele><time>2024-08-17T23:46:25Z</time></trkpt>
<trkpt lat="45.669907" lon="-121.896123"><ele>29.6</ele><time>2024-08-17T23:47:12Z</time></trkpt>
<trkpt lat="45.669533" lon="-121.896273"><ele>33.2</ele><time>2024-08-17T23:47:32Z</time></trkpt>
<trkpt lat="45.669437" lon="-121.896206"><ele>35.6</ele><time>2024-08-17T23:47:40Z</time></trkpt>
<trkpt lat="45.668881" lon="-121.896698"><ele>40.2</ele><time>2024-08-17T23:48:28Z</time></trkpt>
<trkpt lat="45.668581" lon="-121.896578"><ele>37.6</ele><time>2024-08-17T23:49:03Z</time></trkpt>
<trkpt lat="45.668018" lon="-121.895402"><ele>38.0</ele><time>2024-08-17T23:50:56Z</time></trkpt>
<trkpt lat="45.668009" lon="-121.895540"><ele>36.8</ele><time>2024-08-17T23:51:01Z</time></trkpt>
<trkpt lat="45.667829" lon="-121.895467"><ele>32.8</ele><time>2024-08-17T23:51:32Z</time></trkpt>
<trkpt lat="45.667612" lon="-121.895617"><ele>39.2</ele><time>2024-08-17T23:51:54Z</time></trkpt>
<trkpt lat="45.667567" lon="-121.895691"><ele>32.4</ele><time>2024-08-17T23:52:57Z</time></trkpt>
<trkpt lat="45.667492" lon="-121.895677"><ele>32.6</ele><time>2024-08-17T23:53:01Z</time></trkpt>
<trkpt lat="45.667586" lon="-121.895697"><ele>35.0</ele><time>2024-08-17T23:53:11Z</time></trkpt>
<trkpt lat="45.667446" lon="-121.895614"><ele>31.8</ele><time>2024-08-17T23:55:01Z</time></trkpt>
<trkpt lat="45.667606" lon="-121.895753"><ele>31.0</ele><time>2024-08-17T23:58:28Z</time></trkpt>
<trkpt lat="45.667525" lon="-121.895719"><ele>30.6</ele><time>2024-08-17T23:59:15Z</time></trkpt>
<trkpt lat="45.667561" lon="-121.895560"><ele>31.8</ele><time>2024-08-18T00:01:26Z</time></trkpt>
<trkpt lat="45.667571" lon="-121.895800"><ele>32.0</ele><time>2024-08-18T00:03:18Z</time></trkpt>
<trkpt lat="45.667570" lon="-121.895571"><ele>30.2</ele><time>2024-08-18T00:04:13Z</time></trkpt>
<trkpt lat="45.667524" lon="-121.895722"><ele>30.4</ele><time>2024-08-18T00:04:26Z</time></trkpt>
<trkpt lat="45.667581" lon="-121.895696"><ele>30.0</ele><time>2024-08-18T00:05:21Z</time></trkpt>
<trkpt lat="45.667573" lon="-121.895774"><ele>29.6</ele><time>2024-08-18T00:07:55Z</time></trkpt>
<trkpt lat="45.667742" lon="-121.895631"><ele>30.8</ele><time>2024-08-18T00:08:13Z</time></trkpt>
<trkpt lat="45.667601" lon="-121.895739"><ele>30.2</ele><time>2024-08-18T00:08:24Z</time></trkpt>
<trkpt lat="45.667545" lon="-121.895670"><ele>26.4</ele><time>2024-08-18T00:09:38Z</time></trkpt>
<trkpt lat="45.667579" lon="-121.895662"><ele>27.8</ele><time>2024-08-18T00:10:02Z</time></trkpt>
<trkpt lat="45.667596" lon="-121.895719"><ele>27.4</ele><time>2024-08-18T00:10:28Z</time></trkpt>
<trkpt lat="45.667522" lon="-121.895695"><ele>26.0</ele><time>2024-08-18T00:11:14Z</time></trkpt>
<trkpt lat="45.667558" lon="-121.895682"><ele>23.0</ele><time>2024-08-18T00:12:51Z</time></trkpt>
</trkseg></trk>
</gpx>
