<?xml version="1.0" encoding="UTF-8"?>
<gpx version="1.1" creator="Eric Sichak trip reports" xmlns="http://www.topografix.com/GPX/1/1">
<metadata><name>Morning Hike</name><time>2024-09-01T14:34:38Z</time></metadata>
<trk><name>Morning Hike</name><type>hike</type><trkseg>
<trkpt lat="48.196374" lon="-120.982656"><ele>1703.0</ele><time>2024-09-01T14:34:38Z</time></trkpt>
<trkpt lat="48.196433" lon="-120.982485"><ele>1703.6</ele><time>2024-09-01T14:34:54Z</time></trkpt>
<trkpt lat="48.196107" lon="-120.981164"><ele>1693.6</ele><time>2024-09-01T14:37:01Z</time></trkpt>
<trkpt lat="48.196157" lon="-120.980578"><ele>1691.6</ele><time>2024-09-01T14:37:25Z</time></trkpt>
<trkpt lat="48.196314" lon="-120.979882"><ele>1688.4</ele><time>2024-09-01T14:38:25Z</time></trkpt>
<trkpt lat="48.196314" lon="-120.979339"><ele>1688.0</ele><time>2024-09-01T14:38:47Z</time></trkpt>
<trkpt lat="48.196250" lon="-120.979191"><ele>1686.2</ele><time>2024-09-01T14:39:02Z</time></trkpt>
<trkpt lat="48.196328" lon="-120.977416"><ele>1683.2</ele><time>2024-09-01T14:40:43Z</time></trkpt>
<trkpt lat="48.196188" lon="-120.977285"><ele>1683.0</ele><time>2024-09-01T14:40:53Z</time></trkpt>
<trkpt lat="48.196087" lon="-120.976035"><ele>1678.2</ele><time>2024-09-01T14:42:43Z</time></trkpt>
<trkpt lat="48.196140" lon="-120.974496"><ele>1677.4</ele><time>2024-09-01T14:43:59Z</time></trkpt>
<trkpt lat="48.196102" lon="-120.973470"><ele>1675.6</ele><time>2024-09-01T14:45:01Z</time></trkpt>
<trkpt lat="48.196294" lon="-120.972516"><ele>1678.2</ele><time>2024-09-01T14:45:45Z</time></trkpt>
<trkpt lat="48.196136" lon="-120.970575"><ele>1677.4</ele><time>2024-09-01T14:47:30Z</time></trkpt>
<trkpt lat="48.196045" lon="-120.970314"><ele>1678.2</ele><time>2024-09-01T14:47:50Z</time></trkpt>
<trkpt lat="48.196317" lon="-120.969145"><ele>1677.4</ele><time>2024-09-01T14:48:51Z</time></trkpt>
<trkpt lat="48.196200" lon="-120.969001"><ele>1677.8</ele><time>2024-09-01T14:49:00Z</time></trkpt>
<trkpt lat="48.196220" lon="-120.968347"><ele>1676.4</ele><time>2024-09-01T14:49:25Z</time></trkpt>
<trkpt lat="48.196155" lon="-120.967890"><ele>1676.2</ele><time>2024-09-01T14:49:53Z</time></trkpt>
<trkpt lat="48.196248" lon="-120.967660"><ele>1674.4</ele><time>2024-09-01T14:50:23Z</time></trkpt>
<trkpt lat="48.196389" lon="-120.966630"><ele>1672.0</ele><time>2024-09-01T14:51:32Z</time></trkpt>
<trkpt lat="48.196353" lon="-120.966353"><ele>1672.2</ele><time>2024-09-01T14:51:51Z</time></trkpt>
<trkpt lat="48.196424" lon="-120.966206"><ele>1673.4</ele><time>2024-09-01T14:52:02Z</time></trkpt>
<trkpt lat="48.196445" lon="-120.965832"><ele>1673.8</ele><time>2024-09-01T14:52:14Z</time></trkpt>
<trkpt lat="48.196352" lon="-120.965250"><ele>1673.2</ele><time>2024-09-01T14:52:58Z</time></trkpt>
<trkpt lat="48.196513" lon="-120.964487"><ele>1673.0</ele><time>2024-09-01T14:53:44Z</time></trkpt>
<trkpt lat="48.196482" lon="-120.964215"><ele>1673.0</ele><time>2024-09-01T14:53:53Z</time></trkpt>
<trkpt lat="48.196836" lon="-120.962144"><ele>1677.6</ele><time>2024-09-01T14:55:46Z</time></trkpt>
<trkpt lat="48.196798" lon="-120.962186"><ele>1677.6</ele><time>2024-09-01T14:55:47Z</time></trkpt>
<trkpt lat="48.196929" lon="-120.962021"><ele>1678.4</ele><time>2024-09-01T14:55:54Z</time></trkpt>
<trkpt lat="48.197023" lon="-120.961409"><ele>1678.0</ele><time>2024-09-01T14:56:14Z</time></trkpt>
<trkpt lat="48.196970" lon="-120.959564"><ele>1669.8</ele><time>2024-09-01T14:57:50Z</time></trkpt>
<trkpt lat="48.197157" lon="-120.959215"><ele>1670.4</ele><time>2024-09-01T14:58:08Z</time></trkpt>
<trkpt lat="48.197631" lon="-120.957560"><ele>1676.2</ele><time>2024-09-01T14:59:49Z</time></trkpt>
<trkpt lat="48.197677" lon="-120.957134"><ele>1683.4</ele><time>2024-09-01T15:01:48Z</time></trkpt>
<trkpt lat="48.197767" lon="-120.957045"><ele>1683.6</ele><time>2024-09-01T15:01:53Z</time></trkpt>
<trkpt lat="48.197801" lon="-120.957092"><ele>1684.4</ele><time>2024-09-01T15:03:50Z</time></trkpt>
<trkpt lat="48.197613" lon="-120.956840"><ele>1686.0</ele><time>2024-09-01T15:05:46Z</time></trkpt>
<trkpt lat="48.197785" lon="-120.957034"><ele>1686.0</ele><time>2024-09-01T15:05:59Z</time></trkpt>
<trkpt lat="48.197898" lon="-120.956243"><ele>1686.8</ele><time>2024-09-01T15:07:45Z</time></trkpt>
<trkpt lat="48.198024" lon="-120.956068"><ele>1685.6</ele><time>2024-09-01T15:08:01Z</time></trkpt>
<trkpt lat="48.198014" lon="-120.955562"><ele>1678.8</ele><time>2024-09-01T15:08:30Z</time></trkpt>
<trkpt lat="48.198083" lon="-120.955051"><ele>1672.0</ele><time>2024-09-01T15:09:00Z</time></trkpt>
<trkpt lat="48.197780" lon="-120.954326"><ele>1669.6</ele><time>2024-09-01T15:09:44Z</time></trkpt>
<trkpt lat="48.197762" lon="-120.954047"><ele>1670.0</ele><time>2024-09-01T15:10:04Z</time></trkpt>
<trkpt lat="48.197604" lon="-120.953655"><ele>1669.2</ele><time>2024-09-01T15:10:23Z</time></trkpt>
<trkpt lat="48.197593" lon="-120.953349"><ele>1667.4</ele><time>2024-09-01T15:10:47Z</time></trkpt>
<trkpt lat="48.197299" lon="-120.952535"><ele>1676.8</ele><time>2024-09-01T15:11:45Z</time></trkpt>
<trkpt lat="48.197341" lon="-120.952438"><ele>1677.4</ele><time>2024-09-01T15:11:49Z</time></trkpt>
<trkpt lat="48.197213" lon="-120.952256"><ele>1679.6</ele><time>2024-09-01T15:12:01Z</time></trkpt>
<trkpt lat="48.197089" lon="-120.951641"><ele>1682.4</ele><time>2024-09-01T15:12:22Z</time></trkpt>
<trkpt lat="48.196876" lon="-120.951118"><ele>1691.8</ele><time>2024-09-01T15:13:32Z</time></trkpt>
<trkpt lat="48.196721" lon="-120.950548"><ele>1694.6</ele><time>2024-09-01T15:14:03Z</time></trkpt>
<trkpt lat="48.196223" lon="-120.949216"><ele>1701.6</ele><time>2024-09-01T15:15:48Z</time></trkpt>
<trkpt lat="48.196101" lon="-120.949117"><ele>1703.8</ele><time>2024-09-01T15:16:04Z</time></trkpt>
<trkpt lat="48.196185" lon="-120.948916"><ele>1706.0</ele><time>2024-09-01T15:16:17Z</time></trkpt>
<trkpt lat="48.196352" lon="-120.948953"><ele>1710.2</ele><time>2024-09-01T15:16:45Z</time></trkpt>
<trkpt lat="48.196621" lon="-120.948545"><ele>1720.0</ele><time>2024-09-01T15:17:48Z</time></trkpt>
<trkpt lat="48.196549" lon="-120.948400"><ele>1720.2</ele><time>2024-09-01T15:17:51Z</time></trkpt>
<trkpt lat="48.196935" lon="-120.947541"><ele>1730.2</ele><time>2024-09-01T15:19:21Z</time></trkpt>
<trkpt lat="48.197275" lon="-120.946894"><ele>1732.2</ele><time>2024-09-01T15:19:57Z</time></trkpt>
<trkpt lat="48.197411" lon="-120.946271"><ele>1731.8</ele><time>2024-09-01T15:20:26Z</time></trkpt>
<trkpt lat="48.197505" lon="-120.945270"><ele>1740.6</ele><time>2024-09-01T15:21:38Z</time></trkpt>
<trkpt lat="48.197463" lon="-120.944910"><ele>1742.6</ele><time>2024-09-01T15:21:51Z</time></trkpt>
<trkpt lat="48.197351" lon="-120.944872"><ele>1743.0</ele><time>2024-09-01T15:21:59Z</time></trkpt>
<trkpt lat="48.197207" lon="-120.944946"><ele>1742.4</ele><time>2024-09-01T15:22:15Z</time></trkpt>
<trkpt lat="48.196840" lon="-120.944584"><ele>1742.0</ele><time>2024-09-01T15:22:45Z</time></trkpt>
<trkpt lat="48.196801" lon="-120.944462"><ele>1742.4</ele><time>2024-09-01T15:22:51Z</time></trkpt>
<trkpt lat="48.197140" lon="-120.944351"><ele>1745.8</ele><time>2024-09-01T15:23:15Z</time></trkpt>
<trkpt lat="48.197308" lon="-120.944112"><ele>1753.4</ele><time>2024-09-01T15:24:07Z</time></trkpt>
<trkpt lat="48.197551" lon="-120.943979"><ele>1756.8</ele><time>2024-09-01T15:24:35Z</time></trkpt>
<trkpt lat="48.197771" lon="-120.943686"><ele>1757.4</ele><time>2024-09-01T15:24:49Z</time></trkpt>
<trkpt lat="48.197741" lon="-120.943653"><ele>1758.2</ele><time>2024-09-01T15:24:55Z</time></trkpt>
<trkpt lat="48.197817" lon="-120.943678"><ele>1759.0</ele><time>2024-09-01T15:25:02Z</time></trkpt>
<trkpt lat="48.198231" lon="-120.942956"><ele>1766.4</ele><time>2024-09-01T15:26:07Z</time></trkpt>
<trkpt lat="48.198641" lon="-120.942425"><ele>1769.2</ele><time>2024-09-01T15:26:49Z</time></trkpt>
<trkpt lat="48.198708" lon="-120.942069"><ele>1773.6</ele><time>2024-09-01T15:27:15Z</time></trkpt>
<trkpt lat="48.198756" lon="-120.941990"><ele>1777.0</ele><time>2024-09-01T15:27:35Z</time></trkpt>
<trkpt lat="48.198819" lon="-120.942021"><ele>1780.4</ele><time>2024-09-01T15:28:11Z</time></trkpt>
<trkpt lat="48.198893" lon="-120.941754"><ele>1782.6</ele><time>2024-09-01T15:28:31Z</time></trkpt>
<trkpt lat="48.199094" lon="-120.941567"><ele>1785.8</ele><time>2024-09-01T15:28:50Z</time></trkpt>
<trkpt lat="48.199152" lon="-120.941714"><ele>1788.2</ele><time>2024-09-01T15:29:07Z</time></trkpt>
<trkpt lat="48.199786" lon="-120.941702"><ele>1798.4</ele><time>2024-09-01T15:30:49Z</time></trkpt>
<trkpt lat="48.199886" lon="-120.941582"><ele>1799.8</ele><time>2024-09-01T15:31:00Z</time></trkpt>
<trkpt lat="48.200300" lon="-120.941518"><ele>1803.0</ele><time>2024-09-01T15:31:35Z</time></trkpt>
<trkpt lat="48.200480" lon="-120.941744"><ele>1802.8</ele><time>2024-09-01T15:32:05Z</time></trkpt>
<trkpt lat="48.200623" lon="-120.942081"><ele>1801.2</ele><time>2024-09-01T15:32:27Z</time></trkpt>
<trkpt lat="48.200951" lon="-120.942184"><ele>1802.8</ele><time>2024-09-01T15:32:47Z</time></trkpt>
<trkpt lat="48.201182" lon="-120.942687"><ele>1797.6</ele><time>2024-09-01T15:33:43Z</time></trkpt>
<trkpt lat="48.201580" lon="-120.942956"><ele>1791.2</ele><time>2024-09-01T15:34:27Z</time></trkpt>
<trkpt lat="48.201659" lon="-120.943133"><ele>1788.6</ele><time>2024-09-01T15:34:48Z</time></trkpt>
<trkpt lat="48.201660" lon="-120.943387"><ele>1788.0</ele><time>2024-09-01T15:34:57Z</time></trkpt>
<trkpt lat="48.202031" lon="-120.943864"><ele>1783.6</ele><time>2024-09-01T15:35:35Z</time></trkpt>
<trkpt lat="48.202331" lon="-120.943778"><ele>1777.0</ele><time>2024-09-01T15:36:09Z</time></trkpt>
<trkpt lat="48.202438" lon="-120.943722"><ele>1776.0</ele><time>2024-09-01T15:36:19Z</time></trkpt>
<trkpt lat="48.202505" lon="-120.943528"><ele>1771.2</ele><time>2024-09-01T15:36:51Z</time></trkpt>
<trkpt lat="48.202324" lon="-120.943274"><ele>1768.0</ele><time>2024-09-01T15:37:13Z</time></trkpt>
<trkpt lat="48.202278" lon="-120.943053"><ele>1767.0</ele><time>2024-09-01T15:37:25Z</time></trkpt>
<trkpt lat="48.202495" lon="-120.942576"><ele>1759.0</ele><time>2024-09-01T15:38:09Z</time></trkpt>
<trkpt lat="48.202998" lon="-120.942892"><ele>1751.8</ele><time>2024-09-01T15:39:04Z</time></trkpt>
<trkpt lat="48.203184" lon="-120.942937"><ele>1749.2</ele><time>2024-09-01T15:39:19Z</time></trkpt>
<trkpt lat="48.203268" lon="-120.942814"><ele>1749.2</ele><time>2024-09-01T15:39:37Z</time></trkpt>
<trkpt lat="48.203125" lon="-120.942422"><ele>1746.8</ele><time>2024-09-01T15:40:13Z</time></trkpt>
<trkpt lat="48.203145" lon="-120.942138"><ele>1744.6</ele><time>2024-09-01T15:40:29Z</time></trkpt>
<trkpt lat="48.202997" lon="-120.941909"><ele>1743.0</ele><time>2024-09-01T15:40:48Z</time></trkpt>
<trkpt lat="48.202762" lon="-120.941869"><ele>1741.6</ele><time>2024-09-01T15:41:06Z</time></trkpt>
<trkpt lat="48.202733" lon="-120.941801"><ele>1741.4</ele><time>2024-09-01T15:41:12Z</time></trkpt>
<trkpt lat="48.202719" lon="-120.941310"><ele>1735.8</ele><time>2024-09-01T15:41:48Z</time></trkpt>
<trkpt lat="48.202989" lon="-120.940592"><ele>1728.6</ele><time>2024-09-01T15:42:36Z</time></trkpt>
<trkpt lat="48.203198" lon="-120.940419"><ele>1725.6</ele><time>2024-09-01T15:42:55Z</time></trkpt>
<trkpt lat="48.203033" lon="-120.940233"><ele>1723.2</ele><time>2024-09-01T15:43:15Z</time></trkpt>
<trkpt lat="48.202700" lon="-120.940409"><ele>1720.4</ele><time>2024-09-01T15:43:41Z</time></trkpt>
<trkpt lat="48.202487" lon="-120.940345"><ele>1716.6</ele><time>2024-09-01T15:44:13Z</time></trkpt>
<trkpt lat="48.202930" lon="-120.939825"><ele>1711.2</ele><time>2024-09-01T15:45:03Z</time></trkpt>
<trkpt lat="48.203501" lon="-120.939502"><ele>1713.0</ele><time>2024-09-01T15:45:40Z</time></trkpt>
<trkpt lat="48.204493" lon="-120.939305"><ele>1706.8</ele><time>2024-09-01T15:47:06Z</time></trkpt>
<trkpt lat="48.205086" lon="-120.938772"><ele>1700.0</ele><time>2024-09-01T15:47:50Z</time></trkpt>
<trkpt lat="48.205293" lon="-120.938781"><ele>1697.8</ele><time>2024-09-01T15:48:08Z</time></trkpt>
<trkpt lat="48.205428" lon="-120.938886"><ele>1695.6</ele><time>2024-09-01T15:48:22Z</time></trkpt>
<trkpt lat="48.205718" lon="-120.939582"><ele>1692.6</ele><time>2024-09-01T15:49:02Z</time></trkpt>
<trkpt lat="48.206543" lon="-120.940423"><ele>1681.2</ele><time>2024-09-01T15:50:10Z</time></trkpt>
<trkpt lat="48.207151" lon="-120.940785"><ele>1671.4</ele><time>2024-09-01T15:50:58Z</time></trkpt>
<trkpt lat="48.207521" lon="-120.940864"><ele>1669.4</ele><time>2024-09-01T15:51:17Z</time></trkpt>
<trkpt lat="48.208122" lon="-120.941270"><ele>1663.8</ele><time>2024-09-01T15:52:29Z</time></trkpt>
<trkpt lat="48.208408" lon="-120.941212"><ele>1661.2</ele><time>2024-09-01T15:52:54Z</time></trkpt>
<trkpt lat="48.208469" lon="-120.941358"><ele>1659.4</ele><time>2024-09-01T15:53:06Z</time></trkpt>
<trkpt lat="48.209466" lon="-120.941800"><ele>1648.4</ele><time>2024-09-01T15:54:44Z</time></trkpt>
<trkpt lat="48.209784" lon="-120.941834"><ele>1645.2</ele><time>2024-09-01T15:55:12Z</time></trkpt>
<trkpt lat="48.210077" lon="-120.942056"><ele>1643.2</ele><time>2024-09-01T15:55:30Z</time></trkpt>
<trkpt lat="48.210341" lon="-120.942117"><ele>1641.0</ele><time>2024-09-01T15:55:50Z</time></trkpt>
<trkpt lat="48.210420" lon="-120.942040"><ele>1639.8</ele><time>2024-09-01T15:56:08Z</time></trkpt>
<trkpt lat="48.210839" lon="-120.942353"><ele>1635.6</ele><time>2024-09-01T15:56:48Z</time></trkpt>
<trkpt lat="48.210875" lon="-120.942285"><ele>1635.4</ele><time>2024-09-01T15:56:51Z</time></trkpt>
<trkpt lat="48.210895" lon="-120.942475"><ele>1633.2</ele><time>2024-09-01T15:57:04Z</time></trkpt>
<trkpt lat="48.211124" lon="-120.942835"><ele>1630.0</ele><time>2024-09-01T15:57:26Z</time></trkpt>
<trkpt lat="48.211497" lon="-120.943004"><ele>1625.6</ele><time>2024-09-01T15:58:04Z</time></trkpt>
<trkpt lat="48.211777" lon="-120.943645"><ele>1618.0</ele><time>2024-09-01T15:58:49Z</time></trkpt>
<trkpt lat="48.211781" lon="-120.943925"><ele>1615.8</ele><time>2024-09-01T15:59:02Z</time></trkpt>
<trkpt lat="48.212065" lon="-120.944130"><ele>1614.2</ele><time>2024-09-01T15:59:26Z</time></trkpt>
<trkpt lat="48.212242" lon="-120.944366"><ele>1612.0</ele><time>2024-09-01T15:59:42Z</time></trkpt>
<trkpt lat="48.212326" lon="-120.945287"><ele>1606.4</ele><time>2024-09-01T16:00:38Z</time></trkpt>
<trkpt lat="48.212606" lon="-120.945641"><ele>1603.2</ele><time>2024-09-01T16:00:59Z</time></trkpt>
<trkpt lat="48.212542" lon="-120.945640"><ele>1603.0</ele><time>2024-09-01T16:01:01Z</time></trkpt>
<trkpt lat="48.212850" lon="-120.946124"><ele>1597.4</ele><time>2024-09-01T16:01:34Z</time></trkpt>
<trkpt lat="48.212993" lon="-120.946516"><ele>1595.4</ele><time>2024-09-01T16:02:04Z</time></trkpt>
<trkpt lat="48.213109" lon="-120.947192"><ele>1591.0</ele><time>2024-09-01T16:03:04Z</time></trkpt>
<trkpt lat="48.213373" lon="-120.947606"><ele>1589.0</ele><time>2024-09-01T16:03:26Z</time></trkpt>
<trkpt lat="48.213951" lon="-120.948208"><ele>1580.8</ele><time>2024-09-01T16:04:47Z</time></trkpt>
<trkpt lat="48.214036" lon="-120.948751"><ele>1579.8</ele><time>2024-09-01T16:05:01Z</time></trkpt>
<trkpt lat="48.214095" lon="-120.948840"><ele>1578.6</ele><time>2024-09-01T16:05:08Z</time></trkpt>
<trkpt lat="48.214087" lon="-120.949067"><ele>1576.6</ele><time>2024-09-01T16:05:20Z</time></trkpt>
<trkpt lat="48.214260" lon="-120.949607"><ele>1569.8</ele><time>2024-09-01T16:06:04Z</time></trkpt>
<trkpt lat="48.214918" lon="-120.950483"><ele>1557.8</ele><time>2024-09-01T16:07:05Z</time></trkpt>
<trkpt lat="48.215455" lon="-120.950685"><ele>1549.6</ele><time>2024-09-01T16:07:52Z</time></trkpt>
<trkpt lat="48.215541" lon="-120.950211"><ele>1543.8</ele><time>2024-09-01T16:08:20Z</time></trkpt>
<trkpt lat="48.215519" lon="-120.949817"><ele>1537.2</ele><time>2024-09-01T16:08:47Z</time></trkpt>
<trkpt lat="48.215559" lon="-120.950131"><ele>1535.6</ele><time>2024-09-01T16:08:54Z</time></trkpt>
<trkpt lat="48.215874" lon="-120.950340"><ele>1531.4</ele><time>2024-09-01T16:09:25Z</time></trkpt>
<trkpt lat="48.215995" lon="-120.950190"><ele>1530.2</ele><time>2024-09-01T16:09:41Z</time></trkpt>
<trkpt lat="48.216728" lon="-120.949914"><ele>1526.4</ele><time>2024-09-01T16:10:45Z</time></trkpt>
<trkpt lat="48.216760" lon="-120.949763"><ele>1526.6</ele><time>2024-09-01T16:10:48Z</time></trkpt>
<trkpt lat="48.217043" lon="-120.949363"><ele>1528.8</ele><time>2024-09-01T16:11:08Z</time></trkpt>
<trkpt lat="48.217122" lon="-120.950008"><ele>1528.8</ele><time>2024-09-01T16:11:12Z</time></trkpt>
<trkpt lat="48.217248" lon="-120.950098"><ele>1529.2</ele><time>2024-09-01T16:11:14Z</time></trkpt>
<trkpt lat="48.217190" lon="-120.950084"><ele>1529.4</ele><time>2024-09-01T16:11:15Z</time></trkpt>
<trkpt lat="48.217237" lon="-120.949716"><ele>1529.8</ele><time>2024-09-01T16:11:25Z</time></trkpt>
<trkpt lat="48.217224" lon="-120.949406"><ele>1530.0</ele><time>2024-09-01T16:12:01Z</time></trkpt>
<trkpt lat="48.217182" lon="-120.949382"><ele>1529.6</ele><time>2024-09-01T16:12:04Z</time></trkpt>
<trkpt lat="48.219033" lon="-120.946365"><ele>1609.2</ele><time>2024-09-01T16:23:05Z</time></trkpt>
<trkpt lat="48.219406" lon="-120.945894"><ele>1615.4</ele><time>2024-09-01T16:23:51Z</time></trkpt>
<trkpt lat="48.219745" lon="-120.945566"><ele>1613.6</ele><time>2024-09-01T16:24:29Z</time></trkpt>
<trkpt lat="48.220016" lon="-120.945067"><ele>1614.4</ele><time>2024-09-01T16:24:54Z</time></trkpt>
<trkpt lat="48.220042" lon="-120.944763"><ele>1614.4</ele><time>2024-09-01T16:25:01Z</time></trkpt>
<trkpt lat="48.221462" lon="-120.944018"><ele>1626.0</ele><time>2024-09-01T16:27:05Z</time></trkpt>
<trkpt lat="48.222144" lon="-120.943960"><ele>1627.4</ele><time>2024-09-01T16:28:19Z</time></trkpt>
<trkpt lat="48.222438" lon="-120.944045"><ele>1627.2</ele><time>2024-09-01T16:28:45Z</time></trkpt>
<trkpt lat="48.222707" lon="-120.944257"><ele>1626.0</ele><time>2024-09-01T16:28:58Z</time></trkpt>
<trkpt lat="48.222778" lon="-120.943773"><ele>1625.8</ele><time>2024-09-01T16:29:02Z</time></trkpt>
<trkpt lat="48.223131" lon="-120.943215"><ele>1624.6</ele><time>2024-09-01T16:29:19Z</time></trkpt>
<trkpt lat="48.223570" lon="-120.942851"><ele>1620.4</ele><time>2024-09-01T16:30:11Z</time></trkpt>
<trkpt lat="48.224078" lon="-120.942167"><ele>1613.8</ele><time>2024-09-01T16:30:51Z</time></trkpt>
<trkpt lat="48.224099" lon="-120.941901"><ele>1612.0</ele><time>2024-09-01T16:31:00Z</time></trkpt>
<trkpt lat="48.224565" lon="-120.941752"><ele>1606.0</ele><time>2024-09-01T16:31:31Z</time></trkpt>
<trkpt lat="48.225529" lon="-120.941680"><ele>1602.6</ele><time>2024-09-01T16:32:48Z</time></trkpt>
<trkpt lat="48.225521" lon="-120.941873"><ele>1601.6</ele><time>2024-09-01T16:32:55Z</time></trkpt>
<trkpt lat="48.225986" lon="-120.942072"><ele>1601.8</ele><time>2024-09-01T16:33:40Z</time></trkpt>
<trkpt lat="48.226294" lon="-120.942107"><ele>1597.2</ele><time>2024-09-01T16:34:08Z</time></trkpt>
<trkpt lat="48.226810" lon="-120.942415"><ele>1595.8</ele><time>2024-09-01T16:34:48Z</time></trkpt>
<trkpt lat="48.226993" lon="-120.942346"><ele>1595.6</ele><time>2024-09-01T16:34:57Z</time></trkpt>
<trkpt lat="48.227398" lon="-120.942530"><ele>1597.0</ele><time>2024-09-01T16:35:32Z</time></trkpt>
<trkpt lat="48.227676" lon="-120.942549"><ele>1599.2</ele><time>2024-09-01T16:35:52Z</time></trkpt>
<trkpt lat="48.228393" lon="-120.942359"><ele>1600.2</ele><time>2024-09-01T16:36:54Z</time></trkpt>
<trkpt lat="48.228312" lon="-120.942938"><ele>1600.2</ele><time>2024-09-01T16:36:56Z</time></trkpt>
<trkpt lat="48.228820" lon="-120.943319"><ele>1600.6</ele><time>2024-09-01T16:37:32Z</time></trkpt>
<trkpt lat="48.229465" lon="-120.943863"><ele>1613.4</ele><time>2024-09-01T16:38:51Z</time></trkpt>
<trkpt lat="48.229483" lon="-120.943738"><ele>1613.8</ele><time>2024-09-01T16:38:57Z</time></trkpt>
<trkpt lat="48.229615" lon="-120.943648"><ele>1615.2</ele><time>2024-09-01T16:39:04Z</time></trkpt>
<trkpt lat="48.230481" lon="-120.944759"><ele>1621.4</ele><time>2024-09-01T16:40:48Z</time></trkpt>
<trkpt lat="48.230557" lon="-120.944740"><ele>1621.4</ele><time>2024-09-01T16:40:49Z</time></trkpt>
<trkpt lat="48.230590" lon="-120.944571"><ele>1623.0</ele><time>2024-09-01T16:40:57Z</time></trkpt>
<trkpt lat="48.230711" lon="-120.944732"><ele>1624.2</ele><time>2024-09-01T16:41:06Z</time></trkpt>
<trkpt lat="48.230911" lon="-120.945335"><ele>1620.2</ele><time>2024-09-01T16:41:42Z</time></trkpt>
<trkpt lat="48.231279" lon="-120.945726"><ele>1619.0</ele><time>2024-09-01T16:42:32Z</time></trkpt>
<trkpt lat="48.231421" lon="-120.946068"><ele>1621.0</ele><time>2024-09-01T16:42:51Z</time></trkpt>
<trkpt lat="48.231330" lon="-120.946769"><ele>1623.4</ele><time>2024-09-01T16:43:18Z</time></trkpt>
<trkpt lat="48.231355" lon="-120.946978"><ele>1625.4</ele><time>2024-09-01T16:43:56Z</time></trkpt>
<trkpt lat="48.231322" lon="-120.947323"><ele>1622.0</ele><time>2024-09-01T16:44:22Z</time></trkpt>
<trkpt lat="48.231602" lon="-120.948148"><ele>1615.4</ele><time>2024-09-01T16:44:51Z</time></trkpt>
<trkpt lat="48.231898" lon="-120.948025"><ele>1609.0</ele><time>2024-09-01T16:45:46Z</time></trkpt>
<trkpt lat="48.232204" lon="-120.948437"><ele>1603.2</ele><time>2024-09-01T16:46:24Z</time></trkpt>
<trkpt lat="48.232380" lon="-120.948614"><ele>1597.4</ele><time>2024-09-01T16:46:48Z</time></trkpt>
<trkpt lat="48.232402" lon="-120.948567"><ele>1597.2</ele><time>2024-09-01T16:46:49Z</time></trkpt>
<trkpt lat="48.232523" lon="-120.948948"><ele>1593.8</ele><time>2024-09-01T16:47:05Z</time></trkpt>
<trkpt lat="48.232432" lon="-120.949085"><ele>1590.6</ele><time>2024-09-01T16:47:20Z</time></trkpt>
<trkpt lat="48.232440" lon="-120.948972"><ele>1587.2</ele><time>2024-09-01T16:48:46Z</time></trkpt>
<trkpt lat="48.232451" lon="-120.949260"><ele>1587.2</ele><time>2024-09-01T16:48:49Z</time></trkpt>
<trkpt lat="48.232382" lon="-120.948874"><ele>1587.6</ele><time>2024-09-01T16:48:56Z</time></trkpt>
<trkpt lat="48.232324" lon="-120.948921"><ele>1587.0</ele><time>2024-09-01T16:49:08Z</time></trkpt>
<trkpt lat="48.232444" lon="-120.948916"><ele>1587.0</ele><time>2024-09-01T16:49:09Z</time></trkpt>
<trkpt lat="48.232415" lon="-120.949320"><ele>1587.8</ele><time>2024-09-01T16:49:14Z</time></trkpt>
<trkpt lat="48.232429" lon="-120.949083"><ele>1589.0</ele><time>2024-09-01T16:49:36Z</time></trkpt>
<trkpt lat="48.232448" lon="-120.949170"><ele>1589.2</ele><time>2024-09-01T16:49:45Z</time></trkpt>
<trkpt lat="48.232526" lon="-120.949179"><ele>1588.6</ele><time>2024-09-01T16:49:54Z</time></trkpt>
<trkpt lat="48.232481" lon="-120.949237"><ele>1588.6</ele><time>2024-09-01T16:50:03Z</time></trkpt>
<trkpt lat="48.232539" lon="-120.949117"><ele>1588.0</ele><time>2024-09-01T16:51:49Z</time></trkpt>
<trkpt lat="48.232511" lon="-120.949245"><ele>1587.8</ele><time>2024-09-01T16:52:47Z</time></trkpt>
<trkpt lat="48.232540" lon="-120.949193"><ele>1588.2</ele><time>2024-09-01T16:53:03Z</time></trkpt>
<trkpt lat="48.232252" lon="-120.949222"><ele>1589.0</ele><time>2024-09-01T16:55:09Z</time></trkpt>
<trkpt lat="48.232424" lon="-120.949313"><ele>1588.8</ele><time>2024-09-01T16:55:14Z</time></trkpt>
<trkpt lat="48.232713" lon="-120.949247"><ele>1589.0</ele><time>2024-09-01T16:55:44Z</time></trkpt>
<trkpt lat="48.232535" lon="-120.949197"><ele>1589.6</ele><time>2024-09-01T16:56:00Z</time></trkpt>
<trkpt lat="48.232486" lon="-120.949224"><ele>1590.4</ele><time>2024-09-01T16:57:48Z</time></trkpt>
<trkpt lat="48.232518" lon="-120.949278"><ele>1590.4</ele><time>2024-09-01T16:57:50Z</time></trkpt>
<trkpt lat="48.232224" lon="-120.948939"><ele>1590.2</ele><time>2024-09-01T16:58:09Z</time></trkpt>
<trkpt lat="48.232431" lon="-120.949274"><ele>1590.2</ele><time>2024-09-01T16:58:12Z</time></trkpt>
<trkpt lat="48.232512" lon="-120.949165"><ele>1590.6</ele><time>2024-09-01T16:58:59Z</time></trkpt>
<trkpt lat="48.232561" lon="-120.949240"><ele>1591.4</ele><time>2024-09-01T17:00:37Z</time></trkpt>
<trkpt lat="48.232412" lon="-120.949635"><ele>1592.8</ele><time>2024-09-01T17:02:50Z</time></trkpt>
<trkpt lat="48.232505" lon="-120.949228"><ele>1593.0</ele><time>2024-09-01T17:03:00Z</time></trkpt>
<trkpt lat="48.232469" lon="-120.949203"><ele>1593.0</ele><time>2024-09-01T17:03:05Z</time></trkpt>
<trkpt lat="48.232453" lon="-120.949354"><ele>1595.4</ele><time>2024-09-01T17:05:07Z</time></trkpt>
<trkpt lat="48.232552" lon="-120.949150"><ele>1596.4</ele><time>2024-09-01T17:05:47Z</time></trkpt>
<trkpt lat="48.232527" lon="-120.949281"><ele>1598.4</ele><time>2024-09-01T17:07:58Z</time></trkpt>
<trkpt lat="48.232551" lon="-120.949216"><ele>1598.4</ele><time>2024-09-01T17:08:02Z</time></trkpt>
<trkpt lat="48.232473" lon="-120.949198"><ele>1600.4</ele><time>2024-09-01T17:09:29Z</time></trkpt>
<trkpt lat="48.232586" lon="-120.949154"><ele>1600.6</ele><time>2024-09-01T17:10:06Z</time></trkpt>
<trkpt lat="48.232486" lon="-120.949203"><ele>1600.8</ele><time>2024-09-01T17:10:13Z</time></trkpt>
<trkpt lat="48.232451" lon="-120.949130"><ele>1600.4</ele><time>2024-09-01T17:10:48Z</time></trkpt>
<trkpt lat="48.232484" lon="-120.949166"><ele>1600.4</ele><time>2024-09-01T17:10:53Z</time></trkpt>
<trkpt lat="48.232422" lon="-120.949314"><ele>1602.6</ele><time>2024-09-01T17:13:00Z</time></trkpt>
<trkpt lat="48.232501" lon="-120.949158"><ele>1604.4</ele><time>2024-09-01T17:14:58Z</time></trkpt>
<trkpt lat="48.232548" lon="-120.949216"><ele>1604.4</ele><time>2024-09-01T17:15:03Z</time></trkpt>
<trkpt lat="48.232501" lon="-120.949185"><ele>1604.4</ele><time>2024-09-01T17:15:08Z</time></trkpt>
<trkpt lat="48.232485" lon="-120.949343"><ele>1604.4</ele><time>2024-09-01T17:16:48Z</time></trkpt>
<trkpt lat="48.232478" lon="-120.949218"><ele>1604.4</ele><time>2024-09-01T17:17:10Z</time></trkpt>
<trkpt lat="48.232520" lon="-120.949212"><ele>1604.4</ele><time>2024-09-01T17:17:11Z</time></trkpt>
<trkpt lat="48.232457" lon="-120.949229"><ele>1604.4</ele><time>2024-09-01T17:17:14Z</time></trkpt>
<trkpt lat="48.232535" lon="-120.949196"><ele>1604.6</ele><time>2024-09-01T17:17:59Z</time></trkpt>
<trkpt lat="48.232553" lon="-120.949294"><ele>1605.2</ele><time>2024-09-01T17:19:51Z</time></trkpt>
<trkpt lat="48.232366" lon="-120.949175"><ele>1604.8</ele><time>2024-09-01T17:20:10Z</time></trkpt>
<trkpt lat="48.232564" lon="-120.949098"><ele>1604.8</ele><time>2024-09-01T17:20:16Z</time></trkpt>
<trkpt lat="48.232281" lon="-120.949284"><ele>1605.4</ele><time>2024-09-01T17:20:45Z</time></trkpt>
<trkpt lat="48.232511" lon="-120.949164"><ele>1605.2</ele><time>2024-09-01T17:21:04Z</time></trkpt>
<trkpt lat="48.232490" lon="-120.949252"><ele>1605.4</ele><time>2024-09-01T17:22:50Z</time></trkpt>
<trkpt lat="48.232558" lon="-120.949167"><ele>1606.0</ele><time>2024-09-01T17:24:53Z</time></trkpt>
<trkpt lat="48.232485" lon="-120.949229"><ele>1606.0</ele><time>2024-09-01T17:25:02Z</time></trkpt>
<trkpt lat="48.232534" lon="-120.949204"><ele>1605.8</ele><time>2024-09-01T17:26:14Z</time></trkpt>
<trkpt lat="48.232478" lon="-120.949159"><ele>1605.8</ele><time>2024-09-01T17:27:17Z</time></trkpt>
<trkpt lat="48.232559" lon="-120.949186"><ele>1605.8</ele><time>2024-09-01T17:27:46Z</time></trkpt>
<trkpt lat="48.232495" lon="-120.949163"><ele>1605.6</ele><time>2024-09-01T17:27:57Z</time></trkpt>
<trkpt lat="48.232467" lon="-120.949294"><ele>1607.8</ele><time>2024-09-01T17:30:09Z</time></trkpt>
<trkpt lat="48.232530" lon="-120.949160"><ele>1608.0</ele><time>2024-09-01T17:30:55Z</time></trkpt>
<trkpt lat="48.232497" lon="-120.949238"><ele>1607.8</ele><time>2024-09-01T17:32:42Z</time></trkpt>
<trkpt lat="48.232518" lon="-120.949170"><ele>1608.4</ele><time>2024-09-01T17:33:19Z</time></trkpt>
<trkpt lat="48.232539" lon="-120.949259"><ele>1608.2</ele><time>2024-09-01T17:33:54Z</time></trkpt>
<trkpt lat="48.232475" lon="-120.949130"><ele>1606.8</ele><time>2024-09-01T17:35:46Z</time></trkpt>
<trkpt lat="48.232487" lon="-120.949205"><ele>1606.8</ele><time>2024-09-01T17:36:12Z</time></trkpt>
<trkpt lat="48.232507" lon="-120.949132"><ele>1607.6</ele><time>2024-09-01T17:37:04Z</time></trkpt>
<trkpt lat="48.232612" lon="-120.950035"><ele>1607.6</ele><time>2024-09-01T17:38:55Z</time></trkpt>
<trkpt lat="48.232758" lon="-120.950310"><ele>1605.0</ele><time>2024-09-01T17:39:15Z</time></trkpt>
<trkpt lat="48.232836" lon="-120.950869"><ele>1601.8</ele><time>2024-09-01T17:39:49Z</time></trkpt>
<trkpt lat="48.233066" lon="-120.951121"><ele>1595.2</ele><time>2024-09-01T17:40:23Z</time></trkpt>
<trkpt lat="48.233314" lon="-120.951534"><ele>1590.2</ele><time>2024-09-01T17:40:50Z</time></trkpt>
<trkpt lat="48.233370" lon="-120.951531"><ele>1590.0</ele><time>2024-09-01T17:40:52Z</time></trkpt>
<trkpt lat="48.233376" lon="-120.951631"><ele>1587.8</ele><time>2024-09-01T17:41:06Z</time></trkpt>
<trkpt lat="48.233571" lon="-120.951916"><ele>1584.6</ele><time>2024-09-01T17:41:39Z</time></trkpt>
<trkpt lat="48.234232" lon="-120.952591"><ele>1572.2</ele><time>2024-09-01T17:42:52Z</time></trkpt>
<trkpt lat="48.234270" lon="-120.952684"><ele>1571.6</ele><time>2024-09-01T17:42:54Z</time></trkpt>
<trkpt lat="48.234054" lon="-120.952756"><ele>1570.6</ele><time>2024-09-01T17:42:59Z</time></trkpt>
<trkpt lat="48.234153" lon="-120.952721"><ele>1568.2</ele><time>2024-09-01T17:43:11Z</time></trkpt>
<trkpt lat="48.234480" lon="-120.953512"><ele>1559.6</ele><time>2024-09-01T17:43:57Z</time></trkpt>
<trkpt lat="48.234640" lon="-120.953456"><ele>1556.4</ele><time>2024-09-01T17:44:17Z</time></trkpt>
<trkpt lat="48.235021" lon="-120.952812"><ele>1547.4</ele><time>2024-09-01T17:45:06Z</time></trkpt>
<trkpt lat="48.234657" lon="-120.951854"><ele>1534.0</ele><time>2024-09-01T17:46:10Z</time></trkpt>
<trkpt lat="48.234737" lon="-120.951969"><ele>1532.6</ele><time>2024-09-01T17:46:51Z</time></trkpt>
<trkpt lat="48.234797" lon="-120.951932"><ele>1532.2</ele><time>2024-09-01T17:47:07Z</time></trkpt>
<trkpt lat="48.234705" lon="-120.951971"><ele>1529.2</ele><time>2024-09-01T17:48:40Z</time></trkpt>
<trkpt lat="48.234777" lon="-120.951979"><ele>1528.8</ele><time>2024-09-01T17:48:53Z</time></trkpt>
<trkpt lat="48.234716" lon="-120.952035"><ele>1528.4</ele><time>2024-09-01T17:48:56Z</time></trkpt>
<trkpt lat="48.234821" lon="-120.952029"><ele>1528.0</ele><time>2024-09-01T17:48:59Z</time></trkpt>
<trkpt lat="48.234806" lon="-120.952086"><ele>1528.0</ele><time>2024-09-01T17:49:01Z</time></trkpt>
<trkpt lat="48.234876" lon="-120.952086"><ele>1528.0</ele><time>2024-09-01T17:50:40Z</time></trkpt>
<trkpt lat="48.234743" lon="-120.952032"><ele>1527.8</ele><time>2024-09-01T17:50:57Z</time></trkpt>
<trkpt lat="48.235086" lon="-120.952394"><ele>1522.4</ele><time>2024-09-01T17:52:55Z</time></trkpt>
<trkpt lat="48.235154" lon="-120.952310"><ele>1521.0</ele><time>2024-09-01T17:52:59Z</time></trkpt>
<trkpt lat="48.235367" lon="-120.952577"><ele>1517.8</ele><time>2024-09-01T17:53:22Z</time></trkpt>
<trkpt lat="48.235434" lon="-120.952338"><ele>1514.4</ele><time>2024-09-01T17:53:44Z</time></trkpt>
<trkpt lat="48.235396" lon="-120.951917"><ele>1505.4</ele><time>2024-09-01T17:54:28Z</time></trkpt>
<trkpt lat="48.235622" lon="-120.951993"><ele>1500.8</ele><time>2024-09-01T17:54:50Z</time></trkpt>
<trkpt lat="48.235558" lon="-120.951959"><ele>1499.6</ele><time>2024-09-01T17:54:56Z</time></trkpt>
<trkpt lat="48.235842" lon="-120.952426"><ele>1496.2</ele><time>2024-09-01T17:55:30Z</time></trkpt>
<trkpt lat="48.235792" lon="-120.952769"><ele>1498.4</ele><time>2024-09-01T17:55:48Z</time></trkpt>
<trkpt lat="48.235901" lon="-120.953220"><ele>1499.6</ele><time>2024-09-01T17:56:13Z</time></trkpt>
<trkpt lat="48.235920" lon="-120.953775"><ele>1495.2</ele><time>2024-09-01T17:56:48Z</time></trkpt>
<trkpt lat="48.236039" lon="-120.953714"><ele>1494.4</ele><time>2024-09-01T17:56:53Z</time></trkpt>
<trkpt lat="48.236064" lon="-120.953851"><ele>1492.2</ele><time>2024-09-01T17:57:01Z</time></trkpt>
<trkpt lat="48.236327" lon="-120.954163"><ele>1490.0</ele><time>2024-09-01T17:57:31Z</time></trkpt>
<trkpt lat="48.236385" lon="-120.954519"><ele>1488.2</ele><time>2024-09-01T17:57:52Z</time></trkpt>
<trkpt lat="48.236601" lon="-120.954903"><ele>1482.8</ele><time>2024-09-01T17:58:20Z</time></trkpt>
<trkpt lat="48.237140" lon="-120.955319"><ele>1474.6</ele><time>2024-09-01T17:59:01Z</time></trkpt>
<trkpt lat="48.237801" lon="-120.956199"><ele>1471.2</ele><time>2024-09-01T18:00:23Z</time></trkpt>
<trkpt lat="48.237845" lon="-120.956123"><ele>1470.8</ele><time>2024-09-01T18:00:25Z</time></trkpt>
<trkpt lat="48.238075" lon="-120.956351"><ele>1468.2</ele><time>2024-09-01T18:00:39Z</time></trkpt>
<trkpt lat="48.238280" lon="-120.956745"><ele>1462.4</ele><time>2024-09-01T18:01:06Z</time></trkpt>
<trkpt lat="48.239006" lon="-120.957656"><ele>1451.0</ele><time>2024-09-01T18:02:51Z</time></trkpt>
<trkpt lat="48.239041" lon="-120.957517"><ele>1450.4</ele><time>2024-09-01T18:02:57Z</time></trkpt>
<trkpt lat="48.239204" lon="-120.957624"><ele>1448.4</ele><time>2024-09-01T18:03:06Z</time></trkpt>
<trkpt lat="48.239774" lon="-120.957661"><ele>1443.0</ele><time>2024-09-01T18:03:48Z</time></trkpt>
<trkpt lat="48.239865" lon="-120.957790"><ele>1442.0</ele><time>2024-09-01T18:03:58Z</time></trkpt>
<trkpt lat="48.240098" lon="-120.957493"><ele>1438.8</ele><time>2024-09-01T18:04:25Z</time></trkpt>
<trkpt lat="48.240515" lon="-120.957289"><ele>1438.2</ele><time>2024-09-01T18:04:48Z</time></trkpt>
<trkpt lat="48.240403" lon="-120.957261"><ele>1438.4</ele><time>2024-09-01T18:04:51Z</time></trkpt>
<trkpt lat="48.240367" lon="-120.957141"><ele>1439.0</ele><time>2024-09-01T18:04:58Z</time></trkpt>
<trkpt lat="48.240487" lon="-120.957012"><ele>1437.6</ele><time>2024-09-01T18:05:11Z</time></trkpt>
<trkpt lat="48.240988" lon="-120.957110"><ele>1435.4</ele><time>2024-09-01T18:05:44Z</time></trkpt>
<trkpt lat="48.241282" lon="-120.957305"><ele>1431.2</ele><time>2024-09-01T18:06:38Z</time></trkpt>
<trkpt lat="48.241577" lon="-120.957278"><ele>1432.8</ele><time>2024-09-01T18:06:52Z</time></trkpt>
<trkpt lat="48.241271" lon="-120.957076"><ele>1433.2</ele><time>2024-09-01T18:06:55Z</time></trkpt>
<trkpt lat="48.241383" lon="-120.957047"><ele>1433.6</ele><time>2024-09-01T18:07:00Z</time></trkpt>
<trkpt lat="48.241459" lon="-120.957136"><ele>1434.4</ele><time>2024-09-01T18:07:05Z</time></trkpt>
<trkpt lat="48.241503" lon="-120.957077"><ele>1435.0</ele><time>2024-09-01T18:07:10Z</time></trkpt>
<trkpt lat="48.241464" lon="-120.957053"><ele>1435.4</ele><time>2024-09-01T18:07:19Z</time></trkpt>
<trkpt lat="48.241625" lon="-120.957307"><ele>1437.6</ele><time>2024-09-01T18:07:39Z</time></trkpt>
<trkpt lat="48.241845" lon="-120.957360"><ele>1439.4</ele><time>2024-09-01T18:07:59Z</time></trkpt>
<trkpt lat="48.242221" lon="-120.957281"><ele>1442.8</ele><time>2024-09-01T18:08:35Z</time></trkpt>
<trkpt lat="48.242312" lon="-120.957074"><ele>1444.8</ele><time>2024-09-01T18:08:51Z</time></trkpt>
<trkpt lat="48.242543" lon="-120.957058"><ele>1445.2</ele><time>2024-09-01T18:08:55Z</time></trkpt>
<trkpt lat="48.242353" lon="-120.956875"><ele>1445.6</ele><time>2024-09-01T18:09:01Z</time></trkpt>
<trkpt lat="48.242508" lon="-120.955602"><ele>1443.0</ele><time>2024-09-01T18:10:33Z</time></trkpt>
<trkpt lat="48.242504" lon="-120.955129"><ele>1439.8</ele><time>2024-09-01T18:10:51Z</time></trkpt>
<trkpt lat="48.242570" lon="-120.954883"><ele>1437.4</ele><time>2024-09-01T18:11:00Z</time></trkpt>
<trkpt lat="48.242496" lon="-120.954935"><ele>1437.2</ele><time>2024-09-01T18:11:01Z</time></trkpt>
<trkpt lat="48.242481" lon="-120.954872"><ele>1436.4</ele><time>2024-09-01T18:11:04Z</time></trkpt>
<trkpt lat="48.242506" lon="-120.954435"><ele>1431.6</ele><time>2024-09-01T18:11:28Z</time></trkpt>
<trkpt lat="48.242417" lon="-120.954004"><ele>1427.2</ele><time>2024-09-01T18:12:00Z</time></trkpt>
<trkpt lat="48.242400" lon="-120.953436"><ele>1422.8</ele><time>2024-09-01T18:12:28Z</time></trkpt>
<trkpt lat="48.242561" lon="-120.952671"><ele>1420.0</ele><time>2024-09-01T18:12:56Z</time></trkpt>
<trkpt lat="48.242466" lon="-120.952692"><ele>1419.4</ele><time>2024-09-01T18:12:59Z</time></trkpt>
<trkpt lat="48.242517" lon="-120.952579"><ele>1418.2</ele><time>2024-09-01T18:13:06Z</time></trkpt>
<trkpt lat="48.242297" lon="-120.951264"><ele>1406.8</ele><time>2024-09-01T18:14:18Z</time></trkpt>
<trkpt lat="48.242282" lon="-120.951365"><ele>1402.2</ele><time>2024-09-01T18:14:40Z</time></trkpt>
<trkpt lat="48.242370" lon="-120.951590"><ele>1399.2</ele><time>2024-09-01T18:15:11Z</time></trkpt>
<trkpt lat="48.242255" lon="-120.951918"><ele>1395.6</ele><time>2024-09-01T18:15:30Z</time></trkpt>
<trkpt lat="48.242250" lon="-120.952121"><ele>1394.6</ele><time>2024-09-01T18:15:38Z</time></trkpt>
<trkpt lat="48.241890" lon="-120.951994"><ele>1391.2</ele><time>2024-09-01T18:16:01Z</time></trkpt>
<trkpt lat="48.241823" lon="-120.951804"><ele>1389.0</ele><time>2024-09-01T18:16:11Z</time></trkpt>
<trkpt lat="48.241928" lon="-120.951039"><ele>1378.8</ele><time>2024-09-01T18:17:37Z</time></trkpt>
<trkpt lat="48.242016" lon="-120.950836"><ele>1378.2</ele><time>2024-09-01T18:17:42Z</time></trkpt>
<trkpt lat="48.241885" lon="-120.950667"><ele>1374.2</ele><time>2024-09-01T18:17:58Z</time></trkpt>
<trkpt lat="48.241982" lon="-120.950373"><ele>1374.2</ele><time>2024-09-01T18:18:09Z</time></trkpt>
<trkpt lat="48.242189" lon="-120.949297"><ele>1361.4</ele><time>2024-09-01T18:20:29Z</time></trkpt>
<trkpt lat="48.241958" lon="-120.949013"><ele>1356.0</ele><time>2024-09-01T18:21:03Z</time></trkpt>
<trkpt lat="48.241823" lon="-120.949007"><ele>1352.4</ele><time>2024-09-01T18:21:23Z</time></trkpt>
<trkpt lat="48.241598" lon="-120.948753"><ele>1349.4</ele><time>2024-09-01T18:21:55Z</time></trkpt>
<trkpt lat="48.241718" lon="-120.948741"><ele>1349.4</ele><time>2024-09-01T18:22:00Z</time></trkpt>
<trkpt lat="48.241721" lon="-120.948659"><ele>1349.4</ele><time>2024-09-01T18:22:08Z</time></trkpt>
<trkpt lat="48.241736" lon="-120.948724"><ele>1349.4</ele><time>2024-09-01T18:22:18Z</time></trkpt>
<trkpt lat="48.241673" lon="-120.948605"><ele>1345.8</ele><time>2024-09-01T18:22:46Z</time></trkpt>
<trkpt lat="48.241843" lon="-120.947964"><ele>1342.6</ele><time>2024-09-01T18:23:20Z</time></trkpt>
<trkpt lat="48.241915" lon="-120.947342"><ele>1335.8</ele><time>2024-09-01T18:24:16Z</time></trkpt>
<trkpt lat="48.241825" lon="-120.947004"><ele>1331.4</ele><time>2024-09-01T18:26:02Z</time></trkpt>
<trkpt lat="48.241889" lon="-120.947041"><ele>1330.6</ele><time>2024-09-01T18:26:09Z</time></trkpt>
<trkpt lat="48.241827" lon="-120.946713"><ele>1328.0</ele><time>2024-09-01T18:26:30Z</time></trkpt>
<trkpt lat="48.241916" lon="-120.946693"><ele>1326.0</ele><time>2024-09-01T18:26:50Z</time></trkpt>
<trkpt lat="48.241850" lon="-120.946190"><ele>1322.4</ele><time>2024-09-01T18:27:26Z</time></trkpt>
<trkpt lat="48.242084" lon="-120.944942"><ele>1311.8</ele><time>2024-09-01T18:28:28Z</time></trkpt>
<trkpt lat="48.242096" lon="-120.945018"><ele>1311.4</ele><time>2024-09-01T18:28:31Z</time></trkpt>
<trkpt lat="48.242207" lon="-120.944718"><ele>1309.4</ele><time>2024-09-01T18:28:43Z</time></trkpt>
<trkpt lat="48.243152" lon="-120.943652"><ele>1291.6</ele><time>2024-09-01T18:30:17Z</time></trkpt>
<trkpt lat="48.243023" lon="-120.943577"><ele>1288.6</ele><time>2024-09-01T18:30:30Z</time></trkpt>
<trkpt lat="48.242869" lon="-120.943687"><ele>1287.8</ele><time>2024-09-01T18:30:34Z</time></trkpt>
<trkpt lat="48.242849" lon="-120.943530"><ele>1287.2</ele><time>2024-09-01T18:30:36Z</time></trkpt>
<trkpt lat="48.242785" lon="-120.943504"><ele>1286.8</ele><time>2024-09-01T18:30:38Z</time></trkpt>
<trkpt lat="48.242677" lon="-120.943686"><ele>1284.6</ele><time>2024-09-01T18:30:55Z</time></trkpt>
<trkpt lat="48.242737" lon="-120.943707"><ele>1284.0</ele><time>2024-09-01T18:30:59Z</time></trkpt>
<trkpt lat="48.242762" lon="-120.943623"><ele>1282.6</ele><time>2024-09-01T18:31:04Z</time></trkpt>
<trkpt lat="48.249362" lon="-120.938239"><ele>1201.6</ele><time>2024-09-01T18:46:00Z</time></trkpt>
<trkpt lat="48.249303" lon="-120.937147"><ele>1190.4</ele><time>2024-09-01T18:47:28Z</time></trkpt>
<trkpt lat="48.249389" lon="-120.936032"><ele>1183.8</ele><time>2024-09-01T18:48:04Z</time></trkpt>
<trkpt lat="48.250116" lon="-120.935245"><ele>1168.6</ele><time>2024-09-01T18:49:56Z</time></trkpt>
<trkpt lat="48.250074" lon="-120.935082"><ele>1168.2</ele><time>2024-09-01T18:49:59Z</time></trkpt>
<trkpt lat="48.250233" lon="-120.935183"><ele>1167.6</ele><time>2024-09-01T18:50:05Z</time></trkpt>
<trkpt lat="48.250299" lon="-120.934931"><ele>1162.6</ele><time>2024-09-01T18:50:43Z</time></trkpt>
<trkpt lat="48.250470" lon="-120.934723"><ele>1159.2</ele><time>2024-09-01T18:51:29Z</time></trkpt>
<trkpt lat="48.250651" lon="-120.934328"><ele>1154.4</ele><time>2024-09-01T18:51:59Z</time></trkpt>
<trkpt lat="48.250528" lon="-120.934072"><ele>1154.0</ele><time>2024-09-01T18:52:04Z</time></trkpt>
<trkpt lat="48.250641" lon="-120.934076"><ele>1153.2</ele><time>2024-09-01T18:52:12Z</time></trkpt>
<trkpt lat="48.250629" lon="-120.933929"><ele>1152.6</ele><time>2024-09-01T18:52:19Z</time></trkpt>
<trkpt lat="48.250794" lon="-120.933352"><ele>1148.6</ele><time>2024-09-01T18:52:41Z</time></trkpt>
<trkpt lat="48.251079" lon="-120.933036"><ele>1140.8</ele><time>2024-09-01T18:53:45Z</time></trkpt>
<trkpt lat="48.251101" lon="-120.933123"><ele>1139.2</ele><time>2024-09-01T18:53:55Z</time></trkpt>
<trkpt lat="48.251003" lon="-120.933047"><ele>1138.6</ele><time>2024-09-01T18:53:58Z</time></trkpt>
<trkpt lat="48.251075" lon="-120.933055"><ele>1138.2</ele><time>2024-09-01T18:54:02Z</time></trkpt>
<trkpt lat="48.251221" lon="-120.932731"><ele>1135.0</ele><time>2024-09-01T18:54:21Z</time></trkpt>
<trkpt lat="48.251628" lon="-120.932513"><ele>1132.0</ele><time>2024-09-01T18:54:45Z</time></trkpt>
<trkpt lat="48.251575" lon="-120.932574"><ele>1131.6</ele><time>2024-09-01T18:54:50Z</time></trkpt>
<trkpt lat="48.251428" lon="-120.932434"><ele>1130.4</ele><time>2024-09-01T18:54:57Z</time></trkpt>
<trkpt lat="48.251527" lon="-120.932366"><ele>1130.0</ele><time>2024-09-01T18:55:08Z</time></trkpt>
<trkpt lat="48.251700" lon="-120.931965"><ele>1126.4</ele><time>2024-09-01T18:55:35Z</time></trkpt>
<trkpt lat="48.251842" lon="-120.931883"><ele>1124.2</ele><time>2024-09-01T18:56:58Z</time></trkpt>
<trkpt lat="48.251764" lon="-120.931760"><ele>1124.0</ele><time>2024-09-01T18:57:03Z</time></trkpt>
<trkpt lat="48.251796" lon="-120.931693"><ele>1123.0</ele><time>2024-09-01T18:57:08Z</time></trkpt>
<trkpt lat="48.252213" lon="-120.931222"><ele>1117.0</ele><time>2024-09-01T18:58:05Z</time></trkpt>
<trkpt lat="48.252349" lon="-120.931229"><ele>1112.8</ele><time>2024-09-01T18:58:58Z</time></trkpt>
<trkpt lat="48.252296" lon="-120.931199"><ele>1112.4</ele><time>2024-09-01T18:59:00Z</time></trkpt>
<trkpt lat="48.252313" lon="-120.930955"><ele>1112.2</ele><time>2024-09-01T18:59:01Z</time></trkpt>
<trkpt lat="48.252441" lon="-120.930655"><ele>1109.0</ele><time>2024-09-01T18:59:21Z</time></trkpt>
<trkpt lat="48.252749" lon="-120.930261"><ele>1109.0</ele><time>2024-09-01T18:59:50Z</time></trkpt>
<trkpt lat="48.252893" lon="-120.930377"><ele>1107.8</ele><time>2024-09-01T19:00:01Z</time></trkpt>
<trkpt lat="48.253966" lon="-120.929782"><ele>1110.0</ele><time>2024-09-01T19:01:49Z</time></trkpt>
<trkpt lat="48.254190" lon="-120.929390"><ele>1106.8</ele><time>2024-09-01T19:02:12Z</time></trkpt>
<trkpt lat="48.254881" lon="-120.928617"><ele>1107.0</ele><time>2024-09-01T19:03:17Z</time></trkpt>
<trkpt lat="48.255214" lon="-120.928349"><ele>1111.4</ele><time>2024-09-01T19:04:12Z</time></trkpt>
<trkpt lat="48.274830" lon="-120.927428"><ele>1019.6</ele><time>2024-09-01T20:03:11Z</time></trkpt>
<trkpt lat="48.275634" lon="-120.927562"><ele>1019.0</ele><time>2024-09-01T20:04:36Z</time></trkpt>
<trkpt lat="48.276107" lon="-120.927541"><ele>1017.2</ele><time>2024-09-01T20:05:12Z</time></trkpt>
<trkpt lat="48.276295" lon="-120.927444"><ele>1018.4</ele><time>2024-09-01T20:05:24Z</time></trkpt>
<trkpt lat="48.276247" lon="-120.927136"><ele>1020.2</ele><time>2024-09-01T20:05:47Z</time></trkpt>
<trkpt lat="48.276032" lon="-120.926953"><ele>1020.8</ele><time>2024-09-01T20:05:54Z</time></trkpt>
<trkpt lat="48.276264" lon="-120.927055"><ele>1021.0</ele><time>2024-09-01T20:05:56Z</time></trkpt>
<trkpt lat="48.276454" lon="-120.927293"><ele>1021.4</ele><time>2024-09-01T20:06:00Z</time></trkpt>
<trkpt lat="48.276450" lon="-120.927458"><ele>1021.8</ele><time>2024-09-01T20:06:02Z</time></trkpt>
<trkpt lat="48.276748" lon="-120.927208"><ele>1023.6</ele><time>2024-09-01T20:06:43Z</time></trkpt>
<trkpt lat="48.276813" lon="-120.927317"><ele>1023.2</ele><time>2024-09-01T20:06:53Z</time></trkpt>
<trkpt lat="48.277219" lon="-120.927477"><ele>1023.6</ele><time>2024-09-01T20:07:41Z</time></trkpt>
<trkpt lat="48.277353" lon="-120.927602"><ele>1020.0</ele><time>2024-09-01T20:08:00Z</time></trkpt>
<trkpt lat="48.277476" lon="-120.927594"><ele>1020.8</ele><time>2024-09-01T20:08:07Z</time></trkpt>
<trkpt lat="48.277865" lon="-120.927910"><ele>1017.0</ele><time>2024-09-01T20:08:44Z</time></trkpt>
<trkpt lat="48.278105" lon="-120.928266"><ele>1012.6</ele><time>2024-09-01T20:09:22Z</time></trkpt>
<trkpt lat="48.278521" lon="-120.928392"><ele>1005.6</ele><time>2024-09-01T20:10:04Z</time></trkpt>
<trkpt lat="48.278557" lon="-120.928500"><ele>1004.4</ele><time>2024-09-01T20:10:11Z</time></trkpt>
<trkpt lat="48.279141" lon="-120.928442"><ele>1003.8</ele><time>2024-09-01T20:10:49Z</time></trkpt>
<trkpt lat="48.279320" lon="-120.928517"><ele>1003.6</ele><time>2024-09-01T20:11:07Z</time></trkpt>
<trkpt lat="48.279486" lon="-120.928755"><ele>1002.2</ele><time>2024-09-01T20:11:29Z</time></trkpt>
<trkpt lat="48.279724" lon="-120.928820"><ele>1002.4</ele><time>2024-09-01T20:12:03Z</time></trkpt>
<trkpt lat="48.279676" lon="-120.928805"><ele>1001.4</ele><time>2024-09-01T20:12:10Z</time></trkpt>
<trkpt lat="48.281628" lon="-120.929890"><ele>996.0</ele><time>2024-09-01T20:16:29Z</time></trkpt>
<trkpt lat="48.282244" lon="-120.929324"><ele>996.8</ele><time>2024-09-01T20:16:58Z</time></trkpt>
<trkpt lat="48.282300" lon="-120.929486"><ele>997.2</ele><time>2024-09-01T20:17:12Z</time></trkpt>
<trkpt lat="48.282809" lon="-120.930078"><ele>992.8</ele><time>2024-09-01T20:18:17Z</time></trkpt>
<trkpt lat="48.283002" lon="-120.930153"><ele>990.6</ele><time>2024-09-01T20:19:04Z</time></trkpt>
<trkpt lat="48.283205" lon="-120.930410"><ele>987.8</ele><time>2024-09-01T20:19:27Z</time></trkpt>
<trkpt lat="48.283861" lon="-120.930652"><ele>984.8</ele><time>2024-09-01T20:20:29Z</time></trkpt>
<trkpt lat="48.284021" lon="-120.930886"><ele>983.4</ele><time>2024-09-01T20:21:00Z</time></trkpt>
<trkpt lat="48.284030" lon="-120.931063"><ele>982.2</ele><time>2024-09-01T20:21:11Z</time></trkpt>
<trkpt lat="48.284556" lon="-120.931196"><ele>980.2</ele><time>2024-09-01T20:21:55Z</time></trkpt>
<trkpt lat="48.285305" lon="-120.931237"><ele>979.2</ele><time>2024-09-01T20:23:05Z</time></trkpt>
<trkpt lat="48.285618" lon="-120.931441"><ele>977.4</ele><time>2024-09-01T20:23:33Z</time></trkpt>
<trkpt lat="48.286599" lon="-120.931702"><ele>972.8</ele><time>2024-09-01T20:25:14Z</time></trkpt>
<trkpt lat="48.287823" lon="-120.931734"><ele>961.2</ele><time>2024-09-01T20:27:12Z</time></trkpt>
<trkpt lat="48.287801" lon="-120.931658"><ele>960.8</ele><time>2024-09-01T20:27:13Z</time></trkpt>
<trkpt lat="48.289411" lon="-120.931195"><ele>950.0</ele><time>2024-09-01T20:29:22Z</time></trkpt>
<trkpt lat="48.289539" lon="-120.931047"><ele>948.8</ele><time>2024-09-01T20:29:34Z</time></trkpt>
<trkpt lat="48.290138" lon="-120.930776"><ele>943.4</ele><time>2024-09-01T20:30:40Z</time></trkpt>
<trkpt lat="48.290479" lon="-120.930791"><ele>940.0</ele><time>2024-09-01T20:31:06Z</time></trkpt>
<trkpt lat="48.290424" lon="-120.930803"><ele>940.2</ele><time>2024-09-01T20:31:09Z</time></trkpt>
<trkpt lat="48.290878" lon="-120.930577"><ele>934.8</ele><time>2024-09-01T20:31:45Z</time></trkpt>
<trkpt lat="48.291141" lon="-120.930227"><ele>932.2</ele><time>2024-09-01T20:32:49Z</time></trkpt>
<trkpt lat="48.291297" lon="-120.930220"><ele>930.6</ele><time>2024-09-01T20:33:16Z</time></trkpt>
<trkpt lat="48.291192" lon="-120.930334"><ele>930.6</ele><time>2024-09-01T20:33:21Z</time></trkpt>
<trkpt lat="48.291282" lon="-120.930162"><ele>928.8</ele><time>2024-09-01T20:34:02Z</time></trkpt>
<trkpt lat="48.291319" lon="-120.930347"><ele>928.2</ele><time>2024-09-01T20:34:15Z</time></trkpt>
<trkpt lat="48.291406" lon="-120.930253"><ele>927.2</ele><time>2024-09-01T20:34:22Z</time></trkpt>
<trkpt lat="48.292413" lon="-120.930259"><ele>918.0</ele><time>2024-09-01T20:36:03Z</time></trkpt>
<trkpt lat="48.292453" lon="-120.930159"><ele>917.8</ele><time>2024-09-01T20:36:13Z</time></trkpt>
<trkpt lat="48.293720" lon="-120.930111"><ele>907.6</ele><time>2024-09-01T20:38:03Z</time></trkpt>
<trkpt lat="48.293740" lon="-120.929961"><ele>907.2</ele><time>2024-09-01T20:38:15Z</time></trkpt>
<trkpt lat="48.293833" lon="-120.929894"><ele>907.2</ele><time>2024-09-01T20:38:23Z</time></trkpt>
<trkpt lat="48.294018" lon="-120.929474"><ele>908.2</ele><time>2024-09-01T20:38:40Z</time></trkpt>
<trkpt lat="48.294326" lon="-120.929210"><ele>907.4</ele><time>2024-09-01T20:38:53Z</time></trkpt>
<trkpt lat="48.294029" lon="-120.929388"><ele>907.0</ele><time>2024-09-01T20:38:56Z</time></trkpt>
<trkpt lat="48.294324" lon="-120.929223"><ele>908.4</ele><time>2024-09-01T20:39:26Z</time></trkpt>
<trkpt lat="48.294789" lon="-120.928683"><ele>908.4</ele><time>2024-09-01T20:40:25Z</time></trkpt>
<trkpt lat="48.294825" lon="-120.928384"><ele>910.8</ele><time>2024-09-01T20:40:46Z</time></trkpt>
<trkpt lat="48.294975" lon="-120.928294"><ele>912.0</ele><time>2024-09-01T20:40:52Z</time></trkpt>
<trkpt lat="48.294844" lon="-120.928286"><ele>912.2</ele><time>2024-09-01T20:40:54Z</time></trkpt>
<trkpt lat="48.294978" lon="-120.928273"><ele>912.8</ele><time>2024-09-01T20:41:08Z</time></trkpt>
<trkpt lat="48.305019" lon="-120.921397"><ele>887.2</ele><time>2024-09-01T21:00:27Z</time></trkpt>
<trkpt lat="48.305768" lon="-120.921036"><ele>890.8</ele><time>2024-09-01T21:01:06Z</time></trkpt>
<trkpt lat="48.306701" lon="-120.921360"><ele>886.0</ele><time>2024-09-01T21:02:41Z</time></trkpt>
<trkpt lat="48.307088" lon="-120.921672"><ele>885.2</ele><time>2024-09-01T21:03:08Z</time></trkpt>
<trkpt lat="48.307225" lon="-120.921683"><ele>885.2</ele><time>2024-09-01T21:03:13Z</time></trkpt>
<trkpt lat="48.308358" lon="-120.922358"><ele>883.4</ele><time>2024-09-01T21:05:10Z</time></trkpt>
<trkpt lat="48.309415" lon="-120.921442"><ele>884.2</ele><time>2024-09-01T21:07:06Z</time></trkpt>
<trkpt lat="48.309378" lon="-120.921372"><ele>884.6</ele><time>2024-09-01T21:07:09Z</time></trkpt>
<trkpt lat="48.309456" lon="-120.921143"><ele>886.4</ele><time>2024-09-01T21:07:31Z</time></trkpt>
<trkpt lat="48.309426" lon="-120.921006"><ele>887.4</ele><time>2024-09-01T21:07:43Z</time></trkpt>
<trkpt lat="48.309508" lon="-120.920806"><ele>888.6</ele><time>2024-09-01T21:08:03Z</time></trkpt>
<trkpt lat="48.309431" lon="-120.920021"><ele>889.8</ele><time>2024-09-01T21:09:19Z</time></trkpt>
<trkpt lat="48.309529" lon="-120.919862"><ele>888.6</ele><time>2024-09-01T21:09:54Z</time></trkpt>
<trkpt lat="48.309442" lon="-120.919774"><ele>888.4</ele><time>2024-09-01T21:09:55Z</time></trkpt>
<trkpt lat="48.309412" lon="-120.919850"><ele>888.4</ele><time>2024-09-01T21:10:00Z</time></trkpt>
<trkpt lat="48.309534" lon="-120.919859"><ele>888.2</ele><time>2024-09-01T21:10:04Z</time></trkpt>
<trkpt lat="48.309451" lon="-120.920055"><ele>888.6</ele><time>2024-09-01T21:10:16Z</time></trkpt>
<trkpt lat="48.309512" lon="-120.919988"><ele>889.2</ele><time>2024-09-01T21:11:09Z</time></trkpt>
<trkpt lat="48.309475" lon="-120.920052"><ele>888.6</ele><time>2024-09-01T21:12:07Z</time></trkpt>
<trkpt lat="48.309514" lon="-120.920112"><ele>888.6</ele><time>2024-09-01T21:12:10Z</time></trkpt>
<trkpt lat="48.309455" lon="-120.920145"><ele>888.8</ele><time>2024-09-01T21:12:14Z</time></trkpt>
<trkpt lat="48.309472" lon="-120.919991"><ele>889.4</ele><time>2024-09-01T21:14:22Z</time></trkpt>
<trkpt lat="48.309547" lon="-120.920077"><ele>889.4</ele><time>2024-09-01T21:14:25Z</time></trkpt>
<trkpt lat="48.309476" lon="-120.919862"><ele>889.4</ele><time>2024-09-01T21:15:01Z</time></trkpt>
<trkpt lat="48.309518" lon="-120.919919"><ele>889.4</ele><time>2024-09-01T21:15:06Z</time></trkpt>
<trkpt lat="48.309445" lon="-120.919998"><ele>889.4</ele><time>2024-09-01T21:15:09Z</time></trkpt>
<trkpt lat="48.309514" lon="-120.920011"><ele>889.6</ele><time>2024-09-01T21:15:12Z</time></trkpt>
<trkpt lat="48.309467" lon="-120.919828"><ele>889.6</ele><time>2024-09-01T21:17:03Z</time></trkpt>
<trkpt lat="48.309506" lon="-120.919746"><ele>889.6</ele><time>2024-09-01T21:17:09Z</time></trkpt>
<trkpt lat="48.309267" lon="-120.919968"><ele>889.8</ele><time>2024-09-01T21:17:12Z</time></trkpt>
<trkpt lat="48.309360" lon="-120.919928"><ele>889.8</ele><time>2024-09-01T21:17:15Z</time></trkpt>
<trkpt lat="48.309532" lon="-120.920181"><ele>889.6</ele><time>2024-09-01T21:17:25Z</time></trkpt>
<trkpt lat="48.309369" lon="-120.919843"><ele>889.6</ele><time>2024-09-01T21:17:57Z</time></trkpt>
<trkpt lat="48.309345" lon="-120.919917"><ele>889.6</ele><time>2024-09-01T21:18:00Z</time></trkpt>
<trkpt lat="48.309429" lon="-120.919862"><ele>889.6</ele><time>2024-09-01T21:18:03Z</time></trkpt>
<trkpt lat="48.309426" lon="-120.919971"><ele>890.0</ele><time>2024-09-01T21:18:11Z</time></trkpt>
<trkpt lat="48.309384" lon="-120.919956"><ele>890.6</ele><time>2024-09-01T21:19:57Z</time></trkpt>
<trkpt lat="48.309444" lon="-120.919994"><ele>890.6</ele><time>2024-09-01T21:20:14Z</time></trkpt>
<trkpt lat="48.309442" lon="-120.920110"><ele>892.0</ele><time>2024-09-01T21:21:45Z</time></trkpt>
<trkpt lat="48.309480" lon="-120.920036"><ele>892.2</ele><time>2024-09-01T21:22:15Z</time></trkpt>
<trkpt lat="48.309395" lon="-120.920002"><ele>893.6</ele><time>2024-09-01T21:24:00Z</time></trkpt>
<trkpt lat="48.309581" lon="-120.920098"><ele>894.0</ele><time>2024-09-01T21:24:15Z</time></trkpt>
<trkpt lat="48.309402" lon="-120.919946"><ele>893.8</ele><time>2024-09-01T21:24:21Z</time></trkpt>
<trkpt lat="48.310111" lon="-120.920771"><ele>894.2</ele><time>2024-09-01T21:24:55Z</time></trkpt>
<trkpt lat="48.309864" lon="-120.920392"><ele>894.4</ele><time>2024-09-01T21:25:00Z</time></trkpt>
<trkpt lat="48.309649" lon="-120.920202"><ele>894.6</ele><time>2024-09-01T21:25:13Z</time></trkpt>
<trkpt lat="48.309478" lon="-120.920116"><ele>896.2</ele><time>2024-09-01T21:27:00Z</time></trkpt>
<trkpt lat="48.309434" lon="-120.920171"><ele>896.2</ele><time>2024-09-01T21:27:06Z</time></trkpt>
<trkpt lat="48.309294" lon="-120.919848"><ele>896.6</ele><time>2024-09-01T21:29:07Z</time></trkpt>
<trkpt lat="48.309404" lon="-120.920063"><ele>896.6</ele><time>2024-09-01T21:29:15Z</time></trkpt>
<trkpt lat="48.309551" lon="-120.920074"><ele>898.4</ele><time>2024-09-01T21:30:56Z</time></trkpt>
<trkpt lat="48.309531" lon="-120.919999"><ele>898.6</ele><time>2024-09-01T21:31:03Z</time></trkpt>
<trkpt lat="48.309338" lon="-120.919912"><ele>898.8</ele><time>2024-09-01T21:31:13Z</time></trkpt>
<trkpt lat="48.309514" lon="-120.920145"><ele>899.4</ele><time>2024-09-01T21:33:00Z</time></trkpt>
<trkpt lat="48.309430" lon="-120.920142"><ele>899.0</ele><time>2024-09-01T21:33:10Z</time></trkpt>
<trkpt lat="48.309407" lon="-120.920090"><ele>899.0</ele><time>2024-09-01T21:33:14Z</time></trkpt>
<trkpt lat="48.309545" lon="-120.920236"><ele>899.0</ele><time>2024-09-01T21:33:24Z</time></trkpt>
<trkpt lat="48.309458" lon="-120.920170"><ele>899.4</ele><time>2024-09-01T21:33:54Z</time></trkpt>
<trkpt lat="48.309378" lon="-120.919915"><ele>899.2</ele><time>2024-09-01T21:33:56Z</time></trkpt>
<trkpt lat="48.309283" lon="-120.919928"><ele>899.4</ele><time>2024-09-01T21:34:15Z</time></trkpt>
<trkpt lat="48.309069" lon="-120.919559"><ele>902.6</ele><time>2024-09-01T21:36:05Z</time></trkpt>
<trkpt lat="48.308978" lon="-120.919595"><ele>902.6</ele><time>2024-09-01T21:36:07Z</time></trkpt>
<trkpt lat="48.309257" lon="-120.919757"><ele>902.4</ele><time>2024-09-01T21:36:12Z</time></trkpt>
<trkpt lat="48.309208" lon="-120.919597"><ele>903.0</ele><time>2024-09-01T21:36:22Z</time></trkpt>
<trkpt lat="48.309270" lon="-120.919630"><ele>903.0</ele><time>2024-09-01T21:36:42Z</time></trkpt>
<trkpt lat="48.310358" lon="-120.920367"><ele>897.2</ele><time>2024-09-01T21:38:05Z</time></trkpt>
<trkpt lat="48.310980" lon="-120.920098"><ele>898.8</ele><time>2024-09-01T21:38:59Z</time></trkpt>
<trkpt lat="48.311395" lon="-120.920311"><ele>894.4</ele><time>2024-09-01T21:39:41Z</time></trkpt>
<trkpt lat="48.311773" lon="-120.920340"><ele>892.2</ele><time>2024-09-01T21:40:11Z</time></trkpt>
<trkpt lat="48.312651" lon="-120.920098"><ele>891.0</ele><time>2024-09-01T21:41:18Z</time></trkpt>
<trkpt lat="48.312836" lon="-120.919923"><ele>889.8</ele><time>2024-09-01T21:41:42Z</time></trkpt>
<trkpt lat="48.313254" lon="-120.919777"><ele>888.4</ele><time>2024-09-01T21:42:02Z</time></trkpt>
<trkpt lat="48.313626" lon="-120.919819"><ele>888.0</ele><time>2024-09-01T21:42:22Z</time></trkpt>
<trkpt lat="48.313949" lon="-120.919704"><ele>886.8</ele><time>2024-09-01T21:42:58Z</time></trkpt>
<trkpt lat="48.314813" lon="-120.919297"><ele>889.6</ele><time>2024-09-01T21:44:08Z</time></trkpt>
<trkpt lat="48.316516" lon="-120.919623"><ele>891.8</ele><time>2024-09-01T21:46:48Z</time></trkpt>
<trkpt lat="48.316524" lon="-120.920615"><ele>892.2</ele><time>2024-09-01T21:46:59Z</time></trkpt>
<trkpt lat="48.316861" lon="-120.919651"><ele>891.6</ele><time>2024-09-01T21:47:02Z</time></trkpt>
<trkpt lat="48.317104" lon="-120.919808"><ele>891.0</ele><time>2024-09-01T21:47:15Z</time></trkpt>
<trkpt lat="48.317850" lon="-120.920549"><ele>884.4</ele><time>2024-09-01T21:48:31Z</time></trkpt>
<trkpt lat="48.318210" lon="-120.920561"><ele>881.2</ele><time>2024-09-01T21:48:57Z</time></trkpt>
<trkpt lat="48.318498" lon="-120.920713"><ele>878.0</ele><time>2024-09-01T21:49:12Z</time></trkpt>
<trkpt lat="48.318986" lon="-120.920438"><ele>878.0</ele><time>2024-09-01T21:49:44Z</time></trkpt>
<trkpt lat="48.319577" lon="-120.920787"><ele>874.6</ele><time>2024-09-01T21:50:42Z</time></trkpt>
<trkpt lat="48.319877" lon="-120.920836"><ele>875.6</ele><time>2024-09-01T21:51:09Z</time></trkpt>
<trkpt lat="48.320596" lon="-120.920622"><ele>869.2</ele><time>2024-09-01T21:52:20Z</time></trkpt>
<trkpt lat="48.321015" lon="-120.920578"><ele>868.2</ele><time>2024-09-01T21:53:02Z</time></trkpt>
<trkpt lat="48.321582" lon="-120.920915"><ele>867.8</ele><time>2024-09-01T21:53:41Z</time></trkpt>
<trkpt lat="48.321715" lon="-120.921148"><ele>866.6</ele><time>2024-09-01T21:53:55Z</time></trkpt>
<trkpt lat="48.322649" lon="-120.921364"><ele>863.6</ele><time>2024-09-01T21:55:08Z</time></trkpt>
<trkpt lat="48.323004" lon="-120.921157"><ele>862.2</ele><time>2024-09-01T21:55:29Z</time></trkpt>
<trkpt lat="48.323384" lon="-120.920773"><ele>862.0</ele><time>2024-09-01T21:56:07Z</time></trkpt>
<trkpt lat="48.324003" lon="-120.920580"><ele>857.8</ele><time>2024-09-01T21:57:20Z</time></trkpt>
<trkpt lat="48.323936" lon="-120.920440"><ele>857.8</ele><time>2024-09-01T21:57:21Z</time></trkpt>
<trkpt lat="48.324290" lon="-120.919969"><ele>859.2</ele><time>2024-09-01T21:57:57Z</time></trkpt>
<trkpt lat="48.324414" lon="-120.920039"><ele>859.0</ele><time>2024-09-01T21:58:07Z</time></trkpt>
<trkpt lat="48.324925" lon="-120.920039"><ele>857.6</ele><time>2024-09-01T21:58:43Z</time></trkpt>
<trkpt lat="48.325288" lon="-120.920007"><ele>851.0</ele><time>2024-09-01T21:59:23Z</time></trkpt>
<trkpt lat="48.325919" lon="-120.920234"><ele>847.2</ele><time>2024-09-01T22:00:03Z</time></trkpt>
<trkpt lat="48.325867" lon="-120.920324"><ele>846.4</ele><time>2024-09-01T22:00:05Z</time></trkpt>
<trkpt lat="48.325931" lon="-120.920413"><ele>845.0</ele><time>2024-09-01T22:00:12Z</time></trkpt>
<trkpt lat="48.326290" lon="-120.920045"><ele>846.0</ele><time>2024-09-01T22:00:51Z</time></trkpt>
<trkpt lat="48.326375" lon="-120.919855"><ele>844.6</ele><time>2024-09-01T22:01:01Z</time></trkpt>
<trkpt lat="48.326531" lon="-120.919274"><ele>848.0</ele><time>2024-09-01T22:01:45Z</time></trkpt>
<trkpt lat="48.326554" lon="-120.918832"><ele>849.6</ele><time>2024-09-01T22:02:13Z</time></trkpt>
<trkpt lat="48.327097" lon="-120.918544"><ele>849.4</ele><time>2024-09-01T22:03:04Z</time></trkpt>
<trkpt lat="48.327921" lon="-120.918460"><ele>847.2</ele><time>2024-09-01T22:04:10Z</time></trkpt>
<trkpt lat="48.328006" lon="-120.918350"><ele>847.2</ele><time>2024-09-01T22:04:15Z</time></trkpt>
<trkpt lat="48.328618" lon="-120.918159"><ele>850.0</ele><time>2024-09-01T22:05:07Z</time></trkpt>
<trkpt lat="48.328914" lon="-120.917744"><ele>849.6</ele><time>2024-09-01T22:05:35Z</time></trkpt>
<trkpt lat="48.329122" lon="-120.917683"><ele>849.0</ele><time>2024-09-01T22:05:49Z</time></trkpt>
<trkpt lat="48.329278" lon="-120.917806"><ele>848.2</ele><time>2024-09-01T22:06:05Z</time></trkpt>
<trkpt lat="48.329245" lon="-120.917372"><ele>848.4</ele><time>2024-09-01T22:06:13Z</time></trkpt>
<trkpt lat="48.330419" lon="-120.916806"><ele>846.6</ele><time>2024-09-01T22:08:08Z</time></trkpt>
<trkpt lat="48.330653" lon="-120.916780"><ele>847.0</ele><time>2024-09-01T22:08:19Z</time></trkpt>
<trkpt lat="48.330626" lon="-120.916658"><ele>847.6</ele><time>2024-09-01T22:08:23Z</time></trkpt>
<trkpt lat="48.330687" lon="-120.916777"><ele>848.0</ele><time>2024-09-01T22:08:25Z</time></trkpt>
<trkpt lat="48.330661" lon="-120.916685"><ele>848.6</ele><time>2024-09-01T22:08:29Z</time></trkpt>
<trkpt lat="48.331116" lon="-120.917083"><ele>847.8</ele><time>2024-09-01T22:08:57Z</time></trkpt>
<trkpt lat="48.331219" lon="-120.916976"><ele>844.0</ele><time>2024-09-01T22:09:13Z</time></trkpt>
<trkpt lat="48.331313" lon="-120.917036"><ele>843.2</ele><time>2024-09-01T22:09:18Z</time></trkpt>
<trkpt lat="48.331903" lon="-120.916665"><ele>841.0</ele><time>2024-09-01T22:10:07Z</time></trkpt>
<trkpt lat="48.332368" lon="-120.916272"><ele>842.4</ele><time>2024-09-01T22:11:01Z</time></trkpt>
<trkpt lat="48.332284" lon="-120.915921"><ele>841.6</ele><time>2024-09-01T22:11:05Z</time></trkpt>
<trkpt lat="48.332580" lon="-120.915549"><ele>838.2</ele><time>2024-09-01T22:11:35Z</time></trkpt>
<trkpt lat="48.333526" lon="-120.914787"><ele>830.2</ele><time>2024-09-01T22:13:05Z</time></trkpt>
<trkpt lat="48.333453" lon="-120.914738"><ele>830.0</ele><time>2024-09-01T22:13:07Z</time></trkpt>
<trkpt lat="48.333543" lon="-120.914733"><ele>829.2</ele><time>2024-09-01T22:13:18Z</time></trkpt>
<trkpt lat="48.333835" lon="-120.914448"><ele>828.2</ele><time>2024-09-01T22:13:43Z</time></trkpt>
<trkpt lat="48.334303" lon="-120.913815"><ele>826.0</ele><time>2024-09-01T22:14:41Z</time></trkpt>
<trkpt lat="48.334508" lon="-120.913641"><ele>826.0</ele><time>2024-09-01T22:14:59Z</time></trkpt>
<trkpt lat="48.334520" lon="-120.913489"><ele>826.8</ele><time>2024-09-01T22:15:04Z</time></trkpt>
<trkpt lat="48.334811" lon="-120.913408"><ele>827.2</ele><time>2024-09-01T22:15:08Z</time></trkpt>
<trkpt lat="48.334889" lon="-120.913293"><ele>827.4</ele><time>2024-09-01T22:15:12Z</time></trkpt>
<trkpt lat="48.334839" lon="-120.913267"><ele>827.4</ele><time>2024-09-01T22:15:14Z</time></trkpt>
<trkpt lat="48.334880" lon="-120.913164"><ele>827.4</ele><time>2024-09-01T22:15:16Z</time></trkpt>
<trkpt lat="48.335436" lon="-120.912557"><ele>824.0</ele><time>2024-09-01T22:16:01Z</time></trkpt>
<trkpt lat="48.335648" lon="-120.912459"><ele>821.6</ele><time>2024-09-01T22:16:33Z</time></trkpt>
<trkpt lat="48.335963" lon="-120.912087"><ele>818.8</ele><time>2024-09-01T22:17:07Z</time></trkpt>
<trkpt lat="48.336069" lon="-120.912108"><ele>818.6</ele><time>2024-09-01T22:17:10Z</time></trkpt>
<trkpt lat="48.336025" lon="-120.912016"><ele>818.4</ele><time>2024-09-01T22:17:12Z</time></trkpt>
<trkpt lat="48.336287" lon="-120.911917"><ele>816.4</ele><time>2024-09-01T22:17:23Z</time></trkpt>
<trkpt lat="48.336246" lon="-120.911876"><ele>815.2</ele><time>2024-09-01T22:17:29Z</time></trkpt>
<trkpt lat="48.336275" lon="-120.911970"><ele>814.2</ele><time>2024-09-01T22:17:35Z</time></trkpt>
<trkpt lat="48.336679" lon="-120.911414"><ele>808.6</ele><time>2024-09-01T22:18:11Z</time></trkpt>
<trkpt lat="48.337325" lon="-120.910838"><ele>804.0</ele><time>2024-09-01T22:19:11Z</time></trkpt>
<trkpt lat="48.337276" lon="-120.910660"><ele>805.2</ele><time>2024-09-01T22:19:18Z</time></trkpt>
<trkpt lat="48.337306" lon="-120.910478"><ele>807.6</ele><time>2024-09-01T22:19:33Z</time></trkpt>
<trkpt lat="48.337580" lon="-120.910002"><ele>807.4</ele><time>2024-09-01T22:19:59Z</time></trkpt>
<trkpt lat="48.337640" lon="-120.910057"><ele>806.8</ele><time>2024-09-01T22:20:11Z</time></trkpt>
<trkpt lat="48.337984" lon="-120.909282"><ele>801.4</ele><time>2024-09-01T22:21:10Z</time></trkpt>
<trkpt lat="48.338082" lon="-120.908892"><ele>804.0</ele><time>2024-09-01T22:21:30Z</time></trkpt>
<trkpt lat="48.338379" lon="-120.908381"><ele>806.0</ele><time>2024-09-01T22:22:12Z</time></trkpt>
<trkpt lat="48.339000" lon="-120.907856"><ele>801.8</ele><time>2024-09-01T22:23:00Z</time></trkpt>
<trkpt lat="48.339932" lon="-120.907284"><ele>795.0</ele><time>2024-09-01T22:24:14Z</time></trkpt>
<trkpt lat="48.339911" lon="-120.907179"><ele>794.6</ele><time>2024-09-01T22:24:19Z</time></trkpt>
<trkpt lat="48.340052" lon="-120.907150"><ele>794.0</ele><time>2024-09-01T22:24:27Z</time></trkpt>
<trkpt lat="48.340080" lon="-120.907248"><ele>793.8</ele><time>2024-09-01T22:24:29Z</time></trkpt>
<trkpt lat="48.340199" lon="-120.907039"><ele>791.0</ele><time>2024-09-01T22:24:54Z</time></trkpt>
<trkpt lat="48.340205" lon="-120.906661"><ele>790.0</ele><time>2024-09-01T22:25:01Z</time></trkpt>
<trkpt lat="48.340458" lon="-120.906719"><ele>787.2</ele><time>2024-09-01T22:25:14Z</time></trkpt>
<trkpt lat="48.341022" lon="-120.906308"><ele>779.4</ele><time>2024-09-01T22:25:59Z</time></trkpt>
<trkpt lat="48.340995" lon="-120.905918"><ele>778.0</ele><time>2024-09-01T22:26:08Z</time></trkpt>
<trkpt lat="48.341040" lon="-120.905698"><ele>777.2</ele><time>2024-09-01T22:26:21Z</time></trkpt>
<trkpt lat="48.341183" lon="-120.905594"><ele>775.6</ele><time>2024-09-01T22:26:35Z</time></trkpt>
<trkpt lat="48.341249" lon="-120.905439"><ele>774.2</ele><time>2024-09-01T22:26:48Z</time></trkpt>
<trkpt lat="48.341632" lon="-120.905164"><ele>768.4</ele><time>2024-09-01T22:27:26Z</time></trkpt>
<trkpt lat="48.342131" lon="-120.904523"><ele>760.6</ele><time>2024-09-01T22:28:24Z</time></trkpt>
<trkpt lat="48.342378" lon="-120.904359"><ele>757.6</ele><time>2024-09-01T22:28:40Z</time></trkpt>
<trkpt lat="48.343077" lon="-120.903615"><ele>753.6</ele><time>2024-09-01T22:29:25Z</time></trkpt>
<trkpt lat="48.343265" lon="-120.903310"><ele>751.0</ele><time>2024-09-01T22:29:43Z</time></trkpt>
<trkpt lat="48.343223" lon="-120.903535"><ele>747.8</ele><time>2024-09-01T22:30:13Z</time></trkpt>
<trkpt lat="48.343691" lon="-120.903715"><ele>746.6</ele><time>2024-09-01T22:30:36Z</time></trkpt>
<trkpt lat="48.343600" lon="-120.903483"><ele>746.4</ele><time>2024-09-01T22:30:37Z</time></trkpt>
<trkpt lat="48.344035" lon="-120.903589"><ele>740.0</ele><time>2024-09-01T22:31:30Z</time></trkpt>
<trkpt lat="48.344249" lon="-120.903509"><ele>738.0</ele><time>2024-09-01T22:32:06Z</time></trkpt>
<trkpt lat="48.344446" lon="-120.902992"><ele>734.2</ele><time>2024-09-01T22:32:39Z</time></trkpt>
<trkpt lat="48.344392" lon="-120.902929"><ele>734.2</ele><time>2024-09-01T22:32:41Z</time></trkpt>
<trkpt lat="48.344417" lon="-120.902865"><ele>735.4</ele><time>2024-09-01T22:32:48Z</time></trkpt>
<trkpt lat="48.345092" lon="-120.902270"><ele>732.6</ele><time>2024-09-01T22:34:25Z</time></trkpt>
<trkpt lat="48.345269" lon="-120.902212"><ele>734.0</ele><time>2024-09-01T22:34:36Z</time></trkpt>
<trkpt lat="48.345304" lon="-120.902070"><ele>734.0</ele><time>2024-09-01T22:34:43Z</time></trkpt>
<trkpt lat="48.346417" lon="-120.900926"><ele>724.8</ele><time>2024-09-01T22:36:34Z</time></trkpt>
<trkpt lat="48.346551" lon="-120.900880"><ele>724.4</ele><time>2024-09-01T22:36:39Z</time></trkpt>
<trkpt lat="48.346612" lon="-120.900203"><ele>721.4</ele><time>2024-09-01T22:37:14Z</time></trkpt>
<trkpt lat="48.347199" lon="-120.898912"><ele>718.0</ele><time>2024-09-01T22:38:42Z</time></trkpt>
<trkpt lat="48.347273" lon="-120.898543"><ele>717.8</ele><time>2024-09-01T22:39:05Z</time></trkpt>
<trkpt lat="48.347382" lon="-120.898323"><ele>719.0</ele><time>2024-09-01T22:39:19Z</time></trkpt>
<trkpt lat="48.348013" lon="-120.897884"><ele>720.4</ele><time>2024-09-01T22:40:18Z</time></trkpt>
<trkpt lat="48.348325" lon="-120.897476"><ele>717.2</ele><time>2024-09-01T22:40:48Z</time></trkpt>
<trkpt lat="48.348473" lon="-120.897421"><ele>715.0</ele><time>2024-09-01T22:41:03Z</time></trkpt>
<trkpt lat="48.349209" lon="-120.896526"><ele>712.0</ele><time>2024-09-01T22:42:06Z</time></trkpt>
<trkpt lat="48.349530" lon="-120.896043"><ele>717.4</ele><time>2024-09-01T22:43:04Z</time></trkpt>
<trkpt lat="48.349957" lon="-120.895085"><ele>712.8</ele><time>2024-09-01T22:43:50Z</time></trkpt>
<trkpt lat="48.350554" lon="-120.894021"><ele>709.8</ele><time>2024-09-01T22:45:09Z</time></trkpt>
<trkpt lat="48.350656" lon="-120.893554"><ele>709.2</ele><time>2024-09-01T22:45:32Z</time></trkpt>
<trkpt lat="48.351259" lon="-120.891986"><ele>704.0</ele><time>2024-09-01T22:47:17Z</time></trkpt>
<trkpt lat="48.351720" lon="-120.891492"><ele>703.4</ele><time>2024-09-01T22:48:18Z</time></trkpt>
<trkpt lat="48.351779" lon="-120.891561"><ele>705.6</ele><time>2024-09-01T22:48:38Z</time></trkpt>
<trkpt lat="48.352097" lon="-120.891247"><ele>705.6</ele><time>2024-09-01T22:49:10Z</time></trkpt>
<trkpt lat="48.352417" lon="-120.890464"><ele>702.4</ele><time>2024-09-01T22:49:44Z</time></trkpt>
<trkpt lat="48.352921" lon="-120.889524"><ele>707.6</ele><time>2024-09-01T22:51:02Z</time></trkpt>
<trkpt lat="48.352880" lon="-120.889423"><ele>708.0</ele><time>2024-09-01T22:51:06Z</time></trkpt>
<trkpt lat="48.353143" lon="-120.888793"><ele>710.0</ele><time>2024-09-01T22:52:14Z</time></trkpt>
<trkpt lat="48.353289" lon="-120.888598"><ele>706.8</ele><time>2024-09-01T22:52:28Z</time></trkpt>
<trkpt lat="48.353496" lon="-120.887683"><ele>697.4</ele><time>2024-09-01T22:53:13Z</time></trkpt>
<trkpt lat="48.353458" lon="-120.887619"><ele>697.8</ele><time>2024-09-01T22:53:17Z</time></trkpt>
<trkpt lat="48.353623" lon="-120.886904"><ele>700.0</ele><time>2024-09-01T22:54:05Z</time></trkpt>
<trkpt lat="48.353852" lon="-120.886508"><ele>699.0</ele><time>2024-09-01T22:54:41Z</time></trkpt>
<trkpt lat="48.353905" lon="-120.886158"><ele>699.0</ele><time>2024-09-01T22:55:05Z</time></trkpt>
<trkpt lat="48.354032" lon="-120.886064"><ele>699.6</ele><time>2024-09-01T22:55:12Z</time></trkpt>
<trkpt lat="48.354016" lon="-120.885904"><ele>699.8</ele><time>2024-09-01T22:55:15Z</time></trkpt>
<trkpt lat="48.354098" lon="-120.885759"><ele>700.0</ele><time>2024-09-01T22:55:25Z</time></trkpt>
<trkpt lat="48.354234" lon="-120.885087"><ele>711.0</ele><time>2024-09-01T22:56:29Z</time></trkpt>
<trkpt lat="48.354487" lon="-120.884486"><ele>714.8</ele><time>2024-09-01T22:57:08Z</time></trkpt>
<trkpt lat="48.354420" lon="-120.884519"><ele>715.4</ele><time>2024-09-01T22:57:11Z</time></trkpt>
<trkpt lat="48.354524" lon="-120.884488"><ele>716.8</ele><time>2024-09-01T22:57:20Z</time></trkpt>
<trkpt lat="48.354564" lon="-120.883816"><ele>722.0</ele><time>2024-09-01T22:57:57Z</time></trkpt>
<trkpt lat="48.354511" lon="-120.883384"><ele>722.6</ele><time>2024-09-01T22:58:37Z</time></trkpt>
<trkpt lat="48.354806" lon="-120.882465"><ele>726.6</ele><time>2024-09-01T22:59:42Z</time></trkpt>
<trkpt lat="48.354854" lon="-120.881757"><ele>726.6</ele><time>2024-09-01T23:00:22Z</time></trkpt>
<trkpt lat="48.355262" lon="-120.881114"><ele>728.2</ele><time>2024-09-01T23:01:04Z</time></trkpt>
<trkpt lat="48.355288" lon="-120.880961"><ele>728.2</ele><time>2024-09-01T23:01:08Z</time></trkpt>
<trkpt lat="48.355372" lon="-120.880918"><ele>727.4</ele><time>2024-09-01T23:01:16Z</time></trkpt>
<trkpt lat="48.356024" lon="-120.879562"><ele>726.6</ele><time>2024-09-01T23:03:01Z</time></trkpt>
<trkpt lat="48.356237" lon="-120.879467"><ele>729.0</ele><time>2024-09-01T23:03:16Z</time></trkpt>
<trkpt lat="48.356432" lon="-120.879040"><ele>733.0</ele><time>2024-09-01T23:04:07Z</time></trkpt>
<trkpt lat="48.356867" lon="-120.878584"><ele>733.0</ele><time>2024-09-01T23:04:57Z</time></trkpt>
<trkpt lat="48.356935" lon="-120.878298"><ele>731.0</ele><time>2024-09-01T23:05:12Z</time></trkpt>
<trkpt lat="48.357064" lon="-120.878281"><ele>731.0</ele><time>2024-09-01T23:05:17Z</time></trkpt>
<trkpt lat="48.357290" lon="-120.877517"><ele>731.0</ele><time>2024-09-01T23:07:06Z</time></trkpt>
<trkpt lat="48.357323" lon="-120.877643"><ele>730.4</ele><time>2024-09-01T23:07:12Z</time></trkpt>
<trkpt lat="48.357311" lon="-120.877562"><ele>730.0</ele><time>2024-09-01T23:07:17Z</time></trkpt>
<trkpt lat="48.357827" lon="-120.877209"><ele>728.0</ele><time>2024-09-01T23:08:01Z</time></trkpt>
<trkpt lat="48.358131" lon="-120.876744"><ele>722.6</ele><time>2024-09-01T23:08:55Z</time></trkpt>
<trkpt lat="48.358295" lon="-120.876343"><ele>721.2</ele><time>2024-09-01T23:09:12Z</time></trkpt>
<trkpt lat="48.358415" lon="-120.876323"><ele>720.0</ele><time>2024-09-01T23:09:18Z</time></trkpt>
<trkpt lat="48.358577" lon="-120.875801"><ele>717.2</ele><time>2024-09-01T23:09:35Z</time></trkpt>
<trkpt lat="48.358803" lon="-120.875363"><ele>713.8</ele><time>2024-09-01T23:09:59Z</time></trkpt>
<trkpt lat="48.358919" lon="-120.875266"><ele>716.2</ele><time>2024-09-01T23:10:47Z</time></trkpt>
<trkpt lat="48.359098" lon="-120.875274"><ele>713.8</ele><time>2024-09-01T23:11:11Z</time></trkpt>
<trkpt lat="48.359162" lon="-120.875377"><ele>715.0</ele><time>2024-09-01T23:11:18Z</time></trkpt>
<trkpt lat="48.360004" lon="-120.874089"><ele>711.6</ele><time>2024-09-01T23:13:05Z</time></trkpt>
<trkpt lat="48.360148" lon="-120.874153"><ele>711.0</ele><time>2024-09-01T23:13:11Z</time></trkpt>
<trkpt lat="48.360281" lon="-120.874101"><ele>711.2</ele><time>2024-09-01T23:13:20Z</time></trkpt>
<trkpt lat="48.360880" lon="-120.873028"><ele>719.6</ele><time>2024-09-01T23:15:01Z</time></trkpt>
<trkpt lat="48.361145" lon="-120.872842"><ele>719.2</ele><time>2024-09-01T23:15:13Z</time></trkpt>
<trkpt lat="48.361531" lon="-120.872324"><ele>717.2</ele><time>2024-09-01T23:15:45Z</time></trkpt>
<trkpt lat="48.361607" lon="-120.871926"><ele>716.2</ele><time>2024-09-01T23:16:21Z</time></trkpt>
<trkpt lat="48.362157" lon="-120.871379"><ele>713.6</ele><time>2024-09-01T23:17:12Z</time></trkpt>
<trkpt lat="48.362489" lon="-120.870274"><ele>705.2</ele><time>2024-09-01T23:18:57Z</time></trkpt>
<trkpt lat="48.362729" lon="-120.868882"><ele>699.4</ele><time>2024-09-01T23:20:26Z</time></trkpt>
<trkpt lat="48.362920" lon="-120.868209"><ele>697.6</ele><time>2024-09-01T23:21:17Z</time></trkpt>
<trkpt lat="48.363463" lon="-120.867715"><ele>699.2</ele><time>2024-09-01T23:23:10Z</time></trkpt>
<trkpt lat="48.363811" lon="-120.867166"><ele>700.6</ele><time>2024-09-01T23:23:54Z</time></trkpt>
<trkpt lat="48.364044" lon="-120.867018"><ele>705.8</ele><time>2024-09-01T23:24:42Z</time></trkpt>
<trkpt lat="48.364262" lon="-120.866546"><ele>704.6</ele><time>2024-09-01T23:25:03Z</time></trkpt>
<trkpt lat="48.364456" lon="-120.866417"><ele>704.0</ele><time>2024-09-01T23:25:17Z</time></trkpt>
<trkpt lat="48.364659" lon="-120.866002"><ele>705.4</ele><time>2024-09-01T23:25:38Z</time></trkpt>
<trkpt lat="48.364721" lon="-120.865808"><ele>710.2</ele><time>2024-09-01T23:26:12Z</time></trkpt>
<trkpt lat="48.364844" lon="-120.864757"><ele>701.2</ele><time>2024-09-01T23:27:12Z</time></trkpt>
<trkpt lat="48.364941" lon="-120.864720"><ele>700.8</ele><time>2024-09-01T23:27:14Z</time></trkpt>
<trkpt lat="48.364867" lon="-120.864715"><ele>700.8</ele><time>2024-09-01T23:27:16Z</time></trkpt>
<trkpt lat="48.364836" lon="-120.864588"><ele>701.0</ele><time>2024-09-01T23:27:23Z</time></trkpt>
<trkpt lat="48.364993" lon="-120.864093"><ele>706.4</ele><time>2024-09-01T23:28:15Z</time></trkpt>
<trkpt lat="48.365185" lon="-120.863453"><ele>701.0</ele><time>2024-09-01T23:29:03Z</time></trkpt>
<trkpt lat="48.365116" lon="-120.863217"><ele>699.6</ele><time>2024-09-01T23:29:09Z</time></trkpt>
<trkpt lat="48.365228" lon="-120.862452"><ele>701.4</ele><time>2024-09-01T23:30:11Z</time></trkpt>
<trkpt lat="48.365269" lon="-120.861674"><ele>701.0</ele><time>2024-09-01T23:31:08Z</time></trkpt>
<trkpt lat="48.365317" lon="-120.861707"><ele>701.0</ele><time>2024-09-01T23:31:15Z</time></trkpt>
<trkpt lat="48.365533" lon="-120.861169"><ele>703.2</ele><time>2024-09-01T23:31:52Z</time></trkpt>
<trkpt lat="48.366326" lon="-120.859696"><ele>714.2</ele><time>2024-09-01T23:34:04Z</time></trkpt>
<trkpt lat="48.366944" lon="-120.858586"><ele>708.8</ele><time>2024-09-01T23:35:20Z</time></trkpt>
<trkpt lat="48.367765" lon="-120.857621"><ele>696.4</ele><time>2024-09-01T23:36:56Z</time></trkpt>
<trkpt lat="48.368039" lon="-120.857495"><ele>695.8</ele><time>2024-09-01T23:37:01Z</time></trkpt>
<trkpt lat="48.367789" lon="-120.857472"><ele>695.6</ele><time>2024-09-01T23:37:02Z</time></trkpt>
<trkpt lat="48.368101" lon="-120.857289"><ele>694.0</ele><time>2024-09-01T23:37:22Z</time></trkpt>
<trkpt lat="48.368294" lon="-120.857435"><ele>694.0</ele><time>2024-09-01T23:37:27Z</time></trkpt>
<trkpt lat="48.368140" lon="-120.857483"><ele>694.2</ele><time>2024-09-01T23:37:30Z</time></trkpt>
<trkpt lat="48.367749" lon="-120.857238"><ele>690.4</ele><time>2024-09-01T23:37:58Z</time></trkpt>
<trkpt lat="48.367775" lon="-120.857164"><ele>689.4</ele><time>2024-09-01T23:38:05Z</time></trkpt>
<trkpt lat="48.368158" lon="-120.857021"><ele>686.8</ele><time>2024-09-01T23:38:21Z</time></trkpt>
<trkpt lat="48.368134" lon="-120.856952"><ele>686.4</ele><time>2024-09-01T23:38:22Z</time></trkpt>
<trkpt lat="48.368253" lon="-120.856643"><ele>684.4</ele><time>2024-09-01T23:38:50Z</time></trkpt>
<trkpt lat="48.368643" lon="-120.856094"><ele>679.0</ele><time>2024-09-01T23:39:26Z</time></trkpt>
<trkpt lat="48.368405" lon="-120.855441"><ele>677.4</ele><time>2024-09-01T23:40:05Z</time></trkpt>
<trkpt lat="48.368392" lon="-120.855648"><ele>678.0</ele><time>2024-09-01T23:40:13Z</time></trkpt>
<trkpt lat="48.368518" lon="-120.855655"><ele>678.0</ele><time>2024-09-01T23:40:15Z</time></trkpt>
<trkpt lat="48.368441" lon="-120.855661"><ele>677.6</ele><time>2024-09-01T23:40:20Z</time></trkpt>
<trkpt lat="48.368495" lon="-120.855517"><ele>677.6</ele><time>2024-09-01T23:40:48Z</time></trkpt>
<trkpt lat="48.368461" lon="-120.854991"><ele>677.8</ele><time>2024-09-01T23:41:18Z</time></trkpt>
<trkpt lat="48.368253" lon="-120.854549"><ele>678.8</ele><time>2024-09-01T23:41:48Z</time></trkpt>
<trkpt lat="48.368350" lon="-120.854343"><ele>676.4</ele><time>2024-09-01T23:42:04Z</time></trkpt>
<trkpt lat="48.368589" lon="-120.854147"><ele>674.8</ele><time>2024-09-01T23:42:18Z</time></trkpt>
<trkpt lat="48.368770" lon="-120.853219"><ele>670.4</ele><time>2024-09-01T23:42:55Z</time></trkpt>
<trkpt lat="48.368859" lon="-120.853001"><ele>670.2</ele><time>2024-09-01T23:43:09Z</time></trkpt>
<trkpt lat="48.368791" lon="-120.852599"><ele>670.6</ele><time>2024-09-01T23:43:45Z</time></trkpt>
<trkpt lat="48.368875" lon="-120.852232"><ele>671.8</ele><time>2024-09-01T23:44:07Z</time></trkpt>
<trkpt lat="48.368690" lon="-120.852165"><ele>672.0</ele><time>2024-09-01T23:44:09Z</time></trkpt>
<trkpt lat="48.368774" lon="-120.852103"><ele>672.2</ele><time>2024-09-01T23:44:15Z</time></trkpt>
<trkpt lat="48.368787" lon="-120.851675"><ele>672.0</ele><time>2024-09-01T23:44:32Z</time></trkpt>
<trkpt lat="48.369088" lon="-120.850738"><ele>674.2</ele><time>2024-09-01T23:46:04Z</time></trkpt>
<trkpt lat="48.369194" lon="-120.850651"><ele>675.2</ele><time>2024-09-01T23:46:09Z</time></trkpt>
<trkpt lat="48.369476" lon="-120.850056"><ele>678.2</ele><time>2024-09-01T23:46:58Z</time></trkpt>
<trkpt lat="48.369983" lon="-120.849114"><ele>673.8</ele><time>2024-09-01T23:48:10Z</time></trkpt>
<trkpt lat="48.369936" lon="-120.848995"><ele>673.4</ele><time>2024-09-01T23:48:14Z</time></trkpt>
<trkpt lat="48.370217" lon="-120.848688"><ele>669.2</ele><time>2024-09-01T23:48:36Z</time></trkpt>
<trkpt lat="48.370395" lon="-120.848392"><ele>676.0</ele><time>2024-09-01T23:49:30Z</time></trkpt>
<trkpt lat="48.371042" lon="-120.847972"><ele>676.8</ele><time>2024-09-01T23:50:33Z</time></trkpt>
<trkpt lat="48.371326" lon="-120.848110"><ele>673.6</ele><time>2024-09-01T23:51:00Z</time></trkpt>
<trkpt lat="48.371314" lon="-120.847957"><ele>672.6</ele><time>2024-09-01T23:51:05Z</time></trkpt>
<trkpt lat="48.371392" lon="-120.847837"><ele>671.6</ele><time>2024-09-01T23:51:10Z</time></trkpt>
<trkpt lat="48.371805" lon="-120.847735"><ele>664.8</ele><time>2024-09-01T23:51:47Z</time></trkpt>
<trkpt lat="48.372085" lon="-120.847291"><ele>663.6</ele><time>2024-09-01T23:52:19Z</time></trkpt>
<trkpt lat="48.372495" lon="-120.846897"><ele>657.2</ele><time>2024-09-01T23:53:04Z</time></trkpt>
<trkpt lat="48.372661" lon="-120.846464"><ele>655.2</ele><time>2024-09-01T23:53:30Z</time></trkpt>
<trkpt lat="48.372536" lon="-120.845976"><ele>653.4</ele><time>2024-09-01T23:54:03Z</time></trkpt>
<trkpt lat="48.372579" lon="-120.845722"><ele>652.2</ele><time>2024-09-01T23:54:21Z</time></trkpt>
<trkpt lat="48.373093" lon="-120.844697"><ele>650.0</ele><time>2024-09-01T23:56:06Z</time></trkpt>
<trkpt lat="48.373175" lon="-120.844789"><ele>649.2</ele><time>2024-09-01T23:56:10Z</time></trkpt>
<trkpt lat="48.373334" lon="-120.844676"><ele>648.8</ele><time>2024-09-01T23:56:14Z</time></trkpt>
<trkpt lat="48.373326" lon="-120.844532"><ele>648.6</ele><time>2024-09-01T23:56:17Z</time></trkpt>
<trkpt lat="48.373492" lon="-120.844233"><ele>649.0</ele><time>2024-09-01T23:56:41Z</time></trkpt>
<trkpt lat="48.373770" lon="-120.843244"><ele>643.0</ele><time>2024-09-01T23:58:03Z</time></trkpt>
<trkpt lat="48.373856" lon="-120.843209"><ele>642.6</ele><time>2024-09-01T23:58:09Z</time></trkpt>
<trkpt lat="48.373811" lon="-120.843017"><ele>642.6</ele><time>2024-09-01T23:58:15Z</time></trkpt>
<trkpt lat="48.374327" lon="-120.841895"><ele>644.0</ele><time>2024-09-01T23:59:31Z</time></trkpt>
<trkpt lat="48.374484" lon="-120.841329"><ele>647.2</ele><time>2024-09-02T00:00:03Z</time></trkpt>
<trkpt lat="48.374563" lon="-120.841323"><ele>647.4</ele><time>2024-09-02T00:00:06Z</time></trkpt>
<trkpt lat="48.374550" lon="-120.841151"><ele>648.2</ele><time>2024-09-02T00:00:15Z</time></trkpt>
<trkpt lat="48.375148" lon="-120.839509"><ele>653.4</ele><time>2024-09-02T00:02:03Z</time></trkpt>
<trkpt lat="48.375183" lon="-120.839528"><ele>653.4</ele><time>2024-09-02T00:02:04Z</time></trkpt>
<trkpt lat="48.375158" lon="-120.839308"><ele>652.8</ele><time>2024-09-02T00:02:14Z</time></trkpt>
<trkpt lat="48.375517" lon="-120.838551"><ele>649.0</ele><time>2024-09-02T00:03:00Z</time></trkpt>
<trkpt lat="48.375574" lon="-120.837825"><ele>646.6</ele><time>2024-09-02T00:03:34Z</time></trkpt>
<trkpt lat="48.375678" lon="-120.837786"><ele>645.0</ele><time>2024-09-02T00:03:52Z</time></trkpt>
<trkpt lat="48.375769" lon="-120.837526"><ele>644.2</ele><time>2024-09-02T00:04:06Z</time></trkpt>
<trkpt lat="48.375657" lon="-120.837483"><ele>644.0</ele><time>2024-09-02T00:04:08Z</time></trkpt>
<trkpt lat="48.375738" lon="-120.837331"><ele>642.6</ele><time>2024-09-02T00:04:21Z</time></trkpt>
<trkpt lat="48.376116" lon="-120.837083"><ele>639.8</ele><time>2024-09-02T00:05:03Z</time></trkpt>
<trkpt lat="48.376015" lon="-120.837482"><ele>636.0</ele><time>2024-09-02T00:05:43Z</time></trkpt>
<trkpt lat="48.375828" lon="-120.837658"><ele>634.4</ele><time>2024-09-02T00:06:06Z</time></trkpt>
<trkpt lat="48.375924" lon="-120.838028"><ele>631.6</ele><time>2024-09-02T00:06:36Z</time></trkpt>
<trkpt lat="48.376082" lon="-120.838169"><ele>629.4</ele><time>2024-09-02T00:06:56Z</time></trkpt>
<trkpt lat="48.376295" lon="-120.837200"><ele>621.6</ele><time>2024-09-02T00:08:06Z</time></trkpt>
<trkpt lat="48.376287" lon="-120.837252"><ele>621.0</ele><time>2024-09-02T00:08:15Z</time></trkpt>
<trkpt lat="48.376622" lon="-120.837149"><ele>617.4</ele><time>2024-09-02T00:08:55Z</time></trkpt>
<trkpt lat="48.376488" lon="-120.837456"><ele>614.0</ele><time>2024-09-02T00:09:33Z</time></trkpt>
<trkpt lat="48.376454" lon="-120.837758"><ele>611.8</ele><time>2024-09-02T00:09:49Z</time></trkpt>
<trkpt lat="48.376446" lon="-120.837893"><ele>610.8</ele><time>2024-09-02T00:09:57Z</time></trkpt>
<trkpt lat="48.376573" lon="-120.837998"><ele>608.2</ele><time>2024-09-02T00:10:13Z</time></trkpt>
<trkpt lat="48.376560" lon="-120.838144"><ele>607.4</ele><time>2024-09-02T00:10:20Z</time></trkpt>
<trkpt lat="48.376670" lon="-120.838082"><ele>605.2</ele><time>2024-09-02T00:10:35Z</time></trkpt>
<trkpt lat="48.376731" lon="-120.837912"><ele>604.2</ele><time>2024-09-02T00:10:45Z</time></trkpt>
<trkpt lat="48.376767" lon="-120.837496"><ele>602.0</ele><time>2024-09-02T00:11:13Z</time></trkpt>
<trkpt lat="48.376945" lon="-120.837698"><ele>597.4</ele><time>2024-09-02T00:11:41Z</time></trkpt>
<trkpt lat="48.376982" lon="-120.837517"><ele>595.6</ele><time>2024-09-02T00:12:03Z</time></trkpt>
<trkpt lat="48.376921" lon="-120.837426"><ele>595.6</ele><time>2024-09-02T00:12:04Z</time></trkpt>
<trkpt lat="48.377035" lon="-120.837539"><ele>595.4</ele><time>2024-09-02T00:12:05Z</time></trkpt>
<trkpt lat="48.376948" lon="-120.837306"><ele>595.4</ele><time>2024-09-02T00:12:09Z</time></trkpt>
<trkpt lat="48.377042" lon="-120.837528"><ele>595.0</ele><time>2024-09-02T00:12:13Z</time></trkpt>
<trkpt lat="48.377197" lon="-120.837072"><ele>591.2</ele><time>2024-09-02T00:12:58Z</time></trkpt>
<trkpt lat="48.377528" lon="-120.837488"><ele>583.2</ele><time>2024-09-02T00:13:50Z</time></trkpt>
<trkpt lat="48.377598" lon="-120.837337"><ele>579.8</ele><time>2024-09-02T00:14:11Z</time></trkpt>
<trkpt lat="48.377529" lon="-120.837227"><ele>578.6</ele><time>2024-09-02T00:14:16Z</time></trkpt>
<trkpt lat="48.377535" lon="-120.837328"><ele>578.6</ele><time>2024-09-02T00:14:18Z</time></trkpt>
<trkpt lat="48.377641" lon="-120.836527"><ele>573.0</ele><time>2024-09-02T00:14:50Z</time></trkpt>
<trkpt lat="48.377800" lon="-120.835889"><ele>566.2</ele><time>2024-09-02T00:15:48Z</time></trkpt>
<trkpt lat="48.377867" lon="-120.836085"><ele>563.2</ele><time>2024-09-02T00:16:04Z</time></trkpt>
<trkpt lat="48.377830" lon="-120.836261"><ele>561.8</ele><time>2024-09-02T00:16:10Z</time></trkpt>
<trkpt lat="48.378397" lon="-120.837014"><ele>554.0</ele><time>2024-09-02T00:17:14Z</time></trkpt>
<trkpt lat="48.378567" lon="-120.837087"><ele>552.0</ele><time>2024-09-02T00:17:42Z</time></trkpt>
<trkpt lat="48.378668" lon="-120.836934"><ele>551.4</ele><time>2024-09-02T00:17:58Z</time></trkpt>
<trkpt lat="48.378796" lon="-120.836933"><ele>552.0</ele><time>2024-09-02T00:18:09Z</time></trkpt>
<trkpt lat="48.378767" lon="-120.837218"><ele>555.4</ele><time>2024-09-02T00:18:24Z</time></trkpt>
<trkpt lat="48.379144" lon="-120.838614"><ele>572.6</ele><time>2024-09-02T00:20:03Z</time></trkpt>
<trkpt lat="48.379722" lon="-120.839575"><ele>577.2</ele><time>2024-09-02T00:21:08Z</time></trkpt>
<trkpt lat="48.379888" lon="-120.839144"><ele>574.4</ele><time>2024-09-02T00:21:34Z</time></trkpt>
<trkpt lat="48.380106" lon="-120.838902"><ele>571.2</ele><time>2024-09-02T00:21:54Z</time></trkpt>
<trkpt lat="48.380411" lon="-120.838854"><ele>567.2</ele><time>2024-09-02T00:22:18Z</time></trkpt>
<trkpt lat="48.380184" lon="-120.838594"><ele>564.6</ele><time>2024-09-02T00:22:46Z</time></trkpt>
<trkpt lat="48.380199" lon="-120.838401"><ele>565.2</ele><time>2024-09-02T00:23:06Z</time></trkpt>
<trkpt lat="48.380261" lon="-120.838485"><ele>565.0</ele><time>2024-09-02T00:23:17Z</time></trkpt>
<trkpt lat="48.380063" lon="-120.838053"><ele>565.4</ele><time>2024-09-02T00:25:00Z</time></trkpt>
<trkpt lat="48.380231" lon="-120.837877"><ele>565.4</ele><time>2024-09-02T00:25:06Z</time></trkpt>
<trkpt lat="48.380084" lon="-120.837864"><ele>566.2</ele><time>2024-09-02T00:25:14Z</time></trkpt>
<trkpt lat="48.380186" lon="-120.838142"><ele>567.0</ele><time>2024-09-02T00:26:42Z</time></trkpt>
<trkpt lat="48.380560" lon="-120.838405"><ele>565.6</ele><time>2024-09-02T00:27:10Z</time></trkpt>
<trkpt lat="48.380208" lon="-120.838292"><ele>565.6</ele><time>2024-09-02T00:27:11Z</time></trkpt>
<trkpt lat="48.380269" lon="-120.838151"><ele>566.4</ele><time>2024-09-02T00:27:26Z</time></trkpt>
<trkpt lat="48.380253" lon="-120.837686"><ele>567.6</ele><time>2024-09-02T00:29:07Z</time></trkpt>
<trkpt lat="48.380049" lon="-120.837688"><ele>567.6</ele><time>2024-09-02T00:29:12Z</time></trkpt>
<trkpt lat="48.380030" lon="-120.837875"><ele>568.2</ele><time>2024-09-02T00:29:18Z</time></trkpt>
<trkpt lat="48.379922" lon="-120.837962"><ele>567.8</ele><time>2024-09-02T00:31:00Z</time></trkpt>
<trkpt lat="48.379618" lon="-120.837811"><ele>567.8</ele><time>2024-09-02T00:31:11Z</time></trkpt>
<trkpt lat="48.380003" lon="-120.837940"><ele>568.0</ele><time>2024-09-02T00:31:19Z</time></trkpt>
</trkseg></trk>
</gpx>
