<?xml version="1.0" encoding="UTF-8"?>
<gpx version="1.1" creator="Eric Sichak trip reports" xmlns="http://www.topografix.com/GPX/1/1">
<metadata><name>Dawn Patrol</name><time>2025-02-08T11:59:25Z</time></metadata>
<trk><name>Dawn Patrol</name><type>ski</type><trkseg>
<trkpt lat="38.935653" lon="-119.940031"><ele>2023.2</ele><time>2025-02-08T11:59:25Z</time></trkpt>
<trkpt lat="38.935585" lon="-119.940015"><ele>2023.4</ele><time>2025-02-08T11:59:47Z</time></trkpt>
<trkpt lat="38.935470" lon="-119.940099"><ele>2023.8</ele><time>2025-02-08T11:59:58Z</time></trkpt>
<trkpt lat="38.935416" lon="-119.940098"><ele>2023.8</ele><time>2025-02-08T12:00:06Z</time></trkpt>
<trkpt lat="38.935218" lon="-119.939922"><ele>2028.8</ele><time>2025-02-08T12:00:32Z</time></trkpt>
<trkpt lat="38.935066" lon="-119.939916"><ele>2028.8</ele><time>2025-02-08T12:01:17Z</time></trkpt>
<trkpt lat="38.934787" lon="-119.939995"><ele>2029.2</ele><time>2025-02-08T12:01:40Z</time></trkpt>
<trkpt lat="38.934178" lon="-119.940381"><ele>2031.8</ele><time>2025-02-08T12:02:47Z</time></trkpt>
<trkpt lat="38.933682" lon="-119.940756"><ele>2042.0</ele><time>2025-02-08T12:03:52Z</time></trkpt>
<trkpt lat="38.933032" lon="-119.941369"><ele>2052.8</ele><time>2025-02-08T12:05:20Z</time></trkpt>
<trkpt lat="38.932646" lon="-119.941854"><ele>2055.6</ele><time>2025-02-08T12:06:13Z</time></trkpt>
<trkpt lat="38.932301" lon="-119.942331"><ele>2061.8</ele><time>2025-02-08T12:07:10Z</time></trkpt>
<trkpt lat="38.932294" lon="-119.942334"><ele>2058.8</ele><time>2025-02-08T12:07:38Z</time></trkpt>
<trkpt lat="38.932319" lon="-119.942343"><ele>2057.8</ele><time>2025-02-08T12:07:44Z</time></trkpt>
<trkpt lat="38.932300" lon="-119.942338"><ele>2051.8</ele><time>2025-02-08T12:08:17Z</time></trkpt>
<trkpt lat="38.932300" lon="-119.942338"><ele>2054.2</ele><time>2025-02-08T12:08:36Z</time></trkpt>
<trkpt lat="38.932049" lon="-119.942703"><ele>2058.4</ele><time>2025-02-08T12:09:59Z</time></trkpt>
<trkpt lat="38.931909" lon="-119.942767"><ele>2062.2</ele><time>2025-02-08T12:10:18Z</time></trkpt>
<trkpt lat="38.931766" lon="-119.942656"><ele>2069.8</ele><time>2025-02-08T12:10:45Z</time></trkpt>
<trkpt lat="38.931606" lon="-119.942435"><ele>2078.4</ele><time>2025-02-08T12:11:27Z</time></trkpt>
<trkpt lat="38.931507" lon="-119.942257"><ele>2081.2</ele><time>2025-02-08T12:11:47Z</time></trkpt>
<trkpt lat="38.931456" lon="-119.942228"><ele>2082.0</ele><time>2025-02-08T12:11:54Z</time></trkpt>
<trkpt lat="38.931306" lon="-119.942271"><ele>2083.6</ele><time>2025-02-08T12:12:14Z</time></trkpt>
<trkpt lat="38.931263" lon="-119.942247"><ele>2085.4</ele><time>2025-02-08T12:12:22Z</time></trkpt>
<trkpt lat="38.931220" lon="-119.942192"><ele>2086.4</ele><time>2025-02-08T12:12:30Z</time></trkpt>
<trkpt lat="38.931187" lon="-119.942071"><ele>2089.4</ele><time>2025-02-08T12:12:46Z</time></trkpt>
<trkpt lat="38.931176" lon="-119.942004"><ele>2087.6</ele><time>2025-02-08T12:13:05Z</time></trkpt>
<trkpt lat="38.931123" lon="-119.941874"><ele>2091.6</ele><time>2025-02-08T12:13:19Z</time></trkpt>
<trkpt lat="38.931086" lon="-119.941667"><ele>2094.6</ele><time>2025-02-08T12:13:44Z</time></trkpt>
<trkpt lat="38.931223" lon="-119.941344"><ele>2091.8</ele><time>2025-02-08T12:14:23Z</time></trkpt>
<trkpt lat="38.931230" lon="-119.940687"><ele>2101.4</ele><time>2025-02-08T12:15:37Z</time></trkpt>
<trkpt lat="38.931297" lon="-119.940365"><ele>2106.6</ele><time>2025-02-08T12:16:13Z</time></trkpt>
<trkpt lat="38.931466" lon="-119.939850"><ele>2116.2</ele><time>2025-02-08T12:17:14Z</time></trkpt>
<trkpt lat="38.931548" lon="-119.939416"><ele>2123.8</ele><time>2025-02-08T12:18:04Z</time></trkpt>
<trkpt lat="38.931813" lon="-119.938814"><ele>2136.8</ele><time>2025-02-08T12:19:26Z</time></trkpt>
<trkpt lat="38.932069" lon="-119.938484"><ele>2146.0</ele><time>2025-02-08T12:20:21Z</time></trkpt>
<trkpt lat="38.932177" lon="-119.938223"><ele>2151.2</ele><time>2025-02-08T12:20:52Z</time></trkpt>
<trkpt lat="38.932311" lon="-119.938092"><ele>2154.4</ele><time>2025-02-08T12:21:14Z</time></trkpt>
<trkpt lat="38.932441" lon="-119.937759"><ele>2157.0</ele><time>2025-02-08T12:21:52Z</time></trkpt>
<trkpt lat="38.932397" lon="-119.937751"><ele>2157.6</ele><time>2025-02-08T12:21:58Z</time></trkpt>
<trkpt lat="38.932118" lon="-119.937873"><ele>2162.6</ele><time>2025-02-08T12:22:32Z</time></trkpt>
<trkpt lat="38.930819" lon="-119.938679"><ele>2178.0</ele><time>2025-02-08T12:25:08Z</time></trkpt>
<trkpt lat="38.930600" lon="-119.938775"><ele>2180.6</ele><time>2025-02-08T12:25:32Z</time></trkpt>
<trkpt lat="38.930283" lon="-119.939000"><ele>2186.8</ele><time>2025-02-08T12:26:19Z</time></trkpt>
<trkpt lat="38.929870" lon="-119.939412"><ele>2198.0</ele><time>2025-02-08T12:27:29Z</time></trkpt>
<trkpt lat="38.929724" lon="-119.939725"><ele>2203.8</ele><time>2025-02-08T12:28:04Z</time></trkpt>
<trkpt lat="38.929686" lon="-119.939905"><ele>2205.4</ele><time>2025-02-08T12:28:18Z</time></trkpt>
<trkpt lat="38.929630" lon="-119.939973"><ele>2206.2</ele><time>2025-02-08T12:28:28Z</time></trkpt>
<trkpt lat="38.929591" lon="-119.939865"><ele>2208.4</ele><time>2025-02-08T12:28:41Z</time></trkpt>
<trkpt lat="38.929589" lon="-119.939412"><ele>2214.6</ele><time>2025-02-08T12:29:27Z</time></trkpt>
<trkpt lat="38.929710" lon="-119.938877"><ele>2220.0</ele><time>2025-02-08T12:30:15Z</time></trkpt>
<trkpt lat="38.929783" lon="-119.938680"><ele>2221.4</ele><time>2025-02-08T12:30:37Z</time></trkpt>
<trkpt lat="38.930028" lon="-119.938252"><ele>2226.4</ele><time>2025-02-08T12:31:27Z</time></trkpt>
<trkpt lat="38.930586" lon="-119.937657"><ele>2238.6</ele><time>2025-02-08T12:33:01Z</time></trkpt>
<trkpt lat="38.930928" lon="-119.937161"><ele>2247.4</ele><time>2025-02-08T12:34:10Z</time></trkpt>
<trkpt lat="38.931025" lon="-119.936927"><ele>2252.6</ele><time>2025-02-08T12:34:40Z</time></trkpt>
<trkpt lat="38.931013" lon="-119.936857"><ele>2253.8</ele><time>2025-02-08T12:34:48Z</time></trkpt>
<trkpt lat="38.930979" lon="-119.936832"><ele>2254.6</ele><time>2025-02-08T12:34:54Z</time></trkpt>
<trkpt lat="38.930801" lon="-119.936927"><ele>2258.2</ele><time>2025-02-08T12:35:20Z</time></trkpt>
<trkpt lat="38.930253" lon="-119.937391"><ele>2264.2</ele><time>2025-02-08T12:36:30Z</time></trkpt>
<trkpt lat="38.929989" lon="-119.937492"><ele>2266.0</ele><time>2025-02-08T12:37:00Z</time></trkpt>
<trkpt lat="38.929606" lon="-119.937532"><ele>2271.4</ele><time>2025-02-08T12:37:45Z</time></trkpt>
<trkpt lat="38.929428" lon="-119.937608"><ele>2273.8</ele><time>2025-02-08T12:38:33Z</time></trkpt>
<trkpt lat="38.928649" lon="-119.938275"><ele>2285.4</ele><time>2025-02-08T12:40:14Z</time></trkpt>
<trkpt lat="38.928414" lon="-119.938523"><ele>2290.0</ele><time>2025-02-08T12:40:51Z</time></trkpt>
<trkpt lat="38.928285" lon="-119.938586"><ele>2293.2</ele><time>2025-02-08T12:41:07Z</time></trkpt>
<trkpt lat="38.928149" lon="-119.938596"><ele>2295.2</ele><time>2025-02-08T12:41:22Z</time></trkpt>
<trkpt lat="38.927901" lon="-119.938500"><ele>2298.2</ele><time>2025-02-08T12:41:49Z</time></trkpt>
<trkpt lat="38.927263" lon="-119.937768"><ele>2310.2</ele><time>2025-02-08T12:43:29Z</time></trkpt>
<trkpt lat="38.926889" lon="-119.937471"><ele>2315.6</ele><time>2025-02-08T12:44:22Z</time></trkpt>
<trkpt lat="38.926219" lon="-119.936991"><ele>2327.6</ele><time>2025-02-08T12:45:58Z</time></trkpt>
<trkpt lat="38.926006" lon="-119.936885"><ele>2332.0</ele><time>2025-02-08T12:46:30Z</time></trkpt>
<trkpt lat="38.925836" lon="-119.936750"><ele>2338.8</ele><time>2025-02-08T12:46:59Z</time></trkpt>
<trkpt lat="38.925426" lon="-119.936247"><ele>2343.8</ele><time>2025-02-08T12:47:57Z</time></trkpt>
<trkpt lat="38.925168" lon="-119.936031"><ele>2345.2</ele><time>2025-02-08T12:48:30Z</time></trkpt>
<trkpt lat="38.924801" lon="-119.935950"><ele>2349.6</ele><time>2025-02-08T12:49:11Z</time></trkpt>
<trkpt lat="38.924558" lon="-119.935964"><ele>2352.8</ele><time>2025-02-08T12:49:38Z</time></trkpt>
<trkpt lat="38.924484" lon="-119.936105"><ele>2353.4</ele><time>2025-02-08T12:49:51Z</time></trkpt>
<trkpt lat="38.924435" lon="-119.936449"><ele>2354.4</ele><time>2025-02-08T12:50:17Z</time></trkpt>
<trkpt lat="38.924123" lon="-119.936947"><ele>2357.2</ele><time>2025-02-08T12:51:10Z</time></trkpt>
<trkpt lat="38.923998" lon="-119.937226"><ele>2359.4</ele><time>2025-02-08T12:51:38Z</time></trkpt>
<trkpt lat="38.923890" lon="-119.937331"><ele>2362.4</ele><time>2025-02-08T12:51:57Z</time></trkpt>
<trkpt lat="38.923850" lon="-119.937290"><ele>2363.4</ele><time>2025-02-08T12:52:04Z</time></trkpt>
<trkpt lat="38.923853" lon="-119.937222"><ele>2364.0</ele><time>2025-02-08T12:52:14Z</time></trkpt>
<trkpt lat="38.924289" lon="-119.936300"><ele>2364.2</ele><time>2025-02-08T12:53:36Z</time></trkpt>
<trkpt lat="38.924295" lon="-119.936181"><ele>2364.8</ele><time>2025-02-08T12:53:45Z</time></trkpt>
<trkpt lat="38.924191" lon="-119.935706"><ele>2370.6</ele><time>2025-02-08T12:54:26Z</time></trkpt>
<trkpt lat="38.924100" lon="-119.935669"><ele>2373.2</ele><time>2025-02-08T12:54:39Z</time></trkpt>
<trkpt lat="38.924075" lon="-119.935725"><ele>2373.4</ele><time>2025-02-08T12:54:45Z</time></trkpt>
<trkpt lat="38.924107" lon="-119.935996"><ele>2373.0</ele><time>2025-02-08T12:55:09Z</time></trkpt>
<trkpt lat="38.924046" lon="-119.936324"><ele>2376.2</ele><time>2025-02-08T12:55:38Z</time></trkpt>
<trkpt lat="38.923934" lon="-119.936472"><ele>2379.8</ele><time>2025-02-08T12:55:58Z</time></trkpt>
<trkpt lat="38.923760" lon="-119.936619"><ele>2381.2</ele><time>2025-02-08T12:56:20Z</time></trkpt>
<trkpt lat="38.923319" lon="-119.936596"><ele>2388.2</ele><time>2025-02-08T12:57:08Z</time></trkpt>
<trkpt lat="38.923210" lon="-119.936497"><ele>2394.0</ele><time>2025-02-08T12:57:22Z</time></trkpt>
<trkpt lat="38.923077" lon="-119.936323"><ele>2396.6</ele><time>2025-02-08T12:57:42Z</time></trkpt>
<trkpt lat="38.922821" lon="-119.936182"><ele>2399.0</ele><time>2025-02-08T12:58:20Z</time></trkpt>
<trkpt lat="38.922761" lon="-119.936120"><ele>2401.8</ele><time>2025-02-08T12:58:30Z</time></trkpt>
<trkpt lat="38.922741" lon="-119.935871"><ele>2406.4</ele><time>2025-02-08T12:58:59Z</time></trkpt>
<trkpt lat="38.922782" lon="-119.935695"><ele>2407.8</ele><time>2025-02-08T12:59:16Z</time></trkpt>
<trkpt lat="38.923445" lon="-119.934752"><ele>2417.4</ele><time>2025-02-08T13:01:13Z</time></trkpt>
<trkpt lat="38.923451" lon="-119.934696"><ele>2418.4</ele><time>2025-02-08T13:01:18Z</time></trkpt>
<trkpt lat="38.923432" lon="-119.934661"><ele>2420.0</ele><time>2025-02-08T13:01:25Z</time></trkpt>
<trkpt lat="38.922945" lon="-119.934942"><ele>2424.4</ele><time>2025-02-08T13:02:29Z</time></trkpt>
<trkpt lat="38.922847" lon="-119.934954"><ele>2426.4</ele><time>2025-02-08T13:02:39Z</time></trkpt>
<trkpt lat="38.922742" lon="-119.934873"><ele>2430.0</ele><time>2025-02-08T13:02:54Z</time></trkpt>
<trkpt lat="38.922703" lon="-119.934740"><ele>2434.4</ele><time>2025-02-08T13:03:08Z</time></trkpt>
<trkpt lat="38.922705" lon="-119.934632"><ele>2435.2</ele><time>2025-02-08T13:03:17Z</time></trkpt>
<trkpt lat="38.922772" lon="-119.934389"><ele>2437.4</ele><time>2025-02-08T13:03:37Z</time></trkpt>
<trkpt lat="38.922784" lon="-119.933987"><ele>2438.6</ele><time>2025-02-08T13:04:06Z</time></trkpt>
<trkpt lat="38.922650" lon="-119.933364"><ele>2442.4</ele><time>2025-02-08T13:04:54Z</time></trkpt>
<trkpt lat="38.922411" lon="-119.932868"><ele>2443.6</ele><time>2025-02-08T13:05:39Z</time></trkpt>
<trkpt lat="38.922358" lon="-119.932653"><ele>2444.6</ele><time>2025-02-08T13:05:55Z</time></trkpt>
<trkpt lat="38.922375" lon="-119.932462"><ele>2444.8</ele><time>2025-02-08T13:06:09Z</time></trkpt>
<trkpt lat="38.922492" lon="-119.932181"><ele>2446.0</ele><time>2025-02-08T13:06:32Z</time></trkpt>
<trkpt lat="38.922619" lon="-119.932013"><ele>2446.6</ele><time>2025-02-08T13:06:49Z</time></trkpt>
<trkpt lat="38.922962" lon="-119.931698"><ele>2447.4</ele><time>2025-02-08T13:07:27Z</time></trkpt>
<trkpt lat="38.923476" lon="-119.931075"><ele>2449.0</ele><time>2025-02-08T13:08:31Z</time></trkpt>
<trkpt lat="38.924017" lon="-119.930657"><ele>2451.2</ele><time>2025-02-08T13:09:29Z</time></trkpt>
<trkpt lat="38.924119" lon="-119.930483"><ele>2451.8</ele><time>2025-02-08T13:09:44Z</time></trkpt>
<trkpt lat="38.924143" lon="-119.930262"><ele>2452.6</ele><time>2025-02-08T13:10:01Z</time></trkpt>
<trkpt lat="38.924098" lon="-119.929540"><ele>2455.4</ele><time>2025-02-08T13:10:52Z</time></trkpt>
<trkpt lat="38.924215" lon="-119.929240"><ele>2459.2</ele><time>2025-02-08T13:11:18Z</time></trkpt>
<trkpt lat="38.924575" lon="-119.928841"><ele>2461.6</ele><time>2025-02-08T13:12:02Z</time></trkpt>
<trkpt lat="38.924746" lon="-119.928445"><ele>2460.6</ele><time>2025-02-08T13:12:29Z</time></trkpt>
<trkpt lat="38.924840" lon="-119.927409"><ele>2461.0</ele><time>2025-02-08T13:13:33Z</time></trkpt>
<trkpt lat="38.924925" lon="-119.927066"><ele>2462.8</ele><time>2025-02-08T13:13:59Z</time></trkpt>
<trkpt lat="38.924933" lon="-119.926780"><ele>2466.2</ele><time>2025-02-08T13:14:25Z</time></trkpt>
<trkpt lat="38.924903" lon="-119.926547"><ele>2472.2</ele><time>2025-02-08T13:14:59Z</time></trkpt>
<trkpt lat="38.925086" lon="-119.926101"><ele>2475.2</ele><time>2025-02-08T13:15:42Z</time></trkpt>
<trkpt lat="38.925059" lon="-119.925809"><ele>2480.2</ele><time>2025-02-08T13:16:19Z</time></trkpt>
<trkpt lat="38.925200" lon="-119.925465"><ele>2483.4</ele><time>2025-02-08T13:16:53Z</time></trkpt>
<trkpt lat="38.925266" lon="-119.925184"><ele>2486.4</ele><time>2025-02-08T13:17:24Z</time></trkpt>
<trkpt lat="38.925260" lon="-119.925182"><ele>2480.0</ele><time>2025-02-08T13:18:48Z</time></trkpt>
<trkpt lat="38.925289" lon="-119.925173"><ele>2476.0</ele><time>2025-02-08T13:20:05Z</time></trkpt>
<trkpt lat="38.925338" lon="-119.924861"><ele>2478.2</ele><time>2025-02-08T13:21:06Z</time></trkpt>
<trkpt lat="38.925419" lon="-119.924619"><ele>2481.2</ele><time>2025-02-08T13:21:33Z</time></trkpt>
<trkpt lat="38.925719" lon="-119.923987"><ele>2491.8</ele><time>2025-02-08T13:22:57Z</time></trkpt>
<trkpt lat="38.925934" lon="-119.923627"><ele>2500.8</ele><time>2025-02-08T13:25:00Z</time></trkpt>
<trkpt lat="38.926241" lon="-119.922989"><ele>2516.6</ele><time>2025-02-08T13:26:32Z</time></trkpt>
<trkpt lat="38.926503" lon="-119.922230"><ele>2536.6</ele><time>2025-02-08T13:28:24Z</time></trkpt>
<trkpt lat="38.926647" lon="-119.921722"><ele>2545.6</ele><time>2025-02-08T13:29:24Z</time></trkpt>
<trkpt lat="38.926809" lon="-119.921358"><ele>2553.4</ele><time>2025-02-08T13:30:10Z</time></trkpt>
<trkpt lat="38.926857" lon="-119.921119"><ele>2557.8</ele><time>2025-02-08T13:30:36Z</time></trkpt>
<trkpt lat="38.926874" lon="-119.920625"><ele>2565.4</ele><time>2025-02-08T13:31:28Z</time></trkpt>
<trkpt lat="38.926850" lon="-119.920558"><ele>2568.0</ele><time>2025-02-08T13:31:39Z</time></trkpt>
<trkpt lat="38.926747" lon="-119.920453"><ele>2572.2</ele><time>2025-02-08T13:31:58Z</time></trkpt>
<trkpt lat="38.926485" lon="-119.919958"><ele>2582.6</ele><time>2025-02-08T13:33:02Z</time></trkpt>
<trkpt lat="38.926206" lon="-119.919664"><ele>2588.0</ele><time>2025-02-08T13:33:46Z</time></trkpt>
<trkpt lat="38.925662" lon="-119.919159"><ele>2596.6</ele><time>2025-02-08T13:35:04Z</time></trkpt>
<trkpt lat="38.925414" lon="-119.918992"><ele>2599.2</ele><time>2025-02-08T13:35:35Z</time></trkpt>
<trkpt lat="38.925016" lon="-119.918582"><ele>2606.0</ele><time>2025-02-08T13:36:42Z</time></trkpt>
<trkpt lat="38.924789" lon="-119.918419"><ele>2608.6</ele><time>2025-02-08T13:37:12Z</time></trkpt>
<trkpt lat="38.924497" lon="-119.918270"><ele>2613.2</ele><time>2025-02-08T13:37:50Z</time></trkpt>
<trkpt lat="38.924066" lon="-119.918158"><ele>2620.0</ele><time>2025-02-08T13:38:47Z</time></trkpt>
<trkpt lat="38.923297" lon="-119.918234"><ele>2632.2</ele><time>2025-02-08T13:40:25Z</time></trkpt>
<trkpt lat="38.922838" lon="-119.918341"><ele>2639.2</ele><time>2025-02-08T13:41:26Z</time></trkpt>
<trkpt lat="38.922459" lon="-119.918510"><ele>2646.6</ele><time>2025-02-08T13:42:19Z</time></trkpt>
<trkpt lat="38.921948" lon="-119.918652"><ele>2654.6</ele><time>2025-02-08T13:43:26Z</time></trkpt>
<trkpt lat="38.921502" lon="-119.918826"><ele>2661.2</ele><time>2025-02-08T13:44:30Z</time></trkpt>
<trkpt lat="38.921267" lon="-119.918831"><ele>2666.8</ele><time>2025-02-08T13:45:10Z</time></trkpt>
<trkpt lat="38.921168" lon="-119.918874"><ele>2670.2</ele><time>2025-02-08T13:45:30Z</time></trkpt>
<trkpt lat="38.920713" lon="-119.918933"><ele>2683.6</ele><time>2025-02-08T13:46:55Z</time></trkpt>
<trkpt lat="38.920642" lon="-119.918912"><ele>2685.8</ele><time>2025-02-08T13:47:07Z</time></trkpt>
<trkpt lat="38.920396" lon="-119.918711"><ele>2692.2</ele><time>2025-02-08T13:48:01Z</time></trkpt>
<trkpt lat="38.919777" lon="-119.918401"><ele>2710.6</ele><time>2025-02-08T13:49:57Z</time></trkpt>
<trkpt lat="38.919208" lon="-119.918027"><ele>2722.4</ele><time>2025-02-08T13:51:35Z</time></trkpt>
<trkpt lat="38.918651" lon="-119.917504"><ele>2730.6</ele><time>2025-02-08T13:53:08Z</time></trkpt>
<trkpt lat="38.918258" lon="-119.917035"><ele>2737.2</ele><time>2025-02-08T13:54:15Z</time></trkpt>
<trkpt lat="38.918068" lon="-119.916695"><ele>2740.4</ele><time>2025-02-08T13:54:54Z</time></trkpt>
<trkpt lat="38.918023" lon="-119.916362"><ele>2743.4</ele><time>2025-02-08T13:55:29Z</time></trkpt>
<trkpt lat="38.918040" lon="-119.916101"><ele>2746.8</ele><time>2025-02-08T13:55:57Z</time></trkpt>
<trkpt lat="38.918162" lon="-119.915440"><ele>2757.4</ele><time>2025-02-08T13:57:33Z</time></trkpt>
<trkpt lat="38.918195" lon="-119.914867"><ele>2770.8</ele><time>2025-02-08T13:59:12Z</time></trkpt>
<trkpt lat="38.918290" lon="-119.914471"><ele>2781.2</ele><time>2025-02-08T14:00:18Z</time></trkpt>
<trkpt lat="38.918304" lon="-119.913923"><ele>2792.0</ele><time>2025-02-08T14:01:49Z</time></trkpt>
<trkpt lat="38.918186" lon="-119.913420"><ele>2803.4</ele><time>2025-02-08T14:02:59Z</time></trkpt>
<trkpt lat="38.918143" lon="-119.913319"><ele>2807.0</ele><time>2025-02-08T14:04:06Z</time></trkpt>
<trkpt lat="38.918136" lon="-119.913357"><ele>2807.0</ele><time>2025-02-08T14:04:32Z</time></trkpt>
<trkpt lat="38.918164" lon="-119.913309"><ele>2806.2</ele><time>2025-02-08T14:04:50Z</time></trkpt>
<trkpt lat="38.918121" lon="-119.913291"><ele>2807.2</ele><time>2025-02-08T14:05:27Z</time></trkpt>
<trkpt lat="38.917838" lon="-119.912698"><ele>2821.2</ele><time>2025-02-08T14:06:53Z</time></trkpt>
<trkpt lat="38.917741" lon="-119.912562"><ele>2824.4</ele><time>2025-02-08T14:07:14Z</time></trkpt>
<trkpt lat="38.917174" lon="-119.912017"><ele>2846.6</ele><time>2025-02-08T14:09:46Z</time></trkpt>
<trkpt lat="38.916770" lon="-119.911741"><ele>2860.4</ele><time>2025-02-08T14:11:13Z</time></trkpt>
<trkpt lat="38.916421" lon="-119.911612"><ele>2869.4</ele><time>2025-02-08T14:12:17Z</time></trkpt>
<trkpt lat="38.915913" lon="-119.911510"><ele>2878.8</ele><time>2025-02-08T14:13:33Z</time></trkpt>
<trkpt lat="38.915517" lon="-119.911342"><ele>2885.4</ele><time>2025-02-08T14:14:28Z</time></trkpt>
<trkpt lat="38.915098" lon="-119.911068"><ele>2892.0</ele><time>2025-02-08T14:15:35Z</time></trkpt>
<trkpt lat="38.914950" lon="-119.910902"><ele>2896.0</ele><time>2025-02-08T14:16:02Z</time></trkpt>
<trkpt lat="38.914686" lon="-119.910429"><ele>2904.6</ele><time>2025-02-08T14:17:08Z</time></trkpt>
<trkpt lat="38.914540" lon="-119.910231"><ele>2906.0</ele><time>2025-02-08T14:17:34Z</time></trkpt>
<trkpt lat="38.913925" lon="-119.909631"><ele>2915.4</ele><time>2025-02-08T14:19:13Z</time></trkpt>
<trkpt lat="38.913757" lon="-119.909220"><ele>2918.8</ele><time>2025-02-08T14:19:57Z</time></trkpt>
<trkpt lat="38.913709" lon="-119.908965"><ele>2921.0</ele><time>2025-02-08T14:20:20Z</time></trkpt>
<trkpt lat="38.913716" lon="-119.908824"><ele>2923.2</ele><time>2025-02-08T14:20:33Z</time></trkpt>
<trkpt lat="38.913935" lon="-119.908300"><ele>2927.8</ele><time>2025-02-08T14:21:33Z</time></trkpt>
<trkpt lat="38.914013" lon="-119.908035"><ele>2929.6</ele><time>2025-02-08T14:22:01Z</time></trkpt>
<trkpt lat="38.914154" lon="-119.907111"><ele>2942.0</ele><time>2025-02-08T14:23:45Z</time></trkpt>
<trkpt lat="38.914243" lon="-119.906773"><ele>2947.4</ele><time>2025-02-08T14:24:25Z</time></trkpt>
<trkpt lat="38.914299" lon="-119.906690"><ele>2948.8</ele><time>2025-02-08T14:24:36Z</time></trkpt>
<trkpt lat="38.914588" lon="-119.905649"><ele>2962.4</ele><time>2025-02-08T14:26:34Z</time></trkpt>
<trkpt lat="38.914629" lon="-119.905138"><ele>2967.8</ele><time>2025-02-08T14:27:25Z</time></trkpt>
<trkpt lat="38.914664" lon="-119.905017"><ele>2969.2</ele><time>2025-02-08T14:27:48Z</time></trkpt>
<trkpt lat="38.914627" lon="-119.904739"><ele>2973.2</ele><time>2025-02-08T14:28:16Z</time></trkpt>
<trkpt lat="38.914644" lon="-119.904629"><ele>2974.6</ele><time>2025-02-08T14:28:31Z</time></trkpt>
<trkpt lat="38.914576" lon="-119.904262"><ele>2983.0</ele><time>2025-02-08T14:29:17Z</time></trkpt>
<trkpt lat="38.914556" lon="-119.903970"><ele>2986.6</ele><time>2025-02-08T14:29:51Z</time></trkpt>
<trkpt lat="38.914538" lon="-119.903911"><ele>2987.0</ele><time>2025-02-08T14:29:56Z</time></trkpt>
<trkpt lat="38.914233" lon="-119.903640"><ele>2991.6</ele><time>2025-02-08T14:30:43Z</time></trkpt>
<trkpt lat="38.914263" lon="-119.903597"><ele>2990.6</ele><time>2025-02-08T14:31:01Z</time></trkpt>
<trkpt lat="38.914635" lon="-119.903563"><ele>2991.8</ele><time>2025-02-08T14:31:34Z</time></trkpt>
<trkpt lat="38.914818" lon="-119.903426"><ele>2994.6</ele><time>2025-02-08T14:32:00Z</time></trkpt>
<trkpt lat="38.915052" lon="-119.903343"><ele>2997.0</ele><time>2025-02-08T14:33:11Z</time></trkpt>
<trkpt lat="38.915382" lon="-119.903109"><ele>3001.8</ele><time>2025-02-08T14:33:52Z</time></trkpt>
<trkpt lat="38.915803" lon="-119.902876"><ele>3007.4</ele><time>2025-02-08T14:34:49Z</time></trkpt>
<trkpt lat="38.916181" lon="-119.902666"><ele>3020.2</ele><time>2025-02-08T14:36:13Z</time></trkpt>
<trkpt lat="38.916357" lon="-119.902508"><ele>3024.6</ele><time>2025-02-08T14:36:47Z</time></trkpt>
<trkpt lat="38.916604" lon="-119.902060"><ele>3032.0</ele><time>2025-02-08T14:37:47Z</time></trkpt>
<trkpt lat="38.916676" lon="-119.901999"><ele>3034.2</ele><time>2025-02-08T14:38:02Z</time></trkpt>
<trkpt lat="38.916794" lon="-119.901967"><ele>3036.6</ele><time>2025-02-08T14:38:18Z</time></trkpt>
<trkpt lat="38.916933" lon="-119.901762"><ele>3040.0</ele><time>2025-02-08T14:38:42Z</time></trkpt>
<trkpt lat="38.916945" lon="-119.901837"><ele>3040.0</ele><time>2025-02-08T14:38:54Z</time></trkpt>
<trkpt lat="38.917051" lon="-119.901985"><ele>3040.2</ele><time>2025-02-08T14:39:06Z</time></trkpt>
<trkpt lat="38.917267" lon="-119.902162"><ele>3042.2</ele><time>2025-02-08T14:39:30Z</time></trkpt>
<trkpt lat="38.917343" lon="-119.902268"><ele>3042.2</ele><time>2025-02-08T14:39:43Z</time></trkpt>
<trkpt lat="38.917305" lon="-119.902364"><ele>3042.4</ele><time>2025-02-08T14:39:55Z</time></trkpt>
<trkpt lat="38.917335" lon="-119.902403"><ele>3044.4</ele><time>2025-02-08T14:40:38Z</time></trkpt>
<trkpt lat="38.917275" lon="-119.902242"><ele>3041.0</ele><time>2025-02-08T14:41:01Z</time></trkpt>
<trkpt lat="38.917051" lon="-119.902038"><ele>3039.4</ele><time>2025-02-08T14:41:21Z</time></trkpt>
<trkpt lat="38.916972" lon="-119.902072"><ele>3037.8</ele><time>2025-02-08T14:42:07Z</time></trkpt>
<trkpt lat="38.916985" lon="-119.902064"><ele>3041.0</ele><time>2025-02-08T14:42:54Z</time></trkpt>
<trkpt lat="38.916985" lon="-119.902073"><ele>3037.0</ele><time>2025-02-08T14:43:55Z</time></trkpt>
<trkpt lat="38.916987" lon="-119.902095"><ele>3038.0</ele><time>2025-02-08T14:44:12Z</time></trkpt>
<trkpt lat="38.916981" lon="-119.902070"><ele>3036.8</ele><time>2025-02-08T14:44:41Z</time></trkpt>
<trkpt lat="38.916984" lon="-119.902071"><ele>3039.6</ele><time>2025-02-08T14:44:51Z</time></trkpt>
<trkpt lat="38.916996" lon="-119.902068"><ele>3035.4</ele><time>2025-02-08T14:46:16Z</time></trkpt>
<trkpt lat="38.916981" lon="-119.902078"><ele>3038.2</ele><time>2025-02-08T14:46:41Z</time></trkpt>
<trkpt lat="38.916985" lon="-119.902098"><ele>3036.6</ele><time>2025-02-08T14:47:11Z</time></trkpt>
<trkpt lat="38.916991" lon="-119.902079"><ele>3039.0</ele><time>2025-02-08T14:48:07Z</time></trkpt>
<trkpt lat="38.916989" lon="-119.902075"><ele>3036.2</ele><time>2025-02-08T14:48:17Z</time></trkpt>
<trkpt lat="38.916994" lon="-119.902078"><ele>3042.4</ele><time>2025-02-08T14:49:31Z</time></trkpt>
<trkpt lat="38.917000" lon="-119.902099"><ele>3041.0</ele><time>2025-02-08T14:49:55Z</time></trkpt>
<trkpt lat="38.916982" lon="-119.902038"><ele>3041.4</ele><time>2025-02-08T14:50:06Z</time></trkpt>
<trkpt lat="38.916921" lon="-119.902001"><ele>3041.0</ele><time>2025-02-08T14:50:12Z</time></trkpt>
<trkpt lat="38.916758" lon="-119.901987"><ele>3039.4</ele><time>2025-02-08T14:50:23Z</time></trkpt>
<trkpt lat="38.916579" lon="-119.902018"><ele>3039.2</ele><time>2025-02-08T14:50:27Z</time></trkpt>
<trkpt lat="38.916420" lon="-119.902381"><ele>3036.0</ele><time>2025-02-08T14:50:32Z</time></trkpt>
<trkpt lat="38.916315" lon="-119.902503"><ele>3034.6</ele><time>2025-02-08T14:50:34Z</time></trkpt>
<trkpt lat="38.916042" lon="-119.902687"><ele>3029.6</ele><time>2025-02-08T14:50:38Z</time></trkpt>
<trkpt lat="38.915868" lon="-119.902760"><ele>3024.8</ele><time>2025-02-08T14:50:40Z</time></trkpt>
<trkpt lat="38.915706" lon="-119.902916"><ele>3020.4</ele><time>2025-02-08T14:50:42Z</time></trkpt>
<trkpt lat="38.915501" lon="-119.903000"><ele>3014.8</ele><time>2025-02-08T14:50:44Z</time></trkpt>
<trkpt lat="38.915070" lon="-119.903346"><ele>3008.8</ele><time>2025-02-08T14:50:49Z</time></trkpt>
<trkpt lat="38.914884" lon="-119.903452"><ele>3006.0</ele><time>2025-02-08T14:50:51Z</time></trkpt>
<trkpt lat="38.914633" lon="-119.903709"><ele>3000.8</ele><time>2025-02-08T14:50:54Z</time></trkpt>
<trkpt lat="38.914478" lon="-119.904065"><ele>2995.4</ele><time>2025-02-08T14:50:57Z</time></trkpt>
<trkpt lat="38.914652" lon="-119.904810"><ele>2988.6</ele><time>2025-02-08T14:51:04Z</time></trkpt>
<trkpt lat="38.914681" lon="-119.904945"><ele>2983.4</ele><time>2025-02-08T14:51:05Z</time></trkpt>
<trkpt lat="38.914616" lon="-119.905469"><ele>2975.4</ele><time>2025-02-08T14:51:09Z</time></trkpt>
<trkpt lat="38.914118" lon="-119.907083"><ele>2956.6</ele><time>2025-02-08T14:51:25Z</time></trkpt>
<trkpt lat="38.914048" lon="-119.907511"><ele>2951.0</ele><time>2025-02-08T14:51:29Z</time></trkpt>
<trkpt lat="38.914043" lon="-119.907741"><ele>2947.0</ele><time>2025-02-08T14:51:31Z</time></trkpt>
<trkpt lat="38.913968" lon="-119.908183"><ele>2942.6</ele><time>2025-02-08T14:51:35Z</time></trkpt>
<trkpt lat="38.913814" lon="-119.908460"><ele>2939.8</ele><time>2025-02-08T14:51:38Z</time></trkpt>
<trkpt lat="38.913685" lon="-119.908766"><ele>2935.4</ele><time>2025-02-08T14:51:41Z</time></trkpt>
<trkpt lat="38.913665" lon="-119.908878"><ele>2935.0</ele><time>2025-02-08T14:51:42Z</time></trkpt>
<trkpt lat="38.913699" lon="-119.909197"><ele>2931.0</ele><time>2025-02-08T14:51:45Z</time></trkpt>
<trkpt lat="38.913834" lon="-119.909577"><ele>2928.4</ele><time>2025-02-08T14:51:49Z</time></trkpt>
<trkpt lat="38.914152" lon="-119.909889"><ele>2923.6</ele><time>2025-02-08T14:51:54Z</time></trkpt>
<trkpt lat="38.914368" lon="-119.910043"><ele>2921.0</ele><time>2025-02-08T14:51:57Z</time></trkpt>
<trkpt lat="38.914461" lon="-119.910225"><ele>2919.0</ele><time>2025-02-08T14:51:59Z</time></trkpt>
<trkpt lat="38.914669" lon="-119.910407"><ele>2916.2</ele><time>2025-02-08T14:52:02Z</time></trkpt>
<trkpt lat="38.914720" lon="-119.910511"><ele>2915.8</ele><time>2025-02-08T14:52:03Z</time></trkpt>
<trkpt lat="38.914766" lon="-119.910751"><ele>2914.4</ele><time>2025-02-08T14:52:05Z</time></trkpt>
<trkpt lat="38.914841" lon="-119.910971"><ele>2911.4</ele><time>2025-02-08T14:52:07Z</time></trkpt>
<trkpt lat="38.915049" lon="-119.911363"><ele>2904.6</ele><time>2025-02-08T14:52:11Z</time></trkpt>
<trkpt lat="38.915122" lon="-119.911391"><ele>2903.4</ele><time>2025-02-08T14:52:12Z</time></trkpt>
<trkpt lat="38.915240" lon="-119.911229"><ele>2898.6</ele><time>2025-02-08T14:52:16Z</time></trkpt>
<trkpt lat="38.915332" lon="-119.911235"><ele>2897.6</ele><time>2025-02-08T14:52:18Z</time></trkpt>
<trkpt lat="38.915509" lon="-119.911351"><ele>2895.4</ele><time>2025-02-08T14:52:21Z</time></trkpt>
<trkpt lat="38.915975" lon="-119.911543"><ele>2887.4</ele><time>2025-02-08T14:52:27Z</time></trkpt>
<trkpt lat="38.916222" lon="-119.911599"><ele>2881.4</ele><time>2025-02-08T14:52:30Z</time></trkpt>
<trkpt lat="38.916382" lon="-119.911583"><ele>2879.6</ele><time>2025-02-08T14:52:32Z</time></trkpt>
<trkpt lat="38.916529" lon="-119.911629"><ele>2875.6</ele><time>2025-02-08T14:52:34Z</time></trkpt>
<trkpt lat="38.916617" lon="-119.911604"><ele>2873.6</ele><time>2025-02-08T14:52:36Z</time></trkpt>
<trkpt lat="38.916609" lon="-119.911660"><ele>2869.6</ele><time>2025-02-08T14:52:45Z</time></trkpt>
<trkpt lat="38.916708" lon="-119.911754"><ele>2868.4</ele><time>2025-02-08T14:52:48Z</time></trkpt>
<trkpt lat="38.916826" lon="-119.911770"><ele>2866.2</ele><time>2025-02-08T14:52:50Z</time></trkpt>
<trkpt lat="38.916991" lon="-119.911889"><ele>2861.6</ele><time>2025-02-08T14:52:53Z</time></trkpt>
<trkpt lat="38.917555" lon="-119.912414"><ele>2841.2</ele><time>2025-02-08T14:53:03Z</time></trkpt>
<trkpt lat="38.917734" lon="-119.912646"><ele>2834.2</ele><time>2025-02-08T14:53:06Z</time></trkpt>
<trkpt lat="38.917897" lon="-119.913037"><ele>2824.4</ele><time>2025-02-08T14:53:11Z</time></trkpt>
<trkpt lat="38.917943" lon="-119.913088"><ele>2823.0</ele><time>2025-02-08T14:53:12Z</time></trkpt>
<trkpt lat="38.918057" lon="-119.913103"><ele>2817.4</ele><time>2025-02-08T14:53:15Z</time></trkpt>
<trkpt lat="38.918054" lon="-119.913349"><ele>2814.6</ele><time>2025-02-08T14:53:19Z</time></trkpt>
<trkpt lat="38.918121" lon="-119.913470"><ele>2812.6</ele><time>2025-02-08T14:53:21Z</time></trkpt>
<trkpt lat="38.918137" lon="-119.913628"><ele>2810.6</ele><time>2025-02-08T14:53:23Z</time></trkpt>
<trkpt lat="38.918200" lon="-119.913768"><ele>2806.6</ele><time>2025-02-08T14:53:25Z</time></trkpt>
<trkpt lat="38.918199" lon="-119.913944"><ele>2804.0</ele><time>2025-02-08T14:53:27Z</time></trkpt>
<trkpt lat="38.918251" lon="-119.914099"><ele>2799.4</ele><time>2025-02-08T14:53:29Z</time></trkpt>
<trkpt lat="38.918154" lon="-119.914305"><ele>2794.8</ele><time>2025-02-08T14:53:32Z</time></trkpt>
<trkpt lat="38.918080" lon="-119.915392"><ele>2770.2</ele><time>2025-02-08T14:53:43Z</time></trkpt>
<trkpt lat="38.917996" lon="-119.915829"><ele>2765.8</ele><time>2025-02-08T14:53:46Z</time></trkpt>
<trkpt lat="38.917967" lon="-119.916167"><ele>2756.0</ele><time>2025-02-08T14:53:48Z</time></trkpt>
<trkpt lat="38.917972" lon="-119.916332"><ele>2754.4</ele><time>2025-02-08T14:53:49Z</time></trkpt>
<trkpt lat="38.918016" lon="-119.916662"><ele>2751.4</ele><time>2025-02-08T14:53:51Z</time></trkpt>
<trkpt lat="38.918124" lon="-119.916940"><ele>2747.4</ele><time>2025-02-08T14:53:53Z</time></trkpt>
<trkpt lat="38.918332" lon="-119.917263"><ele>2743.6</ele><time>2025-02-08T14:53:56Z</time></trkpt>
<trkpt lat="38.918408" lon="-119.917362"><ele>2740.4</ele><time>2025-02-08T14:53:57Z</time></trkpt>
<trkpt lat="38.918600" lon="-119.917480"><ele>2737.2</ele><time>2025-02-08T14:53:59Z</time></trkpt>
<trkpt lat="38.919055" lon="-119.918037"><ele>2729.6</ele><time>2025-02-08T14:54:05Z</time></trkpt>
<trkpt lat="38.919402" lon="-119.918353"><ele>2723.8</ele><time>2025-02-08T14:54:10Z</time></trkpt>
<trkpt lat="38.919627" lon="-119.918599"><ele>2717.4</ele><time>2025-02-08T14:54:14Z</time></trkpt>
<trkpt lat="38.919830" lon="-119.918748"><ele>2712.2</ele><time>2025-02-08T14:54:17Z</time></trkpt>
<trkpt lat="38.919989" lon="-119.918783"><ele>2709.2</ele><time>2025-02-08T14:54:19Z</time></trkpt>
<trkpt lat="38.920160" lon="-119.918899"><ele>2705.4</ele><time>2025-02-08T14:54:21Z</time></trkpt>
<trkpt lat="38.920627" lon="-119.919102"><ele>2691.0</ele><time>2025-02-08T14:54:27Z</time></trkpt>
<trkpt lat="38.921393" lon="-119.919018"><ele>2671.4</ele><time>2025-02-08T14:54:38Z</time></trkpt>
<trkpt lat="38.921580" lon="-119.919068"><ele>2667.4</ele><time>2025-02-08T14:54:40Z</time></trkpt>
<trkpt lat="38.921850" lon="-119.918997"><ele>2660.4</ele><time>2025-02-08T14:54:43Z</time></trkpt>
<trkpt lat="38.921938" lon="-119.918948"><ele>2659.0</ele><time>2025-02-08T14:54:44Z</time></trkpt>
<trkpt lat="38.922058" lon="-119.918780"><ele>2656.8</ele><time>2025-02-08T14:54:46Z</time></trkpt>
<trkpt lat="38.922195" lon="-119.918654"><ele>2656.0</ele><time>2025-02-08T14:54:48Z</time></trkpt>
<trkpt lat="38.922463" lon="-119.918588"><ele>2654.2</ele><time>2025-02-08T14:54:51Z</time></trkpt>
<trkpt lat="38.922626" lon="-119.918421"><ele>2650.0</ele><time>2025-02-08T14:54:53Z</time></trkpt>
<trkpt lat="38.922731" lon="-119.918362"><ele>2648.6</ele><time>2025-02-08T14:54:54Z</time></trkpt>
<trkpt lat="38.923760" lon="-119.918306"><ele>2632.8</ele><time>2025-02-08T14:55:04Z</time></trkpt>
<trkpt lat="38.924138" lon="-119.918232"><ele>2624.8</ele><time>2025-02-08T14:55:08Z</time></trkpt>
<trkpt lat="38.924228" lon="-119.918248"><ele>2624.4</ele><time>2025-02-08T14:55:09Z</time></trkpt>
<trkpt lat="38.924628" lon="-119.918412"><ele>2619.0</ele><time>2025-02-08T14:55:13Z</time></trkpt>
<trkpt lat="38.925395" lon="-119.919006"><ele>2605.0</ele><time>2025-02-08T14:55:21Z</time></trkpt>
<trkpt lat="38.926082" lon="-119.919391"><ele>2597.4</ele><time>2025-02-08T14:55:28Z</time></trkpt>
<trkpt lat="38.926547" lon="-119.919919"><ele>2589.8</ele><time>2025-02-08T14:55:34Z</time></trkpt>
<trkpt lat="38.926979" lon="-119.920476"><ele>2576.6</ele><time>2025-02-08T14:55:41Z</time></trkpt>
<trkpt lat="38.926977" lon="-119.920654"><ele>2572.2</ele><time>2025-02-08T14:55:43Z</time></trkpt>
<trkpt lat="38.926866" lon="-119.920923"><ele>2568.2</ele><time>2025-02-08T14:55:46Z</time></trkpt>
<trkpt lat="38.926792" lon="-119.921375"><ele>2562.4</ele><time>2025-02-08T14:55:51Z</time></trkpt>
<trkpt lat="38.926607" lon="-119.921776"><ele>2553.6</ele><time>2025-02-08T14:55:55Z</time></trkpt>
<trkpt lat="38.926467" lon="-119.922296"><ele>2544.6</ele><time>2025-02-08T14:56:00Z</time></trkpt>
<trkpt lat="38.926432" lon="-119.922353"><ele>2542.6</ele><time>2025-02-08T14:56:01Z</time></trkpt>
<trkpt lat="38.926357" lon="-119.922365"><ele>2537.6</ele><time>2025-02-08T14:56:07Z</time></trkpt>
<trkpt lat="38.926370" lon="-119.922345"><ele>2536.8</ele><time>2025-02-08T14:56:20Z</time></trkpt>
<trkpt lat="38.926375" lon="-119.922560"><ele>2535.6</ele><time>2025-02-08T14:56:30Z</time></trkpt>
<trkpt lat="38.926185" lon="-119.922938"><ele>2526.8</ele><time>2025-02-08T14:56:35Z</time></trkpt>
<trkpt lat="38.926027" lon="-119.923386"><ele>2516.4</ele><time>2025-02-08T14:56:40Z</time></trkpt>
<trkpt lat="38.925877" lon="-119.923681"><ele>2509.4</ele><time>2025-02-08T14:56:43Z</time></trkpt>
<trkpt lat="38.925714" lon="-119.923876"><ele>2503.6</ele><time>2025-02-08T14:56:45Z</time></trkpt>
<trkpt lat="38.925597" lon="-119.924146"><ele>2499.4</ele><time>2025-02-08T14:56:47Z</time></trkpt>
<trkpt lat="38.925434" lon="-119.924406"><ele>2494.4</ele><time>2025-02-08T14:56:49Z</time></trkpt>
<trkpt lat="38.925289" lon="-119.924888"><ele>2487.6</ele><time>2025-02-08T14:56:52Z</time></trkpt>
<trkpt lat="38.925181" lon="-119.925339"><ele>2480.2</ele><time>2025-02-08T14:56:55Z</time></trkpt>
<trkpt lat="38.925134" lon="-119.925717"><ele>2474.6</ele><time>2025-02-08T14:56:58Z</time></trkpt>
<trkpt lat="38.925139" lon="-119.925834"><ele>2471.2</ele><time>2025-02-08T14:56:59Z</time></trkpt>
<trkpt lat="38.925197" lon="-119.926061"><ele>2468.0</ele><time>2025-02-08T14:57:01Z</time></trkpt>
<trkpt lat="38.925135" lon="-119.926621"><ele>2460.0</ele><time>2025-02-08T14:57:05Z</time></trkpt>
<trkpt lat="38.924954" lon="-119.927305"><ele>2452.2</ele><time>2025-02-08T14:57:10Z</time></trkpt>
<trkpt lat="38.924784" lon="-119.927853"><ele>2450.0</ele><time>2025-02-08T14:57:15Z</time></trkpt>
<trkpt lat="38.924763" lon="-119.928243"><ele>2449.6</ele><time>2025-02-08T14:57:20Z</time></trkpt>
<trkpt lat="38.924701" lon="-119.928454"><ele>2449.4</ele><time>2025-02-08T14:57:24Z</time></trkpt>
<trkpt lat="38.924596" lon="-119.928732"><ele>2449.4</ele><time>2025-02-08T14:57:43Z</time></trkpt>
<trkpt lat="38.924235" lon="-119.929200"><ele>2447.2</ele><time>2025-02-08T14:58:12Z</time></trkpt>
<trkpt lat="38.924140" lon="-119.929409"><ele>2446.4</ele><time>2025-02-08T14:58:18Z</time></trkpt>
<trkpt lat="38.924098" lon="-119.929599"><ele>2445.0</ele><time>2025-02-08T14:58:22Z</time></trkpt>
<trkpt lat="38.924122" lon="-119.930199"><ele>2443.0</ele><time>2025-02-08T14:58:37Z</time></trkpt>
<trkpt lat="38.924097" lon="-119.930450"><ele>2442.4</ele><time>2025-02-08T14:58:43Z</time></trkpt>
<trkpt lat="38.924021" lon="-119.930585"><ele>2441.8</ele><time>2025-02-08T14:58:47Z</time></trkpt>
<trkpt lat="38.923827" lon="-119.930797"><ele>2440.6</ele><time>2025-02-08T14:58:55Z</time></trkpt>
<trkpt lat="38.923380" lon="-119.931180"><ele>2438.6</ele><time>2025-02-08T14:59:11Z</time></trkpt>
<trkpt lat="38.923061" lon="-119.931573"><ele>2436.6</ele><time>2025-02-08T14:59:24Z</time></trkpt>
<trkpt lat="38.922610" lon="-119.931992"><ele>2434.6</ele><time>2025-02-08T14:59:45Z</time></trkpt>
<trkpt lat="38.922476" lon="-119.932194"><ele>2433.6</ele><time>2025-02-08T14:59:52Z</time></trkpt>
<trkpt lat="38.922366" lon="-119.932501"><ele>2432.0</ele><time>2025-02-08T15:00:00Z</time></trkpt>
<trkpt lat="38.922357" lon="-119.932634"><ele>2431.0</ele><time>2025-02-08T15:00:03Z</time></trkpt>
<trkpt lat="38.922401" lon="-119.932858"><ele>2430.6</ele><time>2025-02-08T15:00:10Z</time></trkpt>
<trkpt lat="38.922670" lon="-119.933429"><ele>2427.8</ele><time>2025-02-08T15:00:25Z</time></trkpt>
<trkpt lat="38.922759" lon="-119.933893"><ele>2425.4</ele><time>2025-02-08T15:00:35Z</time></trkpt>
<trkpt lat="38.922782" lon="-119.934299"><ele>2423.6</ele><time>2025-02-08T15:00:42Z</time></trkpt>
<trkpt lat="38.922674" lon="-119.934746"><ele>2421.8</ele><time>2025-02-08T15:00:50Z</time></trkpt>
<trkpt lat="38.922715" lon="-119.934867"><ele>2420.6</ele><time>2025-02-08T15:00:52Z</time></trkpt>
<trkpt lat="38.922830" lon="-119.934943"><ele>2419.6</ele><time>2025-02-08T15:00:54Z</time></trkpt>
<trkpt lat="38.922965" lon="-119.934919"><ele>2417.6</ele><time>2025-02-08T15:00:56Z</time></trkpt>
<trkpt lat="38.923232" lon="-119.934776"><ele>2415.0</ele><time>2025-02-08T15:01:00Z</time></trkpt>
<trkpt lat="38.923392" lon="-119.934614"><ele>2413.6</ele><time>2025-02-08T15:01:03Z</time></trkpt>
<trkpt lat="38.923481" lon="-119.934579"><ele>2412.2</ele><time>2025-02-08T15:01:05Z</time></trkpt>
<trkpt lat="38.923473" lon="-119.934677"><ele>2409.8</ele><time>2025-02-08T15:01:07Z</time></trkpt>
<trkpt lat="38.923376" lon="-119.934843"><ele>2408.6</ele><time>2025-02-08T15:01:11Z</time></trkpt>
<trkpt lat="38.922716" lon="-119.935742"><ele>2400.6</ele><time>2025-02-08T15:01:25Z</time></trkpt>
<trkpt lat="38.922704" lon="-119.936068"><ele>2396.2</ele><time>2025-02-08T15:01:28Z</time></trkpt>
<trkpt lat="38.922822" lon="-119.936187"><ele>2392.4</ele><time>2025-02-08T15:01:30Z</time></trkpt>
<trkpt lat="38.923057" lon="-119.936354"><ele>2389.8</ele><time>2025-02-08T15:01:33Z</time></trkpt>
<trkpt lat="38.923269" lon="-119.936587"><ele>2385.2</ele><time>2025-02-08T15:01:37Z</time></trkpt>
<trkpt lat="38.923670" lon="-119.936646"><ele>2380.8</ele><time>2025-02-08T15:01:43Z</time></trkpt>
<trkpt lat="38.924005" lon="-119.936402"><ele>2377.0</ele><time>2025-02-08T15:01:49Z</time></trkpt>
<trkpt lat="38.924070" lon="-119.936266"><ele>2375.2</ele><time>2025-02-08T15:01:51Z</time></trkpt>
<trkpt lat="38.924105" lon="-119.936101"><ele>2373.2</ele><time>2025-02-08T15:01:53Z</time></trkpt>
<trkpt lat="38.924064" lon="-119.935750"><ele>2371.2</ele><time>2025-02-08T15:01:57Z</time></trkpt>
<trkpt lat="38.924086" lon="-119.935680"><ele>2370.8</ele><time>2025-02-08T15:01:58Z</time></trkpt>
<trkpt lat="38.924158" lon="-119.935667"><ele>2367.6</ele><time>2025-02-08T15:02:00Z</time></trkpt>
<trkpt lat="38.924253" lon="-119.935887"><ele>2363.2</ele><time>2025-02-08T15:02:03Z</time></trkpt>
<trkpt lat="38.924313" lon="-119.936232"><ele>2361.0</ele><time>2025-02-08T15:02:07Z</time></trkpt>
<trkpt lat="38.924245" lon="-119.936445"><ele>2360.4</ele><time>2025-02-08T15:02:10Z</time></trkpt>
<trkpt lat="38.923939" lon="-119.937044"><ele>2359.4</ele><time>2025-02-08T15:02:34Z</time></trkpt>
<trkpt lat="38.923925" lon="-119.937293"><ele>2356.8</ele><time>2025-02-08T15:02:43Z</time></trkpt>
<trkpt lat="38.923953" lon="-119.937339"><ele>2356.2</ele><time>2025-02-08T15:02:46Z</time></trkpt>
<trkpt lat="38.924127" lon="-119.936946"><ele>2354.2</ele><time>2025-02-08T15:02:55Z</time></trkpt>
<trkpt lat="38.924435" lon="-119.936471"><ele>2350.8</ele><time>2025-02-08T15:03:04Z</time></trkpt>
<trkpt lat="38.924484" lon="-119.936286"><ele>2349.2</ele><time>2025-02-08T15:03:07Z</time></trkpt>
<trkpt lat="38.924502" lon="-119.936047"><ele>2348.2</ele><time>2025-02-08T15:03:12Z</time></trkpt>
<trkpt lat="38.924600" lon="-119.935944"><ele>2347.4</ele><time>2025-02-08T15:03:16Z</time></trkpt>
<trkpt lat="38.924741" lon="-119.935907"><ele>2347.0</ele><time>2025-02-08T15:03:19Z</time></trkpt>
<trkpt lat="38.925202" lon="-119.936002"><ele>2342.8</ele><time>2025-02-08T15:03:26Z</time></trkpt>
<trkpt lat="38.925565" lon="-119.936392"><ele>2339.6</ele><time>2025-02-08T15:03:32Z</time></trkpt>
<trkpt lat="38.925755" lon="-119.936673"><ele>2336.2</ele><time>2025-02-08T15:03:36Z</time></trkpt>
<trkpt lat="38.925913" lon="-119.936831"><ele>2335.0</ele><time>2025-02-08T15:03:39Z</time></trkpt>
<trkpt lat="38.926250" lon="-119.937008"><ele>2330.6</ele><time>2025-02-08T15:03:43Z</time></trkpt>
<trkpt lat="38.927031" lon="-119.937558"><ele>2316.8</ele><time>2025-02-08T15:03:52Z</time></trkpt>
<trkpt lat="38.927363" lon="-119.937874"><ele>2312.4</ele><time>2025-02-08T15:03:56Z</time></trkpt>
<trkpt lat="38.927986" lon="-119.938569"><ele>2301.8</ele><time>2025-02-08T15:04:05Z</time></trkpt>
<trkpt lat="38.928268" lon="-119.938624"><ele>2297.8</ele><time>2025-02-08T15:04:09Z</time></trkpt>
<trkpt lat="38.928552" lon="-119.938396"><ele>2295.6</ele><time>2025-02-08T15:04:14Z</time></trkpt>
<trkpt lat="38.929148" lon="-119.937823"><ele>2286.6</ele><time>2025-02-08T15:04:22Z</time></trkpt>
<trkpt lat="38.929462" lon="-119.937566"><ele>2281.2</ele><time>2025-02-08T15:04:26Z</time></trkpt>
<trkpt lat="38.929671" lon="-119.937487"><ele>2279.0</ele><time>2025-02-08T15:04:29Z</time></trkpt>
<trkpt lat="38.929904" lon="-119.937475"><ele>2277.2</ele><time>2025-02-08T15:04:32Z</time></trkpt>
<trkpt lat="38.929949" lon="-119.937481"><ele>2275.6</ele><time>2025-02-08T15:04:33Z</time></trkpt>
<trkpt lat="38.929896" lon="-119.937517"><ele>2271.8</ele><time>2025-02-08T15:05:03Z</time></trkpt>
<trkpt lat="38.929919" lon="-119.937521"><ele>2272.4</ele><time>2025-02-08T15:05:16Z</time></trkpt>
<trkpt lat="38.930143" lon="-119.937436"><ele>2269.8</ele><time>2025-02-08T15:05:23Z</time></trkpt>
<trkpt lat="38.930559" lon="-119.937152"><ele>2268.0</ele><time>2025-02-08T15:05:33Z</time></trkpt>
<trkpt lat="38.930934" lon="-119.936764"><ele>2264.0</ele><time>2025-02-08T15:05:40Z</time></trkpt>
<trkpt lat="38.930991" lon="-119.936760"><ele>2262.4</ele><time>2025-02-08T15:05:41Z</time></trkpt>
<trkpt lat="38.931048" lon="-119.936862"><ele>2260.6</ele><time>2025-02-08T15:05:43Z</time></trkpt>
<trkpt lat="38.930911" lon="-119.937215"><ele>2255.8</ele><time>2025-02-08T15:05:47Z</time></trkpt>
<trkpt lat="38.930507" lon="-119.937755"><ele>2247.0</ele><time>2025-02-08T15:05:53Z</time></trkpt>
<trkpt lat="38.930004" lon="-119.938260"><ele>2236.6</ele><time>2025-02-08T15:05:59Z</time></trkpt>
<trkpt lat="38.929728" lon="-119.938801"><ele>2230.2</ele><time>2025-02-08T15:06:04Z</time></trkpt>
<trkpt lat="38.929658" lon="-119.939011"><ele>2228.6</ele><time>2025-02-08T15:06:06Z</time></trkpt>
<trkpt lat="38.929576" lon="-119.939427"><ele>2223.8</ele><time>2025-02-08T15:06:10Z</time></trkpt>
<trkpt lat="38.929589" lon="-119.939761"><ele>2220.0</ele><time>2025-02-08T15:06:14Z</time></trkpt>
<trkpt lat="38.929555" lon="-119.939900"><ele>2218.2</ele><time>2025-02-08T15:06:16Z</time></trkpt>
<trkpt lat="38.929566" lon="-119.939974"><ele>2216.6</ele><time>2025-02-08T15:06:17Z</time></trkpt>
<trkpt lat="38.929600" lon="-119.939997"><ele>2215.4</ele><time>2025-02-08T15:06:18Z</time></trkpt>
<trkpt lat="38.929631" lon="-119.939987"><ele>2214.4</ele><time>2025-02-08T15:06:19Z</time></trkpt>
<trkpt lat="38.929747" lon="-119.939573"><ele>2212.2</ele><time>2025-02-08T15:06:28Z</time></trkpt>
<trkpt lat="38.929861" lon="-119.939384"><ele>2209.4</ele><time>2025-02-08T15:06:31Z</time></trkpt>
<trkpt lat="38.930323" lon="-119.938938"><ele>2200.0</ele><time>2025-02-08T15:06:38Z</time></trkpt>
<trkpt lat="38.931196" lon="-119.938445"><ele>2187.6</ele><time>2025-02-08T15:06:47Z</time></trkpt>
<trkpt lat="38.932038" lon="-119.937898"><ele>2177.4</ele><time>2025-02-08T15:06:59Z</time></trkpt>
<trkpt lat="38.932457" lon="-119.937696"><ele>2171.2</ele><time>2025-02-08T15:07:07Z</time></trkpt>
<trkpt lat="38.933036" lon="-119.937284"><ele>2165.6</ele><time>2025-02-08T15:07:17Z</time></trkpt>
<trkpt lat="38.933233" lon="-119.937106"><ele>2163.6</ele><time>2025-02-08T15:07:20Z</time></trkpt>
<trkpt lat="38.933551" lon="-119.936695"><ele>2160.0</ele><time>2025-02-08T15:07:27Z</time></trkpt>
<trkpt lat="38.933717" lon="-119.936348"><ele>2158.0</ele><time>2025-02-08T15:07:33Z</time></trkpt>
<trkpt lat="38.933908" lon="-119.935820"><ele>2155.2</ele><time>2025-02-08T15:07:41Z</time></trkpt>
<trkpt lat="38.934265" lon="-119.935405"><ele>2152.4</ele><time>2025-02-08T15:07:51Z</time></trkpt>
<trkpt lat="38.934366" lon="-119.934993"><ele>2149.2</ele><time>2025-02-08T15:07:57Z</time></trkpt>
<trkpt lat="38.934425" lon="-119.934952"><ele>2149.2</ele><time>2025-02-08T15:07:58Z</time></trkpt>
<trkpt lat="38.934490" lon="-119.934957"><ele>2148.6</ele><time>2025-02-08T15:07:59Z</time></trkpt>
<trkpt lat="38.934604" lon="-119.935126"><ele>2145.0</ele><time>2025-02-08T15:08:02Z</time></trkpt>
<trkpt lat="38.934751" lon="-119.935440"><ele>2135.6</ele><time>2025-02-08T15:08:07Z</time></trkpt>
<trkpt lat="38.934830" lon="-119.935541"><ele>2131.4</ele><time>2025-02-08T15:08:09Z</time></trkpt>
<trkpt lat="38.934858" lon="-119.935686"><ele>2128.2</ele><time>2025-02-08T15:08:11Z</time></trkpt>
<trkpt lat="38.934972" lon="-119.935754"><ele>2122.0</ele><time>2025-02-08T15:08:14Z</time></trkpt>
<trkpt lat="38.934988" lon="-119.935809"><ele>2120.6</ele><time>2025-02-08T15:08:15Z</time></trkpt>
<trkpt lat="38.935066" lon="-119.935877"><ele>2116.6</ele><time>2025-02-08T15:08:17Z</time></trkpt>
<trkpt lat="38.935180" lon="-119.936123"><ele>2108.2</ele><time>2025-02-08T15:08:21Z</time></trkpt>
<trkpt lat="38.935250" lon="-119.936483"><ele>2099.4</ele><time>2025-02-08T15:08:25Z</time></trkpt>
<trkpt lat="38.935200" lon="-119.936679"><ele>2093.6</ele><time>2025-02-08T15:08:29Z</time></trkpt>
<trkpt lat="38.935297" lon="-119.936796"><ele>2092.0</ele><time>2025-02-08T15:08:32Z</time></trkpt>
<trkpt lat="38.935302" lon="-119.936868"><ele>2090.8</ele><time>2025-02-08T15:08:33Z</time></trkpt>
<trkpt lat="38.935214" lon="-119.937111"><ele>2085.0</ele><time>2025-02-08T15:08:40Z</time></trkpt>
<trkpt lat="38.935278" lon="-119.937133"><ele>2084.6</ele><time>2025-02-08T15:08:42Z</time></trkpt>
<trkpt lat="38.935361" lon="-119.937105"><ele>2083.0</ele><time>2025-02-08T15:08:44Z</time></trkpt>
<trkpt lat="38.935405" lon="-119.937137"><ele>2081.8</ele><time>2025-02-08T15:08:45Z</time></trkpt>
<trkpt lat="38.935413" lon="-119.937258"><ele>2079.4</ele><time>2025-02-08T15:08:47Z</time></trkpt>
<trkpt lat="38.935440" lon="-119.937278"><ele>2077.8</ele><time>2025-02-08T15:08:48Z</time></trkpt>
<trkpt lat="38.935582" lon="-119.937183"><ele>2074.2</ele><time>2025-02-08T15:08:52Z</time></trkpt>
<trkpt lat="38.935625" lon="-119.937190"><ele>2074.0</ele><time>2025-02-08T15:08:53Z</time></trkpt>
<trkpt lat="38.935729" lon="-119.937300"><ele>2070.8</ele><time>2025-02-08T15:08:56Z</time></trkpt>
<trkpt lat="38.935775" lon="-119.937418"><ele>2067.6</ele><time>2025-02-08T15:08:58Z</time></trkpt>
<trkpt lat="38.935877" lon="-119.937490"><ele>2063.8</ele><time>2025-02-08T15:09:00Z</time></trkpt>
<trkpt lat="38.935943" lon="-119.937610"><ele>2060.2</ele><time>2025-02-08T15:09:02Z</time></trkpt>
<trkpt lat="38.936042" lon="-119.937662"><ele>2056.4</ele><time>2025-02-08T15:09:04Z</time></trkpt>
<trkpt lat="38.936244" lon="-119.937989"><ele>2046.4</ele><time>2025-02-08T15:09:09Z</time></trkpt>
<trkpt lat="38.936430" lon="-119.938178"><ele>2039.6</ele><time>2025-02-08T15:09:12Z</time></trkpt>
<trkpt lat="38.936552" lon="-119.938397"><ele>2037.0</ele><time>2025-02-08T15:09:14Z</time></trkpt>
<trkpt lat="38.936589" lon="-119.938537"><ele>2033.8</ele><time>2025-02-08T15:09:15Z</time></trkpt>
<trkpt lat="38.936574" lon="-119.938776"><ele>2031.8</ele><time>2025-02-08T15:09:17Z</time></trkpt>
<trkpt lat="38.936479" lon="-119.938937"><ele>2031.0</ele><time>2025-02-08T15:09:19Z</time></trkpt>
<trkpt lat="38.935984" lon="-119.939456"><ele>2028.2</ele><time>2025-02-08T15:09:28Z</time></trkpt>
<trkpt lat="38.935823" lon="-119.939592"><ele>2027.6</ele><time>2025-02-08T15:09:31Z</time></trkpt>
<trkpt lat="38.935716" lon="-119.939657"><ele>2024.4</ele><time>2025-02-08T15:09:33Z</time></trkpt>
<trkpt lat="38.935214" lon="-119.939801"><ele>2025.6</ele><time>2025-02-08T15:09:46Z</time></trkpt>
<trkpt lat="38.935134" lon="-119.939847"><ele>2025.0</ele><time>2025-02-08T15:09:49Z</time></trkpt>
<trkpt lat="38.935099" lon="-119.939922"><ele>2024.4</ele><time>2025-02-08T15:10:13Z</time></trkpt>
</trkseg></trk>
</gpx>
