<?xml version="1.0" encoding="UTF-8"?>
<gpx version="1.1" creator="Eric Sichak trip reports" xmlns="http://www.topografix.com/GPX/1/1">
<metadata><name>Enchanted Loop x3</name><time>2023-06-19T17:05:02Z</time></metadata>
<trk><name>Enchanted Loop x3</name><type>mtb</type><trkseg>
<trkpt lat="36.962196" lon="-122.085043"><ele>22.4</ele><time>2023-06-19T17:05:02Z</time></trkpt>
<trkpt lat="36.962193" lon="-122.084898"><ele>22.4</ele><time>2023-06-19T17:05:06Z</time></trkpt>
<trkpt lat="36.962264" lon="-122.084736"><ele>23.2</ele><time>2023-06-19T17:05:21Z</time></trkpt>
<trkpt lat="36.962295" lon="-122.084927"><ele>25.0</ele><time>2023-06-19T17:05:39Z</time></trkpt>
<trkpt lat="36.962355" lon="-122.085013"><ele>25.2</ele><time>2023-06-19T17:05:44Z</time></trkpt>
<trkpt lat="36.962369" lon="-122.085095"><ele>25.2</ele><time>2023-06-19T17:05:48Z</time></trkpt>
<trkpt lat="36.962412" lon="-122.085127"><ele>25.0</ele><time>2023-06-19T17:05:51Z</time></trkpt>
<trkpt lat="36.962514" lon="-122.085122"><ele>24.6</ele><time>2023-06-19T17:05:56Z</time></trkpt>
<trkpt lat="36.962578" lon="-122.085265"><ele>25.0</ele><time>2023-06-19T17:06:02Z</time></trkpt>
<trkpt lat="36.962713" lon="-122.085300"><ele>25.4</ele><time>2023-06-19T17:06:11Z</time></trkpt>
<trkpt lat="36.963361" lon="-122.085664"><ele>30.8</ele><time>2023-06-19T17:06:47Z</time></trkpt>
<trkpt lat="36.963559" lon="-122.085691"><ele>34.4</ele><time>2023-06-19T17:06:59Z</time></trkpt>
<trkpt lat="36.963604" lon="-122.085648"><ele>35.2</ele><time>2023-06-19T17:07:02Z</time></trkpt>
<trkpt lat="36.963670" lon="-122.085472"><ele>34.8</ele><time>2023-06-19T17:07:07Z</time></trkpt>
<trkpt lat="36.963811" lon="-122.085239"><ele>32.8</ele><time>2023-06-19T17:07:11Z</time></trkpt>
<trkpt lat="36.963980" lon="-122.085056"><ele>31.2</ele><time>2023-06-19T17:07:14Z</time></trkpt>
<trkpt lat="36.964696" lon="-122.084486"><ele>24.2</ele><time>2023-06-19T17:07:24Z</time></trkpt>
<trkpt lat="36.965151" lon="-122.084305"><ele>21.0</ele><time>2023-06-19T17:07:30Z</time></trkpt>
<trkpt lat="36.965469" lon="-122.084128"><ele>18.8</ele><time>2023-06-19T17:07:34Z</time></trkpt>
<trkpt lat="36.965811" lon="-122.083795"><ele>16.6</ele><time>2023-06-19T17:07:39Z</time></trkpt>
<trkpt lat="36.966256" lon="-122.083286"><ele>16.8</ele><time>2023-06-19T17:07:47Z</time></trkpt>
<trkpt lat="36.966942" lon="-122.082755"><ele>18.2</ele><time>2023-06-19T17:08:03Z</time></trkpt>
<trkpt lat="36.966866" lon="-122.082781"><ele>18.0</ele><time>2023-06-19T17:08:24Z</time></trkpt>
<trkpt lat="36.966436" lon="-122.083154"><ele>17.6</ele><time>2023-06-19T17:08:38Z</time></trkpt>
<trkpt lat="36.966252" lon="-122.083264"><ele>17.0</ele><time>2023-06-19T17:08:43Z</time></trkpt>
<trkpt lat="36.966173" lon="-122.083344"><ele>16.4</ele><time>2023-06-19T17:08:46Z</time></trkpt>
<trkpt lat="36.966166" lon="-122.083410"><ele>16.4</ele><time>2023-06-19T17:08:48Z</time></trkpt>
<trkpt lat="36.966242" lon="-122.083464"><ele>17.0</ele><time>2023-06-19T17:08:52Z</time></trkpt>
<trkpt lat="36.966366" lon="-122.083487"><ele>17.4</ele><time>2023-06-19T17:08:57Z</time></trkpt>
<trkpt lat="36.966606" lon="-122.083462"><ele>18.8</ele><time>2023-06-19T17:09:06Z</time></trkpt>
<trkpt lat="36.966875" lon="-122.083561"><ele>19.8</ele><time>2023-06-19T17:09:13Z</time></trkpt>
<trkpt lat="36.967122" lon="-122.083489"><ele>20.6</ele><time>2023-06-19T17:09:19Z</time></trkpt>
<trkpt lat="36.967400" lon="-122.083450"><ele>25.6</ele><time>2023-06-19T17:09:35Z</time></trkpt>
<trkpt lat="36.967622" lon="-122.083450"><ele>27.0</ele><time>2023-06-19T17:09:45Z</time></trkpt>
<trkpt lat="36.967782" lon="-122.083401"><ele>28.2</ele><time>2023-06-19T17:09:59Z</time></trkpt>
<trkpt lat="36.967782" lon="-122.083347"><ele>28.4</ele><time>2023-06-19T17:10:02Z</time></trkpt>
<trkpt lat="36.967683" lon="-122.083281"><ele>29.2</ele><time>2023-06-19T17:10:08Z</time></trkpt>
<trkpt lat="36.967724" lon="-122.083226"><ele>30.2</ele><time>2023-06-19T17:10:12Z</time></trkpt>
<trkpt lat="36.967928" lon="-122.083232"><ele>31.4</ele><time>2023-06-19T17:10:22Z</time></trkpt>
<trkpt lat="36.968296" lon="-122.083126"><ele>34.2</ele><time>2023-06-19T17:10:37Z</time></trkpt>
<trkpt lat="36.968831" lon="-122.083229"><ele>39.2</ele><time>2023-06-19T17:11:02Z</time></trkpt>
<trkpt lat="36.968945" lon="-122.083196"><ele>40.2</ele><time>2023-06-19T17:11:08Z</time></trkpt>
<trkpt lat="36.969115" lon="-122.083086"><ele>42.0</ele><time>2023-06-19T17:11:17Z</time></trkpt>
<trkpt lat="36.969350" lon="-122.083019"><ele>42.6</ele><time>2023-06-19T17:11:25Z</time></trkpt>
<trkpt lat="36.969539" lon="-122.083013"><ele>43.6</ele><time>2023-06-19T17:11:32Z</time></trkpt>
<trkpt lat="36.969901" lon="-122.083112"><ele>46.6</ele><time>2023-06-19T17:11:50Z</time></trkpt>
<trkpt lat="36.969975" lon="-122.083097"><ele>47.2</ele><time>2023-06-19T17:11:54Z</time></trkpt>
<trkpt lat="36.970030" lon="-122.083152"><ele>47.8</ele><time>2023-06-19T17:11:58Z</time></trkpt>
<trkpt lat="36.970138" lon="-122.083154"><ele>48.8</ele><time>2023-06-19T17:12:04Z</time></trkpt>
<trkpt lat="36.970260" lon="-122.083253"><ele>49.8</ele><time>2023-06-19T17:12:12Z</time></trkpt>
<trkpt lat="36.970669" lon="-122.083474"><ele>53.8</ele><time>2023-06-19T17:12:37Z</time></trkpt>
<trkpt lat="36.970919" lon="-122.083538"><ele>56.0</ele><time>2023-06-19T17:12:51Z</time></trkpt>
<trkpt lat="36.971125" lon="-122.083512"><ele>57.4</ele><time>2023-06-19T17:13:01Z</time></trkpt>
<trkpt lat="36.971330" lon="-122.083567"><ele>57.8</ele><time>2023-06-19T17:13:11Z</time></trkpt>
<trkpt lat="36.971489" lon="-122.083660"><ele>61.0</ele><time>2023-06-19T17:13:21Z</time></trkpt>
<trkpt lat="36.971589" lon="-122.083777"><ele>61.4</ele><time>2023-06-19T17:13:29Z</time></trkpt>
<trkpt lat="36.971660" lon="-122.083809"><ele>61.4</ele><time>2023-06-19T17:13:34Z</time></trkpt>
<trkpt lat="36.971881" lon="-122.083772"><ele>63.2</ele><time>2023-06-19T17:13:47Z</time></trkpt>
<trkpt lat="36.972049" lon="-122.083638"><ele>63.4</ele><time>2023-06-19T17:13:54Z</time></trkpt>
<trkpt lat="36.972579" lon="-122.083576"><ele>68.0</ele><time>2023-06-19T17:14:19Z</time></trkpt>
<trkpt lat="36.972722" lon="-122.083512"><ele>69.6</ele><time>2023-06-19T17:14:28Z</time></trkpt>
<trkpt lat="36.972759" lon="-122.083459"><ele>70.0</ele><time>2023-06-19T17:14:31Z</time></trkpt>
<trkpt lat="36.972725" lon="-122.083250"><ele>71.0</ele><time>2023-06-19T17:14:41Z</time></trkpt>
<trkpt lat="36.972745" lon="-122.083088"><ele>70.8</ele><time>2023-06-19T17:14:46Z</time></trkpt>
<trkpt lat="36.972966" lon="-122.082912"><ele>70.6</ele><time>2023-06-19T17:14:53Z</time></trkpt>
<trkpt lat="36.973202" lon="-122.082844"><ele>72.6</ele><time>2023-06-19T17:14:59Z</time></trkpt>
<trkpt lat="36.973422" lon="-122.082515"><ele>73.8</ele><time>2023-06-19T17:15:11Z</time></trkpt>
<trkpt lat="36.973777" lon="-122.082256"><ele>76.6</ele><time>2023-06-19T17:15:26Z</time></trkpt>
<trkpt lat="36.973901" lon="-122.082013"><ele>76.6</ele><time>2023-06-19T17:15:33Z</time></trkpt>
<trkpt lat="36.973942" lon="-122.081814"><ele>77.0</ele><time>2023-06-19T17:15:38Z</time></trkpt>
<trkpt lat="36.974068" lon="-122.081535"><ele>78.0</ele><time>2023-06-19T17:15:46Z</time></trkpt>
<trkpt lat="36.974094" lon="-122.081337"><ele>79.0</ele><time>2023-06-19T17:15:51Z</time></trkpt>
<trkpt lat="36.974078" lon="-122.081043"><ele>79.4</ele><time>2023-06-19T17:15:57Z</time></trkpt>
<trkpt lat="36.973986" lon="-122.080600"><ele>82.2</ele><time>2023-06-19T17:16:11Z</time></trkpt>
<trkpt lat="36.973991" lon="-122.080482"><ele>83.0</ele><time>2023-06-19T17:16:15Z</time></trkpt>
<trkpt lat="36.974036" lon="-122.080417"><ele>83.2</ele><time>2023-06-19T17:16:18Z</time></trkpt>
<trkpt lat="36.974707" lon="-122.080161"><ele>88.0</ele><time>2023-06-19T17:16:52Z</time></trkpt>
<trkpt lat="36.975177" lon="-122.080085"><ele>92.4</ele><time>2023-06-19T17:17:18Z</time></trkpt>
<trkpt lat="36.975302" lon="-122.080106"><ele>93.6</ele><time>2023-06-19T17:17:25Z</time></trkpt>
<trkpt lat="36.975635" lon="-122.080069"><ele>97.0</ele><time>2023-06-19T17:17:43Z</time></trkpt>
<trkpt lat="36.976232" lon="-122.080055"><ele>100.0</ele><time>2023-06-19T17:18:07Z</time></trkpt>
<trkpt lat="36.976492" lon="-122.079994"><ele>101.4</ele><time>2023-06-19T17:18:17Z</time></trkpt>
<trkpt lat="36.976609" lon="-122.079944"><ele>101.8</ele><time>2023-06-19T17:18:22Z</time></trkpt>
<trkpt lat="36.976815" lon="-122.079676"><ele>103.0</ele><time>2023-06-19T17:18:32Z</time></trkpt>
<trkpt lat="36.976844" lon="-122.079696"><ele>103.0</ele><time>2023-06-19T17:18:34Z</time></trkpt>
<trkpt lat="36.976760" lon="-122.079960"><ele>106.0</ele><time>2023-06-19T17:18:47Z</time></trkpt>
<trkpt lat="36.976528" lon="-122.080316"><ele>107.4</ele><time>2023-06-19T17:19:07Z</time></trkpt>
<trkpt lat="36.976373" lon="-122.080648"><ele>109.2</ele><time>2023-06-19T17:19:20Z</time></trkpt>
<trkpt lat="36.976389" lon="-122.080793"><ele>109.2</ele><time>2023-06-19T17:19:24Z</time></trkpt>
<trkpt lat="36.976476" lon="-122.080889"><ele>109.2</ele><time>2023-06-19T17:19:27Z</time></trkpt>
<trkpt lat="36.976560" lon="-122.080923"><ele>109.2</ele><time>2023-06-19T17:19:29Z</time></trkpt>
<trkpt lat="36.976767" lon="-122.080920"><ele>108.8</ele><time>2023-06-19T17:19:33Z</time></trkpt>
<trkpt lat="36.977044" lon="-122.080837"><ele>108.4</ele><time>2023-06-19T17:19:39Z</time></trkpt>
<trkpt lat="36.977072" lon="-122.080870"><ele>108.4</ele><time>2023-06-19T17:19:40Z</time></trkpt>
<trkpt lat="36.977099" lon="-122.081039"><ele>107.8</ele><time>2023-06-19T17:19:43Z</time></trkpt>
<trkpt lat="36.977006" lon="-122.081269"><ele>107.6</ele><time>2023-06-19T17:19:47Z</time></trkpt>
<trkpt lat="36.976973" lon="-122.081437"><ele>108.0</ele><time>2023-06-19T17:19:50Z</time></trkpt>
<trkpt lat="36.976996" lon="-122.081586"><ele>108.6</ele><time>2023-06-19T17:19:53Z</time></trkpt>
<trkpt lat="36.977044" lon="-122.081672"><ele>108.8</ele><time>2023-06-19T17:19:55Z</time></trkpt>
<trkpt lat="36.977239" lon="-122.081806"><ele>109.0</ele><time>2023-06-19T17:20:01Z</time></trkpt>
<trkpt lat="36.977814" lon="-122.081803"><ele>109.6</ele><time>2023-06-19T17:20:14Z</time></trkpt>
<trkpt lat="36.977861" lon="-122.081874"><ele>109.4</ele><time>2023-06-19T17:20:16Z</time></trkpt>
<trkpt lat="36.977835" lon="-122.081973"><ele>109.2</ele><time>2023-06-19T17:20:18Z</time></trkpt>
<trkpt lat="36.977662" lon="-122.082108"><ele>108.0</ele><time>2023-06-19T17:20:22Z</time></trkpt>
<trkpt lat="36.977418" lon="-122.082462"><ele>107.0</ele><time>2023-06-19T17:20:28Z</time></trkpt>
<trkpt lat="36.977283" lon="-122.082600"><ele>107.0</ele><time>2023-06-19T17:20:31Z</time></trkpt>
<trkpt lat="36.977063" lon="-122.082981"><ele>107.8</ele><time>2023-06-19T17:20:40Z</time></trkpt>
<trkpt lat="36.977048" lon="-122.083121"><ele>108.6</ele><time>2023-06-19T17:20:45Z</time></trkpt>
<trkpt lat="36.977128" lon="-122.083369"><ele>110.8</ele><time>2023-06-19T17:20:57Z</time></trkpt>
<trkpt lat="36.977208" lon="-122.083468"><ele>111.0</ele><time>2023-06-19T17:21:03Z</time></trkpt>
<trkpt lat="36.977618" lon="-122.083559"><ele>112.4</ele><time>2023-06-19T17:21:19Z</time></trkpt>
<trkpt lat="36.977751" lon="-122.083477"><ele>113.0</ele><time>2023-06-19T17:21:25Z</time></trkpt>
<trkpt lat="36.977925" lon="-122.083269"><ele>114.0</ele><time>2023-06-19T17:21:35Z</time></trkpt>
<trkpt lat="36.978124" lon="-122.083195"><ele>115.2</ele><time>2023-06-19T17:21:44Z</time></trkpt>
<trkpt lat="36.978351" lon="-122.083216"><ele>116.8</ele><time>2023-06-19T17:21:55Z</time></trkpt>
<trkpt lat="36.978495" lon="-122.083336"><ele>117.6</ele><time>2023-06-19T17:22:03Z</time></trkpt>
<trkpt lat="36.978594" lon="-122.083357"><ele>117.8</ele><time>2023-06-19T17:22:07Z</time></trkpt>
<trkpt lat="36.978752" lon="-122.083167"><ele>117.6</ele><time>2023-06-19T17:22:15Z</time></trkpt>
<trkpt lat="36.979082" lon="-122.083073"><ele>117.8</ele><time>2023-06-19T17:22:25Z</time></trkpt>
<trkpt lat="36.979261" lon="-122.083052"><ele>120.4</ele><time>2023-06-19T17:22:34Z</time></trkpt>
<trkpt lat="36.979326" lon="-122.082987"><ele>121.6</ele><time>2023-06-19T17:22:39Z</time></trkpt>
<trkpt lat="36.979373" lon="-122.082878"><ele>122.6</ele><time>2023-06-19T17:22:45Z</time></trkpt>
<trkpt lat="36.979443" lon="-122.082285"><ele>124.8</ele><time>2023-06-19T17:23:09Z</time></trkpt>
<trkpt lat="36.979563" lon="-122.081933"><ele>126.8</ele><time>2023-06-19T17:23:25Z</time></trkpt>
<trkpt lat="36.979751" lon="-122.082858"><ele>132.4</ele><time>2023-06-19T17:24:01Z</time></trkpt>
<trkpt lat="36.979855" lon="-122.083040"><ele>133.2</ele><time>2023-06-19T17:24:09Z</time></trkpt>
<trkpt lat="36.980035" lon="-122.083115"><ele>135.6</ele><time>2023-06-19T17:24:20Z</time></trkpt>
<trkpt lat="36.980221" lon="-122.083317"><ele>137.2</ele><time>2023-06-19T17:24:31Z</time></trkpt>
<trkpt lat="36.980601" lon="-122.083453"><ele>138.8</ele><time>2023-06-19T17:24:47Z</time></trkpt>
<trkpt lat="36.980743" lon="-122.083554"><ele>140.4</ele><time>2023-06-19T17:24:54Z</time></trkpt>
<trkpt lat="36.980850" lon="-122.083551"><ele>141.0</ele><time>2023-06-19T17:24:59Z</time></trkpt>
<trkpt lat="36.980852" lon="-122.083510"><ele>141.4</ele><time>2023-06-19T17:25:01Z</time></trkpt>
<trkpt lat="36.980714" lon="-122.083368"><ele>142.8</ele><time>2023-06-19T17:25:11Z</time></trkpt>
<trkpt lat="36.980552" lon="-122.083253"><ele>142.6</ele><time>2023-06-19T17:25:17Z</time></trkpt>
<trkpt lat="36.980413" lon="-122.083206"><ele>142.6</ele><time>2023-06-19T17:25:21Z</time></trkpt>
<trkpt lat="36.980323" lon="-122.083115"><ele>143.0</ele><time>2023-06-19T17:25:24Z</time></trkpt>
<trkpt lat="36.980271" lon="-122.082986"><ele>143.4</ele><time>2023-06-19T17:25:27Z</time></trkpt>
<trkpt lat="36.980243" lon="-122.082754"><ele>143.8</ele><time>2023-06-19T17:25:32Z</time></trkpt>
<trkpt lat="36.980261" lon="-122.082439"><ele>144.4</ele><time>2023-06-19T17:25:39Z</time></trkpt>
<trkpt lat="36.980362" lon="-122.082174"><ele>146.4</ele><time>2023-06-19T17:25:47Z</time></trkpt>
<trkpt lat="36.980689" lon="-122.081512"><ele>151.2</ele><time>2023-06-19T17:26:15Z</time></trkpt>
<trkpt lat="36.980909" lon="-122.081259"><ele>153.0</ele><time>2023-06-19T17:26:30Z</time></trkpt>
<trkpt lat="36.981142" lon="-122.080882"><ele>153.0</ele><time>2023-06-19T17:26:42Z</time></trkpt>
<trkpt lat="36.981288" lon="-122.080789"><ele>153.2</ele><time>2023-06-19T17:26:47Z</time></trkpt>
<trkpt lat="36.981835" lon="-122.080768"><ele>157.8</ele><time>2023-06-19T17:27:12Z</time></trkpt>
<trkpt lat="36.981977" lon="-122.080613"><ele>158.2</ele><time>2023-06-19T17:27:22Z</time></trkpt>
<trkpt lat="36.981898" lon="-122.080281"><ele>158.8</ele><time>2023-06-19T17:28:14Z</time></trkpt>
<trkpt lat="36.981789" lon="-122.080083"><ele>159.4</ele><time>2023-06-19T17:28:30Z</time></trkpt>
<trkpt lat="36.981860" lon="-122.080178"><ele>159.2</ele><time>2023-06-19T17:30:11Z</time></trkpt>
<trkpt lat="36.981917" lon="-122.080343"><ele>158.6</ele><time>2023-06-19T17:30:17Z</time></trkpt>
<trkpt lat="36.981955" lon="-122.080668"><ele>158.6</ele><time>2023-06-19T17:30:24Z</time></trkpt>
<trkpt lat="36.982096" lon="-122.080793"><ele>159.0</ele><time>2023-06-19T17:30:29Z</time></trkpt>
<trkpt lat="36.982213" lon="-122.080979"><ele>161.0</ele><time>2023-06-19T17:30:35Z</time></trkpt>
<trkpt lat="36.982406" lon="-122.081377"><ele>160.4</ele><time>2023-06-19T17:30:44Z</time></trkpt>
<trkpt lat="36.982554" lon="-122.081806"><ele>156.6</ele><time>2023-06-19T17:30:49Z</time></trkpt>
<trkpt lat="36.982522" lon="-122.081963"><ele>155.8</ele><time>2023-06-19T17:30:51Z</time></trkpt>
<trkpt lat="36.982089" lon="-122.082530"><ele>152.0</ele><time>2023-06-19T17:31:01Z</time></trkpt>
<trkpt lat="36.982037" lon="-122.082661"><ele>151.4</ele><time>2023-06-19T17:31:03Z</time></trkpt>
<trkpt lat="36.981936" lon="-122.082999"><ele>151.6</ele><time>2023-06-19T17:31:08Z</time></trkpt>
<trkpt lat="36.981886" lon="-122.083421"><ele>151.2</ele><time>2023-06-19T17:31:15Z</time></trkpt>
<trkpt lat="36.981823" lon="-122.083650"><ele>149.8</ele><time>2023-06-19T17:31:19Z</time></trkpt>
<trkpt lat="36.981822" lon="-122.083854"><ele>149.6</ele><time>2023-06-19T17:31:22Z</time></trkpt>
<trkpt lat="36.981846" lon="-122.083905"><ele>149.8</ele><time>2023-06-19T17:31:23Z</time></trkpt>
<trkpt lat="36.981911" lon="-122.083916"><ele>150.2</ele><time>2023-06-19T17:31:25Z</time></trkpt>
<trkpt lat="36.982128" lon="-122.083817"><ele>153.2</ele><time>2023-06-19T17:31:34Z</time></trkpt>
<trkpt lat="36.982340" lon="-122.083775"><ele>155.4</ele><time>2023-06-19T17:31:45Z</time></trkpt>
<trkpt lat="36.982638" lon="-122.083795"><ele>156.6</ele><time>2023-06-19T17:31:57Z</time></trkpt>
<trkpt lat="36.982886" lon="-122.083855"><ele>156.8</ele><time>2023-06-19T17:32:03Z</time></trkpt>
<trkpt lat="36.983165" lon="-122.084062"><ele>159.4</ele><time>2023-06-19T17:32:15Z</time></trkpt>
<trkpt lat="36.983676" lon="-122.084193"><ele>160.2</ele><time>2023-06-19T17:32:29Z</time></trkpt>
<trkpt lat="36.983817" lon="-122.084291"><ele>162.2</ele><time>2023-06-19T17:32:37Z</time></trkpt>
<trkpt lat="36.983987" lon="-122.084327"><ele>164.8</ele><time>2023-06-19T17:32:46Z</time></trkpt>
<trkpt lat="36.984229" lon="-122.084282"><ele>166.0</ele><time>2023-06-19T17:32:57Z</time></trkpt>
<trkpt lat="36.984802" lon="-122.084089"><ele>169.4</ele><time>2023-06-19T17:33:21Z</time></trkpt>
<trkpt lat="36.985207" lon="-122.083827"><ele>174.2</ele><time>2023-06-19T17:33:46Z</time></trkpt>
<trkpt lat="36.985247" lon="-122.083843"><ele>174.6</ele><time>2023-06-19T17:33:50Z</time></trkpt>
<trkpt lat="36.985278" lon="-122.083965"><ele>174.8</ele><time>2023-06-19T17:34:54Z</time></trkpt>
<trkpt lat="36.985320" lon="-122.083990"><ele>175.0</ele><time>2023-06-19T17:34:59Z</time></trkpt>
<trkpt lat="36.985458" lon="-122.084036"><ele>175.0</ele><time>2023-06-19T17:35:06Z</time></trkpt>
<trkpt lat="36.985615" lon="-122.084015"><ele>174.8</ele><time>2023-06-19T17:35:10Z</time></trkpt>
<trkpt lat="36.985928" lon="-122.083838"><ele>172.2</ele><time>2023-06-19T17:35:16Z</time></trkpt>
<trkpt lat="36.986065" lon="-122.083660"><ele>170.0</ele><time>2023-06-19T17:35:19Z</time></trkpt>
<trkpt lat="36.986231" lon="-122.083529"><ele>167.2</ele><time>2023-06-19T17:35:22Z</time></trkpt>
<trkpt lat="36.986308" lon="-122.083313"><ele>164.8</ele><time>2023-06-19T17:35:26Z</time></trkpt>
<trkpt lat="36.986594" lon="-122.083098"><ele>159.0</ele><time>2023-06-19T17:35:33Z</time></trkpt>
<trkpt lat="36.986611" lon="-122.083139"><ele>157.8</ele><time>2023-06-19T17:35:35Z</time></trkpt>
<trkpt lat="36.986596" lon="-122.083231"><ele>158.0</ele><time>2023-06-19T17:35:38Z</time></trkpt>
<trkpt lat="36.986403" lon="-122.083694"><ele>155.0</ele><time>2023-06-19T17:35:47Z</time></trkpt>
<trkpt lat="36.986359" lon="-122.083926"><ele>152.2</ele><time>2023-06-19T17:35:51Z</time></trkpt>
<trkpt lat="36.986431" lon="-122.084150"><ele>148.6</ele><time>2023-06-19T17:35:54Z</time></trkpt>
<trkpt lat="36.986570" lon="-122.084336"><ele>145.0</ele><time>2023-06-19T17:35:57Z</time></trkpt>
<trkpt lat="36.986595" lon="-122.084633"><ele>141.8</ele><time>2023-06-19T17:36:02Z</time></trkpt>
<trkpt lat="36.986814" lon="-122.084757"><ele>136.4</ele><time>2023-06-19T17:36:06Z</time></trkpt>
<trkpt lat="36.986953" lon="-122.085079"><ele>134.4</ele><time>2023-06-19T17:36:10Z</time></trkpt>
<trkpt lat="36.987056" lon="-122.085154"><ele>134.2</ele><time>2023-06-19T17:36:12Z</time></trkpt>
<trkpt lat="36.987313" lon="-122.085148"><ele>133.2</ele><time>2023-06-19T17:36:16Z</time></trkpt>
<trkpt lat="36.987792" lon="-122.084940"><ele>133.6</ele><time>2023-06-19T17:36:25Z</time></trkpt>
<trkpt lat="36.987940" lon="-122.084963"><ele>132.0</ele><time>2023-06-19T17:36:27Z</time></trkpt>
<trkpt lat="36.988078" lon="-122.085042"><ele>127.8</ele><time>2023-06-19T17:36:30Z</time></trkpt>
<trkpt lat="36.988140" lon="-122.085190"><ele>125.0</ele><time>2023-06-19T17:36:35Z</time></trkpt>
<trkpt lat="36.988213" lon="-122.085167"><ele>125.2</ele><time>2023-06-19T17:36:39Z</time></trkpt>
<trkpt lat="36.988362" lon="-122.085323"><ele>128.0</ele><time>2023-06-19T17:36:49Z</time></trkpt>
<trkpt lat="36.988484" lon="-122.085313"><ele>129.2</ele><time>2023-06-19T17:36:55Z</time></trkpt>
<trkpt lat="36.988506" lon="-122.085341"><ele>129.6</ele><time>2023-06-19T17:36:57Z</time></trkpt>
<trkpt lat="36.987874" lon="-122.085478"><ele>137.0</ele><time>2023-06-19T17:37:33Z</time></trkpt>
<trkpt lat="36.987759" lon="-122.085576"><ele>138.6</ele><time>2023-06-19T17:37:42Z</time></trkpt>
<trkpt lat="36.987710" lon="-122.085751"><ele>140.8</ele><time>2023-06-19T17:37:52Z</time></trkpt>
<trkpt lat="36.987637" lon="-122.085844"><ele>141.8</ele><time>2023-06-19T17:37:58Z</time></trkpt>
<trkpt lat="36.987370" lon="-122.085995"><ele>145.0</ele><time>2023-06-19T17:38:15Z</time></trkpt>
<trkpt lat="36.987080" lon="-122.086090"><ele>148.0</ele><time>2023-06-19T17:38:32Z</time></trkpt>
<trkpt lat="36.986885" lon="-122.086239"><ele>149.2</ele><time>2023-06-19T17:38:45Z</time></trkpt>
<trkpt lat="36.986751" lon="-122.086266"><ele>150.4</ele><time>2023-06-19T17:38:51Z</time></trkpt>
<trkpt lat="36.986537" lon="-122.086237"><ele>152.2</ele><time>2023-06-19T17:39:01Z</time></trkpt>
<trkpt lat="36.986432" lon="-122.086282"><ele>153.4</ele><time>2023-06-19T17:39:07Z</time></trkpt>
<trkpt lat="36.986352" lon="-122.086448"><ele>156.6</ele><time>2023-06-19T17:39:18Z</time></trkpt>
<trkpt lat="36.986363" lon="-122.086572"><ele>157.8</ele><time>2023-06-19T17:39:24Z</time></trkpt>
<trkpt lat="36.986546" lon="-122.086773"><ele>163.2</ele><time>2023-06-19T17:39:41Z</time></trkpt>
<trkpt lat="36.986709" lon="-122.086995"><ele>165.6</ele><time>2023-06-19T17:39:58Z</time></trkpt>
<trkpt lat="36.986854" lon="-122.087046"><ele>167.2</ele><time>2023-06-19T17:40:07Z</time></trkpt>
<trkpt lat="36.986931" lon="-122.087022"><ele>168.8</ele><time>2023-06-19T17:40:12Z</time></trkpt>
<trkpt lat="36.986983" lon="-122.087077"><ele>169.2</ele><time>2023-06-19T17:40:16Z</time></trkpt>
<trkpt lat="36.987054" lon="-122.087056"><ele>170.0</ele><time>2023-06-19T17:40:21Z</time></trkpt>
<trkpt lat="36.987190" lon="-122.087109"><ele>172.2</ele><time>2023-06-19T17:40:32Z</time></trkpt>
<trkpt lat="36.987326" lon="-122.087030"><ele>173.6</ele><time>2023-06-19T17:40:41Z</time></trkpt>
<trkpt lat="36.987445" lon="-122.087044"><ele>173.8</ele><time>2023-06-19T17:40:47Z</time></trkpt>
<trkpt lat="36.987649" lon="-122.087007"><ele>173.0</ele><time>2023-06-19T17:40:53Z</time></trkpt>
<trkpt lat="36.987909" lon="-122.086778"><ele>172.4</ele><time>2023-06-19T17:41:01Z</time></trkpt>
<trkpt lat="36.988215" lon="-122.086675"><ele>177.0</ele><time>2023-06-19T17:41:17Z</time></trkpt>
<trkpt lat="36.988267" lon="-122.086572"><ele>179.0</ele><time>2023-06-19T17:41:23Z</time></trkpt>
<trkpt lat="36.988420" lon="-122.086531"><ele>181.4</ele><time>2023-06-19T17:41:35Z</time></trkpt>
<trkpt lat="36.988589" lon="-122.086539"><ele>180.6</ele><time>2023-06-19T17:43:08Z</time></trkpt>
<trkpt lat="36.988945" lon="-122.086614"><ele>179.8</ele><time>2023-06-19T17:43:17Z</time></trkpt>
<trkpt lat="36.989051" lon="-122.086688"><ele>181.8</ele><time>2023-06-19T17:43:21Z</time></trkpt>
<trkpt lat="36.989333" lon="-122.086780"><ele>184.6</ele><time>2023-06-19T17:43:32Z</time></trkpt>
<trkpt lat="36.989690" lon="-122.086782"><ele>185.2</ele><time>2023-06-19T17:43:45Z</time></trkpt>
<trkpt lat="36.989832" lon="-122.086859"><ele>186.4</ele><time>2023-06-19T17:43:52Z</time></trkpt>
<trkpt lat="36.989954" lon="-122.086851"><ele>188.0</ele><time>2023-06-19T17:43:59Z</time></trkpt>
<trkpt lat="36.990127" lon="-122.087030"><ele>191.4</ele><time>2023-06-19T17:44:13Z</time></trkpt>
<trkpt lat="36.990227" lon="-122.087089"><ele>192.2</ele><time>2023-06-19T17:44:20Z</time></trkpt>
<trkpt lat="36.990523" lon="-122.087094"><ele>192.2</ele><time>2023-06-19T17:44:32Z</time></trkpt>
<trkpt lat="36.990865" lon="-122.087193"><ele>194.8</ele><time>2023-06-19T17:44:51Z</time></trkpt>
<trkpt lat="36.991105" lon="-122.087196"><ele>198.2</ele><time>2023-06-19T17:45:06Z</time></trkpt>
<trkpt lat="36.991565" lon="-122.087255"><ele>200.2</ele><time>2023-06-19T17:45:26Z</time></trkpt>
<trkpt lat="36.991684" lon="-122.087345"><ele>200.6</ele><time>2023-06-19T17:45:32Z</time></trkpt>
<trkpt lat="36.991843" lon="-122.087588"><ele>200.4</ele><time>2023-06-19T17:45:40Z</time></trkpt>
<trkpt lat="36.991740" lon="-122.087788"><ele>200.2</ele><time>2023-06-19T17:45:45Z</time></trkpt>
<trkpt lat="36.991454" lon="-122.088132"><ele>204.4</ele><time>2023-06-19T17:46:06Z</time></trkpt>
<trkpt lat="36.990734" lon="-122.087949"><ele>199.4</ele><time>2023-06-19T17:46:19Z</time></trkpt>
<trkpt lat="36.990590" lon="-122.087996"><ele>198.8</ele><time>2023-06-19T17:46:21Z</time></trkpt>
<trkpt lat="36.990427" lon="-122.088198"><ele>197.2</ele><time>2023-06-19T17:46:24Z</time></trkpt>
<trkpt lat="36.990312" lon="-122.088259"><ele>195.6</ele><time>2023-06-19T17:46:26Z</time></trkpt>
<trkpt lat="36.990100" lon="-122.088198"><ele>194.0</ele><time>2023-06-19T17:46:30Z</time></trkpt>
<trkpt lat="36.989777" lon="-122.088047"><ele>193.8</ele><time>2023-06-19T17:46:36Z</time></trkpt>
<trkpt lat="36.989559" lon="-122.088014"><ele>193.8</ele><time>2023-06-19T17:46:40Z</time></trkpt>
<trkpt lat="36.989374" lon="-122.088075"><ele>193.2</ele><time>2023-06-19T17:46:43Z</time></trkpt>
<trkpt lat="36.989025" lon="-122.088327"><ele>189.6</ele><time>2023-06-19T17:46:48Z</time></trkpt>
<trkpt lat="36.988708" lon="-122.088508"><ele>188.4</ele><time>2023-06-19T17:46:52Z</time></trkpt>
<trkpt lat="36.988310" lon="-122.088679"><ele>184.8</ele><time>2023-06-19T17:46:57Z</time></trkpt>
<trkpt lat="36.988165" lon="-122.088789"><ele>184.4</ele><time>2023-06-19T17:46:59Z</time></trkpt>
<trkpt lat="36.987992" lon="-122.089132"><ele>183.0</ele><time>2023-06-19T17:47:03Z</time></trkpt>
<trkpt lat="36.988019" lon="-122.089299"><ele>183.0</ele><time>2023-06-19T17:47:06Z</time></trkpt>
<trkpt lat="36.988108" lon="-122.089421"><ele>183.6</ele><time>2023-06-19T17:47:11Z</time></trkpt>
<trkpt lat="36.988090" lon="-122.089676"><ele>183.8</ele><time>2023-06-19T17:47:20Z</time></trkpt>
<trkpt lat="36.988001" lon="-122.089904"><ele>184.6</ele><time>2023-06-19T17:47:28Z</time></trkpt>
<trkpt lat="36.987842" lon="-122.090022"><ele>185.0</ele><time>2023-06-19T17:47:34Z</time></trkpt>
<trkpt lat="36.987808" lon="-122.090126"><ele>184.8</ele><time>2023-06-19T17:47:36Z</time></trkpt>
<trkpt lat="36.988028" lon="-122.090509"><ele>181.2</ele><time>2023-06-19T17:47:43Z</time></trkpt>
<trkpt lat="36.988113" lon="-122.090565"><ele>179.0</ele><time>2023-06-19T17:47:45Z</time></trkpt>
<trkpt lat="36.988392" lon="-122.090653"><ele>175.6</ele><time>2023-06-19T17:47:50Z</time></trkpt>
<trkpt lat="36.988585" lon="-122.090489"><ele>172.2</ele><time>2023-06-19T17:47:55Z</time></trkpt>
<trkpt lat="36.988857" lon="-122.090330"><ele>168.4</ele><time>2023-06-19T17:48:00Z</time></trkpt>
<trkpt lat="36.989096" lon="-122.090444"><ele>165.0</ele><time>2023-06-19T17:48:05Z</time></trkpt>
<trkpt lat="36.989302" lon="-122.090383"><ele>164.0</ele><time>2023-06-19T17:48:16Z</time></trkpt>
<trkpt lat="36.989372" lon="-122.090437"><ele>162.0</ele><time>2023-06-19T17:48:28Z</time></trkpt>
<trkpt lat="36.989300" lon="-122.090489"><ele>161.4</ele><time>2023-06-19T17:48:39Z</time></trkpt>
<trkpt lat="36.989201" lon="-122.090678"><ele>167.0</ele><time>2023-06-19T17:50:58Z</time></trkpt>
<trkpt lat="36.989113" lon="-122.090763"><ele>170.0</ele><time>2023-06-19T17:51:06Z</time></trkpt>
<trkpt lat="36.988906" lon="-122.091133"><ele>169.2</ele><time>2023-06-19T17:51:19Z</time></trkpt>
<trkpt lat="36.988748" lon="-122.091184"><ele>170.4</ele><time>2023-06-19T17:51:25Z</time></trkpt>
<trkpt lat="36.988617" lon="-122.091279"><ele>172.0</ele><time>2023-06-19T17:51:31Z</time></trkpt>
<trkpt lat="36.988350" lon="-122.091337"><ele>173.8</ele><time>2023-06-19T17:51:41Z</time></trkpt>
<trkpt lat="36.988179" lon="-122.091440"><ele>174.8</ele><time>2023-06-19T17:51:48Z</time></trkpt>
<trkpt lat="36.987954" lon="-122.091520"><ele>176.2</ele><time>2023-06-19T17:51:57Z</time></trkpt>
<trkpt lat="36.987552" lon="-122.091803"><ele>177.8</ele><time>2023-06-19T17:52:15Z</time></trkpt>
<trkpt lat="36.987267" lon="-122.091690"><ele>179.6</ele><time>2023-06-19T17:52:30Z</time></trkpt>
<trkpt lat="36.987197" lon="-122.091706"><ele>180.2</ele><time>2023-06-19T17:52:33Z</time></trkpt>
<trkpt lat="36.987155" lon="-122.091769"><ele>180.8</ele><time>2023-06-19T17:52:36Z</time></trkpt>
<trkpt lat="36.987176" lon="-122.091874"><ele>181.6</ele><time>2023-06-19T17:52:40Z</time></trkpt>
<trkpt lat="36.987388" lon="-122.092249"><ele>181.4</ele><time>2023-06-19T17:52:50Z</time></trkpt>
<trkpt lat="36.987547" lon="-122.092612"><ele>181.4</ele><time>2023-06-19T17:52:58Z</time></trkpt>
<trkpt lat="36.987678" lon="-122.093128"><ele>181.0</ele><time>2023-06-19T17:53:06Z</time></trkpt>
<trkpt lat="36.987774" lon="-122.093879"><ele>179.2</ele><time>2023-06-19T17:53:16Z</time></trkpt>
<trkpt lat="36.987928" lon="-122.094225"><ele>178.2</ele><time>2023-06-19T17:53:21Z</time></trkpt>
<trkpt lat="36.988319" lon="-122.094858"><ele>172.8</ele><time>2023-06-19T17:53:30Z</time></trkpt>
<trkpt lat="36.988511" lon="-122.095448"><ele>168.8</ele><time>2023-06-19T17:53:37Z</time></trkpt>
<trkpt lat="36.988619" lon="-122.095595"><ele>166.8</ele><time>2023-06-19T17:53:41Z</time></trkpt>
<trkpt lat="36.988581" lon="-122.095643"><ele>165.6</ele><time>2023-06-19T17:53:44Z</time></trkpt>
<trkpt lat="36.988316" lon="-122.095615"><ele>163.2</ele><time>2023-06-19T17:53:55Z</time></trkpt>
<trkpt lat="36.988271" lon="-122.095646"><ele>163.6</ele><time>2023-06-19T17:53:58Z</time></trkpt>
<trkpt lat="36.988266" lon="-122.095698"><ele>164.0</ele><time>2023-06-19T17:54:00Z</time></trkpt>
<trkpt lat="36.988291" lon="-122.095758"><ele>165.0</ele><time>2023-06-19T17:54:03Z</time></trkpt>
<trkpt lat="36.988335" lon="-122.095783"><ele>167.4</ele><time>2023-06-19T17:54:07Z</time></trkpt>
<trkpt lat="36.988343" lon="-122.095926"><ele>169.0</ele><time>2023-06-19T17:54:13Z</time></trkpt>
<trkpt lat="36.988433" lon="-122.096283"><ele>170.8</ele><time>2023-06-19T17:54:29Z</time></trkpt>
<trkpt lat="36.988918" lon="-122.097214"><ele>175.4</ele><time>2023-06-19T17:55:11Z</time></trkpt>
<trkpt lat="36.989162" lon="-122.097903"><ele>177.4</ele><time>2023-06-19T17:55:37Z</time></trkpt>
<trkpt lat="36.989424" lon="-122.098961"><ele>179.6</ele><time>2023-06-19T17:56:07Z</time></trkpt>
<trkpt lat="36.989470" lon="-122.099357"><ele>179.4</ele><time>2023-06-19T17:56:19Z</time></trkpt>
<trkpt lat="36.989574" lon="-122.099833"><ele>180.2</ele><time>2023-06-19T17:56:35Z</time></trkpt>
<trkpt lat="36.989492" lon="-122.100237"><ele>180.8</ele><time>2023-06-19T17:56:46Z</time></trkpt>
<trkpt lat="36.989207" lon="-122.100644"><ele>178.8</ele><time>2023-06-19T17:58:19Z</time></trkpt>
<trkpt lat="36.989187" lon="-122.100730"><ele>178.8</ele><time>2023-06-19T17:58:21Z</time></trkpt>
<trkpt lat="36.989283" lon="-122.101546"><ele>179.4</ele><time>2023-06-19T17:58:39Z</time></trkpt>
<trkpt lat="36.989235" lon="-122.101838"><ele>182.0</ele><time>2023-06-19T17:58:46Z</time></trkpt>
<trkpt lat="36.989271" lon="-122.102136"><ele>181.4</ele><time>2023-06-19T17:58:53Z</time></trkpt>
<trkpt lat="36.989235" lon="-122.102389"><ele>183.0</ele><time>2023-06-19T17:59:01Z</time></trkpt>
<trkpt lat="36.989174" lon="-122.102499"><ele>183.6</ele><time>2023-06-19T17:59:05Z</time></trkpt>
<trkpt lat="36.989028" lon="-122.102606"><ele>184.4</ele><time>2023-06-19T17:59:12Z</time></trkpt>
<trkpt lat="36.988959" lon="-122.102749"><ele>185.0</ele><time>2023-06-19T17:59:17Z</time></trkpt>
<trkpt lat="36.988739" lon="-122.102960"><ele>185.4</ele><time>2023-06-19T17:59:25Z</time></trkpt>
<trkpt lat="36.988675" lon="-122.103065"><ele>185.6</ele><time>2023-06-19T17:59:28Z</time></trkpt>
<trkpt lat="36.988573" lon="-122.103701"><ele>189.4</ele><time>2023-06-19T17:59:48Z</time></trkpt>
<trkpt lat="36.988485" lon="-122.103790"><ele>189.6</ele><time>2023-06-19T17:59:52Z</time></trkpt>
<trkpt lat="36.988248" lon="-122.103866"><ele>192.0</ele><time>2023-06-19T18:00:02Z</time></trkpt>
<trkpt lat="36.988060" lon="-122.103999"><ele>192.8</ele><time>2023-06-19T18:00:10Z</time></trkpt>
<trkpt lat="36.987912" lon="-122.104199"><ele>193.8</ele><time>2023-06-19T18:00:19Z</time></trkpt>
<trkpt lat="36.987869" lon="-122.104348"><ele>194.8</ele><time>2023-06-19T18:00:26Z</time></trkpt>
<trkpt lat="36.987872" lon="-122.104548"><ele>196.0</ele><time>2023-06-19T18:00:35Z</time></trkpt>
<trkpt lat="36.987958" lon="-122.104788"><ele>195.8</ele><time>2023-06-19T18:00:45Z</time></trkpt>
<trkpt lat="36.988070" lon="-122.104884"><ele>195.6</ele><time>2023-06-19T18:00:49Z</time></trkpt>
<trkpt lat="36.988291" lon="-122.104990"><ele>194.0</ele><time>2023-06-19T18:00:54Z</time></trkpt>
<trkpt lat="36.988357" lon="-122.105083"><ele>193.8</ele><time>2023-06-19T18:00:56Z</time></trkpt>
<trkpt lat="36.988416" lon="-122.105616"><ele>192.6</ele><time>2023-06-19T18:01:04Z</time></trkpt>
<trkpt lat="36.988423" lon="-122.105869"><ele>191.0</ele><time>2023-06-19T18:01:07Z</time></trkpt>
<trkpt lat="36.988390" lon="-122.106032"><ele>189.8</ele><time>2023-06-19T18:01:09Z</time></trkpt>
<trkpt lat="36.988330" lon="-122.106173"><ele>189.6</ele><time>2023-06-19T18:01:11Z</time></trkpt>
<trkpt lat="36.988034" lon="-122.106585"><ele>191.4</ele><time>2023-06-19T18:01:20Z</time></trkpt>
<trkpt lat="36.987627" lon="-122.107515"><ele>192.6</ele><time>2023-06-19T18:01:38Z</time></trkpt>
<trkpt lat="36.987390" lon="-122.107921"><ele>192.4</ele><time>2023-06-19T18:01:46Z</time></trkpt>
<trkpt lat="36.986884" lon="-122.108532"><ele>193.6</ele><time>2023-06-19T18:02:01Z</time></trkpt>
<trkpt lat="36.986740" lon="-122.108781"><ele>194.4</ele><time>2023-06-19T18:02:08Z</time></trkpt>
<trkpt lat="36.986156" lon="-122.110058"><ele>191.2</ele><time>2023-06-19T18:02:40Z</time></trkpt>
<trkpt lat="36.986094" lon="-122.110247"><ele>188.2</ele><time>2023-06-19T18:04:58Z</time></trkpt>
<trkpt lat="36.986030" lon="-122.110611"><ele>187.6</ele><time>2023-06-19T18:05:07Z</time></trkpt>
<trkpt lat="36.986074" lon="-122.110777"><ele>187.8</ele><time>2023-06-19T18:05:10Z</time></trkpt>
<trkpt lat="36.986254" lon="-122.110853"><ele>189.2</ele><time>2023-06-19T18:05:15Z</time></trkpt>
<trkpt lat="36.986355" lon="-122.110859"><ele>189.2</ele><time>2023-06-19T18:05:17Z</time></trkpt>
<trkpt lat="36.986627" lon="-122.110755"><ele>188.2</ele><time>2023-06-19T18:05:22Z</time></trkpt>
<trkpt lat="36.986812" lon="-122.110782"><ele>186.4</ele><time>2023-06-19T18:05:26Z</time></trkpt>
<trkpt lat="36.986947" lon="-122.110700"><ele>185.4</ele><time>2023-06-19T18:05:29Z</time></trkpt>
<trkpt lat="36.987229" lon="-122.110311"><ele>176.4</ele><time>2023-06-19T18:05:40Z</time></trkpt>
<trkpt lat="36.987522" lon="-122.109835"><ele>167.8</ele><time>2023-06-19T18:05:49Z</time></trkpt>
<trkpt lat="36.987708" lon="-122.109386"><ele>159.2</ele><time>2023-06-19T18:05:57Z</time></trkpt>
<trkpt lat="36.987822" lon="-122.109194"><ele>156.6</ele><time>2023-06-19T18:06:00Z</time></trkpt>
<trkpt lat="36.987978" lon="-122.109062"><ele>151.6</ele><time>2023-06-19T18:06:04Z</time></trkpt>
<trkpt lat="36.988013" lon="-122.109082"><ele>149.2</ele><time>2023-06-19T18:06:06Z</time></trkpt>
<trkpt lat="36.988042" lon="-122.109424"><ele>145.8</ele><time>2023-06-19T18:06:13Z</time></trkpt>
<trkpt lat="36.988132" lon="-122.109594"><ele>142.6</ele><time>2023-06-19T18:06:25Z</time></trkpt>
<trkpt lat="36.988079" lon="-122.110307"><ele>142.2</ele><time>2023-06-19T18:07:01Z</time></trkpt>
<trkpt lat="36.988020" lon="-122.110416"><ele>144.0</ele><time>2023-06-19T18:07:06Z</time></trkpt>
<trkpt lat="36.987807" lon="-122.110661"><ele>146.2</ele><time>2023-06-19T18:07:19Z</time></trkpt>
<trkpt lat="36.987548" lon="-122.111065"><ele>143.6</ele><time>2023-06-19T18:07:28Z</time></trkpt>
<trkpt lat="36.987314" lon="-122.111398"><ele>145.0</ele><time>2023-06-19T18:07:40Z</time></trkpt>
<trkpt lat="36.987334" lon="-122.111446"><ele>144.4</ele><time>2023-06-19T18:07:42Z</time></trkpt>
<trkpt lat="36.987398" lon="-122.111438"><ele>143.6</ele><time>2023-06-19T18:07:44Z</time></trkpt>
<trkpt lat="36.987598" lon="-122.111296"><ele>140.0</ele><time>2023-06-19T18:07:48Z</time></trkpt>
<trkpt lat="36.988084" lon="-122.110740"><ele>139.8</ele><time>2023-06-19T18:08:00Z</time></trkpt>
<trkpt lat="36.988259" lon="-122.110590"><ele>138.2</ele><time>2023-06-19T18:08:03Z</time></trkpt>
<trkpt lat="36.988481" lon="-122.110214"><ele>130.2</ele><time>2023-06-19T18:08:08Z</time></trkpt>
<trkpt lat="36.988926" lon="-122.109962"><ele>123.6</ele><time>2023-06-19T18:08:14Z</time></trkpt>
<trkpt lat="36.989041" lon="-122.109673"><ele>119.6</ele><time>2023-06-19T18:08:18Z</time></trkpt>
<trkpt lat="36.989032" lon="-122.109538"><ele>118.6</ele><time>2023-06-19T18:08:20Z</time></trkpt>
<trkpt lat="36.989517" lon="-122.108944"><ele>110.0</ele><time>2023-06-19T18:08:29Z</time></trkpt>
<trkpt lat="36.989563" lon="-122.108787"><ele>109.4</ele><time>2023-06-19T18:08:31Z</time></trkpt>
<trkpt lat="36.989549" lon="-122.108655"><ele>109.6</ele><time>2023-06-19T18:08:33Z</time></trkpt>
<trkpt lat="36.989570" lon="-122.108607"><ele>109.6</ele><time>2023-06-19T18:08:34Z</time></trkpt>
<trkpt lat="36.989961" lon="-122.108097"><ele>110.0</ele><time>2023-06-19T18:08:45Z</time></trkpt>
<trkpt lat="36.990089" lon="-122.107821"><ele>113.8</ele><time>2023-06-19T18:08:57Z</time></trkpt>
<trkpt lat="36.990264" lon="-122.107160"><ele>118.2</ele><time>2023-06-19T18:09:22Z</time></trkpt>
<trkpt lat="36.990192" lon="-122.106910"><ele>120.8</ele><time>2023-06-19T18:09:34Z</time></trkpt>
<trkpt lat="36.990062" lon="-122.106629"><ele>121.2</ele><time>2023-06-19T18:09:44Z</time></trkpt>
<trkpt lat="36.990075" lon="-122.106541"><ele>120.6</ele><time>2023-06-19T18:09:46Z</time></trkpt>
<trkpt lat="36.990098" lon="-122.106516"><ele>120.4</ele><time>2023-06-19T18:09:47Z</time></trkpt>
<trkpt lat="36.990229" lon="-122.106540"><ele>121.0</ele><time>2023-06-19T18:09:53Z</time></trkpt>
<trkpt lat="36.990378" lon="-122.106617"><ele>121.6</ele><time>2023-06-19T18:09:59Z</time></trkpt>
<trkpt lat="36.990537" lon="-122.106557"><ele>121.8</ele><time>2023-06-19T18:10:04Z</time></trkpt>
<trkpt lat="36.990731" lon="-122.106258"><ele>122.6</ele><time>2023-06-19T18:10:12Z</time></trkpt>
<trkpt lat="36.990787" lon="-122.106047"><ele>123.0</ele><time>2023-06-19T18:10:17Z</time></trkpt>
<trkpt lat="36.990852" lon="-122.105930"><ele>123.8</ele><time>2023-06-19T18:10:20Z</time></trkpt>
<trkpt lat="36.990836" lon="-122.105862"><ele>124.8</ele><time>2023-06-19T18:10:23Z</time></trkpt>
<trkpt lat="36.990767" lon="-122.105918"><ele>126.6</ele><time>2023-06-19T18:10:29Z</time></trkpt>
<trkpt lat="36.990657" lon="-122.105946"><ele>127.0</ele><time>2023-06-19T18:10:35Z</time></trkpt>
<trkpt lat="36.990591" lon="-122.106076"><ele>128.6</ele><time>2023-06-19T18:10:42Z</time></trkpt>
<trkpt lat="36.990499" lon="-122.106167"><ele>130.2</ele><time>2023-06-19T18:10:48Z</time></trkpt>
<trkpt lat="36.990411" lon="-122.106183"><ele>130.8</ele><time>2023-06-19T18:10:52Z</time></trkpt>
<trkpt lat="36.990372" lon="-122.106134"><ele>130.8</ele><time>2023-06-19T18:10:54Z</time></trkpt>
<trkpt lat="36.990355" lon="-122.105912"><ele>131.8</ele><time>2023-06-19T18:11:03Z</time></trkpt>
<trkpt lat="36.990523" lon="-122.105732"><ele>133.4</ele><time>2023-06-19T18:11:13Z</time></trkpt>
<trkpt lat="36.990635" lon="-122.105375"><ele>134.0</ele><time>2023-06-19T18:11:23Z</time></trkpt>
<trkpt lat="36.990791" lon="-122.105072"><ele>135.6</ele><time>2023-06-19T18:11:32Z</time></trkpt>
<trkpt lat="36.990801" lon="-122.104916"><ele>136.4</ele><time>2023-06-19T18:11:37Z</time></trkpt>
<trkpt lat="36.990743" lon="-122.104687"><ele>139.8</ele><time>2023-06-19T18:11:50Z</time></trkpt>
<trkpt lat="36.990891" lon="-122.104431"><ele>141.6</ele><time>2023-06-19T18:12:03Z</time></trkpt>
<trkpt lat="36.991005" lon="-122.104428"><ele>142.6</ele><time>2023-06-19T18:12:08Z</time></trkpt>
<trkpt lat="36.991086" lon="-122.104629"><ele>142.6</ele><time>2023-06-19T18:12:15Z</time></trkpt>
<trkpt lat="36.991183" lon="-122.104674"><ele>142.8</ele><time>2023-06-19T18:12:18Z</time></trkpt>
<trkpt lat="36.991466" lon="-122.104608"><ele>144.4</ele><time>2023-06-19T18:12:32Z</time></trkpt>
<trkpt lat="36.991782" lon="-122.104414"><ele>144.6</ele><time>2023-06-19T18:12:42Z</time></trkpt>
<trkpt lat="36.991896" lon="-122.104373"><ele>146.0</ele><time>2023-06-19T18:12:46Z</time></trkpt>
<trkpt lat="36.991994" lon="-122.104374"><ele>146.2</ele><time>2023-06-19T18:12:49Z</time></trkpt>
<trkpt lat="36.992255" lon="-122.104627"><ele>148.2</ele><time>2023-06-19T18:13:03Z</time></trkpt>
<trkpt lat="36.992339" lon="-122.104633"><ele>148.2</ele><time>2023-06-19T18:13:09Z</time></trkpt>
<trkpt lat="36.992404" lon="-122.104571"><ele>148.2</ele><time>2023-06-19T18:13:13Z</time></trkpt>
<trkpt lat="36.992402" lon="-122.104369"><ele>149.2</ele><time>2023-06-19T18:13:20Z</time></trkpt>
<trkpt lat="36.992327" lon="-122.104094"><ele>151.8</ele><time>2023-06-19T18:13:31Z</time></trkpt>
<trkpt lat="36.992195" lon="-122.104077"><ele>153.4</ele><time>2023-06-19T18:13:40Z</time></trkpt>
<trkpt lat="36.992003" lon="-122.103849"><ele>155.0</ele><time>2023-06-19T18:13:53Z</time></trkpt>
<trkpt lat="36.991792" lon="-122.103861"><ele>156.6</ele><time>2023-06-19T18:14:05Z</time></trkpt>
<trkpt lat="36.991545" lon="-122.103760"><ele>158.8</ele><time>2023-06-19T18:14:19Z</time></trkpt>
<trkpt lat="36.991399" lon="-122.103543"><ele>159.6</ele><time>2023-06-19T18:14:30Z</time></trkpt>
<trkpt lat="36.991372" lon="-122.103375"><ele>160.0</ele><time>2023-06-19T18:14:37Z</time></trkpt>
<trkpt lat="36.991060" lon="-122.103384"><ele>161.4</ele><time>2023-06-19T18:14:48Z</time></trkpt>
<trkpt lat="36.990922" lon="-122.103282"><ele>162.4</ele><time>2023-06-19T18:14:56Z</time></trkpt>
<trkpt lat="36.990852" lon="-122.102973"><ele>164.4</ele><time>2023-06-19T18:15:09Z</time></trkpt>
<trkpt lat="36.990855" lon="-122.102473"><ele>166.6</ele><time>2023-06-19T18:15:29Z</time></trkpt>
<trkpt lat="36.990724" lon="-122.101908"><ele>169.6</ele><time>2023-06-19T18:15:52Z</time></trkpt>
<trkpt lat="36.990627" lon="-122.101626"><ele>170.6</ele><time>2023-06-19T18:16:03Z</time></trkpt>
<trkpt lat="36.990397" lon="-122.101465"><ele>171.4</ele><time>2023-06-19T18:16:12Z</time></trkpt>
<trkpt lat="36.990292" lon="-122.101350"><ele>171.6</ele><time>2023-06-19T18:16:16Z</time></trkpt>
<trkpt lat="36.990027" lon="-122.100863"><ele>175.2</ele><time>2023-06-19T18:16:38Z</time></trkpt>
<trkpt lat="36.989950" lon="-122.100640"><ele>176.4</ele><time>2023-06-19T18:16:47Z</time></trkpt>
<trkpt lat="36.989876" lon="-122.100540"><ele>176.4</ele><time>2023-06-19T18:16:51Z</time></trkpt>
<trkpt lat="36.989584" lon="-122.100323"><ele>176.2</ele><time>2023-06-19T18:17:01Z</time></trkpt>
<trkpt lat="36.989465" lon="-122.100301"><ele>177.2</ele><time>2023-06-19T18:17:06Z</time></trkpt>
<trkpt lat="36.989291" lon="-122.100536"><ele>177.2</ele><time>2023-06-19T18:17:15Z</time></trkpt>
<trkpt lat="36.989169" lon="-122.100777"><ele>177.2</ele><time>2023-06-19T18:17:21Z</time></trkpt>
<trkpt lat="36.989284" lon="-122.101376"><ele>178.2</ele><time>2023-06-19T18:17:35Z</time></trkpt>
<trkpt lat="36.989287" lon="-122.101591"><ele>178.8</ele><time>2023-06-19T18:17:41Z</time></trkpt>
<trkpt lat="36.989241" lon="-122.101922"><ele>179.8</ele><time>2023-06-19T18:17:49Z</time></trkpt>
<trkpt lat="36.989265" lon="-122.102231"><ele>180.8</ele><time>2023-06-19T18:17:57Z</time></trkpt>
<trkpt lat="36.989238" lon="-122.102386"><ele>181.8</ele><time>2023-06-19T18:18:03Z</time></trkpt>
<trkpt lat="36.989173" lon="-122.102494"><ele>182.4</ele><time>2023-06-19T18:18:08Z</time></trkpt>
<trkpt lat="36.989018" lon="-122.102591"><ele>183.4</ele><time>2023-06-19T18:18:15Z</time></trkpt>
<trkpt lat="36.988941" lon="-122.102750"><ele>183.8</ele><time>2023-06-19T18:18:20Z</time></trkpt>
<trkpt lat="36.988762" lon="-122.102900"><ele>183.8</ele><time>2023-06-19T18:18:26Z</time></trkpt>
<trkpt lat="36.988680" lon="-122.103028"><ele>184.0</ele><time>2023-06-19T18:18:30Z</time></trkpt>
<trkpt lat="36.988605" lon="-122.103581"><ele>187.4</ele><time>2023-06-19T18:18:48Z</time></trkpt>
<trkpt lat="36.988526" lon="-122.103746"><ele>188.2</ele><time>2023-06-19T18:18:54Z</time></trkpt>
<trkpt lat="36.988446" lon="-122.103812"><ele>188.2</ele><time>2023-06-19T18:18:58Z</time></trkpt>
<trkpt lat="36.988240" lon="-122.103863"><ele>189.8</ele><time>2023-06-19T18:19:07Z</time></trkpt>
<trkpt lat="36.988099" lon="-122.103963"><ele>191.0</ele><time>2023-06-19T18:19:14Z</time></trkpt>
<trkpt lat="36.987918" lon="-122.104190"><ele>192.8</ele><time>2023-06-19T18:19:26Z</time></trkpt>
<trkpt lat="36.987863" lon="-122.104398"><ele>194.2</ele><time>2023-06-19T18:19:35Z</time></trkpt>
<trkpt lat="36.987892" lon="-122.104613"><ele>194.8</ele><time>2023-06-19T18:19:44Z</time></trkpt>
<trkpt lat="36.987961" lon="-122.104766"><ele>195.6</ele><time>2023-06-19T18:19:50Z</time></trkpt>
<trkpt lat="36.988042" lon="-122.104851"><ele>195.4</ele><time>2023-06-19T18:19:53Z</time></trkpt>
<trkpt lat="36.988318" lon="-122.105004"><ele>193.2</ele><time>2023-06-19T18:19:59Z</time></trkpt>
<trkpt lat="36.988370" lon="-122.105123"><ele>192.8</ele><time>2023-06-19T18:20:01Z</time></trkpt>
<trkpt lat="36.988433" lon="-122.105900"><ele>190.2</ele><time>2023-06-19T18:20:11Z</time></trkpt>
<trkpt lat="36.988394" lon="-122.106079"><ele>189.8</ele><time>2023-06-19T18:20:13Z</time></trkpt>
<trkpt lat="36.988316" lon="-122.106219"><ele>189.2</ele><time>2023-06-19T18:20:15Z</time></trkpt>
<trkpt lat="36.988028" lon="-122.106590"><ele>190.8</ele><time>2023-06-19T18:20:22Z</time></trkpt>
<trkpt lat="36.987524" lon="-122.107714"><ele>192.6</ele><time>2023-06-19T18:20:44Z</time></trkpt>
<trkpt lat="36.987359" lon="-122.107966"><ele>191.6</ele><time>2023-06-19T18:20:49Z</time></trkpt>
<trkpt lat="36.986812" lon="-122.108640"><ele>192.8</ele><time>2023-06-19T18:21:06Z</time></trkpt>
<trkpt lat="36.986543" lon="-122.109190"><ele>193.0</ele><time>2023-06-19T18:21:19Z</time></trkpt>
<trkpt lat="36.986161" lon="-122.110048"><ele>190.4</ele><time>2023-06-19T18:21:40Z</time></trkpt>
<trkpt lat="36.986090" lon="-122.110273"><ele>188.8</ele><time>2023-06-19T18:23:44Z</time></trkpt>
<trkpt lat="36.986028" lon="-122.110615"><ele>188.0</ele><time>2023-06-19T18:23:51Z</time></trkpt>
<trkpt lat="36.986050" lon="-122.110718"><ele>187.8</ele><time>2023-06-19T18:23:53Z</time></trkpt>
<trkpt lat="36.986108" lon="-122.110800"><ele>188.0</ele><time>2023-06-19T18:23:55Z</time></trkpt>
<trkpt lat="36.986362" lon="-122.110841"><ele>189.2</ele><time>2023-06-19T18:24:02Z</time></trkpt>
<trkpt lat="36.986629" lon="-122.110747"><ele>188.2</ele><time>2023-06-19T18:24:07Z</time></trkpt>
<trkpt lat="36.986822" lon="-122.110781"><ele>186.8</ele><time>2023-06-19T18:24:11Z</time></trkpt>
<trkpt lat="36.986955" lon="-122.110697"><ele>186.0</ele><time>2023-06-19T18:24:14Z</time></trkpt>
<trkpt lat="36.987264" lon="-122.110317"><ele>176.4</ele><time>2023-06-19T18:24:25Z</time></trkpt>
<trkpt lat="36.987558" lon="-122.109703"><ele>165.6</ele><time>2023-06-19T18:24:34Z</time></trkpt>
<trkpt lat="36.987663" lon="-122.109414"><ele>159.4</ele><time>2023-06-19T18:24:39Z</time></trkpt>
<trkpt lat="36.987836" lon="-122.109135"><ele>154.0</ele><time>2023-06-19T18:24:44Z</time></trkpt>
<trkpt lat="36.987978" lon="-122.109061"><ele>150.0</ele><time>2023-06-19T18:24:48Z</time></trkpt>
<trkpt lat="36.988020" lon="-122.109096"><ele>147.8</ele><time>2023-06-19T18:24:50Z</time></trkpt>
<trkpt lat="36.988023" lon="-122.109344"><ele>145.8</ele><time>2023-06-19T18:24:55Z</time></trkpt>
<trkpt lat="36.988113" lon="-122.109610"><ele>142.4</ele><time>2023-06-19T18:25:01Z</time></trkpt>
<trkpt lat="36.988075" lon="-122.110295"><ele>141.8</ele><time>2023-06-19T18:25:14Z</time></trkpt>
<trkpt lat="36.987926" lon="-122.110530"><ele>143.2</ele><time>2023-06-19T18:25:23Z</time></trkpt>
<trkpt lat="36.987806" lon="-122.110650"><ele>144.0</ele><time>2023-06-19T18:25:28Z</time></trkpt>
<trkpt lat="36.987686" lon="-122.110865"><ele>144.0</ele><time>2023-06-19T18:25:33Z</time></trkpt>
<trkpt lat="36.987452" lon="-122.111136"><ele>143.6</ele><time>2023-06-19T18:25:39Z</time></trkpt>
<trkpt lat="36.987304" lon="-122.111401"><ele>144.2</ele><time>2023-06-19T18:25:48Z</time></trkpt>
<trkpt lat="36.987381" lon="-122.111421"><ele>142.2</ele><time>2023-06-19T18:25:51Z</time></trkpt>
<trkpt lat="36.987607" lon="-122.111280"><ele>139.2</ele><time>2023-06-19T18:25:55Z</time></trkpt>
<trkpt lat="36.987981" lon="-122.110881"><ele>137.4</ele><time>2023-06-19T18:26:03Z</time></trkpt>
<trkpt lat="36.988113" lon="-122.110696"><ele>138.4</ele><time>2023-06-19T18:26:07Z</time></trkpt>
<trkpt lat="36.988282" lon="-122.110555"><ele>136.0</ele><time>2023-06-19T18:26:10Z</time></trkpt>
<trkpt lat="36.988466" lon="-122.110216"><ele>129.6</ele><time>2023-06-19T18:26:14Z</time></trkpt>
<trkpt lat="36.988612" lon="-122.110105"><ele>126.0</ele><time>2023-06-19T18:26:16Z</time></trkpt>
<trkpt lat="36.988837" lon="-122.110011"><ele>124.6</ele><time>2023-06-19T18:26:19Z</time></trkpt>
<trkpt lat="36.988891" lon="-122.109957"><ele>123.2</ele><time>2023-06-19T18:26:20Z</time></trkpt>
<trkpt lat="36.989016" lon="-122.109712"><ele>120.4</ele><time>2023-06-19T18:26:23Z</time></trkpt>
<trkpt lat="36.989031" lon="-122.109507"><ele>118.0</ele><time>2023-06-19T18:26:26Z</time></trkpt>
<trkpt lat="36.989538" lon="-122.108918"><ele>109.8</ele><time>2023-06-19T18:26:35Z</time></trkpt>
<trkpt lat="36.989571" lon="-122.108828"><ele>109.6</ele><time>2023-06-19T18:26:36Z</time></trkpt>
<trkpt lat="36.989560" lon="-122.108662"><ele>109.4</ele><time>2023-06-19T18:26:38Z</time></trkpt>
<trkpt lat="36.990029" lon="-122.108021"><ele>111.0</ele><time>2023-06-19T18:26:52Z</time></trkpt>
<trkpt lat="36.990090" lon="-122.107882"><ele>113.2</ele><time>2023-06-19T18:26:57Z</time></trkpt>
<trkpt lat="36.990256" lon="-122.107166"><ele>117.6</ele><time>2023-06-19T18:27:22Z</time></trkpt>
<trkpt lat="36.990204" lon="-122.106959"><ele>120.6</ele><time>2023-06-19T18:27:33Z</time></trkpt>
<trkpt lat="36.990141" lon="-122.106887"><ele>120.8</ele><time>2023-06-19T18:27:37Z</time></trkpt>
<trkpt lat="36.990033" lon="-122.106618"><ele>120.8</ele><time>2023-06-19T18:27:44Z</time></trkpt>
<trkpt lat="36.990036" lon="-122.106530"><ele>120.6</ele><time>2023-06-19T18:27:46Z</time></trkpt>
<trkpt lat="36.990093" lon="-122.106499"><ele>120.2</ele><time>2023-06-19T18:27:48Z</time></trkpt>
<trkpt lat="36.990414" lon="-122.106592"><ele>121.8</ele><time>2023-06-19T18:27:58Z</time></trkpt>
<trkpt lat="36.990556" lon="-122.106534"><ele>121.8</ele><time>2023-06-19T18:28:02Z</time></trkpt>
<trkpt lat="36.990718" lon="-122.106317"><ele>122.4</ele><time>2023-06-19T18:28:09Z</time></trkpt>
<trkpt lat="36.990804" lon="-122.106071"><ele>123.2</ele><time>2023-06-19T18:28:16Z</time></trkpt>
<trkpt lat="36.990879" lon="-122.105955"><ele>123.8</ele><time>2023-06-19T18:28:20Z</time></trkpt>
<trkpt lat="36.990842" lon="-122.105869"><ele>125.2</ele><time>2023-06-19T18:28:25Z</time></trkpt>
<trkpt lat="36.990756" lon="-122.105925"><ele>126.6</ele><time>2023-06-19T18:28:32Z</time></trkpt>
<trkpt lat="36.990662" lon="-122.105925"><ele>127.2</ele><time>2023-06-19T18:28:36Z</time></trkpt>
<trkpt lat="36.990530" lon="-122.106142"><ele>129.8</ele><time>2023-06-19T18:28:50Z</time></trkpt>
<trkpt lat="36.990414" lon="-122.106173"><ele>130.8</ele><time>2023-06-19T18:28:56Z</time></trkpt>
<trkpt lat="36.990368" lon="-122.106133"><ele>130.8</ele><time>2023-06-19T18:28:58Z</time></trkpt>
<trkpt lat="36.990361" lon="-122.105884"><ele>132.2</ele><time>2023-06-19T18:29:09Z</time></trkpt>
<trkpt lat="36.990533" lon="-122.105725"><ele>133.4</ele><time>2023-06-19T18:29:20Z</time></trkpt>
<trkpt lat="36.990662" lon="-122.105301"><ele>134.4</ele><time>2023-06-19T18:29:33Z</time></trkpt>
<trkpt lat="36.990782" lon="-122.105112"><ele>135.2</ele><time>2023-06-19T18:29:39Z</time></trkpt>
<trkpt lat="36.990799" lon="-122.104939"><ele>135.8</ele><time>2023-06-19T18:29:45Z</time></trkpt>
<trkpt lat="36.990752" lon="-122.104696"><ele>138.6</ele><time>2023-06-19T18:29:58Z</time></trkpt>
<trkpt lat="36.990878" lon="-122.104468"><ele>140.6</ele><time>2023-06-19T18:30:12Z</time></trkpt>
<trkpt lat="36.990925" lon="-122.104423"><ele>141.2</ele><time>2023-06-19T18:30:15Z</time></trkpt>
<trkpt lat="36.991022" lon="-122.104431"><ele>141.2</ele><time>2023-06-19T18:30:19Z</time></trkpt>
<trkpt lat="36.991084" lon="-122.104620"><ele>141.0</ele><time>2023-06-19T18:30:25Z</time></trkpt>
<trkpt lat="36.991164" lon="-122.104681"><ele>141.2</ele><time>2023-06-19T18:30:28Z</time></trkpt>
<trkpt lat="36.991476" lon="-122.104597"><ele>143.6</ele><time>2023-06-19T18:30:41Z</time></trkpt>
<trkpt lat="36.991816" lon="-122.104380"><ele>144.4</ele><time>2023-06-19T18:30:52Z</time></trkpt>
<trkpt lat="36.991900" lon="-122.104361"><ele>145.8</ele><time>2023-06-19T18:30:55Z</time></trkpt>
<trkpt lat="36.991991" lon="-122.104376"><ele>146.6</ele><time>2023-06-19T18:30:59Z</time></trkpt>
<trkpt lat="36.992146" lon="-122.104550"><ele>147.6</ele><time>2023-06-19T18:31:08Z</time></trkpt>
<trkpt lat="36.992283" lon="-122.104639"><ele>148.4</ele><time>2023-06-19T18:31:15Z</time></trkpt>
<trkpt lat="36.992366" lon="-122.104619"><ele>148.6</ele><time>2023-06-19T18:31:19Z</time></trkpt>
<trkpt lat="36.992403" lon="-122.104545"><ele>148.6</ele><time>2023-06-19T18:31:22Z</time></trkpt>
<trkpt lat="36.992344" lon="-122.104127"><ele>151.2</ele><time>2023-06-19T18:31:37Z</time></trkpt>
<trkpt lat="36.992188" lon="-122.104072"><ele>153.0</ele><time>2023-06-19T18:31:47Z</time></trkpt>
<trkpt lat="36.992018" lon="-122.103860"><ele>154.8</ele><time>2023-06-19T18:31:59Z</time></trkpt>
<trkpt lat="36.991796" lon="-122.103864"><ele>157.0</ele><time>2023-06-19T18:32:12Z</time></trkpt>
<trkpt lat="36.991556" lon="-122.103756"><ele>158.4</ele><time>2023-06-19T18:32:27Z</time></trkpt>
<trkpt lat="36.991399" lon="-122.103548"><ele>159.6</ele><time>2023-06-19T18:32:40Z</time></trkpt>
<trkpt lat="36.991390" lon="-122.103416"><ele>160.6</ele><time>2023-06-19T18:32:46Z</time></trkpt>
<trkpt lat="36.991361" lon="-122.103381"><ele>160.6</ele><time>2023-06-19T18:32:48Z</time></trkpt>
<trkpt lat="36.991154" lon="-122.103407"><ele>160.8</ele><time>2023-06-19T18:32:57Z</time></trkpt>
<trkpt lat="36.991016" lon="-122.103365"><ele>161.0</ele><time>2023-06-19T18:33:01Z</time></trkpt>
<trkpt lat="36.990923" lon="-122.103272"><ele>162.6</ele><time>2023-06-19T18:33:06Z</time></trkpt>
<trkpt lat="36.990850" lon="-122.102970"><ele>164.4</ele><time>2023-06-19T18:33:17Z</time></trkpt>
<trkpt lat="36.990853" lon="-122.102458"><ele>167.4</ele><time>2023-06-19T18:33:35Z</time></trkpt>
<trkpt lat="36.990635" lon="-122.101619"><ele>170.6</ele><time>2023-06-19T18:34:06Z</time></trkpt>
<trkpt lat="36.990323" lon="-122.101387"><ele>171.2</ele><time>2023-06-19T18:34:18Z</time></trkpt>
<trkpt lat="36.990044" lon="-122.100899"><ele>174.8</ele><time>2023-06-19T18:34:38Z</time></trkpt>
<trkpt lat="36.989940" lon="-122.100617"><ele>175.4</ele><time>2023-06-19T18:34:48Z</time></trkpt>
<trkpt lat="36.989862" lon="-122.100516"><ele>175.6</ele><time>2023-06-19T18:34:52Z</time></trkpt>
<trkpt lat="36.989497" lon="-122.100292"><ele>175.8</ele><time>2023-06-19T18:35:04Z</time></trkpt>
<trkpt lat="36.989282" lon="-122.100545"><ele>176.2</ele><time>2023-06-19T18:35:14Z</time></trkpt>
<trkpt lat="36.989185" lon="-122.100724"><ele>176.4</ele><time>2023-06-19T18:35:19Z</time></trkpt>
<trkpt lat="36.989174" lon="-122.100819"><ele>176.2</ele><time>2023-06-19T18:35:21Z</time></trkpt>
<trkpt lat="36.989287" lon="-122.101461"><ele>178.2</ele><time>2023-06-19T18:35:36Z</time></trkpt>
<trkpt lat="36.989253" lon="-122.101902"><ele>179.8</ele><time>2023-06-19T18:35:48Z</time></trkpt>
<trkpt lat="36.989279" lon="-122.102162"><ele>180.2</ele><time>2023-06-19T18:35:54Z</time></trkpt>
<trkpt lat="36.989241" lon="-122.102384"><ele>181.0</ele><time>2023-06-19T18:36:00Z</time></trkpt>
<trkpt lat="36.989154" lon="-122.102505"><ele>182.0</ele><time>2023-06-19T18:36:05Z</time></trkpt>
<trkpt lat="36.989031" lon="-122.102574"><ele>182.8</ele><time>2023-06-19T18:36:10Z</time></trkpt>
<trkpt lat="36.988952" lon="-122.102726"><ele>183.0</ele><time>2023-06-19T18:36:15Z</time></trkpt>
<trkpt lat="36.988752" lon="-122.102905"><ele>183.2</ele><time>2023-06-19T18:36:21Z</time></trkpt>
<trkpt lat="36.988679" lon="-122.103017"><ele>183.4</ele><time>2023-06-19T18:36:24Z</time></trkpt>
<trkpt lat="36.988618" lon="-122.103314"><ele>185.0</ele><time>2023-06-19T18:36:32Z</time></trkpt>
<trkpt lat="36.988603" lon="-122.103629"><ele>187.8</ele><time>2023-06-19T18:36:43Z</time></trkpt>
<trkpt lat="36.988561" lon="-122.103707"><ele>188.2</ele><time>2023-06-19T18:36:46Z</time></trkpt>
<trkpt lat="36.988474" lon="-122.103790"><ele>188.4</ele><time>2023-06-19T18:36:50Z</time></trkpt>
<trkpt lat="36.988153" lon="-122.103918"><ele>191.0</ele><time>2023-06-19T18:37:03Z</time></trkpt>
<trkpt lat="36.987906" lon="-122.104227"><ele>192.6</ele><time>2023-06-19T18:37:20Z</time></trkpt>
<trkpt lat="36.987876" lon="-122.104528"><ele>193.0</ele><time>2023-06-19T18:37:33Z</time></trkpt>
<trkpt lat="36.987940" lon="-122.104710"><ele>194.4</ele><time>2023-06-19T18:37:41Z</time></trkpt>
<trkpt lat="36.988008" lon="-122.104816"><ele>194.4</ele><time>2023-06-19T18:37:45Z</time></trkpt>
<trkpt lat="36.988335" lon="-122.105041"><ele>193.6</ele><time>2023-06-19T18:37:53Z</time></trkpt>
<trkpt lat="36.988364" lon="-122.105099"><ele>193.2</ele><time>2023-06-19T18:37:54Z</time></trkpt>
<trkpt lat="36.988410" lon="-122.105472"><ele>192.2</ele><time>2023-06-19T18:37:59Z</time></trkpt>
<trkpt lat="36.988429" lon="-122.105920"><ele>191.4</ele><time>2023-06-19T18:38:04Z</time></trkpt>
<trkpt lat="36.988412" lon="-122.106009"><ele>190.6</ele><time>2023-06-19T18:38:05Z</time></trkpt>
<trkpt lat="36.988343" lon="-122.106154"><ele>189.8</ele><time>2023-06-19T18:38:07Z</time></trkpt>
<trkpt lat="36.988015" lon="-122.106614"><ele>191.0</ele><time>2023-06-19T18:38:18Z</time></trkpt>
<trkpt lat="36.987573" lon="-122.107638"><ele>191.0</ele><time>2023-06-19T18:38:40Z</time></trkpt>
<trkpt lat="36.987390" lon="-122.107940"><ele>191.2</ele><time>2023-06-19T18:38:46Z</time></trkpt>
<trkpt lat="36.987109" lon="-122.108269"><ele>191.4</ele><time>2023-06-19T18:38:54Z</time></trkpt>
<trkpt lat="36.986774" lon="-122.108761"><ele>193.4</ele><time>2023-06-19T18:39:10Z</time></trkpt>
<trkpt lat="36.986394" lon="-122.109514"><ele>192.4</ele><time>2023-06-19T18:39:31Z</time></trkpt>
<trkpt lat="36.986116" lon="-122.110183"><ele>189.4</ele><time>2023-06-19T18:41:42Z</time></trkpt>
<trkpt lat="36.986036" lon="-122.110642"><ele>188.8</ele><time>2023-06-19T18:41:55Z</time></trkpt>
<trkpt lat="36.986108" lon="-122.110796"><ele>189.8</ele><time>2023-06-19T18:41:59Z</time></trkpt>
<trkpt lat="36.986363" lon="-122.110845"><ele>190.6</ele><time>2023-06-19T18:42:07Z</time></trkpt>
<trkpt lat="36.986662" lon="-122.110731"><ele>189.4</ele><time>2023-06-19T18:42:12Z</time></trkpt>
<trkpt lat="36.986800" lon="-122.110775"><ele>188.2</ele><time>2023-06-19T18:42:15Z</time></trkpt>
<trkpt lat="36.986916" lon="-122.110723"><ele>187.2</ele><time>2023-06-19T18:42:18Z</time></trkpt>
<trkpt lat="36.987026" lon="-122.110618"><ele>186.0</ele><time>2023-06-19T18:42:21Z</time></trkpt>
<trkpt lat="36.987283" lon="-122.110239"><ele>176.4</ele><time>2023-06-19T18:42:31Z</time></trkpt>
<trkpt lat="36.987612" lon="-122.109541"><ele>163.8</ele><time>2023-06-19T18:42:42Z</time></trkpt>
<trkpt lat="36.987856" lon="-122.109158"><ele>156.2</ele><time>2023-06-19T18:42:49Z</time></trkpt>
<trkpt lat="36.988032" lon="-122.109092"><ele>151.2</ele><time>2023-06-19T18:42:54Z</time></trkpt>
<trkpt lat="36.988049" lon="-122.109114"><ele>150.0</ele><time>2023-06-19T18:42:55Z</time></trkpt>
<trkpt lat="36.988030" lon="-122.109240"><ele>148.0</ele><time>2023-06-19T18:42:58Z</time></trkpt>
<trkpt lat="36.988143" lon="-122.109581"><ele>144.8</ele><time>2023-06-19T18:43:05Z</time></trkpt>
<trkpt lat="36.988102" lon="-122.110240"><ele>143.8</ele><time>2023-06-19T18:43:18Z</time></trkpt>
<trkpt lat="36.987957" lon="-122.110509"><ele>145.4</ele><time>2023-06-19T18:43:27Z</time></trkpt>
<trkpt lat="36.987817" lon="-122.110652"><ele>147.2</ele><time>2023-06-19T18:43:34Z</time></trkpt>
<trkpt lat="36.987686" lon="-122.110869"><ele>146.8</ele><time>2023-06-19T18:43:39Z</time></trkpt>
<trkpt lat="36.987452" lon="-122.111135"><ele>144.6</ele><time>2023-06-19T18:43:45Z</time></trkpt>
<trkpt lat="36.987298" lon="-122.111400"><ele>145.2</ele><time>2023-06-19T18:43:54Z</time></trkpt>
<trkpt lat="36.987403" lon="-122.111397"><ele>143.0</ele><time>2023-06-19T18:43:57Z</time></trkpt>
<trkpt lat="36.987630" lon="-122.111263"><ele>139.0</ele><time>2023-06-19T18:44:01Z</time></trkpt>
<trkpt lat="36.988222" lon="-122.110651"><ele>139.0</ele><time>2023-06-19T18:44:14Z</time></trkpt>
<trkpt lat="36.988320" lon="-122.110527"><ele>136.6</ele><time>2023-06-19T18:44:16Z</time></trkpt>
<trkpt lat="36.988434" lon="-122.110261"><ele>131.4</ele><time>2023-06-19T18:44:19Z</time></trkpt>
<trkpt lat="36.988493" lon="-122.110195"><ele>129.0</ele><time>2023-06-19T18:44:20Z</time></trkpt>
<trkpt lat="36.988883" lon="-122.110002"><ele>124.6</ele><time>2023-06-19T18:44:25Z</time></trkpt>
<trkpt lat="36.989028" lon="-122.109749"><ele>121.8</ele><time>2023-06-19T18:44:28Z</time></trkpt>
<trkpt lat="36.989061" lon="-122.109537"><ele>118.4</ele><time>2023-06-19T18:44:31Z</time></trkpt>
<trkpt lat="36.989482" lon="-122.109090"><ele>111.2</ele><time>2023-06-19T18:44:38Z</time></trkpt>
<trkpt lat="36.989589" lon="-122.108938"><ele>110.2</ele><time>2023-06-19T18:44:40Z</time></trkpt>
<trkpt lat="36.989622" lon="-122.108703"><ele>109.8</ele><time>2023-06-19T18:44:43Z</time></trkpt>
<trkpt lat="36.989684" lon="-122.108588"><ele>110.2</ele><time>2023-06-19T18:44:45Z</time></trkpt>
<trkpt lat="36.990040" lon="-122.108130"><ele>111.6</ele><time>2023-06-19T18:44:55Z</time></trkpt>
<trkpt lat="36.990134" lon="-122.107855"><ele>114.4</ele><time>2023-06-19T18:45:03Z</time></trkpt>
<trkpt lat="36.990154" lon="-122.107678"><ele>115.4</ele><time>2023-06-19T18:45:09Z</time></trkpt>
<trkpt lat="36.990277" lon="-122.107219"><ele>118.4</ele><time>2023-06-19T18:45:27Z</time></trkpt>
<trkpt lat="36.990072" lon="-122.106709"><ele>121.6</ele><time>2023-06-19T18:45:47Z</time></trkpt>
<trkpt lat="36.990068" lon="-122.106617"><ele>121.0</ele><time>2023-06-19T18:45:49Z</time></trkpt>
<trkpt lat="36.990130" lon="-122.106562"><ele>120.6</ele><time>2023-06-19T18:45:51Z</time></trkpt>
<trkpt lat="36.990330" lon="-122.106615"><ele>121.8</ele><time>2023-06-19T18:45:59Z</time></trkpt>
<trkpt lat="36.990517" lon="-122.106587"><ele>122.0</ele><time>2023-06-19T18:46:05Z</time></trkpt>
<trkpt lat="36.990763" lon="-122.106275"><ele>122.4</ele><time>2023-06-19T18:46:13Z</time></trkpt>
<trkpt lat="36.990812" lon="-122.106079"><ele>122.8</ele><time>2023-06-19T18:46:18Z</time></trkpt>
<trkpt lat="36.990889" lon="-122.105919"><ele>124.0</ele><time>2023-06-19T18:46:23Z</time></trkpt>
<trkpt lat="36.990827" lon="-122.105871"><ele>125.2</ele><time>2023-06-19T18:46:27Z</time></trkpt>
<trkpt lat="36.990659" lon="-122.105936"><ele>127.0</ele><time>2023-06-19T18:46:36Z</time></trkpt>
<trkpt lat="36.990613" lon="-122.105980"><ele>128.0</ele><time>2023-06-19T18:46:39Z</time></trkpt>
<trkpt lat="36.990588" lon="-122.106068"><ele>128.8</ele><time>2023-06-19T18:46:43Z</time></trkpt>
<trkpt lat="36.990491" lon="-122.106171"><ele>129.8</ele><time>2023-06-19T18:46:50Z</time></trkpt>
<trkpt lat="36.990392" lon="-122.106176"><ele>130.6</ele><time>2023-06-19T18:46:55Z</time></trkpt>
<trkpt lat="36.990366" lon="-122.106134"><ele>130.6</ele><time>2023-06-19T18:46:57Z</time></trkpt>
<trkpt lat="36.990374" lon="-122.106001"><ele>131.2</ele><time>2023-06-19T18:47:02Z</time></trkpt>
<trkpt lat="36.990348" lon="-122.105913"><ele>131.8</ele><time>2023-06-19T18:47:06Z</time></trkpt>
<trkpt lat="36.990497" lon="-122.105761"><ele>133.2</ele><time>2023-06-19T18:47:15Z</time></trkpt>
<trkpt lat="36.990666" lon="-122.105281"><ele>134.4</ele><time>2023-06-19T18:47:27Z</time></trkpt>
<trkpt lat="36.990781" lon="-122.105092"><ele>135.6</ele><time>2023-06-19T18:47:33Z</time></trkpt>
<trkpt lat="36.990802" lon="-122.104964"><ele>136.0</ele><time>2023-06-19T18:47:37Z</time></trkpt>
<trkpt lat="36.990731" lon="-122.104749"><ele>139.2</ele><time>2023-06-19T18:47:48Z</time></trkpt>
<trkpt lat="36.990774" lon="-122.104636"><ele>140.2</ele><time>2023-06-19T18:47:53Z</time></trkpt>
<trkpt lat="36.990891" lon="-122.104488"><ele>141.2</ele><time>2023-06-19T18:48:01Z</time></trkpt>
<trkpt lat="36.990988" lon="-122.104444"><ele>142.0</ele><time>2023-06-19T18:48:06Z</time></trkpt>
<trkpt lat="36.991050" lon="-122.104501"><ele>142.0</ele><time>2023-06-19T18:48:10Z</time></trkpt>
<trkpt lat="36.991092" lon="-122.104642"><ele>142.0</ele><time>2023-06-19T18:48:14Z</time></trkpt>
<trkpt lat="36.991155" lon="-122.104691"><ele>142.2</ele><time>2023-06-19T18:48:16Z</time></trkpt>
<trkpt lat="36.991230" lon="-122.104694"><ele>142.6</ele><time>2023-06-19T18:48:18Z</time></trkpt>
<trkpt lat="36.991898" lon="-122.104362"><ele>145.8</ele><time>2023-06-19T18:48:40Z</time></trkpt>
<trkpt lat="36.992039" lon="-122.104408"><ele>146.8</ele><time>2023-06-19T18:48:45Z</time></trkpt>
<trkpt lat="36.992134" lon="-122.104541"><ele>147.8</ele><time>2023-06-19T18:48:51Z</time></trkpt>
<trkpt lat="36.992259" lon="-122.104633"><ele>148.6</ele><time>2023-06-19T18:48:58Z</time></trkpt>
<trkpt lat="36.992346" lon="-122.104614"><ele>148.8</ele><time>2023-06-19T18:49:02Z</time></trkpt>
<trkpt lat="36.992415" lon="-122.104506"><ele>149.2</ele><time>2023-06-19T18:49:07Z</time></trkpt>
<trkpt lat="36.992417" lon="-122.104401"><ele>149.6</ele><time>2023-06-19T18:49:11Z</time></trkpt>
<trkpt lat="36.992368" lon="-122.104273"><ele>149.8</ele><time>2023-06-19T18:49:15Z</time></trkpt>
<trkpt lat="36.992354" lon="-122.104126"><ele>151.6</ele><time>2023-06-19T18:49:21Z</time></trkpt>
<trkpt lat="36.992211" lon="-122.104099"><ele>153.0</ele><time>2023-06-19T18:49:29Z</time></trkpt>
<trkpt lat="36.992068" lon="-122.103908"><ele>153.8</ele><time>2023-06-19T18:49:39Z</time></trkpt>
<trkpt lat="36.991993" lon="-122.103855"><ele>155.0</ele><time>2023-06-19T18:49:43Z</time></trkpt>
<trkpt lat="36.991788" lon="-122.103855"><ele>156.8</ele><time>2023-06-19T18:49:53Z</time></trkpt>
<trkpt lat="36.991559" lon="-122.103765"><ele>159.0</ele><time>2023-06-19T18:50:06Z</time></trkpt>
<trkpt lat="36.991404" lon="-122.103552"><ele>159.6</ele><time>2023-06-19T18:50:17Z</time></trkpt>
<trkpt lat="36.991384" lon="-122.103381"><ele>160.6</ele><time>2023-06-19T18:50:24Z</time></trkpt>
<trkpt lat="36.991141" lon="-122.103408"><ele>161.4</ele><time>2023-06-19T18:50:33Z</time></trkpt>
<trkpt lat="36.991018" lon="-122.103365"><ele>160.8</ele><time>2023-06-19T18:50:37Z</time></trkpt>
<trkpt lat="36.990932" lon="-122.103292"><ele>162.2</ele><time>2023-06-19T18:50:43Z</time></trkpt>
<trkpt lat="36.990863" lon="-122.102984"><ele>164.2</ele><time>2023-06-19T18:50:57Z</time></trkpt>
<trkpt lat="36.990845" lon="-122.102439"><ele>166.8</ele><time>2023-06-19T18:51:18Z</time></trkpt>
<trkpt lat="36.990648" lon="-122.101657"><ele>170.6</ele><time>2023-06-19T18:51:48Z</time></trkpt>
<trkpt lat="36.990298" lon="-122.101349"><ele>171.6</ele><time>2023-06-19T18:52:03Z</time></trkpt>
<trkpt lat="36.990038" lon="-122.100924"><ele>174.8</ele><time>2023-06-19T18:52:19Z</time></trkpt>
<trkpt lat="36.989949" lon="-122.100645"><ele>175.8</ele><time>2023-06-19T18:52:30Z</time></trkpt>
<trkpt lat="36.989851" lon="-122.100508"><ele>175.8</ele><time>2023-06-19T18:52:35Z</time></trkpt>
<trkpt lat="36.989527" lon="-122.100296"><ele>176.2</ele><time>2023-06-19T18:52:46Z</time></trkpt>
<trkpt lat="36.989300" lon="-122.100318"><ele>176.8</ele><time>2023-06-19T18:54:09Z</time></trkpt>
<trkpt lat="36.989031" lon="-122.100242"><ele>179.6</ele><time>2023-06-19T18:54:24Z</time></trkpt>
<trkpt lat="36.988890" lon="-122.100245"><ele>180.6</ele><time>2023-06-19T18:54:32Z</time></trkpt>
<trkpt lat="36.988787" lon="-122.100298"><ele>182.2</ele><time>2023-06-19T18:54:39Z</time></trkpt>
<trkpt lat="36.988645" lon="-122.100525"><ele>185.6</ele><time>2023-06-19T18:54:55Z</time></trkpt>
<trkpt lat="36.988523" lon="-122.100625"><ele>186.2</ele><time>2023-06-19T18:55:04Z</time></trkpt>
<trkpt lat="36.988398" lon="-122.100670"><ele>187.8</ele><time>2023-06-19T18:55:12Z</time></trkpt>
<trkpt lat="36.988150" lon="-122.100689"><ele>189.2</ele><time>2023-06-19T18:55:27Z</time></trkpt>
<trkpt lat="36.987993" lon="-122.100787"><ele>190.2</ele><time>2023-06-19T18:55:38Z</time></trkpt>
<trkpt lat="36.987903" lon="-122.100953"><ele>191.2</ele><time>2023-06-19T18:55:49Z</time></trkpt>
<trkpt lat="36.987887" lon="-122.101093"><ele>191.0</ele><time>2023-06-19T18:56:13Z</time></trkpt>
<trkpt lat="36.987681" lon="-122.101609"><ele>190.2</ele><time>2023-06-19T18:56:24Z</time></trkpt>
<trkpt lat="36.987583" lon="-122.101960"><ele>189.2</ele><time>2023-06-19T18:56:30Z</time></trkpt>
<trkpt lat="36.987506" lon="-122.102130"><ele>188.8</ele><time>2023-06-19T18:56:33Z</time></trkpt>
<trkpt lat="36.987319" lon="-122.102417"><ele>190.8</ele><time>2023-06-19T18:56:40Z</time></trkpt>
<trkpt lat="36.987175" lon="-122.102571"><ele>190.8</ele><time>2023-06-19T18:56:44Z</time></trkpt>
<trkpt lat="36.986788" lon="-122.102841"><ele>189.6</ele><time>2023-06-19T18:56:53Z</time></trkpt>
<trkpt lat="36.986305" lon="-122.103077"><ele>187.2</ele><time>2023-06-19T18:57:02Z</time></trkpt>
<trkpt lat="36.986116" lon="-122.103252"><ele>186.0</ele><time>2023-06-19T18:57:06Z</time></trkpt>
<trkpt lat="36.985910" lon="-122.103542"><ele>186.2</ele><time>2023-06-19T18:57:11Z</time></trkpt>
<trkpt lat="36.985744" lon="-122.103708"><ele>185.0</ele><time>2023-06-19T18:57:14Z</time></trkpt>
<trkpt lat="36.985214" lon="-122.104063"><ele>182.6</ele><time>2023-06-19T18:57:23Z</time></trkpt>
<trkpt lat="36.984866" lon="-122.104225"><ele>181.2</ele><time>2023-06-19T18:57:28Z</time></trkpt>
<trkpt lat="36.984633" lon="-122.104241"><ele>178.4</ele><time>2023-06-19T18:57:31Z</time></trkpt>
<trkpt lat="36.984023" lon="-122.104133"><ele>179.0</ele><time>2023-06-19T18:57:41Z</time></trkpt>
<trkpt lat="36.983399" lon="-122.103977"><ele>176.8</ele><time>2023-06-19T18:57:58Z</time></trkpt>
<trkpt lat="36.984364" lon="-122.104201"><ele>178.2</ele><time>2023-06-19T18:59:05Z</time></trkpt>
<trkpt lat="36.984751" lon="-122.104228"><ele>177.4</ele><time>2023-06-19T18:59:12Z</time></trkpt>
<trkpt lat="36.984903" lon="-122.104195"><ele>177.0</ele><time>2023-06-19T18:59:15Z</time></trkpt>
<trkpt lat="36.985538" lon="-122.103861"><ele>181.6</ele><time>2023-06-19T18:59:34Z</time></trkpt>
<trkpt lat="36.985720" lon="-122.103734"><ele>181.6</ele><time>2023-06-19T18:59:40Z</time></trkpt>
<trkpt lat="36.986200" lon="-122.103147"><ele>183.8</ele><time>2023-06-19T19:00:00Z</time></trkpt>
<trkpt lat="36.986812" lon="-122.102818"><ele>186.8</ele><time>2023-06-19T19:00:22Z</time></trkpt>
<trkpt lat="36.987257" lon="-122.102499"><ele>187.0</ele><time>2023-06-19T19:00:37Z</time></trkpt>
<trkpt lat="36.987481" lon="-122.102179"><ele>187.6</ele><time>2023-06-19T19:00:46Z</time></trkpt>
<trkpt lat="36.987592" lon="-122.101929"><ele>187.2</ele><time>2023-06-19T19:00:50Z</time></trkpt>
<trkpt lat="36.987666" lon="-122.101625"><ele>186.4</ele><time>2023-06-19T19:00:55Z</time></trkpt>
<trkpt lat="36.987857" lon="-122.101160"><ele>187.0</ele><time>2023-06-19T19:01:04Z</time></trkpt>
<trkpt lat="36.987920" lon="-122.100925"><ele>187.2</ele><time>2023-06-19T19:01:13Z</time></trkpt>
<trkpt lat="36.988032" lon="-122.100732"><ele>186.2</ele><time>2023-06-19T19:01:38Z</time></trkpt>
<trkpt lat="36.988089" lon="-122.100440"><ele>184.8</ele><time>2023-06-19T19:01:44Z</time></trkpt>
<trkpt lat="36.988180" lon="-122.100205"><ele>187.2</ele><time>2023-06-19T19:01:51Z</time></trkpt>
<trkpt lat="36.988201" lon="-122.099987"><ele>189.4</ele><time>2023-06-19T19:01:57Z</time></trkpt>
<trkpt lat="36.988012" lon="-122.098840"><ele>190.0</ele><time>2023-06-19T19:02:24Z</time></trkpt>
<trkpt lat="36.987917" lon="-122.098750"><ele>189.4</ele><time>2023-06-19T19:02:27Z</time></trkpt>
<trkpt lat="36.987844" lon="-122.098768"><ele>189.6</ele><time>2023-06-19T19:02:32Z</time></trkpt>
<trkpt lat="36.987806" lon="-122.098834"><ele>190.0</ele><time>2023-06-19T19:03:22Z</time></trkpt>
<trkpt lat="36.987789" lon="-122.099099"><ele>189.0</ele><time>2023-06-19T19:03:30Z</time></trkpt>
<trkpt lat="36.987706" lon="-122.099236"><ele>188.8</ele><time>2023-06-19T19:03:33Z</time></trkpt>
<trkpt lat="36.987516" lon="-122.099312"><ele>187.6</ele><time>2023-06-19T19:03:36Z</time></trkpt>
<trkpt lat="36.987149" lon="-122.099370"><ele>189.0</ele><time>2023-06-19T19:03:44Z</time></trkpt>
<trkpt lat="36.985446" lon="-122.099295"><ele>184.6</ele><time>2023-06-19T19:04:13Z</time></trkpt>
<trkpt lat="36.984609" lon="-122.099157"><ele>181.6</ele><time>2023-06-19T19:04:25Z</time></trkpt>
<trkpt lat="36.984149" lon="-122.099120"><ele>181.2</ele><time>2023-06-19T19:04:32Z</time></trkpt>
<trkpt lat="36.983709" lon="-122.098913"><ele>180.4</ele><time>2023-06-19T19:04:40Z</time></trkpt>
<trkpt lat="36.983339" lon="-122.098656"><ele>180.6</ele><time>2023-06-19T19:04:47Z</time></trkpt>
<trkpt lat="36.982356" lon="-122.097851"><ele>174.6</ele><time>2023-06-19T19:05:05Z</time></trkpt>
<trkpt lat="36.981945" lon="-122.097400"><ele>166.8</ele><time>2023-06-19T19:05:12Z</time></trkpt>
<trkpt lat="36.981677" lon="-122.097000"><ele>165.2</ele><time>2023-06-19T19:05:16Z</time></trkpt>
<trkpt lat="36.981343" lon="-122.096828"><ele>165.4</ele><time>2023-06-19T19:05:21Z</time></trkpt>
<trkpt lat="36.981048" lon="-122.096596"><ele>164.8</ele><time>2023-06-19T19:05:26Z</time></trkpt>
<trkpt lat="36.980510" lon="-122.096056"><ele>160.6</ele><time>2023-06-19T19:05:36Z</time></trkpt>
<trkpt lat="36.980226" lon="-122.095653"><ele>161.6</ele><time>2023-06-19T19:05:43Z</time></trkpt>
<trkpt lat="36.979866" lon="-122.094876"><ele>162.0</ele><time>2023-06-19T19:05:55Z</time></trkpt>
<trkpt lat="36.979582" lon="-122.094579"><ele>160.0</ele><time>2023-06-19T19:06:00Z</time></trkpt>
<trkpt lat="36.979288" lon="-122.094128"><ele>155.4</ele><time>2023-06-19T19:06:06Z</time></trkpt>
<trkpt lat="36.979085" lon="-122.093833"><ele>156.2</ele><time>2023-06-19T19:06:11Z</time></trkpt>
<trkpt lat="36.979031" lon="-122.093694"><ele>159.6</ele><time>2023-06-19T19:06:14Z</time></trkpt>
<trkpt lat="36.978868" lon="-122.093189"><ele>158.2</ele><time>2023-06-19T19:06:21Z</time></trkpt>
<trkpt lat="36.978714" lon="-122.092932"><ele>157.4</ele><time>2023-06-19T19:06:25Z</time></trkpt>
<trkpt lat="36.978573" lon="-122.092615"><ele>158.0</ele><time>2023-06-19T19:06:30Z</time></trkpt>
<trkpt lat="36.978429" lon="-122.092396"><ele>158.8</ele><time>2023-06-19T19:06:34Z</time></trkpt>
<trkpt lat="36.978185" lon="-122.091764"><ele>160.4</ele><time>2023-06-19T19:06:44Z</time></trkpt>
<trkpt lat="36.977928" lon="-122.090833"><ele>162.4</ele><time>2023-06-19T19:06:57Z</time></trkpt>
<trkpt lat="36.977856" lon="-122.090189"><ele>162.0</ele><time>2023-06-19T19:07:06Z</time></trkpt>
<trkpt lat="36.977806" lon="-122.090110"><ele>162.0</ele><time>2023-06-19T19:07:08Z</time></trkpt>
<trkpt lat="36.977705" lon="-122.090056"><ele>162.4</ele><time>2023-06-19T19:07:11Z</time></trkpt>
<trkpt lat="36.977529" lon="-122.090046"><ele>162.6</ele><time>2023-06-19T19:07:17Z</time></trkpt>
<trkpt lat="36.977595" lon="-122.090029"><ele>160.6</ele><time>2023-06-19T19:11:35Z</time></trkpt>
<trkpt lat="36.977713" lon="-122.090067"><ele>161.2</ele><time>2023-06-19T19:11:41Z</time></trkpt>
<trkpt lat="36.977863" lon="-122.090204"><ele>160.0</ele><time>2023-06-19T19:11:46Z</time></trkpt>
<trkpt lat="36.977909" lon="-122.090713"><ele>158.6</ele><time>2023-06-19T19:11:56Z</time></trkpt>
<trkpt lat="36.978030" lon="-122.091271"><ele>160.4</ele><time>2023-06-19T19:12:06Z</time></trkpt>
<trkpt lat="36.978161" lon="-122.091709"><ele>160.6</ele><time>2023-06-19T19:12:14Z</time></trkpt>
<trkpt lat="36.978407" lon="-122.092364"><ele>159.2</ele><time>2023-06-19T19:12:25Z</time></trkpt>
<trkpt lat="36.978680" lon="-122.092803"><ele>158.4</ele><time>2023-06-19T19:12:34Z</time></trkpt>
<trkpt lat="36.978761" lon="-122.093017"><ele>157.6</ele><time>2023-06-19T19:12:38Z</time></trkpt>
<trkpt lat="36.978900" lon="-122.093251"><ele>157.4</ele><time>2023-06-19T19:12:43Z</time></trkpt>
<trkpt lat="36.979073" lon="-122.093799"><ele>156.6</ele><time>2023-06-19T19:12:55Z</time></trkpt>
<trkpt lat="36.979219" lon="-122.094042"><ele>159.0</ele><time>2023-06-19T19:13:01Z</time></trkpt>
<trkpt lat="36.979504" lon="-122.094461"><ele>156.4</ele><time>2023-06-19T19:13:10Z</time></trkpt>
<trkpt lat="36.979749" lon="-122.094709"><ele>157.4</ele><time>2023-06-19T19:13:20Z</time></trkpt>
<trkpt lat="36.979902" lon="-122.094949"><ele>161.2</ele><time>2023-06-19T19:13:30Z</time></trkpt>
<trkpt lat="36.980271" lon="-122.095745"><ele>161.0</ele><time>2023-06-19T19:13:52Z</time></trkpt>
<trkpt lat="36.980539" lon="-122.096115"><ele>161.0</ele><time>2023-06-19T19:14:02Z</time></trkpt>
<trkpt lat="36.980914" lon="-122.096499"><ele>161.0</ele><time>2023-06-19T19:14:15Z</time></trkpt>
<trkpt lat="36.981402" lon="-122.096877"><ele>164.2</ele><time>2023-06-19T19:14:39Z</time></trkpt>
<trkpt lat="36.981327" lon="-122.096964"><ele>164.2</ele><time>2023-06-19T19:14:43Z</time></trkpt>
<trkpt lat="36.981231" lon="-122.097204"><ele>165.8</ele><time>2023-06-19T19:14:50Z</time></trkpt>
<trkpt lat="36.981066" lon="-122.097377"><ele>165.6</ele><time>2023-06-19T19:14:55Z</time></trkpt>
<trkpt lat="36.980607" lon="-122.097325"><ele>163.6</ele><time>2023-06-19T19:15:04Z</time></trkpt>
<trkpt lat="36.980520" lon="-122.097375"><ele>163.8</ele><time>2023-06-19T19:15:06Z</time></trkpt>
<trkpt lat="36.980378" lon="-122.097657"><ele>162.6</ele><time>2023-06-19T19:15:12Z</time></trkpt>
<trkpt lat="36.980185" lon="-122.098244"><ele>162.8</ele><time>2023-06-19T19:15:24Z</time></trkpt>
<trkpt lat="36.979996" lon="-122.098505"><ele>162.4</ele><time>2023-06-19T19:15:30Z</time></trkpt>
<trkpt lat="36.979577" lon="-122.098872"><ele>160.4</ele><time>2023-06-19T19:15:42Z</time></trkpt>
<trkpt lat="36.979417" lon="-122.098924"><ele>159.0</ele><time>2023-06-19T19:15:46Z</time></trkpt>
<trkpt lat="36.979154" lon="-122.098903"><ele>158.4</ele><time>2023-06-19T19:15:51Z</time></trkpt>
<trkpt lat="36.978906" lon="-122.098837"><ele>156.8</ele><time>2023-06-19T19:15:55Z</time></trkpt>
<trkpt lat="36.978733" lon="-122.098906"><ele>155.6</ele><time>2023-06-19T19:15:58Z</time></trkpt>
<trkpt lat="36.978667" lon="-122.099129"><ele>154.2</ele><time>2023-06-19T19:16:03Z</time></trkpt>
<trkpt lat="36.978727" lon="-122.099575"><ele>152.8</ele><time>2023-06-19T19:16:10Z</time></trkpt>
<trkpt lat="36.978717" lon="-122.099824"><ele>149.4</ele><time>2023-06-19T19:16:13Z</time></trkpt>
<trkpt lat="36.978554" lon="-122.100284"><ele>142.6</ele><time>2023-06-19T19:16:20Z</time></trkpt>
<trkpt lat="36.978525" lon="-122.100563"><ele>139.6</ele><time>2023-06-19T19:16:24Z</time></trkpt>
<trkpt lat="36.978454" lon="-122.100869"><ele>138.8</ele><time>2023-06-19T19:16:28Z</time></trkpt>
<trkpt lat="36.978280" lon="-122.101045"><ele>136.4</ele><time>2023-06-19T19:16:31Z</time></trkpt>
<trkpt lat="36.978183" lon="-122.101208"><ele>134.2</ele><time>2023-06-19T19:16:34Z</time></trkpt>
<trkpt lat="36.977792" lon="-122.101129"><ele>130.4</ele><time>2023-06-19T19:16:44Z</time></trkpt>
<trkpt lat="36.977067" lon="-122.101272"><ele>124.6</ele><time>2023-06-19T19:17:00Z</time></trkpt>
<trkpt lat="36.976456" lon="-122.101543"><ele>118.0</ele><time>2023-06-19T19:17:13Z</time></trkpt>
<trkpt lat="36.976257" lon="-122.101501"><ele>117.0</ele><time>2023-06-19T19:17:17Z</time></trkpt>
<trkpt lat="36.976135" lon="-122.101424"><ele>115.6</ele><time>2023-06-19T19:17:20Z</time></trkpt>
<trkpt lat="36.976107" lon="-122.101339"><ele>114.4</ele><time>2023-06-19T19:17:22Z</time></trkpt>
<trkpt lat="36.976122" lon="-122.101190"><ele>113.0</ele><time>2023-06-19T19:17:25Z</time></trkpt>
<trkpt lat="36.976219" lon="-122.100926"><ele>110.2</ele><time>2023-06-19T19:17:31Z</time></trkpt>
<trkpt lat="36.976288" lon="-122.100589"><ele>106.6</ele><time>2023-06-19T19:17:36Z</time></trkpt>
<trkpt lat="36.976277" lon="-122.100402"><ele>103.4</ele><time>2023-06-19T19:17:39Z</time></trkpt>
<trkpt lat="36.976178" lon="-122.100258"><ele>100.4</ele><time>2023-06-19T19:17:42Z</time></trkpt>
<trkpt lat="36.976077" lon="-122.100196"><ele>98.8</ele><time>2023-06-19T19:17:44Z</time></trkpt>
<trkpt lat="36.976010" lon="-122.100064"><ele>95.8</ele><time>2023-06-19T19:17:46Z</time></trkpt>
<trkpt lat="36.975781" lon="-122.099823"><ele>93.0</ele><time>2023-06-19T19:17:50Z</time></trkpt>
<trkpt lat="36.975463" lon="-122.099601"><ele>87.6</ele><time>2023-06-19T19:17:55Z</time></trkpt>
<trkpt lat="36.975213" lon="-122.099362"><ele>83.8</ele><time>2023-06-19T19:17:59Z</time></trkpt>
<trkpt lat="36.975000" lon="-122.099312"><ele>80.8</ele><time>2023-06-19T19:18:03Z</time></trkpt>
<trkpt lat="36.974744" lon="-122.099456"><ele>79.0</ele><time>2023-06-19T19:18:09Z</time></trkpt>
<trkpt lat="36.974739" lon="-122.099407"><ele>78.6</ele><time>2023-06-19T19:18:11Z</time></trkpt>
<trkpt lat="36.974923" lon="-122.099122"><ele>76.0</ele><time>2023-06-19T19:18:19Z</time></trkpt>
<trkpt lat="36.975048" lon="-122.099028"><ele>73.0</ele><time>2023-06-19T19:18:22Z</time></trkpt>
<trkpt lat="36.975074" lon="-122.098917"><ele>72.4</ele><time>2023-06-19T19:18:25Z</time></trkpt>
<trkpt lat="36.974918" lon="-122.098949"><ele>71.6</ele><time>2023-06-19T19:18:32Z</time></trkpt>
<trkpt lat="36.974621" lon="-122.098897"><ele>75.6</ele><time>2023-06-19T19:18:48Z</time></trkpt>
<trkpt lat="36.974387" lon="-122.098912"><ele>75.4</ele><time>2023-06-19T19:18:58Z</time></trkpt>
<trkpt lat="36.974256" lon="-122.098880"><ele>76.4</ele><time>2023-06-19T19:19:03Z</time></trkpt>
<trkpt lat="36.974133" lon="-122.098784"><ele>76.2</ele><time>2023-06-19T19:19:07Z</time></trkpt>
<trkpt lat="36.974053" lon="-122.098607"><ele>74.6</ele><time>2023-06-19T19:19:10Z</time></trkpt>
<trkpt lat="36.974031" lon="-122.098322"><ele>72.4</ele><time>2023-06-19T19:19:14Z</time></trkpt>
<trkpt lat="36.973957" lon="-122.098237"><ele>72.0</ele><time>2023-06-19T19:19:16Z</time></trkpt>
<trkpt lat="36.973807" lon="-122.098154"><ele>71.0</ele><time>2023-06-19T19:19:19Z</time></trkpt>
<trkpt lat="36.973706" lon="-122.097990"><ele>68.8</ele><time>2023-06-19T19:19:23Z</time></trkpt>
<trkpt lat="36.973669" lon="-122.097864"><ele>68.8</ele><time>2023-06-19T19:19:27Z</time></trkpt>
<trkpt lat="36.973448" lon="-122.097504"><ele>70.0</ele><time>2023-06-19T19:19:41Z</time></trkpt>
<trkpt lat="36.973327" lon="-122.097127"><ele>69.4</ele><time>2023-06-19T19:19:50Z</time></trkpt>
<trkpt lat="36.973172" lon="-122.096964"><ele>65.0</ele><time>2023-06-19T19:19:56Z</time></trkpt>
<trkpt lat="36.973049" lon="-122.096969"><ele>65.0</ele><time>2023-06-19T19:20:01Z</time></trkpt>
<trkpt lat="36.973013" lon="-122.096914"><ele>65.2</ele><time>2023-06-19T19:20:04Z</time></trkpt>
<trkpt lat="36.972995" lon="-122.096573"><ele>65.6</ele><time>2023-06-19T19:20:13Z</time></trkpt>
<trkpt lat="36.972921" lon="-122.096361"><ele>64.4</ele><time>2023-06-19T19:20:17Z</time></trkpt>
<trkpt lat="36.972809" lon="-122.096329"><ele>63.8</ele><time>2023-06-19T19:20:20Z</time></trkpt>
<trkpt lat="36.972687" lon="-122.096238"><ele>63.2</ele><time>2023-06-19T19:20:25Z</time></trkpt>
<trkpt lat="36.972532" lon="-122.096256"><ele>64.0</ele><time>2023-06-19T19:20:30Z</time></trkpt>
<trkpt lat="36.972367" lon="-122.096227"><ele>63.2</ele><time>2023-06-19T19:20:34Z</time></trkpt>
<trkpt lat="36.972126" lon="-122.096077"><ele>62.8</ele><time>2023-06-19T19:20:42Z</time></trkpt>
<trkpt lat="36.972089" lon="-122.095999"><ele>63.2</ele><time>2023-06-19T19:20:45Z</time></trkpt>
<trkpt lat="36.972089" lon="-122.095902"><ele>65.2</ele><time>2023-06-19T19:20:50Z</time></trkpt>
<trkpt lat="36.972138" lon="-122.095833"><ele>66.0</ele><time>2023-06-19T19:20:54Z</time></trkpt>
<trkpt lat="36.972183" lon="-122.095668"><ele>67.8</ele><time>2023-06-19T19:21:03Z</time></trkpt>
<trkpt lat="36.972249" lon="-122.095137"><ele>72.2</ele><time>2023-06-19T19:21:24Z</time></trkpt>
<trkpt lat="36.972196" lon="-122.094692"><ele>72.2</ele><time>2023-06-19T19:21:37Z</time></trkpt>
<trkpt lat="36.972245" lon="-122.094221"><ele>70.4</ele><time>2023-06-19T19:21:45Z</time></trkpt>
<trkpt lat="36.972285" lon="-122.094094"><ele>69.6</ele><time>2023-06-19T19:21:47Z</time></trkpt>
<trkpt lat="36.972275" lon="-122.094039"><ele>69.4</ele><time>2023-06-19T19:21:48Z</time></trkpt>
<trkpt lat="36.972211" lon="-122.093971"><ele>68.8</ele><time>2023-06-19T19:21:50Z</time></trkpt>
<trkpt lat="36.972195" lon="-122.093808"><ele>68.0</ele><time>2023-06-19T19:21:53Z</time></trkpt>
<trkpt lat="36.972289" lon="-122.093404"><ele>65.8</ele><time>2023-06-19T19:21:59Z</time></trkpt>
<trkpt lat="36.972243" lon="-122.093286"><ele>65.2</ele><time>2023-06-19T19:22:01Z</time></trkpt>
<trkpt lat="36.972278" lon="-122.093135"><ele>64.8</ele><time>2023-06-19T19:22:04Z</time></trkpt>
<trkpt lat="36.972246" lon="-122.092772"><ele>64.6</ele><time>2023-06-19T19:22:11Z</time></trkpt>
<trkpt lat="36.972141" lon="-122.092653"><ele>65.4</ele><time>2023-06-19T19:22:15Z</time></trkpt>
<trkpt lat="36.972016" lon="-122.092612"><ele>65.4</ele><time>2023-06-19T19:22:18Z</time></trkpt>
<trkpt lat="36.971928" lon="-122.092454"><ele>62.8</ele><time>2023-06-19T19:22:22Z</time></trkpt>
<trkpt lat="36.971946" lon="-122.092253"><ele>63.0</ele><time>2023-06-19T19:22:27Z</time></trkpt>
<trkpt lat="36.972004" lon="-122.092155"><ele>64.4</ele><time>2023-06-19T19:22:32Z</time></trkpt>
<trkpt lat="36.972018" lon="-122.092018"><ele>66.2</ele><time>2023-06-19T19:22:40Z</time></trkpt>
<trkpt lat="36.972060" lon="-122.091968"><ele>67.0</ele><time>2023-06-19T19:22:43Z</time></trkpt>
<trkpt lat="36.972101" lon="-122.091958"><ele>68.2</ele><time>2023-06-19T19:22:46Z</time></trkpt>
<trkpt lat="36.972254" lon="-122.092050"><ele>68.0</ele><time>2023-06-19T19:22:55Z</time></trkpt>
<trkpt lat="36.972391" lon="-122.092090"><ele>69.4</ele><time>2023-06-19T19:23:01Z</time></trkpt>
<trkpt lat="36.972674" lon="-122.092299"><ele>68.6</ele><time>2023-06-19T19:23:27Z</time></trkpt>
<trkpt lat="36.973349" lon="-122.092600"><ele>70.4</ele><time>2023-06-19T19:23:50Z</time></trkpt>
<trkpt lat="36.973756" lon="-122.092964"><ele>72.2</ele><time>2023-06-19T19:24:05Z</time></trkpt>
<trkpt lat="36.973863" lon="-122.093155"><ele>73.8</ele><time>2023-06-19T19:24:15Z</time></trkpt>
<trkpt lat="36.974135" lon="-122.093435"><ele>79.0</ele><time>2023-06-19T19:24:34Z</time></trkpt>
<trkpt lat="36.974687" lon="-122.093859"><ele>83.0</ele><time>2023-06-19T19:25:06Z</time></trkpt>
<trkpt lat="36.975029" lon="-122.093998"><ele>85.6</ele><time>2023-06-19T19:25:23Z</time></trkpt>
<trkpt lat="36.975241" lon="-122.094044"><ele>87.2</ele><time>2023-06-19T19:25:34Z</time></trkpt>
<trkpt lat="36.975306" lon="-122.094023"><ele>87.6</ele><time>2023-06-19T19:25:37Z</time></trkpt>
<trkpt lat="36.975372" lon="-122.093882"><ele>87.8</ele><time>2023-06-19T19:25:42Z</time></trkpt>
<trkpt lat="36.975368" lon="-122.093811"><ele>88.0</ele><time>2023-06-19T19:25:44Z</time></trkpt>
<trkpt lat="36.975318" lon="-122.093750"><ele>89.0</ele><time>2023-06-19T19:25:48Z</time></trkpt>
<trkpt lat="36.975156" lon="-122.093689"><ele>88.2</ele><time>2023-06-19T19:25:52Z</time></trkpt>
<trkpt lat="36.975019" lon="-122.093564"><ele>86.0</ele><time>2023-06-19T19:25:55Z</time></trkpt>
<trkpt lat="36.974833" lon="-122.093572"><ele>85.2</ele><time>2023-06-19T19:25:59Z</time></trkpt>
<trkpt lat="36.974744" lon="-122.093532"><ele>83.8</ele><time>2023-06-19T19:26:01Z</time></trkpt>
<trkpt lat="36.974337" lon="-122.092988"><ele>77.8</ele><time>2023-06-19T19:26:13Z</time></trkpt>
<trkpt lat="36.974171" lon="-122.092879"><ele>76.2</ele><time>2023-06-19T19:26:17Z</time></trkpt>
<trkpt lat="36.973792" lon="-122.092518"><ele>71.4</ele><time>2023-06-19T19:26:24Z</time></trkpt>
<trkpt lat="36.973568" lon="-122.092036"><ele>70.0</ele><time>2023-06-19T19:26:38Z</time></trkpt>
<trkpt lat="36.973256" lon="-122.091843"><ele>70.6</ele><time>2023-06-19T19:26:49Z</time></trkpt>
<trkpt lat="36.972840" lon="-122.091480"><ele>68.4</ele><time>2023-06-19T19:27:00Z</time></trkpt>
<trkpt lat="36.972709" lon="-122.091201"><ele>66.8</ele><time>2023-06-19T19:27:05Z</time></trkpt>
<trkpt lat="36.972606" lon="-122.091053"><ele>66.8</ele><time>2023-06-19T19:27:09Z</time></trkpt>
<trkpt lat="36.972492" lon="-122.090783"><ele>66.8</ele><time>2023-06-19T19:27:15Z</time></trkpt>
<trkpt lat="36.972240" lon="-122.090727"><ele>66.0</ele><time>2023-06-19T19:27:21Z</time></trkpt>
<trkpt lat="36.972158" lon="-122.090637"><ele>64.2</ele><time>2023-06-19T19:27:23Z</time></trkpt>
<trkpt lat="36.972144" lon="-122.090576"><ele>64.0</ele><time>2023-06-19T19:27:24Z</time></trkpt>
<trkpt lat="36.972171" lon="-122.090491"><ele>63.6</ele><time>2023-06-19T19:27:26Z</time></trkpt>
<trkpt lat="36.972228" lon="-122.090459"><ele>63.6</ele><time>2023-06-19T19:27:28Z</time></trkpt>
<trkpt lat="36.972367" lon="-122.090473"><ele>65.8</ele><time>2023-06-19T19:27:35Z</time></trkpt>
<trkpt lat="36.972448" lon="-122.090439"><ele>66.0</ele><time>2023-06-19T19:27:39Z</time></trkpt>
<trkpt lat="36.972783" lon="-122.090444"><ele>65.4</ele><time>2023-06-19T19:27:50Z</time></trkpt>
<trkpt lat="36.972870" lon="-122.090321"><ele>66.0</ele><time>2023-06-19T19:27:55Z</time></trkpt>
<trkpt lat="36.972875" lon="-122.090201"><ele>66.8</ele><time>2023-06-19T19:27:59Z</time></trkpt>
<trkpt lat="36.972828" lon="-122.090092"><ele>67.4</ele><time>2023-06-19T19:28:03Z</time></trkpt>
<trkpt lat="36.972717" lon="-122.089990"><ele>66.8</ele><time>2023-06-19T19:28:07Z</time></trkpt>
<trkpt lat="36.972696" lon="-122.089941"><ele>66.4</ele><time>2023-06-19T19:28:08Z</time></trkpt>
<trkpt lat="36.972716" lon="-122.089848"><ele>66.0</ele><time>2023-06-19T19:28:10Z</time></trkpt>
<trkpt lat="36.972888" lon="-122.089725"><ele>66.4</ele><time>2023-06-19T19:28:34Z</time></trkpt>
<trkpt lat="36.973121" lon="-122.089669"><ele>67.4</ele><time>2023-06-19T19:28:43Z</time></trkpt>
<trkpt lat="36.973487" lon="-122.089733"><ele>69.0</ele><time>2023-06-19T19:28:56Z</time></trkpt>
<trkpt lat="36.973671" lon="-122.089808"><ele>68.4</ele><time>2023-06-19T19:29:01Z</time></trkpt>
<trkpt lat="36.973820" lon="-122.090081"><ele>69.6</ele><time>2023-06-19T19:29:10Z</time></trkpt>
<trkpt lat="36.973876" lon="-122.090135"><ele>70.8</ele><time>2023-06-19T19:29:13Z</time></trkpt>
<trkpt lat="36.973944" lon="-122.090156"><ele>71.6</ele><time>2023-06-19T19:29:16Z</time></trkpt>
<trkpt lat="36.974092" lon="-122.090124"><ele>71.6</ele><time>2023-06-19T19:29:21Z</time></trkpt>
<trkpt lat="36.974179" lon="-122.090165"><ele>71.8</ele><time>2023-06-19T19:29:24Z</time></trkpt>
<trkpt lat="36.974282" lon="-122.090294"><ele>73.2</ele><time>2023-06-19T19:29:29Z</time></trkpt>
<trkpt lat="36.974345" lon="-122.090256"><ele>73.6</ele><time>2023-06-19T19:29:32Z</time></trkpt>
<trkpt lat="36.974364" lon="-122.090123"><ele>74.0</ele><time>2023-06-19T19:29:36Z</time></trkpt>
<trkpt lat="36.974346" lon="-122.090086"><ele>74.0</ele><time>2023-06-19T19:29:37Z</time></trkpt>
<trkpt lat="36.974012" lon="-122.089819"><ele>70.6</ele><time>2023-06-19T19:29:47Z</time></trkpt>
<trkpt lat="36.973903" lon="-122.089485"><ele>68.2</ele><time>2023-06-19T19:29:51Z</time></trkpt>
<trkpt lat="36.973854" lon="-122.089414"><ele>67.6</ele><time>2023-06-19T19:29:52Z</time></trkpt>
<trkpt lat="36.973583" lon="-122.089274"><ele>66.2</ele><time>2023-06-19T19:29:57Z</time></trkpt>
<trkpt lat="36.973526" lon="-122.089158"><ele>67.0</ele><time>2023-06-19T19:29:59Z</time></trkpt>
<trkpt lat="36.973603" lon="-122.088881"><ele>67.4</ele><time>2023-06-19T19:30:04Z</time></trkpt>
<trkpt lat="36.973744" lon="-122.088587"><ele>66.8</ele><time>2023-06-19T19:30:09Z</time></trkpt>
<trkpt lat="36.973776" lon="-122.088546"><ele>66.8</ele><time>2023-06-19T19:30:10Z</time></trkpt>
<trkpt lat="36.973926" lon="-122.088521"><ele>67.0</ele><time>2023-06-19T19:30:14Z</time></trkpt>
<trkpt lat="36.973963" lon="-122.088477"><ele>68.4</ele><time>2023-06-19T19:30:16Z</time></trkpt>
<trkpt lat="36.974037" lon="-122.088149"><ele>69.4</ele><time>2023-06-19T19:30:25Z</time></trkpt>
<trkpt lat="36.974108" lon="-122.087966"><ele>69.0</ele><time>2023-06-19T19:30:29Z</time></trkpt>
<trkpt lat="36.974074" lon="-122.087882"><ele>69.0</ele><time>2023-06-19T19:30:31Z</time></trkpt>
<trkpt lat="36.973941" lon="-122.087955"><ele>69.0</ele><time>2023-06-19T19:30:36Z</time></trkpt>
<trkpt lat="36.973789" lon="-122.088161"><ele>69.2</ele><time>2023-06-19T19:30:44Z</time></trkpt>
<trkpt lat="36.973701" lon="-122.088221"><ele>68.4</ele><time>2023-06-19T19:30:46Z</time></trkpt>
<trkpt lat="36.973361" lon="-122.088398"><ele>66.6</ele><time>2023-06-19T19:30:53Z</time></trkpt>
<trkpt lat="36.972826" lon="-122.088705"><ele>68.4</ele><time>2023-06-19T19:31:12Z</time></trkpt>
<trkpt lat="36.972496" lon="-122.088794"><ele>69.2</ele><time>2023-06-19T19:31:19Z</time></trkpt>
<trkpt lat="36.972405" lon="-122.088720"><ele>68.4</ele><time>2023-06-19T19:31:21Z</time></trkpt>
<trkpt lat="36.972294" lon="-122.088113"><ele>66.6</ele><time>2023-06-19T19:31:30Z</time></trkpt>
<trkpt lat="36.972062" lon="-122.087829"><ele>65.6</ele><time>2023-06-19T19:31:35Z</time></trkpt>
<trkpt lat="36.971997" lon="-122.087698"><ele>65.8</ele><time>2023-06-19T19:31:38Z</time></trkpt>
<trkpt lat="36.971926" lon="-122.087452"><ele>70.2</ele><time>2023-06-19T19:31:50Z</time></trkpt>
<trkpt lat="36.971860" lon="-122.087359"><ele>71.8</ele><time>2023-06-19T19:31:56Z</time></trkpt>
<trkpt lat="36.971759" lon="-122.087323"><ele>72.6</ele><time>2023-06-19T19:32:01Z</time></trkpt>
<trkpt lat="36.971594" lon="-122.087339"><ele>73.0</ele><time>2023-06-19T19:32:08Z</time></trkpt>
<trkpt lat="36.971426" lon="-122.087154"><ele>72.2</ele><time>2023-06-19T19:32:15Z</time></trkpt>
<trkpt lat="36.971221" lon="-122.087111"><ele>71.8</ele><time>2023-06-19T19:32:20Z</time></trkpt>
<trkpt lat="36.971020" lon="-122.086844"><ele>70.8</ele><time>2023-06-19T19:32:25Z</time></trkpt>
<trkpt lat="36.970732" lon="-122.086625"><ele>65.0</ele><time>2023-06-19T19:32:29Z</time></trkpt>
<trkpt lat="36.970534" lon="-122.086397"><ele>64.4</ele><time>2023-06-19T19:32:33Z</time></trkpt>
<trkpt lat="36.970402" lon="-122.086293"><ele>66.0</ele><time>2023-06-19T19:32:36Z</time></trkpt>
<trkpt lat="36.970124" lon="-122.086161"><ele>68.2</ele><time>2023-06-19T19:32:43Z</time></trkpt>
<trkpt lat="36.969765" lon="-122.086109"><ele>68.0</ele><time>2023-06-19T19:32:50Z</time></trkpt>
<trkpt lat="36.969218" lon="-122.086442"><ele>68.2</ele><time>2023-06-19T19:33:04Z</time></trkpt>
<trkpt lat="36.969069" lon="-122.086500"><ele>68.4</ele><time>2023-06-19T19:33:07Z</time></trkpt>
<trkpt lat="36.968433" lon="-122.086675"><ele>68.4</ele><time>2023-06-19T19:33:20Z</time></trkpt>
<trkpt lat="36.967885" lon="-122.086743"><ele>66.4</ele><time>2023-06-19T19:33:31Z</time></trkpt>
<trkpt lat="36.967495" lon="-122.086918"><ele>66.2</ele><time>2023-06-19T19:33:39Z</time></trkpt>
<trkpt lat="36.966931" lon="-122.087058"><ele>66.6</ele><time>2023-06-19T19:33:50Z</time></trkpt>
<trkpt lat="36.966132" lon="-122.087338"><ele>64.4</ele><time>2023-06-19T19:34:04Z</time></trkpt>
<trkpt lat="36.965250" lon="-122.087348"><ele>60.4</ele><time>2023-06-19T19:34:19Z</time></trkpt>
<trkpt lat="36.964624" lon="-122.087348"><ele>51.8</ele><time>2023-06-19T19:34:27Z</time></trkpt>
<trkpt lat="36.964430" lon="-122.087281"><ele>50.6</ele><time>2023-06-19T19:34:29Z</time></trkpt>
<trkpt lat="36.964243" lon="-122.087154"><ele>50.0</ele><time>2023-06-19T19:34:31Z</time></trkpt>
<trkpt lat="36.963834" lon="-122.086718"><ele>45.2</ele><time>2023-06-19T19:34:37Z</time></trkpt>
<trkpt lat="36.963557" lon="-122.086353"><ele>40.4</ele><time>2023-06-19T19:34:42Z</time></trkpt>
<trkpt lat="36.963505" lon="-122.086161"><ele>38.2</ele><time>2023-06-19T19:34:45Z</time></trkpt>
<trkpt lat="36.963589" lon="-122.085746"><ele>36.4</ele><time>2023-06-19T19:34:52Z</time></trkpt>
<trkpt lat="36.963580" lon="-122.085685"><ele>36.0</ele><time>2023-06-19T19:34:54Z</time></trkpt>
<trkpt lat="36.963530" lon="-122.085706"><ele>35.0</ele><time>2023-06-19T19:34:58Z</time></trkpt>
<trkpt lat="36.963386" lon="-122.085674"><ele>33.8</ele><time>2023-06-19T19:35:10Z</time></trkpt>
<trkpt lat="36.962577" lon="-122.085247"><ele>25.6</ele><time>2023-06-19T19:35:33Z</time></trkpt>
<trkpt lat="36.962522" lon="-122.085112"><ele>25.0</ele><time>2023-06-19T19:35:39Z</time></trkpt>
<trkpt lat="36.962404" lon="-122.085117"><ele>24.8</ele><time>2023-06-19T19:35:44Z</time></trkpt>
<trkpt lat="36.962305" lon="-122.084992"><ele>25.2</ele><time>2023-06-19T19:35:53Z</time></trkpt>
<trkpt lat="36.962279" lon="-122.084767"><ele>24.2</ele><time>2023-06-19T19:36:01Z</time></trkpt>
<trkpt lat="36.962255" lon="-122.084699"><ele>21.4</ele><time>2023-06-19T19:36:06Z</time></trkpt>
<trkpt lat="36.962256" lon="-122.084813"><ele>21.0</ele><time>2023-06-19T19:36:19Z</time></trkpt>
<trkpt lat="36.962169" lon="-122.084829"><ele>20.6</ele><time>2023-06-19T19:36:28Z</time></trkpt>
<trkpt lat="36.962113" lon="-122.084913"><ele>19.0</ele><time>2023-06-19T19:36:31Z</time></trkpt>
<trkpt lat="36.962098" lon="-122.085190"><ele>20.4</ele><time>2023-06-19T19:36:38Z</time></trkpt>
<trkpt lat="36.962072" lon="-122.085345"><ele>18.4</ele><time>2023-06-19T19:36:45Z</time></trkpt>
</trkseg></trk>
</gpx>
