<?xml version="1.0" encoding="UTF-8"?>
<gpx version="1.1" creator="Eric Sichak trip reports" xmlns="http://www.topografix.com/GPX/1/1">
<metadata><name>Solo Tallac Lap on Cathedral Bowl</name><time>2026-01-19T15:18:50Z</time></metadata>
<trk><name>Solo Tallac Lap on Cathedral Bowl</name><type>ski</type><trkseg>
<trkpt lat="38.932937" lon="-120.077180"><ele>1930.4</ele><time>2026-01-19T15:18:50Z</time></trkpt>
<trkpt lat="38.932602" lon="-120.077648"><ele>1933.6</ele><time>2026-01-19T15:19:50Z</time></trkpt>
<trkpt lat="38.932492" lon="-120.078142"><ele>1936.8</ele><time>2026-01-19T15:20:39Z</time></trkpt>
<trkpt lat="38.932434" lon="-120.078831"><ele>1942.0</ele><time>2026-01-19T15:21:41Z</time></trkpt>
<trkpt lat="38.932093" lon="-120.079202"><ele>1943.4</ele><time>2026-01-19T15:22:30Z</time></trkpt>
<trkpt lat="38.931692" lon="-120.079498"><ele>1946.2</ele><time>2026-01-19T15:23:16Z</time></trkpt>
<trkpt lat="38.931459" lon="-120.079564"><ele>1946.6</ele><time>2026-01-19T15:23:40Z</time></trkpt>
<trkpt lat="38.931328" lon="-120.079548"><ele>1947.2</ele><time>2026-01-19T15:23:54Z</time></trkpt>
<trkpt lat="38.931157" lon="-120.079607"><ele>1946.6</ele><time>2026-01-19T15:24:15Z</time></trkpt>
<trkpt lat="38.931048" lon="-120.079584"><ele>1946.6</ele><time>2026-01-19T15:24:26Z</time></trkpt>
<trkpt lat="38.930718" lon="-120.079778"><ele>1948.2</ele><time>2026-01-19T15:25:01Z</time></trkpt>
<trkpt lat="38.930522" lon="-120.079939"><ele>1949.0</ele><time>2026-01-19T15:25:38Z</time></trkpt>
<trkpt lat="38.930413" lon="-120.079937"><ele>1949.2</ele><time>2026-01-19T15:25:51Z</time></trkpt>
<trkpt lat="38.930319" lon="-120.079979"><ele>1949.2</ele><time>2026-01-19T15:26:02Z</time></trkpt>
<trkpt lat="38.930223" lon="-120.080070"><ele>1949.2</ele><time>2026-01-19T15:26:15Z</time></trkpt>
<trkpt lat="38.930138" lon="-120.080212"><ele>1948.2</ele><time>2026-01-19T15:26:32Z</time></trkpt>
<trkpt lat="38.929957" lon="-120.080299"><ele>1944.8</ele><time>2026-01-19T15:27:07Z</time></trkpt>
<trkpt lat="38.929937" lon="-120.080282"><ele>1946.4</ele><time>2026-01-19T15:28:09Z</time></trkpt>
<trkpt lat="38.929859" lon="-120.080327"><ele>1946.4</ele><time>2026-01-19T15:28:21Z</time></trkpt>
<trkpt lat="38.929714" lon="-120.080309"><ele>1947.6</ele><time>2026-01-19T15:28:37Z</time></trkpt>
<trkpt lat="38.929541" lon="-120.080232"><ele>1948.8</ele><time>2026-01-19T15:29:00Z</time></trkpt>
<trkpt lat="38.929401" lon="-120.080090"><ele>1950.4</ele><time>2026-01-19T15:29:22Z</time></trkpt>
<trkpt lat="38.929246" lon="-120.079997"><ele>1953.4</ele><time>2026-01-19T15:29:41Z</time></trkpt>
<trkpt lat="38.929186" lon="-120.079915"><ele>1953.2</ele><time>2026-01-19T15:29:51Z</time></trkpt>
<trkpt lat="38.928951" lon="-120.079806"><ele>1956.4</ele><time>2026-01-19T15:30:17Z</time></trkpt>
<trkpt lat="38.928470" lon="-120.079752"><ele>1961.2</ele><time>2026-01-19T15:31:18Z</time></trkpt>
<trkpt lat="38.928338" lon="-120.079665"><ele>1962.0</ele><time>2026-01-19T15:31:35Z</time></trkpt>
<trkpt lat="38.928159" lon="-120.079685"><ele>1963.6</ele><time>2026-01-19T15:31:52Z</time></trkpt>
<trkpt lat="38.928027" lon="-120.079773"><ele>1964.6</ele><time>2026-01-19T15:32:09Z</time></trkpt>
<trkpt lat="38.927915" lon="-120.079794"><ele>1966.0</ele><time>2026-01-19T15:32:24Z</time></trkpt>
<trkpt lat="38.927757" lon="-120.079746"><ele>1967.6</ele><time>2026-01-19T15:32:42Z</time></trkpt>
<trkpt lat="38.927594" lon="-120.079754"><ele>1969.0</ele><time>2026-01-19T15:32:58Z</time></trkpt>
<trkpt lat="38.927248" lon="-120.079638"><ele>1970.8</ele><time>2026-01-19T15:33:41Z</time></trkpt>
<trkpt lat="38.926934" lon="-120.079474"><ele>1972.0</ele><time>2026-01-19T15:34:13Z</time></trkpt>
<trkpt lat="38.926697" lon="-120.079432"><ele>1972.8</ele><time>2026-01-19T15:34:40Z</time></trkpt>
<trkpt lat="38.926626" lon="-120.079364"><ele>1973.0</ele><time>2026-01-19T15:34:49Z</time></trkpt>
<trkpt lat="38.926385" lon="-120.079372"><ele>1974.0</ele><time>2026-01-19T15:35:13Z</time></trkpt>
<trkpt lat="38.926240" lon="-120.079292"><ele>1974.6</ele><time>2026-01-19T15:35:29Z</time></trkpt>
<trkpt lat="38.926165" lon="-120.079288"><ele>1975.2</ele><time>2026-01-19T15:35:38Z</time></trkpt>
<trkpt lat="38.925974" lon="-120.079114"><ele>1976.6</ele><time>2026-01-19T15:36:04Z</time></trkpt>
<trkpt lat="38.925736" lon="-120.079094"><ele>1979.0</ele><time>2026-01-19T15:36:28Z</time></trkpt>
<trkpt lat="38.925526" lon="-120.078985"><ele>1980.6</ele><time>2026-01-19T15:36:52Z</time></trkpt>
<trkpt lat="38.925237" lon="-120.078767"><ele>1981.0</ele><time>2026-01-19T15:37:30Z</time></trkpt>
<trkpt lat="38.925028" lon="-120.078546"><ele>1982.2</ele><time>2026-01-19T15:38:00Z</time></trkpt>
<trkpt lat="38.924700" lon="-120.078366"><ele>1981.4</ele><time>2026-01-19T15:38:41Z</time></trkpt>
<trkpt lat="38.924504" lon="-120.078347"><ele>1982.2</ele><time>2026-01-19T15:39:00Z</time></trkpt>
<trkpt lat="38.924329" lon="-120.078383"><ele>1984.0</ele><time>2026-01-19T15:39:18Z</time></trkpt>
<trkpt lat="38.923994" lon="-120.078630"><ele>1987.2</ele><time>2026-01-19T15:39:59Z</time></trkpt>
<trkpt lat="38.923822" lon="-120.078905"><ele>1988.4</ele><time>2026-01-19T15:40:35Z</time></trkpt>
<trkpt lat="38.923723" lon="-120.079162"><ele>1988.6</ele><time>2026-01-19T15:40:54Z</time></trkpt>
<trkpt lat="38.923744" lon="-120.079398"><ele>1989.0</ele><time>2026-01-19T15:41:16Z</time></trkpt>
<trkpt lat="38.923724" lon="-120.079828"><ele>1991.0</ele><time>2026-01-19T15:41:57Z</time></trkpt>
<trkpt lat="38.923692" lon="-120.080012"><ele>1991.4</ele><time>2026-01-19T15:42:16Z</time></trkpt>
<trkpt lat="38.923613" lon="-120.080087"><ele>1992.4</ele><time>2026-01-19T15:42:30Z</time></trkpt>
<trkpt lat="38.923618" lon="-120.080254"><ele>1993.2</ele><time>2026-01-19T15:42:42Z</time></trkpt>
<trkpt lat="38.923553" lon="-120.080358"><ele>1994.0</ele><time>2026-01-19T15:42:52Z</time></trkpt>
<trkpt lat="38.923300" lon="-120.080562"><ele>1996.4</ele><time>2026-01-19T15:43:23Z</time></trkpt>
<trkpt lat="38.923159" lon="-120.080731"><ele>1997.4</ele><time>2026-01-19T15:43:49Z</time></trkpt>
<trkpt lat="38.922765" lon="-120.080888"><ele>1999.6</ele><time>2026-01-19T15:44:38Z</time></trkpt>
<trkpt lat="38.922597" lon="-120.080767"><ele>2000.4</ele><time>2026-01-19T15:45:01Z</time></trkpt>
<trkpt lat="38.922438" lon="-120.080755"><ele>2002.0</ele><time>2026-01-19T15:45:20Z</time></trkpt>
<trkpt lat="38.922284" lon="-120.080822"><ele>2003.2</ele><time>2026-01-19T15:45:38Z</time></trkpt>
<trkpt lat="38.922139" lon="-120.080948"><ele>2003.0</ele><time>2026-01-19T15:45:59Z</time></trkpt>
<trkpt lat="38.922017" lon="-120.081116"><ele>2002.8</ele><time>2026-01-19T15:46:18Z</time></trkpt>
<trkpt lat="38.921897" lon="-120.081166"><ele>2004.0</ele><time>2026-01-19T15:46:33Z</time></trkpt>
<trkpt lat="38.921768" lon="-120.081282"><ele>2005.8</ele><time>2026-01-19T15:46:53Z</time></trkpt>
<trkpt lat="38.921510" lon="-120.081301"><ele>2008.6</ele><time>2026-01-19T15:47:26Z</time></trkpt>
<trkpt lat="38.921448" lon="-120.081378"><ele>2008.8</ele><time>2026-01-19T15:47:43Z</time></trkpt>
<trkpt lat="38.921248" lon="-120.081345"><ele>2011.0</ele><time>2026-01-19T15:48:09Z</time></trkpt>
<trkpt lat="38.921137" lon="-120.081444"><ele>2012.0</ele><time>2026-01-19T15:48:22Z</time></trkpt>
<trkpt lat="38.921088" lon="-120.081450"><ele>2012.6</ele><time>2026-01-19T15:48:31Z</time></trkpt>
<trkpt lat="38.921055" lon="-120.081498"><ele>2012.8</ele><time>2026-01-19T15:48:34Z</time></trkpt>
<trkpt lat="38.921038" lon="-120.081637"><ele>2013.0</ele><time>2026-01-19T15:48:49Z</time></trkpt>
<trkpt lat="38.920973" lon="-120.081657"><ele>2014.6</ele><time>2026-01-19T15:49:02Z</time></trkpt>
<trkpt lat="38.920810" lon="-120.081991"><ele>2016.6</ele><time>2026-01-19T15:49:37Z</time></trkpt>
<trkpt lat="38.920764" lon="-120.082188"><ele>2018.6</ele><time>2026-01-19T15:49:54Z</time></trkpt>
<trkpt lat="38.920655" lon="-120.082370"><ele>2021.8</ele><time>2026-01-19T15:50:20Z</time></trkpt>
<trkpt lat="38.920529" lon="-120.082422"><ele>2025.0</ele><time>2026-01-19T15:50:39Z</time></trkpt>
<trkpt lat="38.920138" lon="-120.082453"><ele>2031.6</ele><time>2026-01-19T15:51:38Z</time></trkpt>
<trkpt lat="38.919884" lon="-120.082634"><ele>2035.4</ele><time>2026-01-19T15:52:21Z</time></trkpt>
<trkpt lat="38.919766" lon="-120.082779"><ele>2038.0</ele><time>2026-01-19T15:52:49Z</time></trkpt>
<trkpt lat="38.919587" lon="-120.082786"><ele>2041.2</ele><time>2026-01-19T15:53:30Z</time></trkpt>
<trkpt lat="38.919488" lon="-120.082884"><ele>2044.2</ele><time>2026-01-19T15:53:49Z</time></trkpt>
<trkpt lat="38.919437" lon="-120.083050"><ele>2046.0</ele><time>2026-01-19T15:54:09Z</time></trkpt>
<trkpt lat="38.919335" lon="-120.083232"><ele>2051.0</ele><time>2026-01-19T15:54:37Z</time></trkpt>
<trkpt lat="38.919234" lon="-120.083302"><ele>2052.8</ele><time>2026-01-19T15:55:19Z</time></trkpt>
<trkpt lat="38.919196" lon="-120.083400"><ele>2055.2</ele><time>2026-01-19T15:55:34Z</time></trkpt>
<trkpt lat="38.919136" lon="-120.083392"><ele>2057.2</ele><time>2026-01-19T15:55:43Z</time></trkpt>
<trkpt lat="38.919108" lon="-120.083426"><ele>2057.8</ele><time>2026-01-19T15:55:58Z</time></trkpt>
<trkpt lat="38.919098" lon="-120.083474"><ele>2055.8</ele><time>2026-01-19T15:56:45Z</time></trkpt>
<trkpt lat="38.918997" lon="-120.083623"><ele>2060.2</ele><time>2026-01-19T15:57:16Z</time></trkpt>
<trkpt lat="38.918968" lon="-120.083753"><ele>2062.6</ele><time>2026-01-19T15:57:31Z</time></trkpt>
<trkpt lat="38.918805" lon="-120.083877"><ele>2069.2</ele><time>2026-01-19T15:58:04Z</time></trkpt>
<trkpt lat="38.918791" lon="-120.083935"><ele>2071.0</ele><time>2026-01-19T15:58:14Z</time></trkpt>
<trkpt lat="38.918726" lon="-120.083998"><ele>2073.6</ele><time>2026-01-19T15:58:35Z</time></trkpt>
<trkpt lat="38.918562" lon="-120.083987"><ele>2077.8</ele><time>2026-01-19T15:59:19Z</time></trkpt>
<trkpt lat="38.918510" lon="-120.084089"><ele>2079.4</ele><time>2026-01-19T15:59:59Z</time></trkpt>
<trkpt lat="38.918501" lon="-120.084279"><ele>2082.0</ele><time>2026-01-19T16:00:34Z</time></trkpt>
<trkpt lat="38.918419" lon="-120.084275"><ele>2085.4</ele><time>2026-01-19T16:00:54Z</time></trkpt>
<trkpt lat="38.918383" lon="-120.084369"><ele>2087.4</ele><time>2026-01-19T16:01:11Z</time></trkpt>
<trkpt lat="38.918200" lon="-120.084336"><ele>2091.0</ele><time>2026-01-19T16:01:53Z</time></trkpt>
<trkpt lat="38.918144" lon="-120.084544"><ele>2095.8</ele><time>2026-01-19T16:02:26Z</time></trkpt>
<trkpt lat="38.917847" lon="-120.084481"><ele>2101.8</ele><time>2026-01-19T16:03:38Z</time></trkpt>
<trkpt lat="38.917674" lon="-120.084514"><ele>2105.2</ele><time>2026-01-19T16:04:11Z</time></trkpt>
<trkpt lat="38.917646" lon="-120.084560"><ele>2105.6</ele><time>2026-01-19T16:04:25Z</time></trkpt>
<trkpt lat="38.917659" lon="-120.084719"><ele>2108.2</ele><time>2026-01-19T16:04:48Z</time></trkpt>
<trkpt lat="38.917528" lon="-120.084784"><ele>2112.2</ele><time>2026-01-19T16:05:18Z</time></trkpt>
<trkpt lat="38.917516" lon="-120.084897"><ele>2114.2</ele><time>2026-01-19T16:05:49Z</time></trkpt>
<trkpt lat="38.917273" lon="-120.085154"><ele>2124.2</ele><time>2026-01-19T16:07:11Z</time></trkpt>
<trkpt lat="38.917117" lon="-120.085264"><ele>2128.8</ele><time>2026-01-19T16:07:58Z</time></trkpt>
<trkpt lat="38.917025" lon="-120.085283"><ele>2131.6</ele><time>2026-01-19T16:08:18Z</time></trkpt>
<trkpt lat="38.916940" lon="-120.085360"><ele>2133.4</ele><time>2026-01-19T16:09:20Z</time></trkpt>
<trkpt lat="38.916863" lon="-120.085349"><ele>2135.0</ele><time>2026-01-19T16:09:44Z</time></trkpt>
<trkpt lat="38.916868" lon="-120.085455"><ele>2137.4</ele><time>2026-01-19T16:10:17Z</time></trkpt>
<trkpt lat="38.916927" lon="-120.085612"><ele>2140.6</ele><time>2026-01-19T16:10:53Z</time></trkpt>
<trkpt lat="38.916720" lon="-120.085616"><ele>2145.0</ele><time>2026-01-19T16:11:33Z</time></trkpt>
<trkpt lat="38.916637" lon="-120.085636"><ele>2147.2</ele><time>2026-01-19T16:12:00Z</time></trkpt>
<trkpt lat="38.916608" lon="-120.085678"><ele>2146.6</ele><time>2026-01-19T16:12:18Z</time></trkpt>
<trkpt lat="38.916629" lon="-120.085636"><ele>2146.4</ele><time>2026-01-19T16:12:26Z</time></trkpt>
<trkpt lat="38.916635" lon="-120.085672"><ele>2146.4</ele><time>2026-01-19T16:12:42Z</time></trkpt>
<trkpt lat="38.916567" lon="-120.085645"><ele>2146.2</ele><time>2026-01-19T16:13:05Z</time></trkpt>
<trkpt lat="38.916455" lon="-120.085661"><ele>2148.8</ele><time>2026-01-19T16:13:26Z</time></trkpt>
<trkpt lat="38.916321" lon="-120.085711"><ele>2151.0</ele><time>2026-01-19T16:13:46Z</time></trkpt>
<trkpt lat="38.916256" lon="-120.085782"><ele>2153.0</ele><time>2026-01-19T16:14:01Z</time></trkpt>
<trkpt lat="38.916413" lon="-120.086208"><ele>2162.6</ele><time>2026-01-19T16:15:09Z</time></trkpt>
<trkpt lat="38.916193" lon="-120.086297"><ele>2168.0</ele><time>2026-01-19T16:16:01Z</time></trkpt>
<trkpt lat="38.916196" lon="-120.086397"><ele>2170.4</ele><time>2026-01-19T16:16:18Z</time></trkpt>
<trkpt lat="38.916088" lon="-120.086480"><ele>2173.0</ele><time>2026-01-19T16:16:48Z</time></trkpt>
<trkpt lat="38.916043" lon="-120.086480"><ele>2173.4</ele><time>2026-01-19T16:17:08Z</time></trkpt>
<trkpt lat="38.916032" lon="-120.086444"><ele>2173.6</ele><time>2026-01-19T16:17:22Z</time></trkpt>
<trkpt lat="38.916024" lon="-120.086494"><ele>2173.2</ele><time>2026-01-19T16:18:01Z</time></trkpt>
<trkpt lat="38.916023" lon="-120.086457"><ele>2173.0</ele><time>2026-01-19T16:18:12Z</time></trkpt>
<trkpt lat="38.916063" lon="-120.086489"><ele>2172.6</ele><time>2026-01-19T16:18:52Z</time></trkpt>
<trkpt lat="38.916024" lon="-120.086562"><ele>2174.6</ele><time>2026-01-19T16:19:31Z</time></trkpt>
<trkpt lat="38.916022" lon="-120.086642"><ele>2178.0</ele><time>2026-01-19T16:19:53Z</time></trkpt>
<trkpt lat="38.915984" lon="-120.086722"><ele>2185.0</ele><time>2026-01-19T16:20:46Z</time></trkpt>
<trkpt lat="38.916048" lon="-120.086803"><ele>2188.2</ele><time>2026-01-19T16:21:19Z</time></trkpt>
<trkpt lat="38.916003" lon="-120.086923"><ele>2192.4</ele><time>2026-01-19T16:21:48Z</time></trkpt>
<trkpt lat="38.916224" lon="-120.087093"><ele>2199.6</ele><time>2026-01-19T16:22:55Z</time></trkpt>
<trkpt lat="38.916367" lon="-120.087316"><ele>2206.6</ele><time>2026-01-19T16:23:57Z</time></trkpt>
<trkpt lat="38.916224" lon="-120.087408"><ele>2210.8</ele><time>2026-01-19T16:24:51Z</time></trkpt>
<trkpt lat="38.916105" lon="-120.087562"><ele>2216.4</ele><time>2026-01-19T16:25:48Z</time></trkpt>
<trkpt lat="38.915835" lon="-120.087725"><ele>2223.8</ele><time>2026-01-19T16:26:58Z</time></trkpt>
<trkpt lat="38.915823" lon="-120.087769"><ele>2226.0</ele><time>2026-01-19T16:27:20Z</time></trkpt>
<trkpt lat="38.915748" lon="-120.087821"><ele>2227.2</ele><time>2026-01-19T16:27:40Z</time></trkpt>
<trkpt lat="38.915467" lon="-120.087973"><ele>2239.8</ele><time>2026-01-19T16:29:06Z</time></trkpt>
<trkpt lat="38.915516" lon="-120.088155"><ele>2245.6</ele><time>2026-01-19T16:29:48Z</time></trkpt>
<trkpt lat="38.915485" lon="-120.088231"><ele>2247.8</ele><time>2026-01-19T16:30:01Z</time></trkpt>
<trkpt lat="38.915482" lon="-120.088349"><ele>2249.6</ele><time>2026-01-19T16:30:15Z</time></trkpt>
<trkpt lat="38.915511" lon="-120.088472"><ele>2250.4</ele><time>2026-01-19T16:30:55Z</time></trkpt>
<trkpt lat="38.915475" lon="-120.088459"><ele>2250.8</ele><time>2026-01-19T16:31:14Z</time></trkpt>
<trkpt lat="38.915472" lon="-120.088425"><ele>2251.0</ele><time>2026-01-19T16:31:23Z</time></trkpt>
<trkpt lat="38.915495" lon="-120.088462"><ele>2251.4</ele><time>2026-01-19T16:31:30Z</time></trkpt>
<trkpt lat="38.915519" lon="-120.088441"><ele>2251.0</ele><time>2026-01-19T16:31:47Z</time></trkpt>
<trkpt lat="38.915507" lon="-120.088487"><ele>2252.6</ele><time>2026-01-19T16:33:20Z</time></trkpt>
<trkpt lat="38.915523" lon="-120.088431"><ele>2251.6</ele><time>2026-01-19T16:33:36Z</time></trkpt>
<trkpt lat="38.915498" lon="-120.088470"><ele>2251.6</ele><time>2026-01-19T16:33:48Z</time></trkpt>
<trkpt lat="38.915516" lon="-120.088438"><ele>2251.8</ele><time>2026-01-19T16:34:32Z</time></trkpt>
<trkpt lat="38.915510" lon="-120.088500"><ele>2253.6</ele><time>2026-01-19T16:35:11Z</time></trkpt>
<trkpt lat="38.915518" lon="-120.088449"><ele>2252.6</ele><time>2026-01-19T16:35:54Z</time></trkpt>
<trkpt lat="38.915529" lon="-120.088486"><ele>2254.2</ele><time>2026-01-19T16:36:33Z</time></trkpt>
<trkpt lat="38.915503" lon="-120.088460"><ele>2255.6</ele><time>2026-01-19T16:36:48Z</time></trkpt>
<trkpt lat="38.915539" lon="-120.088512"><ele>2257.0</ele><time>2026-01-19T16:37:55Z</time></trkpt>
<trkpt lat="38.915847" lon="-120.088766"><ele>2267.4</ele><time>2026-01-19T16:39:01Z</time></trkpt>
<trkpt lat="38.916088" lon="-120.089109"><ele>2274.6</ele><time>2026-01-19T16:40:01Z</time></trkpt>
<trkpt lat="38.916314" lon="-120.089324"><ele>2281.6</ele><time>2026-01-19T16:41:12Z</time></trkpt>
<trkpt lat="38.916431" lon="-120.089485"><ele>2283.8</ele><time>2026-01-19T16:42:04Z</time></trkpt>
<trkpt lat="38.916502" lon="-120.089692"><ele>2286.6</ele><time>2026-01-19T16:42:31Z</time></trkpt>
<trkpt lat="38.916642" lon="-120.089777"><ele>2290.2</ele><time>2026-01-19T16:42:58Z</time></trkpt>
<trkpt lat="38.916755" lon="-120.090050"><ele>2295.2</ele><time>2026-01-19T16:43:44Z</time></trkpt>
<trkpt lat="38.916824" lon="-120.090002"><ele>2296.8</ele><time>2026-01-19T16:44:00Z</time></trkpt>
<trkpt lat="38.916934" lon="-120.090018"><ele>2299.6</ele><time>2026-01-19T16:45:01Z</time></trkpt>
<trkpt lat="38.916958" lon="-120.090395"><ele>2305.8</ele><time>2026-01-19T16:46:05Z</time></trkpt>
<trkpt lat="38.916938" lon="-120.090846"><ele>2318.6</ele><time>2026-01-19T16:47:28Z</time></trkpt>
<trkpt lat="38.916967" lon="-120.091013"><ele>2322.8</ele><time>2026-01-19T16:48:02Z</time></trkpt>
<trkpt lat="38.916923" lon="-120.091087"><ele>2325.4</ele><time>2026-01-19T16:48:20Z</time></trkpt>
<trkpt lat="38.917037" lon="-120.091339"><ele>2333.2</ele><time>2026-01-19T16:49:06Z</time></trkpt>
<trkpt lat="38.917319" lon="-120.091614"><ele>2341.6</ele><time>2026-01-19T16:50:33Z</time></trkpt>
<trkpt lat="38.917360" lon="-120.091738"><ele>2344.6</ele><time>2026-01-19T16:50:59Z</time></trkpt>
<trkpt lat="38.917290" lon="-120.091710"><ele>2347.4</ele><time>2026-01-19T16:51:24Z</time></trkpt>
<trkpt lat="38.917218" lon="-120.091756"><ele>2351.0</ele><time>2026-01-19T16:52:11Z</time></trkpt>
<trkpt lat="38.917131" lon="-120.091758"><ele>2353.6</ele><time>2026-01-19T16:52:41Z</time></trkpt>
<trkpt lat="38.916952" lon="-120.091876"><ele>2359.4</ele><time>2026-01-19T16:53:34Z</time></trkpt>
<trkpt lat="38.917101" lon="-120.091975"><ele>2363.0</ele><time>2026-01-19T16:54:12Z</time></trkpt>
<trkpt lat="38.917178" lon="-120.092082"><ele>2366.6</ele><time>2026-01-19T16:54:42Z</time></trkpt>
<trkpt lat="38.917052" lon="-120.092084"><ele>2370.0</ele><time>2026-01-19T16:55:24Z</time></trkpt>
<trkpt lat="38.917098" lon="-120.092150"><ele>2372.0</ele><time>2026-01-19T16:55:40Z</time></trkpt>
<trkpt lat="38.917091" lon="-120.092366"><ele>2375.8</ele><time>2026-01-19T16:56:16Z</time></trkpt>
<trkpt lat="38.917036" lon="-120.092598"><ele>2381.0</ele><time>2026-01-19T16:57:00Z</time></trkpt>
<trkpt lat="38.917076" lon="-120.092668"><ele>2382.2</ele><time>2026-01-19T16:57:17Z</time></trkpt>
<trkpt lat="38.917046" lon="-120.092990"><ele>2389.6</ele><time>2026-01-19T16:58:09Z</time></trkpt>
<trkpt lat="38.917097" lon="-120.093184"><ele>2392.2</ele><time>2026-01-19T16:58:37Z</time></trkpt>
<trkpt lat="38.917089" lon="-120.093256"><ele>2393.6</ele><time>2026-01-19T16:58:54Z</time></trkpt>
<trkpt lat="38.917050" lon="-120.093363"><ele>2398.2</ele><time>2026-01-19T16:59:24Z</time></trkpt>
<trkpt lat="38.917035" lon="-120.093542"><ele>2402.4</ele><time>2026-01-19T16:59:57Z</time></trkpt>
<trkpt lat="38.916973" lon="-120.093513"><ele>2405.2</ele><time>2026-01-19T17:00:17Z</time></trkpt>
<trkpt lat="38.916941" lon="-120.093537"><ele>2406.6</ele><time>2026-01-19T17:00:25Z</time></trkpt>
<trkpt lat="38.916943" lon="-120.093628"><ele>2409.4</ele><time>2026-01-19T17:00:54Z</time></trkpt>
<trkpt lat="38.916901" lon="-120.093746"><ele>2413.6</ele><time>2026-01-19T17:01:25Z</time></trkpt>
<trkpt lat="38.916915" lon="-120.093923"><ele>2417.4</ele><time>2026-01-19T17:01:53Z</time></trkpt>
<trkpt lat="38.916846" lon="-120.093887"><ele>2419.8</ele><time>2026-01-19T17:02:12Z</time></trkpt>
<trkpt lat="38.916826" lon="-120.093947"><ele>2421.8</ele><time>2026-01-19T17:02:27Z</time></trkpt>
<trkpt lat="38.916804" lon="-120.093929"><ele>2422.0</ele><time>2026-01-19T17:02:39Z</time></trkpt>
<trkpt lat="38.916816" lon="-120.093898"><ele>2422.0</ele><time>2026-01-19T17:02:45Z</time></trkpt>
<trkpt lat="38.916824" lon="-120.094342"><ele>2431.6</ele><time>2026-01-19T17:04:11Z</time></trkpt>
<trkpt lat="38.916723" lon="-120.094257"><ele>2434.4</ele><time>2026-01-19T17:04:52Z</time></trkpt>
<trkpt lat="38.916762" lon="-120.094309"><ele>2434.8</ele><time>2026-01-19T17:05:08Z</time></trkpt>
<trkpt lat="38.916720" lon="-120.094116"><ele>2435.2</ele><time>2026-01-19T17:05:47Z</time></trkpt>
<trkpt lat="38.916715" lon="-120.094234"><ele>2435.4</ele><time>2026-01-19T17:06:28Z</time></trkpt>
<trkpt lat="38.916654" lon="-120.094158"><ele>2437.2</ele><time>2026-01-19T17:06:51Z</time></trkpt>
<trkpt lat="38.916613" lon="-120.094319"><ele>2441.8</ele><time>2026-01-19T17:07:32Z</time></trkpt>
<trkpt lat="38.916607" lon="-120.094490"><ele>2445.4</ele><time>2026-01-19T17:08:06Z</time></trkpt>
<trkpt lat="38.916655" lon="-120.094663"><ele>2448.4</ele><time>2026-01-19T17:08:44Z</time></trkpt>
<trkpt lat="38.916549" lon="-120.094569"><ele>2453.0</ele><time>2026-01-19T17:09:25Z</time></trkpt>
<trkpt lat="38.916495" lon="-120.094601"><ele>2454.6</ele><time>2026-01-19T17:09:37Z</time></trkpt>
<trkpt lat="38.916511" lon="-120.095079"><ele>2464.8</ele><time>2026-01-19T17:11:09Z</time></trkpt>
<trkpt lat="38.916486" lon="-120.095214"><ele>2468.4</ele><time>2026-01-19T17:11:45Z</time></trkpt>
<trkpt lat="38.916511" lon="-120.095354"><ele>2472.0</ele><time>2026-01-19T17:12:20Z</time></trkpt>
<trkpt lat="38.916319" lon="-120.095229"><ele>2477.8</ele><time>2026-01-19T17:13:33Z</time></trkpt>
<trkpt lat="38.916271" lon="-120.095779"><ele>2489.8</ele><time>2026-01-19T17:15:24Z</time></trkpt>
<trkpt lat="38.916310" lon="-120.095816"><ele>2491.2</ele><time>2026-01-19T17:15:52Z</time></trkpt>
<trkpt lat="38.916271" lon="-120.095900"><ele>2492.4</ele><time>2026-01-19T17:16:03Z</time></trkpt>
<trkpt lat="38.916308" lon="-120.096238"><ele>2497.8</ele><time>2026-01-19T17:16:44Z</time></trkpt>
<trkpt lat="38.916228" lon="-120.096469"><ele>2504.6</ele><time>2026-01-19T17:17:32Z</time></trkpt>
<trkpt lat="38.916216" lon="-120.096586"><ele>2506.2</ele><time>2026-01-19T17:17:52Z</time></trkpt>
<trkpt lat="38.916243" lon="-120.096640"><ele>2508.4</ele><time>2026-01-19T17:18:21Z</time></trkpt>
<trkpt lat="38.916255" lon="-120.096619"><ele>2508.4</ele><time>2026-01-19T17:18:26Z</time></trkpt>
<trkpt lat="38.916219" lon="-120.096639"><ele>2509.6</ele><time>2026-01-19T17:18:39Z</time></trkpt>
<trkpt lat="38.916125" lon="-120.096568"><ele>2514.0</ele><time>2026-01-19T17:19:21Z</time></trkpt>
<trkpt lat="38.916051" lon="-120.096437"><ele>2518.2</ele><time>2026-01-19T17:20:00Z</time></trkpt>
<trkpt lat="38.915942" lon="-120.096337"><ele>2521.6</ele><time>2026-01-19T17:20:26Z</time></trkpt>
<trkpt lat="38.915893" lon="-120.096463"><ele>2524.6</ele><time>2026-01-19T17:20:51Z</time></trkpt>
<trkpt lat="38.915902" lon="-120.096571"><ele>2526.4</ele><time>2026-01-19T17:21:12Z</time></trkpt>
<trkpt lat="38.915857" lon="-120.096748"><ele>2530.8</ele><time>2026-01-19T17:22:33Z</time></trkpt>
<trkpt lat="38.915857" lon="-120.096633"><ele>2534.0</ele><time>2026-01-19T17:23:31Z</time></trkpt>
<trkpt lat="38.915831" lon="-120.096600"><ele>2534.8</ele><time>2026-01-19T17:23:39Z</time></trkpt>
<trkpt lat="38.915768" lon="-120.096613"><ele>2536.2</ele><time>2026-01-19T17:23:50Z</time></trkpt>
<trkpt lat="38.915764" lon="-120.096737"><ele>2539.4</ele><time>2026-01-19T17:24:14Z</time></trkpt>
<trkpt lat="38.915663" lon="-120.096672"><ele>2542.6</ele><time>2026-01-19T17:24:54Z</time></trkpt>
<trkpt lat="38.915639" lon="-120.096576"><ele>2544.4</ele><time>2026-01-19T17:25:08Z</time></trkpt>
<trkpt lat="38.915580" lon="-120.096522"><ele>2546.6</ele><time>2026-01-19T17:25:25Z</time></trkpt>
<trkpt lat="38.915518" lon="-120.096547"><ele>2547.4</ele><time>2026-01-19T17:25:42Z</time></trkpt>
<trkpt lat="38.915529" lon="-120.096615"><ele>2549.8</ele><time>2026-01-19T17:26:17Z</time></trkpt>
<trkpt lat="38.915420" lon="-120.096512"><ele>2554.8</ele><time>2026-01-19T17:26:58Z</time></trkpt>
<trkpt lat="38.915366" lon="-120.096666"><ele>2557.6</ele><time>2026-01-19T17:27:44Z</time></trkpt>
<trkpt lat="38.915388" lon="-120.096724"><ele>2559.4</ele><time>2026-01-19T17:27:56Z</time></trkpt>
<trkpt lat="38.915382" lon="-120.097076"><ele>2567.2</ele><time>2026-01-19T17:29:13Z</time></trkpt>
<trkpt lat="38.915412" lon="-120.097060"><ele>2567.2</ele><time>2026-01-19T17:29:31Z</time></trkpt>
<trkpt lat="38.915381" lon="-120.097076"><ele>2567.4</ele><time>2026-01-19T17:29:41Z</time></trkpt>
<trkpt lat="38.915393" lon="-120.097048"><ele>2567.4</ele><time>2026-01-19T17:29:50Z</time></trkpt>
<trkpt lat="38.915386" lon="-120.097230"><ele>2571.0</ele><time>2026-01-19T17:30:20Z</time></trkpt>
<trkpt lat="38.915431" lon="-120.097410"><ele>2574.4</ele><time>2026-01-19T17:30:49Z</time></trkpt>
<trkpt lat="38.915280" lon="-120.097254"><ele>2580.2</ele><time>2026-01-19T17:31:42Z</time></trkpt>
<trkpt lat="38.915199" lon="-120.097212"><ele>2582.0</ele><time>2026-01-19T17:31:57Z</time></trkpt>
<trkpt lat="38.915212" lon="-120.097404"><ele>2585.6</ele><time>2026-01-19T17:32:30Z</time></trkpt>
<trkpt lat="38.915186" lon="-120.097493"><ele>2588.4</ele><time>2026-01-19T17:33:12Z</time></trkpt>
<trkpt lat="38.915269" lon="-120.097674"><ele>2591.4</ele><time>2026-01-19T17:33:49Z</time></trkpt>
<trkpt lat="38.915330" lon="-120.097977"><ele>2598.0</ele><time>2026-01-19T17:34:52Z</time></trkpt>
<trkpt lat="38.915226" lon="-120.097872"><ele>2601.8</ele><time>2026-01-19T17:35:28Z</time></trkpt>
<trkpt lat="38.915190" lon="-120.097869"><ele>2602.8</ele><time>2026-01-19T17:35:34Z</time></trkpt>
<trkpt lat="38.915182" lon="-120.097907"><ele>2603.8</ele><time>2026-01-19T17:35:46Z</time></trkpt>
<trkpt lat="38.915219" lon="-120.097993"><ele>2606.0</ele><time>2026-01-19T17:36:16Z</time></trkpt>
<trkpt lat="38.915176" lon="-120.097932"><ele>2607.4</ele><time>2026-01-19T17:36:30Z</time></trkpt>
<trkpt lat="38.915086" lon="-120.097892"><ele>2609.2</ele><time>2026-01-19T17:36:47Z</time></trkpt>
<trkpt lat="38.914967" lon="-120.097877"><ele>2613.4</ele><time>2026-01-19T17:37:21Z</time></trkpt>
<trkpt lat="38.914924" lon="-120.097798"><ele>2614.2</ele><time>2026-01-19T17:37:45Z</time></trkpt>
<trkpt lat="38.914948" lon="-120.097820"><ele>2614.2</ele><time>2026-01-19T17:37:51Z</time></trkpt>
<trkpt lat="38.914660" lon="-120.097601"><ele>2623.0</ele><time>2026-01-19T17:39:27Z</time></trkpt>
<trkpt lat="38.914636" lon="-120.097698"><ele>2625.0</ele><time>2026-01-19T17:40:10Z</time></trkpt>
<trkpt lat="38.914688" lon="-120.097985"><ele>2628.2</ele><time>2026-01-19T17:41:10Z</time></trkpt>
<trkpt lat="38.914672" lon="-120.098277"><ele>2635.0</ele><time>2026-01-19T17:42:17Z</time></trkpt>
<trkpt lat="38.914705" lon="-120.098461"><ele>2639.0</ele><time>2026-01-19T17:43:12Z</time></trkpt>
<trkpt lat="38.914698" lon="-120.098514"><ele>2641.2</ele><time>2026-01-19T17:43:54Z</time></trkpt>
<trkpt lat="38.914613" lon="-120.098469"><ele>2644.6</ele><time>2026-01-19T17:44:26Z</time></trkpt>
<trkpt lat="38.914625" lon="-120.098545"><ele>2646.2</ele><time>2026-01-19T17:44:45Z</time></trkpt>
<trkpt lat="38.914605" lon="-120.098574"><ele>2647.8</ele><time>2026-01-19T17:45:03Z</time></trkpt>
<trkpt lat="38.914640" lon="-120.098699"><ele>2651.6</ele><time>2026-01-19T17:45:38Z</time></trkpt>
<trkpt lat="38.914344" lon="-120.098465"><ele>2663.2</ele><time>2026-01-19T17:47:47Z</time></trkpt>
<trkpt lat="38.914284" lon="-120.098469"><ele>2664.6</ele><time>2026-01-19T17:48:05Z</time></trkpt>
<trkpt lat="38.914270" lon="-120.098604"><ele>2666.8</ele><time>2026-01-19T17:48:31Z</time></trkpt>
<trkpt lat="38.914309" lon="-120.098675"><ele>2667.6</ele><time>2026-01-19T17:49:22Z</time></trkpt>
<trkpt lat="38.914297" lon="-120.098812"><ele>2670.6</ele><time>2026-01-19T17:49:50Z</time></trkpt>
<trkpt lat="38.914326" lon="-120.098978"><ele>2674.4</ele><time>2026-01-19T17:50:18Z</time></trkpt>
<trkpt lat="38.914411" lon="-120.099244"><ele>2679.4</ele><time>2026-01-19T17:51:12Z</time></trkpt>
<trkpt lat="38.914439" lon="-120.099278"><ele>2682.4</ele><time>2026-01-19T17:51:27Z</time></trkpt>
<trkpt lat="38.914447" lon="-120.099243"><ele>2682.8</ele><time>2026-01-19T17:51:43Z</time></trkpt>
<trkpt lat="38.914454" lon="-120.099300"><ele>2683.6</ele><time>2026-01-19T17:52:09Z</time></trkpt>
<trkpt lat="38.914181" lon="-120.099120"><ele>2689.2</ele><time>2026-01-19T17:53:09Z</time></trkpt>
<trkpt lat="38.914132" lon="-120.099134"><ele>2690.6</ele><time>2026-01-19T17:53:33Z</time></trkpt>
<trkpt lat="38.914039" lon="-120.099089"><ele>2694.0</ele><time>2026-01-19T17:54:14Z</time></trkpt>
<trkpt lat="38.914034" lon="-120.099256"><ele>2699.0</ele><time>2026-01-19T17:55:27Z</time></trkpt>
<trkpt lat="38.914151" lon="-120.099571"><ele>2707.2</ele><time>2026-01-19T17:56:49Z</time></trkpt>
<trkpt lat="38.914109" lon="-120.099584"><ele>2708.2</ele><time>2026-01-19T17:57:11Z</time></trkpt>
<trkpt lat="38.914142" lon="-120.099763"><ele>2714.6</ele><time>2026-01-19T17:58:25Z</time></trkpt>
<trkpt lat="38.914106" lon="-120.099755"><ele>2716.8</ele><time>2026-01-19T17:59:00Z</time></trkpt>
<trkpt lat="38.914144" lon="-120.099744"><ele>2717.2</ele><time>2026-01-19T17:59:30Z</time></trkpt>
<trkpt lat="38.914023" lon="-120.099737"><ele>2721.6</ele><time>2026-01-19T18:00:08Z</time></trkpt>
<trkpt lat="38.913961" lon="-120.099671"><ele>2725.0</ele><time>2026-01-19T18:00:29Z</time></trkpt>
<trkpt lat="38.913880" lon="-120.099666"><ele>2727.2</ele><time>2026-01-19T18:00:45Z</time></trkpt>
<trkpt lat="38.913866" lon="-120.099637"><ele>2727.6</ele><time>2026-01-19T18:01:02Z</time></trkpt>
<trkpt lat="38.913715" lon="-120.099661"><ele>2734.0</ele><time>2026-01-19T18:01:55Z</time></trkpt>
<trkpt lat="38.913600" lon="-120.099629"><ele>2738.2</ele><time>2026-01-19T18:02:38Z</time></trkpt>
<trkpt lat="38.913567" lon="-120.099663"><ele>2740.0</ele><time>2026-01-19T18:03:12Z</time></trkpt>
<trkpt lat="38.913688" lon="-120.099941"><ele>2746.6</ele><time>2026-01-19T18:04:51Z</time></trkpt>
<trkpt lat="38.913594" lon="-120.099846"><ele>2746.6</ele><time>2026-01-19T18:05:16Z</time></trkpt>
<trkpt lat="38.913513" lon="-120.099843"><ele>2748.6</ele><time>2026-01-19T18:05:48Z</time></trkpt>
<trkpt lat="38.913564" lon="-120.099900"><ele>2749.6</ele><time>2026-01-19T18:06:06Z</time></trkpt>
<trkpt lat="38.913604" lon="-120.100025"><ele>2752.6</ele><time>2026-01-19T18:06:38Z</time></trkpt>
<trkpt lat="38.913497" lon="-120.100042"><ele>2756.4</ele><time>2026-01-19T18:07:31Z</time></trkpt>
<trkpt lat="38.913560" lon="-120.100273"><ele>2762.4</ele><time>2026-01-19T18:08:40Z</time></trkpt>
<trkpt lat="38.913715" lon="-120.100679"><ele>2771.4</ele><time>2026-01-19T18:10:41Z</time></trkpt>
<trkpt lat="38.913788" lon="-120.100787"><ele>2773.6</ele><time>2026-01-19T18:10:59Z</time></trkpt>
<trkpt lat="38.913793" lon="-120.100874"><ele>2775.8</ele><time>2026-01-19T18:11:12Z</time></trkpt>
<trkpt lat="38.913752" lon="-120.100937"><ele>2778.2</ele><time>2026-01-19T18:11:26Z</time></trkpt>
<trkpt lat="38.913660" lon="-120.100943"><ele>2780.2</ele><time>2026-01-19T18:12:32Z</time></trkpt>
<trkpt lat="38.913657" lon="-120.100924"><ele>2784.2</ele><time>2026-01-19T18:14:42Z</time></trkpt>
<trkpt lat="38.913492" lon="-120.100921"><ele>2782.8</ele><time>2026-01-19T18:15:05Z</time></trkpt>
<trkpt lat="38.913097" lon="-120.100927"><ele>2791.8</ele><time>2026-01-19T18:16:10Z</time></trkpt>
<trkpt lat="38.912856" lon="-120.100849"><ele>2790.2</ele><time>2026-01-19T18:16:38Z</time></trkpt>
<trkpt lat="38.912611" lon="-120.100865"><ele>2790.4</ele><time>2026-01-19T18:17:12Z</time></trkpt>
<trkpt lat="38.912239" lon="-120.100963"><ele>2788.8</ele><time>2026-01-19T18:17:54Z</time></trkpt>
<trkpt lat="38.912043" lon="-120.101103"><ele>2793.0</ele><time>2026-01-19T18:18:30Z</time></trkpt>
<trkpt lat="38.911941" lon="-120.101132"><ele>2792.6</ele><time>2026-01-19T18:18:46Z</time></trkpt>
<trkpt lat="38.911840" lon="-120.101205"><ele>2795.8</ele><time>2026-01-19T18:19:11Z</time></trkpt>
<trkpt lat="38.911653" lon="-120.101252"><ele>2796.0</ele><time>2026-01-19T18:19:40Z</time></trkpt>
<trkpt lat="38.911468" lon="-120.101365"><ele>2798.0</ele><time>2026-01-19T18:20:07Z</time></trkpt>
<trkpt lat="38.911213" lon="-120.101403"><ele>2798.4</ele><time>2026-01-19T18:20:43Z</time></trkpt>
<trkpt lat="38.911039" lon="-120.101376"><ele>2796.4</ele><time>2026-01-19T18:20:59Z</time></trkpt>
<trkpt lat="38.910512" lon="-120.101402"><ele>2794.4</ele><time>2026-01-19T18:21:57Z</time></trkpt>
<trkpt lat="38.910274" lon="-120.101581"><ele>2799.2</ele><time>2026-01-19T18:22:37Z</time></trkpt>
<trkpt lat="38.910145" lon="-120.101587"><ele>2800.6</ele><time>2026-01-19T18:22:59Z</time></trkpt>
<trkpt lat="38.910037" lon="-120.101528"><ele>2801.2</ele><time>2026-01-19T18:23:23Z</time></trkpt>
<trkpt lat="38.909864" lon="-120.101298"><ele>2805.8</ele><time>2026-01-19T18:24:08Z</time></trkpt>
<trkpt lat="38.909767" lon="-120.101274"><ele>2806.8</ele><time>2026-01-19T18:24:24Z</time></trkpt>
<trkpt lat="38.909673" lon="-120.101230"><ele>2812.4</ele><time>2026-01-19T18:24:53Z</time></trkpt>
<trkpt lat="38.909328" lon="-120.101066"><ele>2817.4</ele><time>2026-01-19T18:26:02Z</time></trkpt>
<trkpt lat="38.909026" lon="-120.101028"><ele>2824.6</ele><time>2026-01-19T18:27:28Z</time></trkpt>
<trkpt lat="38.909035" lon="-120.101035"><ele>2828.4</ele><time>2026-01-19T18:28:44Z</time></trkpt>
<trkpt lat="38.909030" lon="-120.101056"><ele>2826.8</ele><time>2026-01-19T18:29:39Z</time></trkpt>
<trkpt lat="38.909028" lon="-120.101030"><ele>2829.4</ele><time>2026-01-19T18:30:54Z</time></trkpt>
<trkpt lat="38.908830" lon="-120.100942"><ele>2831.4</ele><time>2026-01-19T18:31:28Z</time></trkpt>
<trkpt lat="38.908425" lon="-120.100634"><ele>2846.4</ele><time>2026-01-19T18:33:11Z</time></trkpt>
<trkpt lat="38.908168" lon="-120.100503"><ele>2854.8</ele><time>2026-01-19T18:34:20Z</time></trkpt>
<trkpt lat="38.908091" lon="-120.100447"><ele>2858.2</ele><time>2026-01-19T18:34:37Z</time></trkpt>
<trkpt lat="38.908105" lon="-120.100425"><ele>2858.4</ele><time>2026-01-19T18:35:00Z</time></trkpt>
<trkpt lat="38.908080" lon="-120.100429"><ele>2857.2</ele><time>2026-01-19T18:35:10Z</time></trkpt>
<trkpt lat="38.907861" lon="-120.100296"><ele>2863.8</ele><time>2026-01-19T18:36:14Z</time></trkpt>
<trkpt lat="38.907756" lon="-120.100263"><ele>2868.8</ele><time>2026-01-19T18:36:54Z</time></trkpt>
<trkpt lat="38.907691" lon="-120.100220"><ele>2868.4</ele><time>2026-01-19T18:37:13Z</time></trkpt>
<trkpt lat="38.907654" lon="-120.100272"><ele>2866.8</ele><time>2026-01-19T18:37:43Z</time></trkpt>
<trkpt lat="38.907683" lon="-120.100300"><ele>2867.4</ele><time>2026-01-19T18:37:53Z</time></trkpt>
<trkpt lat="38.907658" lon="-120.100452"><ele>2871.8</ele><time>2026-01-19T18:38:18Z</time></trkpt>
<trkpt lat="38.907565" lon="-120.100442"><ele>2878.4</ele><time>2026-01-19T18:38:59Z</time></trkpt>
<trkpt lat="38.907568" lon="-120.100440"><ele>2876.2</ele><time>2026-01-19T18:39:10Z</time></trkpt>
<trkpt lat="38.907328" lon="-120.100497"><ele>2884.6</ele><time>2026-01-19T18:40:30Z</time></trkpt>
<trkpt lat="38.907164" lon="-120.100559"><ele>2887.8</ele><time>2026-01-19T18:41:37Z</time></trkpt>
<trkpt lat="38.907152" lon="-120.100635"><ele>2889.4</ele><time>2026-01-19T18:41:53Z</time></trkpt>
<trkpt lat="38.906838" lon="-120.100662"><ele>2898.2</ele><time>2026-01-19T18:43:24Z</time></trkpt>
<trkpt lat="38.906511" lon="-120.100587"><ele>2908.6</ele><time>2026-01-19T18:45:03Z</time></trkpt>
<trkpt lat="38.906321" lon="-120.100508"><ele>2916.8</ele><time>2026-01-19T18:46:09Z</time></trkpt>
<trkpt lat="38.906085" lon="-120.100615"><ele>2922.8</ele><time>2026-01-19T18:46:52Z</time></trkpt>
<trkpt lat="38.905992" lon="-120.100567"><ele>2925.2</ele><time>2026-01-19T18:47:44Z</time></trkpt>
<trkpt lat="38.905992" lon="-120.100567"><ele>2931.6</ele><time>2026-01-19T18:48:38Z</time></trkpt>
<trkpt lat="38.906015" lon="-120.100564"><ele>2931.6</ele><time>2026-01-19T18:49:26Z</time></trkpt>
<trkpt lat="38.905997" lon="-120.100524"><ele>2932.4</ele><time>2026-01-19T18:49:40Z</time></trkpt>
<trkpt lat="38.906077" lon="-120.100465"><ele>2937.8</ele><time>2026-01-19T18:50:19Z</time></trkpt>
<trkpt lat="38.905867" lon="-120.100070"><ele>2946.4</ele><time>2026-01-19T18:52:13Z</time></trkpt>
<trkpt lat="38.905902" lon="-120.099952"><ele>2951.0</ele><time>2026-01-19T18:53:11Z</time></trkpt>
<trkpt lat="38.905894" lon="-120.099930"><ele>2954.8</ele><time>2026-01-19T18:53:28Z</time></trkpt>
<trkpt lat="38.905924" lon="-120.099804"><ele>2957.4</ele><time>2026-01-19T18:54:14Z</time></trkpt>
<trkpt lat="38.905954" lon="-120.099712"><ele>2964.4</ele><time>2026-01-19T18:54:58Z</time></trkpt>
<trkpt lat="38.905953" lon="-120.099620"><ele>2962.2</ele><time>2026-01-19T18:55:22Z</time></trkpt>
<trkpt lat="38.905995" lon="-120.099516"><ele>2960.0</ele><time>2026-01-19T18:55:54Z</time></trkpt>
<trkpt lat="38.905995" lon="-120.099415"><ele>2960.6</ele><time>2026-01-19T18:56:18Z</time></trkpt>
<trkpt lat="38.905963" lon="-120.099255"><ele>2963.8</ele><time>2026-01-19T18:56:37Z</time></trkpt>
<trkpt lat="38.905915" lon="-120.099176"><ele>2964.8</ele><time>2026-01-19T18:56:47Z</time></trkpt>
<trkpt lat="38.905944" lon="-120.099101"><ele>2969.2</ele><time>2026-01-19T18:57:14Z</time></trkpt>
<trkpt lat="38.905931" lon="-120.099041"><ele>2970.0</ele><time>2026-01-19T18:57:44Z</time></trkpt>
<trkpt lat="38.905934" lon="-120.099051"><ele>2972.4</ele><time>2026-01-19T18:58:05Z</time></trkpt>
<trkpt lat="38.905949" lon="-120.099002"><ele>2973.8</ele><time>2026-01-19T18:58:09Z</time></trkpt>
<trkpt lat="38.905987" lon="-120.098986"><ele>2978.6</ele><time>2026-01-19T18:58:22Z</time></trkpt>
<trkpt lat="38.905982" lon="-120.098965"><ele>2975.4</ele><time>2026-01-19T18:58:45Z</time></trkpt>
<trkpt lat="38.905982" lon="-120.098965"><ele>2980.6</ele><time>2026-01-19T18:59:21Z</time></trkpt>
<trkpt lat="38.905971" lon="-120.099017"><ele>2980.2</ele><time>2026-01-19T18:59:57Z</time></trkpt>
<trkpt lat="38.905982" lon="-120.098974"><ele>2978.8</ele><time>2026-01-19T19:02:40Z</time></trkpt>
<trkpt lat="38.905989" lon="-120.098970"><ele>2970.4</ele><time>2026-01-19T19:05:44Z</time></trkpt>
<trkpt lat="38.905984" lon="-120.098997"><ele>2969.0</ele><time>2026-01-19T19:07:52Z</time></trkpt>
<trkpt lat="38.905971" lon="-120.098972"><ele>2974.6</ele><time>2026-01-19T19:09:25Z</time></trkpt>
<trkpt lat="38.905983" lon="-120.098897"><ele>2971.6</ele><time>2026-01-19T19:10:10Z</time></trkpt>
<trkpt lat="38.905960" lon="-120.098859"><ele>2969.2</ele><time>2026-01-19T19:10:11Z</time></trkpt>
<trkpt lat="38.905839" lon="-120.098795"><ele>2966.6</ele><time>2026-01-19T19:10:14Z</time></trkpt>
<trkpt lat="38.905622" lon="-120.098761"><ele>2963.8</ele><time>2026-01-19T19:10:19Z</time></trkpt>
<trkpt lat="38.905452" lon="-120.098662"><ele>2962.6</ele><time>2026-01-19T19:10:24Z</time></trkpt>
<trkpt lat="38.905467" lon="-120.098576"><ele>2961.4</ele><time>2026-01-19T19:10:57Z</time></trkpt>
<trkpt lat="38.905370" lon="-120.098452"><ele>2957.0</ele><time>2026-01-19T19:11:28Z</time></trkpt>
<trkpt lat="38.905322" lon="-120.098446"><ele>2955.8</ele><time>2026-01-19T19:11:35Z</time></trkpt>
<trkpt lat="38.905284" lon="-120.098343"><ele>2953.6</ele><time>2026-01-19T19:11:41Z</time></trkpt>
<trkpt lat="38.905129" lon="-120.098268"><ele>2946.8</ele><time>2026-01-19T19:11:47Z</time></trkpt>
<trkpt lat="38.905129" lon="-120.098247"><ele>2944.8</ele><time>2026-01-19T19:11:51Z</time></trkpt>
<trkpt lat="38.904959" lon="-120.098140"><ele>2940.6</ele><time>2026-01-19T19:11:58Z</time></trkpt>
<trkpt lat="38.904880" lon="-120.098163"><ele>2938.6</ele><time>2026-01-19T19:12:05Z</time></trkpt>
<trkpt lat="38.904861" lon="-120.098072"><ele>2938.2</ele><time>2026-01-19T19:12:11Z</time></trkpt>
<trkpt lat="38.904810" lon="-120.098107"><ele>2936.4</ele><time>2026-01-19T19:12:18Z</time></trkpt>
<trkpt lat="38.904807" lon="-120.098172"><ele>2935.2</ele><time>2026-01-19T19:12:31Z</time></trkpt>
<trkpt lat="38.904775" lon="-120.098132"><ele>2934.8</ele><time>2026-01-19T19:12:43Z</time></trkpt>
<trkpt lat="38.904745" lon="-120.098150"><ele>2932.2</ele><time>2026-01-19T19:13:19Z</time></trkpt>
<trkpt lat="38.904615" lon="-120.098170"><ele>2930.8</ele><time>2026-01-19T19:13:23Z</time></trkpt>
<trkpt lat="38.904565" lon="-120.098064"><ele>2928.8</ele><time>2026-01-19T19:13:25Z</time></trkpt>
<trkpt lat="38.904535" lon="-120.097798"><ele>2926.4</ele><time>2026-01-19T19:13:30Z</time></trkpt>
<trkpt lat="38.904384" lon="-120.097846"><ele>2922.8</ele><time>2026-01-19T19:13:58Z</time></trkpt>
<trkpt lat="38.904216" lon="-120.098030"><ele>2920.2</ele><time>2026-01-19T19:14:03Z</time></trkpt>
<trkpt lat="38.904146" lon="-120.098023"><ele>2919.2</ele><time>2026-01-19T19:14:05Z</time></trkpt>
<trkpt lat="38.904105" lon="-120.097970"><ele>2918.6</ele><time>2026-01-19T19:14:06Z</time></trkpt>
<trkpt lat="38.903984" lon="-120.097989"><ele>2914.4</ele><time>2026-01-19T19:14:09Z</time></trkpt>
<trkpt lat="38.903886" lon="-120.098042"><ele>2913.8</ele><time>2026-01-19T19:14:12Z</time></trkpt>
<trkpt lat="38.903840" lon="-120.097835"><ele>2911.6</ele><time>2026-01-19T19:14:16Z</time></trkpt>
<trkpt lat="38.903820" lon="-120.097723"><ele>2906.6</ele><time>2026-01-19T19:14:18Z</time></trkpt>
<trkpt lat="38.903641" lon="-120.097870"><ele>2905.0</ele><time>2026-01-19T19:14:33Z</time></trkpt>
<trkpt lat="38.903742" lon="-120.097733"><ele>2905.6</ele><time>2026-01-19T19:15:09Z</time></trkpt>
<trkpt lat="38.903762" lon="-120.097615"><ele>2904.4</ele><time>2026-01-19T19:15:14Z</time></trkpt>
<trkpt lat="38.903720" lon="-120.097451"><ele>2899.6</ele><time>2026-01-19T19:15:18Z</time></trkpt>
<trkpt lat="38.903659" lon="-120.097366"><ele>2895.4</ele><time>2026-01-19T19:15:22Z</time></trkpt>
<trkpt lat="38.903484" lon="-120.097243"><ele>2890.2</ele><time>2026-01-19T19:15:29Z</time></trkpt>
<trkpt lat="38.903528" lon="-120.097152"><ele>2888.2</ele><time>2026-01-19T19:15:34Z</time></trkpt>
<trkpt lat="38.903431" lon="-120.097105"><ele>2884.4</ele><time>2026-01-19T19:15:39Z</time></trkpt>
<trkpt lat="38.903239" lon="-120.096946"><ele>2879.8</ele><time>2026-01-19T19:15:44Z</time></trkpt>
<trkpt lat="38.903144" lon="-120.096920"><ele>2877.6</ele><time>2026-01-19T19:15:48Z</time></trkpt>
<trkpt lat="38.903172" lon="-120.096899"><ele>2877.4</ele><time>2026-01-19T19:15:53Z</time></trkpt>
<trkpt lat="38.903133" lon="-120.096824"><ele>2875.2</ele><time>2026-01-19T19:15:56Z</time></trkpt>
<trkpt lat="38.903156" lon="-120.096807"><ele>2873.4</ele><time>2026-01-19T19:15:59Z</time></trkpt>
<trkpt lat="38.902990" lon="-120.096682"><ele>2869.2</ele><time>2026-01-19T19:16:05Z</time></trkpt>
<trkpt lat="38.902954" lon="-120.096533"><ele>2868.0</ele><time>2026-01-19T19:16:07Z</time></trkpt>
<trkpt lat="38.902847" lon="-120.096361"><ele>2863.8</ele><time>2026-01-19T19:16:09Z</time></trkpt>
<trkpt lat="38.902764" lon="-120.096307"><ele>2861.8</ele><time>2026-01-19T19:16:10Z</time></trkpt>
<trkpt lat="38.902258" lon="-120.096309"><ele>2857.8</ele><time>2026-01-19T19:16:25Z</time></trkpt>
<trkpt lat="38.902178" lon="-120.096246"><ele>2857.4</ele><time>2026-01-19T19:16:28Z</time></trkpt>
<trkpt lat="38.902167" lon="-120.096181"><ele>2856.6</ele><time>2026-01-19T19:16:29Z</time></trkpt>
<trkpt lat="38.902248" lon="-120.095953"><ele>2852.8</ele><time>2026-01-19T19:16:33Z</time></trkpt>
<trkpt lat="38.902084" lon="-120.095948"><ele>2848.2</ele><time>2026-01-19T19:16:50Z</time></trkpt>
<trkpt lat="38.901952" lon="-120.096043"><ele>2845.6</ele><time>2026-01-19T19:17:07Z</time></trkpt>
<trkpt lat="38.901937" lon="-120.096217"><ele>2841.4</ele><time>2026-01-19T19:18:16Z</time></trkpt>
<trkpt lat="38.901843" lon="-120.096318"><ele>2844.8</ele><time>2026-01-19T19:18:43Z</time></trkpt>
<trkpt lat="38.901673" lon="-120.096569"><ele>2841.2</ele><time>2026-01-19T19:19:32Z</time></trkpt>
<trkpt lat="38.901623" lon="-120.096739"><ele>2843.0</ele><time>2026-01-19T19:19:55Z</time></trkpt>
<trkpt lat="38.901482" lon="-120.096921"><ele>2844.4</ele><time>2026-01-19T19:20:20Z</time></trkpt>
<trkpt lat="38.901480" lon="-120.096913"><ele>2847.4</ele><time>2026-01-19T19:21:44Z</time></trkpt>
<trkpt lat="38.901459" lon="-120.096919"><ele>2846.2</ele><time>2026-01-19T19:22:40Z</time></trkpt>
<trkpt lat="38.901485" lon="-120.096912"><ele>2847.8</ele><time>2026-01-19T19:23:35Z</time></trkpt>
<trkpt lat="38.901468" lon="-120.096880"><ele>2847.6</ele><time>2026-01-19T19:23:44Z</time></trkpt>
<trkpt lat="38.901515" lon="-120.096732"><ele>2846.8</ele><time>2026-01-19T19:23:48Z</time></trkpt>
<trkpt lat="38.901554" lon="-120.096701"><ele>2846.2</ele><time>2026-01-19T19:23:51Z</time></trkpt>
<trkpt lat="38.901468" lon="-120.096619"><ele>2839.4</ele><time>2026-01-19T19:23:55Z</time></trkpt>
<trkpt lat="38.901376" lon="-120.096616"><ele>2835.8</ele><time>2026-01-19T19:23:57Z</time></trkpt>
<trkpt lat="38.901355" lon="-120.096532"><ele>2830.0</ele><time>2026-01-19T19:23:59Z</time></trkpt>
<trkpt lat="38.901309" lon="-120.096513"><ele>2825.8</ele><time>2026-01-19T19:24:00Z</time></trkpt>
<trkpt lat="38.901180" lon="-120.096512"><ele>2822.8</ele><time>2026-01-19T19:24:02Z</time></trkpt>
<trkpt lat="38.901186" lon="-120.096427"><ele>2819.2</ele><time>2026-01-19T19:24:04Z</time></trkpt>
<trkpt lat="38.901147" lon="-120.096352"><ele>2815.6</ele><time>2026-01-19T19:24:06Z</time></trkpt>
<trkpt lat="38.901199" lon="-120.096202"><ele>2808.6</ele><time>2026-01-19T19:24:09Z</time></trkpt>
<trkpt lat="38.901080" lon="-120.096191"><ele>2802.2</ele><time>2026-01-19T19:24:12Z</time></trkpt>
<trkpt lat="38.901068" lon="-120.096091"><ele>2797.4</ele><time>2026-01-19T19:24:14Z</time></trkpt>
<trkpt lat="38.900965" lon="-120.096069"><ele>2793.8</ele><time>2026-01-19T19:24:16Z</time></trkpt>
<trkpt lat="38.900955" lon="-120.096029"><ele>2789.8</ele><time>2026-01-19T19:24:17Z</time></trkpt>
<trkpt lat="38.900872" lon="-120.095968"><ele>2783.4</ele><time>2026-01-19T19:24:19Z</time></trkpt>
<trkpt lat="38.900830" lon="-120.095791"><ele>2774.4</ele><time>2026-01-19T19:24:22Z</time></trkpt>
<trkpt lat="38.900695" lon="-120.095784"><ele>2769.2</ele><time>2026-01-19T19:24:24Z</time></trkpt>
<trkpt lat="38.900580" lon="-120.095621"><ele>2760.6</ele><time>2026-01-19T19:24:27Z</time></trkpt>
<trkpt lat="38.900590" lon="-120.095538"><ele>2756.4</ele><time>2026-01-19T19:24:28Z</time></trkpt>
<trkpt lat="38.900659" lon="-120.095394"><ele>2750.2</ele><time>2026-01-19T19:24:30Z</time></trkpt>
<trkpt lat="38.900562" lon="-120.095363"><ele>2743.2</ele><time>2026-01-19T19:24:33Z</time></trkpt>
<trkpt lat="38.900591" lon="-120.095201"><ele>2736.8</ele><time>2026-01-19T19:24:36Z</time></trkpt>
<trkpt lat="38.900431" lon="-120.095158"><ele>2730.0</ele><time>2026-01-19T19:24:39Z</time></trkpt>
<trkpt lat="38.900404" lon="-120.095097"><ele>2729.2</ele><time>2026-01-19T19:24:40Z</time></trkpt>
<trkpt lat="38.900429" lon="-120.094968"><ele>2724.0</ele><time>2026-01-19T19:24:42Z</time></trkpt>
<trkpt lat="38.900397" lon="-120.094966"><ele>2716.8</ele><time>2026-01-19T19:24:48Z</time></trkpt>
<trkpt lat="38.900383" lon="-120.094937"><ele>2716.4</ele><time>2026-01-19T19:24:50Z</time></trkpt>
<trkpt lat="38.900435" lon="-120.094834"><ele>2713.8</ele><time>2026-01-19T19:24:52Z</time></trkpt>
<trkpt lat="38.900407" lon="-120.094703"><ele>2708.0</ele><time>2026-01-19T19:24:55Z</time></trkpt>
<trkpt lat="38.900478" lon="-120.094565"><ele>2702.8</ele><time>2026-01-19T19:24:57Z</time></trkpt>
<trkpt lat="38.900388" lon="-120.094516"><ele>2697.0</ele><time>2026-01-19T19:24:59Z</time></trkpt>
<trkpt lat="38.900278" lon="-120.094571"><ele>2694.0</ele><time>2026-01-19T19:25:04Z</time></trkpt>
<trkpt lat="38.900289" lon="-120.094602"><ele>2691.8</ele><time>2026-01-19T19:25:15Z</time></trkpt>
<trkpt lat="38.900104" lon="-120.094559"><ele>2688.6</ele><time>2026-01-19T19:25:21Z</time></trkpt>
<trkpt lat="38.900048" lon="-120.094438"><ele>2683.8</ele><time>2026-01-19T19:25:23Z</time></trkpt>
<trkpt lat="38.899955" lon="-120.094360"><ele>2678.8</ele><time>2026-01-19T19:25:25Z</time></trkpt>
<trkpt lat="38.899952" lon="-120.094278"><ele>2675.6</ele><time>2026-01-19T19:25:26Z</time></trkpt>
<trkpt lat="38.899810" lon="-120.094089"><ele>2663.8</ele><time>2026-01-19T19:25:29Z</time></trkpt>
<trkpt lat="38.899881" lon="-120.094005"><ele>2660.8</ele><time>2026-01-19T19:25:32Z</time></trkpt>
<trkpt lat="38.899858" lon="-120.093997"><ele>2658.6</ele><time>2026-01-19T19:25:34Z</time></trkpt>
<trkpt lat="38.899882" lon="-120.094021"><ele>2654.2</ele><time>2026-01-19T19:25:45Z</time></trkpt>
<trkpt lat="38.899840" lon="-120.093967"><ele>2652.8</ele><time>2026-01-19T19:25:55Z</time></trkpt>
<trkpt lat="38.899851" lon="-120.093957"><ele>2649.4</ele><time>2026-01-19T19:26:20Z</time></trkpt>
<trkpt lat="38.899785" lon="-120.093902"><ele>2647.2</ele><time>2026-01-19T19:26:29Z</time></trkpt>
<trkpt lat="38.899777" lon="-120.093835"><ele>2645.6</ele><time>2026-01-19T19:26:31Z</time></trkpt>
<trkpt lat="38.899880" lon="-120.093758"><ele>2643.4</ele><time>2026-01-19T19:26:33Z</time></trkpt>
<trkpt lat="38.899888" lon="-120.093721"><ele>2641.8</ele><time>2026-01-19T19:26:34Z</time></trkpt>
<trkpt lat="38.899859" lon="-120.093711"><ele>2638.0</ele><time>2026-01-19T19:26:39Z</time></trkpt>
<trkpt lat="38.899884" lon="-120.093714"><ele>2636.0</ele><time>2026-01-19T19:27:10Z</time></trkpt>
<trkpt lat="38.899821" lon="-120.093668"><ele>2634.6</ele><time>2026-01-19T19:27:25Z</time></trkpt>
<trkpt lat="38.899827" lon="-120.093424"><ele>2630.8</ele><time>2026-01-19T19:27:28Z</time></trkpt>
<trkpt lat="38.899860" lon="-120.093344"><ele>2627.4</ele><time>2026-01-19T19:27:29Z</time></trkpt>
<trkpt lat="38.899865" lon="-120.093176"><ele>2623.2</ele><time>2026-01-19T19:27:31Z</time></trkpt>
<trkpt lat="38.899894" lon="-120.093092"><ele>2618.0</ele><time>2026-01-19T19:27:32Z</time></trkpt>
<trkpt lat="38.899851" lon="-120.092940"><ele>2614.6</ele><time>2026-01-19T19:27:34Z</time></trkpt>
<trkpt lat="38.899845" lon="-120.092838"><ele>2609.2</ele><time>2026-01-19T19:27:35Z</time></trkpt>
<trkpt lat="38.899873" lon="-120.092742"><ele>2606.6</ele><time>2026-01-19T19:27:36Z</time></trkpt>
<trkpt lat="38.899865" lon="-120.092555"><ele>2597.0</ele><time>2026-01-19T19:27:38Z</time></trkpt>
<trkpt lat="38.899889" lon="-120.092467"><ele>2593.4</ele><time>2026-01-19T19:27:39Z</time></trkpt>
<trkpt lat="38.899870" lon="-120.092300"><ele>2587.8</ele><time>2026-01-19T19:27:41Z</time></trkpt>
<trkpt lat="38.899800" lon="-120.092161"><ele>2582.0</ele><time>2026-01-19T19:27:43Z</time></trkpt>
<trkpt lat="38.899820" lon="-120.092057"><ele>2576.6</ele><time>2026-01-19T19:27:45Z</time></trkpt>
<trkpt lat="38.899809" lon="-120.092023"><ele>2574.6</ele><time>2026-01-19T19:27:46Z</time></trkpt>
<trkpt lat="38.899794" lon="-120.092039"><ele>2571.8</ele><time>2026-01-19T19:27:49Z</time></trkpt>
<trkpt lat="38.899798" lon="-120.092008"><ele>2573.8</ele><time>2026-01-19T19:28:12Z</time></trkpt>
<trkpt lat="38.899723" lon="-120.091860"><ele>2571.4</ele><time>2026-01-19T19:28:15Z</time></trkpt>
<trkpt lat="38.899689" lon="-120.091614"><ele>2559.4</ele><time>2026-01-19T19:28:18Z</time></trkpt>
<trkpt lat="38.899711" lon="-120.091520"><ele>2557.2</ele><time>2026-01-19T19:28:19Z</time></trkpt>
<trkpt lat="38.899695" lon="-120.091430"><ele>2556.4</ele><time>2026-01-19T19:28:20Z</time></trkpt>
<trkpt lat="38.899653" lon="-120.091374"><ele>2552.0</ele><time>2026-01-19T19:28:21Z</time></trkpt>
<trkpt lat="38.899632" lon="-120.091153"><ele>2543.8</ele><time>2026-01-19T19:28:23Z</time></trkpt>
<trkpt lat="38.899591" lon="-120.091083"><ele>2542.4</ele><time>2026-01-19T19:28:24Z</time></trkpt>
<trkpt lat="38.899579" lon="-120.090897"><ele>2537.0</ele><time>2026-01-19T19:28:26Z</time></trkpt>
<trkpt lat="38.899593" lon="-120.090781"><ele>2530.2</ele><time>2026-01-19T19:28:27Z</time></trkpt>
<trkpt lat="38.899528" lon="-120.090577"><ele>2518.4</ele><time>2026-01-19T19:28:29Z</time></trkpt>
<trkpt lat="38.899554" lon="-120.090318"><ele>2515.0</ele><time>2026-01-19T19:28:31Z</time></trkpt>
<trkpt lat="38.899510" lon="-120.090202"><ele>2509.4</ele><time>2026-01-19T19:28:32Z</time></trkpt>
<trkpt lat="38.899452" lon="-120.090146"><ele>2507.0</ele><time>2026-01-19T19:28:33Z</time></trkpt>
<trkpt lat="38.899336" lon="-120.090152"><ele>2502.2</ele><time>2026-01-19T19:28:38Z</time></trkpt>
<trkpt lat="38.899376" lon="-120.089850"><ele>2497.8</ele><time>2026-01-19T19:28:42Z</time></trkpt>
<trkpt lat="38.899349" lon="-120.089600"><ele>2493.8</ele><time>2026-01-19T19:28:44Z</time></trkpt>
<trkpt lat="38.899062" lon="-120.089144"><ele>2485.4</ele><time>2026-01-19T19:28:49Z</time></trkpt>
<trkpt lat="38.898949" lon="-120.089068"><ele>2484.0</ele><time>2026-01-19T19:28:52Z</time></trkpt>
<trkpt lat="38.899066" lon="-120.088906"><ele>2480.2</ele><time>2026-01-19T19:29:00Z</time></trkpt>
<trkpt lat="38.899524" lon="-120.088582"><ele>2474.6</ele><time>2026-01-19T19:29:09Z</time></trkpt>
<trkpt lat="38.899566" lon="-120.088470"><ele>2474.0</ele><time>2026-01-19T19:29:11Z</time></trkpt>
<trkpt lat="38.899568" lon="-120.088354"><ele>2472.0</ele><time>2026-01-19T19:29:21Z</time></trkpt>
<trkpt lat="38.899571" lon="-120.088375"><ele>2470.8</ele><time>2026-01-19T19:29:32Z</time></trkpt>
<trkpt lat="38.899599" lon="-120.088357"><ele>2471.6</ele><time>2026-01-19T19:29:45Z</time></trkpt>
<trkpt lat="38.899476" lon="-120.088447"><ele>2471.0</ele><time>2026-01-19T19:30:30Z</time></trkpt>
<trkpt lat="38.899428" lon="-120.088438"><ele>2470.6</ele><time>2026-01-19T19:30:32Z</time></trkpt>
<trkpt lat="38.899270" lon="-120.088280"><ele>2468.0</ele><time>2026-01-19T19:30:38Z</time></trkpt>
<trkpt lat="38.899197" lon="-120.088159"><ele>2466.0</ele><time>2026-01-19T19:30:40Z</time></trkpt>
<trkpt lat="38.899065" lon="-120.088072"><ele>2462.2</ele><time>2026-01-19T19:30:44Z</time></trkpt>
<trkpt lat="38.898982" lon="-120.087841"><ele>2456.2</ele><time>2026-01-19T19:30:49Z</time></trkpt>
<trkpt lat="38.899032" lon="-120.087720"><ele>2450.8</ele><time>2026-01-19T19:30:52Z</time></trkpt>
<trkpt lat="38.898965" lon="-120.087617"><ele>2447.0</ele><time>2026-01-19T19:30:54Z</time></trkpt>
<trkpt lat="38.898881" lon="-120.087577"><ele>2444.2</ele><time>2026-01-19T19:30:57Z</time></trkpt>
<trkpt lat="38.898924" lon="-120.087582"><ele>2443.2</ele><time>2026-01-19T19:31:03Z</time></trkpt>
<trkpt lat="38.898921" lon="-120.087568"><ele>2440.0</ele><time>2026-01-19T19:31:27Z</time></trkpt>
<trkpt lat="38.898792" lon="-120.087387"><ele>2436.8</ele><time>2026-01-19T19:31:32Z</time></trkpt>
<trkpt lat="38.898787" lon="-120.087340"><ele>2435.6</ele><time>2026-01-19T19:31:33Z</time></trkpt>
<trkpt lat="38.898868" lon="-120.087299"><ele>2432.8</ele><time>2026-01-19T19:31:35Z</time></trkpt>
<trkpt lat="38.898991" lon="-120.087304"><ele>2430.4</ele><time>2026-01-19T19:31:37Z</time></trkpt>
<trkpt lat="38.899546" lon="-120.087397"><ele>2425.6</ele><time>2026-01-19T19:31:48Z</time></trkpt>
<trkpt lat="38.900144" lon="-120.087561"><ele>2422.4</ele><time>2026-01-19T19:32:01Z</time></trkpt>
<trkpt lat="38.900160" lon="-120.087508"><ele>2421.2</ele><time>2026-01-19T19:32:02Z</time></trkpt>
<trkpt lat="38.900130" lon="-120.087424"><ele>2418.6</ele><time>2026-01-19T19:32:04Z</time></trkpt>
<trkpt lat="38.900167" lon="-120.087388"><ele>2416.4</ele><time>2026-01-19T19:32:05Z</time></trkpt>
<trkpt lat="38.900390" lon="-120.087334"><ele>2410.4</ele><time>2026-01-19T19:32:08Z</time></trkpt>
<trkpt lat="38.900668" lon="-120.087256"><ele>2409.0</ele><time>2026-01-19T19:32:13Z</time></trkpt>
<trkpt lat="38.900650" lon="-120.087229"><ele>2408.4</ele><time>2026-01-19T19:32:14Z</time></trkpt>
<trkpt lat="38.900673" lon="-120.087109"><ele>2406.6</ele><time>2026-01-19T19:32:16Z</time></trkpt>
<trkpt lat="38.900747" lon="-120.086995"><ele>2401.2</ele><time>2026-01-19T19:32:18Z</time></trkpt>
<trkpt lat="38.900733" lon="-120.086967"><ele>2398.2</ele><time>2026-01-19T19:32:19Z</time></trkpt>
<trkpt lat="38.900767" lon="-120.086859"><ele>2394.8</ele><time>2026-01-19T19:32:21Z</time></trkpt>
<trkpt lat="38.901007" lon="-120.086573"><ele>2385.8</ele><time>2026-01-19T19:32:25Z</time></trkpt>
<trkpt lat="38.901015" lon="-120.086526"><ele>2383.4</ele><time>2026-01-19T19:32:26Z</time></trkpt>
<trkpt lat="38.900998" lon="-120.086534"><ele>2382.0</ele><time>2026-01-19T19:32:28Z</time></trkpt>
<trkpt lat="38.901044" lon="-120.086427"><ele>2379.8</ele><time>2026-01-19T19:32:33Z</time></trkpt>
<trkpt lat="38.901202" lon="-120.086361"><ele>2377.8</ele><time>2026-01-19T19:32:38Z</time></trkpt>
<trkpt lat="38.901257" lon="-120.086290"><ele>2376.8</ele><time>2026-01-19T19:32:40Z</time></trkpt>
<trkpt lat="38.901235" lon="-120.086162"><ele>2372.8</ele><time>2026-01-19T19:32:43Z</time></trkpt>
<trkpt lat="38.901268" lon="-120.086162"><ele>2370.4</ele><time>2026-01-19T19:32:46Z</time></trkpt>
<trkpt lat="38.901324" lon="-120.086052"><ele>2367.4</ele><time>2026-01-19T19:32:53Z</time></trkpt>
<trkpt lat="38.901249" lon="-120.085941"><ele>2364.2</ele><time>2026-01-19T19:32:56Z</time></trkpt>
<trkpt lat="38.901356" lon="-120.085512"><ele>2351.8</ele><time>2026-01-19T19:33:04Z</time></trkpt>
<trkpt lat="38.901434" lon="-120.085544"><ele>2349.8</ele><time>2026-01-19T19:33:11Z</time></trkpt>
<trkpt lat="38.901457" lon="-120.085511"><ele>2348.8</ele><time>2026-01-19T19:33:14Z</time></trkpt>
<trkpt lat="38.901560" lon="-120.085188"><ele>2341.2</ele><time>2026-01-19T19:33:19Z</time></trkpt>
<trkpt lat="38.901797" lon="-120.085002"><ele>2335.4</ele><time>2026-01-19T19:33:22Z</time></trkpt>
<trkpt lat="38.901941" lon="-120.084950"><ele>2331.8</ele><time>2026-01-19T19:33:24Z</time></trkpt>
<trkpt lat="38.902231" lon="-120.084657"><ele>2327.2</ele><time>2026-01-19T19:33:31Z</time></trkpt>
<trkpt lat="38.902731" lon="-120.084447"><ele>2321.6</ele><time>2026-01-19T19:33:44Z</time></trkpt>
<trkpt lat="38.903245" lon="-120.084302"><ele>2318.4</ele><time>2026-01-19T19:33:56Z</time></trkpt>
<trkpt lat="38.903551" lon="-120.084231"><ele>2316.6</ele><time>2026-01-19T19:34:03Z</time></trkpt>
<trkpt lat="38.904079" lon="-120.084191"><ele>2313.4</ele><time>2026-01-19T19:34:18Z</time></trkpt>
<trkpt lat="38.904468" lon="-120.083904"><ele>2308.8</ele><time>2026-01-19T19:34:31Z</time></trkpt>
<trkpt lat="38.904442" lon="-120.083906"><ele>2308.4</ele><time>2026-01-19T19:34:35Z</time></trkpt>
<trkpt lat="38.904431" lon="-120.083858"><ele>2307.4</ele><time>2026-01-19T19:34:38Z</time></trkpt>
<trkpt lat="38.904565" lon="-120.083714"><ele>2304.4</ele><time>2026-01-19T19:34:41Z</time></trkpt>
<trkpt lat="38.905258" lon="-120.083540"><ele>2298.6</ele><time>2026-01-19T19:35:00Z</time></trkpt>
<trkpt lat="38.905384" lon="-120.083419"><ele>2295.6</ele><time>2026-01-19T19:35:06Z</time></trkpt>
<trkpt lat="38.905597" lon="-120.083362"><ele>2292.0</ele><time>2026-01-19T19:35:12Z</time></trkpt>
<trkpt lat="38.905613" lon="-120.083333"><ele>2290.0</ele><time>2026-01-19T19:35:34Z</time></trkpt>
<trkpt lat="38.905603" lon="-120.083354"><ele>2289.2</ele><time>2026-01-19T19:35:45Z</time></trkpt>
<trkpt lat="38.905848" lon="-120.083162"><ele>2280.6</ele><time>2026-01-19T19:36:03Z</time></trkpt>
<trkpt lat="38.905930" lon="-120.083047"><ele>2278.4</ele><time>2026-01-19T19:36:07Z</time></trkpt>
<trkpt lat="38.906050" lon="-120.082973"><ele>2273.4</ele><time>2026-01-19T19:36:15Z</time></trkpt>
<trkpt lat="38.906038" lon="-120.082937"><ele>2272.4</ele><time>2026-01-19T19:36:20Z</time></trkpt>
<trkpt lat="38.906104" lon="-120.082872"><ele>2269.6</ele><time>2026-01-19T19:36:28Z</time></trkpt>
<trkpt lat="38.906326" lon="-120.082737"><ele>2265.6</ele><time>2026-01-19T19:36:36Z</time></trkpt>
<trkpt lat="38.906391" lon="-120.082649"><ele>2261.6</ele><time>2026-01-19T19:36:45Z</time></trkpt>
<trkpt lat="38.906388" lon="-120.082612"><ele>2259.4</ele><time>2026-01-19T19:36:57Z</time></trkpt>
<trkpt lat="38.906731" lon="-120.082409"><ele>2252.2</ele><time>2026-01-19T19:37:35Z</time></trkpt>
<trkpt lat="38.906704" lon="-120.082407"><ele>2251.6</ele><time>2026-01-19T19:37:46Z</time></trkpt>
<trkpt lat="38.906698" lon="-120.082363"><ele>2248.2</ele><time>2026-01-19T19:37:59Z</time></trkpt>
<trkpt lat="38.906858" lon="-120.082244"><ele>2245.2</ele><time>2026-01-19T19:38:14Z</time></trkpt>
<trkpt lat="38.907247" lon="-120.082091"><ele>2239.0</ele><time>2026-01-19T19:39:06Z</time></trkpt>
<trkpt lat="38.907275" lon="-120.082028"><ele>2237.4</ele><time>2026-01-19T19:39:10Z</time></trkpt>
<trkpt lat="38.907437" lon="-120.081944"><ele>2233.0</ele><time>2026-01-19T19:39:16Z</time></trkpt>
<trkpt lat="38.907560" lon="-120.081938"><ele>2230.2</ele><time>2026-01-19T19:39:33Z</time></trkpt>
<trkpt lat="38.907832" lon="-120.081788"><ele>2224.8</ele><time>2026-01-19T19:39:53Z</time></trkpt>
<trkpt lat="38.907990" lon="-120.081739"><ele>2223.0</ele><time>2026-01-19T19:40:05Z</time></trkpt>
<trkpt lat="38.908074" lon="-120.081679"><ele>2220.0</ele><time>2026-01-19T19:40:18Z</time></trkpt>
<trkpt lat="38.908071" lon="-120.081615"><ele>2216.6</ele><time>2026-01-19T19:40:55Z</time></trkpt>
<trkpt lat="38.908232" lon="-120.081646"><ele>2213.0</ele><time>2026-01-19T19:42:26Z</time></trkpt>
<trkpt lat="38.908335" lon="-120.081579"><ele>2209.2</ele><time>2026-01-19T19:42:48Z</time></trkpt>
<trkpt lat="38.908342" lon="-120.081538"><ele>2208.8</ele><time>2026-01-19T19:43:03Z</time></trkpt>
<trkpt lat="38.908404" lon="-120.081538"><ele>2207.2</ele><time>2026-01-19T19:43:12Z</time></trkpt>
<trkpt lat="38.908389" lon="-120.081513"><ele>2206.2</ele><time>2026-01-19T19:43:26Z</time></trkpt>
<trkpt lat="38.908424" lon="-120.081485"><ele>2205.2</ele><time>2026-01-19T19:43:38Z</time></trkpt>
<trkpt lat="38.908468" lon="-120.081520"><ele>2205.2</ele><time>2026-01-19T19:44:03Z</time></trkpt>
<trkpt lat="38.908451" lon="-120.081497"><ele>2205.0</ele><time>2026-01-19T19:44:09Z</time></trkpt>
<trkpt lat="38.908533" lon="-120.081477"><ele>2205.6</ele><time>2026-01-19T19:44:57Z</time></trkpt>
<trkpt lat="38.908554" lon="-120.081561"><ele>2206.2</ele><time>2026-01-19T19:45:45Z</time></trkpt>
<trkpt lat="38.908529" lon="-120.081506"><ele>2205.4</ele><time>2026-01-19T19:45:55Z</time></trkpt>
<trkpt lat="38.908756" lon="-120.081452"><ele>2202.4</ele><time>2026-01-19T19:46:24Z</time></trkpt>
<trkpt lat="38.909079" lon="-120.081266"><ele>2193.6</ele><time>2026-01-19T19:47:30Z</time></trkpt>
<trkpt lat="38.909238" lon="-120.081220"><ele>2194.8</ele><time>2026-01-19T19:48:29Z</time></trkpt>
<trkpt lat="38.909225" lon="-120.081203"><ele>2195.0</ele><time>2026-01-19T19:48:33Z</time></trkpt>
<trkpt lat="38.909272" lon="-120.081236"><ele>2195.0</ele><time>2026-01-19T19:48:59Z</time></trkpt>
<trkpt lat="38.909432" lon="-120.081192"><ele>2193.8</ele><time>2026-01-19T19:49:47Z</time></trkpt>
<trkpt lat="38.909425" lon="-120.081249"><ele>2193.2</ele><time>2026-01-19T19:49:56Z</time></trkpt>
<trkpt lat="38.909504" lon="-120.081440"><ele>2190.6</ele><time>2026-01-19T19:50:05Z</time></trkpt>
<trkpt lat="38.909656" lon="-120.081538"><ele>2187.8</ele><time>2026-01-19T19:50:15Z</time></trkpt>
<trkpt lat="38.909706" lon="-120.081635"><ele>2187.4</ele><time>2026-01-19T19:50:27Z</time></trkpt>
<trkpt lat="38.909945" lon="-120.081861"><ele>2183.8</ele><time>2026-01-19T19:50:36Z</time></trkpt>
<trkpt lat="38.910073" lon="-120.082079"><ele>2183.2</ele><time>2026-01-19T19:50:43Z</time></trkpt>
<trkpt lat="38.910174" lon="-120.082175"><ele>2181.8</ele><time>2026-01-19T19:50:47Z</time></trkpt>
<trkpt lat="38.910243" lon="-120.082398"><ele>2181.0</ele><time>2026-01-19T19:51:03Z</time></trkpt>
<trkpt lat="38.910235" lon="-120.082372"><ele>2180.8</ele><time>2026-01-19T19:51:11Z</time></trkpt>
<trkpt lat="38.910305" lon="-120.082435"><ele>2179.2</ele><time>2026-01-19T19:51:17Z</time></trkpt>
<trkpt lat="38.910373" lon="-120.082614"><ele>2177.6</ele><time>2026-01-19T19:51:25Z</time></trkpt>
<trkpt lat="38.910460" lon="-120.082632"><ele>2176.0</ele><time>2026-01-19T19:51:28Z</time></trkpt>
<trkpt lat="38.910601" lon="-120.082742"><ele>2172.6</ele><time>2026-01-19T19:51:35Z</time></trkpt>
<trkpt lat="38.910787" lon="-120.082713"><ele>2168.6</ele><time>2026-01-19T19:51:44Z</time></trkpt>
<trkpt lat="38.910879" lon="-120.082756"><ele>2167.2</ele><time>2026-01-19T19:51:46Z</time></trkpt>
<trkpt lat="38.911073" lon="-120.082890"><ele>2166.0</ele><time>2026-01-19T19:51:52Z</time></trkpt>
<trkpt lat="38.911183" lon="-120.083032"><ele>2165.8</ele><time>2026-01-19T19:52:00Z</time></trkpt>
<trkpt lat="38.911385" lon="-120.083166"><ele>2162.8</ele><time>2026-01-19T19:52:24Z</time></trkpt>
<trkpt lat="38.911450" lon="-120.083281"><ele>2162.4</ele><time>2026-01-19T19:52:57Z</time></trkpt>
<trkpt lat="38.911453" lon="-120.083338"><ele>2162.6</ele><time>2026-01-19T19:53:13Z</time></trkpt>
<trkpt lat="38.911415" lon="-120.083352"><ele>2163.0</ele><time>2026-01-19T19:53:24Z</time></trkpt>
<trkpt lat="38.911445" lon="-120.083640"><ele>2161.8</ele><time>2026-01-19T19:53:44Z</time></trkpt>
<trkpt lat="38.911667" lon="-120.084207"><ele>2156.8</ele><time>2026-01-19T19:54:07Z</time></trkpt>
<trkpt lat="38.911787" lon="-120.084366"><ele>2155.0</ele><time>2026-01-19T19:54:10Z</time></trkpt>
<trkpt lat="38.912034" lon="-120.084476"><ele>2154.4</ele><time>2026-01-19T19:54:16Z</time></trkpt>
<trkpt lat="38.912281" lon="-120.084636"><ele>2152.6</ele><time>2026-01-19T19:54:35Z</time></trkpt>
<trkpt lat="38.912578" lon="-120.084755"><ele>2151.6</ele><time>2026-01-19T19:55:05Z</time></trkpt>
<trkpt lat="38.912716" lon="-120.084728"><ele>2151.0</ele><time>2026-01-19T19:55:17Z</time></trkpt>
<trkpt lat="38.913049" lon="-120.084777"><ele>2149.2</ele><time>2026-01-19T19:55:38Z</time></trkpt>
<trkpt lat="38.913202" lon="-120.084766"><ele>2148.6</ele><time>2026-01-19T19:55:51Z</time></trkpt>
<trkpt lat="38.913298" lon="-120.084715"><ele>2147.0</ele><time>2026-01-19T19:56:05Z</time></trkpt>
<trkpt lat="38.913596" lon="-120.084718"><ele>2145.8</ele><time>2026-01-19T19:56:31Z</time></trkpt>
<trkpt lat="38.913755" lon="-120.084678"><ele>2145.8</ele><time>2026-01-19T19:56:43Z</time></trkpt>
<trkpt lat="38.913994" lon="-120.084607"><ele>2145.2</ele><time>2026-01-19T19:57:04Z</time></trkpt>
<trkpt lat="38.914221" lon="-120.084460"><ele>2146.0</ele><time>2026-01-19T19:57:24Z</time></trkpt>
<trkpt lat="38.914321" lon="-120.084455"><ele>2146.0</ele><time>2026-01-19T19:57:39Z</time></trkpt>
<trkpt lat="38.914475" lon="-120.084365"><ele>2146.2</ele><time>2026-01-19T19:58:10Z</time></trkpt>
<trkpt lat="38.914599" lon="-120.084210"><ele>2146.0</ele><time>2026-01-19T19:58:29Z</time></trkpt>
<trkpt lat="38.914705" lon="-120.084138"><ele>2146.4</ele><time>2026-01-19T19:58:38Z</time></trkpt>
<trkpt lat="38.914831" lon="-120.083917"><ele>2146.6</ele><time>2026-01-19T19:58:47Z</time></trkpt>
<trkpt lat="38.915034" lon="-120.083865"><ele>2147.2</ele><time>2026-01-19T19:59:11Z</time></trkpt>
<trkpt lat="38.915126" lon="-120.083806"><ele>2148.0</ele><time>2026-01-19T19:59:48Z</time></trkpt>
<trkpt lat="38.915310" lon="-120.083775"><ele>2147.8</ele><time>2026-01-19T19:59:55Z</time></trkpt>
<trkpt lat="38.915436" lon="-120.083800"><ele>2148.8</ele><time>2026-01-19T20:00:24Z</time></trkpt>
<trkpt lat="38.915580" lon="-120.083758"><ele>2147.8</ele><time>2026-01-19T20:00:34Z</time></trkpt>
<trkpt lat="38.915765" lon="-120.083921"><ele>2149.0</ele><time>2026-01-19T20:01:02Z</time></trkpt>
<trkpt lat="38.915840" lon="-120.083924"><ele>2149.2</ele><time>2026-01-19T20:01:26Z</time></trkpt>
<trkpt lat="38.915950" lon="-120.083990"><ele>2149.6</ele><time>2026-01-19T20:01:54Z</time></trkpt>
<trkpt lat="38.916037" lon="-120.084127"><ele>2149.8</ele><time>2026-01-19T20:02:05Z</time></trkpt>
<trkpt lat="38.916408" lon="-120.084277"><ele>2149.2</ele><time>2026-01-19T20:02:34Z</time></trkpt>
<trkpt lat="38.916668" lon="-120.084645"><ele>2146.0</ele><time>2026-01-19T20:02:50Z</time></trkpt>
<trkpt lat="38.916732" lon="-120.084687"><ele>2144.4</ele><time>2026-01-19T20:02:58Z</time></trkpt>
<trkpt lat="38.916841" lon="-120.084660"><ele>2143.4</ele><time>2026-01-19T20:03:05Z</time></trkpt>
<trkpt lat="38.917197" lon="-120.084900"><ele>2139.4</ele><time>2026-01-19T20:03:44Z</time></trkpt>
<trkpt lat="38.917397" lon="-120.084953"><ele>2136.4</ele><time>2026-01-19T20:03:48Z</time></trkpt>
<trkpt lat="38.917604" lon="-120.085154"><ele>2134.0</ele><time>2026-01-19T20:03:57Z</time></trkpt>
<trkpt lat="38.917740" lon="-120.085185"><ele>2132.4</ele><time>2026-01-19T20:04:01Z</time></trkpt>
<trkpt lat="38.917763" lon="-120.085232"><ele>2131.4</ele><time>2026-01-19T20:04:03Z</time></trkpt>
<trkpt lat="38.917747" lon="-120.085213"><ele>2131.0</ele><time>2026-01-19T20:04:05Z</time></trkpt>
<trkpt lat="38.917781" lon="-120.085180"><ele>2130.4</ele><time>2026-01-19T20:04:08Z</time></trkpt>
<trkpt lat="38.917946" lon="-120.085209"><ele>2126.8</ele><time>2026-01-19T20:04:14Z</time></trkpt>
<trkpt lat="38.918033" lon="-120.085263"><ele>2125.2</ele><time>2026-01-19T20:04:18Z</time></trkpt>
<trkpt lat="38.918064" lon="-120.085322"><ele>2124.6</ele><time>2026-01-19T20:04:21Z</time></trkpt>
<trkpt lat="38.918060" lon="-120.085294"><ele>2123.4</ele><time>2026-01-19T20:04:30Z</time></trkpt>
<trkpt lat="38.918137" lon="-120.085299"><ele>2122.6</ele><time>2026-01-19T20:04:33Z</time></trkpt>
<trkpt lat="38.918302" lon="-120.085433"><ele>2118.6</ele><time>2026-01-19T20:04:42Z</time></trkpt>
<trkpt lat="38.918432" lon="-120.085326"><ele>2114.4</ele><time>2026-01-19T20:04:50Z</time></trkpt>
<trkpt lat="38.918648" lon="-120.085408"><ele>2107.8</ele><time>2026-01-19T20:05:01Z</time></trkpt>
<trkpt lat="38.918666" lon="-120.085382"><ele>2107.0</ele><time>2026-01-19T20:05:02Z</time></trkpt>
<trkpt lat="38.918644" lon="-120.085250"><ele>2104.4</ele><time>2026-01-19T20:05:05Z</time></trkpt>
<trkpt lat="38.918670" lon="-120.085221"><ele>2102.8</ele><time>2026-01-19T20:05:08Z</time></trkpt>
<trkpt lat="38.918648" lon="-120.085061"><ele>2099.8</ele><time>2026-01-19T20:05:17Z</time></trkpt>
<trkpt lat="38.918734" lon="-120.084889"><ele>2095.0</ele><time>2026-01-19T20:05:25Z</time></trkpt>
<trkpt lat="38.918737" lon="-120.084862"><ele>2092.2</ele><time>2026-01-19T20:05:29Z</time></trkpt>
<trkpt lat="38.918722" lon="-120.084455"><ele>2088.0</ele><time>2026-01-19T20:05:40Z</time></trkpt>
<trkpt lat="38.918772" lon="-120.084417"><ele>2086.6</ele><time>2026-01-19T20:05:44Z</time></trkpt>
<trkpt lat="38.918801" lon="-120.084310"><ele>2084.8</ele><time>2026-01-19T20:05:46Z</time></trkpt>
<trkpt lat="38.918853" lon="-120.084250"><ele>2082.8</ele><time>2026-01-19T20:05:48Z</time></trkpt>
<trkpt lat="38.918971" lon="-120.084285"><ele>2079.4</ele><time>2026-01-19T20:05:52Z</time></trkpt>
<trkpt lat="38.919012" lon="-120.084253"><ele>2077.4</ele><time>2026-01-19T20:05:54Z</time></trkpt>
<trkpt lat="38.919111" lon="-120.084042"><ele>2073.2</ele><time>2026-01-19T20:05:59Z</time></trkpt>
<trkpt lat="38.919061" lon="-120.083861"><ele>2070.4</ele><time>2026-01-19T20:06:05Z</time></trkpt>
<trkpt lat="38.919042" lon="-120.083612"><ele>2067.8</ele><time>2026-01-19T20:06:15Z</time></trkpt>
<trkpt lat="38.919151" lon="-120.083573"><ele>2066.0</ele><time>2026-01-19T20:06:18Z</time></trkpt>
<trkpt lat="38.919200" lon="-120.083490"><ele>2064.2</ele><time>2026-01-19T20:06:20Z</time></trkpt>
<trkpt lat="38.919270" lon="-120.083446"><ele>2062.2</ele><time>2026-01-19T20:06:22Z</time></trkpt>
<trkpt lat="38.919382" lon="-120.083439"><ele>2059.4</ele><time>2026-01-19T20:06:24Z</time></trkpt>
<trkpt lat="38.919544" lon="-120.083210"><ele>2055.4</ele><time>2026-01-19T20:06:30Z</time></trkpt>
<trkpt lat="38.919672" lon="-120.083188"><ele>2052.0</ele><time>2026-01-19T20:06:36Z</time></trkpt>
<trkpt lat="38.919816" lon="-120.083250"><ele>2048.4</ele><time>2026-01-19T20:06:41Z</time></trkpt>
<trkpt lat="38.919975" lon="-120.083131"><ele>2045.6</ele><time>2026-01-19T20:06:46Z</time></trkpt>
<trkpt lat="38.920082" lon="-120.083132"><ele>2041.8</ele><time>2026-01-19T20:06:56Z</time></trkpt>
<trkpt lat="38.920151" lon="-120.082960"><ele>2040.6</ele><time>2026-01-19T20:07:04Z</time></trkpt>
<trkpt lat="38.920298" lon="-120.082998"><ele>2039.0</ele><time>2026-01-19T20:07:10Z</time></trkpt>
<trkpt lat="38.920368" lon="-120.083109"><ele>2036.4</ele><time>2026-01-19T20:07:14Z</time></trkpt>
<trkpt lat="38.920506" lon="-120.082938"><ele>2034.0</ele><time>2026-01-19T20:07:20Z</time></trkpt>
<trkpt lat="38.920676" lon="-120.082903"><ele>2031.4</ele><time>2026-01-19T20:07:23Z</time></trkpt>
<trkpt lat="38.920903" lon="-120.082617"><ele>2027.6</ele><time>2026-01-19T20:07:31Z</time></trkpt>
<trkpt lat="38.921151" lon="-120.082631"><ele>2023.8</ele><time>2026-01-19T20:07:44Z</time></trkpt>
<trkpt lat="38.921326" lon="-120.082537"><ele>2020.8</ele><time>2026-01-19T20:08:07Z</time></trkpt>
<trkpt lat="38.921332" lon="-120.082333"><ele>2019.0</ele><time>2026-01-19T20:08:37Z</time></trkpt>
<trkpt lat="38.921432" lon="-120.082318"><ele>2017.4</ele><time>2026-01-19T20:08:50Z</time></trkpt>
<trkpt lat="38.921544" lon="-120.082240"><ele>2015.4</ele><time>2026-01-19T20:08:54Z</time></trkpt>
<trkpt lat="38.921685" lon="-120.082243"><ele>2014.8</ele><time>2026-01-19T20:09:04Z</time></trkpt>
<trkpt lat="38.921646" lon="-120.081953"><ele>2013.6</ele><time>2026-01-19T20:09:33Z</time></trkpt>
<trkpt lat="38.921672" lon="-120.081915"><ele>2012.6</ele><time>2026-01-19T20:10:12Z</time></trkpt>
<trkpt lat="38.921667" lon="-120.081809"><ele>2012.4</ele><time>2026-01-19T20:10:27Z</time></trkpt>
<trkpt lat="38.921610" lon="-120.081742"><ele>2012.4</ele><time>2026-01-19T20:10:42Z</time></trkpt>
<trkpt lat="38.921631" lon="-120.081651"><ele>2012.4</ele><time>2026-01-19T20:10:52Z</time></trkpt>
<trkpt lat="38.921537" lon="-120.081489"><ele>2011.8</ele><time>2026-01-19T20:11:04Z</time></trkpt>
<trkpt lat="38.921565" lon="-120.081419"><ele>2011.2</ele><time>2026-01-19T20:11:16Z</time></trkpt>
<trkpt lat="38.921979" lon="-120.081197"><ele>2007.8</ele><time>2026-01-19T20:11:34Z</time></trkpt>
<trkpt lat="38.922155" lon="-120.080990"><ele>2007.6</ele><time>2026-01-19T20:11:42Z</time></trkpt>
<trkpt lat="38.922334" lon="-120.080872"><ele>2006.8</ele><time>2026-01-19T20:11:51Z</time></trkpt>
<trkpt lat="38.922569" lon="-120.080839"><ele>2006.4</ele><time>2026-01-19T20:11:58Z</time></trkpt>
<trkpt lat="38.922780" lon="-120.080961"><ele>2005.6</ele><time>2026-01-19T20:12:06Z</time></trkpt>
<trkpt lat="38.922857" lon="-120.080954"><ele>2005.4</ele><time>2026-01-19T20:12:10Z</time></trkpt>
<trkpt lat="38.923231" lon="-120.080766"><ele>2004.0</ele><time>2026-01-19T20:12:32Z</time></trkpt>
<trkpt lat="38.923588" lon="-120.080430"><ele>2003.0</ele><time>2026-01-19T20:12:54Z</time></trkpt>
<trkpt lat="38.923633" lon="-120.080366"><ele>2002.8</ele><time>2026-01-19T20:12:57Z</time></trkpt>
<trkpt lat="38.923750" lon="-120.079954"><ele>2001.8</ele><time>2026-01-19T20:13:19Z</time></trkpt>
<trkpt lat="38.923762" lon="-120.079051"><ele>1998.4</ele><time>2026-01-19T20:13:53Z</time></trkpt>
<trkpt lat="38.923893" lon="-120.078837"><ele>1996.6</ele><time>2026-01-19T20:14:04Z</time></trkpt>
<trkpt lat="38.924252" lon="-120.078503"><ele>1993.4</ele><time>2026-01-19T20:14:23Z</time></trkpt>
<trkpt lat="38.924501" lon="-120.078412"><ele>1991.8</ele><time>2026-01-19T20:14:29Z</time></trkpt>
<trkpt lat="38.924828" lon="-120.078489"><ele>1990.6</ele><time>2026-01-19T20:14:38Z</time></trkpt>
<trkpt lat="38.925479" lon="-120.079048"><ele>1988.8</ele><time>2026-01-19T20:15:09Z</time></trkpt>
<trkpt lat="38.925701" lon="-120.079155"><ele>1987.4</ele><time>2026-01-19T20:15:19Z</time></trkpt>
<trkpt lat="38.925990" lon="-120.079209"><ele>1985.4</ele><time>2026-01-19T20:15:29Z</time></trkpt>
<trkpt lat="38.926094" lon="-120.079304"><ele>1985.2</ele><time>2026-01-19T20:15:33Z</time></trkpt>
<trkpt lat="38.926355" lon="-120.079430"><ele>1984.0</ele><time>2026-01-19T20:15:45Z</time></trkpt>
<trkpt lat="38.926588" lon="-120.079447"><ele>1984.0</ele><time>2026-01-19T20:15:56Z</time></trkpt>
<trkpt lat="38.927307" lon="-120.079735"><ele>1980.2</ele><time>2026-01-19T20:16:26Z</time></trkpt>
<trkpt lat="38.927586" lon="-120.079799"><ele>1979.0</ele><time>2026-01-19T20:16:37Z</time></trkpt>
<trkpt lat="38.927779" lon="-120.079827"><ele>1977.8</ele><time>2026-01-19T20:16:44Z</time></trkpt>
<trkpt lat="38.927903" lon="-120.079778"><ele>1976.4</ele><time>2026-01-19T20:16:48Z</time></trkpt>
<trkpt lat="38.927985" lon="-120.079846"><ele>1975.4</ele><time>2026-01-19T20:16:56Z</time></trkpt>
<trkpt lat="38.928146" lon="-120.079764"><ele>1974.0</ele><time>2026-01-19T20:17:01Z</time></trkpt>
<trkpt lat="38.928330" lon="-120.079750"><ele>1972.8</ele><time>2026-01-19T20:17:05Z</time></trkpt>
<trkpt lat="38.928562" lon="-120.079841"><ele>1972.0</ele><time>2026-01-19T20:17:12Z</time></trkpt>
<trkpt lat="38.929026" lon="-120.079926"><ele>1969.6</ele><time>2026-01-19T20:17:32Z</time></trkpt>
<trkpt lat="38.929290" lon="-120.080081"><ele>1968.8</ele><time>2026-01-19T20:17:48Z</time></trkpt>
<trkpt lat="38.929488" lon="-120.080261"><ele>1966.6</ele><time>2026-01-19T20:18:01Z</time></trkpt>
<trkpt lat="38.929855" lon="-120.080392"><ele>1965.2</ele><time>2026-01-19T20:18:19Z</time></trkpt>
<trkpt lat="38.930144" lon="-120.080251"><ele>1965.2</ele><time>2026-01-19T20:18:44Z</time></trkpt>
<trkpt lat="38.930248" lon="-120.080062"><ele>1964.2</ele><time>2026-01-19T20:18:55Z</time></trkpt>
<trkpt lat="38.930314" lon="-120.080009"><ele>1964.0</ele><time>2026-01-19T20:18:58Z</time></trkpt>
<trkpt lat="38.930538" lon="-120.079955"><ele>1962.8</ele><time>2026-01-19T20:19:05Z</time></trkpt>
<trkpt lat="38.930805" lon="-120.079777"><ele>1961.2</ele><time>2026-01-19T20:19:17Z</time></trkpt>
<trkpt lat="38.931022" lon="-120.079694"><ele>1960.2</ele><time>2026-01-19T20:19:28Z</time></trkpt>
<trkpt lat="38.931715" lon="-120.079610"><ele>1958.6</ele><time>2026-01-19T20:20:07Z</time></trkpt>
<trkpt lat="38.932240" lon="-120.079159"><ele>1956.0</ele><time>2026-01-19T20:20:29Z</time></trkpt>
<trkpt lat="38.932401" lon="-120.078947"><ele>1956.2</ele><time>2026-01-19T20:20:37Z</time></trkpt>
<trkpt lat="38.932497" lon="-120.078752"><ele>1954.8</ele><time>2026-01-19T20:20:43Z</time></trkpt>
<trkpt lat="38.932521" lon="-120.078172"><ele>1951.4</ele><time>2026-01-19T20:20:55Z</time></trkpt>
<trkpt lat="38.932609" lon="-120.077795"><ele>1948.8</ele><time>2026-01-19T20:21:02Z</time></trkpt>
<trkpt lat="38.932685" lon="-120.077611"><ele>1948.2</ele><time>2026-01-19T20:21:06Z</time></trkpt>
<trkpt lat="38.932836" lon="-120.077415"><ele>1947.0</ele><time>2026-01-19T20:21:12Z</time></trkpt>
<trkpt lat="38.932889" lon="-120.077289"><ele>1946.8</ele><time>2026-01-19T20:21:16Z</time></trkpt>
<trkpt lat="38.932947" lon="-120.077212"><ele>1946.8</ele><time>2026-01-19T20:21:20Z</time></trkpt>
<trkpt lat="38.933002" lon="-120.077208"><ele>1946.6</ele><time>2026-01-19T20:21:25Z</time></trkpt>
<trkpt lat="38.932965" lon="-120.077184"><ele>1945.6</ele><time>2026-01-19T20:21:33Z</time></trkpt>
</trkseg></trk>
</gpx>
