<?xml version="1.0" encoding="UTF-8"?>
<gpx version="1.1" creator="Eric Sichak trip reports" xmlns="http://www.topografix.com/GPX/1/1">
<metadata><name>Powderhouse lap before work</name><time>2026-02-12T14:15:36Z</time></metadata>
<trk><name>Powderhouse lap before work</name><type>ski</type><trkseg>
<trkpt lat="38.796341" lon="-119.976826"><ele>2360.2</ele><time>2026-02-12T14:15:36Z</time></trkpt>
<trkpt lat="38.796159" lon="-119.976792"><ele>2359.4</ele><time>2026-02-12T14:16:09Z</time></trkpt>
<trkpt lat="38.796067" lon="-119.976720"><ele>2358.2</ele><time>2026-02-12T14:16:18Z</time></trkpt>
<trkpt lat="38.796010" lon="-119.976579"><ele>2355.8</ele><time>2026-02-12T14:16:29Z</time></trkpt>
<trkpt lat="38.795862" lon="-119.976355"><ele>2354.4</ele><time>2026-02-12T14:16:44Z</time></trkpt>
<trkpt lat="38.795681" lon="-119.976273"><ele>2353.0</ele><time>2026-02-12T14:16:56Z</time></trkpt>
<trkpt lat="38.795547" lon="-119.976292"><ele>2352.2</ele><time>2026-02-12T14:17:07Z</time></trkpt>
<trkpt lat="38.794876" lon="-119.976878"><ele>2354.4</ele><time>2026-02-12T14:18:15Z</time></trkpt>
<trkpt lat="38.794754" lon="-119.976922"><ele>2355.6</ele><time>2026-02-12T14:18:27Z</time></trkpt>
<trkpt lat="38.794418" lon="-119.976953"><ele>2357.8</ele><time>2026-02-12T14:18:56Z</time></trkpt>
<trkpt lat="38.794351" lon="-119.977017"><ele>2358.6</ele><time>2026-02-12T14:19:05Z</time></trkpt>
<trkpt lat="38.794081" lon="-119.977522"><ele>2367.6</ele><time>2026-02-12T14:19:59Z</time></trkpt>
<trkpt lat="38.793826" lon="-119.977748"><ele>2373.6</ele><time>2026-02-12T14:20:33Z</time></trkpt>
<trkpt lat="38.793651" lon="-119.977806"><ele>2376.4</ele><time>2026-02-12T14:20:53Z</time></trkpt>
<trkpt lat="38.793516" lon="-119.977933"><ele>2379.2</ele><time>2026-02-12T14:21:13Z</time></trkpt>
<trkpt lat="38.793371" lon="-119.977988"><ele>2381.2</ele><time>2026-02-12T14:21:29Z</time></trkpt>
<trkpt lat="38.793194" lon="-119.978223"><ele>2384.8</ele><time>2026-02-12T14:21:56Z</time></trkpt>
<trkpt lat="38.792991" lon="-119.978410"><ele>2386.8</ele><time>2026-02-12T14:22:34Z</time></trkpt>
<trkpt lat="38.792999" lon="-119.978428"><ele>2385.8</ele><time>2026-02-12T14:22:47Z</time></trkpt>
<trkpt lat="38.792988" lon="-119.978401"><ele>2385.0</ele><time>2026-02-12T14:23:00Z</time></trkpt>
<trkpt lat="38.792567" lon="-119.978581"><ele>2387.4</ele><time>2026-02-12T14:23:40Z</time></trkpt>
<trkpt lat="38.792248" lon="-119.978637"><ele>2391.4</ele><time>2026-02-12T14:24:12Z</time></trkpt>
<trkpt lat="38.792095" lon="-119.978592"><ele>2393.0</ele><time>2026-02-12T14:24:29Z</time></trkpt>
<trkpt lat="38.791856" lon="-119.978648"><ele>2396.4</ele><time>2026-02-12T14:24:56Z</time></trkpt>
<trkpt lat="38.791072" lon="-119.978581"><ele>2404.6</ele><time>2026-02-12T14:26:15Z</time></trkpt>
<trkpt lat="38.790912" lon="-119.978618"><ele>2407.2</ele><time>2026-02-12T14:26:54Z</time></trkpt>
<trkpt lat="38.790908" lon="-119.978591"><ele>2406.4</ele><time>2026-02-12T14:27:33Z</time></trkpt>
<trkpt lat="38.790936" lon="-119.978613"><ele>2408.0</ele><time>2026-02-12T14:27:55Z</time></trkpt>
<trkpt lat="38.790701" lon="-119.978609"><ele>2415.6</ele><time>2026-02-12T14:28:25Z</time></trkpt>
<trkpt lat="38.790572" lon="-119.978683"><ele>2420.8</ele><time>2026-02-12T14:28:46Z</time></trkpt>
<trkpt lat="38.790320" lon="-119.978936"><ele>2429.6</ele><time>2026-02-12T14:29:42Z</time></trkpt>
<trkpt lat="38.790177" lon="-119.979026"><ele>2433.6</ele><time>2026-02-12T14:30:07Z</time></trkpt>
<trkpt lat="38.789974" lon="-119.979292"><ele>2440.4</ele><time>2026-02-12T14:30:53Z</time></trkpt>
<trkpt lat="38.789794" lon="-119.979393"><ele>2444.4</ele><time>2026-02-12T14:31:26Z</time></trkpt>
<trkpt lat="38.789637" lon="-119.979631"><ele>2449.6</ele><time>2026-02-12T14:32:14Z</time></trkpt>
<trkpt lat="38.789423" lon="-119.979163"><ele>2462.0</ele><time>2026-02-12T14:33:35Z</time></trkpt>
<trkpt lat="38.789305" lon="-119.979029"><ele>2468.0</ele><time>2026-02-12T14:34:10Z</time></trkpt>
<trkpt lat="38.789253" lon="-119.979015"><ele>2470.0</ele><time>2026-02-12T14:34:21Z</time></trkpt>
<trkpt lat="38.789129" lon="-119.979233"><ele>2476.8</ele><time>2026-02-12T14:35:04Z</time></trkpt>
<trkpt lat="38.789029" lon="-119.979478"><ele>2481.2</ele><time>2026-02-12T14:35:38Z</time></trkpt>
<trkpt lat="38.788810" lon="-119.979720"><ele>2485.2</ele><time>2026-02-12T14:36:17Z</time></trkpt>
<trkpt lat="38.788783" lon="-119.979824"><ele>2487.8</ele><time>2026-02-12T14:36:36Z</time></trkpt>
<trkpt lat="38.788731" lon="-119.979882"><ele>2489.6</ele><time>2026-02-12T14:36:47Z</time></trkpt>
<trkpt lat="38.788560" lon="-119.980032"><ele>2494.6</ele><time>2026-02-12T14:37:22Z</time></trkpt>
<trkpt lat="38.788534" lon="-119.979949"><ele>2497.2</ele><time>2026-02-12T14:37:45Z</time></trkpt>
<trkpt lat="38.788484" lon="-119.979952"><ele>2499.2</ele><time>2026-02-12T14:37:53Z</time></trkpt>
<trkpt lat="38.788080" lon="-119.980334"><ele>2514.8</ele><time>2026-02-12T14:39:40Z</time></trkpt>
<trkpt lat="38.788001" lon="-119.980496"><ele>2518.6</ele><time>2026-02-12T14:40:09Z</time></trkpt>
<trkpt lat="38.787837" lon="-119.980518"><ele>2524.4</ele><time>2026-02-12T14:40:48Z</time></trkpt>
<trkpt lat="38.787691" lon="-119.980690"><ele>2527.8</ele><time>2026-02-12T14:41:42Z</time></trkpt>
<trkpt lat="38.787695" lon="-119.980644"><ele>2530.8</ele><time>2026-02-12T14:41:56Z</time></trkpt>
<trkpt lat="38.787617" lon="-119.980654"><ele>2534.0</ele><time>2026-02-12T14:42:13Z</time></trkpt>
<trkpt lat="38.787566" lon="-119.980739"><ele>2537.4</ele><time>2026-02-12T14:42:27Z</time></trkpt>
<trkpt lat="38.787506" lon="-119.980757"><ele>2541.0</ele><time>2026-02-12T14:42:43Z</time></trkpt>
<trkpt lat="38.787451" lon="-119.980858"><ele>2543.6</ele><time>2026-02-12T14:43:00Z</time></trkpt>
<trkpt lat="38.787226" lon="-119.981025"><ele>2552.4</ele><time>2026-02-12T14:43:47Z</time></trkpt>
<trkpt lat="38.787253" lon="-119.980946"><ele>2554.6</ele><time>2026-02-12T14:44:03Z</time></trkpt>
<trkpt lat="38.787244" lon="-119.980777"><ele>2558.0</ele><time>2026-02-12T14:44:25Z</time></trkpt>
<trkpt lat="38.787188" lon="-119.980683"><ele>2561.6</ele><time>2026-02-12T14:44:45Z</time></trkpt>
<trkpt lat="38.787197" lon="-119.980591"><ele>2563.8</ele><time>2026-02-12T14:44:58Z</time></trkpt>
<trkpt lat="38.787178" lon="-119.980591"><ele>2564.8</ele><time>2026-02-12T14:45:02Z</time></trkpt>
<trkpt lat="38.787085" lon="-119.980688"><ele>2568.0</ele><time>2026-02-12T14:45:24Z</time></trkpt>
<trkpt lat="38.786878" lon="-119.980790"><ele>2575.6</ele><time>2026-02-12T14:46:08Z</time></trkpt>
<trkpt lat="38.786759" lon="-119.980946"><ele>2582.2</ele><time>2026-02-12T14:46:41Z</time></trkpt>
<trkpt lat="38.786599" lon="-119.981065"><ele>2587.8</ele><time>2026-02-12T14:47:15Z</time></trkpt>
<trkpt lat="38.786541" lon="-119.981074"><ele>2590.6</ele><time>2026-02-12T14:47:28Z</time></trkpt>
<trkpt lat="38.786519" lon="-119.981123"><ele>2592.4</ele><time>2026-02-12T14:47:40Z</time></trkpt>
<trkpt lat="38.786490" lon="-119.981024"><ele>2596.8</ele><time>2026-02-12T14:48:07Z</time></trkpt>
<trkpt lat="38.786340" lon="-119.981213"><ele>2603.4</ele><time>2026-02-12T14:48:51Z</time></trkpt>
<trkpt lat="38.786249" lon="-119.981224"><ele>2606.8</ele><time>2026-02-12T14:49:11Z</time></trkpt>
<trkpt lat="38.786254" lon="-119.981195"><ele>2606.4</ele><time>2026-02-12T14:49:21Z</time></trkpt>
<trkpt lat="38.786274" lon="-119.981197"><ele>2606.4</ele><time>2026-02-12T14:49:28Z</time></trkpt>
<trkpt lat="38.786121" lon="-119.981335"><ele>2612.8</ele><time>2026-02-12T14:50:30Z</time></trkpt>
<trkpt lat="38.786116" lon="-119.981206"><ele>2616.4</ele><time>2026-02-12T14:50:53Z</time></trkpt>
<trkpt lat="38.786073" lon="-119.981181"><ele>2618.6</ele><time>2026-02-12T14:51:17Z</time></trkpt>
<trkpt lat="38.785836" lon="-119.981362"><ele>2627.8</ele><time>2026-02-12T14:52:10Z</time></trkpt>
<trkpt lat="38.785702" lon="-119.981535"><ele>2636.2</ele><time>2026-02-12T14:52:58Z</time></trkpt>
<trkpt lat="38.785672" lon="-119.981476"><ele>2637.6</ele><time>2026-02-12T14:53:20Z</time></trkpt>
<trkpt lat="38.785603" lon="-119.980985"><ele>2652.4</ele><time>2026-02-12T14:55:04Z</time></trkpt>
<trkpt lat="38.785439" lon="-119.981080"><ele>2659.4</ele><time>2026-02-12T14:55:53Z</time></trkpt>
<trkpt lat="38.785411" lon="-119.980864"><ele>2666.0</ele><time>2026-02-12T14:56:33Z</time></trkpt>
<trkpt lat="38.785376" lon="-119.980848"><ele>2667.8</ele><time>2026-02-12T14:56:52Z</time></trkpt>
<trkpt lat="38.785372" lon="-119.980804"><ele>2667.8</ele><time>2026-02-12T14:57:09Z</time></trkpt>
<trkpt lat="38.785347" lon="-119.980872"><ele>2669.6</ele><time>2026-02-12T14:57:22Z</time></trkpt>
<trkpt lat="38.785222" lon="-119.980922"><ele>2675.2</ele><time>2026-02-12T14:57:51Z</time></trkpt>
<trkpt lat="38.785106" lon="-119.981032"><ele>2680.4</ele><time>2026-02-12T14:58:35Z</time></trkpt>
<trkpt lat="38.785099" lon="-119.980883"><ele>2684.8</ele><time>2026-02-12T14:59:18Z</time></trkpt>
<trkpt lat="38.784929" lon="-119.980890"><ele>2691.8</ele><time>2026-02-12T14:59:58Z</time></trkpt>
<trkpt lat="38.784940" lon="-119.980814"><ele>2693.8</ele><time>2026-02-12T15:00:19Z</time></trkpt>
<trkpt lat="38.784881" lon="-119.980615"><ele>2700.2</ele><time>2026-02-12T15:00:54Z</time></trkpt>
<trkpt lat="38.784575" lon="-119.980554"><ele>2712.4</ele><time>2026-02-12T15:02:03Z</time></trkpt>
<trkpt lat="38.784390" lon="-119.980398"><ele>2721.6</ele><time>2026-02-12T15:02:55Z</time></trkpt>
<trkpt lat="38.784124" lon="-119.980078"><ele>2736.6</ele><time>2026-02-12T15:04:44Z</time></trkpt>
<trkpt lat="38.783949" lon="-119.980049"><ele>2743.0</ele><time>2026-02-12T15:05:18Z</time></trkpt>
<trkpt lat="38.783942" lon="-119.979928"><ele>2745.6</ele><time>2026-02-12T15:05:41Z</time></trkpt>
<trkpt lat="38.783912" lon="-119.979885"><ele>2747.2</ele><time>2026-02-12T15:06:08Z</time></trkpt>
<trkpt lat="38.783707" lon="-119.979926"><ele>2755.0</ele><time>2026-02-12T15:07:03Z</time></trkpt>
<trkpt lat="38.783654" lon="-119.979905"><ele>2758.2</ele><time>2026-02-12T15:07:16Z</time></trkpt>
<trkpt lat="38.783606" lon="-119.979663"><ele>2764.8</ele><time>2026-02-12T15:08:00Z</time></trkpt>
<trkpt lat="38.783634" lon="-119.979521"><ele>2768.0</ele><time>2026-02-12T15:08:19Z</time></trkpt>
<trkpt lat="38.783621" lon="-119.979125"><ele>2776.2</ele><time>2026-02-12T15:09:21Z</time></trkpt>
<trkpt lat="38.783592" lon="-119.979111"><ele>2778.4</ele><time>2026-02-12T15:09:56Z</time></trkpt>
<trkpt lat="38.783500" lon="-119.979174"><ele>2783.4</ele><time>2026-02-12T15:10:42Z</time></trkpt>
<trkpt lat="38.783494" lon="-119.978783"><ele>2794.6</ele><time>2026-02-12T15:11:51Z</time></trkpt>
<trkpt lat="38.783455" lon="-119.978645"><ele>2799.6</ele><time>2026-02-12T15:12:14Z</time></trkpt>
<trkpt lat="38.783451" lon="-119.978425"><ele>2803.2</ele><time>2026-02-12T15:12:40Z</time></trkpt>
<trkpt lat="38.783490" lon="-119.978247"><ele>2807.0</ele><time>2026-02-12T15:13:06Z</time></trkpt>
<trkpt lat="38.783468" lon="-119.978127"><ele>2810.4</ele><time>2026-02-12T15:13:21Z</time></trkpt>
<trkpt lat="38.783518" lon="-119.977723"><ele>2818.6</ele><time>2026-02-12T15:14:18Z</time></trkpt>
<trkpt lat="38.783448" lon="-119.977589"><ele>2823.8</ele><time>2026-02-12T15:14:42Z</time></trkpt>
<trkpt lat="38.783492" lon="-119.977323"><ele>2831.4</ele><time>2026-02-12T15:15:37Z</time></trkpt>
<trkpt lat="38.783453" lon="-119.977171"><ele>2836.6</ele><time>2026-02-12T15:16:06Z</time></trkpt>
<trkpt lat="38.783514" lon="-119.977059"><ele>2840.2</ele><time>2026-02-12T15:16:27Z</time></trkpt>
<trkpt lat="38.783502" lon="-119.976859"><ele>2845.4</ele><time>2026-02-12T15:16:56Z</time></trkpt>
<trkpt lat="38.783340" lon="-119.976560"><ele>2849.6</ele><time>2026-02-12T15:17:46Z</time></trkpt>
<trkpt lat="38.783254" lon="-119.976292"><ele>2853.2</ele><time>2026-02-12T15:18:17Z</time></trkpt>
<trkpt lat="38.783158" lon="-119.976215"><ele>2857.6</ele><time>2026-02-12T15:18:40Z</time></trkpt>
<trkpt lat="38.783176" lon="-119.976036"><ele>2862.0</ele><time>2026-02-12T15:19:11Z</time></trkpt>
<trkpt lat="38.783113" lon="-119.975865"><ele>2866.8</ele><time>2026-02-12T15:19:34Z</time></trkpt>
<trkpt lat="38.783057" lon="-119.975637"><ele>2864.0</ele><time>2026-02-12T15:20:07Z</time></trkpt>
<trkpt lat="38.782859" lon="-119.975382"><ele>2869.6</ele><time>2026-02-12T15:20:58Z</time></trkpt>
<trkpt lat="38.782800" lon="-119.975410"><ele>2872.2</ele><time>2026-02-12T15:21:41Z</time></trkpt>
<trkpt lat="38.782809" lon="-119.975418"><ele>2867.2</ele><time>2026-02-12T15:23:40Z</time></trkpt>
<trkpt lat="38.782745" lon="-119.975437"><ele>2865.6</ele><time>2026-02-12T15:24:48Z</time></trkpt>
<trkpt lat="38.782766" lon="-119.975432"><ele>2866.8</ele><time>2026-02-12T15:25:03Z</time></trkpt>
<trkpt lat="38.782773" lon="-119.975404"><ele>2864.6</ele><time>2026-02-12T15:27:03Z</time></trkpt>
<trkpt lat="38.782770" lon="-119.975431"><ele>2864.0</ele><time>2026-02-12T15:27:23Z</time></trkpt>
<trkpt lat="38.782750" lon="-119.975412"><ele>2863.6</ele><time>2026-02-12T15:28:35Z</time></trkpt>
<trkpt lat="38.782807" lon="-119.975437"><ele>2862.2</ele><time>2026-02-12T15:30:25Z</time></trkpt>
<trkpt lat="38.782805" lon="-119.975417"><ele>2864.8</ele><time>2026-02-12T15:34:12Z</time></trkpt>
<trkpt lat="38.782808" lon="-119.975398"><ele>2862.8</ele><time>2026-02-12T15:36:20Z</time></trkpt>
<trkpt lat="38.782798" lon="-119.975420"><ele>2865.6</ele><time>2026-02-12T15:38:59Z</time></trkpt>
<trkpt lat="38.782795" lon="-119.975418"><ele>2863.4</ele><time>2026-02-12T15:39:15Z</time></trkpt>
<trkpt lat="38.782923" lon="-119.975341"><ele>2863.6</ele><time>2026-02-12T15:40:38Z</time></trkpt>
<trkpt lat="38.782939" lon="-119.975308"><ele>2861.2</ele><time>2026-02-12T15:40:40Z</time></trkpt>
<trkpt lat="38.782934" lon="-119.975308"><ele>2856.8</ele><time>2026-02-12T15:40:47Z</time></trkpt>
<trkpt lat="38.782967" lon="-119.975283"><ele>2856.0</ele><time>2026-02-12T15:40:50Z</time></trkpt>
<trkpt lat="38.782968" lon="-119.975039"><ele>2853.2</ele><time>2026-02-12T15:40:56Z</time></trkpt>
<trkpt lat="38.783016" lon="-119.974832"><ele>2851.0</ele><time>2026-02-12T15:41:07Z</time></trkpt>
<trkpt lat="38.783171" lon="-119.974529"><ele>2846.4</ele><time>2026-02-12T15:41:16Z</time></trkpt>
<trkpt lat="38.783354" lon="-119.974294"><ele>2840.6</ele><time>2026-02-12T15:41:22Z</time></trkpt>
<trkpt lat="38.783434" lon="-119.973963"><ele>2834.2</ele><time>2026-02-12T15:41:30Z</time></trkpt>
<trkpt lat="38.783479" lon="-119.973949"><ele>2830.4</ele><time>2026-02-12T15:41:35Z</time></trkpt>
<trkpt lat="38.783545" lon="-119.974039"><ele>2830.2</ele><time>2026-02-12T15:43:41Z</time></trkpt>
<trkpt lat="38.783640" lon="-119.974231"><ele>2824.0</ele><time>2026-02-12T15:43:50Z</time></trkpt>
<trkpt lat="38.783712" lon="-119.974243"><ele>2823.8</ele><time>2026-02-12T15:44:13Z</time></trkpt>
<trkpt lat="38.783781" lon="-119.974252"><ele>2821.4</ele><time>2026-02-12T15:44:15Z</time></trkpt>
<trkpt lat="38.783815" lon="-119.974158"><ele>2813.8</ele><time>2026-02-12T15:44:17Z</time></trkpt>
<trkpt lat="38.783811" lon="-119.974124"><ele>2807.2</ele><time>2026-02-12T15:44:22Z</time></trkpt>
<trkpt lat="38.783946" lon="-119.974245"><ele>2804.6</ele><time>2026-02-12T15:44:31Z</time></trkpt>
<trkpt lat="38.784009" lon="-119.974167"><ele>2802.2</ele><time>2026-02-12T15:44:34Z</time></trkpt>
<trkpt lat="38.784152" lon="-119.974197"><ele>2791.4</ele><time>2026-02-12T15:44:38Z</time></trkpt>
<trkpt lat="38.784187" lon="-119.974176"><ele>2788.6</ele><time>2026-02-12T15:44:39Z</time></trkpt>
<trkpt lat="38.784202" lon="-119.974070"><ele>2782.2</ele><time>2026-02-12T15:44:42Z</time></trkpt>
<trkpt lat="38.784256" lon="-119.974048"><ele>2779.0</ele><time>2026-02-12T15:44:44Z</time></trkpt>
<trkpt lat="38.784286" lon="-119.974057"><ele>2772.8</ele><time>2026-02-12T15:44:50Z</time></trkpt>
<trkpt lat="38.784360" lon="-119.974024"><ele>2772.8</ele><time>2026-02-12T15:44:57Z</time></trkpt>
<trkpt lat="38.784359" lon="-119.973989"><ele>2766.6</ele><time>2026-02-12T15:45:06Z</time></trkpt>
<trkpt lat="38.784414" lon="-119.973939"><ele>2765.4</ele><time>2026-02-12T15:45:10Z</time></trkpt>
<trkpt lat="38.784466" lon="-119.973820"><ele>2760.2</ele><time>2026-02-12T15:45:13Z</time></trkpt>
<trkpt lat="38.784550" lon="-119.973781"><ele>2755.6</ele><time>2026-02-12T15:45:15Z</time></trkpt>
<trkpt lat="38.784632" lon="-119.973588"><ele>2743.6</ele><time>2026-02-12T15:45:20Z</time></trkpt>
<trkpt lat="38.784590" lon="-119.973510"><ele>2737.6</ele><time>2026-02-12T15:45:22Z</time></trkpt>
<trkpt lat="38.784562" lon="-119.973520"><ele>2732.4</ele><time>2026-02-12T15:45:26Z</time></trkpt>
<trkpt lat="38.784580" lon="-119.973425"><ele>2731.6</ele><time>2026-02-12T15:45:33Z</time></trkpt>
<trkpt lat="38.784686" lon="-119.973312"><ele>2728.4</ele><time>2026-02-12T15:45:35Z</time></trkpt>
<trkpt lat="38.784837" lon="-119.973216"><ele>2714.0</ele><time>2026-02-12T15:45:39Z</time></trkpt>
<trkpt lat="38.784928" lon="-119.973175"><ele>2710.0</ele><time>2026-02-12T15:45:41Z</time></trkpt>
<trkpt lat="38.784975" lon="-119.973093"><ele>2704.6</ele><time>2026-02-12T15:45:43Z</time></trkpt>
<trkpt lat="38.784977" lon="-119.973107"><ele>2697.8</ele><time>2026-02-12T15:45:45Z</time></trkpt>
<trkpt lat="38.784969" lon="-119.973070"><ele>2694.0</ele><time>2026-02-12T15:45:58Z</time></trkpt>
<trkpt lat="38.785057" lon="-119.973040"><ele>2694.8</ele><time>2026-02-12T15:46:19Z</time></trkpt>
<trkpt lat="38.785126" lon="-119.972960"><ele>2693.4</ele><time>2026-02-12T15:46:21Z</time></trkpt>
<trkpt lat="38.785181" lon="-119.972902"><ele>2679.2</ele><time>2026-02-12T15:46:23Z</time></trkpt>
<trkpt lat="38.785210" lon="-119.972837"><ele>2677.8</ele><time>2026-02-12T15:46:25Z</time></trkpt>
<trkpt lat="38.785169" lon="-119.972799"><ele>2673.0</ele><time>2026-02-12T15:46:30Z</time></trkpt>
<trkpt lat="38.785205" lon="-119.972735"><ele>2672.4</ele><time>2026-02-12T15:46:33Z</time></trkpt>
<trkpt lat="38.785287" lon="-119.972765"><ele>2667.8</ele><time>2026-02-12T15:46:37Z</time></trkpt>
<trkpt lat="38.785418" lon="-119.972723"><ele>2666.0</ele><time>2026-02-12T15:46:40Z</time></trkpt>
<trkpt lat="38.785467" lon="-119.972715"><ele>2662.4</ele><time>2026-02-12T15:46:41Z</time></trkpt>
<trkpt lat="38.785485" lon="-119.972727"><ele>2656.4</ele><time>2026-02-12T15:46:46Z</time></trkpt>
<trkpt lat="38.785499" lon="-119.972765"><ele>2657.2</ele><time>2026-02-12T15:47:50Z</time></trkpt>
<trkpt lat="38.785511" lon="-119.972734"><ele>2657.4</ele><time>2026-02-12T15:48:14Z</time></trkpt>
<trkpt lat="38.785674" lon="-119.972767"><ele>2654.4</ele><time>2026-02-12T15:48:21Z</time></trkpt>
<trkpt lat="38.785719" lon="-119.972703"><ele>2653.4</ele><time>2026-02-12T15:48:23Z</time></trkpt>
<trkpt lat="38.785771" lon="-119.972573"><ele>2645.0</ele><time>2026-02-12T15:48:26Z</time></trkpt>
<trkpt lat="38.785767" lon="-119.972566"><ele>2642.0</ele><time>2026-02-12T15:48:27Z</time></trkpt>
<trkpt lat="38.785905" lon="-119.972448"><ele>2636.0</ele><time>2026-02-12T15:48:33Z</time></trkpt>
<trkpt lat="38.785934" lon="-119.972329"><ele>2627.2</ele><time>2026-02-12T15:48:37Z</time></trkpt>
<trkpt lat="38.785997" lon="-119.972284"><ele>2625.8</ele><time>2026-02-12T15:48:39Z</time></trkpt>
<trkpt lat="38.786112" lon="-119.972254"><ele>2623.8</ele><time>2026-02-12T15:48:41Z</time></trkpt>
<trkpt lat="38.786329" lon="-119.972290"><ele>2614.2</ele><time>2026-02-12T15:48:44Z</time></trkpt>
<trkpt lat="38.786515" lon="-119.972282"><ele>2609.8</ele><time>2026-02-12T15:48:48Z</time></trkpt>
<trkpt lat="38.786804" lon="-119.972141"><ele>2609.4</ele><time>2026-02-12T15:50:09Z</time></trkpt>
<trkpt lat="38.786869" lon="-119.972056"><ele>2609.0</ele><time>2026-02-12T15:50:11Z</time></trkpt>
<trkpt lat="38.786887" lon="-119.971940"><ele>2605.6</ele><time>2026-02-12T15:50:13Z</time></trkpt>
<trkpt lat="38.787046" lon="-119.971749"><ele>2597.4</ele><time>2026-02-12T15:50:32Z</time></trkpt>
<trkpt lat="38.787068" lon="-119.971631"><ele>2596.4</ele><time>2026-02-12T15:50:37Z</time></trkpt>
<trkpt lat="38.787142" lon="-119.971516"><ele>2592.4</ele><time>2026-02-12T15:50:47Z</time></trkpt>
<trkpt lat="38.787357" lon="-119.971289"><ele>2589.0</ele><time>2026-02-12T15:51:18Z</time></trkpt>
<trkpt lat="38.787492" lon="-119.971230"><ele>2589.4</ele><time>2026-02-12T15:51:40Z</time></trkpt>
<trkpt lat="38.787641" lon="-119.970925"><ele>2585.0</ele><time>2026-02-12T15:52:01Z</time></trkpt>
<trkpt lat="38.787701" lon="-119.970882"><ele>2584.2</ele><time>2026-02-12T15:52:03Z</time></trkpt>
<trkpt lat="38.787977" lon="-119.971038"><ele>2582.4</ele><time>2026-02-12T15:53:02Z</time></trkpt>
<trkpt lat="38.788040" lon="-119.971212"><ele>2579.6</ele><time>2026-02-12T15:53:07Z</time></trkpt>
<trkpt lat="38.788028" lon="-119.971269"><ele>2578.0</ele><time>2026-02-12T15:53:22Z</time></trkpt>
<trkpt lat="38.788078" lon="-119.971356"><ele>2577.0</ele><time>2026-02-12T15:53:25Z</time></trkpt>
<trkpt lat="38.788166" lon="-119.971317"><ele>2575.4</ele><time>2026-02-12T15:53:27Z</time></trkpt>
<trkpt lat="38.788226" lon="-119.971218"><ele>2571.6</ele><time>2026-02-12T15:53:29Z</time></trkpt>
<trkpt lat="38.788269" lon="-119.971213"><ele>2567.2</ele><time>2026-02-12T15:53:31Z</time></trkpt>
<trkpt lat="38.788320" lon="-119.971253"><ele>2565.0</ele><time>2026-02-12T15:53:36Z</time></trkpt>
<trkpt lat="38.788336" lon="-119.971193"><ele>2564.8</ele><time>2026-02-12T15:53:43Z</time></trkpt>
<trkpt lat="38.788598" lon="-119.971025"><ele>2557.4</ele><time>2026-02-12T15:53:52Z</time></trkpt>
<trkpt lat="38.788695" lon="-119.971024"><ele>2555.0</ele><time>2026-02-12T15:54:58Z</time></trkpt>
<trkpt lat="38.788868" lon="-119.971121"><ele>2553.0</ele><time>2026-02-12T15:55:12Z</time></trkpt>
<trkpt lat="38.788921" lon="-119.971222"><ele>2549.8</ele><time>2026-02-12T15:55:17Z</time></trkpt>
<trkpt lat="38.788961" lon="-119.971387"><ele>2550.2</ele><time>2026-02-12T15:55:50Z</time></trkpt>
<trkpt lat="38.788956" lon="-119.971502"><ele>2550.0</ele><time>2026-02-12T15:56:28Z</time></trkpt>
<trkpt lat="38.789044" lon="-119.971709"><ele>2548.2</ele><time>2026-02-12T15:56:33Z</time></trkpt>
<trkpt lat="38.789168" lon="-119.971966"><ele>2541.4</ele><time>2026-02-12T15:56:38Z</time></trkpt>
<trkpt lat="38.789376" lon="-119.972204"><ele>2539.4</ele><time>2026-02-12T15:56:52Z</time></trkpt>
<trkpt lat="38.789466" lon="-119.972370"><ele>2534.4</ele><time>2026-02-12T15:56:56Z</time></trkpt>
<trkpt lat="38.789471" lon="-119.972513"><ele>2531.6</ele><time>2026-02-12T15:56:59Z</time></trkpt>
<trkpt lat="38.789457" lon="-119.972649"><ele>2525.2</ele><time>2026-02-12T15:57:01Z</time></trkpt>
<trkpt lat="38.789402" lon="-119.972907"><ele>2526.0</ele><time>2026-02-12T15:57:08Z</time></trkpt>
<trkpt lat="38.789358" lon="-119.973056"><ele>2520.8</ele><time>2026-02-12T15:57:23Z</time></trkpt>
<trkpt lat="38.789403" lon="-119.973058"><ele>2520.6</ele><time>2026-02-12T15:57:30Z</time></trkpt>
<trkpt lat="38.789452" lon="-119.973127"><ele>2519.2</ele><time>2026-02-12T15:57:32Z</time></trkpt>
<trkpt lat="38.789392" lon="-119.973329"><ele>2510.2</ele><time>2026-02-12T15:57:38Z</time></trkpt>
<trkpt lat="38.789407" lon="-119.973425"><ele>2508.0</ele><time>2026-02-12T15:57:40Z</time></trkpt>
<trkpt lat="38.789380" lon="-119.973541"><ele>2506.6</ele><time>2026-02-12T15:58:12Z</time></trkpt>
<trkpt lat="38.789538" lon="-119.973770"><ele>2501.0</ele><time>2026-02-12T15:58:21Z</time></trkpt>
<trkpt lat="38.789555" lon="-119.973872"><ele>2498.4</ele><time>2026-02-12T15:58:22Z</time></trkpt>
<trkpt lat="38.789584" lon="-119.974095"><ele>2485.6</ele><time>2026-02-12T15:58:27Z</time></trkpt>
<trkpt lat="38.789705" lon="-119.974240"><ele>2481.2</ele><time>2026-02-12T15:58:31Z</time></trkpt>
<trkpt lat="38.789760" lon="-119.974417"><ele>2477.6</ele><time>2026-02-12T15:58:33Z</time></trkpt>
<trkpt lat="38.789932" lon="-119.974614"><ele>2468.2</ele><time>2026-02-12T15:58:37Z</time></trkpt>
<trkpt lat="38.789959" lon="-119.974717"><ele>2463.6</ele><time>2026-02-12T15:58:39Z</time></trkpt>
<trkpt lat="38.790079" lon="-119.974890"><ele>2459.6</ele><time>2026-02-12T15:58:42Z</time></trkpt>
<trkpt lat="38.790178" lon="-119.975005"><ele>2450.4</ele><time>2026-02-12T15:58:44Z</time></trkpt>
<trkpt lat="38.790278" lon="-119.975289"><ele>2443.8</ele><time>2026-02-12T15:58:50Z</time></trkpt>
<trkpt lat="38.790552" lon="-119.975612"><ele>2436.6</ele><time>2026-02-12T15:58:58Z</time></trkpt>
<trkpt lat="38.790609" lon="-119.975670"><ele>2432.8</ele><time>2026-02-12T15:59:03Z</time></trkpt>
<trkpt lat="38.790636" lon="-119.975640"><ele>2431.4</ele><time>2026-02-12T15:59:45Z</time></trkpt>
<trkpt lat="38.790691" lon="-119.975701"><ele>2431.4</ele><time>2026-02-12T15:59:48Z</time></trkpt>
<trkpt lat="38.790814" lon="-119.975972"><ele>2424.4</ele><time>2026-02-12T15:59:54Z</time></trkpt>
<trkpt lat="38.791006" lon="-119.976120"><ele>2419.0</ele><time>2026-02-12T15:59:59Z</time></trkpt>
<trkpt lat="38.791074" lon="-119.976365"><ele>2412.6</ele><time>2026-02-12T16:00:04Z</time></trkpt>
<trkpt lat="38.791125" lon="-119.976458"><ele>2411.6</ele><time>2026-02-12T16:00:06Z</time></trkpt>
<trkpt lat="38.791208" lon="-119.976463"><ele>2409.0</ele><time>2026-02-12T16:00:08Z</time></trkpt>
<trkpt lat="38.791290" lon="-119.976529"><ele>2405.4</ele><time>2026-02-12T16:00:10Z</time></trkpt>
<trkpt lat="38.791665" lon="-119.976579"><ele>2395.6</ele><time>2026-02-12T16:00:17Z</time></trkpt>
<trkpt lat="38.791842" lon="-119.976642"><ele>2389.8</ele><time>2026-02-12T16:00:21Z</time></trkpt>
<trkpt lat="38.792039" lon="-119.976832"><ele>2388.0</ele><time>2026-02-12T16:00:34Z</time></trkpt>
<trkpt lat="38.792269" lon="-119.976842"><ele>2384.8</ele><time>2026-02-12T16:00:42Z</time></trkpt>
<trkpt lat="38.792475" lon="-119.976947"><ele>2382.8</ele><time>2026-02-12T16:00:54Z</time></trkpt>
<trkpt lat="38.792724" lon="-119.976998"><ele>2378.0</ele><time>2026-02-12T16:01:10Z</time></trkpt>
<trkpt lat="38.792853" lon="-119.977047"><ele>2379.4</ele><time>2026-02-12T16:01:27Z</time></trkpt>
<trkpt lat="38.793303" lon="-119.977164"><ele>2375.6</ele><time>2026-02-12T16:02:13Z</time></trkpt>
<trkpt lat="38.793655" lon="-119.977331"><ele>2375.0</ele><time>2026-02-12T16:02:49Z</time></trkpt>
<trkpt lat="38.793836" lon="-119.977370"><ele>2371.6</ele><time>2026-02-12T16:02:54Z</time></trkpt>
<trkpt lat="38.794002" lon="-119.977306"><ele>2369.2</ele><time>2026-02-12T16:02:57Z</time></trkpt>
<trkpt lat="38.794413" lon="-119.976974"><ele>2359.8</ele><time>2026-02-12T16:03:05Z</time></trkpt>
<trkpt lat="38.794836" lon="-119.976894"><ele>2355.4</ele><time>2026-02-12T16:03:14Z</time></trkpt>
<trkpt lat="38.795383" lon="-119.976494"><ele>2350.4</ele><time>2026-02-12T16:03:37Z</time></trkpt>
<trkpt lat="38.795601" lon="-119.976316"><ele>2351.2</ele><time>2026-02-12T16:03:51Z</time></trkpt>
<trkpt lat="38.795757" lon="-119.976316"><ele>2355.0</ele><time>2026-02-12T16:04:14Z</time></trkpt>
<trkpt lat="38.795878" lon="-119.976401"><ele>2353.0</ele><time>2026-02-12T16:04:30Z</time></trkpt>
<trkpt lat="38.795954" lon="-119.976480"><ele>2356.4</ele><time>2026-02-12T16:05:06Z</time></trkpt>
</trkseg></trk>
</gpx>
