<?xml version="1.0" encoding="UTF-8"?>
<gpx version="1.1" creator="Eric Sichak trip reports" xmlns="http://www.topografix.com/GPX/1/1">
<metadata><name>Echo Peak with Ross</name><time>2026-02-14T15:36:13Z</time></metadata>
<trk><name>Echo Peak with Ross</name><type>ski</type><trkseg>
<trkpt lat="38.861911" lon="-120.042327"><ele>2019.4</ele><time>2026-02-14T15:36:13Z</time></trkpt>
<trkpt lat="38.861983" lon="-120.042555"><ele>2020.4</ele><time>2026-02-14T15:36:35Z</time></trkpt>
<trkpt lat="38.862038" lon="-120.042897"><ele>2019.8</ele><time>2026-02-14T15:37:02Z</time></trkpt>
<trkpt lat="38.862196" lon="-120.043249"><ele>2021.2</ele><time>2026-02-14T15:37:34Z</time></trkpt>
<trkpt lat="38.862358" lon="-120.043522"><ele>2020.8</ele><time>2026-02-14T15:38:02Z</time></trkpt>
<trkpt lat="38.862425" lon="-120.043584"><ele>2020.4</ele><time>2026-02-14T15:38:08Z</time></trkpt>
<trkpt lat="38.862453" lon="-120.043695"><ele>2020.6</ele><time>2026-02-14T15:38:19Z</time></trkpt>
<trkpt lat="38.862347" lon="-120.043912"><ele>2020.0</ele><time>2026-02-14T15:38:40Z</time></trkpt>
<trkpt lat="38.862263" lon="-120.044247"><ele>2019.4</ele><time>2026-02-14T15:39:04Z</time></trkpt>
<trkpt lat="38.862163" lon="-120.044396"><ele>2019.4</ele><time>2026-02-14T15:39:19Z</time></trkpt>
<trkpt lat="38.862047" lon="-120.044665"><ele>2019.4</ele><time>2026-02-14T15:39:41Z</time></trkpt>
<trkpt lat="38.861931" lon="-120.045171"><ele>2019.6</ele><time>2026-02-14T15:40:17Z</time></trkpt>
<trkpt lat="38.861796" lon="-120.045394"><ele>2019.8</ele><time>2026-02-14T15:40:37Z</time></trkpt>
<trkpt lat="38.861840" lon="-120.045657"><ele>2020.0</ele><time>2026-02-14T15:40:57Z</time></trkpt>
<trkpt lat="38.861835" lon="-120.046080"><ele>2019.4</ele><time>2026-02-14T15:41:29Z</time></trkpt>
<trkpt lat="38.861910" lon="-120.046263"><ele>2019.0</ele><time>2026-02-14T15:41:52Z</time></trkpt>
<trkpt lat="38.861858" lon="-120.046427"><ele>2019.0</ele><time>2026-02-14T15:42:06Z</time></trkpt>
<trkpt lat="38.861892" lon="-120.046647"><ele>2019.4</ele><time>2026-02-14T15:42:25Z</time></trkpt>
<trkpt lat="38.861836" lon="-120.047136"><ele>2020.4</ele><time>2026-02-14T15:43:05Z</time></trkpt>
<trkpt lat="38.861688" lon="-120.047292"><ele>2021.4</ele><time>2026-02-14T15:43:28Z</time></trkpt>
<trkpt lat="38.861674" lon="-120.047358"><ele>2021.4</ele><time>2026-02-14T15:43:33Z</time></trkpt>
<trkpt lat="38.861506" lon="-120.047569"><ele>2021.2</ele><time>2026-02-14T15:43:58Z</time></trkpt>
<trkpt lat="38.861444" lon="-120.047597"><ele>2021.4</ele><time>2026-02-14T15:44:04Z</time></trkpt>
<trkpt lat="38.861194" lon="-120.048042"><ele>2020.8</ele><time>2026-02-14T15:44:46Z</time></trkpt>
<trkpt lat="38.861162" lon="-120.048409"><ele>2018.6</ele><time>2026-02-14T15:45:30Z</time></trkpt>
<trkpt lat="38.861181" lon="-120.048500"><ele>2018.0</ele><time>2026-02-14T15:45:37Z</time></trkpt>
<trkpt lat="38.861257" lon="-120.048604"><ele>2017.2</ele><time>2026-02-14T15:45:48Z</time></trkpt>
<trkpt lat="38.861246" lon="-120.048732"><ele>2016.4</ele><time>2026-02-14T15:45:58Z</time></trkpt>
<trkpt lat="38.861178" lon="-120.048827"><ele>2016.4</ele><time>2026-02-14T15:46:07Z</time></trkpt>
<trkpt lat="38.861086" lon="-120.049084"><ele>2016.0</ele><time>2026-02-14T15:46:29Z</time></trkpt>
<trkpt lat="38.860979" lon="-120.049236"><ele>2016.4</ele><time>2026-02-14T15:46:44Z</time></trkpt>
<trkpt lat="38.860773" lon="-120.049414"><ele>2016.0</ele><time>2026-02-14T15:47:07Z</time></trkpt>
<trkpt lat="38.860800" lon="-120.049718"><ele>2016.6</ele><time>2026-02-14T15:47:29Z</time></trkpt>
<trkpt lat="38.860714" lon="-120.050106"><ele>2017.0</ele><time>2026-02-14T15:48:00Z</time></trkpt>
<trkpt lat="38.860705" lon="-120.050340"><ele>2016.6</ele><time>2026-02-14T15:48:26Z</time></trkpt>
<trkpt lat="38.860858" lon="-120.050723"><ele>2016.8</ele><time>2026-02-14T15:48:56Z</time></trkpt>
<trkpt lat="38.860901" lon="-120.051211"><ele>2018.2</ele><time>2026-02-14T15:49:32Z</time></trkpt>
<trkpt lat="38.860690" lon="-120.051604"><ele>2024.2</ele><time>2026-02-14T15:50:11Z</time></trkpt>
<trkpt lat="38.860614" lon="-120.051870"><ele>2026.8</ele><time>2026-02-14T15:50:35Z</time></trkpt>
<trkpt lat="38.860376" lon="-120.052289"><ele>2030.6</ele><time>2026-02-14T15:51:17Z</time></trkpt>
<trkpt lat="38.860150" lon="-120.052433"><ele>2033.2</ele><time>2026-02-14T15:51:45Z</time></trkpt>
<trkpt lat="38.860015" lon="-120.052726"><ele>2033.6</ele><time>2026-02-14T15:52:20Z</time></trkpt>
<trkpt lat="38.859997" lon="-120.052713"><ele>2032.8</ele><time>2026-02-14T15:53:33Z</time></trkpt>
<trkpt lat="38.859975" lon="-120.053133"><ele>2035.4</ele><time>2026-02-14T15:55:23Z</time></trkpt>
<trkpt lat="38.859993" lon="-120.053509"><ele>2038.6</ele><time>2026-02-14T15:55:50Z</time></trkpt>
<trkpt lat="38.859967" lon="-120.053767"><ele>2042.0</ele><time>2026-02-14T15:56:10Z</time></trkpt>
<trkpt lat="38.859993" lon="-120.054511"><ele>2052.4</ele><time>2026-02-14T15:57:17Z</time></trkpt>
<trkpt lat="38.860101" lon="-120.054822"><ele>2055.6</ele><time>2026-02-14T15:57:46Z</time></trkpt>
<trkpt lat="38.860219" lon="-120.055595"><ele>2067.0</ele><time>2026-02-14T15:59:01Z</time></trkpt>
<trkpt lat="38.860493" lon="-120.056335"><ele>2075.6</ele><time>2026-02-14T16:00:18Z</time></trkpt>
<trkpt lat="38.860571" lon="-120.056710"><ele>2079.8</ele><time>2026-02-14T16:01:00Z</time></trkpt>
<trkpt lat="38.860619" lon="-120.056827"><ele>2080.4</ele><time>2026-02-14T16:01:11Z</time></trkpt>
<trkpt lat="38.860761" lon="-120.057022"><ele>2081.4</ele><time>2026-02-14T16:01:35Z</time></trkpt>
<trkpt lat="38.860777" lon="-120.057158"><ele>2083.2</ele><time>2026-02-14T16:01:52Z</time></trkpt>
<trkpt lat="38.860881" lon="-120.057270"><ele>2083.6</ele><time>2026-02-14T16:02:26Z</time></trkpt>
<trkpt lat="38.860965" lon="-120.057442"><ele>2088.0</ele><time>2026-02-14T16:03:00Z</time></trkpt>
<trkpt lat="38.860944" lon="-120.057609"><ele>2090.4</ele><time>2026-02-14T16:03:37Z</time></trkpt>
<trkpt lat="38.861024" lon="-120.057703"><ele>2091.4</ele><time>2026-02-14T16:03:52Z</time></trkpt>
<trkpt lat="38.861114" lon="-120.057740"><ele>2091.6</ele><time>2026-02-14T16:04:01Z</time></trkpt>
<trkpt lat="38.861143" lon="-120.057806"><ele>2093.0</ele><time>2026-02-14T16:04:12Z</time></trkpt>
<trkpt lat="38.861274" lon="-120.057842"><ele>2092.8</ele><time>2026-02-14T16:04:27Z</time></trkpt>
<trkpt lat="38.861375" lon="-120.058041"><ele>2095.6</ele><time>2026-02-14T16:04:59Z</time></trkpt>
<trkpt lat="38.861353" lon="-120.058104"><ele>2097.0</ele><time>2026-02-14T16:05:12Z</time></trkpt>
<trkpt lat="38.861276" lon="-120.058160"><ele>2101.2</ele><time>2026-02-14T16:05:37Z</time></trkpt>
<trkpt lat="38.861342" lon="-120.058291"><ele>2102.2</ele><time>2026-02-14T16:06:05Z</time></trkpt>
<trkpt lat="38.861295" lon="-120.058338"><ele>2104.6</ele><time>2026-02-14T16:06:16Z</time></trkpt>
<trkpt lat="38.861296" lon="-120.058391"><ele>2105.6</ele><time>2026-02-14T16:06:21Z</time></trkpt>
<trkpt lat="38.861421" lon="-120.058628"><ele>2112.6</ele><time>2026-02-14T16:07:05Z</time></trkpt>
<trkpt lat="38.861278" lon="-120.058830"><ele>2119.8</ele><time>2026-02-14T16:07:52Z</time></trkpt>
<trkpt lat="38.861387" lon="-120.058971"><ele>2125.0</ele><time>2026-02-14T16:08:21Z</time></trkpt>
<trkpt lat="38.861317" lon="-120.059016"><ele>2127.4</ele><time>2026-02-14T16:08:39Z</time></trkpt>
<trkpt lat="38.861297" lon="-120.059084"><ele>2130.2</ele><time>2026-02-14T16:08:55Z</time></trkpt>
<trkpt lat="38.861200" lon="-120.059183"><ele>2134.0</ele><time>2026-02-14T16:09:49Z</time></trkpt>
<trkpt lat="38.861252" lon="-120.059291"><ele>2137.0</ele><time>2026-02-14T16:10:20Z</time></trkpt>
<trkpt lat="38.861425" lon="-120.059428"><ele>2143.8</ele><time>2026-02-14T16:11:02Z</time></trkpt>
<trkpt lat="38.861445" lon="-120.059522"><ele>2147.2</ele><time>2026-02-14T16:11:21Z</time></trkpt>
<trkpt lat="38.861302" lon="-120.059636"><ele>2152.0</ele><time>2026-02-14T16:11:57Z</time></trkpt>
<trkpt lat="38.861328" lon="-120.059728"><ele>2156.0</ele><time>2026-02-14T16:12:21Z</time></trkpt>
<trkpt lat="38.861180" lon="-120.059864"><ele>2161.4</ele><time>2026-02-14T16:13:12Z</time></trkpt>
<trkpt lat="38.861047" lon="-120.059919"><ele>2163.4</ele><time>2026-02-14T16:13:40Z</time></trkpt>
<trkpt lat="38.861071" lon="-120.060007"><ele>2167.6</ele><time>2026-02-14T16:14:30Z</time></trkpt>
<trkpt lat="38.861072" lon="-120.060159"><ele>2171.2</ele><time>2026-02-14T16:15:11Z</time></trkpt>
<trkpt lat="38.861010" lon="-120.060251"><ele>2174.4</ele><time>2026-02-14T16:15:39Z</time></trkpt>
<trkpt lat="38.860979" lon="-120.060368"><ele>2178.2</ele><time>2026-02-14T16:15:58Z</time></trkpt>
<trkpt lat="38.860831" lon="-120.060467"><ele>2184.0</ele><time>2026-02-14T16:16:32Z</time></trkpt>
<trkpt lat="38.860961" lon="-120.060634"><ele>2189.2</ele><time>2026-02-14T16:17:03Z</time></trkpt>
<trkpt lat="38.860779" lon="-120.060778"><ele>2197.8</ele><time>2026-02-14T16:18:05Z</time></trkpt>
<trkpt lat="38.860792" lon="-120.060861"><ele>2200.0</ele><time>2026-02-14T16:18:17Z</time></trkpt>
<trkpt lat="38.860896" lon="-120.060977"><ele>2204.8</ele><time>2026-02-14T16:18:54Z</time></trkpt>
<trkpt lat="38.860807" lon="-120.061034"><ele>2208.2</ele><time>2026-02-14T16:19:19Z</time></trkpt>
<trkpt lat="38.860865" lon="-120.061138"><ele>2212.0</ele><time>2026-02-14T16:19:53Z</time></trkpt>
<trkpt lat="38.860743" lon="-120.061200"><ele>2217.0</ele><time>2026-02-14T16:20:36Z</time></trkpt>
<trkpt lat="38.860854" lon="-120.061416"><ele>2224.8</ele><time>2026-02-14T16:21:37Z</time></trkpt>
<trkpt lat="38.860906" lon="-120.061440"><ele>2227.6</ele><time>2026-02-14T16:22:04Z</time></trkpt>
<trkpt lat="38.860750" lon="-120.061575"><ele>2234.0</ele><time>2026-02-14T16:22:42Z</time></trkpt>
<trkpt lat="38.860810" lon="-120.061645"><ele>2236.8</ele><time>2026-02-14T16:23:01Z</time></trkpt>
<trkpt lat="38.860786" lon="-120.061648"><ele>2237.6</ele><time>2026-02-14T16:23:09Z</time></trkpt>
<trkpt lat="38.860767" lon="-120.061724"><ele>2240.4</ele><time>2026-02-14T16:23:29Z</time></trkpt>
<trkpt lat="38.860793" lon="-120.061814"><ele>2242.8</ele><time>2026-02-14T16:24:25Z</time></trkpt>
<trkpt lat="38.860983" lon="-120.061932"><ele>2249.0</ele><time>2026-02-14T16:25:25Z</time></trkpt>
<trkpt lat="38.860949" lon="-120.061981"><ele>2251.0</ele><time>2026-02-14T16:25:44Z</time></trkpt>
<trkpt lat="38.860975" lon="-120.062023"><ele>2253.4</ele><time>2026-02-14T16:25:55Z</time></trkpt>
<trkpt lat="38.860892" lon="-120.062164"><ele>2259.8</ele><time>2026-02-14T16:26:31Z</time></trkpt>
<trkpt lat="38.861005" lon="-120.062274"><ele>2266.0</ele><time>2026-02-14T16:27:30Z</time></trkpt>
<trkpt lat="38.860979" lon="-120.062369"><ele>2269.4</ele><time>2026-02-14T16:27:52Z</time></trkpt>
<trkpt lat="38.861068" lon="-120.062454"><ele>2274.4</ele><time>2026-02-14T16:28:17Z</time></trkpt>
<trkpt lat="38.860990" lon="-120.062623"><ele>2281.2</ele><time>2026-02-14T16:29:11Z</time></trkpt>
<trkpt lat="38.861025" lon="-120.062684"><ele>2283.4</ele><time>2026-02-14T16:29:26Z</time></trkpt>
<trkpt lat="38.861067" lon="-120.062692"><ele>2285.2</ele><time>2026-02-14T16:29:40Z</time></trkpt>
<trkpt lat="38.861049" lon="-120.062868"><ele>2290.6</ele><time>2026-02-14T16:30:14Z</time></trkpt>
<trkpt lat="38.861096" lon="-120.062931"><ele>2293.0</ele><time>2026-02-14T16:30:26Z</time></trkpt>
<trkpt lat="38.861193" lon="-120.062900"><ele>2296.0</ele><time>2026-02-14T16:30:42Z</time></trkpt>
<trkpt lat="38.861211" lon="-120.062966"><ele>2298.2</ele><time>2026-02-14T16:30:54Z</time></trkpt>
<trkpt lat="38.861478" lon="-120.063324"><ele>2305.8</ele><time>2026-02-14T16:31:50Z</time></trkpt>
<trkpt lat="38.861485" lon="-120.063584"><ele>2310.6</ele><time>2026-02-14T16:32:24Z</time></trkpt>
<trkpt lat="38.861604" lon="-120.063867"><ele>2315.6</ele><time>2026-02-14T16:33:12Z</time></trkpt>
<trkpt lat="38.861709" lon="-120.063952"><ele>2318.6</ele><time>2026-02-14T16:33:46Z</time></trkpt>
<trkpt lat="38.861722" lon="-120.064002"><ele>2319.4</ele><time>2026-02-14T16:34:14Z</time></trkpt>
<trkpt lat="38.861680" lon="-120.064066"><ele>2321.0</ele><time>2026-02-14T16:34:36Z</time></trkpt>
<trkpt lat="38.861524" lon="-120.064145"><ele>2325.8</ele><time>2026-02-14T16:35:14Z</time></trkpt>
<trkpt lat="38.861550" lon="-120.064362"><ele>2331.0</ele><time>2026-02-14T16:36:01Z</time></trkpt>
<trkpt lat="38.861491" lon="-120.064330"><ele>2333.8</ele><time>2026-02-14T16:36:24Z</time></trkpt>
<trkpt lat="38.861475" lon="-120.064482"><ele>2336.4</ele><time>2026-02-14T16:36:52Z</time></trkpt>
<trkpt lat="38.861193" lon="-120.064520"><ele>2345.2</ele><time>2026-02-14T16:37:48Z</time></trkpt>
<trkpt lat="38.861174" lon="-120.064576"><ele>2347.0</ele><time>2026-02-14T16:37:57Z</time></trkpt>
<trkpt lat="38.860978" lon="-120.064666"><ele>2353.0</ele><time>2026-02-14T16:38:33Z</time></trkpt>
<trkpt lat="38.860960" lon="-120.064770"><ele>2354.8</ele><time>2026-02-14T16:38:56Z</time></trkpt>
<trkpt lat="38.860850" lon="-120.064743"><ele>2356.8</ele><time>2026-02-14T16:39:14Z</time></trkpt>
<trkpt lat="38.860792" lon="-120.064844"><ele>2359.2</ele><time>2026-02-14T16:39:30Z</time></trkpt>
<trkpt lat="38.860670" lon="-120.064874"><ele>2361.0</ele><time>2026-02-14T16:39:46Z</time></trkpt>
<trkpt lat="38.860333" lon="-120.065073"><ele>2364.0</ele><time>2026-02-14T16:40:36Z</time></trkpt>
<trkpt lat="38.860064" lon="-120.065121"><ele>2366.4</ele><time>2026-02-14T16:41:11Z</time></trkpt>
<trkpt lat="38.859755" lon="-120.065301"><ele>2369.2</ele><time>2026-02-14T16:41:54Z</time></trkpt>
<trkpt lat="38.859539" lon="-120.065246"><ele>2373.6</ele><time>2026-02-14T16:42:36Z</time></trkpt>
<trkpt lat="38.859503" lon="-120.065272"><ele>2373.6</ele><time>2026-02-14T16:43:05Z</time></trkpt>
<trkpt lat="38.859489" lon="-120.065239"><ele>2373.6</ele><time>2026-02-14T16:43:55Z</time></trkpt>
<trkpt lat="38.859505" lon="-120.065268"><ele>2375.2</ele><time>2026-02-14T16:44:46Z</time></trkpt>
<trkpt lat="38.859444" lon="-120.065342"><ele>2377.2</ele><time>2026-02-14T16:45:01Z</time></trkpt>
<trkpt lat="38.859317" lon="-120.065321"><ele>2380.6</ele><time>2026-02-14T16:45:19Z</time></trkpt>
<trkpt lat="38.859250" lon="-120.065423"><ele>2382.4</ele><time>2026-02-14T16:45:32Z</time></trkpt>
<trkpt lat="38.859021" lon="-120.065324"><ele>2391.0</ele><time>2026-02-14T16:46:20Z</time></trkpt>
<trkpt lat="38.858956" lon="-120.065392"><ele>2393.4</ele><time>2026-02-14T16:46:35Z</time></trkpt>
<trkpt lat="38.858882" lon="-120.065381"><ele>2395.8</ele><time>2026-02-14T16:46:49Z</time></trkpt>
<trkpt lat="38.858802" lon="-120.065439"><ele>2398.8</ele><time>2026-02-14T16:47:04Z</time></trkpt>
<trkpt lat="38.858775" lon="-120.065562"><ele>2399.6</ele><time>2026-02-14T16:47:17Z</time></trkpt>
<trkpt lat="38.858657" lon="-120.065650"><ele>2403.4</ele><time>2026-02-14T16:47:41Z</time></trkpt>
<trkpt lat="38.858537" lon="-120.065671"><ele>2407.6</ele><time>2026-02-14T16:48:05Z</time></trkpt>
<trkpt lat="38.858441" lon="-120.065601"><ele>2409.8</ele><time>2026-02-14T16:48:25Z</time></trkpt>
<trkpt lat="38.858407" lon="-120.065621"><ele>2410.2</ele><time>2026-02-14T16:48:34Z</time></trkpt>
<trkpt lat="38.858377" lon="-120.066091"><ele>2417.8</ele><time>2026-02-14T16:49:30Z</time></trkpt>
<trkpt lat="38.858195" lon="-120.066091"><ele>2423.8</ele><time>2026-02-14T16:50:06Z</time></trkpt>
<trkpt lat="38.858190" lon="-120.066198"><ele>2424.8</ele><time>2026-02-14T16:50:17Z</time></trkpt>
<trkpt lat="38.858235" lon="-120.066384"><ele>2428.4</ele><time>2026-02-14T16:50:43Z</time></trkpt>
<trkpt lat="38.858103" lon="-120.066343"><ele>2432.2</ele><time>2026-02-14T16:51:44Z</time></trkpt>
<trkpt lat="38.858107" lon="-120.066432"><ele>2435.6</ele><time>2026-02-14T16:52:02Z</time></trkpt>
<trkpt lat="38.858032" lon="-120.066406"><ele>2436.8</ele><time>2026-02-14T16:52:15Z</time></trkpt>
<trkpt lat="38.857949" lon="-120.066436"><ele>2438.8</ele><time>2026-02-14T16:52:34Z</time></trkpt>
<trkpt lat="38.857958" lon="-120.066501"><ele>2440.8</ele><time>2026-02-14T16:52:51Z</time></trkpt>
<trkpt lat="38.857908" lon="-120.066520"><ele>2442.0</ele><time>2026-02-14T16:53:09Z</time></trkpt>
<trkpt lat="38.858008" lon="-120.066720"><ele>2447.2</ele><time>2026-02-14T16:53:41Z</time></trkpt>
<trkpt lat="38.858027" lon="-120.066833"><ele>2449.4</ele><time>2026-02-14T16:53:55Z</time></trkpt>
<trkpt lat="38.857968" lon="-120.066796"><ele>2450.6</ele><time>2026-02-14T16:54:13Z</time></trkpt>
<trkpt lat="38.857738" lon="-120.066760"><ele>2459.2</ele><time>2026-02-14T16:55:01Z</time></trkpt>
<trkpt lat="38.857734" lon="-120.066816"><ele>2461.2</ele><time>2026-02-14T16:55:09Z</time></trkpt>
<trkpt lat="38.857828" lon="-120.067084"><ele>2464.8</ele><time>2026-02-14T16:55:56Z</time></trkpt>
<trkpt lat="38.857819" lon="-120.067131"><ele>2466.2</ele><time>2026-02-14T16:56:14Z</time></trkpt>
<trkpt lat="38.857829" lon="-120.067115"><ele>2469.4</ele><time>2026-02-14T16:57:00Z</time></trkpt>
<trkpt lat="38.857539" lon="-120.067017"><ele>2475.8</ele><time>2026-02-14T16:57:50Z</time></trkpt>
<trkpt lat="38.857527" lon="-120.067046"><ele>2478.6</ele><time>2026-02-14T16:57:59Z</time></trkpt>
<trkpt lat="38.857589" lon="-120.067286"><ele>2483.0</ele><time>2026-02-14T16:58:34Z</time></trkpt>
<trkpt lat="38.857651" lon="-120.067399"><ele>2486.8</ele><time>2026-02-14T16:59:01Z</time></trkpt>
<trkpt lat="38.857507" lon="-120.067415"><ele>2492.4</ele><time>2026-02-14T16:59:45Z</time></trkpt>
<trkpt lat="38.857586" lon="-120.067608"><ele>2496.4</ele><time>2026-02-14T17:00:16Z</time></trkpt>
<trkpt lat="38.857618" lon="-120.067809"><ele>2498.4</ele><time>2026-02-14T17:00:45Z</time></trkpt>
<trkpt lat="38.857659" lon="-120.067904"><ele>2503.2</ele><time>2026-02-14T17:01:04Z</time></trkpt>
<trkpt lat="38.857642" lon="-120.067894"><ele>2501.6</ele><time>2026-02-14T17:01:10Z</time></trkpt>
<trkpt lat="38.857618" lon="-120.067899"><ele>2504.0</ele><time>2026-02-14T17:01:42Z</time></trkpt>
<trkpt lat="38.857661" lon="-120.068077"><ele>2508.6</ele><time>2026-02-14T17:02:07Z</time></trkpt>
<trkpt lat="38.857673" lon="-120.068255"><ele>2508.2</ele><time>2026-02-14T17:02:28Z</time></trkpt>
<trkpt lat="38.857784" lon="-120.068411"><ele>2514.6</ele><time>2026-02-14T17:03:01Z</time></trkpt>
<trkpt lat="38.857843" lon="-120.068525"><ele>2515.4</ele><time>2026-02-14T17:03:22Z</time></trkpt>
<trkpt lat="38.857823" lon="-120.068535"><ele>2520.2</ele><time>2026-02-14T17:03:38Z</time></trkpt>
<trkpt lat="38.857872" lon="-120.068707"><ele>2521.4</ele><time>2026-02-14T17:04:04Z</time></trkpt>
<trkpt lat="38.857788" lon="-120.068703"><ele>2523.6</ele><time>2026-02-14T17:04:29Z</time></trkpt>
<trkpt lat="38.857853" lon="-120.068980"><ele>2530.4</ele><time>2026-02-14T17:05:14Z</time></trkpt>
<trkpt lat="38.857713" lon="-120.068974"><ele>2533.0</ele><time>2026-02-14T17:05:45Z</time></trkpt>
<trkpt lat="38.857751" lon="-120.069155"><ele>2538.4</ele><time>2026-02-14T17:06:12Z</time></trkpt>
<trkpt lat="38.857701" lon="-120.069166"><ele>2539.8</ele><time>2026-02-14T17:06:25Z</time></trkpt>
<trkpt lat="38.857752" lon="-120.069313"><ele>2541.0</ele><time>2026-02-14T17:06:46Z</time></trkpt>
<trkpt lat="38.857610" lon="-120.069310"><ele>2546.4</ele><time>2026-02-14T17:07:19Z</time></trkpt>
<trkpt lat="38.857610" lon="-120.069428"><ele>2550.6</ele><time>2026-02-14T17:07:45Z</time></trkpt>
<trkpt lat="38.857503" lon="-120.069420"><ele>2553.4</ele><time>2026-02-14T17:08:06Z</time></trkpt>
<trkpt lat="38.857605" lon="-120.069719"><ele>2556.8</ele><time>2026-02-14T17:08:47Z</time></trkpt>
<trkpt lat="38.857507" lon="-120.069672"><ele>2559.8</ele><time>2026-02-14T17:09:37Z</time></trkpt>
<trkpt lat="38.857500" lon="-120.069694"><ele>2560.6</ele><time>2026-02-14T17:09:46Z</time></trkpt>
<trkpt lat="38.857257" lon="-120.069652"><ele>2568.2</ele><time>2026-02-14T17:10:32Z</time></trkpt>
<trkpt lat="38.857313" lon="-120.069845"><ele>2571.6</ele><time>2026-02-14T17:10:58Z</time></trkpt>
<trkpt lat="38.857303" lon="-120.069892"><ele>2573.2</ele><time>2026-02-14T17:11:37Z</time></trkpt>
<trkpt lat="38.857342" lon="-120.069863"><ele>2572.6</ele><time>2026-02-14T17:11:56Z</time></trkpt>
<trkpt lat="38.857340" lon="-120.069886"><ele>2573.2</ele><time>2026-02-14T17:12:02Z</time></trkpt>
<trkpt lat="38.857234" lon="-120.069885"><ele>2576.0</ele><time>2026-02-14T17:12:17Z</time></trkpt>
<trkpt lat="38.857022" lon="-120.069785"><ele>2580.2</ele><time>2026-02-14T17:12:52Z</time></trkpt>
<trkpt lat="38.857075" lon="-120.069991"><ele>2585.0</ele><time>2026-02-14T17:13:30Z</time></trkpt>
<trkpt lat="38.856984" lon="-120.070001"><ele>2587.4</ele><time>2026-02-14T17:13:45Z</time></trkpt>
<trkpt lat="38.856855" lon="-120.069938"><ele>2591.6</ele><time>2026-02-14T17:14:08Z</time></trkpt>
<trkpt lat="38.856814" lon="-120.069958"><ele>2592.8</ele><time>2026-02-14T17:14:22Z</time></trkpt>
<trkpt lat="38.856792" lon="-120.070050"><ele>2595.0</ele><time>2026-02-14T17:14:36Z</time></trkpt>
<trkpt lat="38.856765" lon="-120.070055"><ele>2596.4</ele><time>2026-02-14T17:14:47Z</time></trkpt>
<trkpt lat="38.856909" lon="-120.070334"><ele>2602.6</ele><time>2026-02-14T17:15:27Z</time></trkpt>
<trkpt lat="38.856833" lon="-120.070354"><ele>2604.6</ele><time>2026-02-14T17:16:00Z</time></trkpt>
<trkpt lat="38.856927" lon="-120.070586"><ele>2610.0</ele><time>2026-02-14T17:16:31Z</time></trkpt>
<trkpt lat="38.856924" lon="-120.070827"><ele>2612.0</ele><time>2026-02-14T17:18:14Z</time></trkpt>
<trkpt lat="38.856845" lon="-120.070728"><ele>2615.0</ele><time>2026-02-14T17:18:36Z</time></trkpt>
<trkpt lat="38.856806" lon="-120.070862"><ele>2618.2</ele><time>2026-02-14T17:19:06Z</time></trkpt>
<trkpt lat="38.856753" lon="-120.070745"><ele>2620.8</ele><time>2026-02-14T17:19:28Z</time></trkpt>
<trkpt lat="38.856666" lon="-120.070719"><ele>2623.0</ele><time>2026-02-14T17:19:43Z</time></trkpt>
<trkpt lat="38.856664" lon="-120.070792"><ele>2626.4</ele><time>2026-02-14T17:20:07Z</time></trkpt>
<trkpt lat="38.856458" lon="-120.070838"><ele>2631.4</ele><time>2026-02-14T17:21:13Z</time></trkpt>
<trkpt lat="38.856501" lon="-120.070944"><ele>2634.4</ele><time>2026-02-14T17:21:42Z</time></trkpt>
<trkpt lat="38.856391" lon="-120.070930"><ele>2636.8</ele><time>2026-02-14T17:22:18Z</time></trkpt>
<trkpt lat="38.856412" lon="-120.070986"><ele>2639.0</ele><time>2026-02-14T17:22:44Z</time></trkpt>
<trkpt lat="38.856199" lon="-120.070963"><ele>2644.4</ele><time>2026-02-14T17:23:39Z</time></trkpt>
<trkpt lat="38.856174" lon="-120.070974"><ele>2646.0</ele><time>2026-02-14T17:23:49Z</time></trkpt>
<trkpt lat="38.856219" lon="-120.071031"><ele>2647.8</ele><time>2026-02-14T17:24:03Z</time></trkpt>
<trkpt lat="38.856057" lon="-120.071058"><ele>2651.0</ele><time>2026-02-14T17:24:49Z</time></trkpt>
<trkpt lat="38.856028" lon="-120.071053"><ele>2650.6</ele><time>2026-02-14T17:24:54Z</time></trkpt>
<trkpt lat="38.856047" lon="-120.071047"><ele>2651.2</ele><time>2026-02-14T17:25:33Z</time></trkpt>
<trkpt lat="38.856033" lon="-120.071024"><ele>2648.8</ele><time>2026-02-14T17:26:13Z</time></trkpt>
<trkpt lat="38.855958" lon="-120.071050"><ele>2651.6</ele><time>2026-02-14T17:27:04Z</time></trkpt>
<trkpt lat="38.856101" lon="-120.071180"><ele>2658.4</ele><time>2026-02-14T17:28:11Z</time></trkpt>
<trkpt lat="38.856055" lon="-120.071160"><ele>2658.6</ele><time>2026-02-14T17:28:24Z</time></trkpt>
<trkpt lat="38.855866" lon="-120.071252"><ele>2665.4</ele><time>2026-02-14T17:29:06Z</time></trkpt>
<trkpt lat="38.855873" lon="-120.071333"><ele>2668.6</ele><time>2026-02-14T17:29:21Z</time></trkpt>
<trkpt lat="38.855784" lon="-120.071438"><ele>2671.2</ele><time>2026-02-14T17:29:49Z</time></trkpt>
<trkpt lat="38.855803" lon="-120.071493"><ele>2673.0</ele><time>2026-02-14T17:29:56Z</time></trkpt>
<trkpt lat="38.855858" lon="-120.071514"><ele>2675.2</ele><time>2026-02-14T17:30:06Z</time></trkpt>
<trkpt lat="38.855785" lon="-120.071683"><ele>2682.2</ele><time>2026-02-14T17:30:46Z</time></trkpt>
<trkpt lat="38.855921" lon="-120.071686"><ele>2684.8</ele><time>2026-02-14T17:31:08Z</time></trkpt>
<trkpt lat="38.855840" lon="-120.071819"><ele>2687.4</ele><time>2026-02-14T17:31:25Z</time></trkpt>
<trkpt lat="38.855851" lon="-120.071862"><ele>2687.6</ele><time>2026-02-14T17:31:30Z</time></trkpt>
<trkpt lat="38.855977" lon="-120.071977"><ele>2689.8</ele><time>2026-02-14T17:31:52Z</time></trkpt>
<trkpt lat="38.856150" lon="-120.071884"><ele>2692.6</ele><time>2026-02-14T17:32:30Z</time></trkpt>
<trkpt lat="38.856174" lon="-120.072114"><ele>2694.8</ele><time>2026-02-14T17:33:02Z</time></trkpt>
<trkpt lat="38.856228" lon="-120.072130"><ele>2697.0</ele><time>2026-02-14T17:33:16Z</time></trkpt>
<trkpt lat="38.856177" lon="-120.072148"><ele>2695.8</ele><time>2026-02-14T17:33:39Z</time></trkpt>
<trkpt lat="38.856140" lon="-120.072069"><ele>2695.0</ele><time>2026-02-14T17:33:46Z</time></trkpt>
<trkpt lat="38.856186" lon="-120.071862"><ele>2693.0</ele><time>2026-02-14T17:34:21Z</time></trkpt>
<trkpt lat="38.856053" lon="-120.071808"><ele>2690.8</ele><time>2026-02-14T17:35:53Z</time></trkpt>
<trkpt lat="38.856006" lon="-120.071678"><ele>2687.4</ele><time>2026-02-14T17:36:13Z</time></trkpt>
<trkpt lat="38.856087" lon="-120.071662"><ele>2685.2</ele><time>2026-02-14T17:36:23Z</time></trkpt>
<trkpt lat="38.856147" lon="-120.071735"><ele>2688.4</ele><time>2026-02-14T17:38:55Z</time></trkpt>
<trkpt lat="38.856119" lon="-120.071696"><ele>2686.6</ele><time>2026-02-14T17:39:46Z</time></trkpt>
<trkpt lat="38.856149" lon="-120.071710"><ele>2686.2</ele><time>2026-02-14T17:41:29Z</time></trkpt>
<trkpt lat="38.856130" lon="-120.071707"><ele>2687.0</ele><time>2026-02-14T17:41:34Z</time></trkpt>
<trkpt lat="38.856127" lon="-120.071725"><ele>2682.8</ele><time>2026-02-14T17:45:25Z</time></trkpt>
<trkpt lat="38.856151" lon="-120.071703"><ele>2684.4</ele><time>2026-02-14T17:45:37Z</time></trkpt>
<trkpt lat="38.856218" lon="-120.071735"><ele>2683.2</ele><time>2026-02-14T17:46:08Z</time></trkpt>
<trkpt lat="38.856212" lon="-120.071669"><ele>2680.4</ele><time>2026-02-14T17:46:11Z</time></trkpt>
<trkpt lat="38.856145" lon="-120.071582"><ele>2676.0</ele><time>2026-02-14T17:46:22Z</time></trkpt>
<trkpt lat="38.856133" lon="-120.071439"><ele>2674.8</ele><time>2026-02-14T17:46:27Z</time></trkpt>
<trkpt lat="38.856166" lon="-120.071425"><ele>2673.8</ele><time>2026-02-14T17:46:28Z</time></trkpt>
<trkpt lat="38.856217" lon="-120.071469"><ele>2669.2</ele><time>2026-02-14T17:46:54Z</time></trkpt>
<trkpt lat="38.856220" lon="-120.071415"><ele>2668.2</ele><time>2026-02-14T17:48:12Z</time></trkpt>
<trkpt lat="38.856295" lon="-120.071484"><ele>2665.4</ele><time>2026-02-14T17:48:17Z</time></trkpt>
<trkpt lat="38.856311" lon="-120.071375"><ele>2660.4</ele><time>2026-02-14T17:48:21Z</time></trkpt>
<trkpt lat="38.856371" lon="-120.071429"><ele>2656.4</ele><time>2026-02-14T17:48:24Z</time></trkpt>
<trkpt lat="38.856374" lon="-120.071368"><ele>2654.0</ele><time>2026-02-14T17:48:26Z</time></trkpt>
<trkpt lat="38.856375" lon="-120.071366"><ele>2650.4</ele><time>2026-02-14T17:48:34Z</time></trkpt>
<trkpt lat="38.856410" lon="-120.071413"><ele>2650.8</ele><time>2026-02-14T17:48:40Z</time></trkpt>
<trkpt lat="38.856486" lon="-120.071412"><ele>2646.2</ele><time>2026-02-14T17:48:43Z</time></trkpt>
<trkpt lat="38.856493" lon="-120.071278"><ele>2639.0</ele><time>2026-02-14T17:48:48Z</time></trkpt>
<trkpt lat="38.856521" lon="-120.071281"><ele>2638.2</ele><time>2026-02-14T17:48:52Z</time></trkpt>
<trkpt lat="38.856563" lon="-120.071188"><ele>2635.8</ele><time>2026-02-14T17:48:55Z</time></trkpt>
<trkpt lat="38.856578" lon="-120.071198"><ele>2632.2</ele><time>2026-02-14T17:48:57Z</time></trkpt>
<trkpt lat="38.856634" lon="-120.071320"><ele>2629.4</ele><time>2026-02-14T17:49:00Z</time></trkpt>
<trkpt lat="38.856685" lon="-120.071236"><ele>2623.6</ele><time>2026-02-14T17:49:03Z</time></trkpt>
<trkpt lat="38.856727" lon="-120.071254"><ele>2620.0</ele><time>2026-02-14T17:49:04Z</time></trkpt>
<trkpt lat="38.856827" lon="-120.071180"><ele>2612.6</ele><time>2026-02-14T17:49:07Z</time></trkpt>
<trkpt lat="38.856826" lon="-120.071193"><ele>2608.6</ele><time>2026-02-14T17:49:09Z</time></trkpt>
<trkpt lat="38.857014" lon="-120.070903"><ele>2605.6</ele><time>2026-02-14T17:50:03Z</time></trkpt>
<trkpt lat="38.857156" lon="-120.070420"><ele>2597.8</ele><time>2026-02-14T17:50:41Z</time></trkpt>
<trkpt lat="38.856955" lon="-120.070071"><ele>2593.2</ele><time>2026-02-14T17:50:54Z</time></trkpt>
<trkpt lat="38.856882" lon="-120.069713"><ele>2586.4</ele><time>2026-02-14T17:51:01Z</time></trkpt>
<trkpt lat="38.856947" lon="-120.069705"><ele>2582.0</ele><time>2026-02-14T17:51:24Z</time></trkpt>
<trkpt lat="38.856925" lon="-120.069449"><ele>2579.0</ele><time>2026-02-14T17:51:36Z</time></trkpt>
<trkpt lat="38.856915" lon="-120.069475"><ele>2577.8</ele><time>2026-02-14T17:52:01Z</time></trkpt>
<trkpt lat="38.856939" lon="-120.069349"><ele>2578.0</ele><time>2026-02-14T17:52:19Z</time></trkpt>
<trkpt lat="38.857046" lon="-120.069008"><ele>2566.0</ele><time>2026-02-14T17:52:25Z</time></trkpt>
<trkpt lat="38.857178" lon="-120.068809"><ele>2556.4</ele><time>2026-02-14T17:52:29Z</time></trkpt>
<trkpt lat="38.857180" lon="-120.068760"><ele>2555.2</ele><time>2026-02-14T17:52:30Z</time></trkpt>
<trkpt lat="38.857177" lon="-120.068743"><ele>2550.6</ele><time>2026-02-14T17:52:33Z</time></trkpt>
<trkpt lat="38.857321" lon="-120.068639"><ele>2548.4</ele><time>2026-02-14T17:52:43Z</time></trkpt>
<trkpt lat="38.857429" lon="-120.068629"><ele>2541.8</ele><time>2026-02-14T17:52:46Z</time></trkpt>
<trkpt lat="38.857474" lon="-120.068655"><ele>2540.6</ele><time>2026-02-14T17:52:47Z</time></trkpt>
<trkpt lat="38.857560" lon="-120.068619"><ele>2536.0</ele><time>2026-02-14T17:52:49Z</time></trkpt>
<trkpt lat="38.857671" lon="-120.068660"><ele>2531.2</ele><time>2026-02-14T17:52:52Z</time></trkpt>
<trkpt lat="38.857812" lon="-120.068556"><ele>2526.0</ele><time>2026-02-14T17:52:56Z</time></trkpt>
<trkpt lat="38.857871" lon="-120.068617"><ele>2522.6</ele><time>2026-02-14T17:52:59Z</time></trkpt>
<trkpt lat="38.857849" lon="-120.068628"><ele>2522.0</ele><time>2026-02-14T17:53:06Z</time></trkpt>
<trkpt lat="38.857888" lon="-120.068591"><ele>2519.2</ele><time>2026-02-14T17:53:33Z</time></trkpt>
<trkpt lat="38.857939" lon="-120.068432"><ele>2516.8</ele><time>2026-02-14T17:53:38Z</time></trkpt>
<trkpt lat="38.858008" lon="-120.068301"><ele>2510.8</ele><time>2026-02-14T17:53:41Z</time></trkpt>
<trkpt lat="38.858093" lon="-120.068177"><ele>2499.8</ele><time>2026-02-14T17:53:44Z</time></trkpt>
<trkpt lat="38.858071" lon="-120.068079"><ele>2494.6</ele><time>2026-02-14T17:53:46Z</time></trkpt>
<trkpt lat="38.858070" lon="-120.068083"><ele>2490.0</ele><time>2026-02-14T17:54:03Z</time></trkpt>
<trkpt lat="38.857989" lon="-120.067847"><ele>2487.8</ele><time>2026-02-14T17:54:22Z</time></trkpt>
<trkpt lat="38.858019" lon="-120.067552"><ele>2480.6</ele><time>2026-02-14T17:54:27Z</time></trkpt>
<trkpt lat="38.858058" lon="-120.067435"><ele>2476.8</ele><time>2026-02-14T17:54:29Z</time></trkpt>
<trkpt lat="38.858237" lon="-120.067118"><ele>2459.8</ele><time>2026-02-14T17:54:36Z</time></trkpt>
<trkpt lat="38.858278" lon="-120.067089"><ele>2457.4</ele><time>2026-02-14T17:54:37Z</time></trkpt>
<trkpt lat="38.858404" lon="-120.067113"><ele>2452.0</ele><time>2026-02-14T17:54:39Z</time></trkpt>
<trkpt lat="38.858437" lon="-120.067054"><ele>2447.8</ele><time>2026-02-14T17:54:41Z</time></trkpt>
<trkpt lat="38.858444" lon="-120.067065"><ele>2444.8</ele><time>2026-02-14T17:54:43Z</time></trkpt>
<trkpt lat="38.858426" lon="-120.066949"><ele>2440.2</ele><time>2026-02-14T17:54:55Z</time></trkpt>
<trkpt lat="38.858380" lon="-120.066654"><ele>2436.4</ele><time>2026-02-14T17:55:11Z</time></trkpt>
<trkpt lat="38.858447" lon="-120.066213"><ele>2428.6</ele><time>2026-02-14T17:55:17Z</time></trkpt>
<trkpt lat="38.858335" lon="-120.065892"><ele>2422.8</ele><time>2026-02-14T17:55:26Z</time></trkpt>
<trkpt lat="38.858393" lon="-120.065568"><ele>2419.8</ele><time>2026-02-14T17:55:38Z</time></trkpt>
<trkpt lat="38.858458" lon="-120.065408"><ele>2415.8</ele><time>2026-02-14T17:55:41Z</time></trkpt>
<trkpt lat="38.858790" lon="-120.065256"><ele>2407.6</ele><time>2026-02-14T17:55:47Z</time></trkpt>
<trkpt lat="38.858880" lon="-120.065041"><ele>2402.8</ele><time>2026-02-14T17:55:51Z</time></trkpt>
<trkpt lat="38.858881" lon="-120.064934"><ele>2400.6</ele><time>2026-02-14T17:55:57Z</time></trkpt>
<trkpt lat="38.858943" lon="-120.064829"><ele>2400.0</ele><time>2026-02-14T17:56:00Z</time></trkpt>
<trkpt lat="38.859025" lon="-120.064769"><ele>2397.6</ele><time>2026-02-14T17:56:02Z</time></trkpt>
<trkpt lat="38.859013" lon="-120.064652"><ele>2394.6</ele><time>2026-02-14T17:56:05Z</time></trkpt>
<trkpt lat="38.858979" lon="-120.064621"><ele>2393.0</ele><time>2026-02-14T17:56:34Z</time></trkpt>
<trkpt lat="38.859086" lon="-120.064524"><ele>2391.6</ele><time>2026-02-14T17:56:37Z</time></trkpt>
<trkpt lat="38.859468" lon="-120.064421"><ele>2386.4</ele><time>2026-02-14T17:56:45Z</time></trkpt>
<trkpt lat="38.859567" lon="-120.064488"><ele>2386.2</ele><time>2026-02-14T17:56:50Z</time></trkpt>
<trkpt lat="38.859724" lon="-120.064609"><ele>2383.8</ele><time>2026-02-14T17:56:54Z</time></trkpt>
<trkpt lat="38.859885" lon="-120.065075"><ele>2378.6</ele><time>2026-02-14T17:57:00Z</time></trkpt>
<trkpt lat="38.859974" lon="-120.065164"><ele>2377.2</ele><time>2026-02-14T17:57:02Z</time></trkpt>
<trkpt lat="38.860098" lon="-120.065096"><ele>2375.4</ele><time>2026-02-14T17:57:05Z</time></trkpt>
<trkpt lat="38.860095" lon="-120.064980"><ele>2374.6</ele><time>2026-02-14T17:57:08Z</time></trkpt>
<trkpt lat="38.860122" lon="-120.064927"><ele>2374.2</ele><time>2026-02-14T17:57:10Z</time></trkpt>
<trkpt lat="38.860331" lon="-120.064849"><ele>2371.4</ele><time>2026-02-14T17:57:17Z</time></trkpt>
<trkpt lat="38.860456" lon="-120.064712"><ele>2371.0</ele><time>2026-02-14T17:57:32Z</time></trkpt>
<trkpt lat="38.860492" lon="-120.064602"><ele>2369.2</ele><time>2026-02-14T17:57:36Z</time></trkpt>
<trkpt lat="38.860479" lon="-120.063996"><ele>2360.8</ele><time>2026-02-14T17:57:58Z</time></trkpt>
<trkpt lat="38.860176" lon="-120.063535"><ele>2355.0</ele><time>2026-02-14T17:58:16Z</time></trkpt>
<trkpt lat="38.859974" lon="-120.063292"><ele>2347.0</ele><time>2026-02-14T17:58:25Z</time></trkpt>
<trkpt lat="38.859838" lon="-120.063236"><ele>2341.2</ele><time>2026-02-14T17:58:30Z</time></trkpt>
<trkpt lat="38.859677" lon="-120.063192"><ele>2339.0</ele><time>2026-02-14T17:58:37Z</time></trkpt>
<trkpt lat="38.859620" lon="-120.063098"><ele>2336.2</ele><time>2026-02-14T17:58:41Z</time></trkpt>
<trkpt lat="38.859558" lon="-120.063091"><ele>2331.8</ele><time>2026-02-14T17:58:47Z</time></trkpt>
<trkpt lat="38.859485" lon="-120.063104"><ele>2332.0</ele><time>2026-02-14T17:59:09Z</time></trkpt>
<trkpt lat="38.859449" lon="-120.062981"><ele>2330.0</ele><time>2026-02-14T17:59:14Z</time></trkpt>
<trkpt lat="38.859395" lon="-120.062959"><ele>2327.4</ele><time>2026-02-14T17:59:15Z</time></trkpt>
<trkpt lat="38.859282" lon="-120.062963"><ele>2323.0</ele><time>2026-02-14T17:59:17Z</time></trkpt>
<trkpt lat="38.859146" lon="-120.062914"><ele>2321.4</ele><time>2026-02-14T17:59:20Z</time></trkpt>
<trkpt lat="38.858919" lon="-120.062918"><ele>2317.0</ele><time>2026-02-14T17:59:24Z</time></trkpt>
<trkpt lat="38.858878" lon="-120.062785"><ele>2314.4</ele><time>2026-02-14T17:59:26Z</time></trkpt>
<trkpt lat="38.858793" lon="-120.062707"><ele>2310.2</ele><time>2026-02-14T17:59:29Z</time></trkpt>
<trkpt lat="38.858816" lon="-120.062667"><ele>2308.6</ele><time>2026-02-14T17:59:30Z</time></trkpt>
<trkpt lat="38.858814" lon="-120.062377"><ele>2303.6</ele><time>2026-02-14T17:59:36Z</time></trkpt>
<trkpt lat="38.858769" lon="-120.062214"><ele>2299.8</ele><time>2026-02-14T17:59:42Z</time></trkpt>
<trkpt lat="38.858892" lon="-120.062251"><ele>2299.0</ele><time>2026-02-14T17:59:53Z</time></trkpt>
<trkpt lat="38.858987" lon="-120.062179"><ele>2296.4</ele><time>2026-02-14T17:59:55Z</time></trkpt>
<trkpt lat="38.858964" lon="-120.062003"><ele>2290.0</ele><time>2026-02-14T17:59:58Z</time></trkpt>
<trkpt lat="38.858897" lon="-120.061698"><ele>2283.8</ele><time>2026-02-14T18:00:03Z</time></trkpt>
<trkpt lat="38.858933" lon="-120.061599"><ele>2281.8</ele><time>2026-02-14T18:00:05Z</time></trkpt>
<trkpt lat="38.859121" lon="-120.061506"><ele>2271.2</ele><time>2026-02-14T18:00:10Z</time></trkpt>
<trkpt lat="38.859095" lon="-120.061293"><ele>2262.2</ele><time>2026-02-14T18:00:19Z</time></trkpt>
<trkpt lat="38.859095" lon="-120.061023"><ele>2258.8</ele><time>2026-02-14T18:00:26Z</time></trkpt>
<trkpt lat="38.859050" lon="-120.060843"><ele>2255.6</ele><time>2026-02-14T18:00:29Z</time></trkpt>
<trkpt lat="38.858846" lon="-120.060411"><ele>2250.2</ele><time>2026-02-14T18:00:40Z</time></trkpt>
<trkpt lat="38.858835" lon="-120.060197"><ele>2248.2</ele><time>2026-02-14T18:00:44Z</time></trkpt>
<trkpt lat="38.858782" lon="-120.060099"><ele>2245.8</ele><time>2026-02-14T18:00:51Z</time></trkpt>
<trkpt lat="38.858694" lon="-120.059580"><ele>2235.6</ele><time>2026-02-14T18:01:10Z</time></trkpt>
<trkpt lat="38.858606" lon="-120.059324"><ele>2231.6</ele><time>2026-02-14T18:01:17Z</time></trkpt>
<trkpt lat="38.858597" lon="-120.059042"><ele>2228.6</ele><time>2026-02-14T18:01:22Z</time></trkpt>
<trkpt lat="38.858548" lon="-120.058902"><ele>2226.0</ele><time>2026-02-14T18:01:25Z</time></trkpt>
<trkpt lat="38.858554" lon="-120.058789"><ele>2224.6</ele><time>2026-02-14T18:01:28Z</time></trkpt>
<trkpt lat="38.858494" lon="-120.058487"><ele>2217.4</ele><time>2026-02-14T18:01:33Z</time></trkpt>
<trkpt lat="38.858386" lon="-120.057634"><ele>2205.8</ele><time>2026-02-14T18:01:49Z</time></trkpt>
<trkpt lat="38.858249" lon="-120.057224"><ele>2201.0</ele><time>2026-02-14T18:01:59Z</time></trkpt>
<trkpt lat="38.858246" lon="-120.057061"><ele>2198.0</ele><time>2026-02-14T18:02:02Z</time></trkpt>
<trkpt lat="38.858385" lon="-120.057019"><ele>2192.4</ele><time>2026-02-14T18:02:05Z</time></trkpt>
<trkpt lat="38.858449" lon="-120.056849"><ele>2186.4</ele><time>2026-02-14T18:02:08Z</time></trkpt>
<trkpt lat="38.858421" lon="-120.056726"><ele>2181.8</ele><time>2026-02-14T18:02:10Z</time></trkpt>
<trkpt lat="38.858224" lon="-120.056261"><ele>2175.2</ele><time>2026-02-14T18:02:19Z</time></trkpt>
<trkpt lat="38.858287" lon="-120.056117"><ele>2173.0</ele><time>2026-02-14T18:02:37Z</time></trkpt>
<trkpt lat="38.858289" lon="-120.055982"><ele>2169.6</ele><time>2026-02-14T18:02:39Z</time></trkpt>
<trkpt lat="38.858233" lon="-120.055790"><ele>2164.8</ele><time>2026-02-14T18:02:42Z</time></trkpt>
<trkpt lat="38.858277" lon="-120.055642"><ele>2160.2</ele><time>2026-02-14T18:02:45Z</time></trkpt>
<trkpt lat="38.858374" lon="-120.055560"><ele>2155.0</ele><time>2026-02-14T18:02:48Z</time></trkpt>
<trkpt lat="38.858431" lon="-120.055419"><ele>2148.8</ele><time>2026-02-14T18:02:51Z</time></trkpt>
<trkpt lat="38.858598" lon="-120.055412"><ele>2143.6</ele><time>2026-02-14T18:02:55Z</time></trkpt>
<trkpt lat="38.858680" lon="-120.055375"><ele>2139.4</ele><time>2026-02-14T18:02:57Z</time></trkpt>
<trkpt lat="38.858820" lon="-120.055467"><ele>2134.8</ele><time>2026-02-14T18:03:00Z</time></trkpt>
<trkpt lat="38.858859" lon="-120.055433"><ele>2133.2</ele><time>2026-02-14T18:03:01Z</time></trkpt>
<trkpt lat="38.858785" lon="-120.055085"><ele>2126.8</ele><time>2026-02-14T18:03:07Z</time></trkpt>
<trkpt lat="38.858837" lon="-120.054894"><ele>2124.2</ele><time>2026-02-14T18:03:10Z</time></trkpt>
<trkpt lat="38.858823" lon="-120.054711"><ele>2120.4</ele><time>2026-02-14T18:03:12Z</time></trkpt>
<trkpt lat="38.858918" lon="-120.054691"><ele>2116.4</ele><time>2026-02-14T18:03:14Z</time></trkpt>
<trkpt lat="38.858961" lon="-120.054652"><ele>2115.0</ele><time>2026-02-14T18:03:15Z</time></trkpt>
<trkpt lat="38.858981" lon="-120.054572"><ele>2113.2</ele><time>2026-02-14T18:03:16Z</time></trkpt>
<trkpt lat="38.858895" lon="-120.054322"><ele>2107.6</ele><time>2026-02-14T18:03:21Z</time></trkpt>
<trkpt lat="38.858928" lon="-120.054207"><ele>2106.4</ele><time>2026-02-14T18:03:25Z</time></trkpt>
<trkpt lat="38.858997" lon="-120.054146"><ele>2104.6</ele><time>2026-02-14T18:03:27Z</time></trkpt>
<trkpt lat="38.859255" lon="-120.053985"><ele>2092.0</ele><time>2026-02-14T18:03:34Z</time></trkpt>
<trkpt lat="38.859263" lon="-120.053898"><ele>2089.2</ele><time>2026-02-14T18:03:36Z</time></trkpt>
<trkpt lat="38.859260" lon="-120.053895"><ele>2086.2</ele><time>2026-02-14T18:03:41Z</time></trkpt>
<trkpt lat="38.859282" lon="-120.053830"><ele>2085.8</ele><time>2026-02-14T18:03:43Z</time></trkpt>
<trkpt lat="38.859231" lon="-120.053503"><ele>2080.8</ele><time>2026-02-14T18:03:51Z</time></trkpt>
<trkpt lat="38.859268" lon="-120.053351"><ele>2079.8</ele><time>2026-02-14T18:03:54Z</time></trkpt>
<trkpt lat="38.859372" lon="-120.053327"><ele>2077.2</ele><time>2026-02-14T18:03:56Z</time></trkpt>
<trkpt lat="38.859398" lon="-120.053255"><ele>2074.6</ele><time>2026-02-14T18:03:57Z</time></trkpt>
<trkpt lat="38.859394" lon="-120.053119"><ele>2071.8</ele><time>2026-02-14T18:03:59Z</time></trkpt>
<trkpt lat="38.859455" lon="-120.053011"><ele>2069.2</ele><time>2026-02-14T18:04:02Z</time></trkpt>
<trkpt lat="38.859487" lon="-120.052848"><ele>2066.2</ele><time>2026-02-14T18:04:05Z</time></trkpt>
<trkpt lat="38.859575" lon="-120.052703"><ele>2063.6</ele><time>2026-02-14T18:04:08Z</time></trkpt>
<trkpt lat="38.859700" lon="-120.052282"><ele>2058.0</ele><time>2026-02-14T18:04:16Z</time></trkpt>
<trkpt lat="38.859722" lon="-120.052020"><ele>2055.6</ele><time>2026-02-14T18:04:23Z</time></trkpt>
<trkpt lat="38.859695" lon="-120.051971"><ele>2053.8</ele><time>2026-02-14T18:04:28Z</time></trkpt>
<trkpt lat="38.859733" lon="-120.051787"><ele>2052.4</ele><time>2026-02-14T18:04:38Z</time></trkpt>
<trkpt lat="38.859706" lon="-120.051627"><ele>2051.0</ele><time>2026-02-14T18:04:41Z</time></trkpt>
<trkpt lat="38.859911" lon="-120.051211"><ele>2044.0</ele><time>2026-02-14T18:04:53Z</time></trkpt>
<trkpt lat="38.859884" lon="-120.050998"><ele>2041.4</ele><time>2026-02-14T18:04:58Z</time></trkpt>
<trkpt lat="38.859923" lon="-120.050887"><ele>2040.0</ele><time>2026-02-14T18:05:01Z</time></trkpt>
<trkpt lat="38.859858" lon="-120.050594"><ele>2037.0</ele><time>2026-02-14T18:05:07Z</time></trkpt>
<trkpt lat="38.859863" lon="-120.050386"><ele>2035.6</ele><time>2026-02-14T18:05:11Z</time></trkpt>
<trkpt lat="38.859941" lon="-120.050287"><ele>2034.8</ele><time>2026-02-14T18:05:14Z</time></trkpt>
<trkpt lat="38.860034" lon="-120.049899"><ele>2032.8</ele><time>2026-02-14T18:05:23Z</time></trkpt>
<trkpt lat="38.860311" lon="-120.049501"><ele>2029.2</ele><time>2026-02-14T18:05:35Z</time></trkpt>
<trkpt lat="38.860357" lon="-120.049284"><ele>2028.6</ele><time>2026-02-14T18:05:41Z</time></trkpt>
<trkpt lat="38.860277" lon="-120.049003"><ele>2027.0</ele><time>2026-02-14T18:05:48Z</time></trkpt>
<trkpt lat="38.860332" lon="-120.048528"><ele>2025.6</ele><time>2026-02-14T18:06:29Z</time></trkpt>
<trkpt lat="38.860300" lon="-120.048382"><ele>2025.6</ele><time>2026-02-14T18:06:50Z</time></trkpt>
<trkpt lat="38.860327" lon="-120.048180"><ele>2026.4</ele><time>2026-02-14T18:07:09Z</time></trkpt>
<trkpt lat="38.860309" lon="-120.048061"><ele>2027.2</ele><time>2026-02-14T18:07:19Z</time></trkpt>
<trkpt lat="38.860229" lon="-120.047924"><ele>2028.0</ele><time>2026-02-14T18:07:35Z</time></trkpt>
<trkpt lat="38.860220" lon="-120.047710"><ele>2029.2</ele><time>2026-02-14T18:07:57Z</time></trkpt>
<trkpt lat="38.860122" lon="-120.047368"><ele>2029.6</ele><time>2026-02-14T18:08:29Z</time></trkpt>
<trkpt lat="38.860105" lon="-120.047199"><ele>2029.8</ele><time>2026-02-14T18:08:42Z</time></trkpt>
<trkpt lat="38.860008" lon="-120.047127"><ele>2029.0</ele><time>2026-02-14T18:08:54Z</time></trkpt>
<trkpt lat="38.859975" lon="-120.047068"><ele>2028.8</ele><time>2026-02-14T18:08:59Z</time></trkpt>
<trkpt lat="38.859980" lon="-120.047007"><ele>2028.6</ele><time>2026-02-14T18:09:05Z</time></trkpt>
<trkpt lat="38.859994" lon="-120.046941"><ele>2028.6</ele><time>2026-02-14T18:09:10Z</time></trkpt>
<trkpt lat="38.860111" lon="-120.046776"><ele>2027.2</ele><time>2026-02-14T18:10:16Z</time></trkpt>
<trkpt lat="38.860172" lon="-120.046339"><ele>2026.8</ele><time>2026-02-14T18:10:29Z</time></trkpt>
<trkpt lat="38.860258" lon="-120.046066"><ele>2024.6</ele><time>2026-02-14T18:10:36Z</time></trkpt>
<trkpt lat="38.860416" lon="-120.045860"><ele>2023.6</ele><time>2026-02-14T18:10:43Z</time></trkpt>
<trkpt lat="38.860504" lon="-120.045628"><ele>2022.6</ele><time>2026-02-14T18:10:50Z</time></trkpt>
<trkpt lat="38.860546" lon="-120.045423"><ele>2022.2</ele><time>2026-02-14T18:10:57Z</time></trkpt>
<trkpt lat="38.860691" lon="-120.045230"><ele>2022.4</ele><time>2026-02-14T18:11:07Z</time></trkpt>
<trkpt lat="38.860750" lon="-120.045071"><ele>2021.8</ele><time>2026-02-14T18:11:17Z</time></trkpt>
<trkpt lat="38.860929" lon="-120.044822"><ele>2021.8</ele><time>2026-02-14T18:11:31Z</time></trkpt>
<trkpt lat="38.861047" lon="-120.044575"><ele>2021.2</ele><time>2026-02-14T18:11:43Z</time></trkpt>
<trkpt lat="38.861106" lon="-120.044164"><ele>2020.2</ele><time>2026-02-14T18:11:59Z</time></trkpt>
<trkpt lat="38.861461" lon="-120.043428"><ele>2020.2</ele><time>2026-02-14T18:12:38Z</time></trkpt>
<trkpt lat="38.861519" lon="-120.043238"><ele>2020.0</ele><time>2026-02-14T18:12:51Z</time></trkpt>
<trkpt lat="38.861699" lon="-120.042977"><ele>2020.0</ele><time>2026-02-14T18:13:10Z</time></trkpt>
<trkpt lat="38.861729" lon="-120.042572"><ele>2019.0</ele><time>2026-02-14T18:13:47Z</time></trkpt>
<trkpt lat="38.861905" lon="-120.042266"><ele>2018.6</ele><time>2026-02-14T18:14:19Z</time></trkpt>
<trkpt lat="38.861885" lon="-120.041986"><ele>2018.0</ele><time>2026-02-14T18:14:44Z</time></trkpt>
<trkpt lat="38.861854" lon="-120.041945"><ele>2017.8</ele><time>2026-02-14T18:15:53Z</time></trkpt>
<trkpt lat="38.861858" lon="-120.041971"><ele>2017.2</ele><time>2026-02-14T18:16:00Z</time></trkpt>
</trkseg></trk>
</gpx>
