<?xml version="1.0" encoding="UTF-8"?>
<gpx version="1.1" creator="Eric Sichak trip reports" xmlns="http://www.topografix.com/GPX/1/1">
<metadata><name>3k in 3 hours</name><time>2025-02-06T12:34:10Z</time></metadata>
<trk><name>3k in 3 hours</name><type>ski</type><trkseg>
<trkpt lat="38.935010" lon="-119.939940"><ele>2025.4</ele><time>2025-02-06T12:34:10Z</time></trkpt>
<trkpt lat="38.934735" lon="-119.940040"><ele>2025.6</ele><time>2025-02-06T12:34:35Z</time></trkpt>
<trkpt lat="38.934263" lon="-119.940546"><ele>2028.2</ele><time>2025-02-06T12:35:34Z</time></trkpt>
<trkpt lat="38.933878" lon="-119.940680"><ele>2036.2</ele><time>2025-02-06T12:36:22Z</time></trkpt>
<trkpt lat="38.933522" lon="-119.941038"><ele>2043.6</ele><time>2025-02-06T12:37:22Z</time></trkpt>
<trkpt lat="38.933503" lon="-119.941005"><ele>2045.2</ele><time>2025-02-06T12:37:49Z</time></trkpt>
<trkpt lat="38.933500" lon="-119.941029"><ele>2043.0</ele><time>2025-02-06T12:38:12Z</time></trkpt>
<trkpt lat="38.933508" lon="-119.941002"><ele>2043.2</ele><time>2025-02-06T12:38:48Z</time></trkpt>
<trkpt lat="38.933025" lon="-119.941621"><ele>2055.4</ele><time>2025-02-06T12:40:23Z</time></trkpt>
<trkpt lat="38.932641" lon="-119.942113"><ele>2056.8</ele><time>2025-02-06T12:41:31Z</time></trkpt>
<trkpt lat="38.932261" lon="-119.942504"><ele>2059.2</ele><time>2025-02-06T12:42:23Z</time></trkpt>
<trkpt lat="38.932001" lon="-119.942900"><ele>2066.8</ele><time>2025-02-06T12:43:14Z</time></trkpt>
<trkpt lat="38.931907" lon="-119.943021"><ele>2066.0</ele><time>2025-02-06T12:43:31Z</time></trkpt>
<trkpt lat="38.931856" lon="-119.943033"><ele>2066.2</ele><time>2025-02-06T12:43:39Z</time></trkpt>
<trkpt lat="38.931771" lon="-119.942942"><ele>2065.6</ele><time>2025-02-06T12:44:10Z</time></trkpt>
<trkpt lat="38.931690" lon="-119.942789"><ele>2067.4</ele><time>2025-02-06T12:44:29Z</time></trkpt>
<trkpt lat="38.931565" lon="-119.942325"><ele>2073.8</ele><time>2025-02-06T12:45:19Z</time></trkpt>
<trkpt lat="38.931429" lon="-119.942226"><ele>2075.6</ele><time>2025-02-06T12:45:38Z</time></trkpt>
<trkpt lat="38.931308" lon="-119.942280"><ele>2078.6</ele><time>2025-02-06T12:45:56Z</time></trkpt>
<trkpt lat="38.931237" lon="-119.942229"><ele>2080.2</ele><time>2025-02-06T12:46:09Z</time></trkpt>
<trkpt lat="38.931188" lon="-119.942019"><ele>2084.8</ele><time>2025-02-06T12:46:40Z</time></trkpt>
<trkpt lat="38.931107" lon="-119.941827"><ele>2089.8</ele><time>2025-02-06T12:47:24Z</time></trkpt>
<trkpt lat="38.931084" lon="-119.941818"><ele>2089.0</ele><time>2025-02-06T12:47:43Z</time></trkpt>
<trkpt lat="38.931106" lon="-119.941821"><ele>2089.6</ele><time>2025-02-06T12:47:55Z</time></trkpt>
<trkpt lat="38.931090" lon="-119.941627"><ele>2093.4</ele><time>2025-02-06T12:48:26Z</time></trkpt>
<trkpt lat="38.931213" lon="-119.941415"><ele>2097.4</ele><time>2025-02-06T12:48:54Z</time></trkpt>
<trkpt lat="38.931238" lon="-119.941319"><ele>2099.6</ele><time>2025-02-06T12:49:06Z</time></trkpt>
<trkpt lat="38.931230" lon="-119.940791"><ele>2109.8</ele><time>2025-02-06T12:50:09Z</time></trkpt>
<trkpt lat="38.931295" lon="-119.940412"><ele>2116.2</ele><time>2025-02-06T12:50:48Z</time></trkpt>
<trkpt lat="38.931472" lon="-119.939833"><ele>2126.8</ele><time>2025-02-06T12:52:00Z</time></trkpt>
<trkpt lat="38.931513" lon="-119.939470"><ele>2132.6</ele><time>2025-02-06T12:52:54Z</time></trkpt>
<trkpt lat="38.931787" lon="-119.938856"><ele>2144.6</ele><time>2025-02-06T12:54:20Z</time></trkpt>
<trkpt lat="38.931941" lon="-119.938673"><ele>2150.8</ele><time>2025-02-06T12:54:51Z</time></trkpt>
<trkpt lat="38.932044" lon="-119.938474"><ele>2152.6</ele><time>2025-02-06T12:55:22Z</time></trkpt>
<trkpt lat="38.932141" lon="-119.938244"><ele>2158.6</ele><time>2025-02-06T12:55:53Z</time></trkpt>
<trkpt lat="38.932322" lon="-119.938093"><ele>2162.0</ele><time>2025-02-06T12:56:22Z</time></trkpt>
<trkpt lat="38.932346" lon="-119.937984"><ele>2162.8</ele><time>2025-02-06T12:56:34Z</time></trkpt>
<trkpt lat="38.932462" lon="-119.937748"><ele>2165.8</ele><time>2025-02-06T12:57:11Z</time></trkpt>
<trkpt lat="38.932430" lon="-119.937727"><ele>2166.2</ele><time>2025-02-06T12:57:16Z</time></trkpt>
<trkpt lat="38.931982" lon="-119.937940"><ele>2173.0</ele><time>2025-02-06T12:58:12Z</time></trkpt>
<trkpt lat="38.931726" lon="-119.938125"><ele>2176.4</ele><time>2025-02-06T12:58:44Z</time></trkpt>
<trkpt lat="38.931331" lon="-119.938365"><ele>2177.8</ele><time>2025-02-06T12:59:29Z</time></trkpt>
<trkpt lat="38.930519" lon="-119.938801"><ele>2188.0</ele><time>2025-02-06T13:01:07Z</time></trkpt>
<trkpt lat="38.930234" lon="-119.939014"><ele>2193.4</ele><time>2025-02-06T13:01:55Z</time></trkpt>
<trkpt lat="38.929867" lon="-119.939365"><ele>2202.0</ele><time>2025-02-06T13:02:59Z</time></trkpt>
<trkpt lat="38.929774" lon="-119.939512"><ele>2205.4</ele><time>2025-02-06T13:03:19Z</time></trkpt>
<trkpt lat="38.929717" lon="-119.939761"><ele>2208.6</ele><time>2025-02-06T13:03:43Z</time></trkpt>
<trkpt lat="38.929620" lon="-119.939973"><ele>2210.0</ele><time>2025-02-06T13:04:02Z</time></trkpt>
<trkpt lat="38.929579" lon="-119.939932"><ele>2211.8</ele><time>2025-02-06T13:04:12Z</time></trkpt>
<trkpt lat="38.929595" lon="-119.939661"><ele>2215.8</ele><time>2025-02-06T13:04:41Z</time></trkpt>
<trkpt lat="38.929563" lon="-119.939441"><ele>2218.0</ele><time>2025-02-06T13:05:03Z</time></trkpt>
<trkpt lat="38.929752" lon="-119.938728"><ele>2224.6</ele><time>2025-02-06T13:06:10Z</time></trkpt>
<trkpt lat="38.930001" lon="-119.938245"><ele>2230.0</ele><time>2025-02-06T13:07:04Z</time></trkpt>
<trkpt lat="38.930539" lon="-119.937695"><ele>2239.8</ele><time>2025-02-06T13:08:37Z</time></trkpt>
<trkpt lat="38.930867" lon="-119.937238"><ele>2248.8</ele><time>2025-02-06T13:09:44Z</time></trkpt>
<trkpt lat="38.930999" lon="-119.937006"><ele>2253.8</ele><time>2025-02-06T13:10:20Z</time></trkpt>
<trkpt lat="38.931027" lon="-119.936865"><ele>2256.2</ele><time>2025-02-06T13:10:36Z</time></trkpt>
<trkpt lat="38.930994" lon="-119.936825"><ele>2257.4</ele><time>2025-02-06T13:10:44Z</time></trkpt>
<trkpt lat="38.930817" lon="-119.936899"><ele>2260.2</ele><time>2025-02-06T13:11:11Z</time></trkpt>
<trkpt lat="38.930209" lon="-119.937403"><ele>2266.6</ele><time>2025-02-06T13:12:39Z</time></trkpt>
<trkpt lat="38.929953" lon="-119.937490"><ele>2268.8</ele><time>2025-02-06T13:13:07Z</time></trkpt>
<trkpt lat="38.929626" lon="-119.937501"><ele>2272.6</ele><time>2025-02-06T13:13:48Z</time></trkpt>
<trkpt lat="38.929411" lon="-119.937621"><ele>2274.6</ele><time>2025-02-06T13:14:17Z</time></trkpt>
<trkpt lat="38.929278" lon="-119.937707"><ele>2275.6</ele><time>2025-02-06T13:14:29Z</time></trkpt>
<trkpt lat="38.928495" lon="-119.938436"><ele>2286.8</ele><time>2025-02-06T13:16:30Z</time></trkpt>
<trkpt lat="38.928322" lon="-119.938554"><ele>2290.6</ele><time>2025-02-06T13:16:55Z</time></trkpt>
<trkpt lat="38.928156" lon="-119.938577"><ele>2293.4</ele><time>2025-02-06T13:17:15Z</time></trkpt>
<trkpt lat="38.927966" lon="-119.938521"><ele>2295.0</ele><time>2025-02-06T13:17:36Z</time></trkpt>
<trkpt lat="38.927843" lon="-119.938436"><ele>2296.6</ele><time>2025-02-06T13:17:55Z</time></trkpt>
<trkpt lat="38.927307" lon="-119.937822"><ele>2305.8</ele><time>2025-02-06T13:19:33Z</time></trkpt>
<trkpt lat="38.926911" lon="-119.937455"><ele>2312.4</ele><time>2025-02-06T13:20:32Z</time></trkpt>
<trkpt lat="38.925875" lon="-119.936762"><ele>2333.6</ele><time>2025-02-06T13:23:25Z</time></trkpt>
<trkpt lat="38.925687" lon="-119.936572"><ele>2336.6</ele><time>2025-02-06T13:23:51Z</time></trkpt>
<trkpt lat="38.925598" lon="-119.936428"><ele>2337.6</ele><time>2025-02-06T13:24:06Z</time></trkpt>
<trkpt lat="38.925373" lon="-119.936170"><ele>2341.6</ele><time>2025-02-06T13:24:47Z</time></trkpt>
<trkpt lat="38.925181" lon="-119.935995"><ele>2343.0</ele><time>2025-02-06T13:25:16Z</time></trkpt>
<trkpt lat="38.924646" lon="-119.935907"><ele>2349.2</ele><time>2025-02-06T13:26:18Z</time></trkpt>
<trkpt lat="38.924546" lon="-119.935931"><ele>2350.8</ele><time>2025-02-06T13:26:32Z</time></trkpt>
<trkpt lat="38.924475" lon="-119.936091"><ele>2351.4</ele><time>2025-02-06T13:26:46Z</time></trkpt>
<trkpt lat="38.924429" lon="-119.936406"><ele>2351.6</ele><time>2025-02-06T13:27:09Z</time></trkpt>
<trkpt lat="38.924335" lon="-119.936606"><ele>2353.0</ele><time>2025-02-06T13:27:31Z</time></trkpt>
<trkpt lat="38.924190" lon="-119.936807"><ele>2354.4</ele><time>2025-02-06T13:27:56Z</time></trkpt>
<trkpt lat="38.923940" lon="-119.937292"><ele>2358.8</ele><time>2025-02-06T13:28:49Z</time></trkpt>
<trkpt lat="38.923800" lon="-119.937331"><ele>2361.2</ele><time>2025-02-06T13:29:10Z</time></trkpt>
<trkpt lat="38.923819" lon="-119.937235"><ele>2361.8</ele><time>2025-02-06T13:29:22Z</time></trkpt>
<trkpt lat="38.924300" lon="-119.936310"><ele>2362.6</ele><time>2025-02-06T13:30:50Z</time></trkpt>
<trkpt lat="38.924303" lon="-119.936163"><ele>2363.4</ele><time>2025-02-06T13:31:01Z</time></trkpt>
<trkpt lat="38.924256" lon="-119.935953"><ele>2363.8</ele><time>2025-02-06T13:31:19Z</time></trkpt>
<trkpt lat="38.924152" lon="-119.935652"><ele>2367.2</ele><time>2025-02-06T13:31:52Z</time></trkpt>
<trkpt lat="38.924103" lon="-119.935663"><ele>2368.6</ele><time>2025-02-06T13:31:59Z</time></trkpt>
<trkpt lat="38.924073" lon="-119.935748"><ele>2370.0</ele><time>2025-02-06T13:32:10Z</time></trkpt>
<trkpt lat="38.924081" lon="-119.936113"><ele>2374.0</ele><time>2025-02-06T13:32:45Z</time></trkpt>
<trkpt lat="38.924035" lon="-119.936315"><ele>2376.0</ele><time>2025-02-06T13:33:05Z</time></trkpt>
<trkpt lat="38.923834" lon="-119.936556"><ele>2380.2</ele><time>2025-02-06T13:33:44Z</time></trkpt>
<trkpt lat="38.923747" lon="-119.936597"><ele>2381.0</ele><time>2025-02-06T13:33:54Z</time></trkpt>
<trkpt lat="38.923363" lon="-119.936597"><ele>2385.4</ele><time>2025-02-06T13:34:40Z</time></trkpt>
<trkpt lat="38.923290" lon="-119.936569"><ele>2386.4</ele><time>2025-02-06T13:34:50Z</time></trkpt>
<trkpt lat="38.923187" lon="-119.936469"><ele>2388.2</ele><time>2025-02-06T13:35:06Z</time></trkpt>
<trkpt lat="38.923063" lon="-119.936264"><ele>2389.8</ele><time>2025-02-06T13:35:34Z</time></trkpt>
<trkpt lat="38.922787" lon="-119.936129"><ele>2395.2</ele><time>2025-02-06T13:36:16Z</time></trkpt>
<trkpt lat="38.922738" lon="-119.935952"><ele>2399.6</ele><time>2025-02-06T13:36:42Z</time></trkpt>
<trkpt lat="38.922747" lon="-119.935769"><ele>2401.8</ele><time>2025-02-06T13:37:01Z</time></trkpt>
<trkpt lat="38.922793" lon="-119.935702"><ele>2401.8</ele><time>2025-02-06T13:37:30Z</time></trkpt>
<trkpt lat="38.922788" lon="-119.935736"><ele>2401.8</ele><time>2025-02-06T13:37:41Z</time></trkpt>
<trkpt lat="38.922780" lon="-119.935683"><ele>2401.6</ele><time>2025-02-06T13:38:44Z</time></trkpt>
<trkpt lat="38.923016" lon="-119.935394"><ele>2406.2</ele><time>2025-02-06T13:39:26Z</time></trkpt>
<trkpt lat="38.923454" lon="-119.934716"><ele>2413.0</ele><time>2025-02-06T13:40:51Z</time></trkpt>
<trkpt lat="38.923426" lon="-119.934633"><ele>2413.6</ele><time>2025-02-06T13:41:01Z</time></trkpt>
<trkpt lat="38.923383" lon="-119.934647"><ele>2414.4</ele><time>2025-02-06T13:41:09Z</time></trkpt>
<trkpt lat="38.923074" lon="-119.934852"><ele>2417.8</ele><time>2025-02-06T13:41:47Z</time></trkpt>
<trkpt lat="38.922872" lon="-119.934933"><ele>2420.2</ele><time>2025-02-06T13:42:14Z</time></trkpt>
<trkpt lat="38.922800" lon="-119.934925"><ele>2421.0</ele><time>2025-02-06T13:42:25Z</time></trkpt>
<trkpt lat="38.922712" lon="-119.934835"><ele>2423.0</ele><time>2025-02-06T13:42:42Z</time></trkpt>
<trkpt lat="38.922699" lon="-119.934666"><ele>2425.8</ele><time>2025-02-06T13:43:01Z</time></trkpt>
<trkpt lat="38.922783" lon="-119.934212"><ele>2428.2</ele><time>2025-02-06T13:43:40Z</time></trkpt>
<trkpt lat="38.922774" lon="-119.933933"><ele>2428.8</ele><time>2025-02-06T13:44:03Z</time></trkpt>
<trkpt lat="38.922625" lon="-119.933342"><ele>2432.2</ele><time>2025-02-06T13:44:54Z</time></trkpt>
<trkpt lat="38.922373" lon="-119.932820"><ele>2435.0</ele><time>2025-02-06T13:45:46Z</time></trkpt>
<trkpt lat="38.922350" lon="-119.932605"><ele>2435.8</ele><time>2025-02-06T13:46:03Z</time></trkpt>
<trkpt lat="38.922388" lon="-119.932417"><ele>2437.0</ele><time>2025-02-06T13:46:18Z</time></trkpt>
<trkpt lat="38.922456" lon="-119.932233"><ele>2438.0</ele><time>2025-02-06T13:46:34Z</time></trkpt>
<trkpt lat="38.922612" lon="-119.931996"><ele>2439.6</ele><time>2025-02-06T13:46:59Z</time></trkpt>
<trkpt lat="38.922878" lon="-119.931776"><ele>2443.2</ele><time>2025-02-06T13:47:28Z</time></trkpt>
<trkpt lat="38.923456" lon="-119.931110"><ele>2446.4</ele><time>2025-02-06T13:48:47Z</time></trkpt>
<trkpt lat="38.924003" lon="-119.930648"><ele>2451.0</ele><time>2025-02-06T13:49:53Z</time></trkpt>
<trkpt lat="38.924123" lon="-119.930427"><ele>2451.4</ele><time>2025-02-06T13:50:14Z</time></trkpt>
<trkpt lat="38.924144" lon="-119.930223"><ele>2451.6</ele><time>2025-02-06T13:50:30Z</time></trkpt>
<trkpt lat="38.924098" lon="-119.929623"><ele>2453.4</ele><time>2025-02-06T13:51:17Z</time></trkpt>
<trkpt lat="38.924162" lon="-119.929345"><ele>2457.0</ele><time>2025-02-06T13:51:40Z</time></trkpt>
<trkpt lat="38.924306" lon="-119.929121"><ele>2457.8</ele><time>2025-02-06T13:52:04Z</time></trkpt>
<trkpt lat="38.924529" lon="-119.928922"><ele>2458.4</ele><time>2025-02-06T13:52:32Z</time></trkpt>
<trkpt lat="38.924733" lon="-119.928599"><ele>2458.8</ele><time>2025-02-06T13:53:03Z</time></trkpt>
<trkpt lat="38.924778" lon="-119.928283"><ele>2458.4</ele><time>2025-02-06T13:53:23Z</time></trkpt>
<trkpt lat="38.924785" lon="-119.927766"><ele>2459.0</ele><time>2025-02-06T13:53:59Z</time></trkpt>
<trkpt lat="38.924972" lon="-119.927021"><ele>2464.0</ele><time>2025-02-06T13:54:58Z</time></trkpt>
<trkpt lat="38.925079" lon="-119.926717"><ele>2465.2</ele><time>2025-02-06T13:55:27Z</time></trkpt>
<trkpt lat="38.925097" lon="-119.926472"><ele>2468.4</ele><time>2025-02-06T13:55:55Z</time></trkpt>
<trkpt lat="38.925066" lon="-119.926282"><ele>2471.4</ele><time>2025-02-06T13:56:19Z</time></trkpt>
<trkpt lat="38.925137" lon="-119.925999"><ele>2475.4</ele><time>2025-02-06T13:56:52Z</time></trkpt>
<trkpt lat="38.925125" lon="-119.925762"><ele>2478.4</ele><time>2025-02-06T13:57:31Z</time></trkpt>
<trkpt lat="38.925184" lon="-119.925384"><ele>2481.2</ele><time>2025-02-06T13:58:15Z</time></trkpt>
<trkpt lat="38.925324" lon="-119.924791"><ele>2486.8</ele><time>2025-02-06T13:59:19Z</time></trkpt>
<trkpt lat="38.925525" lon="-119.924377"><ele>2490.0</ele><time>2025-02-06T14:00:19Z</time></trkpt>
<trkpt lat="38.925630" lon="-119.924159"><ele>2497.4</ele><time>2025-02-06T14:00:52Z</time></trkpt>
<trkpt lat="38.926024" lon="-119.923459"><ele>2513.0</ele><time>2025-02-06T14:02:59Z</time></trkpt>
<trkpt lat="38.926258" lon="-119.922908"><ele>2524.4</ele><time>2025-02-06T14:04:50Z</time></trkpt>
<trkpt lat="38.926453" lon="-119.922356"><ele>2539.2</ele><time>2025-02-06T14:06:31Z</time></trkpt>
<trkpt lat="38.926663" lon="-119.921657"><ele>2550.8</ele><time>2025-02-06T14:08:12Z</time></trkpt>
<trkpt lat="38.926814" lon="-119.921323"><ele>2558.0</ele><time>2025-02-06T14:09:10Z</time></trkpt>
<trkpt lat="38.926882" lon="-119.920782"><ele>2566.8</ele><time>2025-02-06T14:10:13Z</time></trkpt>
<trkpt lat="38.926861" lon="-119.920648"><ele>2569.0</ele><time>2025-02-06T14:10:48Z</time></trkpt>
<trkpt lat="38.926463" lon="-119.919944"><ele>2583.2</ele><time>2025-02-06T14:12:36Z</time></trkpt>
<trkpt lat="38.925911" lon="-119.919482"><ele>2591.2</ele><time>2025-02-06T14:13:54Z</time></trkpt>
<trkpt lat="38.925801" lon="-119.919343"><ele>2592.8</ele><time>2025-02-06T14:14:14Z</time></trkpt>
<trkpt lat="38.925716" lon="-119.919311"><ele>2594.8</ele><time>2025-02-06T14:14:30Z</time></trkpt>
<trkpt lat="38.925652" lon="-119.919218"><ele>2596.0</ele><time>2025-02-06T14:14:45Z</time></trkpt>
<trkpt lat="38.925455" lon="-119.919070"><ele>2598.4</ele><time>2025-02-06T14:15:11Z</time></trkpt>
<trkpt lat="38.925243" lon="-119.918792"><ele>2601.4</ele><time>2025-02-06T14:15:47Z</time></trkpt>
<trkpt lat="38.924838" lon="-119.918455"><ele>2607.6</ele><time>2025-02-06T14:16:44Z</time></trkpt>
<trkpt lat="38.924552" lon="-119.918282"><ele>2611.6</ele><time>2025-02-06T14:17:22Z</time></trkpt>
<trkpt lat="38.924260" lon="-119.918188"><ele>2616.6</ele><time>2025-02-06T14:18:01Z</time></trkpt>
<trkpt lat="38.923857" lon="-119.918136"><ele>2621.4</ele><time>2025-02-06T14:18:55Z</time></trkpt>
<trkpt lat="38.923468" lon="-119.918217"><ele>2626.6</ele><time>2025-02-06T14:19:47Z</time></trkpt>
<trkpt lat="38.923183" lon="-119.918226"><ele>2631.8</ele><time>2025-02-06T14:20:23Z</time></trkpt>
<trkpt lat="38.922630" lon="-119.918317"><ele>2639.4</ele><time>2025-02-06T14:21:37Z</time></trkpt>
<trkpt lat="38.921947" lon="-119.918278"><ele>2649.8</ele><time>2025-02-06T14:23:17Z</time></trkpt>
<trkpt lat="38.921600" lon="-119.918402"><ele>2654.8</ele><time>2025-02-06T14:24:06Z</time></trkpt>
<trkpt lat="38.921510" lon="-119.918406"><ele>2657.4</ele><time>2025-02-06T14:24:23Z</time></trkpt>
<trkpt lat="38.921327" lon="-119.918371"><ele>2662.0</ele><time>2025-02-06T14:25:09Z</time></trkpt>
<trkpt lat="38.921094" lon="-119.918159"><ele>2665.4</ele><time>2025-02-06T14:26:18Z</time></trkpt>
<trkpt lat="38.920930" lon="-119.917967"><ele>2667.4</ele><time>2025-02-06T14:26:47Z</time></trkpt>
<trkpt lat="38.920878" lon="-119.917945"><ele>2668.4</ele><time>2025-02-06T14:26:57Z</time></trkpt>
<trkpt lat="38.920567" lon="-119.917314"><ele>2674.6</ele><time>2025-02-06T14:28:05Z</time></trkpt>
<trkpt lat="38.920138" lon="-119.917070"><ele>2680.0</ele><time>2025-02-06T14:28:56Z</time></trkpt>
<trkpt lat="38.920045" lon="-119.916961"><ele>2681.0</ele><time>2025-02-06T14:29:10Z</time></trkpt>
<trkpt lat="38.920013" lon="-119.916855"><ele>2682.4</ele><time>2025-02-06T14:29:22Z</time></trkpt>
<trkpt lat="38.920062" lon="-119.916639"><ele>2686.2</ele><time>2025-02-06T14:29:50Z</time></trkpt>
<trkpt lat="38.920454" lon="-119.916305"><ele>2693.8</ele><time>2025-02-06T14:30:49Z</time></trkpt>
<trkpt lat="38.920664" lon="-119.916022"><ele>2696.2</ele><time>2025-02-06T14:31:37Z</time></trkpt>
<trkpt lat="38.920739" lon="-119.915775"><ele>2697.6</ele><time>2025-02-06T14:31:55Z</time></trkpt>
<trkpt lat="38.920802" lon="-119.915368"><ele>2700.4</ele><time>2025-02-06T14:32:27Z</time></trkpt>
<trkpt lat="38.920805" lon="-119.915221"><ele>2700.6</ele><time>2025-02-06T14:32:40Z</time></trkpt>
<trkpt lat="38.920754" lon="-119.914976"><ele>2704.0</ele><time>2025-02-06T14:33:17Z</time></trkpt>
<trkpt lat="38.920690" lon="-119.914869"><ele>2708.0</ele><time>2025-02-06T14:33:34Z</time></trkpt>
<trkpt lat="38.920530" lon="-119.914718"><ele>2711.6</ele><time>2025-02-06T14:34:12Z</time></trkpt>
<trkpt lat="38.920190" lon="-119.914471"><ele>2723.0</ele><time>2025-02-06T14:35:50Z</time></trkpt>
<trkpt lat="38.919702" lon="-119.913765"><ele>2742.2</ele><time>2025-02-06T14:38:16Z</time></trkpt>
<trkpt lat="38.919453" lon="-119.913033"><ele>2752.2</ele><time>2025-02-06T14:39:57Z</time></trkpt>
<trkpt lat="38.919433" lon="-119.912939"><ele>2755.6</ele><time>2025-02-06T14:40:09Z</time></trkpt>
<trkpt lat="38.919378" lon="-119.912572"><ele>2763.6</ele><time>2025-02-06T14:40:54Z</time></trkpt>
<trkpt lat="38.919324" lon="-119.912124"><ele>2767.8</ele><time>2025-02-06T14:41:51Z</time></trkpt>
<trkpt lat="38.919338" lon="-119.911921"><ele>2770.6</ele><time>2025-02-06T14:42:31Z</time></trkpt>
<trkpt lat="38.919264" lon="-119.911590"><ele>2773.4</ele><time>2025-02-06T14:43:12Z</time></trkpt>
<trkpt lat="38.919153" lon="-119.911475"><ele>2779.0</ele><time>2025-02-06T14:43:43Z</time></trkpt>
<trkpt lat="38.919023" lon="-119.911307"><ele>2779.6</ele><time>2025-02-06T14:44:09Z</time></trkpt>
<trkpt lat="38.918969" lon="-119.911154"><ele>2781.2</ele><time>2025-02-06T14:44:28Z</time></trkpt>
<trkpt lat="38.918868" lon="-119.911099"><ele>2782.8</ele><time>2025-02-06T14:44:45Z</time></trkpt>
<trkpt lat="38.918799" lon="-119.911003"><ele>2785.6</ele><time>2025-02-06T14:45:02Z</time></trkpt>
<trkpt lat="38.918741" lon="-119.910988"><ele>2787.6</ele><time>2025-02-06T14:45:17Z</time></trkpt>
<trkpt lat="38.918741" lon="-119.910911"><ele>2784.4</ele><time>2025-02-06T14:45:44Z</time></trkpt>
<trkpt lat="38.918747" lon="-119.910889"><ele>2788.6</ele><time>2025-02-06T14:46:08Z</time></trkpt>
<trkpt lat="38.918758" lon="-119.910865"><ele>2787.2</ele><time>2025-02-06T14:46:22Z</time></trkpt>
<trkpt lat="38.918722" lon="-119.910767"><ele>2788.8</ele><time>2025-02-06T14:46:42Z</time></trkpt>
<trkpt lat="38.918552" lon="-119.910690"><ele>2789.4</ele><time>2025-02-06T14:47:11Z</time></trkpt>
<trkpt lat="38.918455" lon="-119.910535"><ele>2796.8</ele><time>2025-02-06T14:47:40Z</time></trkpt>
<trkpt lat="38.918370" lon="-119.910668"><ele>2796.2</ele><time>2025-02-06T14:48:05Z</time></trkpt>
<trkpt lat="38.918318" lon="-119.910754"><ele>2800.6</ele><time>2025-02-06T14:48:18Z</time></trkpt>
<trkpt lat="38.918285" lon="-119.910845"><ele>2801.0</ele><time>2025-02-06T14:48:33Z</time></trkpt>
<trkpt lat="38.918219" lon="-119.910907"><ele>2803.6</ele><time>2025-02-06T14:48:51Z</time></trkpt>
<trkpt lat="38.918061" lon="-119.910804"><ele>2812.0</ele><time>2025-02-06T14:49:22Z</time></trkpt>
<trkpt lat="38.917764" lon="-119.910464"><ele>2815.6</ele><time>2025-02-06T14:50:17Z</time></trkpt>
<trkpt lat="38.917637" lon="-119.910257"><ele>2818.6</ele><time>2025-02-06T14:50:47Z</time></trkpt>
<trkpt lat="38.917581" lon="-119.910262"><ele>2819.4</ele><time>2025-02-06T14:50:56Z</time></trkpt>
<trkpt lat="38.917351" lon="-119.910484"><ele>2829.4</ele><time>2025-02-06T14:51:54Z</time></trkpt>
<trkpt lat="38.917125" lon="-119.910482"><ele>2836.8</ele><time>2025-02-06T14:52:42Z</time></trkpt>
<trkpt lat="38.916997" lon="-119.910416"><ele>2837.6</ele><time>2025-02-06T14:53:08Z</time></trkpt>
<trkpt lat="38.916781" lon="-119.910550"><ele>2847.4</ele><time>2025-02-06T14:53:53Z</time></trkpt>
<trkpt lat="38.916740" lon="-119.910878"><ele>2852.8</ele><time>2025-02-06T14:54:39Z</time></trkpt>
<trkpt lat="38.916714" lon="-119.910923"><ele>2854.8</ele><time>2025-02-06T14:54:57Z</time></trkpt>
<trkpt lat="38.916725" lon="-119.910904"><ele>2855.2</ele><time>2025-02-06T14:55:06Z</time></trkpt>
<trkpt lat="38.916644" lon="-119.910883"><ele>2855.0</ele><time>2025-02-06T14:55:49Z</time></trkpt>
<trkpt lat="38.916530" lon="-119.910847"><ele>2862.0</ele><time>2025-02-06T14:56:07Z</time></trkpt>
<trkpt lat="38.916290" lon="-119.910747"><ele>2862.6</ele><time>2025-02-06T14:56:45Z</time></trkpt>
<trkpt lat="38.916135" lon="-119.910643"><ele>2868.2</ele><time>2025-02-06T14:57:14Z</time></trkpt>
<trkpt lat="38.915634" lon="-119.910503"><ele>2879.0</ele><time>2025-02-06T14:58:31Z</time></trkpt>
<trkpt lat="38.915313" lon="-119.910284"><ele>2882.4</ele><time>2025-02-06T14:59:45Z</time></trkpt>
<trkpt lat="38.914939" lon="-119.909982"><ele>2894.6</ele><time>2025-02-06T15:01:35Z</time></trkpt>
<trkpt lat="38.914872" lon="-119.909957"><ele>2897.8</ele><time>2025-02-06T15:01:52Z</time></trkpt>
<trkpt lat="38.914713" lon="-119.909769"><ele>2905.4</ele><time>2025-02-06T15:02:36Z</time></trkpt>
<trkpt lat="38.914624" lon="-119.909692"><ele>2906.4</ele><time>2025-02-06T15:02:50Z</time></trkpt>
<trkpt lat="38.914465" lon="-119.909626"><ele>2911.6</ele><time>2025-02-06T15:03:14Z</time></trkpt>
<trkpt lat="38.913947" lon="-119.909540"><ele>2924.2</ele><time>2025-02-06T15:04:27Z</time></trkpt>
<trkpt lat="38.913820" lon="-119.909392"><ele>2927.8</ele><time>2025-02-06T15:05:01Z</time></trkpt>
<trkpt lat="38.913728" lon="-119.909196"><ele>2927.4</ele><time>2025-02-06T15:05:27Z</time></trkpt>
<trkpt lat="38.913684" lon="-119.908934"><ele>2931.2</ele><time>2025-02-06T15:05:48Z</time></trkpt>
<trkpt lat="38.913689" lon="-119.908851"><ele>2931.8</ele><time>2025-02-06T15:05:56Z</time></trkpt>
<trkpt lat="38.913747" lon="-119.908756"><ele>2932.6</ele><time>2025-02-06T15:06:21Z</time></trkpt>
<trkpt lat="38.913735" lon="-119.908753"><ele>2935.6</ele><time>2025-02-06T15:07:29Z</time></trkpt>
<trkpt lat="38.913731" lon="-119.908750"><ele>2931.8</ele><time>2025-02-06T15:07:42Z</time></trkpt>
<trkpt lat="38.913759" lon="-119.908757"><ele>2931.0</ele><time>2025-02-06T15:09:40Z</time></trkpt>
<trkpt lat="38.913731" lon="-119.908757"><ele>2930.8</ele><time>2025-02-06T15:09:57Z</time></trkpt>
<trkpt lat="38.913748" lon="-119.908779"><ele>2934.0</ele><time>2025-02-06T15:10:18Z</time></trkpt>
<trkpt lat="38.913742" lon="-119.908768"><ele>2930.6</ele><time>2025-02-06T15:10:37Z</time></trkpt>
<trkpt lat="38.913741" lon="-119.908771"><ele>2934.4</ele><time>2025-02-06T15:11:45Z</time></trkpt>
<trkpt lat="38.913738" lon="-119.908769"><ele>2931.0</ele><time>2025-02-06T15:12:06Z</time></trkpt>
<trkpt lat="38.913734" lon="-119.908779"><ele>2933.4</ele><time>2025-02-06T15:12:18Z</time></trkpt>
<trkpt lat="38.913722" lon="-119.908739"><ele>2932.4</ele><time>2025-02-06T15:12:33Z</time></trkpt>
<trkpt lat="38.913736" lon="-119.908766"><ele>2932.0</ele><time>2025-02-06T15:12:48Z</time></trkpt>
<trkpt lat="38.913735" lon="-119.908759"><ele>2928.6</ele><time>2025-02-06T15:12:52Z</time></trkpt>
<trkpt lat="38.913743" lon="-119.908756"><ele>2934.0</ele><time>2025-02-06T15:13:46Z</time></trkpt>
<trkpt lat="38.913735" lon="-119.908752"><ele>2932.0</ele><time>2025-02-06T15:14:43Z</time></trkpt>
<trkpt lat="38.913757" lon="-119.908772"><ele>2931.8</ele><time>2025-02-06T15:14:59Z</time></trkpt>
<trkpt lat="38.913731" lon="-119.908761"><ele>2932.8</ele><time>2025-02-06T15:15:09Z</time></trkpt>
<trkpt lat="38.913708" lon="-119.908945"><ele>2932.4</ele><time>2025-02-06T15:15:18Z</time></trkpt>
<trkpt lat="38.913738" lon="-119.909357"><ele>2932.0</ele><time>2025-02-06T15:15:24Z</time></trkpt>
<trkpt lat="38.913882" lon="-119.909652"><ele>2931.0</ele><time>2025-02-06T15:15:29Z</time></trkpt>
<trkpt lat="38.914330" lon="-119.910204"><ele>2925.4</ele><time>2025-02-06T15:15:38Z</time></trkpt>
<trkpt lat="38.914461" lon="-119.910279"><ele>2923.6</ele><time>2025-02-06T15:15:40Z</time></trkpt>
<trkpt lat="38.914673" lon="-119.910525"><ele>2920.0</ele><time>2025-02-06T15:15:44Z</time></trkpt>
<trkpt lat="38.914927" lon="-119.911211"><ele>2911.0</ele><time>2025-02-06T15:15:51Z</time></trkpt>
<trkpt lat="38.915244" lon="-119.911463"><ele>2904.0</ele><time>2025-02-06T15:15:55Z</time></trkpt>
<trkpt lat="38.915432" lon="-119.911504"><ele>2901.6</ele><time>2025-02-06T15:15:57Z</time></trkpt>
<trkpt lat="38.915604" lon="-119.911624"><ele>2898.2</ele><time>2025-02-06T15:15:59Z</time></trkpt>
<trkpt lat="38.915777" lon="-119.911679"><ele>2896.6</ele><time>2025-02-06T15:16:01Z</time></trkpt>
<trkpt lat="38.915954" lon="-119.911789"><ele>2893.2</ele><time>2025-02-06T15:16:03Z</time></trkpt>
<trkpt lat="38.916227" lon="-119.911819"><ele>2889.0</ele><time>2025-02-06T15:16:06Z</time></trkpt>
<trkpt lat="38.916662" lon="-119.912025"><ele>2878.0</ele><time>2025-02-06T15:16:12Z</time></trkpt>
<trkpt lat="38.916867" lon="-119.912158"><ele>2873.0</ele><time>2025-02-06T15:16:15Z</time></trkpt>
<trkpt lat="38.917122" lon="-119.912404"><ele>2862.8</ele><time>2025-02-06T15:16:19Z</time></trkpt>
<trkpt lat="38.917203" lon="-119.912595"><ele>2860.0</ele><time>2025-02-06T15:16:21Z</time></trkpt>
<trkpt lat="38.917330" lon="-119.912738"><ele>2852.4</ele><time>2025-02-06T15:16:23Z</time></trkpt>
<trkpt lat="38.917371" lon="-119.912853"><ele>2851.6</ele><time>2025-02-06T15:16:24Z</time></trkpt>
<trkpt lat="38.917531" lon="-119.913091"><ele>2842.0</ele><time>2025-02-06T15:16:27Z</time></trkpt>
<trkpt lat="38.917558" lon="-119.913168"><ele>2841.0</ele><time>2025-02-06T15:16:28Z</time></trkpt>
<trkpt lat="38.917608" lon="-119.913203"><ele>2838.6</ele><time>2025-02-06T15:16:29Z</time></trkpt>
<trkpt lat="38.917681" lon="-119.913141"><ele>2832.6</ele><time>2025-02-06T15:16:32Z</time></trkpt>
<trkpt lat="38.917730" lon="-119.913159"><ele>2831.4</ele><time>2025-02-06T15:16:35Z</time></trkpt>
<trkpt lat="38.917755" lon="-119.913108"><ele>2826.0</ele><time>2025-02-06T15:17:00Z</time></trkpt>
<trkpt lat="38.917793" lon="-119.913276"><ele>2823.6</ele><time>2025-02-06T15:17:17Z</time></trkpt>
<trkpt lat="38.917979" lon="-119.913330"><ele>2821.6</ele><time>2025-02-06T15:17:20Z</time></trkpt>
<trkpt lat="38.918111" lon="-119.913527"><ele>2817.2</ele><time>2025-02-06T15:17:23Z</time></trkpt>
<trkpt lat="38.918237" lon="-119.913894"><ele>2809.6</ele><time>2025-02-06T15:17:27Z</time></trkpt>
<trkpt lat="38.918135" lon="-119.914148"><ele>2803.8</ele><time>2025-02-06T15:17:30Z</time></trkpt>
<trkpt lat="38.918092" lon="-119.914382"><ele>2798.4</ele><time>2025-02-06T15:17:33Z</time></trkpt>
<trkpt lat="38.918096" lon="-119.914872"><ele>2789.4</ele><time>2025-02-06T15:17:38Z</time></trkpt>
<trkpt lat="38.918048" lon="-119.915298"><ele>2782.0</ele><time>2025-02-06T15:17:41Z</time></trkpt>
<trkpt lat="38.918008" lon="-119.915457"><ele>2774.8</ele><time>2025-02-06T15:17:42Z</time></trkpt>
<trkpt lat="38.917918" lon="-119.915964"><ele>2765.8</ele><time>2025-02-06T15:17:45Z</time></trkpt>
<trkpt lat="38.917909" lon="-119.916473"><ele>2755.8</ele><time>2025-02-06T15:17:48Z</time></trkpt>
<trkpt lat="38.917943" lon="-119.916621"><ele>2754.0</ele><time>2025-02-06T15:17:49Z</time></trkpt>
<trkpt lat="38.918190" lon="-119.917086"><ele>2750.0</ele><time>2025-02-06T15:17:53Z</time></trkpt>
<trkpt lat="38.918404" lon="-119.917358"><ele>2746.0</ele><time>2025-02-06T15:17:56Z</time></trkpt>
<trkpt lat="38.918585" lon="-119.917467"><ele>2745.2</ele><time>2025-02-06T15:17:58Z</time></trkpt>
<trkpt lat="38.918786" lon="-119.917750"><ele>2742.2</ele><time>2025-02-06T15:18:01Z</time></trkpt>
<trkpt lat="38.919459" lon="-119.918365"><ele>2730.4</ele><time>2025-02-06T15:18:10Z</time></trkpt>
<trkpt lat="38.919577" lon="-119.918589"><ele>2727.4</ele><time>2025-02-06T15:18:12Z</time></trkpt>
<trkpt lat="38.919661" lon="-119.918679"><ele>2725.4</ele><time>2025-02-06T15:18:13Z</time></trkpt>
<trkpt lat="38.919826" lon="-119.918722"><ele>2721.0</ele><time>2025-02-06T15:18:15Z</time></trkpt>
<trkpt lat="38.920023" lon="-119.918865"><ele>2718.0</ele><time>2025-02-06T15:18:17Z</time></trkpt>
<trkpt lat="38.920412" lon="-119.919003"><ele>2709.0</ele><time>2025-02-06T15:18:21Z</time></trkpt>
<trkpt lat="38.920816" lon="-119.919109"><ele>2694.8</ele><time>2025-02-06T15:18:27Z</time></trkpt>
<trkpt lat="38.920983" lon="-119.919113"><ele>2690.2</ele><time>2025-02-06T15:18:30Z</time></trkpt>
<trkpt lat="38.921131" lon="-119.919060"><ele>2688.0</ele><time>2025-02-06T15:18:32Z</time></trkpt>
<trkpt lat="38.921434" lon="-119.919045"><ele>2682.4</ele><time>2025-02-06T15:18:35Z</time></trkpt>
<trkpt lat="38.921871" lon="-119.918858"><ele>2668.8</ele><time>2025-02-06T15:18:39Z</time></trkpt>
<trkpt lat="38.922070" lon="-119.918812"><ele>2666.2</ele><time>2025-02-06T15:18:41Z</time></trkpt>
<trkpt lat="38.922300" lon="-119.918654"><ele>2663.8</ele><time>2025-02-06T15:18:44Z</time></trkpt>
<trkpt lat="38.922459" lon="-119.918629"><ele>2662.6</ele><time>2025-02-06T15:18:46Z</time></trkpt>
<trkpt lat="38.922598" lon="-119.918497"><ele>2658.4</ele><time>2025-02-06T15:18:48Z</time></trkpt>
<trkpt lat="38.922890" lon="-119.918369"><ele>2653.4</ele><time>2025-02-06T15:18:51Z</time></trkpt>
<trkpt lat="38.923293" lon="-119.918346"><ele>2646.4</ele><time>2025-02-06T15:18:55Z</time></trkpt>
<trkpt lat="38.923795" lon="-119.918264"><ele>2641.0</ele><time>2025-02-06T15:19:00Z</time></trkpt>
<trkpt lat="38.924003" lon="-119.918282"><ele>2635.0</ele><time>2025-02-06T15:19:02Z</time></trkpt>
<trkpt lat="38.924199" lon="-119.918247"><ele>2633.2</ele><time>2025-02-06T15:19:04Z</time></trkpt>
<trkpt lat="38.924306" lon="-119.918257"><ele>2630.4</ele><time>2025-02-06T15:19:05Z</time></trkpt>
<trkpt lat="38.924696" lon="-119.918446"><ele>2624.4</ele><time>2025-02-06T15:19:09Z</time></trkpt>
<trkpt lat="38.924785" lon="-119.918538"><ele>2623.0</ele><time>2025-02-06T15:19:10Z</time></trkpt>
<trkpt lat="38.925063" lon="-119.918693"><ele>2619.2</ele><time>2025-02-06T15:19:13Z</time></trkpt>
<trkpt lat="38.925151" lon="-119.918786"><ele>2617.8</ele><time>2025-02-06T15:19:14Z</time></trkpt>
<trkpt lat="38.925326" lon="-119.918890"><ele>2615.0</ele><time>2025-02-06T15:19:16Z</time></trkpt>
<trkpt lat="38.925481" lon="-119.919047"><ele>2612.0</ele><time>2025-02-06T15:19:18Z</time></trkpt>
<trkpt lat="38.925649" lon="-119.919097"><ele>2609.0</ele><time>2025-02-06T15:19:20Z</time></trkpt>
<trkpt lat="38.926015" lon="-119.919346"><ele>2604.8</ele><time>2025-02-06T15:19:25Z</time></trkpt>
<trkpt lat="38.926320" lon="-119.919610"><ele>2601.2</ele><time>2025-02-06T15:19:30Z</time></trkpt>
<trkpt lat="38.926419" lon="-119.919772"><ele>2600.0</ele><time>2025-02-06T15:19:32Z</time></trkpt>
<trkpt lat="38.926898" lon="-119.920335"><ele>2588.8</ele><time>2025-02-06T15:19:39Z</time></trkpt>
<trkpt lat="38.926948" lon="-119.920552"><ele>2586.2</ele><time>2025-02-06T15:19:41Z</time></trkpt>
<trkpt lat="38.926920" lon="-119.920906"><ele>2582.4</ele><time>2025-02-06T15:19:44Z</time></trkpt>
<trkpt lat="38.926899" lon="-119.921011"><ele>2578.0</ele><time>2025-02-06T15:19:45Z</time></trkpt>
<trkpt lat="38.926858" lon="-119.921232"><ele>2576.2</ele><time>2025-02-06T15:19:47Z</time></trkpt>
<trkpt lat="38.926789" lon="-119.921435"><ele>2571.6</ele><time>2025-02-06T15:19:49Z</time></trkpt>
<trkpt lat="38.926393" lon="-119.922496"><ele>2552.4</ele><time>2025-02-06T15:20:00Z</time></trkpt>
<trkpt lat="38.926227" lon="-119.922970"><ele>2540.4</ele><time>2025-02-06T15:20:04Z</time></trkpt>
<trkpt lat="38.926181" lon="-119.923090"><ele>2534.4</ele><time>2025-02-06T15:20:05Z</time></trkpt>
<trkpt lat="38.926002" lon="-119.923473"><ele>2525.8</ele><time>2025-02-06T15:20:08Z</time></trkpt>
<trkpt lat="38.925645" lon="-119.924075"><ele>2509.8</ele><time>2025-02-06T15:20:12Z</time></trkpt>
<trkpt lat="38.925354" lon="-119.924749"><ele>2498.2</ele><time>2025-02-06T15:20:16Z</time></trkpt>
<trkpt lat="38.925199" lon="-119.925411"><ele>2492.0</ele><time>2025-02-06T15:20:20Z</time></trkpt>
<trkpt lat="38.925058" lon="-119.926227"><ele>2480.2</ele><time>2025-02-06T15:20:25Z</time></trkpt>
<trkpt lat="38.925049" lon="-119.926724"><ele>2472.4</ele><time>2025-02-06T15:20:28Z</time></trkpt>
<trkpt lat="38.924813" lon="-119.927618"><ele>2463.0</ele><time>2025-02-06T15:20:35Z</time></trkpt>
<trkpt lat="38.924779" lon="-119.928142"><ele>2461.0</ele><time>2025-02-06T15:20:43Z</time></trkpt>
<trkpt lat="38.924605" lon="-119.928706"><ele>2459.8</ele><time>2025-02-06T15:21:19Z</time></trkpt>
<trkpt lat="38.924470" lon="-119.928933"><ele>2459.4</ele><time>2025-02-06T15:21:33Z</time></trkpt>
<trkpt lat="38.924248" lon="-119.929180"><ele>2456.8</ele><time>2025-02-06T15:21:45Z</time></trkpt>
<trkpt lat="38.924132" lon="-119.929423"><ele>2454.4</ele><time>2025-02-06T15:21:52Z</time></trkpt>
<trkpt lat="38.924099" lon="-119.929712"><ele>2454.2</ele><time>2025-02-06T15:21:58Z</time></trkpt>
<trkpt lat="38.924137" lon="-119.930366"><ele>2451.6</ele><time>2025-02-06T15:22:13Z</time></trkpt>
<trkpt lat="38.924120" lon="-119.930451"><ele>2450.8</ele><time>2025-02-06T15:22:15Z</time></trkpt>
<trkpt lat="38.923988" lon="-119.930669"><ele>2449.6</ele><time>2025-02-06T15:22:21Z</time></trkpt>
<trkpt lat="38.923336" lon="-119.931223"><ele>2446.0</ele><time>2025-02-06T15:22:41Z</time></trkpt>
<trkpt lat="38.923098" lon="-119.931522"><ele>2441.8</ele><time>2025-02-06T15:22:50Z</time></trkpt>
<trkpt lat="38.922908" lon="-119.931746"><ele>2442.2</ele><time>2025-02-06T15:22:58Z</time></trkpt>
<trkpt lat="38.922593" lon="-119.932036"><ele>2440.4</ele><time>2025-02-06T15:23:10Z</time></trkpt>
<trkpt lat="38.922464" lon="-119.932215"><ele>2442.6</ele><time>2025-02-06T15:23:17Z</time></trkpt>
<trkpt lat="38.922376" lon="-119.932415"><ele>2441.2</ele><time>2025-02-06T15:23:23Z</time></trkpt>
<trkpt lat="38.922345" lon="-119.932559"><ele>2440.0</ele><time>2025-02-06T15:23:27Z</time></trkpt>
<trkpt lat="38.922355" lon="-119.932730"><ele>2439.0</ele><time>2025-02-06T15:23:32Z</time></trkpt>
<trkpt lat="38.922416" lon="-119.932944"><ele>2438.0</ele><time>2025-02-06T15:23:38Z</time></trkpt>
<trkpt lat="38.922532" lon="-119.933151"><ele>2436.6</ele><time>2025-02-06T15:23:45Z</time></trkpt>
<trkpt lat="38.922550" lon="-119.933178"><ele>2440.2</ele><time>2025-02-06T15:23:46Z</time></trkpt>
<trkpt lat="38.922642" lon="-119.933360"><ele>2438.4</ele><time>2025-02-06T15:23:51Z</time></trkpt>
<trkpt lat="38.922763" lon="-119.933967"><ele>2433.8</ele><time>2025-02-06T15:24:06Z</time></trkpt>
<trkpt lat="38.922768" lon="-119.934287"><ele>2429.0</ele><time>2025-02-06T15:24:14Z</time></trkpt>
<trkpt lat="38.922653" lon="-119.934729"><ele>2429.4</ele><time>2025-02-06T15:24:24Z</time></trkpt>
<trkpt lat="38.922660" lon="-119.934799"><ele>2429.4</ele><time>2025-02-06T15:24:25Z</time></trkpt>
<trkpt lat="38.922728" lon="-119.934911"><ele>2429.4</ele><time>2025-02-06T15:24:27Z</time></trkpt>
<trkpt lat="38.922860" lon="-119.934959"><ele>2428.4</ele><time>2025-02-06T15:24:29Z</time></trkpt>
<trkpt lat="38.923133" lon="-119.934840"><ele>2423.2</ele><time>2025-02-06T15:24:33Z</time></trkpt>
<trkpt lat="38.923239" lon="-119.934758"><ele>2422.4</ele><time>2025-02-06T15:24:35Z</time></trkpt>
<trkpt lat="38.923358" lon="-119.934576"><ele>2419.0</ele><time>2025-02-06T15:24:38Z</time></trkpt>
<trkpt lat="38.923415" lon="-119.934546"><ele>2418.6</ele><time>2025-02-06T15:24:39Z</time></trkpt>
<trkpt lat="38.923483" lon="-119.934650"><ele>2417.4</ele><time>2025-02-06T15:24:41Z</time></trkpt>
<trkpt lat="38.923463" lon="-119.934760"><ele>2415.8</ele><time>2025-02-06T15:24:43Z</time></trkpt>
<trkpt lat="38.923387" lon="-119.934885"><ele>2414.8</ele><time>2025-02-06T15:24:45Z</time></trkpt>
<trkpt lat="38.923205" lon="-119.935151"><ele>2413.4</ele><time>2025-02-06T15:24:49Z</time></trkpt>
<trkpt lat="38.923088" lon="-119.935268"><ele>2410.8</ele><time>2025-02-06T15:24:52Z</time></trkpt>
<trkpt lat="38.922957" lon="-119.935500"><ele>2409.0</ele><time>2025-02-06T15:24:56Z</time></trkpt>
<trkpt lat="38.922779" lon="-119.935687"><ele>2405.6</ele><time>2025-02-06T15:25:00Z</time></trkpt>
<trkpt lat="38.922699" lon="-119.935984"><ele>2402.4</ele><time>2025-02-06T15:25:04Z</time></trkpt>
<trkpt lat="38.922739" lon="-119.936190"><ele>2401.4</ele><time>2025-02-06T15:25:07Z</time></trkpt>
<trkpt lat="38.923028" lon="-119.936257"><ele>2399.2</ele><time>2025-02-06T15:25:12Z</time></trkpt>
<trkpt lat="38.923403" lon="-119.936617"><ele>2395.2</ele><time>2025-02-06T15:25:22Z</time></trkpt>
<trkpt lat="38.923631" lon="-119.936645"><ele>2390.6</ele><time>2025-02-06T15:25:27Z</time></trkpt>
<trkpt lat="38.923738" lon="-119.936626"><ele>2387.4</ele><time>2025-02-06T15:25:29Z</time></trkpt>
<trkpt lat="38.923831" lon="-119.936561"><ele>2386.2</ele><time>2025-02-06T15:25:31Z</time></trkpt>
<trkpt lat="38.924060" lon="-119.936271"><ele>2382.0</ele><time>2025-02-06T15:25:37Z</time></trkpt>
<trkpt lat="38.924095" lon="-119.936055"><ele>2379.4</ele><time>2025-02-06T15:25:40Z</time></trkpt>
<trkpt lat="38.924008" lon="-119.935667"><ele>2373.8</ele><time>2025-02-06T15:25:45Z</time></trkpt>
<trkpt lat="38.924001" lon="-119.935607"><ele>2373.4</ele><time>2025-02-06T15:25:46Z</time></trkpt>
<trkpt lat="38.924029" lon="-119.935589"><ele>2373.2</ele><time>2025-02-06T15:25:47Z</time></trkpt>
<trkpt lat="38.924271" lon="-119.935644"><ele>2370.4</ele><time>2025-02-06T15:25:52Z</time></trkpt>
<trkpt lat="38.924590" lon="-119.935863"><ele>2365.8</ele><time>2025-02-06T15:25:56Z</time></trkpt>
<trkpt lat="38.924830" lon="-119.935945"><ele>2356.2</ele><time>2025-02-06T15:25:58Z</time></trkpt>
<trkpt lat="38.925178" lon="-119.936020"><ele>2350.8</ele><time>2025-02-06T15:26:01Z</time></trkpt>
<trkpt lat="38.925279" lon="-119.936077"><ele>2350.4</ele><time>2025-02-06T15:26:02Z</time></trkpt>
<trkpt lat="38.925442" lon="-119.936258"><ele>2350.0</ele><time>2025-02-06T15:26:04Z</time></trkpt>
<trkpt lat="38.925651" lon="-119.936544"><ele>2347.8</ele><time>2025-02-06T15:26:07Z</time></trkpt>
<trkpt lat="38.925909" lon="-119.936836"><ele>2340.8</ele><time>2025-02-06T15:26:11Z</time></trkpt>
<trkpt lat="38.926318" lon="-119.937054"><ele>2332.8</ele><time>2025-02-06T15:26:15Z</time></trkpt>
<trkpt lat="38.926649" lon="-119.937271"><ele>2329.8</ele><time>2025-02-06T15:26:18Z</time></trkpt>
<trkpt lat="38.926764" lon="-119.937346"><ele>2323.6</ele><time>2025-02-06T15:26:19Z</time></trkpt>
<trkpt lat="38.927218" lon="-119.937744"><ele>2318.6</ele><time>2025-02-06T15:26:23Z</time></trkpt>
<trkpt lat="38.927886" lon="-119.938491"><ele>2311.0</ele><time>2025-02-06T15:26:31Z</time></trkpt>
<trkpt lat="38.928061" lon="-119.938606"><ele>2308.0</ele><time>2025-02-06T15:26:33Z</time></trkpt>
<trkpt lat="38.928150" lon="-119.938627"><ele>2307.8</ele><time>2025-02-06T15:26:34Z</time></trkpt>
<trkpt lat="38.928287" lon="-119.938624"><ele>2307.2</ele><time>2025-02-06T15:26:36Z</time></trkpt>
<trkpt lat="38.928406" lon="-119.938537"><ele>2306.8</ele><time>2025-02-06T15:26:38Z</time></trkpt>
<trkpt lat="38.929405" lon="-119.937626"><ele>2291.8</ele><time>2025-02-06T15:26:50Z</time></trkpt>
<trkpt lat="38.929594" lon="-119.937540"><ele>2288.6</ele><time>2025-02-06T15:26:52Z</time></trkpt>
<trkpt lat="38.929974" lon="-119.937508"><ele>2287.4</ele><time>2025-02-06T15:26:56Z</time></trkpt>
<trkpt lat="38.930176" lon="-119.937436"><ele>2284.8</ele><time>2025-02-06T15:26:58Z</time></trkpt>
<trkpt lat="38.930607" lon="-119.937115"><ele>2277.2</ele><time>2025-02-06T15:27:04Z</time></trkpt>
<trkpt lat="38.930962" lon="-119.936712"><ele>2272.4</ele><time>2025-02-06T15:27:10Z</time></trkpt>
<trkpt lat="38.931010" lon="-119.936713"><ele>2270.8</ele><time>2025-02-06T15:27:11Z</time></trkpt>
<trkpt lat="38.931045" lon="-119.936757"><ele>2270.2</ele><time>2025-02-06T15:27:12Z</time></trkpt>
<trkpt lat="38.931057" lon="-119.936915"><ele>2268.8</ele><time>2025-02-06T15:27:14Z</time></trkpt>
<trkpt lat="38.930914" lon="-119.937262"><ele>2265.6</ele><time>2025-02-06T15:27:18Z</time></trkpt>
<trkpt lat="38.930538" lon="-119.937773"><ele>2256.2</ele><time>2025-02-06T15:27:24Z</time></trkpt>
<trkpt lat="38.930106" lon="-119.938176"><ele>2244.4</ele><time>2025-02-06T15:27:29Z</time></trkpt>
<trkpt lat="38.929929" lon="-119.938367"><ele>2243.6</ele><time>2025-02-06T15:27:31Z</time></trkpt>
<trkpt lat="38.929745" lon="-119.938742"><ele>2240.6</ele><time>2025-02-06T15:27:34Z</time></trkpt>
<trkpt lat="38.929665" lon="-119.938982"><ele>2238.2</ele><time>2025-02-06T15:27:36Z</time></trkpt>
<trkpt lat="38.929563" lon="-119.939485"><ele>2235.4</ele><time>2025-02-06T15:27:40Z</time></trkpt>
<trkpt lat="38.929579" lon="-119.939679"><ele>2233.2</ele><time>2025-02-06T15:27:42Z</time></trkpt>
<trkpt lat="38.929545" lon="-119.939929"><ele>2230.0</ele><time>2025-02-06T15:27:45Z</time></trkpt>
<trkpt lat="38.929551" lon="-119.940018"><ele>2229.2</ele><time>2025-02-06T15:27:46Z</time></trkpt>
<trkpt lat="38.929580" lon="-119.940043"><ele>2228.2</ele><time>2025-02-06T15:27:47Z</time></trkpt>
<trkpt lat="38.929610" lon="-119.940036"><ele>2224.6</ele><time>2025-02-06T15:27:48Z</time></trkpt>
<trkpt lat="38.929676" lon="-119.939971"><ele>2223.6</ele><time>2025-02-06T15:27:51Z</time></trkpt>
<trkpt lat="38.929721" lon="-119.939721"><ele>2222.4</ele><time>2025-02-06T15:27:57Z</time></trkpt>
<trkpt lat="38.929797" lon="-119.939507"><ele>2220.8</ele><time>2025-02-06T15:28:00Z</time></trkpt>
<trkpt lat="38.930238" lon="-119.938994"><ele>2210.8</ele><time>2025-02-06T15:28:07Z</time></trkpt>
<trkpt lat="38.930513" lon="-119.938808"><ele>2204.8</ele><time>2025-02-06T15:28:11Z</time></trkpt>
<trkpt lat="38.930679" lon="-119.938750"><ele>2203.4</ele><time>2025-02-06T15:28:13Z</time></trkpt>
<trkpt lat="38.930974" lon="-119.938568"><ele>2198.2</ele><time>2025-02-06T15:28:17Z</time></trkpt>
<trkpt lat="38.932042" lon="-119.937912"><ele>2185.8</ele><time>2025-02-06T15:28:32Z</time></trkpt>
<trkpt lat="38.932281" lon="-119.937819"><ele>2183.8</ele><time>2025-02-06T15:28:35Z</time></trkpt>
<trkpt lat="38.932617" lon="-119.937606"><ele>2179.0</ele><time>2025-02-06T15:28:39Z</time></trkpt>
<trkpt lat="38.933093" lon="-119.937238"><ele>2172.6</ele><time>2025-02-06T15:28:45Z</time></trkpt>
<trkpt lat="38.933288" lon="-119.937039"><ele>2171.4</ele><time>2025-02-06T15:28:48Z</time></trkpt>
<trkpt lat="38.933554" lon="-119.936671"><ele>2169.0</ele><time>2025-02-06T15:28:54Z</time></trkpt>
<trkpt lat="38.933750" lon="-119.936301"><ele>2166.8</ele><time>2025-02-06T15:29:00Z</time></trkpt>
<trkpt lat="38.933908" lon="-119.935896"><ele>2164.8</ele><time>2025-02-06T15:29:06Z</time></trkpt>
<trkpt lat="38.934053" lon="-119.935798"><ele>2160.4</ele><time>2025-02-06T15:29:21Z</time></trkpt>
<trkpt lat="38.934257" lon="-119.936114"><ele>2147.8</ele><time>2025-02-06T15:29:31Z</time></trkpt>
<trkpt lat="38.934338" lon="-119.936130"><ele>2143.4</ele><time>2025-02-06T15:29:33Z</time></trkpt>
<trkpt lat="38.934456" lon="-119.936041"><ele>2138.8</ele><time>2025-02-06T15:29:39Z</time></trkpt>
<trkpt lat="38.934480" lon="-119.936160"><ele>2137.2</ele><time>2025-02-06T15:29:42Z</time></trkpt>
<trkpt lat="38.934572" lon="-119.936201"><ele>2134.2</ele><time>2025-02-06T15:29:45Z</time></trkpt>
<trkpt lat="38.934580" lon="-119.936349"><ele>2129.2</ele><time>2025-02-06T15:29:48Z</time></trkpt>
<trkpt lat="38.934649" lon="-119.936386"><ele>2126.8</ele><time>2025-02-06T15:29:50Z</time></trkpt>
<trkpt lat="38.934661" lon="-119.936442"><ele>2125.2</ele><time>2025-02-06T15:29:51Z</time></trkpt>
<trkpt lat="38.934592" lon="-119.936669"><ele>2118.8</ele><time>2025-02-06T15:29:56Z</time></trkpt>
<trkpt lat="38.934712" lon="-119.936849"><ele>2114.8</ele><time>2025-02-06T15:30:00Z</time></trkpt>
<trkpt lat="38.934968" lon="-119.936815"><ele>2107.0</ele><time>2025-02-06T15:30:12Z</time></trkpt>
<trkpt lat="38.935112" lon="-119.936986"><ele>2101.8</ele><time>2025-02-06T15:30:16Z</time></trkpt>
<trkpt lat="38.935127" lon="-119.937089"><ele>2098.6</ele><time>2025-02-06T15:30:18Z</time></trkpt>
<trkpt lat="38.935350" lon="-119.937316"><ele>2087.8</ele><time>2025-02-06T15:30:25Z</time></trkpt>
<trkpt lat="38.935472" lon="-119.937394"><ele>2083.4</ele><time>2025-02-06T15:30:28Z</time></trkpt>
<trkpt lat="38.935534" lon="-119.937503"><ele>2080.8</ele><time>2025-02-06T15:30:30Z</time></trkpt>
<trkpt lat="38.935619" lon="-119.937533"><ele>2076.4</ele><time>2025-02-06T15:30:32Z</time></trkpt>
<trkpt lat="38.935823" lon="-119.937759"><ele>2067.8</ele><time>2025-02-06T15:30:38Z</time></trkpt>
<trkpt lat="38.935931" lon="-119.937707"><ele>2062.2</ele><time>2025-02-06T15:30:41Z</time></trkpt>
<trkpt lat="38.936105" lon="-119.937843"><ele>2057.6</ele><time>2025-02-06T15:30:45Z</time></trkpt>
<trkpt lat="38.936140" lon="-119.937920"><ele>2056.8</ele><time>2025-02-06T15:30:46Z</time></trkpt>
<trkpt lat="38.936263" lon="-119.938024"><ele>2053.2</ele><time>2025-02-06T15:30:48Z</time></trkpt>
<trkpt lat="38.936328" lon="-119.938111"><ele>2048.2</ele><time>2025-02-06T15:30:49Z</time></trkpt>
<trkpt lat="38.936538" lon="-119.938433"><ele>2042.8</ele><time>2025-02-06T15:30:52Z</time></trkpt>
<trkpt lat="38.936589" lon="-119.938683"><ele>2040.6</ele><time>2025-02-06T15:30:54Z</time></trkpt>
<trkpt lat="38.936502" lon="-119.938948"><ele>2038.8</ele><time>2025-02-06T15:30:57Z</time></trkpt>
<trkpt lat="38.936070" lon="-119.939427"><ele>2036.6</ele><time>2025-02-06T15:31:07Z</time></trkpt>
<trkpt lat="38.935858" lon="-119.939611"><ele>2035.4</ele><time>2025-02-06T15:31:12Z</time></trkpt>
<trkpt lat="38.935676" lon="-119.939700"><ele>2034.2</ele><time>2025-02-06T15:31:16Z</time></trkpt>
<trkpt lat="38.935305" lon="-119.939776"><ele>2033.2</ele><time>2025-02-06T15:31:27Z</time></trkpt>
<trkpt lat="38.935157" lon="-119.939845"><ele>2030.6</ele><time>2025-02-06T15:31:54Z</time></trkpt>
<trkpt lat="38.935178" lon="-119.939916"><ele>2029.8</ele><time>2025-02-06T15:32:11Z</time></trkpt>
<trkpt lat="38.935268" lon="-119.939982"><ele>2026.8</ele><time>2025-02-06T15:32:27Z</time></trkpt>
<trkpt lat="38.935433" lon="-119.940161"><ele>2025.0</ele><time>2025-02-06T15:32:54Z</time></trkpt>
<trkpt lat="38.935618" lon="-119.940050"><ele>2025.0</ele><time>2025-02-06T15:33:24Z</time></trkpt>
</trkseg></trk>
</gpx>
