<?xml version="1.0" encoding="UTF-8"?>
<gpx version="1.1" creator="Eric Sichak trip reports" xmlns="http://www.topografix.com/GPX/1/1">
<metadata><name>Powderhouse lap before work</name><time>2026-02-13T13:52:35Z</time></metadata>
<trk><name>Powderhouse lap before work</name><type>ski</type><trkseg>
<trkpt lat="38.796351" lon="-119.976728"><ele>2358.2</ele><time>2026-02-13T13:52:35Z</time></trkpt>
<trkpt lat="38.796142" lon="-119.976580"><ele>2358.4</ele><time>2026-02-13T13:53:03Z</time></trkpt>
<trkpt lat="38.796010" lon="-119.976541"><ele>2355.8</ele><time>2026-02-13T13:53:11Z</time></trkpt>
<trkpt lat="38.795915" lon="-119.976403"><ele>2353.4</ele><time>2026-02-13T13:53:20Z</time></trkpt>
<trkpt lat="38.795789" lon="-119.976320"><ele>2352.8</ele><time>2026-02-13T13:53:28Z</time></trkpt>
<trkpt lat="38.795629" lon="-119.976268"><ele>2352.4</ele><time>2026-02-13T13:53:38Z</time></trkpt>
<trkpt lat="38.795556" lon="-119.976288"><ele>2352.2</ele><time>2026-02-13T13:53:43Z</time></trkpt>
<trkpt lat="38.794866" lon="-119.976858"><ele>2355.6</ele><time>2026-02-13T13:54:45Z</time></trkpt>
<trkpt lat="38.794424" lon="-119.976924"><ele>2359.4</ele><time>2026-02-13T13:55:27Z</time></trkpt>
<trkpt lat="38.794346" lon="-119.976997"><ele>2360.2</ele><time>2026-02-13T13:55:36Z</time></trkpt>
<trkpt lat="38.794111" lon="-119.977438"><ele>2368.2</ele><time>2026-02-13T13:56:25Z</time></trkpt>
<trkpt lat="38.793950" lon="-119.977636"><ele>2373.8</ele><time>2026-02-13T13:56:55Z</time></trkpt>
<trkpt lat="38.793800" lon="-119.977751"><ele>2376.4</ele><time>2026-02-13T13:57:16Z</time></trkpt>
<trkpt lat="38.793669" lon="-119.977789"><ele>2378.8</ele><time>2026-02-13T13:57:33Z</time></trkpt>
<trkpt lat="38.793499" lon="-119.977943"><ele>2382.2</ele><time>2026-02-13T13:57:56Z</time></trkpt>
<trkpt lat="38.793378" lon="-119.977975"><ele>2384.2</ele><time>2026-02-13T13:58:11Z</time></trkpt>
<trkpt lat="38.792984" lon="-119.978419"><ele>2389.6</ele><time>2026-02-13T13:59:16Z</time></trkpt>
<trkpt lat="38.792555" lon="-119.978570"><ele>2392.4</ele><time>2026-02-13T14:00:16Z</time></trkpt>
<trkpt lat="38.792263" lon="-119.978631"><ele>2394.4</ele><time>2026-02-13T14:00:50Z</time></trkpt>
<trkpt lat="38.792098" lon="-119.978578"><ele>2396.2</ele><time>2026-02-13T14:01:10Z</time></trkpt>
<trkpt lat="38.791891" lon="-119.978635"><ele>2399.2</ele><time>2026-02-13T14:01:36Z</time></trkpt>
<trkpt lat="38.791076" lon="-119.978581"><ele>2407.2</ele><time>2026-02-13T14:03:09Z</time></trkpt>
<trkpt lat="38.790818" lon="-119.978602"><ele>2411.4</ele><time>2026-02-13T14:04:15Z</time></trkpt>
<trkpt lat="38.790852" lon="-119.978598"><ele>2412.4</ele><time>2026-02-13T14:04:36Z</time></trkpt>
<trkpt lat="38.790829" lon="-119.978564"><ele>2413.6</ele><time>2026-02-13T14:04:52Z</time></trkpt>
<trkpt lat="38.790841" lon="-119.978587"><ele>2413.4</ele><time>2026-02-13T14:04:59Z</time></trkpt>
<trkpt lat="38.790793" lon="-119.978616"><ele>2415.8</ele><time>2026-02-13T14:05:20Z</time></trkpt>
<trkpt lat="38.790682" lon="-119.978603"><ele>2419.4</ele><time>2026-02-13T14:05:34Z</time></trkpt>
<trkpt lat="38.790522" lon="-119.978717"><ele>2425.0</ele><time>2026-02-13T14:05:58Z</time></trkpt>
<trkpt lat="38.790405" lon="-119.978860"><ele>2428.8</ele><time>2026-02-13T14:06:29Z</time></trkpt>
<trkpt lat="38.790214" lon="-119.978991"><ele>2434.6</ele><time>2026-02-13T14:07:03Z</time></trkpt>
<trkpt lat="38.790006" lon="-119.979242"><ele>2441.2</ele><time>2026-02-13T14:07:47Z</time></trkpt>
<trkpt lat="38.789811" lon="-119.979379"><ele>2445.6</ele><time>2026-02-13T14:08:23Z</time></trkpt>
<trkpt lat="38.789625" lon="-119.979636"><ele>2452.8</ele><time>2026-02-13T14:09:11Z</time></trkpt>
<trkpt lat="38.789488" lon="-119.979298"><ele>2461.4</ele><time>2026-02-13T14:10:05Z</time></trkpt>
<trkpt lat="38.789266" lon="-119.979010"><ele>2471.2</ele><time>2026-02-13T14:11:02Z</time></trkpt>
<trkpt lat="38.789067" lon="-119.979349"><ele>2481.6</ele><time>2026-02-13T14:12:02Z</time></trkpt>
<trkpt lat="38.789048" lon="-119.979433"><ele>2482.6</ele><time>2026-02-13T14:12:13Z</time></trkpt>
<trkpt lat="38.788789" lon="-119.979738"><ele>2487.4</ele><time>2026-02-13T14:12:53Z</time></trkpt>
<trkpt lat="38.788726" lon="-119.979873"><ele>2491.0</ele><time>2026-02-13T14:13:13Z</time></trkpt>
<trkpt lat="38.788638" lon="-119.979976"><ele>2493.8</ele><time>2026-02-13T14:13:29Z</time></trkpt>
<trkpt lat="38.788546" lon="-119.980048"><ele>2496.4</ele><time>2026-02-13T14:13:47Z</time></trkpt>
<trkpt lat="38.788516" lon="-119.979963"><ele>2499.2</ele><time>2026-02-13T14:14:05Z</time></trkpt>
<trkpt lat="38.788468" lon="-119.979960"><ele>2501.0</ele><time>2026-02-13T14:14:12Z</time></trkpt>
<trkpt lat="38.788364" lon="-119.980065"><ele>2504.8</ele><time>2026-02-13T14:14:35Z</time></trkpt>
<trkpt lat="38.788265" lon="-119.980097"><ele>2508.4</ele><time>2026-02-13T14:15:02Z</time></trkpt>
<trkpt lat="38.788231" lon="-119.980124"><ele>2509.4</ele><time>2026-02-13T14:15:07Z</time></trkpt>
<trkpt lat="38.788209" lon="-119.980222"><ele>2511.0</ele><time>2026-02-13T14:15:19Z</time></trkpt>
<trkpt lat="38.788080" lon="-119.980325"><ele>2516.2</ele><time>2026-02-13T14:15:50Z</time></trkpt>
<trkpt lat="38.787995" lon="-119.980492"><ele>2519.8</ele><time>2026-02-13T14:16:14Z</time></trkpt>
<trkpt lat="38.787928" lon="-119.980514"><ele>2521.6</ele><time>2026-02-13T14:16:30Z</time></trkpt>
<trkpt lat="38.787863" lon="-119.980490"><ele>2524.6</ele><time>2026-02-13T14:16:44Z</time></trkpt>
<trkpt lat="38.787704" lon="-119.980701"><ele>2530.0</ele><time>2026-02-13T14:17:29Z</time></trkpt>
<trkpt lat="38.787698" lon="-119.980628"><ele>2531.8</ele><time>2026-02-13T14:17:46Z</time></trkpt>
<trkpt lat="38.787622" lon="-119.980643"><ele>2533.8</ele><time>2026-02-13T14:18:01Z</time></trkpt>
<trkpt lat="38.787477" lon="-119.980767"><ele>2540.0</ele><time>2026-02-13T14:18:37Z</time></trkpt>
<trkpt lat="38.787378" lon="-119.980909"><ele>2545.4</ele><time>2026-02-13T14:19:12Z</time></trkpt>
<trkpt lat="38.787204" lon="-119.981008"><ele>2549.4</ele><time>2026-02-13T14:19:48Z</time></trkpt>
<trkpt lat="38.787230" lon="-119.980924"><ele>2552.8</ele><time>2026-02-13T14:20:07Z</time></trkpt>
<trkpt lat="38.787205" lon="-119.980717"><ele>2556.8</ele><time>2026-02-13T14:20:39Z</time></trkpt>
<trkpt lat="38.787161" lon="-119.980592"><ele>2560.8</ele><time>2026-02-13T14:21:04Z</time></trkpt>
<trkpt lat="38.787052" lon="-119.980682"><ele>2564.2</ele><time>2026-02-13T14:21:29Z</time></trkpt>
<trkpt lat="38.786920" lon="-119.980732"><ele>2568.4</ele><time>2026-02-13T14:21:57Z</time></trkpt>
<trkpt lat="38.786732" lon="-119.980968"><ele>2576.8</ele><time>2026-02-13T14:23:04Z</time></trkpt>
<trkpt lat="38.786617" lon="-119.981061"><ele>2580.4</ele><time>2026-02-13T14:23:28Z</time></trkpt>
<trkpt lat="38.786525" lon="-119.981056"><ele>2584.6</ele><time>2026-02-13T14:23:59Z</time></trkpt>
<trkpt lat="38.786508" lon="-119.981128"><ele>2585.8</ele><time>2026-02-13T14:24:15Z</time></trkpt>
<trkpt lat="38.786465" lon="-119.980996"><ele>2589.4</ele><time>2026-02-13T14:24:38Z</time></trkpt>
<trkpt lat="38.786315" lon="-119.981217"><ele>2595.2</ele><time>2026-02-13T14:25:23Z</time></trkpt>
<trkpt lat="38.786161" lon="-119.981277"><ele>2600.2</ele><time>2026-02-13T14:25:58Z</time></trkpt>
<trkpt lat="38.786089" lon="-119.981327"><ele>2603.4</ele><time>2026-02-13T14:26:22Z</time></trkpt>
<trkpt lat="38.786103" lon="-119.981343"><ele>2604.0</ele><time>2026-02-13T14:26:30Z</time></trkpt>
<trkpt lat="38.786089" lon="-119.981186"><ele>2608.0</ele><time>2026-02-13T14:27:01Z</time></trkpt>
<trkpt lat="38.786015" lon="-119.981197"><ele>2609.8</ele><time>2026-02-13T14:27:27Z</time></trkpt>
<trkpt lat="38.785932" lon="-119.981264"><ele>2613.6</ele><time>2026-02-13T14:27:52Z</time></trkpt>
<trkpt lat="38.785959" lon="-119.981285"><ele>2613.8</ele><time>2026-02-13T14:28:19Z</time></trkpt>
<trkpt lat="38.785924" lon="-119.981337"><ele>2615.0</ele><time>2026-02-13T14:28:35Z</time></trkpt>
<trkpt lat="38.785833" lon="-119.981390"><ele>2618.4</ele><time>2026-02-13T14:29:09Z</time></trkpt>
<trkpt lat="38.785807" lon="-119.981367"><ele>2618.2</ele><time>2026-02-13T14:29:28Z</time></trkpt>
<trkpt lat="38.785679" lon="-119.981536"><ele>2625.4</ele><time>2026-02-13T14:30:56Z</time></trkpt>
<trkpt lat="38.785595" lon="-119.981104"><ele>2637.8</ele><time>2026-02-13T14:32:18Z</time></trkpt>
<trkpt lat="38.785597" lon="-119.980962"><ele>2641.6</ele><time>2026-02-13T14:32:47Z</time></trkpt>
<trkpt lat="38.785423" lon="-119.981083"><ele>2647.6</ele><time>2026-02-13T14:33:27Z</time></trkpt>
<trkpt lat="38.785394" lon="-119.980829"><ele>2656.2</ele><time>2026-02-13T14:35:03Z</time></trkpt>
<trkpt lat="38.785203" lon="-119.980926"><ele>2663.0</ele><time>2026-02-13T14:35:44Z</time></trkpt>
<trkpt lat="38.785095" lon="-119.981030"><ele>2668.0</ele><time>2026-02-13T14:36:20Z</time></trkpt>
<trkpt lat="38.785074" lon="-119.980853"><ele>2673.0</ele><time>2026-02-13T14:37:06Z</time></trkpt>
<trkpt lat="38.784907" lon="-119.980889"><ele>2679.4</ele><time>2026-02-13T14:37:43Z</time></trkpt>
<trkpt lat="38.784915" lon="-119.980787"><ele>2682.6</ele><time>2026-02-13T14:38:08Z</time></trkpt>
<trkpt lat="38.784875" lon="-119.980612"><ele>2687.8</ele><time>2026-02-13T14:38:55Z</time></trkpt>
<trkpt lat="38.784386" lon="-119.980534"><ele>2705.2</ele><time>2026-02-13T14:41:13Z</time></trkpt>
<trkpt lat="38.784351" lon="-119.980486"><ele>2705.4</ele><time>2026-02-13T14:41:26Z</time></trkpt>
<trkpt lat="38.784415" lon="-119.980507"><ele>2705.6</ele><time>2026-02-13T14:41:51Z</time></trkpt>
<trkpt lat="38.784387" lon="-119.980509"><ele>2705.6</ele><time>2026-02-13T14:42:10Z</time></trkpt>
<trkpt lat="38.784384" lon="-119.980554"><ele>2705.2</ele><time>2026-02-13T14:42:35Z</time></trkpt>
<trkpt lat="38.784392" lon="-119.980530"><ele>2705.6</ele><time>2026-02-13T14:42:45Z</time></trkpt>
<trkpt lat="38.784351" lon="-119.980558"><ele>2706.4</ele><time>2026-02-13T14:43:04Z</time></trkpt>
<trkpt lat="38.784267" lon="-119.980545"><ele>2709.6</ele><time>2026-02-13T14:43:18Z</time></trkpt>
<trkpt lat="38.784176" lon="-119.980075"><ele>2725.6</ele><time>2026-02-13T14:45:31Z</time></trkpt>
<trkpt lat="38.784092" lon="-119.980042"><ele>2727.2</ele><time>2026-02-13T14:46:09Z</time></trkpt>
<trkpt lat="38.783945" lon="-119.980063"><ele>2733.2</ele><time>2026-02-13T14:46:41Z</time></trkpt>
<trkpt lat="38.783913" lon="-119.979870"><ele>2739.8</ele><time>2026-02-13T14:47:28Z</time></trkpt>
<trkpt lat="38.783630" lon="-119.979890"><ele>2750.6</ele><time>2026-02-13T14:48:37Z</time></trkpt>
<trkpt lat="38.783643" lon="-119.979835"><ele>2753.2</ele><time>2026-02-13T14:48:57Z</time></trkpt>
<trkpt lat="38.783632" lon="-119.979861"><ele>2753.2</ele><time>2026-02-13T14:49:09Z</time></trkpt>
<trkpt lat="38.783611" lon="-119.979710"><ele>2756.8</ele><time>2026-02-13T14:49:32Z</time></trkpt>
<trkpt lat="38.783651" lon="-119.979448"><ele>2763.2</ele><time>2026-02-13T14:50:21Z</time></trkpt>
<trkpt lat="38.783602" lon="-119.979265"><ele>2765.8</ele><time>2026-02-13T14:50:52Z</time></trkpt>
<trkpt lat="38.783633" lon="-119.979182"><ele>2768.4</ele><time>2026-02-13T14:51:19Z</time></trkpt>
<trkpt lat="38.783624" lon="-119.979120"><ele>2769.8</ele><time>2026-02-13T14:51:35Z</time></trkpt>
<trkpt lat="38.783493" lon="-119.979187"><ele>2775.8</ele><time>2026-02-13T14:52:32Z</time></trkpt>
<trkpt lat="38.783512" lon="-119.979020"><ele>2779.2</ele><time>2026-02-13T14:53:13Z</time></trkpt>
<trkpt lat="38.783484" lon="-119.978877"><ele>2783.6</ele><time>2026-02-13T14:53:53Z</time></trkpt>
<trkpt lat="38.783494" lon="-119.978762"><ele>2786.0</ele><time>2026-02-13T14:54:17Z</time></trkpt>
<trkpt lat="38.783440" lon="-119.978648"><ele>2789.6</ele><time>2026-02-13T14:54:36Z</time></trkpt>
<trkpt lat="38.783442" lon="-119.978510"><ele>2793.8</ele><time>2026-02-13T14:55:00Z</time></trkpt>
<trkpt lat="38.783468" lon="-119.978502"><ele>2793.8</ele><time>2026-02-13T14:55:19Z</time></trkpt>
<trkpt lat="38.783488" lon="-119.978257"><ele>2798.2</ele><time>2026-02-13T14:55:59Z</time></trkpt>
<trkpt lat="38.783483" lon="-119.977879"><ele>2807.0</ele><time>2026-02-13T14:56:54Z</time></trkpt>
<trkpt lat="38.783522" lon="-119.977725"><ele>2810.2</ele><time>2026-02-13T14:57:19Z</time></trkpt>
<trkpt lat="38.783510" lon="-119.977664"><ele>2812.2</ele><time>2026-02-13T14:57:29Z</time></trkpt>
<trkpt lat="38.783442" lon="-119.977607"><ele>2815.6</ele><time>2026-02-13T14:57:48Z</time></trkpt>
<trkpt lat="38.783486" lon="-119.977339"><ele>2823.8</ele><time>2026-02-13T14:58:46Z</time></trkpt>
<trkpt lat="38.783452" lon="-119.977168"><ele>2829.0</ele><time>2026-02-13T14:59:25Z</time></trkpt>
<trkpt lat="38.783509" lon="-119.977031"><ele>2833.4</ele><time>2026-02-13T14:59:48Z</time></trkpt>
<trkpt lat="38.783500" lon="-119.976845"><ele>2837.0</ele><time>2026-02-13T15:00:41Z</time></trkpt>
<trkpt lat="38.783350" lon="-119.976566"><ele>2840.8</ele><time>2026-02-13T15:01:16Z</time></trkpt>
<trkpt lat="38.783254" lon="-119.976551"><ele>2842.2</ele><time>2026-02-13T15:01:26Z</time></trkpt>
<trkpt lat="38.783145" lon="-119.976588"><ele>2843.2</ele><time>2026-02-13T15:01:38Z</time></trkpt>
<trkpt lat="38.782750" lon="-119.976481"><ele>2849.2</ele><time>2026-02-13T15:02:26Z</time></trkpt>
<trkpt lat="38.782624" lon="-119.976503"><ele>2851.0</ele><time>2026-02-13T15:02:50Z</time></trkpt>
<trkpt lat="38.782599" lon="-119.976538"><ele>2853.0</ele><time>2026-02-13T15:03:05Z</time></trkpt>
<trkpt lat="38.782640" lon="-119.976474"><ele>2851.6</ele><time>2026-02-13T15:03:46Z</time></trkpt>
<trkpt lat="38.782805" lon="-119.976401"><ele>2849.6</ele><time>2026-02-13T15:03:59Z</time></trkpt>
<trkpt lat="38.782846" lon="-119.976342"><ele>2849.6</ele><time>2026-02-13T15:04:06Z</time></trkpt>
<trkpt lat="38.782892" lon="-119.976145"><ele>2851.4</ele><time>2026-02-13T15:04:26Z</time></trkpt>
<trkpt lat="38.782882" lon="-119.975773"><ele>2853.8</ele><time>2026-02-13T15:05:03Z</time></trkpt>
<trkpt lat="38.783005" lon="-119.975617"><ele>2856.4</ele><time>2026-02-13T15:05:27Z</time></trkpt>
<trkpt lat="38.782976" lon="-119.975508"><ele>2858.2</ele><time>2026-02-13T15:05:40Z</time></trkpt>
<trkpt lat="38.782882" lon="-119.975442"><ele>2859.6</ele><time>2026-02-13T15:05:54Z</time></trkpt>
<trkpt lat="38.782871" lon="-119.975397"><ele>2861.0</ele><time>2026-02-13T15:06:09Z</time></trkpt>
<trkpt lat="38.782795" lon="-119.975428"><ele>2863.8</ele><time>2026-02-13T15:06:22Z</time></trkpt>
<trkpt lat="38.782799" lon="-119.975443"><ele>2866.8</ele><time>2026-02-13T15:07:58Z</time></trkpt>
<trkpt lat="38.782748" lon="-119.975415"><ele>2868.8</ele><time>2026-02-13T15:09:12Z</time></trkpt>
<trkpt lat="38.782801" lon="-119.975425"><ele>2866.6</ele><time>2026-02-13T15:11:30Z</time></trkpt>
<trkpt lat="38.782795" lon="-119.975451"><ele>2867.0</ele><time>2026-02-13T15:12:07Z</time></trkpt>
<trkpt lat="38.782802" lon="-119.975419"><ele>2867.0</ele><time>2026-02-13T15:12:16Z</time></trkpt>
<trkpt lat="38.782822" lon="-119.975427"><ele>2867.6</ele><time>2026-02-13T15:12:45Z</time></trkpt>
<trkpt lat="38.782804" lon="-119.975443"><ele>2868.0</ele><time>2026-02-13T15:13:10Z</time></trkpt>
<trkpt lat="38.782831" lon="-119.975425"><ele>2867.4</ele><time>2026-02-13T15:13:35Z</time></trkpt>
<trkpt lat="38.782799" lon="-119.975444"><ele>2868.0</ele><time>2026-02-13T15:14:01Z</time></trkpt>
<trkpt lat="38.782809" lon="-119.975417"><ele>2868.2</ele><time>2026-02-13T15:15:32Z</time></trkpt>
<trkpt lat="38.782789" lon="-119.975436"><ele>2869.8</ele><time>2026-02-13T15:16:45Z</time></trkpt>
<trkpt lat="38.782803" lon="-119.975426"><ele>2871.0</ele><time>2026-02-13T15:17:11Z</time></trkpt>
<trkpt lat="38.782793" lon="-119.975435"><ele>2869.0</ele><time>2026-02-13T15:19:06Z</time></trkpt>
<trkpt lat="38.782841" lon="-119.975389"><ele>2868.2</ele><time>2026-02-13T15:19:24Z</time></trkpt>
<trkpt lat="38.782936" lon="-119.975386"><ele>2867.4</ele><time>2026-02-13T15:19:26Z</time></trkpt>
<trkpt lat="38.783053" lon="-119.975448"><ele>2865.6</ele><time>2026-02-13T15:19:28Z</time></trkpt>
<trkpt lat="38.783167" lon="-119.975579"><ele>2860.0</ele><time>2026-02-13T15:19:31Z</time></trkpt>
<trkpt lat="38.783215" lon="-119.975578"><ele>2858.6</ele><time>2026-02-13T15:19:33Z</time></trkpt>
<trkpt lat="38.783203" lon="-119.975571"><ele>2856.6</ele><time>2026-02-13T15:19:37Z</time></trkpt>
<trkpt lat="38.783231" lon="-119.975537"><ele>2856.8</ele><time>2026-02-13T15:19:40Z</time></trkpt>
<trkpt lat="38.783412" lon="-119.975561"><ele>2853.6</ele><time>2026-02-13T15:19:44Z</time></trkpt>
<trkpt lat="38.783540" lon="-119.975762"><ele>2846.2</ele><time>2026-02-13T15:19:50Z</time></trkpt>
<trkpt lat="38.783599" lon="-119.975933"><ele>2843.6</ele><time>2026-02-13T15:19:53Z</time></trkpt>
<trkpt lat="38.783624" lon="-119.976124"><ele>2839.4</ele><time>2026-02-13T15:19:57Z</time></trkpt>
<trkpt lat="38.783655" lon="-119.976168"><ele>2838.8</ele><time>2026-02-13T15:19:58Z</time></trkpt>
<trkpt lat="38.783764" lon="-119.976176"><ele>2835.4</ele><time>2026-02-13T15:20:01Z</time></trkpt>
<trkpt lat="38.783864" lon="-119.976379"><ele>2827.8</ele><time>2026-02-13T15:20:05Z</time></trkpt>
<trkpt lat="38.784019" lon="-119.976458"><ele>2821.0</ele><time>2026-02-13T15:20:09Z</time></trkpt>
<trkpt lat="38.784097" lon="-119.976402"><ele>2816.8</ele><time>2026-02-13T15:20:11Z</time></trkpt>
<trkpt lat="38.784118" lon="-119.976421"><ele>2813.8</ele><time>2026-02-13T15:20:12Z</time></trkpt>
<trkpt lat="38.784393" lon="-119.976764"><ele>2802.0</ele><time>2026-02-13T15:20:23Z</time></trkpt>
<trkpt lat="38.784420" lon="-119.976824"><ele>2799.8</ele><time>2026-02-13T15:20:25Z</time></trkpt>
<trkpt lat="38.784416" lon="-119.976835"><ele>2796.4</ele><time>2026-02-13T15:20:27Z</time></trkpt>
<trkpt lat="38.784571" lon="-119.976763"><ele>2795.0</ele><time>2026-02-13T15:20:34Z</time></trkpt>
<trkpt lat="38.784620" lon="-119.976758"><ele>2790.6</ele><time>2026-02-13T15:20:36Z</time></trkpt>
<trkpt lat="38.784618" lon="-119.976745"><ele>2787.0</ele><time>2026-02-13T15:20:40Z</time></trkpt>
<trkpt lat="38.784701" lon="-119.976772"><ele>2786.6</ele><time>2026-02-13T15:20:43Z</time></trkpt>
<trkpt lat="38.784748" lon="-119.976819"><ele>2785.6</ele><time>2026-02-13T15:20:44Z</time></trkpt>
<trkpt lat="38.784793" lon="-119.976948"><ele>2781.6</ele><time>2026-02-13T15:20:47Z</time></trkpt>
<trkpt lat="38.784857" lon="-119.976973"><ele>2777.8</ele><time>2026-02-13T15:20:49Z</time></trkpt>
<trkpt lat="38.784915" lon="-119.977049"><ele>2775.0</ele><time>2026-02-13T15:20:51Z</time></trkpt>
<trkpt lat="38.784985" lon="-119.977052"><ele>2770.6</ele><time>2026-02-13T15:20:53Z</time></trkpt>
<trkpt lat="38.785028" lon="-119.977120"><ele>2766.4</ele><time>2026-02-13T15:20:55Z</time></trkpt>
<trkpt lat="38.785025" lon="-119.977233"><ele>2760.2</ele><time>2026-02-13T15:20:59Z</time></trkpt>
<trkpt lat="38.785067" lon="-119.977403"><ele>2757.8</ele><time>2026-02-13T15:21:09Z</time></trkpt>
<trkpt lat="38.785155" lon="-119.977482"><ele>2752.0</ele><time>2026-02-13T15:21:12Z</time></trkpt>
<trkpt lat="38.785222" lon="-119.977484"><ele>2748.2</ele><time>2026-02-13T15:21:14Z</time></trkpt>
<trkpt lat="38.785304" lon="-119.977677"><ele>2739.6</ele><time>2026-02-13T15:21:18Z</time></trkpt>
<trkpt lat="38.785360" lon="-119.977681"><ele>2735.4</ele><time>2026-02-13T15:21:20Z</time></trkpt>
<trkpt lat="38.785343" lon="-119.977717"><ele>2729.4</ele><time>2026-02-13T15:21:26Z</time></trkpt>
<trkpt lat="38.785365" lon="-119.977750"><ele>2729.6</ele><time>2026-02-13T15:21:32Z</time></trkpt>
<trkpt lat="38.785344" lon="-119.977916"><ele>2727.8</ele><time>2026-02-13T15:21:35Z</time></trkpt>
<trkpt lat="38.785513" lon="-119.978125"><ele>2717.6</ele><time>2026-02-13T15:21:41Z</time></trkpt>
<trkpt lat="38.785513" lon="-119.978260"><ele>2711.0</ele><time>2026-02-13T15:21:43Z</time></trkpt>
<trkpt lat="38.785492" lon="-119.978297"><ele>2706.0</ele><time>2026-02-13T15:21:46Z</time></trkpt>
<trkpt lat="38.785507" lon="-119.978216"><ele>2706.0</ele><time>2026-02-13T15:22:31Z</time></trkpt>
<trkpt lat="38.785562" lon="-119.978222"><ele>2706.4</ele><time>2026-02-13T15:22:36Z</time></trkpt>
<trkpt lat="38.785611" lon="-119.978163"><ele>2705.6</ele><time>2026-02-13T15:22:38Z</time></trkpt>
<trkpt lat="38.785618" lon="-119.978141"><ele>2701.4</ele><time>2026-02-13T15:23:09Z</time></trkpt>
<trkpt lat="38.785693" lon="-119.978135"><ele>2701.4</ele><time>2026-02-13T15:23:28Z</time></trkpt>
<trkpt lat="38.785784" lon="-119.978249"><ele>2696.4</ele><time>2026-02-13T15:23:31Z</time></trkpt>
<trkpt lat="38.785817" lon="-119.978255"><ele>2689.6</ele><time>2026-02-13T15:23:32Z</time></trkpt>
<trkpt lat="38.785857" lon="-119.978292"><ele>2687.4</ele><time>2026-02-13T15:23:33Z</time></trkpt>
<trkpt lat="38.785874" lon="-119.978351"><ele>2685.8</ele><time>2026-02-13T15:23:34Z</time></trkpt>
<trkpt lat="38.786021" lon="-119.978291"><ele>2677.6</ele><time>2026-02-13T15:23:38Z</time></trkpt>
<trkpt lat="38.786060" lon="-119.978324"><ele>2676.6</ele><time>2026-02-13T15:23:39Z</time></trkpt>
<trkpt lat="38.786159" lon="-119.978319"><ele>2672.2</ele><time>2026-02-13T15:23:41Z</time></trkpt>
<trkpt lat="38.786299" lon="-119.978547"><ele>2659.4</ele><time>2026-02-13T15:23:46Z</time></trkpt>
<trkpt lat="38.786351" lon="-119.978484"><ele>2651.6</ele><time>2026-02-13T15:23:49Z</time></trkpt>
<trkpt lat="38.786473" lon="-119.978325"><ele>2648.0</ele><time>2026-02-13T15:23:56Z</time></trkpt>
<trkpt lat="38.786643" lon="-119.978392"><ele>2641.6</ele><time>2026-02-13T15:24:00Z</time></trkpt>
<trkpt lat="38.786753" lon="-119.978492"><ele>2638.6</ele><time>2026-02-13T15:24:02Z</time></trkpt>
<trkpt lat="38.786840" lon="-119.978460"><ele>2629.2</ele><time>2026-02-13T15:24:04Z</time></trkpt>
<trkpt lat="38.786916" lon="-119.978503"><ele>2623.0</ele><time>2026-02-13T15:24:06Z</time></trkpt>
<trkpt lat="38.786937" lon="-119.978469"><ele>2620.4</ele><time>2026-02-13T15:24:08Z</time></trkpt>
<trkpt lat="38.786920" lon="-119.978461"><ele>2617.0</ele><time>2026-02-13T15:24:16Z</time></trkpt>
<trkpt lat="38.786968" lon="-119.978389"><ele>2617.0</ele><time>2026-02-13T15:24:22Z</time></trkpt>
<trkpt lat="38.787044" lon="-119.978405"><ele>2615.6</ele><time>2026-02-13T15:24:24Z</time></trkpt>
<trkpt lat="38.787134" lon="-119.978704"><ele>2606.0</ele><time>2026-02-13T15:24:29Z</time></trkpt>
<trkpt lat="38.787171" lon="-119.979028"><ele>2599.0</ele><time>2026-02-13T15:24:35Z</time></trkpt>
<trkpt lat="38.787149" lon="-119.979031"><ele>2596.6</ele><time>2026-02-13T15:24:42Z</time></trkpt>
<trkpt lat="38.787192" lon="-119.979093"><ele>2596.2</ele><time>2026-02-13T15:24:44Z</time></trkpt>
<trkpt lat="38.787260" lon="-119.979059"><ele>2591.4</ele><time>2026-02-13T15:24:48Z</time></trkpt>
<trkpt lat="38.787333" lon="-119.978898"><ele>2587.0</ele><time>2026-02-13T15:24:53Z</time></trkpt>
<trkpt lat="38.787529" lon="-119.978673"><ele>2580.8</ele><time>2026-02-13T15:24:59Z</time></trkpt>
<trkpt lat="38.787609" lon="-119.978834"><ele>2573.2</ele><time>2026-02-13T15:25:04Z</time></trkpt>
<trkpt lat="38.787710" lon="-119.978720"><ele>2567.2</ele><time>2026-02-13T15:25:08Z</time></trkpt>
<trkpt lat="38.787771" lon="-119.978840"><ele>2565.4</ele><time>2026-02-13T15:25:10Z</time></trkpt>
<trkpt lat="38.787808" lon="-119.978851"><ele>2563.8</ele><time>2026-02-13T15:25:11Z</time></trkpt>
<trkpt lat="38.787833" lon="-119.978859"><ele>2556.6</ele><time>2026-02-13T15:25:20Z</time></trkpt>
<trkpt lat="38.787896" lon="-119.978777"><ele>2556.4</ele><time>2026-02-13T15:25:27Z</time></trkpt>
<trkpt lat="38.787953" lon="-119.978773"><ele>2554.6</ele><time>2026-02-13T15:25:29Z</time></trkpt>
<trkpt lat="38.788018" lon="-119.978949"><ele>2548.6</ele><time>2026-02-13T15:25:33Z</time></trkpt>
<trkpt lat="38.788080" lon="-119.978985"><ele>2545.6</ele><time>2026-02-13T15:25:35Z</time></trkpt>
<trkpt lat="38.788224" lon="-119.978924"><ele>2540.8</ele><time>2026-02-13T15:25:38Z</time></trkpt>
<trkpt lat="38.788262" lon="-119.978948"><ele>2538.6</ele><time>2026-02-13T15:25:39Z</time></trkpt>
<trkpt lat="38.788281" lon="-119.978996"><ele>2532.2</ele><time>2026-02-13T15:25:50Z</time></trkpt>
<trkpt lat="38.788369" lon="-119.979124"><ele>2530.6</ele><time>2026-02-13T15:25:54Z</time></trkpt>
<trkpt lat="38.788591" lon="-119.979367"><ele>2516.4</ele><time>2026-02-13T15:26:00Z</time></trkpt>
<trkpt lat="38.788827" lon="-119.979419"><ele>2505.6</ele><time>2026-02-13T15:26:05Z</time></trkpt>
<trkpt lat="38.788833" lon="-119.979494"><ele>2500.2</ele><time>2026-02-13T15:26:08Z</time></trkpt>
<trkpt lat="38.788835" lon="-119.979487"><ele>2497.4</ele><time>2026-02-13T15:26:10Z</time></trkpt>
<trkpt lat="38.788851" lon="-119.979453"><ele>2497.6</ele><time>2026-02-13T15:26:26Z</time></trkpt>
<trkpt lat="38.788959" lon="-119.979659"><ele>2495.0</ele><time>2026-02-13T15:26:33Z</time></trkpt>
<trkpt lat="38.788984" lon="-119.979691"><ele>2490.4</ele><time>2026-02-13T15:26:40Z</time></trkpt>
<trkpt lat="38.789097" lon="-119.979611"><ele>2489.6</ele><time>2026-02-13T15:26:52Z</time></trkpt>
<trkpt lat="38.789177" lon="-119.979492"><ele>2486.2</ele><time>2026-02-13T15:26:55Z</time></trkpt>
<trkpt lat="38.789214" lon="-119.979490"><ele>2484.2</ele><time>2026-02-13T15:27:03Z</time></trkpt>
<trkpt lat="38.789291" lon="-119.979648"><ele>2481.2</ele><time>2026-02-13T15:27:06Z</time></trkpt>
<trkpt lat="38.789458" lon="-119.979853"><ele>2472.6</ele><time>2026-02-13T15:27:11Z</time></trkpt>
<trkpt lat="38.789555" lon="-119.979871"><ele>2469.2</ele><time>2026-02-13T15:27:13Z</time></trkpt>
<trkpt lat="38.789643" lon="-119.979829"><ele>2464.6</ele><time>2026-02-13T15:27:15Z</time></trkpt>
<trkpt lat="38.789698" lon="-119.979696"><ele>2458.6</ele><time>2026-02-13T15:27:18Z</time></trkpt>
<trkpt lat="38.789686" lon="-119.979665"><ele>2456.8</ele><time>2026-02-13T15:27:24Z</time></trkpt>
<trkpt lat="38.789757" lon="-119.979639"><ele>2457.0</ele><time>2026-02-13T15:27:27Z</time></trkpt>
<trkpt lat="38.789855" lon="-119.979781"><ele>2454.0</ele><time>2026-02-13T15:27:30Z</time></trkpt>
<trkpt lat="38.789909" lon="-119.979775"><ele>2451.0</ele><time>2026-02-13T15:27:31Z</time></trkpt>
<trkpt lat="38.790106" lon="-119.979633"><ele>2443.4</ele><time>2026-02-13T15:27:35Z</time></trkpt>
<trkpt lat="38.790608" lon="-119.978771"><ele>2427.4</ele><time>2026-02-13T15:27:55Z</time></trkpt>
<trkpt lat="38.790868" lon="-119.978457"><ele>2420.2</ele><time>2026-02-13T15:28:00Z</time></trkpt>
<trkpt lat="38.791110" lon="-119.978459"><ele>2414.2</ele><time>2026-02-13T15:28:04Z</time></trkpt>
<trkpt lat="38.791362" lon="-119.978587"><ele>2409.4</ele><time>2026-02-13T15:28:09Z</time></trkpt>
<trkpt lat="38.791823" lon="-119.978647"><ele>2405.0</ele><time>2026-02-13T15:28:20Z</time></trkpt>
<trkpt lat="38.792035" lon="-119.978773"><ele>2403.2</ele><time>2026-02-13T15:28:24Z</time></trkpt>
<trkpt lat="38.792310" lon="-119.978783"><ele>2397.8</ele><time>2026-02-13T15:28:29Z</time></trkpt>
<trkpt lat="38.792547" lon="-119.978611"><ele>2394.4</ele><time>2026-02-13T15:28:35Z</time></trkpt>
<trkpt lat="38.792991" lon="-119.978437"><ele>2389.6</ele><time>2026-02-13T15:28:43Z</time></trkpt>
<trkpt lat="38.793419" lon="-119.977976"><ele>2385.4</ele><time>2026-02-13T15:28:52Z</time></trkpt>
<trkpt lat="38.793683" lon="-119.977821"><ele>2382.0</ele><time>2026-02-13T15:28:56Z</time></trkpt>
<trkpt lat="38.793920" lon="-119.977777"><ele>2378.4</ele><time>2026-02-13T15:28:59Z</time></trkpt>
<trkpt lat="38.794318" lon="-119.977064"><ele>2367.0</ele><time>2026-02-13T15:29:09Z</time></trkpt>
<trkpt lat="38.794431" lon="-119.976937"><ele>2363.4</ele><time>2026-02-13T15:29:11Z</time></trkpt>
<trkpt lat="38.794843" lon="-119.976887"><ele>2358.2</ele><time>2026-02-13T15:29:17Z</time></trkpt>
<trkpt lat="38.795119" lon="-119.976689"><ele>2354.6</ele><time>2026-02-13T15:29:23Z</time></trkpt>
<trkpt lat="38.795556" lon="-119.976324"><ele>2353.4</ele><time>2026-02-13T15:29:48Z</time></trkpt>
<trkpt lat="38.795692" lon="-119.976293"><ele>2354.4</ele><time>2026-02-13T15:30:10Z</time></trkpt>
<trkpt lat="38.795772" lon="-119.976324"><ele>2355.0</ele><time>2026-02-13T15:30:37Z</time></trkpt>
<trkpt lat="38.795772" lon="-119.976362"><ele>2355.0</ele><time>2026-02-13T15:30:55Z</time></trkpt>
<trkpt lat="38.795883" lon="-119.976429"><ele>2355.6</ele><time>2026-02-13T15:31:11Z</time></trkpt>
<trkpt lat="38.795957" lon="-119.976533"><ele>2357.6</ele><time>2026-02-13T15:31:25Z</time></trkpt>
<trkpt lat="38.796364" lon="-119.976731"><ele>2363.2</ele><time>2026-02-13T15:33:33Z</time></trkpt>
</trkseg></trk>
</gpx>
