<?xml version="1.0" encoding="UTF-8"?>
<gpx version="1.1" creator="Eric Sichak trip reports" xmlns="http://www.topografix.com/GPX/1/1">
<metadata><name>Hike near Tahoma</name><time>2023-07-03T22:03:25Z</time></metadata>
<trk><name>Hike near Tahoma</name><type>hike</type><trkseg>
<trkpt lat="38.976993" lon="-120.102054"><ele>2088.4</ele><time>2023-07-03T22:03:25Z</time></trkpt>
<trkpt lat="38.977111" lon="-120.102126"><ele>2088.4</ele><time>2023-07-03T22:03:37Z</time></trkpt>
<trkpt lat="38.977592" lon="-120.102965"><ele>2082.0</ele><time>2023-07-03T22:04:42Z</time></trkpt>
<trkpt lat="38.977676" lon="-120.102936"><ele>2081.6</ele><time>2023-07-03T22:05:09Z</time></trkpt>
<trkpt lat="38.977808" lon="-120.102950"><ele>2081.4</ele><time>2023-07-03T22:05:18Z</time></trkpt>
<trkpt lat="38.977903" lon="-120.102896"><ele>2081.4</ele><time>2023-07-03T22:05:27Z</time></trkpt>
<trkpt lat="38.978152" lon="-120.102858"><ele>2081.6</ele><time>2023-07-03T22:05:47Z</time></trkpt>
<trkpt lat="38.978523" lon="-120.102735"><ele>2079.2</ele><time>2023-07-03T22:06:17Z</time></trkpt>
<trkpt lat="38.978579" lon="-120.102615"><ele>2078.8</ele><time>2023-07-03T22:06:41Z</time></trkpt>
<trkpt lat="38.978624" lon="-120.102593"><ele>2079.4</ele><time>2023-07-03T22:06:55Z</time></trkpt>
<trkpt lat="38.978592" lon="-120.102562"><ele>2079.4</ele><time>2023-07-03T22:07:03Z</time></trkpt>
<trkpt lat="38.979529" lon="-120.102120"><ele>2076.2</ele><time>2023-07-03T22:08:21Z</time></trkpt>
<trkpt lat="38.980050" lon="-120.101969"><ele>2077.8</ele><time>2023-07-03T22:09:02Z</time></trkpt>
<trkpt lat="38.980631" lon="-120.101546"><ele>2079.8</ele><time>2023-07-03T22:09:52Z</time></trkpt>
<trkpt lat="38.980846" lon="-120.101510"><ele>2081.0</ele><time>2023-07-03T22:10:09Z</time></trkpt>
<trkpt lat="38.981226" lon="-120.101578"><ele>2082.6</ele><time>2023-07-03T22:10:37Z</time></trkpt>
<trkpt lat="38.981483" lon="-120.101581"><ele>2082.4</ele><time>2023-07-03T22:10:56Z</time></trkpt>
<trkpt lat="38.981994" lon="-120.101707"><ele>2083.0</ele><time>2023-07-03T22:11:35Z</time></trkpt>
<trkpt lat="38.982382" lon="-120.101691"><ele>2083.8</ele><time>2023-07-03T22:12:05Z</time></trkpt>
<trkpt lat="38.982560" lon="-120.101570"><ele>2084.6</ele><time>2023-07-03T22:12:19Z</time></trkpt>
<trkpt lat="38.982744" lon="-120.101349"><ele>2085.8</ele><time>2023-07-03T22:12:38Z</time></trkpt>
<trkpt lat="38.982809" lon="-120.101222"><ele>2085.8</ele><time>2023-07-03T22:12:47Z</time></trkpt>
<trkpt lat="38.982817" lon="-120.100900"><ele>2084.4</ele><time>2023-07-03T22:13:07Z</time></trkpt>
<trkpt lat="38.982868" lon="-120.100904"><ele>2084.2</ele><time>2023-07-03T22:13:13Z</time></trkpt>
<trkpt lat="38.982855" lon="-120.101051"><ele>2084.4</ele><time>2023-07-03T22:13:24Z</time></trkpt>
<trkpt lat="38.982922" lon="-120.101115"><ele>2084.2</ele><time>2023-07-03T22:13:30Z</time></trkpt>
<trkpt lat="38.983288" lon="-120.100817"><ele>2078.2</ele><time>2023-07-03T22:14:05Z</time></trkpt>
<trkpt lat="38.983373" lon="-120.100810"><ele>2077.0</ele><time>2023-07-03T22:14:13Z</time></trkpt>
<trkpt lat="38.983575" lon="-120.100695"><ele>2074.0</ele><time>2023-07-03T22:14:34Z</time></trkpt>
<trkpt lat="38.983715" lon="-120.100699"><ele>2071.8</ele><time>2023-07-03T22:14:50Z</time></trkpt>
<trkpt lat="38.983836" lon="-120.100647"><ele>2070.4</ele><time>2023-07-03T22:15:02Z</time></trkpt>
<trkpt lat="38.984024" lon="-120.100438"><ele>2066.6</ele><time>2023-07-03T22:15:26Z</time></trkpt>
<trkpt lat="38.984143" lon="-120.100370"><ele>2065.0</ele><time>2023-07-03T22:15:39Z</time></trkpt>
<trkpt lat="38.984397" lon="-120.100044"><ele>2060.8</ele><time>2023-07-03T22:16:11Z</time></trkpt>
<trkpt lat="38.984442" lon="-120.099936"><ele>2058.2</ele><time>2023-07-03T22:16:23Z</time></trkpt>
<trkpt lat="38.984477" lon="-120.099983"><ele>2057.0</ele><time>2023-07-03T22:16:29Z</time></trkpt>
<trkpt lat="38.984567" lon="-120.099896"><ele>2055.2</ele><time>2023-07-03T22:16:40Z</time></trkpt>
<trkpt lat="38.984702" lon="-120.099966"><ele>2052.8</ele><time>2023-07-03T22:16:53Z</time></trkpt>
<trkpt lat="38.985022" lon="-120.099759"><ele>2047.2</ele><time>2023-07-03T22:17:27Z</time></trkpt>
<trkpt lat="38.985116" lon="-120.099824"><ele>2046.0</ele><time>2023-07-03T22:17:40Z</time></trkpt>
<trkpt lat="38.985346" lon="-120.099835"><ele>2043.0</ele><time>2023-07-03T22:17:58Z</time></trkpt>
<trkpt lat="38.985611" lon="-120.099961"><ele>2039.4</ele><time>2023-07-03T22:18:30Z</time></trkpt>
<trkpt lat="38.985797" lon="-120.099875"><ele>2037.4</ele><time>2023-07-03T22:18:46Z</time></trkpt>
<trkpt lat="38.985982" lon="-120.099858"><ele>2036.4</ele><time>2023-07-03T22:18:59Z</time></trkpt>
<trkpt lat="38.986627" lon="-120.099499"><ele>2032.8</ele><time>2023-07-03T22:19:51Z</time></trkpt>
<trkpt lat="38.986781" lon="-120.099513"><ele>2031.8</ele><time>2023-07-03T22:20:06Z</time></trkpt>
<trkpt lat="38.987048" lon="-120.099657"><ele>2030.6</ele><time>2023-07-03T22:20:46Z</time></trkpt>
<trkpt lat="38.987188" lon="-120.099658"><ele>2030.2</ele><time>2023-07-03T22:20:58Z</time></trkpt>
<trkpt lat="38.987640" lon="-120.099458"><ele>2029.2</ele><time>2023-07-03T22:21:36Z</time></trkpt>
<trkpt lat="38.988430" lon="-120.099001"><ele>2023.6</ele><time>2023-07-03T22:22:43Z</time></trkpt>
<trkpt lat="38.988582" lon="-120.098882"><ele>2022.6</ele><time>2023-07-03T22:22:57Z</time></trkpt>
<trkpt lat="38.988895" lon="-120.098816"><ele>2021.2</ele><time>2023-07-03T22:23:22Z</time></trkpt>
<trkpt lat="38.989086" lon="-120.098816"><ele>2020.4</ele><time>2023-07-03T22:23:38Z</time></trkpt>
<trkpt lat="38.989281" lon="-120.098897"><ele>2019.4</ele><time>2023-07-03T22:23:56Z</time></trkpt>
<trkpt lat="38.988918" lon="-120.098714"><ele>2020.4</ele><time>2023-07-03T22:24:33Z</time></trkpt>
<trkpt lat="38.988858" lon="-120.098646"><ele>2021.2</ele><time>2023-07-03T22:24:55Z</time></trkpt>
<trkpt lat="38.988796" lon="-120.098639"><ele>2020.8</ele><time>2023-07-03T22:25:19Z</time></trkpt>
<trkpt lat="38.988837" lon="-120.098649"><ele>2020.6</ele><time>2023-07-03T22:25:47Z</time></trkpt>
<trkpt lat="38.988832" lon="-120.098676"><ele>2020.6</ele><time>2023-07-03T22:25:56Z</time></trkpt>
<trkpt lat="38.988849" lon="-120.098622"><ele>2020.4</ele><time>2023-07-03T22:26:22Z</time></trkpt>
<trkpt lat="38.988854" lon="-120.098658"><ele>2020.0</ele><time>2023-07-03T22:26:47Z</time></trkpt>
<trkpt lat="38.988897" lon="-120.098640"><ele>2020.8</ele><time>2023-07-03T22:27:02Z</time></trkpt>
<trkpt lat="38.988868" lon="-120.098688"><ele>2020.0</ele><time>2023-07-03T22:27:10Z</time></trkpt>
<trkpt lat="38.988789" lon="-120.098337"><ele>2021.6</ele><time>2023-07-03T22:27:47Z</time></trkpt>
<trkpt lat="38.988835" lon="-120.097993"><ele>2020.0</ele><time>2023-07-03T22:28:13Z</time></trkpt>
<trkpt lat="38.988825" lon="-120.097879"><ele>2019.4</ele><time>2023-07-03T22:28:21Z</time></trkpt>
<trkpt lat="38.988730" lon="-120.097742"><ele>2018.6</ele><time>2023-07-03T22:28:33Z</time></trkpt>
<trkpt lat="38.988912" lon="-120.097323"><ele>2017.2</ele><time>2023-07-03T22:29:04Z</time></trkpt>
<trkpt lat="38.989214" lon="-120.097134"><ele>2018.2</ele><time>2023-07-03T22:29:33Z</time></trkpt>
<trkpt lat="38.989344" lon="-120.096726"><ele>2017.4</ele><time>2023-07-03T22:30:00Z</time></trkpt>
<trkpt lat="38.989440" lon="-120.096583"><ele>2019.2</ele><time>2023-07-03T22:30:22Z</time></trkpt>
<trkpt lat="38.989420" lon="-120.096590"><ele>2018.0</ele><time>2023-07-03T22:30:52Z</time></trkpt>
<trkpt lat="38.989584" lon="-120.096351"><ele>2015.8</ele><time>2023-07-03T22:31:18Z</time></trkpt>
<trkpt lat="38.989864" lon="-120.096269"><ele>2014.6</ele><time>2023-07-03T22:31:42Z</time></trkpt>
<trkpt lat="38.990083" lon="-120.096045"><ele>2013.0</ele><time>2023-07-03T22:32:05Z</time></trkpt>
<trkpt lat="38.990337" lon="-120.095488"><ele>2009.8</ele><time>2023-07-03T22:32:48Z</time></trkpt>
<trkpt lat="38.990320" lon="-120.095460"><ele>2009.4</ele><time>2023-07-03T22:33:13Z</time></trkpt>
<trkpt lat="38.990314" lon="-120.095538"><ele>2007.6</ele><time>2023-07-03T22:33:58Z</time></trkpt>
<trkpt lat="38.990323" lon="-120.095468"><ele>2006.8</ele><time>2023-07-03T22:34:15Z</time></trkpt>
<trkpt lat="38.990340" lon="-120.095535"><ele>2005.4</ele><time>2023-07-03T22:35:03Z</time></trkpt>
<trkpt lat="38.990338" lon="-120.095466"><ele>2005.6</ele><time>2023-07-03T22:35:43Z</time></trkpt>
<trkpt lat="38.990589" lon="-120.095622"><ele>2004.4</ele><time>2023-07-03T22:36:11Z</time></trkpt>
<trkpt lat="38.991067" lon="-120.095698"><ele>2006.4</ele><time>2023-07-03T22:36:51Z</time></trkpt>
<trkpt lat="38.991267" lon="-120.095672"><ele>2005.4</ele><time>2023-07-03T22:37:08Z</time></trkpt>
<trkpt lat="38.991411" lon="-120.095598"><ele>2003.4</ele><time>2023-07-03T22:37:21Z</time></trkpt>
<trkpt lat="38.991722" lon="-120.095557"><ele>2001.6</ele><time>2023-07-03T22:37:46Z</time></trkpt>
<trkpt lat="38.992070" lon="-120.095566"><ele>2002.0</ele><time>2023-07-03T22:38:17Z</time></trkpt>
<trkpt lat="38.992183" lon="-120.095511"><ele>1999.6</ele><time>2023-07-03T22:38:33Z</time></trkpt>
<trkpt lat="38.992363" lon="-120.095545"><ele>1997.8</ele><time>2023-07-03T22:38:48Z</time></trkpt>
<trkpt lat="38.992501" lon="-120.095688"><ele>1996.8</ele><time>2023-07-03T22:39:03Z</time></trkpt>
<trkpt lat="38.992810" lon="-120.095730"><ele>1994.0</ele><time>2023-07-03T22:39:32Z</time></trkpt>
<trkpt lat="38.993272" lon="-120.095855"><ele>1996.6</ele><time>2023-07-03T22:40:20Z</time></trkpt>
<trkpt lat="38.993625" lon="-120.095784"><ele>1993.6</ele><time>2023-07-03T22:40:49Z</time></trkpt>
<trkpt lat="38.993842" lon="-120.095817"><ele>1992.2</ele><time>2023-07-03T22:41:11Z</time></trkpt>
<trkpt lat="38.994009" lon="-120.095904"><ele>1992.2</ele><time>2023-07-03T22:41:26Z</time></trkpt>
<trkpt lat="38.994092" lon="-120.095847"><ele>1992.2</ele><time>2023-07-03T22:41:33Z</time></trkpt>
<trkpt lat="38.994385" lon="-120.095768"><ele>1989.6</ele><time>2023-07-03T22:42:00Z</time></trkpt>
<trkpt lat="38.994752" lon="-120.095906"><ele>1989.0</ele><time>2023-07-03T22:42:37Z</time></trkpt>
<trkpt lat="38.994883" lon="-120.095900"><ele>1987.2</ele><time>2023-07-03T22:42:52Z</time></trkpt>
<trkpt lat="38.994931" lon="-120.095836"><ele>1985.0</ele><time>2023-07-03T22:43:06Z</time></trkpt>
<trkpt lat="38.995133" lon="-120.095712"><ele>1981.0</ele><time>2023-07-03T22:43:30Z</time></trkpt>
<trkpt lat="38.995545" lon="-120.095644"><ele>1976.8</ele><time>2023-07-03T22:44:23Z</time></trkpt>
<trkpt lat="38.995604" lon="-120.095603"><ele>1976.0</ele><time>2023-07-03T22:44:29Z</time></trkpt>
<trkpt lat="38.995636" lon="-120.095227"><ele>1971.0</ele><time>2023-07-03T22:45:30Z</time></trkpt>
<trkpt lat="38.995703" lon="-120.095104"><ele>1968.2</ele><time>2023-07-03T22:46:19Z</time></trkpt>
<trkpt lat="38.995731" lon="-120.094852"><ele>1961.8</ele><time>2023-07-03T22:46:51Z</time></trkpt>
<trkpt lat="38.995689" lon="-120.094796"><ele>1960.6</ele><time>2023-07-03T22:46:57Z</time></trkpt>
<trkpt lat="38.995699" lon="-120.094761"><ele>1959.8</ele><time>2023-07-03T22:47:03Z</time></trkpt>
<trkpt lat="38.995828" lon="-120.094708"><ele>1956.4</ele><time>2023-07-03T22:47:18Z</time></trkpt>
<trkpt lat="38.995847" lon="-120.094586"><ele>1954.0</ele><time>2023-07-03T22:47:31Z</time></trkpt>
<trkpt lat="38.995863" lon="-120.094600"><ele>1952.6</ele><time>2023-07-03T22:47:36Z</time></trkpt>
<trkpt lat="38.995922" lon="-120.094449"><ele>1949.6</ele><time>2023-07-03T22:47:54Z</time></trkpt>
<trkpt lat="38.995920" lon="-120.094364"><ele>1948.6</ele><time>2023-07-03T22:48:05Z</time></trkpt>
<trkpt lat="38.995955" lon="-120.094376"><ele>1948.8</ele><time>2023-07-03T22:48:10Z</time></trkpt>
<trkpt lat="38.995946" lon="-120.094393"><ele>1952.6</ele><time>2023-07-03T22:48:27Z</time></trkpt>
<trkpt lat="38.995964" lon="-120.094375"><ele>1950.2</ele><time>2023-07-03T22:48:56Z</time></trkpt>
<trkpt lat="38.995960" lon="-120.094407"><ele>1950.6</ele><time>2023-07-03T22:49:12Z</time></trkpt>
<trkpt lat="38.995974" lon="-120.094369"><ele>1948.6</ele><time>2023-07-03T22:49:32Z</time></trkpt>
<trkpt lat="38.995927" lon="-120.094369"><ele>1945.6</ele><time>2023-07-03T22:50:49Z</time></trkpt>
<trkpt lat="38.995949" lon="-120.094368"><ele>1944.8</ele><time>2023-07-03T22:51:06Z</time></trkpt>
<trkpt lat="38.995925" lon="-120.094359"><ele>1940.8</ele><time>2023-07-03T22:52:37Z</time></trkpt>
<trkpt lat="38.995948" lon="-120.094365"><ele>1939.2</ele><time>2023-07-03T22:53:46Z</time></trkpt>
<trkpt lat="38.995910" lon="-120.094363"><ele>1936.0</ele><time>2023-07-03T22:56:04Z</time></trkpt>
<trkpt lat="38.995860" lon="-120.094490"><ele>1935.2</ele><time>2023-07-03T22:56:31Z</time></trkpt>
<trkpt lat="38.995985" lon="-120.094396"><ele>1934.2</ele><time>2023-07-03T22:56:53Z</time></trkpt>
<trkpt lat="38.995861" lon="-120.094477"><ele>1934.8</ele><time>2023-07-03T22:57:32Z</time></trkpt>
<trkpt lat="38.995853" lon="-120.094603"><ele>1934.8</ele><time>2023-07-03T22:57:43Z</time></trkpt>
<trkpt lat="38.995814" lon="-120.094606"><ele>1935.4</ele><time>2023-07-03T22:57:48Z</time></trkpt>
<trkpt lat="38.995835" lon="-120.094701"><ele>1938.2</ele><time>2023-07-03T22:58:06Z</time></trkpt>
<trkpt lat="38.995975" lon="-120.094812"><ele>1938.0</ele><time>2023-07-03T22:58:27Z</time></trkpt>
<trkpt lat="38.996121" lon="-120.094821"><ele>1939.0</ele><time>2023-07-03T22:58:40Z</time></trkpt>
<trkpt lat="38.996232" lon="-120.094750"><ele>1939.4</ele><time>2023-07-03T22:58:52Z</time></trkpt>
<trkpt lat="38.996363" lon="-120.094798"><ele>1938.4</ele><time>2023-07-03T22:59:04Z</time></trkpt>
<trkpt lat="38.996473" lon="-120.094906"><ele>1937.4</ele><time>2023-07-03T22:59:26Z</time></trkpt>
<trkpt lat="38.996669" lon="-120.094948"><ele>1935.8</ele><time>2023-07-03T22:59:47Z</time></trkpt>
<trkpt lat="38.996860" lon="-120.095046"><ele>1936.6</ele><time>2023-07-03T23:00:15Z</time></trkpt>
<trkpt lat="38.996957" lon="-120.095131"><ele>1937.8</ele><time>2023-07-03T23:00:32Z</time></trkpt>
<trkpt lat="38.996943" lon="-120.095176"><ele>1938.2</ele><time>2023-07-03T23:00:49Z</time></trkpt>
<trkpt lat="38.996990" lon="-120.095198"><ele>1937.8</ele><time>2023-07-03T23:00:59Z</time></trkpt>
<trkpt lat="38.997024" lon="-120.095315"><ele>1935.6</ele><time>2023-07-03T23:01:10Z</time></trkpt>
<trkpt lat="38.997078" lon="-120.095359"><ele>1934.2</ele><time>2023-07-03T23:01:18Z</time></trkpt>
<trkpt lat="38.997105" lon="-120.095317"><ele>1934.2</ele><time>2023-07-03T23:01:26Z</time></trkpt>
<trkpt lat="38.997214" lon="-120.095423"><ele>1935.0</ele><time>2023-07-03T23:02:08Z</time></trkpt>
<trkpt lat="38.997302" lon="-120.095401"><ele>1934.6</ele><time>2023-07-03T23:02:28Z</time></trkpt>
<trkpt lat="38.997385" lon="-120.095507"><ele>1933.8</ele><time>2023-07-03T23:02:41Z</time></trkpt>
<trkpt lat="38.997461" lon="-120.095523"><ele>1933.0</ele><time>2023-07-03T23:02:53Z</time></trkpt>
<trkpt lat="38.997699" lon="-120.095691"><ele>1929.6</ele><time>2023-07-03T23:03:23Z</time></trkpt>
<trkpt lat="38.997899" lon="-120.095726"><ele>1927.4</ele><time>2023-07-03T23:03:40Z</time></trkpt>
<trkpt lat="38.998162" lon="-120.095865"><ele>1929.0</ele><time>2023-07-03T23:04:03Z</time></trkpt>
<trkpt lat="38.998330" lon="-120.096240"><ele>1927.2</ele><time>2023-07-03T23:04:33Z</time></trkpt>
<trkpt lat="38.998512" lon="-120.096396"><ele>1923.6</ele><time>2023-07-03T23:04:53Z</time></trkpt>
<trkpt lat="38.998637" lon="-120.096400"><ele>1921.8</ele><time>2023-07-03T23:05:04Z</time></trkpt>
<trkpt lat="38.998759" lon="-120.096300"><ele>1919.2</ele><time>2023-07-03T23:05:19Z</time></trkpt>
<trkpt lat="38.998851" lon="-120.096284"><ele>1918.2</ele><time>2023-07-03T23:05:29Z</time></trkpt>
<trkpt lat="38.998838" lon="-120.096342"><ele>1918.6</ele><time>2023-07-03T23:06:07Z</time></trkpt>
<trkpt lat="38.998815" lon="-120.096317"><ele>1918.6</ele><time>2023-07-03T23:06:17Z</time></trkpt>
<trkpt lat="38.998897" lon="-120.096564"><ele>1917.0</ele><time>2023-07-03T23:06:53Z</time></trkpt>
<trkpt lat="38.998868" lon="-120.096554"><ele>1917.2</ele><time>2023-07-03T23:07:04Z</time></trkpt>
<trkpt lat="38.998800" lon="-120.096666"><ele>1918.2</ele><time>2023-07-03T23:07:20Z</time></trkpt>
<trkpt lat="38.998810" lon="-120.096904"><ele>1917.6</ele><time>2023-07-03T23:07:51Z</time></trkpt>
<trkpt lat="38.998735" lon="-120.096990"><ele>1918.0</ele><time>2023-07-03T23:08:10Z</time></trkpt>
<trkpt lat="38.998602" lon="-120.097507"><ele>1917.4</ele><time>2023-07-03T23:09:17Z</time></trkpt>
<trkpt lat="38.998652" lon="-120.097669"><ele>1918.2</ele><time>2023-07-03T23:09:31Z</time></trkpt>
<trkpt lat="38.998615" lon="-120.097780"><ele>1918.6</ele><time>2023-07-03T23:09:40Z</time></trkpt>
<trkpt lat="38.998618" lon="-120.097826"><ele>1918.6</ele><time>2023-07-03T23:09:43Z</time></trkpt>
<trkpt lat="38.998644" lon="-120.097827"><ele>1918.6</ele><time>2023-07-03T23:09:45Z</time></trkpt>
<trkpt lat="38.998718" lon="-120.097768"><ele>1917.0</ele><time>2023-07-03T23:09:55Z</time></trkpt>
<trkpt lat="38.998773" lon="-120.097767"><ele>1914.4</ele><time>2023-07-03T23:10:05Z</time></trkpt>
<trkpt lat="38.998782" lon="-120.097839"><ele>1913.8</ele><time>2023-07-03T23:10:11Z</time></trkpt>
<trkpt lat="38.998721" lon="-120.098106"><ele>1911.4</ele><time>2023-07-03T23:10:45Z</time></trkpt>
<trkpt lat="38.998764" lon="-120.098225"><ele>1908.2</ele><time>2023-07-03T23:11:00Z</time></trkpt>
<trkpt lat="38.998835" lon="-120.098209"><ele>1906.0</ele><time>2023-07-03T23:11:12Z</time></trkpt>
<trkpt lat="38.998911" lon="-120.098281"><ele>1904.0</ele><time>2023-07-03T23:11:43Z</time></trkpt>
<trkpt lat="38.998959" lon="-120.098244"><ele>1904.2</ele><time>2023-07-03T23:13:26Z</time></trkpt>
<trkpt lat="38.998916" lon="-120.098249"><ele>1904.2</ele><time>2023-07-03T23:14:00Z</time></trkpt>
<trkpt lat="38.998951" lon="-120.098247"><ele>1905.2</ele><time>2023-07-03T23:14:49Z</time></trkpt>
<trkpt lat="38.998919" lon="-120.098280"><ele>1906.2</ele><time>2023-07-03T23:17:01Z</time></trkpt>
<trkpt lat="38.998949" lon="-120.098228"><ele>1906.0</ele><time>2023-07-03T23:17:26Z</time></trkpt>
<trkpt lat="38.998913" lon="-120.098243"><ele>1905.4</ele><time>2023-07-03T23:20:54Z</time></trkpt>
<trkpt lat="38.998935" lon="-120.098245"><ele>1905.8</ele><time>2023-07-03T23:21:32Z</time></trkpt>
<trkpt lat="38.998921" lon="-120.098266"><ele>1906.2</ele><time>2023-07-03T23:21:44Z</time></trkpt>
<trkpt lat="38.998896" lon="-120.098207"><ele>1905.8</ele><time>2023-07-03T23:22:13Z</time></trkpt>
<trkpt lat="38.998800" lon="-120.098157"><ele>1908.0</ele><time>2023-07-03T23:22:28Z</time></trkpt>
<trkpt lat="38.998766" lon="-120.098181"><ele>1908.8</ele><time>2023-07-03T23:22:32Z</time></trkpt>
<trkpt lat="38.998714" lon="-120.098116"><ele>1912.6</ele><time>2023-07-03T23:22:48Z</time></trkpt>
<trkpt lat="38.998772" lon="-120.097885"><ele>1917.0</ele><time>2023-07-03T23:23:11Z</time></trkpt>
<trkpt lat="38.998773" lon="-120.097762"><ele>1917.2</ele><time>2023-07-03T23:23:19Z</time></trkpt>
<trkpt lat="38.998664" lon="-120.097738"><ele>1919.8</ele><time>2023-07-03T23:23:33Z</time></trkpt>
<trkpt lat="38.998609" lon="-120.097519"><ele>1921.4</ele><time>2023-07-03T23:23:51Z</time></trkpt>
<trkpt lat="38.998697" lon="-120.097127"><ele>1920.8</ele><time>2023-07-03T23:24:19Z</time></trkpt>
<trkpt lat="38.998823" lon="-120.096826"><ele>1921.4</ele><time>2023-07-03T23:24:40Z</time></trkpt>
<trkpt lat="38.998814" lon="-120.096676"><ele>1922.4</ele><time>2023-07-03T23:24:51Z</time></trkpt>
<trkpt lat="38.999003" lon="-120.096387"><ele>1921.8</ele><time>2023-07-03T23:25:22Z</time></trkpt>
<trkpt lat="38.999069" lon="-120.096395"><ele>1921.6</ele><time>2023-07-03T23:25:34Z</time></trkpt>
<trkpt lat="38.999042" lon="-120.096381"><ele>1921.4</ele><time>2023-07-03T23:25:49Z</time></trkpt>
<trkpt lat="38.999021" lon="-120.096422"><ele>1920.2</ele><time>2023-07-03T23:25:58Z</time></trkpt>
<trkpt lat="38.999081" lon="-120.096470"><ele>1917.6</ele><time>2023-07-03T23:26:17Z</time></trkpt>
<trkpt lat="38.999122" lon="-120.096411"><ele>1920.2</ele><time>2023-07-03T23:26:28Z</time></trkpt>
<trkpt lat="38.999133" lon="-120.096416"><ele>1922.8</ele><time>2023-07-03T23:26:40Z</time></trkpt>
<trkpt lat="38.999207" lon="-120.096406"><ele>1920.0</ele><time>2023-07-03T23:27:26Z</time></trkpt>
<trkpt lat="38.999168" lon="-120.096357"><ele>1918.2</ele><time>2023-07-03T23:28:26Z</time></trkpt>
<trkpt lat="38.999160" lon="-120.096398"><ele>1918.0</ele><time>2023-07-03T23:28:33Z</time></trkpt>
<trkpt lat="38.999125" lon="-120.096415"><ele>1918.4</ele><time>2023-07-03T23:28:38Z</time></trkpt>
<trkpt lat="38.999113" lon="-120.096377"><ele>1918.2</ele><time>2023-07-03T23:28:53Z</time></trkpt>
<trkpt lat="38.999119" lon="-120.096400"><ele>1916.8</ele><time>2023-07-03T23:29:03Z</time></trkpt>
<trkpt lat="38.999082" lon="-120.096409"><ele>1918.2</ele><time>2023-07-03T23:29:20Z</time></trkpt>
<trkpt lat="38.999104" lon="-120.096440"><ele>1916.8</ele><time>2023-07-03T23:29:42Z</time></trkpt>
<trkpt lat="38.999083" lon="-120.096423"><ele>1915.8</ele><time>2023-07-03T23:29:48Z</time></trkpt>
<trkpt lat="38.999077" lon="-120.096469"><ele>1915.4</ele><time>2023-07-03T23:29:56Z</time></trkpt>
<trkpt lat="38.999045" lon="-120.096460"><ele>1914.4</ele><time>2023-07-03T23:30:09Z</time></trkpt>
<trkpt lat="38.999016" lon="-120.096420"><ele>1917.0</ele><time>2023-07-03T23:30:21Z</time></trkpt>
<trkpt lat="38.999018" lon="-120.096355"><ele>1917.4</ele><time>2023-07-03T23:30:32Z</time></trkpt>
<trkpt lat="38.998984" lon="-120.096326"><ele>1917.6</ele><time>2023-07-03T23:30:49Z</time></trkpt>
<trkpt lat="38.999019" lon="-120.096394"><ele>1916.0</ele><time>2023-07-03T23:31:39Z</time></trkpt>
<trkpt lat="38.998906" lon="-120.096516"><ele>1914.0</ele><time>2023-07-03T23:32:06Z</time></trkpt>
<trkpt lat="38.998836" lon="-120.096281"><ele>1914.8</ele><time>2023-07-03T23:32:24Z</time></trkpt>
<trkpt lat="38.998768" lon="-120.096267"><ele>1914.4</ele><time>2023-07-03T23:32:29Z</time></trkpt>
<trkpt lat="38.998709" lon="-120.096321"><ele>1915.4</ele><time>2023-07-03T23:32:37Z</time></trkpt>
<trkpt lat="38.998586" lon="-120.096346"><ele>1917.0</ele><time>2023-07-03T23:32:50Z</time></trkpt>
<trkpt lat="38.998441" lon="-120.096311"><ele>1919.2</ele><time>2023-07-03T23:33:05Z</time></trkpt>
<trkpt lat="38.998331" lon="-120.096220"><ele>1922.6</ele><time>2023-07-03T23:33:22Z</time></trkpt>
<trkpt lat="38.998201" lon="-120.095915"><ele>1926.4</ele><time>2023-07-03T23:33:50Z</time></trkpt>
<trkpt lat="38.998138" lon="-120.095830"><ele>1927.0</ele><time>2023-07-03T23:33:58Z</time></trkpt>
<trkpt lat="38.997952" lon="-120.095733"><ele>1926.0</ele><time>2023-07-03T23:34:14Z</time></trkpt>
<trkpt lat="38.997690" lon="-120.095661"><ele>1926.8</ele><time>2023-07-03T23:34:36Z</time></trkpt>
<trkpt lat="38.997198" lon="-120.095403"><ele>1932.6</ele><time>2023-07-03T23:35:37Z</time></trkpt>
<trkpt lat="38.997055" lon="-120.095319"><ele>1933.8</ele><time>2023-07-03T23:36:07Z</time></trkpt>
<trkpt lat="38.996948" lon="-120.095140"><ele>1937.0</ele><time>2023-07-03T23:36:25Z</time></trkpt>
<trkpt lat="38.996809" lon="-120.095020"><ele>1937.0</ele><time>2023-07-03T23:36:54Z</time></trkpt>
<trkpt lat="38.996780" lon="-120.095035"><ele>1937.0</ele><time>2023-07-03T23:37:35Z</time></trkpt>
<trkpt lat="38.996702" lon="-120.094961"><ele>1937.2</ele><time>2023-07-03T23:37:47Z</time></trkpt>
<trkpt lat="38.996475" lon="-120.094897"><ele>1938.6</ele><time>2023-07-03T23:38:09Z</time></trkpt>
<trkpt lat="38.996345" lon="-120.094776"><ele>1939.8</ele><time>2023-07-03T23:38:24Z</time></trkpt>
<trkpt lat="38.996216" lon="-120.094734"><ele>1941.2</ele><time>2023-07-03T23:38:36Z</time></trkpt>
<trkpt lat="38.996085" lon="-120.094818"><ele>1941.2</ele><time>2023-07-03T23:38:50Z</time></trkpt>
<trkpt lat="38.996027" lon="-120.094819"><ele>1941.2</ele><time>2023-07-03T23:38:55Z</time></trkpt>
<trkpt lat="38.995805" lon="-120.094683"><ele>1940.4</ele><time>2023-07-03T23:39:15Z</time></trkpt>
<trkpt lat="38.995687" lon="-120.094765"><ele>1943.4</ele><time>2023-07-03T23:39:32Z</time></trkpt>
<trkpt lat="38.995708" lon="-120.094879"><ele>1945.2</ele><time>2023-07-03T23:39:45Z</time></trkpt>
<trkpt lat="38.995679" lon="-120.095141"><ele>1951.0</ele><time>2023-07-03T23:40:12Z</time></trkpt>
<trkpt lat="38.995633" lon="-120.095228"><ele>1952.6</ele><time>2023-07-03T23:40:23Z</time></trkpt>
<trkpt lat="38.995585" lon="-120.095600"><ele>1959.6</ele><time>2023-07-03T23:40:56Z</time></trkpt>
<trkpt lat="38.995145" lon="-120.095684"><ele>1964.8</ele><time>2023-07-03T23:41:41Z</time></trkpt>
<trkpt lat="38.994768" lon="-120.095907"><ele>1973.6</ele><time>2023-07-03T23:42:28Z</time></trkpt>
<trkpt lat="38.994394" lon="-120.095724"><ele>1976.2</ele><time>2023-07-03T23:43:04Z</time></trkpt>
<trkpt lat="38.994251" lon="-120.095747"><ele>1977.0</ele><time>2023-07-03T23:43:18Z</time></trkpt>
<trkpt lat="38.994218" lon="-120.095778"><ele>1977.0</ele><time>2023-07-03T23:43:24Z</time></trkpt>
<trkpt lat="38.994366" lon="-120.095760"><ele>1977.4</ele><time>2023-07-03T23:44:07Z</time></trkpt>
<trkpt lat="38.994263" lon="-120.095745"><ele>1977.4</ele><time>2023-07-03T23:44:17Z</time></trkpt>
<trkpt lat="38.994004" lon="-120.095877"><ele>1980.2</ele><time>2023-07-03T23:44:41Z</time></trkpt>
<trkpt lat="38.993827" lon="-120.095786"><ele>1980.2</ele><time>2023-07-03T23:44:58Z</time></trkpt>
<trkpt lat="38.993564" lon="-120.095752"><ele>1982.0</ele><time>2023-07-03T23:45:20Z</time></trkpt>
<trkpt lat="38.993279" lon="-120.095825"><ele>1985.4</ele><time>2023-07-03T23:45:46Z</time></trkpt>
<trkpt lat="38.993186" lon="-120.095786"><ele>1985.4</ele><time>2023-07-03T23:45:58Z</time></trkpt>
<trkpt lat="38.992996" lon="-120.095780"><ele>1984.8</ele><time>2023-07-03T23:46:16Z</time></trkpt>
<trkpt lat="38.992721" lon="-120.095675"><ele>1983.8</ele><time>2023-07-03T23:46:40Z</time></trkpt>
<trkpt lat="38.992595" lon="-120.095694"><ele>1986.6</ele><time>2023-07-03T23:46:54Z</time></trkpt>
<trkpt lat="38.992346" lon="-120.095515"><ele>1988.4</ele><time>2023-07-03T23:47:18Z</time></trkpt>
<trkpt lat="38.992190" lon="-120.095481"><ele>1989.8</ele><time>2023-07-03T23:47:32Z</time></trkpt>
<trkpt lat="38.992007" lon="-120.095531"><ele>1993.0</ele><time>2023-07-03T23:47:51Z</time></trkpt>
<trkpt lat="38.991880" lon="-120.095515"><ele>1994.4</ele><time>2023-07-03T23:48:02Z</time></trkpt>
<trkpt lat="38.991558" lon="-120.095547"><ele>1994.6</ele><time>2023-07-03T23:48:30Z</time></trkpt>
<trkpt lat="38.991078" lon="-120.095668"><ele>1999.4</ele><time>2023-07-03T23:49:15Z</time></trkpt>
<trkpt lat="38.990667" lon="-120.095610"><ele>1999.6</ele><time>2023-07-03T23:49:50Z</time></trkpt>
<trkpt lat="38.990467" lon="-120.095506"><ele>1998.6</ele><time>2023-07-03T23:50:08Z</time></trkpt>
<trkpt lat="38.990354" lon="-120.095487"><ele>1999.2</ele><time>2023-07-03T23:50:20Z</time></trkpt>
<trkpt lat="38.990280" lon="-120.095559"><ele>1999.0</ele><time>2023-07-03T23:50:27Z</time></trkpt>
<trkpt lat="38.990097" lon="-120.095989"><ele>2000.6</ele><time>2023-07-03T23:51:01Z</time></trkpt>
<trkpt lat="38.989947" lon="-120.096191"><ele>2003.2</ele><time>2023-07-03T23:51:20Z</time></trkpt>
<trkpt lat="38.989881" lon="-120.096252"><ele>2004.0</ele><time>2023-07-03T23:51:26Z</time></trkpt>
<trkpt lat="38.989775" lon="-120.096255"><ele>2005.0</ele><time>2023-07-03T23:51:36Z</time></trkpt>
<trkpt lat="38.989585" lon="-120.096329"><ele>2005.4</ele><time>2023-07-03T23:51:53Z</time></trkpt>
<trkpt lat="38.989330" lon="-120.096684"><ele>2006.0</ele><time>2023-07-03T23:52:24Z</time></trkpt>
<trkpt lat="38.989208" lon="-120.097080"><ele>2007.4</ele><time>2023-07-03T23:52:51Z</time></trkpt>
<trkpt lat="38.988905" lon="-120.097255"><ele>2005.6</ele><time>2023-07-03T23:53:21Z</time></trkpt>
<trkpt lat="38.988740" lon="-120.097662"><ele>2006.0</ele><time>2023-07-03T23:53:51Z</time></trkpt>
<trkpt lat="38.988675" lon="-120.097717"><ele>2006.4</ele><time>2023-07-03T23:53:58Z</time></trkpt>
<trkpt lat="38.988663" lon="-120.097765"><ele>2006.4</ele><time>2023-07-03T23:54:01Z</time></trkpt>
<trkpt lat="38.988767" lon="-120.097857"><ele>2006.6</ele><time>2023-07-03T23:54:11Z</time></trkpt>
<trkpt lat="38.988802" lon="-120.097998"><ele>2007.2</ele><time>2023-07-03T23:54:22Z</time></trkpt>
<trkpt lat="38.988751" lon="-120.098354"><ele>2009.0</ele><time>2023-07-03T23:54:46Z</time></trkpt>
<trkpt lat="38.988782" lon="-120.098548"><ele>2009.2</ele><time>2023-07-03T23:54:59Z</time></trkpt>
<trkpt lat="38.988739" lon="-120.098765"><ele>2009.4</ele><time>2023-07-03T23:55:17Z</time></trkpt>
<trkpt lat="38.987945" lon="-120.099237"><ele>2016.4</ele><time>2023-07-03T23:56:31Z</time></trkpt>
<trkpt lat="38.987710" lon="-120.099322"><ele>2016.6</ele><time>2023-07-03T23:56:59Z</time></trkpt>
<trkpt lat="38.987467" lon="-120.099511"><ele>2018.0</ele><time>2023-07-03T23:57:21Z</time></trkpt>
<trkpt lat="38.987310" lon="-120.099566"><ele>2019.2</ele><time>2023-07-03T23:57:33Z</time></trkpt>
<trkpt lat="38.986969" lon="-120.099494"><ele>2020.4</ele><time>2023-07-03T23:58:02Z</time></trkpt>
<trkpt lat="38.986527" lon="-120.099473"><ele>2022.8</ele><time>2023-07-03T23:58:35Z</time></trkpt>
<trkpt lat="38.986152" lon="-120.099668"><ele>2026.0</ele><time>2023-07-03T23:59:08Z</time></trkpt>
<trkpt lat="38.985965" lon="-120.099821"><ele>2027.2</ele><time>2023-07-03T23:59:26Z</time></trkpt>
<trkpt lat="38.985746" lon="-120.099824"><ele>2028.2</ele><time>2023-07-03T23:59:47Z</time></trkpt>
<trkpt lat="38.985579" lon="-120.099912"><ele>2029.4</ele><time>2023-07-04T00:00:02Z</time></trkpt>
<trkpt lat="38.985228" lon="-120.099734"><ele>2034.4</ele><time>2023-07-04T00:00:42Z</time></trkpt>
<trkpt lat="38.985130" lon="-120.099738"><ele>2036.4</ele><time>2023-07-04T00:00:52Z</time></trkpt>
<trkpt lat="38.985060" lon="-120.099670"><ele>2038.0</ele><time>2023-07-04T00:01:01Z</time></trkpt>
<trkpt lat="38.984889" lon="-120.099751"><ele>2039.8</ele><time>2023-07-04T00:01:17Z</time></trkpt>
<trkpt lat="38.984862" lon="-120.099830"><ele>2040.4</ele><time>2023-07-04T00:01:22Z</time></trkpt>
<trkpt lat="38.984715" lon="-120.099890"><ele>2043.8</ele><time>2023-07-04T00:01:40Z</time></trkpt>
<trkpt lat="38.984550" lon="-120.099833"><ele>2046.8</ele><time>2023-07-04T00:01:58Z</time></trkpt>
<trkpt lat="38.984406" lon="-120.099868"><ele>2050.2</ele><time>2023-07-04T00:02:15Z</time></trkpt>
<trkpt lat="38.984115" lon="-120.100301"><ele>2056.8</ele><time>2023-07-04T00:02:59Z</time></trkpt>
<trkpt lat="38.983950" lon="-120.100413"><ele>2059.8</ele><time>2023-07-04T00:03:19Z</time></trkpt>
<trkpt lat="38.983943" lon="-120.100505"><ele>2060.6</ele><time>2023-07-04T00:04:00Z</time></trkpt>
<trkpt lat="38.983933" lon="-120.100479"><ele>2061.0</ele><time>2023-07-04T00:04:07Z</time></trkpt>
<trkpt lat="38.983805" lon="-120.100661"><ele>2064.0</ele><time>2023-07-04T00:04:28Z</time></trkpt>
<trkpt lat="38.983616" lon="-120.100654"><ele>2065.8</ele><time>2023-07-04T00:04:46Z</time></trkpt>
<trkpt lat="38.983224" lon="-120.100793"><ele>2071.6</ele><time>2023-07-04T00:05:27Z</time></trkpt>
<trkpt lat="38.982936" lon="-120.101033"><ele>2078.4</ele><time>2023-07-04T00:06:04Z</time></trkpt>
<trkpt lat="38.982830" lon="-120.101288"><ele>2080.6</ele><time>2023-07-04T00:06:24Z</time></trkpt>
<trkpt lat="38.982526" lon="-120.101579"><ele>2080.8</ele><time>2023-07-04T00:06:57Z</time></trkpt>
<trkpt lat="38.982407" lon="-120.101652"><ele>2080.0</ele><time>2023-07-04T00:07:08Z</time></trkpt>
<trkpt lat="38.982068" lon="-120.101687"><ele>2079.4</ele><time>2023-07-04T00:07:38Z</time></trkpt>
<trkpt lat="38.981059" lon="-120.101535"><ele>2077.0</ele><time>2023-07-04T00:09:05Z</time></trkpt>
<trkpt lat="38.980696" lon="-120.101539"><ele>2076.0</ele><time>2023-07-04T00:09:35Z</time></trkpt>
<trkpt lat="38.980458" lon="-120.101638"><ele>2075.2</ele><time>2023-07-04T00:09:57Z</time></trkpt>
<trkpt lat="38.980011" lon="-120.101965"><ele>2072.8</ele><time>2023-07-04T00:10:42Z</time></trkpt>
<trkpt lat="38.979716" lon="-120.102003"><ele>2072.8</ele><time>2023-07-04T00:11:05Z</time></trkpt>
<trkpt lat="38.978756" lon="-120.102443"><ele>2072.2</ele><time>2023-07-04T00:12:30Z</time></trkpt>
<trkpt lat="38.978565" lon="-120.102563"><ele>2074.6</ele><time>2023-07-04T00:12:50Z</time></trkpt>
<trkpt lat="38.978474" lon="-120.102767"><ele>2075.4</ele><time>2023-07-04T00:13:06Z</time></trkpt>
<trkpt lat="38.978347" lon="-120.102839"><ele>2076.4</ele><time>2023-07-04T00:13:24Z</time></trkpt>
<trkpt lat="38.978237" lon="-120.102815"><ele>2076.4</ele><time>2023-07-04T00:13:39Z</time></trkpt>
<trkpt lat="38.977997" lon="-120.102909"><ele>2076.0</ele><time>2023-07-04T00:14:05Z</time></trkpt>
<trkpt lat="38.977770" lon="-120.102900"><ele>2077.6</ele><time>2023-07-04T00:14:26Z</time></trkpt>
<trkpt lat="38.977603" lon="-120.102944"><ele>2077.6</ele><time>2023-07-04T00:14:39Z</time></trkpt>
<trkpt lat="38.977117" lon="-120.102219"><ele>2082.0</ele><time>2023-07-04T00:15:42Z</time></trkpt>
<trkpt lat="38.977088" lon="-120.102120"><ele>2082.8</ele><time>2023-07-04T00:15:51Z</time></trkpt>
<trkpt lat="38.977009" lon="-120.102043"><ele>2083.6</ele><time>2023-07-04T00:15:59Z</time></trkpt>
</trkseg></trk>
</gpx>
