<?xml version="1.0" encoding="UTF-8"?>
<gpx version="1.1" creator="Eric Sichak trip reports" xmlns="http://www.topografix.com/GPX/1/1">
<metadata><name>Jakes Peak to Emerald Bay</name><time>2025-03-01T17:24:43Z</time></metadata>
<trk><name>Jakes Peak to Emerald Bay</name><type>ski</type><trkseg>
<trkpt lat="38.975484" lon="-120.100291"><ele>2088.8</ele><time>2025-03-01T17:24:43Z</time></trkpt>
<trkpt lat="38.975487" lon="-120.100343"><ele>2089.0</ele><time>2025-03-01T17:24:53Z</time></trkpt>
<trkpt lat="38.975728" lon="-120.100534"><ele>2090.2</ele><time>2025-03-01T17:25:18Z</time></trkpt>
<trkpt lat="38.975808" lon="-120.100699"><ele>2090.4</ele><time>2025-03-01T17:25:34Z</time></trkpt>
<trkpt lat="38.975936" lon="-120.101075"><ele>2092.8</ele><time>2025-03-01T17:27:35Z</time></trkpt>
<trkpt lat="38.976047" lon="-120.101553"><ele>2095.0</ele><time>2025-03-01T17:28:33Z</time></trkpt>
<trkpt lat="38.975961" lon="-120.101636"><ele>2101.4</ele><time>2025-03-01T17:29:44Z</time></trkpt>
<trkpt lat="38.975913" lon="-120.101773"><ele>2103.4</ele><time>2025-03-01T17:30:09Z</time></trkpt>
<trkpt lat="38.975799" lon="-120.101867"><ele>2107.0</ele><time>2025-03-01T17:30:31Z</time></trkpt>
<trkpt lat="38.975785" lon="-120.101952"><ele>2107.8</ele><time>2025-03-01T17:31:06Z</time></trkpt>
<trkpt lat="38.975778" lon="-120.101983"><ele>2104.4</ele><time>2025-03-01T17:32:11Z</time></trkpt>
<trkpt lat="38.975759" lon="-120.101924"><ele>2103.4</ele><time>2025-03-01T17:32:34Z</time></trkpt>
<trkpt lat="38.975777" lon="-120.101957"><ele>2101.4</ele><time>2025-03-01T17:33:10Z</time></trkpt>
<trkpt lat="38.975641" lon="-120.102155"><ele>2104.2</ele><time>2025-03-01T17:33:47Z</time></trkpt>
<trkpt lat="38.975577" lon="-120.102318"><ele>2106.0</ele><time>2025-03-01T17:34:11Z</time></trkpt>
<trkpt lat="38.975249" lon="-120.102536"><ele>2107.8</ele><time>2025-03-01T17:35:26Z</time></trkpt>
<trkpt lat="38.975132" lon="-120.102735"><ele>2108.2</ele><time>2025-03-01T17:36:16Z</time></trkpt>
<trkpt lat="38.975027" lon="-120.103278"><ele>2111.4</ele><time>2025-03-01T17:37:41Z</time></trkpt>
<trkpt lat="38.975004" lon="-120.103494"><ele>2114.8</ele><time>2025-03-01T17:38:16Z</time></trkpt>
<trkpt lat="38.974819" lon="-120.103803"><ele>2122.4</ele><time>2025-03-01T17:39:26Z</time></trkpt>
<trkpt lat="38.974735" lon="-120.103854"><ele>2124.2</ele><time>2025-03-01T17:39:44Z</time></trkpt>
<trkpt lat="38.974693" lon="-120.103930"><ele>2125.8</ele><time>2025-03-01T17:39:58Z</time></trkpt>
<trkpt lat="38.974664" lon="-120.104195"><ele>2131.0</ele><time>2025-03-01T17:40:45Z</time></trkpt>
<trkpt lat="38.974616" lon="-120.104337"><ele>2134.0</ele><time>2025-03-01T17:41:10Z</time></trkpt>
<trkpt lat="38.974616" lon="-120.104536"><ele>2139.2</ele><time>2025-03-01T17:41:51Z</time></trkpt>
<trkpt lat="38.974590" lon="-120.104621"><ele>2142.4</ele><time>2025-03-01T17:42:13Z</time></trkpt>
<trkpt lat="38.974636" lon="-120.104788"><ele>2146.8</ele><time>2025-03-01T17:42:48Z</time></trkpt>
<trkpt lat="38.974536" lon="-120.104825"><ele>2150.0</ele><time>2025-03-01T17:43:20Z</time></trkpt>
<trkpt lat="38.974515" lon="-120.104949"><ele>2155.2</ele><time>2025-03-01T17:43:55Z</time></trkpt>
<trkpt lat="38.974531" lon="-120.105001"><ele>2156.2</ele><time>2025-03-01T17:44:05Z</time></trkpt>
<trkpt lat="38.974550" lon="-120.104997"><ele>2157.8</ele><time>2025-03-01T17:44:18Z</time></trkpt>
<trkpt lat="38.974639" lon="-120.105305"><ele>2164.8</ele><time>2025-03-01T17:45:25Z</time></trkpt>
<trkpt lat="38.974755" lon="-120.105510"><ele>2170.8</ele><time>2025-03-01T17:46:22Z</time></trkpt>
<trkpt lat="38.974542" lon="-120.105472"><ele>2174.0</ele><time>2025-03-01T17:47:06Z</time></trkpt>
<trkpt lat="38.974505" lon="-120.105517"><ele>2176.6</ele><time>2025-03-01T17:47:25Z</time></trkpt>
<trkpt lat="38.974571" lon="-120.105727"><ele>2182.2</ele><time>2025-03-01T17:47:57Z</time></trkpt>
<trkpt lat="38.974659" lon="-120.105844"><ele>2185.0</ele><time>2025-03-01T17:48:20Z</time></trkpt>
<trkpt lat="38.974695" lon="-120.105970"><ele>2187.8</ele><time>2025-03-01T17:48:38Z</time></trkpt>
<trkpt lat="38.974678" lon="-120.106483"><ele>2201.4</ele><time>2025-03-01T17:50:08Z</time></trkpt>
<trkpt lat="38.974706" lon="-120.106516"><ele>2203.2</ele><time>2025-03-01T17:50:19Z</time></trkpt>
<trkpt lat="38.974744" lon="-120.106759"><ele>2210.8</ele><time>2025-03-01T17:51:09Z</time></trkpt>
<trkpt lat="38.974573" lon="-120.106766"><ele>2216.4</ele><time>2025-03-01T17:51:51Z</time></trkpt>
<trkpt lat="38.974544" lon="-120.106914"><ele>2223.8</ele><time>2025-03-01T17:52:33Z</time></trkpt>
<trkpt lat="38.974558" lon="-120.107004"><ele>2226.6</ele><time>2025-03-01T17:52:58Z</time></trkpt>
<trkpt lat="38.974313" lon="-120.106886"><ele>2233.8</ele><time>2025-03-01T17:54:02Z</time></trkpt>
<trkpt lat="38.974305" lon="-120.106918"><ele>2235.4</ele><time>2025-03-01T17:54:56Z</time></trkpt>
<trkpt lat="38.974343" lon="-120.106911"><ele>2235.0</ele><time>2025-03-01T17:55:17Z</time></trkpt>
<trkpt lat="38.974303" lon="-120.106903"><ele>2235.0</ele><time>2025-03-01T17:55:39Z</time></trkpt>
<trkpt lat="38.974308" lon="-120.106950"><ele>2235.2</ele><time>2025-03-01T17:56:08Z</time></trkpt>
<trkpt lat="38.974297" lon="-120.106906"><ele>2235.2</ele><time>2025-03-01T17:56:25Z</time></trkpt>
<trkpt lat="38.974311" lon="-120.107020"><ele>2237.4</ele><time>2025-03-01T17:56:43Z</time></trkpt>
<trkpt lat="38.974218" lon="-120.107417"><ele>2253.2</ele><time>2025-03-01T17:58:17Z</time></trkpt>
<trkpt lat="38.974103" lon="-120.107416"><ele>2257.6</ele><time>2025-03-01T17:58:47Z</time></trkpt>
<trkpt lat="38.974127" lon="-120.107424"><ele>2258.6</ele><time>2025-03-01T17:58:53Z</time></trkpt>
<trkpt lat="38.974112" lon="-120.107488"><ele>2260.6</ele><time>2025-03-01T17:59:07Z</time></trkpt>
<trkpt lat="38.974136" lon="-120.107691"><ele>2264.6</ele><time>2025-03-01T17:59:33Z</time></trkpt>
<trkpt lat="38.974294" lon="-120.108049"><ele>2275.2</ele><time>2025-03-01T18:00:55Z</time></trkpt>
<trkpt lat="38.974243" lon="-120.108088"><ele>2276.8</ele><time>2025-03-01T18:01:14Z</time></trkpt>
<trkpt lat="38.974247" lon="-120.108161"><ele>2279.8</ele><time>2025-03-01T18:01:34Z</time></trkpt>
<trkpt lat="38.974121" lon="-120.108168"><ele>2283.8</ele><time>2025-03-01T18:02:02Z</time></trkpt>
<trkpt lat="38.974003" lon="-120.108128"><ele>2287.0</ele><time>2025-03-01T18:02:32Z</time></trkpt>
<trkpt lat="38.973985" lon="-120.108134"><ele>2288.0</ele><time>2025-03-01T18:02:39Z</time></trkpt>
<trkpt lat="38.973997" lon="-120.108196"><ele>2290.2</ele><time>2025-03-01T18:02:56Z</time></trkpt>
<trkpt lat="38.973972" lon="-120.108195"><ele>2290.6</ele><time>2025-03-01T18:03:13Z</time></trkpt>
<trkpt lat="38.973993" lon="-120.108245"><ele>2291.4</ele><time>2025-03-01T18:03:21Z</time></trkpt>
<trkpt lat="38.973866" lon="-120.108118"><ele>2293.8</ele><time>2025-03-01T18:03:52Z</time></trkpt>
<trkpt lat="38.973671" lon="-120.108087"><ele>2299.6</ele><time>2025-03-01T18:05:13Z</time></trkpt>
<trkpt lat="38.973645" lon="-120.108154"><ele>2302.0</ele><time>2025-03-01T18:05:37Z</time></trkpt>
<trkpt lat="38.973722" lon="-120.108261"><ele>2304.8</ele><time>2025-03-01T18:06:01Z</time></trkpt>
<trkpt lat="38.973748" lon="-120.108411"><ele>2309.2</ele><time>2025-03-01T18:06:25Z</time></trkpt>
<trkpt lat="38.973615" lon="-120.108333"><ele>2314.6</ele><time>2025-03-01T18:07:08Z</time></trkpt>
<trkpt lat="38.973311" lon="-120.108330"><ele>2326.6</ele><time>2025-03-01T18:08:23Z</time></trkpt>
<trkpt lat="38.973039" lon="-120.108204"><ele>2336.0</ele><time>2025-03-01T18:09:29Z</time></trkpt>
<trkpt lat="38.972876" lon="-120.108183"><ele>2342.2</ele><time>2025-03-01T18:10:09Z</time></trkpt>
<trkpt lat="38.972876" lon="-120.108232"><ele>2343.8</ele><time>2025-03-01T18:10:23Z</time></trkpt>
<trkpt lat="38.972853" lon="-120.108215"><ele>2344.0</ele><time>2025-03-01T18:10:36Z</time></trkpt>
<trkpt lat="38.972924" lon="-120.108312"><ele>2344.6</ele><time>2025-03-01T18:11:12Z</time></trkpt>
<trkpt lat="38.972933" lon="-120.108481"><ele>2347.6</ele><time>2025-03-01T18:11:45Z</time></trkpt>
<trkpt lat="38.973028" lon="-120.108735"><ele>2350.8</ele><time>2025-03-01T18:12:28Z</time></trkpt>
<trkpt lat="38.973029" lon="-120.108812"><ele>2353.8</ele><time>2025-03-01T18:12:44Z</time></trkpt>
<trkpt lat="38.973020" lon="-120.108783"><ele>2354.4</ele><time>2025-03-01T18:12:52Z</time></trkpt>
<trkpt lat="38.972798" lon="-120.108711"><ele>2360.8</ele><time>2025-03-01T18:13:34Z</time></trkpt>
<trkpt lat="38.972830" lon="-120.108995"><ele>2367.6</ele><time>2025-03-01T18:14:21Z</time></trkpt>
<trkpt lat="38.972997" lon="-120.109508"><ele>2377.8</ele><time>2025-03-01T18:15:43Z</time></trkpt>
<trkpt lat="38.972969" lon="-120.109596"><ele>2380.8</ele><time>2025-03-01T18:16:03Z</time></trkpt>
<trkpt lat="38.972839" lon="-120.109663"><ele>2384.8</ele><time>2025-03-01T18:16:39Z</time></trkpt>
<trkpt lat="38.972571" lon="-120.109944"><ele>2391.2</ele><time>2025-03-01T18:17:28Z</time></trkpt>
<trkpt lat="38.972534" lon="-120.109998"><ele>2391.8</ele><time>2025-03-01T18:17:35Z</time></trkpt>
<trkpt lat="38.972510" lon="-120.110147"><ele>2394.2</ele><time>2025-03-01T18:17:52Z</time></trkpt>
<trkpt lat="38.972430" lon="-120.110283"><ele>2397.8</ele><time>2025-03-01T18:18:11Z</time></trkpt>
<trkpt lat="38.972238" lon="-120.110315"><ele>2402.4</ele><time>2025-03-01T18:18:47Z</time></trkpt>
<trkpt lat="38.972157" lon="-120.110249"><ele>2404.4</ele><time>2025-03-01T18:19:08Z</time></trkpt>
<trkpt lat="38.972091" lon="-120.110259"><ele>2405.0</ele><time>2025-03-01T18:19:39Z</time></trkpt>
<trkpt lat="38.972116" lon="-120.110252"><ele>2405.0</ele><time>2025-03-01T18:19:41Z</time></trkpt>
<trkpt lat="38.972062" lon="-120.110174"><ele>2407.4</ele><time>2025-03-01T18:20:13Z</time></trkpt>
<trkpt lat="38.972041" lon="-120.110165"><ele>2405.6</ele><time>2025-03-01T18:20:54Z</time></trkpt>
<trkpt lat="38.972061" lon="-120.110178"><ele>2408.6</ele><time>2025-03-01T18:32:11Z</time></trkpt>
<trkpt lat="38.972056" lon="-120.110185"><ele>2429.2</ele><time>2025-03-01T18:38:56Z</time></trkpt>
<trkpt lat="38.972105" lon="-120.110249"><ele>2427.4</ele><time>2025-03-01T18:39:23Z</time></trkpt>
<trkpt lat="38.972153" lon="-120.110239"><ele>2426.8</ele><time>2025-03-01T18:39:35Z</time></trkpt>
<trkpt lat="38.972124" lon="-120.110264"><ele>2427.6</ele><time>2025-03-01T18:40:21Z</time></trkpt>
<trkpt lat="38.972145" lon="-120.110255"><ele>2425.6</ele><time>2025-03-01T18:41:54Z</time></trkpt>
<trkpt lat="38.972123" lon="-120.110251"><ele>2425.8</ele><time>2025-03-01T18:42:12Z</time></trkpt>
<trkpt lat="38.972152" lon="-120.110276"><ele>2427.4</ele><time>2025-03-01T18:43:26Z</time></trkpt>
<trkpt lat="38.972135" lon="-120.110269"><ele>2427.6</ele><time>2025-03-01T18:43:41Z</time></trkpt>
<trkpt lat="38.972272" lon="-120.110427"><ele>2424.6</ele><time>2025-03-01T18:44:12Z</time></trkpt>
<trkpt lat="38.972355" lon="-120.110575"><ele>2425.0</ele><time>2025-03-01T18:44:26Z</time></trkpt>
<trkpt lat="38.972374" lon="-120.110663"><ele>2426.8</ele><time>2025-03-01T18:44:40Z</time></trkpt>
<trkpt lat="38.972340" lon="-120.111031"><ele>2431.6</ele><time>2025-03-01T18:45:17Z</time></trkpt>
<trkpt lat="38.971945" lon="-120.111521"><ele>2443.6</ele><time>2025-03-01T18:46:47Z</time></trkpt>
<trkpt lat="38.971799" lon="-120.111622"><ele>2448.8</ele><time>2025-03-01T18:47:18Z</time></trkpt>
<trkpt lat="38.971757" lon="-120.111746"><ele>2451.8</ele><time>2025-03-01T18:47:35Z</time></trkpt>
<trkpt lat="38.971435" lon="-120.112182"><ele>2456.6</ele><time>2025-03-01T18:48:48Z</time></trkpt>
<trkpt lat="38.971249" lon="-120.112232"><ele>2456.6</ele><time>2025-03-01T18:49:16Z</time></trkpt>
<trkpt lat="38.970895" lon="-120.112167"><ele>2459.6</ele><time>2025-03-01T18:50:06Z</time></trkpt>
<trkpt lat="38.970727" lon="-120.112274"><ele>2460.8</ele><time>2025-03-01T18:50:35Z</time></trkpt>
<trkpt lat="38.970707" lon="-120.112366"><ele>2461.8</ele><time>2025-03-01T18:50:47Z</time></trkpt>
<trkpt lat="38.970697" lon="-120.112326"><ele>2461.4</ele><time>2025-03-01T18:51:04Z</time></trkpt>
<trkpt lat="38.970681" lon="-120.112346"><ele>2461.4</ele><time>2025-03-01T18:51:23Z</time></trkpt>
<trkpt lat="38.970700" lon="-120.112660"><ele>2466.4</ele><time>2025-03-01T18:52:10Z</time></trkpt>
<trkpt lat="38.970622" lon="-120.112675"><ele>2468.6</ele><time>2025-03-01T18:52:25Z</time></trkpt>
<trkpt lat="38.970591" lon="-120.112759"><ele>2471.6</ele><time>2025-03-01T18:52:43Z</time></trkpt>
<trkpt lat="38.970542" lon="-120.112795"><ele>2474.0</ele><time>2025-03-01T18:52:59Z</time></trkpt>
<trkpt lat="38.970465" lon="-120.113163"><ele>2484.6</ele><time>2025-03-01T18:54:09Z</time></trkpt>
<trkpt lat="38.970475" lon="-120.113311"><ele>2487.2</ele><time>2025-03-01T18:54:34Z</time></trkpt>
<trkpt lat="38.970426" lon="-120.113464"><ele>2491.6</ele><time>2025-03-01T18:55:20Z</time></trkpt>
<trkpt lat="38.970475" lon="-120.113631"><ele>2495.4</ele><time>2025-03-01T18:55:44Z</time></trkpt>
<trkpt lat="38.970454" lon="-120.113864"><ele>2500.6</ele><time>2025-03-01T18:56:25Z</time></trkpt>
<trkpt lat="38.970267" lon="-120.113841"><ele>2509.0</ele><time>2025-03-01T18:57:32Z</time></trkpt>
<trkpt lat="38.970273" lon="-120.113983"><ele>2511.4</ele><time>2025-03-01T18:58:04Z</time></trkpt>
<trkpt lat="38.969982" lon="-120.113836"><ele>2519.2</ele><time>2025-03-01T18:59:03Z</time></trkpt>
<trkpt lat="38.969954" lon="-120.113781"><ele>2521.6</ele><time>2025-03-01T18:59:18Z</time></trkpt>
<trkpt lat="38.969854" lon="-120.113756"><ele>2524.2</ele><time>2025-03-01T18:59:40Z</time></trkpt>
<trkpt lat="38.969893" lon="-120.114222"><ele>2536.0</ele><time>2025-03-01T19:01:01Z</time></trkpt>
<trkpt lat="38.969964" lon="-120.114416"><ele>2540.8</ele><time>2025-03-01T19:01:40Z</time></trkpt>
<trkpt lat="38.969689" lon="-120.114252"><ele>2547.4</ele><time>2025-03-01T19:02:42Z</time></trkpt>
<trkpt lat="38.969581" lon="-120.114149"><ele>2551.2</ele><time>2025-03-01T19:03:25Z</time></trkpt>
<trkpt lat="38.969531" lon="-120.114148"><ele>2551.0</ele><time>2025-03-01T19:04:12Z</time></trkpt>
<trkpt lat="38.969569" lon="-120.114131"><ele>2551.0</ele><time>2025-03-01T19:04:34Z</time></trkpt>
<trkpt lat="38.969578" lon="-120.114155"><ele>2551.6</ele><time>2025-03-01T19:05:13Z</time></trkpt>
<trkpt lat="38.969486" lon="-120.114158"><ele>2552.8</ele><time>2025-03-01T19:05:34Z</time></trkpt>
<trkpt lat="38.969640" lon="-120.114844"><ele>2571.0</ele><time>2025-03-01T19:07:57Z</time></trkpt>
<trkpt lat="38.969639" lon="-120.114806"><ele>2571.6</ele><time>2025-03-01T19:08:07Z</time></trkpt>
<trkpt lat="38.969633" lon="-120.114839"><ele>2572.2</ele><time>2025-03-01T19:08:37Z</time></trkpt>
<trkpt lat="38.969568" lon="-120.114823"><ele>2574.2</ele><time>2025-03-01T19:08:54Z</time></trkpt>
<trkpt lat="38.969237" lon="-120.114632"><ele>2582.8</ele><time>2025-03-01T19:09:59Z</time></trkpt>
<trkpt lat="38.969124" lon="-120.114597"><ele>2588.4</ele><time>2025-03-01T19:10:27Z</time></trkpt>
<trkpt lat="38.968961" lon="-120.114634"><ele>2593.6</ele><time>2025-03-01T19:10:58Z</time></trkpt>
<trkpt lat="38.968883" lon="-120.114593"><ele>2596.4</ele><time>2025-03-01T19:11:13Z</time></trkpt>
<trkpt lat="38.968736" lon="-120.114635"><ele>2600.6</ele><time>2025-03-01T19:11:41Z</time></trkpt>
<trkpt lat="38.968555" lon="-120.114615"><ele>2605.0</ele><time>2025-03-01T19:12:28Z</time></trkpt>
<trkpt lat="38.968549" lon="-120.114649"><ele>2605.8</ele><time>2025-03-01T19:12:37Z</time></trkpt>
<trkpt lat="38.968683" lon="-120.114733"><ele>2608.0</ele><time>2025-03-01T19:13:00Z</time></trkpt>
<trkpt lat="38.968719" lon="-120.114840"><ele>2610.8</ele><time>2025-03-01T19:13:18Z</time></trkpt>
<trkpt lat="38.968850" lon="-120.115039"><ele>2615.6</ele><time>2025-03-01T19:13:50Z</time></trkpt>
<trkpt lat="38.968869" lon="-120.115217"><ele>2620.0</ele><time>2025-03-01T19:14:17Z</time></trkpt>
<trkpt lat="38.968978" lon="-120.115422"><ele>2623.2</ele><time>2025-03-01T19:15:05Z</time></trkpt>
<trkpt lat="38.969043" lon="-120.115729"><ele>2630.8</ele><time>2025-03-01T19:16:02Z</time></trkpt>
<trkpt lat="38.968773" lon="-120.115520"><ele>2635.4</ele><time>2025-03-01T19:17:10Z</time></trkpt>
<trkpt lat="38.968777" lon="-120.115545"><ele>2635.4</ele><time>2025-03-01T19:17:21Z</time></trkpt>
<trkpt lat="38.968732" lon="-120.115464"><ele>2636.0</ele><time>2025-03-01T19:17:40Z</time></trkpt>
<trkpt lat="38.968422" lon="-120.115355"><ele>2645.6</ele><time>2025-03-01T19:18:47Z</time></trkpt>
<trkpt lat="38.968388" lon="-120.115394"><ele>2645.2</ele><time>2025-03-01T19:18:58Z</time></trkpt>
<trkpt lat="38.968432" lon="-120.115412"><ele>2646.6</ele><time>2025-03-01T19:19:14Z</time></trkpt>
<trkpt lat="38.968427" lon="-120.115514"><ele>2646.8</ele><time>2025-03-01T19:19:41Z</time></trkpt>
<trkpt lat="38.968447" lon="-120.115470"><ele>2648.2</ele><time>2025-03-01T19:20:03Z</time></trkpt>
<trkpt lat="38.968575" lon="-120.115770"><ele>2654.8</ele><time>2025-03-01T19:20:51Z</time></trkpt>
<trkpt lat="38.968533" lon="-120.115730"><ele>2656.0</ele><time>2025-03-01T19:21:07Z</time></trkpt>
<trkpt lat="38.968223" lon="-120.115652"><ele>2665.4</ele><time>2025-03-01T19:22:13Z</time></trkpt>
<trkpt lat="38.968287" lon="-120.115786"><ele>2669.2</ele><time>2025-03-01T19:22:33Z</time></trkpt>
<trkpt lat="38.968388" lon="-120.115897"><ele>2671.2</ele><time>2025-03-01T19:23:07Z</time></trkpt>
<trkpt lat="38.968464" lon="-120.116111"><ele>2674.8</ele><time>2025-03-01T19:23:47Z</time></trkpt>
<trkpt lat="38.968482" lon="-120.116475"><ele>2683.0</ele><time>2025-03-01T19:24:59Z</time></trkpt>
<trkpt lat="38.968483" lon="-120.116446"><ele>2683.2</ele><time>2025-03-01T19:25:18Z</time></trkpt>
<trkpt lat="38.968328" lon="-120.116324"><ele>2688.8</ele><time>2025-03-01T19:26:01Z</time></trkpt>
<trkpt lat="38.968320" lon="-120.116347"><ele>2688.8</ele><time>2025-03-01T19:26:07Z</time></trkpt>
<trkpt lat="38.968307" lon="-120.116302"><ele>2689.6</ele><time>2025-03-01T19:26:25Z</time></trkpt>
<trkpt lat="38.968337" lon="-120.116655"><ele>2695.0</ele><time>2025-03-01T19:27:06Z</time></trkpt>
<trkpt lat="38.968363" lon="-120.116712"><ele>2696.6</ele><time>2025-03-01T19:27:37Z</time></trkpt>
<trkpt lat="38.968265" lon="-120.116669"><ele>2701.4</ele><time>2025-03-01T19:28:36Z</time></trkpt>
<trkpt lat="38.968268" lon="-120.116818"><ele>2703.2</ele><time>2025-03-01T19:30:06Z</time></trkpt>
<trkpt lat="38.968181" lon="-120.116733"><ele>2706.8</ele><time>2025-03-01T19:30:59Z</time></trkpt>
<trkpt lat="38.968070" lon="-120.116702"><ele>2710.0</ele><time>2025-03-01T19:31:18Z</time></trkpt>
<trkpt lat="38.967889" lon="-120.116513"><ele>2717.0</ele><time>2025-03-01T19:32:09Z</time></trkpt>
<trkpt lat="38.967903" lon="-120.116766"><ele>2722.4</ele><time>2025-03-01T19:32:58Z</time></trkpt>
<trkpt lat="38.967654" lon="-120.116671"><ele>2734.0</ele><time>2025-03-01T19:34:48Z</time></trkpt>
<trkpt lat="38.967600" lon="-120.116987"><ele>2745.2</ele><time>2025-03-01T19:36:38Z</time></trkpt>
<trkpt lat="38.967622" lon="-120.117199"><ele>2750.0</ele><time>2025-03-01T19:37:16Z</time></trkpt>
<trkpt lat="38.967600" lon="-120.117213"><ele>2751.6</ele><time>2025-03-01T19:37:26Z</time></trkpt>
<trkpt lat="38.967457" lon="-120.117171"><ele>2757.6</ele><time>2025-03-01T19:38:51Z</time></trkpt>
<trkpt lat="38.967275" lon="-120.116971"><ele>2766.0</ele><time>2025-03-01T19:40:02Z</time></trkpt>
<trkpt lat="38.967175" lon="-120.116910"><ele>2770.4</ele><time>2025-03-01T19:40:26Z</time></trkpt>
<trkpt lat="38.967070" lon="-120.116945"><ele>2772.8</ele><time>2025-03-01T19:40:42Z</time></trkpt>
<trkpt lat="38.966889" lon="-120.117364"><ele>2788.4</ele><time>2025-03-01T19:42:01Z</time></trkpt>
<trkpt lat="38.966949" lon="-120.117372"><ele>2790.4</ele><time>2025-03-01T19:42:10Z</time></trkpt>
<trkpt lat="38.966982" lon="-120.117417"><ele>2791.4</ele><time>2025-03-01T19:42:27Z</time></trkpt>
<trkpt lat="38.966952" lon="-120.117391"><ele>2792.0</ele><time>2025-03-01T19:45:09Z</time></trkpt>
<trkpt lat="38.966952" lon="-120.117427"><ele>2794.2</ele><time>2025-03-01T19:47:04Z</time></trkpt>
<trkpt lat="38.966956" lon="-120.117406"><ele>2813.0</ele><time>2025-03-01T20:02:46Z</time></trkpt>
<trkpt lat="38.966951" lon="-120.117405"><ele>2805.8</ele><time>2025-03-01T20:14:21Z</time></trkpt>
<trkpt lat="38.966951" lon="-120.117405"><ele>2810.2</ele><time>2025-03-01T20:15:50Z</time></trkpt>
<trkpt lat="38.966948" lon="-120.117421"><ele>2807.4</ele><time>2025-03-01T20:16:36Z</time></trkpt>
<trkpt lat="38.966972" lon="-120.117424"><ele>2807.2</ele><time>2025-03-01T20:17:03Z</time></trkpt>
<trkpt lat="38.966972" lon="-120.117419"><ele>2811.8</ele><time>2025-03-01T20:17:32Z</time></trkpt>
<trkpt lat="38.966958" lon="-120.117388"><ele>2809.6</ele><time>2025-03-01T20:18:04Z</time></trkpt>
<trkpt lat="38.966878" lon="-120.117419"><ele>2809.4</ele><time>2025-03-01T20:18:14Z</time></trkpt>
<trkpt lat="38.966804" lon="-120.117406"><ele>2807.6</ele><time>2025-03-01T20:18:35Z</time></trkpt>
<trkpt lat="38.966783" lon="-120.117303"><ele>2803.0</ele><time>2025-03-01T20:19:13Z</time></trkpt>
<trkpt lat="38.966721" lon="-120.117269"><ele>2800.8</ele><time>2025-03-01T20:19:26Z</time></trkpt>
<trkpt lat="38.966481" lon="-120.117322"><ele>2796.0</ele><time>2025-03-01T20:19:55Z</time></trkpt>
<trkpt lat="38.966419" lon="-120.117215"><ele>2796.0</ele><time>2025-03-01T20:20:07Z</time></trkpt>
<trkpt lat="38.966234" lon="-120.117418"><ele>2800.4</ele><time>2025-03-01T20:20:38Z</time></trkpt>
<trkpt lat="38.966155" lon="-120.117428"><ele>2802.0</ele><time>2025-03-01T20:20:50Z</time></trkpt>
<trkpt lat="38.966076" lon="-120.117357"><ele>2803.0</ele><time>2025-03-01T20:21:14Z</time></trkpt>
<trkpt lat="38.966077" lon="-120.117440"><ele>2802.6</ele><time>2025-03-01T20:21:52Z</time></trkpt>
<trkpt lat="38.965846" lon="-120.117713"><ele>2801.8</ele><time>2025-03-01T20:22:23Z</time></trkpt>
<trkpt lat="38.965672" lon="-120.117808"><ele>2801.0</ele><time>2025-03-01T20:22:38Z</time></trkpt>
<trkpt lat="38.965520" lon="-120.118171"><ele>2799.2</ele><time>2025-03-01T20:23:11Z</time></trkpt>
<trkpt lat="38.965139" lon="-120.118416"><ele>2794.8</ele><time>2025-03-01T20:23:54Z</time></trkpt>
<trkpt lat="38.965114" lon="-120.118865"><ele>2793.4</ele><time>2025-03-01T20:24:51Z</time></trkpt>
<trkpt lat="38.965049" lon="-120.119025"><ele>2791.8</ele><time>2025-03-01T20:25:09Z</time></trkpt>
<trkpt lat="38.965080" lon="-120.119111"><ele>2790.0</ele><time>2025-03-01T20:25:31Z</time></trkpt>
<trkpt lat="38.964969" lon="-120.119362"><ele>2785.8</ele><time>2025-03-01T20:25:47Z</time></trkpt>
<trkpt lat="38.964889" lon="-120.119432"><ele>2784.0</ele><time>2025-03-01T20:25:54Z</time></trkpt>
<trkpt lat="38.964649" lon="-120.119539"><ele>2783.2</ele><time>2025-03-01T20:26:15Z</time></trkpt>
<trkpt lat="38.964620" lon="-120.119614"><ele>2780.6</ele><time>2025-03-01T20:26:41Z</time></trkpt>
<trkpt lat="38.964534" lon="-120.119544"><ele>2777.6</ele><time>2025-03-01T20:27:18Z</time></trkpt>
<trkpt lat="38.964529" lon="-120.119432"><ele>2776.4</ele><time>2025-03-01T20:27:56Z</time></trkpt>
<trkpt lat="38.964764" lon="-120.119803"><ele>2772.8</ele><time>2025-03-01T20:29:09Z</time></trkpt>
<trkpt lat="38.964761" lon="-120.119873"><ele>2769.8</ele><time>2025-03-01T20:29:14Z</time></trkpt>
<trkpt lat="38.964560" lon="-120.120227"><ele>2764.2</ele><time>2025-03-01T20:29:43Z</time></trkpt>
<trkpt lat="38.964233" lon="-120.120476"><ele>2771.8</ele><time>2025-03-01T20:30:51Z</time></trkpt>
<trkpt lat="38.964067" lon="-120.120493"><ele>2774.2</ele><time>2025-03-01T20:31:24Z</time></trkpt>
<trkpt lat="38.964049" lon="-120.120619"><ele>2773.0</ele><time>2025-03-01T20:32:23Z</time></trkpt>
<trkpt lat="38.964050" lon="-120.120573"><ele>2773.2</ele><time>2025-03-01T20:32:32Z</time></trkpt>
<trkpt lat="38.964002" lon="-120.120555"><ele>2772.4</ele><time>2025-03-01T20:32:36Z</time></trkpt>
<trkpt lat="38.963893" lon="-120.120615"><ele>2770.8</ele><time>2025-03-01T20:32:47Z</time></trkpt>
<trkpt lat="38.963782" lon="-120.120627"><ele>2771.4</ele><time>2025-03-01T20:33:01Z</time></trkpt>
<trkpt lat="38.963679" lon="-120.120684"><ele>2772.8</ele><time>2025-03-01T20:33:38Z</time></trkpt>
<trkpt lat="38.963516" lon="-120.120603"><ele>2777.6</ele><time>2025-03-01T20:35:22Z</time></trkpt>
<trkpt lat="38.963660" lon="-120.120702"><ele>2774.4</ele><time>2025-03-01T20:36:53Z</time></trkpt>
<trkpt lat="38.963700" lon="-120.120803"><ele>2773.2</ele><time>2025-03-01T20:37:07Z</time></trkpt>
<trkpt lat="38.963859" lon="-120.120691"><ele>2769.8</ele><time>2025-03-01T20:37:29Z</time></trkpt>
<trkpt lat="38.963862" lon="-120.120795"><ele>2768.4</ele><time>2025-03-01T20:37:37Z</time></trkpt>
<trkpt lat="38.963851" lon="-120.120892"><ele>2766.8</ele><time>2025-03-01T20:37:42Z</time></trkpt>
<trkpt lat="38.963758" lon="-120.121078"><ele>2764.6</ele><time>2025-03-01T20:37:56Z</time></trkpt>
<trkpt lat="38.963739" lon="-120.121202"><ele>2766.6</ele><time>2025-03-01T20:38:17Z</time></trkpt>
<trkpt lat="38.963759" lon="-120.121419"><ele>2763.2</ele><time>2025-03-01T20:38:34Z</time></trkpt>
<trkpt lat="38.963566" lon="-120.121759"><ele>2757.4</ele><time>2025-03-01T20:39:07Z</time></trkpt>
<trkpt lat="38.963392" lon="-120.121906"><ele>2759.8</ele><time>2025-03-01T20:39:37Z</time></trkpt>
<trkpt lat="38.963302" lon="-120.122013"><ele>2755.6</ele><time>2025-03-01T20:41:36Z</time></trkpt>
<trkpt lat="38.963412" lon="-120.122041"><ele>2753.2</ele><time>2025-03-01T20:42:04Z</time></trkpt>
<trkpt lat="38.963361" lon="-120.122149"><ele>2750.6</ele><time>2025-03-01T20:42:22Z</time></trkpt>
<trkpt lat="38.963526" lon="-120.122240"><ele>2746.6</ele><time>2025-03-01T20:42:39Z</time></trkpt>
<trkpt lat="38.963333" lon="-120.122477"><ele>2741.6</ele><time>2025-03-01T20:43:04Z</time></trkpt>
<trkpt lat="38.963194" lon="-120.122570"><ele>2738.4</ele><time>2025-03-01T20:43:18Z</time></trkpt>
<trkpt lat="38.963085" lon="-120.122582"><ele>2736.0</ele><time>2025-03-01T20:43:31Z</time></trkpt>
<trkpt lat="38.962984" lon="-120.122649"><ele>2734.2</ele><time>2025-03-01T20:43:36Z</time></trkpt>
<trkpt lat="38.962798" lon="-120.122630"><ele>2730.0</ele><time>2025-03-01T20:44:20Z</time></trkpt>
<trkpt lat="38.962747" lon="-120.122701"><ele>2730.0</ele><time>2025-03-01T20:44:29Z</time></trkpt>
<trkpt lat="38.962619" lon="-120.122672"><ele>2727.0</ele><time>2025-03-01T20:44:43Z</time></trkpt>
<trkpt lat="38.962577" lon="-120.122697"><ele>2725.4</ele><time>2025-03-01T20:44:50Z</time></trkpt>
<trkpt lat="38.962531" lon="-120.122655"><ele>2724.6</ele><time>2025-03-01T20:44:55Z</time></trkpt>
<trkpt lat="38.962425" lon="-120.122706"><ele>2723.4</ele><time>2025-03-01T20:45:00Z</time></trkpt>
<trkpt lat="38.962363" lon="-120.122766"><ele>2720.2</ele><time>2025-03-01T20:45:04Z</time></trkpt>
<trkpt lat="38.962436" lon="-120.122828"><ele>2721.2</ele><time>2025-03-01T20:45:18Z</time></trkpt>
<trkpt lat="38.962398" lon="-120.122892"><ele>2721.6</ele><time>2025-03-01T20:45:31Z</time></trkpt>
<trkpt lat="38.962335" lon="-120.122905"><ele>2721.4</ele><time>2025-03-01T20:45:49Z</time></trkpt>
<trkpt lat="38.962298" lon="-120.122993"><ele>2722.0</ele><time>2025-03-01T20:45:58Z</time></trkpt>
<trkpt lat="38.962323" lon="-120.123076"><ele>2722.4</ele><time>2025-03-01T20:46:04Z</time></trkpt>
<trkpt lat="38.962434" lon="-120.123117"><ele>2722.2</ele><time>2025-03-01T20:46:15Z</time></trkpt>
<trkpt lat="38.962436" lon="-120.123201"><ele>2723.2</ele><time>2025-03-01T20:46:37Z</time></trkpt>
<trkpt lat="38.962220" lon="-120.123292"><ele>2728.4</ele><time>2025-03-01T20:47:12Z</time></trkpt>
<trkpt lat="38.962041" lon="-120.123224"><ele>2732.2</ele><time>2025-03-01T20:47:46Z</time></trkpt>
<trkpt lat="38.962003" lon="-120.123164"><ele>2732.8</ele><time>2025-03-01T20:47:54Z</time></trkpt>
<trkpt lat="38.961817" lon="-120.123126"><ele>2736.8</ele><time>2025-03-01T20:48:34Z</time></trkpt>
<trkpt lat="38.961798" lon="-120.123139"><ele>2737.0</ele><time>2025-03-01T20:48:38Z</time></trkpt>
<trkpt lat="38.961853" lon="-120.123284"><ele>2741.6</ele><time>2025-03-01T20:49:01Z</time></trkpt>
<trkpt lat="38.961901" lon="-120.123540"><ele>2744.6</ele><time>2025-03-01T20:49:42Z</time></trkpt>
<trkpt lat="38.961871" lon="-120.123591"><ele>2746.4</ele><time>2025-03-01T20:50:01Z</time></trkpt>
<trkpt lat="38.961624" lon="-120.123581"><ele>2755.2</ele><time>2025-03-01T20:51:06Z</time></trkpt>
<trkpt lat="38.961525" lon="-120.123633"><ele>2757.8</ele><time>2025-03-01T20:51:35Z</time></trkpt>
<trkpt lat="38.961240" lon="-120.123668"><ele>2767.6</ele><time>2025-03-01T20:52:54Z</time></trkpt>
<trkpt lat="38.961066" lon="-120.123622"><ele>2770.0</ele><time>2025-03-01T20:53:13Z</time></trkpt>
<trkpt lat="38.960887" lon="-120.123644"><ele>2771.0</ele><time>2025-03-01T20:54:06Z</time></trkpt>
<trkpt lat="38.960852" lon="-120.123612"><ele>2770.6</ele><time>2025-03-01T20:54:19Z</time></trkpt>
<trkpt lat="38.960809" lon="-120.123641"><ele>2770.8</ele><time>2025-03-01T20:55:57Z</time></trkpt>
<trkpt lat="38.960806" lon="-120.123667"><ele>2771.6</ele><time>2025-03-01T20:56:04Z</time></trkpt>
<trkpt lat="38.960854" lon="-120.123674"><ele>2771.8</ele><time>2025-03-01T20:56:19Z</time></trkpt>
<trkpt lat="38.960822" lon="-120.123676"><ele>2771.6</ele><time>2025-03-01T20:56:25Z</time></trkpt>
<trkpt lat="38.960844" lon="-120.123652"><ele>2770.8</ele><time>2025-03-01T20:56:47Z</time></trkpt>
<trkpt lat="38.960921" lon="-120.123694"><ele>2770.2</ele><time>2025-03-01T20:57:13Z</time></trkpt>
<trkpt lat="38.961097" lon="-120.123670"><ele>2767.4</ele><time>2025-03-01T20:57:58Z</time></trkpt>
<trkpt lat="38.961182" lon="-120.123788"><ele>2769.8</ele><time>2025-03-01T20:58:24Z</time></trkpt>
<trkpt lat="38.961263" lon="-120.123841"><ele>2771.6</ele><time>2025-03-01T20:58:54Z</time></trkpt>
<trkpt lat="38.961248" lon="-120.123824"><ele>2771.8</ele><time>2025-03-01T20:59:01Z</time></trkpt>
<trkpt lat="38.961293" lon="-120.123856"><ele>2774.0</ele><time>2025-03-01T21:00:15Z</time></trkpt>
<trkpt lat="38.961284" lon="-120.123831"><ele>2774.4</ele><time>2025-03-01T21:00:25Z</time></trkpt>
<trkpt lat="38.961294" lon="-120.123874"><ele>2775.6</ele><time>2025-03-01T21:00:48Z</time></trkpt>
<trkpt lat="38.961238" lon="-120.123884"><ele>2779.6</ele><time>2025-03-01T21:02:32Z</time></trkpt>
<trkpt lat="38.961310" lon="-120.123926"><ele>2780.6</ele><time>2025-03-01T21:03:13Z</time></trkpt>
<trkpt lat="38.961286" lon="-120.123998"><ele>2781.8</ele><time>2025-03-01T21:03:20Z</time></trkpt>
<trkpt lat="38.961161" lon="-120.124108"><ele>2783.6</ele><time>2025-03-01T21:03:41Z</time></trkpt>
<trkpt lat="38.961184" lon="-120.124058"><ele>2784.4</ele><time>2025-03-01T21:03:48Z</time></trkpt>
<trkpt lat="38.961178" lon="-120.123956"><ele>2787.4</ele><time>2025-03-01T21:04:10Z</time></trkpt>
<trkpt lat="38.960948" lon="-120.123977"><ele>2795.4</ele><time>2025-03-01T21:04:52Z</time></trkpt>
<trkpt lat="38.960857" lon="-120.124048"><ele>2798.8</ele><time>2025-03-01T21:05:28Z</time></trkpt>
<trkpt lat="38.960873" lon="-120.124027"><ele>2798.6</ele><time>2025-03-01T21:05:53Z</time></trkpt>
<trkpt lat="38.960858" lon="-120.124043"><ele>2798.4</ele><time>2025-03-01T21:06:32Z</time></trkpt>
<trkpt lat="38.960861" lon="-120.124007"><ele>2798.6</ele><time>2025-03-01T21:06:48Z</time></trkpt>
<trkpt lat="38.960825" lon="-120.123979"><ele>2800.0</ele><time>2025-03-01T21:07:03Z</time></trkpt>
<trkpt lat="38.960740" lon="-120.124008"><ele>2801.4</ele><time>2025-03-01T21:07:36Z</time></trkpt>
<trkpt lat="38.960746" lon="-120.123961"><ele>2802.4</ele><time>2025-03-01T21:08:00Z</time></trkpt>
<trkpt lat="38.960704" lon="-120.123942"><ele>2803.0</ele><time>2025-03-01T21:09:54Z</time></trkpt>
<trkpt lat="38.960715" lon="-120.123922"><ele>2806.0</ele><time>2025-03-01T21:14:14Z</time></trkpt>
<trkpt lat="38.960709" lon="-120.123948"><ele>2805.8</ele><time>2025-03-01T21:14:48Z</time></trkpt>
<trkpt lat="38.960690" lon="-120.123944"><ele>2809.2</ele><time>2025-03-01T21:18:42Z</time></trkpt>
<trkpt lat="38.960726" lon="-120.123936"><ele>2812.4</ele><time>2025-03-01T21:19:05Z</time></trkpt>
<trkpt lat="38.960710" lon="-120.124016"><ele>2814.2</ele><time>2025-03-01T21:19:43Z</time></trkpt>
<trkpt lat="38.960767" lon="-120.124021"><ele>2810.8</ele><time>2025-03-01T21:20:06Z</time></trkpt>
<trkpt lat="38.960787" lon="-120.124001"><ele>2812.2</ele><time>2025-03-01T21:20:11Z</time></trkpt>
<trkpt lat="38.960857" lon="-120.124075"><ele>2810.2</ele><time>2025-03-01T21:20:47Z</time></trkpt>
<trkpt lat="38.960863" lon="-120.124044"><ele>2814.2</ele><time>2025-03-01T21:21:32Z</time></trkpt>
<trkpt lat="38.960850" lon="-120.124066"><ele>2814.8</ele><time>2025-03-01T21:21:47Z</time></trkpt>
<trkpt lat="38.960856" lon="-120.124035"><ele>2813.2</ele><time>2025-03-01T21:22:01Z</time></trkpt>
<trkpt lat="38.960872" lon="-120.124065"><ele>2813.0</ele><time>2025-03-01T21:23:24Z</time></trkpt>
<trkpt lat="38.960842" lon="-120.124060"><ele>2811.4</ele><time>2025-03-01T21:23:47Z</time></trkpt>
<trkpt lat="38.960866" lon="-120.124053"><ele>2812.8</ele><time>2025-03-01T21:24:06Z</time></trkpt>
<trkpt lat="38.960865" lon="-120.124055"><ele>2808.8</ele><time>2025-03-01T21:26:37Z</time></trkpt>
<trkpt lat="38.960853" lon="-120.124060"><ele>2812.2</ele><time>2025-03-01T21:28:24Z</time></trkpt>
<trkpt lat="38.960885" lon="-120.124025"><ele>2812.2</ele><time>2025-03-01T21:30:15Z</time></trkpt>
<trkpt lat="38.960866" lon="-120.124048"><ele>2814.0</ele><time>2025-03-01T21:30:35Z</time></trkpt>
<trkpt lat="38.960880" lon="-120.124027"><ele>2808.8</ele><time>2025-03-01T21:33:51Z</time></trkpt>
<trkpt lat="38.960868" lon="-120.123954"><ele>2810.8</ele><time>2025-03-01T21:34:32Z</time></trkpt>
<trkpt lat="38.960739" lon="-120.123900"><ele>2810.6</ele><time>2025-03-01T21:34:46Z</time></trkpt>
<trkpt lat="38.960581" lon="-120.123773"><ele>2801.4</ele><time>2025-03-01T21:34:58Z</time></trkpt>
<trkpt lat="38.960459" lon="-120.123729"><ele>2799.2</ele><time>2025-03-01T21:35:02Z</time></trkpt>
<trkpt lat="38.960465" lon="-120.123714"><ele>2796.0</ele><time>2025-03-01T21:35:09Z</time></trkpt>
<trkpt lat="38.960461" lon="-120.123614"><ele>2793.8</ele><time>2025-03-01T21:35:13Z</time></trkpt>
<trkpt lat="38.960483" lon="-120.123551"><ele>2790.2</ele><time>2025-03-01T21:35:15Z</time></trkpt>
<trkpt lat="38.960346" lon="-120.123438"><ele>2780.6</ele><time>2025-03-01T21:35:20Z</time></trkpt>
<trkpt lat="38.960430" lon="-120.123386"><ele>2777.6</ele><time>2025-03-01T21:35:22Z</time></trkpt>
<trkpt lat="38.960398" lon="-120.123299"><ele>2775.0</ele><time>2025-03-01T21:35:24Z</time></trkpt>
<trkpt lat="38.960404" lon="-120.123261"><ele>2764.6</ele><time>2025-03-01T21:35:28Z</time></trkpt>
<trkpt lat="38.960629" lon="-120.123148"><ele>2760.6</ele><time>2025-03-01T21:35:35Z</time></trkpt>
<trkpt lat="38.960638" lon="-120.123081"><ele>2759.0</ele><time>2025-03-01T21:35:37Z</time></trkpt>
<trkpt lat="38.960606" lon="-120.123053"><ele>2757.0</ele><time>2025-03-01T21:35:38Z</time></trkpt>
<trkpt lat="38.960444" lon="-120.122995"><ele>2751.0</ele><time>2025-03-01T21:35:42Z</time></trkpt>
<trkpt lat="38.960471" lon="-120.122944"><ele>2748.6</ele><time>2025-03-01T21:35:56Z</time></trkpt>
<trkpt lat="38.960631" lon="-120.122809"><ele>2746.8</ele><time>2025-03-01T21:35:59Z</time></trkpt>
<trkpt lat="38.960636" lon="-120.122752"><ele>2744.8</ele><time>2025-03-01T21:36:00Z</time></trkpt>
<trkpt lat="38.960573" lon="-120.122667"><ele>2742.2</ele><time>2025-03-01T21:36:02Z</time></trkpt>
<trkpt lat="38.960561" lon="-120.122602"><ele>2738.0</ele><time>2025-03-01T21:36:04Z</time></trkpt>
<trkpt lat="38.960573" lon="-120.122624"><ele>2731.6</ele><time>2025-03-01T21:36:23Z</time></trkpt>
<trkpt lat="38.960563" lon="-120.122572"><ele>2731.4</ele><time>2025-03-01T21:36:51Z</time></trkpt>
<trkpt lat="38.960945" lon="-120.122455"><ele>2729.0</ele><time>2025-03-01T21:37:04Z</time></trkpt>
<trkpt lat="38.960956" lon="-120.122320"><ele>2727.2</ele><time>2025-03-01T21:37:11Z</time></trkpt>
<trkpt lat="38.960953" lon="-120.122235"><ele>2721.6</ele><time>2025-03-01T21:37:14Z</time></trkpt>
<trkpt lat="38.960980" lon="-120.122208"><ele>2719.4</ele><time>2025-03-01T21:37:15Z</time></trkpt>
<trkpt lat="38.961159" lon="-120.122125"><ele>2714.8</ele><time>2025-03-01T21:37:19Z</time></trkpt>
<trkpt lat="38.961307" lon="-120.122104"><ele>2712.4</ele><time>2025-03-01T21:37:22Z</time></trkpt>
<trkpt lat="38.961421" lon="-120.122003"><ele>2711.2</ele><time>2025-03-01T21:37:25Z</time></trkpt>
<trkpt lat="38.961440" lon="-120.121836"><ele>2708.2</ele><time>2025-03-01T21:37:28Z</time></trkpt>
<trkpt lat="38.961385" lon="-120.121830"><ele>2695.2</ele><time>2025-03-01T21:37:53Z</time></trkpt>
<trkpt lat="38.961369" lon="-120.121792"><ele>2695.0</ele><time>2025-03-01T21:37:56Z</time></trkpt>
<trkpt lat="38.961416" lon="-120.121597"><ele>2694.8</ele><time>2025-03-01T21:37:59Z</time></trkpt>
<trkpt lat="38.961424" lon="-120.121481"><ele>2690.8</ele><time>2025-03-01T21:38:01Z</time></trkpt>
<trkpt lat="38.961400" lon="-120.121281"><ele>2682.2</ele><time>2025-03-01T21:38:04Z</time></trkpt>
<trkpt lat="38.961368" lon="-120.121193"><ele>2676.2</ele><time>2025-03-01T21:38:06Z</time></trkpt>
<trkpt lat="38.961393" lon="-120.121075"><ele>2670.6</ele><time>2025-03-01T21:38:08Z</time></trkpt>
<trkpt lat="38.961239" lon="-120.120901"><ele>2653.8</ele><time>2025-03-01T21:38:14Z</time></trkpt>
<trkpt lat="38.961134" lon="-120.120892"><ele>2648.8</ele><time>2025-03-01T21:38:16Z</time></trkpt>
<trkpt lat="38.961099" lon="-120.120861"><ele>2644.4</ele><time>2025-03-01T21:38:17Z</time></trkpt>
<trkpt lat="38.961107" lon="-120.120820"><ele>2641.6</ele><time>2025-03-01T21:38:18Z</time></trkpt>
<trkpt lat="38.961056" lon="-120.120733"><ele>2638.0</ele><time>2025-03-01T21:38:20Z</time></trkpt>
<trkpt lat="38.961040" lon="-120.120614"><ele>2631.0</ele><time>2025-03-01T21:38:22Z</time></trkpt>
<trkpt lat="38.960943" lon="-120.120550"><ele>2624.8</ele><time>2025-03-01T21:38:24Z</time></trkpt>
<trkpt lat="38.960943" lon="-120.120503"><ele>2619.0</ele><time>2025-03-01T21:38:25Z</time></trkpt>
<trkpt lat="38.960923" lon="-120.120432"><ele>2616.6</ele><time>2025-03-01T21:38:26Z</time></trkpt>
<trkpt lat="38.960845" lon="-120.120414"><ele>2612.2</ele><time>2025-03-01T21:38:28Z</time></trkpt>
<trkpt lat="38.960835" lon="-120.120426"><ele>2608.0</ele><time>2025-03-01T21:38:30Z</time></trkpt>
<trkpt lat="38.960879" lon="-120.120439"><ele>2604.0</ele><time>2025-03-01T21:38:42Z</time></trkpt>
<trkpt lat="38.960963" lon="-120.120212"><ele>2603.6</ele><time>2025-03-01T21:38:46Z</time></trkpt>
<trkpt lat="38.960922" lon="-120.120025"><ele>2597.8</ele><time>2025-03-01T21:38:49Z</time></trkpt>
<trkpt lat="38.960885" lon="-120.119921"><ele>2593.2</ele><time>2025-03-01T21:38:51Z</time></trkpt>
<trkpt lat="38.960785" lon="-120.119836"><ele>2583.8</ele><time>2025-03-01T21:38:54Z</time></trkpt>
<trkpt lat="38.960677" lon="-120.119769"><ele>2578.6</ele><time>2025-03-01T21:38:56Z</time></trkpt>
<trkpt lat="38.960645" lon="-120.119714"><ele>2575.8</ele><time>2025-03-01T21:38:57Z</time></trkpt>
<trkpt lat="38.960637" lon="-120.119601"><ele>2571.0</ele><time>2025-03-01T21:38:59Z</time></trkpt>
<trkpt lat="38.960626" lon="-120.119611"><ele>2555.4</ele><time>2025-03-01T21:39:13Z</time></trkpt>
<trkpt lat="38.960632" lon="-120.119459"><ele>2555.2</ele><time>2025-03-01T21:39:16Z</time></trkpt>
<trkpt lat="38.960784" lon="-120.119236"><ele>2552.4</ele><time>2025-03-01T21:39:19Z</time></trkpt>
<trkpt lat="38.960839" lon="-120.119054"><ele>2551.2</ele><time>2025-03-01T21:39:21Z</time></trkpt>
<trkpt lat="38.960674" lon="-120.118814"><ele>2540.2</ele><time>2025-03-01T21:39:25Z</time></trkpt>
<trkpt lat="38.960636" lon="-120.118726"><ele>2535.6</ele><time>2025-03-01T21:39:26Z</time></trkpt>
<trkpt lat="38.960621" lon="-120.118614"><ele>2534.0</ele><time>2025-03-01T21:39:27Z</time></trkpt>
<trkpt lat="38.960621" lon="-120.118621"><ele>2520.8</ele><time>2025-03-01T21:39:30Z</time></trkpt>
<trkpt lat="38.960616" lon="-120.118585"><ele>2518.2</ele><time>2025-03-01T21:39:33Z</time></trkpt>
<trkpt lat="38.960600" lon="-120.118514"><ele>2517.8</ele><time>2025-03-01T21:39:35Z</time></trkpt>
<trkpt lat="38.960621" lon="-120.118457"><ele>2514.6</ele><time>2025-03-01T21:39:39Z</time></trkpt>
<trkpt lat="38.960519" lon="-120.118369"><ele>2513.0</ele><time>2025-03-01T21:39:53Z</time></trkpt>
<trkpt lat="38.960491" lon="-120.118252"><ele>2509.8</ele><time>2025-03-01T21:39:55Z</time></trkpt>
<trkpt lat="38.960410" lon="-120.117852"><ele>2492.0</ele><time>2025-03-01T21:40:03Z</time></trkpt>
<trkpt lat="38.960317" lon="-120.117785"><ele>2485.6</ele><time>2025-03-01T21:40:06Z</time></trkpt>
<trkpt lat="38.960296" lon="-120.117611"><ele>2483.2</ele><time>2025-03-01T21:40:09Z</time></trkpt>
<trkpt lat="38.960256" lon="-120.117398"><ele>2473.2</ele><time>2025-03-01T21:40:12Z</time></trkpt>
<trkpt lat="38.960201" lon="-120.117330"><ele>2472.0</ele><time>2025-03-01T21:40:13Z</time></trkpt>
<trkpt lat="38.960081" lon="-120.117279"><ele>2464.2</ele><time>2025-03-01T21:40:17Z</time></trkpt>
<trkpt lat="38.960119" lon="-120.117305"><ele>2463.6</ele><time>2025-03-01T21:40:20Z</time></trkpt>
<trkpt lat="38.960131" lon="-120.117276"><ele>2463.2</ele><time>2025-03-01T21:40:22Z</time></trkpt>
<trkpt lat="38.960083" lon="-120.117154"><ele>2462.8</ele><time>2025-03-01T21:40:24Z</time></trkpt>
<trkpt lat="38.960079" lon="-120.117049"><ele>2460.0</ele><time>2025-03-01T21:40:26Z</time></trkpt>
<trkpt lat="38.959992" lon="-120.116928"><ele>2456.2</ele><time>2025-03-01T21:40:28Z</time></trkpt>
<trkpt lat="38.959967" lon="-120.116863"><ele>2451.4</ele><time>2025-03-01T21:40:29Z</time></trkpt>
<trkpt lat="38.959951" lon="-120.116678"><ele>2446.0</ele><time>2025-03-01T21:40:32Z</time></trkpt>
<trkpt lat="38.959995" lon="-120.116634"><ele>2439.8</ele><time>2025-03-01T21:40:34Z</time></trkpt>
<trkpt lat="38.960005" lon="-120.116636"><ele>2434.2</ele><time>2025-03-01T21:40:43Z</time></trkpt>
<trkpt lat="38.959919" lon="-120.116553"><ele>2433.8</ele><time>2025-03-01T21:40:46Z</time></trkpt>
<trkpt lat="38.959842" lon="-120.116541"><ele>2430.6</ele><time>2025-03-01T21:40:49Z</time></trkpt>
<trkpt lat="38.959698" lon="-120.116393"><ele>2428.4</ele><time>2025-03-01T21:41:03Z</time></trkpt>
<trkpt lat="38.959697" lon="-120.116278"><ele>2422.6</ele><time>2025-03-01T21:41:06Z</time></trkpt>
<trkpt lat="38.959661" lon="-120.116264"><ele>2418.0</ele><time>2025-03-01T21:41:08Z</time></trkpt>
<trkpt lat="38.959544" lon="-120.116235"><ele>2413.8</ele><time>2025-03-01T21:41:27Z</time></trkpt>
<trkpt lat="38.959508" lon="-120.116136"><ele>2413.4</ele><time>2025-03-01T21:41:32Z</time></trkpt>
<trkpt lat="38.959467" lon="-120.115972"><ele>2409.6</ele><time>2025-03-01T21:41:35Z</time></trkpt>
<trkpt lat="38.959478" lon="-120.115783"><ele>2401.0</ele><time>2025-03-01T21:41:38Z</time></trkpt>
<trkpt lat="38.959560" lon="-120.115718"><ele>2393.2</ele><time>2025-03-01T21:41:40Z</time></trkpt>
<trkpt lat="38.959686" lon="-120.115622"><ele>2389.2</ele><time>2025-03-01T21:41:43Z</time></trkpt>
<trkpt lat="38.959722" lon="-120.115548"><ele>2388.0</ele><time>2025-03-01T21:41:45Z</time></trkpt>
<trkpt lat="38.959729" lon="-120.115435"><ele>2387.2</ele><time>2025-03-01T21:41:47Z</time></trkpt>
<trkpt lat="38.959690" lon="-120.115437"><ele>2383.6</ele><time>2025-03-01T21:41:49Z</time></trkpt>
<trkpt lat="38.959692" lon="-120.115427"><ele>2380.4</ele><time>2025-03-01T21:42:14Z</time></trkpt>
<trkpt lat="38.959685" lon="-120.115400"><ele>2381.8</ele><time>2025-03-01T21:42:20Z</time></trkpt>
<trkpt lat="38.959700" lon="-120.115412"><ele>2379.8</ele><time>2025-03-01T21:42:40Z</time></trkpt>
<trkpt lat="38.959625" lon="-120.115345"><ele>2379.4</ele><time>2025-03-01T21:42:42Z</time></trkpt>
<trkpt lat="38.959593" lon="-120.115234"><ele>2378.0</ele><time>2025-03-01T21:42:44Z</time></trkpt>
<trkpt lat="38.959498" lon="-120.115050"><ele>2369.8</ele><time>2025-03-01T21:42:47Z</time></trkpt>
<trkpt lat="38.959495" lon="-120.114871"><ele>2364.0</ele><time>2025-03-01T21:42:49Z</time></trkpt>
<trkpt lat="38.959394" lon="-120.114784"><ele>2358.4</ele><time>2025-03-01T21:42:51Z</time></trkpt>
<trkpt lat="38.959322" lon="-120.114637"><ele>2350.4</ele><time>2025-03-01T21:42:54Z</time></trkpt>
<trkpt lat="38.959352" lon="-120.114567"><ele>2346.2</ele><time>2025-03-01T21:42:56Z</time></trkpt>
<trkpt lat="38.959339" lon="-120.114475"><ele>2342.0</ele><time>2025-03-01T21:42:58Z</time></trkpt>
<trkpt lat="38.959232" lon="-120.114333"><ele>2339.8</ele><time>2025-03-01T21:43:01Z</time></trkpt>
<trkpt lat="38.959213" lon="-120.114273"><ele>2335.2</ele><time>2025-03-01T21:43:02Z</time></trkpt>
<trkpt lat="38.959137" lon="-120.114146"><ele>2331.6</ele><time>2025-03-01T21:43:04Z</time></trkpt>
<trkpt lat="38.959013" lon="-120.113757"><ele>2317.4</ele><time>2025-03-01T21:43:10Z</time></trkpt>
<trkpt lat="38.958879" lon="-120.113502"><ele>2305.6</ele><time>2025-03-01T21:43:14Z</time></trkpt>
<trkpt lat="38.958805" lon="-120.113281"><ele>2298.6</ele><time>2025-03-01T21:43:17Z</time></trkpt>
<trkpt lat="38.958746" lon="-120.113171"><ele>2290.8</ele><time>2025-03-01T21:43:19Z</time></trkpt>
<trkpt lat="38.958746" lon="-120.113183"><ele>2279.2</ele><time>2025-03-01T21:44:28Z</time></trkpt>
<trkpt lat="38.958752" lon="-120.112983"><ele>2277.4</ele><time>2025-03-01T21:44:37Z</time></trkpt>
<trkpt lat="38.958833" lon="-120.112812"><ele>2270.2</ele><time>2025-03-01T21:44:41Z</time></trkpt>
<trkpt lat="38.958981" lon="-120.112627"><ele>2262.8</ele><time>2025-03-01T21:44:48Z</time></trkpt>
<trkpt lat="38.959153" lon="-120.112429"><ele>2259.0</ele><time>2025-03-01T21:44:54Z</time></trkpt>
<trkpt lat="38.959166" lon="-120.112372"><ele>2257.6</ele><time>2025-03-01T21:44:55Z</time></trkpt>
<trkpt lat="38.959118" lon="-120.112266"><ele>2257.0</ele><time>2025-03-01T21:44:57Z</time></trkpt>
<trkpt lat="38.959049" lon="-120.112193"><ele>2253.6</ele><time>2025-03-01T21:44:59Z</time></trkpt>
<trkpt lat="38.958994" lon="-120.111869"><ele>2242.8</ele><time>2025-03-01T21:45:06Z</time></trkpt>
<trkpt lat="38.959014" lon="-120.111792"><ele>2241.2</ele><time>2025-03-01T21:45:08Z</time></trkpt>
<trkpt lat="38.958928" lon="-120.111668"><ele>2236.6</ele><time>2025-03-01T21:45:12Z</time></trkpt>
<trkpt lat="38.958952" lon="-120.111626"><ele>2233.2</ele><time>2025-03-01T21:45:14Z</time></trkpt>
<trkpt lat="38.958986" lon="-120.111502"><ele>2232.2</ele><time>2025-03-01T21:45:17Z</time></trkpt>
<trkpt lat="38.959054" lon="-120.111450"><ele>2229.8</ele><time>2025-03-01T21:45:23Z</time></trkpt>
<trkpt lat="38.958993" lon="-120.111285"><ele>2227.6</ele><time>2025-03-01T21:45:27Z</time></trkpt>
<trkpt lat="38.958878" lon="-120.111141"><ele>2222.4</ele><time>2025-03-01T21:45:30Z</time></trkpt>
<trkpt lat="38.958851" lon="-120.111000"><ele>2221.0</ele><time>2025-03-01T21:45:32Z</time></trkpt>
<trkpt lat="38.958742" lon="-120.110861"><ele>2214.2</ele><time>2025-03-01T21:45:35Z</time></trkpt>
<trkpt lat="38.958669" lon="-120.110596"><ele>2207.4</ele><time>2025-03-01T21:45:40Z</time></trkpt>
<trkpt lat="38.958724" lon="-120.110479"><ele>2205.0</ele><time>2025-03-01T21:45:42Z</time></trkpt>
<trkpt lat="38.958707" lon="-120.110362"><ele>2202.2</ele><time>2025-03-01T21:45:44Z</time></trkpt>
<trkpt lat="38.958727" lon="-120.110275"><ele>2200.6</ele><time>2025-03-01T21:45:45Z</time></trkpt>
<trkpt lat="38.958865" lon="-120.110083"><ele>2192.0</ele><time>2025-03-01T21:45:49Z</time></trkpt>
<trkpt lat="38.958971" lon="-120.109824"><ele>2186.4</ele><time>2025-03-01T21:45:54Z</time></trkpt>
<trkpt lat="38.958984" lon="-120.109604"><ele>2182.2</ele><time>2025-03-01T21:45:58Z</time></trkpt>
<trkpt lat="38.958918" lon="-120.109293"><ele>2177.4</ele><time>2025-03-01T21:46:03Z</time></trkpt>
<trkpt lat="38.958950" lon="-120.109195"><ele>2173.6</ele><time>2025-03-01T21:46:06Z</time></trkpt>
<trkpt lat="38.958976" lon="-120.108856"><ele>2170.0</ele><time>2025-03-01T21:46:11Z</time></trkpt>
<trkpt lat="38.958967" lon="-120.108831"><ele>2166.6</ele><time>2025-03-01T21:46:13Z</time></trkpt>
<trkpt lat="38.958951" lon="-120.108857"><ele>2165.8</ele><time>2025-03-01T21:46:17Z</time></trkpt>
<trkpt lat="38.958894" lon="-120.108844"><ele>2165.6</ele><time>2025-03-01T21:46:34Z</time></trkpt>
<trkpt lat="38.958938" lon="-120.108856"><ele>2165.0</ele><time>2025-03-01T21:46:50Z</time></trkpt>
<trkpt lat="38.958976" lon="-120.108739"><ele>2163.4</ele><time>2025-03-01T21:47:02Z</time></trkpt>
<trkpt lat="38.958909" lon="-120.108656"><ele>2161.2</ele><time>2025-03-01T21:47:11Z</time></trkpt>
<trkpt lat="38.958909" lon="-120.108194"><ele>2156.2</ele><time>2025-03-01T21:47:24Z</time></trkpt>
<trkpt lat="38.958835" lon="-120.107850"><ele>2150.2</ele><time>2025-03-01T21:48:15Z</time></trkpt>
<trkpt lat="38.958856" lon="-120.107894"><ele>2149.0</ele><time>2025-03-01T21:48:51Z</time></trkpt>
<trkpt lat="38.958819" lon="-120.107869"><ele>2148.4</ele><time>2025-03-01T21:49:00Z</time></trkpt>
<trkpt lat="38.958859" lon="-120.107848"><ele>2147.4</ele><time>2025-03-01T21:49:22Z</time></trkpt>
<trkpt lat="38.958811" lon="-120.107888"><ele>2147.8</ele><time>2025-03-01T21:49:40Z</time></trkpt>
<trkpt lat="38.958817" lon="-120.107844"><ele>2146.8</ele><time>2025-03-01T21:50:14Z</time></trkpt>
<trkpt lat="38.958794" lon="-120.107854"><ele>2146.2</ele><time>2025-03-01T21:50:27Z</time></trkpt>
<trkpt lat="38.958807" lon="-120.107795"><ele>2146.6</ele><time>2025-03-01T21:50:56Z</time></trkpt>
<trkpt lat="38.958772" lon="-120.107831"><ele>2147.0</ele><time>2025-03-01T21:51:15Z</time></trkpt>
<trkpt lat="38.958821" lon="-120.107844"><ele>2147.2</ele><time>2025-03-01T21:51:50Z</time></trkpt>
<trkpt lat="38.958848" lon="-120.107801"><ele>2147.2</ele><time>2025-03-01T21:51:55Z</time></trkpt>
<trkpt lat="38.958814" lon="-120.107447"><ele>2145.4</ele><time>2025-03-01T21:52:32Z</time></trkpt>
<trkpt lat="38.958876" lon="-120.107319"><ele>2145.0</ele><time>2025-03-01T21:52:45Z</time></trkpt>
<trkpt lat="38.958950" lon="-120.106994"><ele>2143.2</ele><time>2025-03-01T21:52:52Z</time></trkpt>
<trkpt lat="38.959203" lon="-120.106351"><ele>2141.2</ele><time>2025-03-01T21:53:05Z</time></trkpt>
<trkpt lat="38.959279" lon="-120.106093"><ele>2141.6</ele><time>2025-03-01T21:53:13Z</time></trkpt>
<trkpt lat="38.959344" lon="-120.105925"><ele>2139.4</ele><time>2025-03-01T21:53:23Z</time></trkpt>
<trkpt lat="38.959333" lon="-120.105850"><ele>2137.6</ele><time>2025-03-01T21:53:42Z</time></trkpt>
<trkpt lat="38.959434" lon="-120.105613"><ele>2134.6</ele><time>2025-03-01T21:54:00Z</time></trkpt>
<trkpt lat="38.959559" lon="-120.105432"><ele>2132.2</ele><time>2025-03-01T21:54:05Z</time></trkpt>
<trkpt lat="38.959726" lon="-120.105326"><ele>2129.0</ele><time>2025-03-01T21:54:11Z</time></trkpt>
<trkpt lat="38.959861" lon="-120.105157"><ele>2127.0</ele><time>2025-03-01T21:54:16Z</time></trkpt>
<trkpt lat="38.960036" lon="-120.104863"><ele>2127.0</ele><time>2025-03-01T21:54:22Z</time></trkpt>
<trkpt lat="38.960112" lon="-120.104813"><ele>2128.4</ele><time>2025-03-01T21:54:31Z</time></trkpt>
<trkpt lat="38.960090" lon="-120.104816"><ele>2126.6</ele><time>2025-03-01T21:54:43Z</time></trkpt>
<trkpt lat="38.960252" lon="-120.104602"><ele>2124.4</ele><time>2025-03-01T21:55:08Z</time></trkpt>
<trkpt lat="38.960338" lon="-120.104445"><ele>2125.4</ele><time>2025-03-01T21:55:20Z</time></trkpt>
<trkpt lat="38.960676" lon="-120.104071"><ele>2128.8</ele><time>2025-03-01T21:55:37Z</time></trkpt>
<trkpt lat="38.960750" lon="-120.103862"><ele>2127.2</ele><time>2025-03-01T21:55:42Z</time></trkpt>
<trkpt lat="38.960754" lon="-120.103663"><ele>2123.8</ele><time>2025-03-01T21:55:46Z</time></trkpt>
<trkpt lat="38.960933" lon="-120.103205"><ele>2125.2</ele><time>2025-03-01T21:55:55Z</time></trkpt>
<trkpt lat="38.961024" lon="-120.103044"><ele>2123.2</ele><time>2025-03-01T21:55:58Z</time></trkpt>
<trkpt lat="38.961064" lon="-120.102970"><ele>2119.6</ele><time>2025-03-01T21:56:02Z</time></trkpt>
<trkpt lat="38.961064" lon="-120.102961"><ele>2115.2</ele><time>2025-03-01T21:56:15Z</time></trkpt>
<trkpt lat="38.961104" lon="-120.102898"><ele>2113.2</ele><time>2025-03-01T21:56:37Z</time></trkpt>
<trkpt lat="38.961060" lon="-120.102618"><ele>2109.2</ele><time>2025-03-01T21:57:02Z</time></trkpt>
<trkpt lat="38.961080" lon="-120.102519"><ele>2108.6</ele><time>2025-03-01T21:57:09Z</time></trkpt>
<trkpt lat="38.961158" lon="-120.102329"><ele>2109.2</ele><time>2025-03-01T21:57:28Z</time></trkpt>
<trkpt lat="38.961445" lon="-120.101866"><ele>2104.4</ele><time>2025-03-01T21:58:15Z</time></trkpt>
<trkpt lat="38.961492" lon="-120.101874"><ele>2102.6</ele><time>2025-03-01T21:58:40Z</time></trkpt>
<trkpt lat="38.961464" lon="-120.101872"><ele>2099.2</ele><time>2025-03-01T22:00:08Z</time></trkpt>
</trkseg></trk>
</gpx>
